BANK,IFSC,MICR,BRANCH,ADDRESS,CONTACT,CITY,DISTRICT,STATE
"CATHOLIC SYRIAN BANK LIMITED",CSBK0001000,NA,"CENTRALISED OPERATIONS HO","HEAD OFFICE, CSB BHAVAN, P O BOX NO 502,ST MARYS COLLEGE ROAD, THRISSUR",6619295,THRISSUR,THRISSUR,KERALA
"CATHOLIC SYRIAN BANK LIMITED",CSBK0000919,NA,CPC-ERNAKULAM,"CATHOLIC SYRIAN BANK, CPC SECTION, DJM BUILDING MARKET ROAD, ERNAKULAM, PIN 682011",6450341,ERNAKULAM,ERNAKULAM,KERALA
"CATHOLIC SYRIAN BANK LIMITED",CSBK0000745,NA,GANDHIPET,"GANDHIPET, TIRUPATHUR - 635 601, VELLORE DT., TAMILNADU",227695,TIRUPATTUR,VELLORE,"TAMIL NADU"
"CATHOLIC SYRIAN BANK LIMITED",CSBK0000443,WAITING,VELLATTANJUR,"GROUND FLOOR,MADASSERY KIZHAKUTE COMPLEX PULIYANOOR,VELLTTANJUR P O,THRISSUR 680601",9846980993,MUNDATHICODE,THRISSUR,KERALA
"CATHOLIC SYRIAN BANK LIMITED",CSBK0000442,NA,CHIRANELLUR,"KALLINGAL BUILDING,PANNITHADAM ROAD,CHIRANELLUR,PATTIKARA,THRISSUR DIST 680501",9605882290,KECHERY,THRISSUR,KERALA
"CATHOLIC SYRIAN BANK LIMITED",CSBK0000441,NA,KANJIRAKODE,"EBILIN VILLA,KUNNAMKULAM WADAKANCHERRY ROAD,KANJIRAKODE,THRISSUR DIST,680590",8589964964,WADAKANCHERRY,THRISSUR,KERALA
"CATHOLIC SYRIAN BANK LIMITED",CSBK0000440,NA,PANGARAPALLY,"GROUND FLOOR,VELUTHEDETHU VALAPPIL BUILDING,PANGARAPALLY,CHELAKARA,THRISSUR,680586",9895770002,CHELAKKARA,THRISSUR,KERALA
"CATHOLIC SYRIAN BANK LIMITED",CSBK0000439,NA,PAMPADY,"ALMAS PLAZA,TEMPLE ROAD,PAMPADY PO,THRISSUR DIST,680588",9847774427,THIRUVILWAMALA,THRISSUR,KERALA
"CATHOLIC SYRIAN BANK LIMITED",CSBK0000438,NA,CHELAKODE,"KARIKKAYIL BUILDING,CHELAKODE,THRISSUR DIST,PO,680587",8129916649,CHELAKKARA,THRISSUR,KERALA
"CATHOLIC SYRIAN BANK LIMITED",CSBK0000437,NA,KANIPAYYUR,"UNITY HOSPITAL JUNCTION,KUNNAMKULAM MAIN ROAD,KANIPAYUR,THRISSUR DIST 680517",9446182111,KUNNAMKULAM,THRISSUR,KERALA
"CATHOLIC SYRIAN BANK LIMITED",CSBK0000436,NA,MANAVALASSERY,"ENGOOR COMPLEX,IRINJALAKKUDA P.O,THEKKEKAVUPURA,MANAVALASSERRY,THRISSUR DIST 680121",8943940892,IRINJALAKUDA,THRISSUR,KERALA
"CATHOLIC SYRIAN BANK LIMITED",CSBK0000435,NA,EDAKKALATHUR,"CO TOWERS,SIVANADA PO,PONNORE,PARAPPUR MAIN ROAD,EDAKKALATHUR,THRISSUR DIST 680552",9747285566,PARAPPUR,THRISSUR,KERALA
"CATHOLIC SYRIAN BANK LIMITED",CSBK0000434,NA,KONDAZHY,"AMBADY COMPLEX,VIA MAYANNUR,SOUTH KONDAZHY P O,PIN 679106",286677,MAYANNUR,THRISSUR,KERALA
"CATHOLIC SYRIAN BANK LIMITED",CSBK0000433,NA,THIRUMUKKULAM,"CHEEYEDATH BUILDING,MUKUNDAPURAM TALUK,THIRUMUKKULAM,THRISSUR DIST 680734",9496166994,MALA,THRISSUR,KERALA
"CATHOLIC SYRIAN BANK LIMITED",CSBK0000432,NA,ANNAKARA,"PALLATHU COMPLEX,MULLASSERY PANCHAYATH,ANNAKARA VILLAGE,PERUVALLUR P.O 680568",9744862055,PARAPPUR,THRISSUR,KERALA
"CATHOLIC SYRIAN BANK LIMITED",CSBK0000431,NA,VELLANIKKARA,"GROUND FLOOR,VADAKKOOT COMPLEX,SOCIETY JN,MADAKATHARA P.O VELLANIKKARA 680651",9895662245,MADAKKATHARA,THRISSUR,KERALA
"CATHOLIC SYRIAN BANK LIMITED",CSBK0000430,NA,KIZHUPPILLIKARA,"NATTUUVETTY BUILDING,MAIN ROAD KIZHUPILLIKARA PIN 680704",9495636884,TRIPRAYAR,THRISSUR,KERALA
"CATHOLIC SYRIAN BANK LIMITED",CSBK0000429,NA,KARUMATHRA,"GROUND FLOOR,NEENDUSSERY RAJU BROTHERS BUILDING,KARUMATHRA,PIN 680589",9048755854,WADAKANCHERRY,THRISSUR,KERALA
"CATHOLIC SYRIAN BANK LIMITED",CSBK0000428,NA,PORKULAM,"MADAPPATTUPARAMBIL COMPLEX,PORKULAM CENTRE,PAZHANJI ROAD,PORKULAM,PIN 680542",9447279614,KUNNAMKULAM,THRISSUR,KERALA
"CATHOLIC SYRIAN BANK LIMITED",CSBK0000427,NA,NANDHIPULAM,"MUPLIAM ROAD,NANDHIPULAM JN,PIN 680312",9495310591,PUDUCAD,THRISSUR,KERALA
"CATHOLIC SYRIAN BANK LIMITED",CSBK0000426,NA,PALLIPURAM,"NEAR ST ANTONY S CHURCH,MALA KODUNGALLOOR ROAD,PIN 680732",2694743,MALA,THRISSUR,KERALA
"CATHOLIC SYRIAN BANK LIMITED",CSBK0000425,NA,ATTUR,"SABARI KRISHNA MANDAPAM,PLAVINCHOD BUS STOP,ATTUR MAIN ROAD,ATTUR,PIN 680583",272223,MULLURKKARA,THRISSUR,KERALA
"CATHOLIC SYRIAN BANK LIMITED",CSBK0000424,NA,ANJUR,"ANJUR ROAD,CHITTANJUR POST,NEAR PARKADI TEMPLE,PIN 680523",9446229095,KUNNAMKULAM,THRISSUR,KERALA
"CATHOLIC SYRIAN BANK LIMITED",CSBK0000423,NA,KADANGODE,"KOONAGHAPARAMBIL BUILDINGS,ERUMAPATTY,THALAPPILLY THALUK,PIN 680584",7559856353,WADAKANCHERRY,THRISSUR,KERALA
"CATHOLIC SYRIAN BANK LIMITED",CSBK0000422,NA,MADATHUMPADY,"GROUND FLOOR,ST.AUGUSTINE CHURCH BUILDING,MADATHUMPADY P O,POYYA,PIN 680733",9446211954,KUZHUR,THRISSUR,KERALA
"CATHOLIC SYRIAN BANK LIMITED",CSBK0000421,NA,KOLENGATTUKARA,"ST.MARY S CHURCH COMPLEX,KOLANGATTUKARA,CHOOLISSERY P O,THRISSUR DIST,PIN 680 541",9446937572,THRISSUR,THRISSUR,KERALA
"CATHOLIC SYRIAN BANK LIMITED",CSBK0000420,NA,NELLUVAYA,"DOHA COMPLEX,PATTAMBI ROAD,NELLUVAYA,THALAPPILLY THALUK,PIN 680584",262427,WADAKANCHERRY,THRISSUR,KERALA
"CATHOLIC SYRIAN BANK LIMITED",CSBK0000419,NA,PADIYUR,"GR. FLOOR, R R COMPLEX, VALAVANANGADI, PADIYUR, THRISSUR-680688",8893741770,ARIPALAM,THRISSUR,KERALA
"CATHOLIC SYRIAN BANK LIMITED",CSBK0000418,NA,ELENJIPRA,"ELENJIPRA-CHOWKA ROAD, PARIYARAM PO, CHALAKUDY-680721",9745162411,CHALAKUDY,THRISSUR,KERALA
"CATHOLIC SYRIAN BANK LIMITED",CSBK0000417,NA,PERINGANDOOR,"FIRST FLOOR, NILA BUILDING ,NEAR ESI HOSPITAL ,PERINGANDOOR PO, THRISSUR-680581",9446997944,"MINALUR (ATHANI)",THRISSUR,KERALA
"CATHOLIC SYRIAN BANK LIMITED",CSBK0000416,NA,KIZHAKUMURI,"JANAKI COMPLEX, KIZHAKKUMURI,PERINGOTTUKARA,THRISSUR-680571",9495169752,TRIPRAYAR,THRISSUR,KERALA
"CATHOLIC SYRIAN BANK LIMITED",CSBK0000415,NA,PAINKULAM,"FIRST FLOOR, SREE KRISHNA COMPLEX, THOZHUPADAM ROAD,PAINKULAM,PIN- 679 531,THRISSUR",9605882296,CHELAKKARA,THRISSUR,KERALA
"CATHOLIC SYRIAN BANK LIMITED",CSBK0000414,NA,MULAYAM,"GR. FLOOR, PLACKAL COMPLEX, MULAYAM, PIN 680751",9249975368,PATTIKAD,THRISSUR,KERALA
"CATHOLIC SYRIAN BANK LIMITED",CSBK0000413,NA,VELAPPAYA,"OPP. ST. MARY'S CHURCH, MEDICAL COLLEGE ROAD,VELAPAYA,THRISSUR-680596",2203446,AVANUR,THRISSUR,KERALA
"CATHOLIC SYRIAN BANK LIMITED",CSBK0000412,NA,VENGINISSERY,"GROUND FLOOR, SASTHA BUILDING, VENGINISSERY, THRISSUR-680563",9497249682,AMMADAM,THRISSUR,KERALA
"CATHOLIC SYRIAN BANK LIMITED",CSBK0000411,NA,CHAZHOOR,"GR. FLOOR, SASTA COMPLEX, PO CHAZHOOR-680571",9447832660,TRIPRAYAR,THRISSUR,KERALA
"CATHOLIC SYRIAN BANK LIMITED",CSBK0000410,NA,PARLIKAD,"GR. FLOOR ,AISHWARYA BUILDING ,PARLIKAD,WADAKKANCHERRY,THRISSUR-680623",9446481709,WADAKANCHERRY,THRISSUR,KERALA
"CATHOLIC SYRIAN BANK LIMITED",CSBK0000409,NA,PUTHURUTHY,"ST. PIUS XTH CHURCH BUILDING, PUTHURUTHI VIA WADAKKANCHERRY-680623",9446761819,WADAKANCHERRY,THRISSUR,KERALA
"CATHOLIC SYRIAN BANK LIMITED",CSBK0000408,444047002,AKOLA,"PLOT NO 31/4B,HOLY CROSS CONVENT ROAD,OPP:KHANDELWAL MARUTI SHOW ROOM,AKOLA-444001, MAHARASHTRA",6061111,AKOLA,AHMADNAGAR,MAHARASHTRA
"CATHOLIC SYRIAN BANK LIMITED",CSBK0000407,NA,WALAJAPET,"GROUND FLOOR, PLOT NO-C-6, C-12 PART , BLOCK NO-1, WARD NO-2, T.N.H.B, WALAJAPET-632513, VELLORE DISTRICT, TAMIL NADU",232322,WALAJAPET,VELLORE,"TAMIL NADU"
"CATHOLIC SYRIAN BANK LIMITED",CSBK0000406,NA,NANJANGUD,"20TH CROSS, R.P. ROAD, NANJANGUD, MYSORE DIST KARNATAKA",226313,NANJANGUD,MYSORE,KARNATAKA
"CATHOLIC SYRIAN BANK LIMITED",CSBK0000405,415047051,RATNAGIRI,"SHOP NO 1,2,3; GROUND FLOOR,HOTEL VYANKATESH EXECUTIVE,KOLHAPUR ROAD,MARUTI MANDIR CIRCLE,RATNAGIRI- 415612",606929,RATNAGIRI,RATNAGIRI,MAHARASHTRA
"CATHOLIC SYRIAN BANK LIMITED",CSBK0000404,NA,UJJAIN,"GROUND FLOOR, 37, AMAR SINGH MARG, FREEGANJ, UJJAIN 456010, MADHYA PRADESH",6052404,UJJAIN,UJJAIN,"MADHYA PRADESH"
"CATHOLIC SYRIAN BANK LIMITED",CSBK0000403,NA,UDAIPUR,"PLOT NO. 158, ASHWANI BAZAR, NEAR DELHI GATE, UDAIPUR 313001",2411689,UDAIPUR,UDAIPUR,RAJASTHAN
"CATHOLIC SYRIAN BANK LIMITED",CSBK0000402,NA,BHIWADI,"SPL-1-L,PHASE 1,INDUSTRIAL AREA,BHIWADI,DISTT-ALWAR,RAJASTHAN-301019",3220058,BHIWADI,ALWAR,RAJASTHAN
"CATHOLIC SYRIAN BANK LIMITED",CSBK0000401,NA,KUTTIPURAM,"DEIRA TOWER, NH 17 JUNCTION,  KUTTIPPURAM-679571",2606111,KUTTIPURAM,MALAPPURAM,KERALA
"CATHOLIC SYRIAN BANK LIMITED",CSBK0000400,679047102,NILAMBUR,"2/640-G, JANATHAPADI, CNG ROAD , NILAMBUR -679329.",220606,NILAMBUR,MALAPPURAM,KERALA
"CATHOLIC SYRIAN BANK LIMITED",CSBK0000399,NA,AMRAVATI,"GROUND FLOOR, GULSHAN PLAZA, BADNERA ROAD, RAJAPET, AMARAVATI-444601",6005115,AMRAVATI,AMRAVATI,MAHARASHTRA
"CATHOLIC SYRIAN BANK LIMITED",CSBK0000398,NA,SRIPERUMBUDUR,"29 & 29A, THERADI STREET,SRIPERUMBUDUR, KANCHEEPURAM DISTRICT-602105",27162511,SRIPERUMBUDUR,KANCHEEPURAM,"TAMIL NADU"
"CATHOLIC SYRIAN BANK LIMITED",CSBK0000397,396047112,AMLI,"GROUND FLOOR, RIDDHI APTS., NEAR HANUMAN MANDIR,  66 KVA ROAD, AMILI, SILVASSA 396230, (U T OF D & NH).",2640223,AMLI,"DADRA&NAGAR HAVELI","DADRA AND NAGAR HAVELI"
"CATHOLIC SYRIAN BANK LIMITED",CSBK0000396,NA,BHAVNAGAR,"GROUND FLOOR, KRISHNA  DARSHAN, PARIMAL  CHOWK, WAGHAWADI  ROAD, BHAVNAGAR, GUJARAT-364001",2425911,BHAVNAGAR,BHAVNAGAR,GUJARAT
"CATHOLIC SYRIAN BANK LIMITED",CSBK0000395,416047002,KOLHAPUR,"514/1 /D ,  NEAR CBS ,STATION ROAD, KOLHAPUR 416 001",6067929,KOLHAPUR,KOLHAPUR,MAHARASHTRA
"CATHOLIC SYRIAN BANK LIMITED",CSBK0000394,364047001,SARAVANAMPATTI,"SATHY ROAD, POOTHOTTAM NAGAR, SARAVANAMPATTI, COIMBATORE DISTRICT - 641035",2667277,COIMBATORE,COIMBATORE,"TAMIL NADU"
"CATHOLIC SYRIAN BANK LIMITED",CSBK0000393,NA,ANNUR,"OPP.MAHARISH MAHAL,AVINASHI ROAD,ANNUR,COIMBATORE DISTRICT-641653",263922,ANNUR,COIMBATORE,"TAMIL NADU"
"CATHOLIC SYRIAN BANK LIMITED",CSBK0000392,173047002,SOLAN,"GROUND FLOOR, DANG COMPLEX, NEAR D C OFFICE, RAJGARH ROAD, SOLAN, HIMACHAL PRADESH 173212.",220968,SOLAN,SOLAN,"HIMACHAL PRADESH"
"CATHOLIC SYRIAN BANK LIMITED",CSBK0000391,NA,SILVASA,"GROUND FLOOR, HOTEL PLAZA BUILDING, VAPI-SILVASSA MAIN ROAD,SILVASSA-396230",9228463310,SILVASA,"DADRA&NAGAR HAVELI","DADRA AND NAGAR HAVELI"
"CATHOLIC SYRIAN BANK LIMITED",CSBK0000390,396047031,VAPI,"GROUND FLOOR,ORBIT,MAHALAKSHMI SOCIETY,VAPI-DAMAN ROAD,CHALA,VAPI,GUJARAT-396191",9228589724,VAPI,VALSAD,GUJARAT
"CATHOLIC SYRIAN BANK LIMITED",CSBK0000389,400047022,BHAYANDER,"SHOP 7-8, ARIHANT DARSHAN,90 FT ROAD, NEAR FLYOVER BRIDGE, BHAYANDER WEST, THANE-401101",28164452,MIRA-BHAYANDAR,THANE,MAHARASHTRA
"CATHOLIC SYRIAN BANK LIMITED",CSBK0000388,400047021,VIRAR,"GROUND FLOOR, GOKUL PLAZA, OPP MULJIBHAI MEHTA INTERNATIONAL SCHOOL GOKUL TOWNSHIP,VIRAR WEST THANE 401303",2519924,VIRAR,THANE,MAHARASHTRA
"CATHOLIC SYRIAN BANK LIMITED",CSBK0000387,673047402,KONDOTTY,"GROUND FLOOR, TOWER 17,BYE PASS ROAD KONDOTTY",9287200731,KONDOTTY,KUNDOTTY,KERALA
"CATHOLIC SYRIAN BANK LIMITED",CSBK0000386,282047002,AGRA,"SHREE TALKIES COMPOUND, NH-2,AGRA-282002",9219400908,AGRA,AGRA,"UTTAR PRADESH"
"CATHOLIC SYRIAN BANK LIMITED",CSBK0000385,NA,KAMAN,"SURAJ BHAG COLONY, JURHARA ROAD, KAMAN  BHARTPUR-321022, RAJASTHAN",9251504647,KAMAN,BHARTPUR,RAJASTHAN
"CATHOLIC SYRIAN BANK LIMITED",CSBK0000384,NA,"KOSI KALAN","DOOR NO 4273,BALDEV GANJ,KOSI KALAN, MATHURA DT UTTAR PRADESH - 281 403",9219400904,"KOSI KALAN",MATHURA,"UTTAR PRADESH"
"CATHOLIC SYRIAN BANK LIMITED",CSBK0000383,110047009,GHAZIABAD,"R D C 21 & 22,GROUND FLOOR, ADVOCATE CHAMBERS,RAJ NAGAR, GHAZIABAD, UTTER PRADESH-201002",9213020003,GHAZIABAD,GHAZIABAD,"UTTAR PRADESH"
"CATHOLIC SYRIAN BANK LIMITED",CSBK0000382,NA,NAMAKKAL,"782 A/1, RSR COMPLEX, SALEM MAIN ROAD, NAMAKKAL",9244903191,NAMAKKAL,NAMAKKAL,"TAMIL NADU"
"CATHOLIC SYRIAN BANK LIMITED",CSBK0000381,676047102,KOTTAKKAL,"SMART TRADE CITY,NEAR BUS STAND, KOTTAKKAL,676503",9287201775,KOTTAKKAL,MALAPPURAM,KERALA
"CATHOLIC SYRIAN BANK LIMITED",CSBK0000380,676047252,VALANCHERY,"BUILDING NO III/747, MOOCHIKKAL , VALANCHERY 676552, MALAPPURAM DT",9287201773,VALANCHERY,MALAPPURAM,KERALA
"CATHOLIC SYRIAN BANK LIMITED",CSBK0000379,NA,PALLADAM,"365,TRICHY ROAD,NEAR DSP OFFICE,PALLADAM-641664",9244900386,PALLADAM,TIRUPUR,"TAMIL NADU"
"CATHOLIC SYRIAN BANK LIMITED",CSBK0000378,NA,PERIANAICKENPALAYAM,"23/A HARIPRIYA COMPLEX,LMW PIRIVU,PERIANAIKENPALAYAM,641020",9244900381,PERIYANAICKANPALAYAM,COIMBATORE,"TAMIL NADU"
"CATHOLIC SYRIAN BANK LIMITED",CSBK0000377,629047102,MARTHANDAM,"1-14,A5.S VMALL,PAMMAM MARTHANDAM 629165,KANYAKUMARI DISTRICT,TAMILNADU",9244900393,KANYAKUMARI,KANYAKUMARI,"TAMIL NADU"
"CATHOLIC SYRIAN BANK LIMITED",CSBK0000376,682047002,"ALTERNATE CHANNELS","D.J.M BUILDING, MARKET ROAD,COCHI,682011",6451649,KOCHI,ERNAKULAM,KERALA
"CATHOLIC SYRIAN BANK LIMITED",CSBK0000375,NA,VOSTRO,"D.J.M BUILDING, MARKET ROAD,COCHI,682011",2380441,KOCHI,ERNAKULAM,KERALA
"CATHOLIC SYRIAN BANK LIMITED",CSBK0000371,NA,JAMNAGAR,"SHIV' P N MARG OPP.DHANAVANTRY, UNIVERSITY OF AYURVEDA JAM NAGAR 361 008  GUJARAT",6451333,JAMNAGAR,JAMNAGAR,GUJARAT
"CATHOLIC SYRIAN BANK LIMITED",CSBK0000370,NA,SATARA,"VIJAY MILLENEIUM, SADAR BAZAR, NEAR ZILLA PARISHAD, VISAVA NAKA, SATARA, MAHARASHTRA 415001",649636,SATARA,SATARA,MAHARASHTRA
"CATHOLIC SYRIAN BANK LIMITED",CSBK0000369,NA,KUKATPALLY,"5-222 VIVEKANANDA NAGAR COLONY KUKATPALLY HYDERABAD 500 072",23162777,KUKATPALLY,"RANGA REDDY","ANDHRA PRADESH"
"CATHOLIC SYRIAN BANK LIMITED",CSBK0000368,NA,CUDDALORE,"A.V.R.TOWERS,II FLOOR, NO.4,BHARATHI ROAD, CUDDALORE-607001",644634,CUDDALORE,CUDDALORE,"TAMIL NADU"
"CATHOLIC SYRIAN BANK LIMITED",CSBK0000367,NA,KUMBAKONAM,"32, NAGESWARAN KOIL SANNATHI STREET KUMBAKONAM 612 001",6451205,KUMBAKONAM,THANJAVUR,"TAMIL NADU"
"CATHOLIC SYRIAN BANK LIMITED",CSBK0000366,560047011,DEVANAHALLI,"NEAR OLD BUS STAND, B B ROAD, DEVANAHALLI TOWN - 562110",9243603645,DEVANAHALLI,"BANGALORE RURAL",KARNATAKA
"CATHOLIC SYRIAN BANK LIMITED",CSBK0000365,NA,KANAKAPURA,"KALYANI COMPLEX 2ND CROSS, B K ROAD KANAKAPURA 562 117  KARNATAKA",645710,KANAKAPURA,"BANGALORE RURAL",KARNATAKA
"CATHOLIC SYRIAN BANK LIMITED",CSBK0000364,700047004,"SALT LAKE KOLKATTA","NO.BF/25, SALT LAKE CITY SECTOR-1 KOLKATA 700 064",64512084,KOLKATA,KOLKATA,"WEST BENGAL"
"CATHOLIC SYRIAN BANK LIMITED",CSBK0000363,NA,BOMMASANDRA,"KIADB BUILDING BOMMASANDRA INDUSTRIAL AREA COMPLEX HOSUR ROAD,BANGALORE 560 099",27836066,BOMMASANDRA,"BANGALORE URBAN",KARNATAKA
"CATHOLIC SYRIAN BANK LIMITED",CSBK0000362,NA,AVADI,"NO.65 NEHRU BAZAR OLD MARKET AVADI, CHENNAI",26555335,AVADI,TIRUVALLUR,"TAMIL NADU"
"CATHOLIC SYRIAN BANK LIMITED",CSBK0000361,530047002,VISAKHAPATNAM,"RATNASRI  NEAR DIAMOND PARK, SAVKARAMATTOM ROAD, DWARAKA NAGAR, VISAKHAPATNAM 530 016",6451812,VISAKHAPATNAM,VISHAKAPATNAM,"ANDHRA PRADESH"
"CATHOLIC SYRIAN BANK LIMITED",CSBK0000360,431047003,AURANGABAD,"OBEROI CHANMBERS, NEAR HOTEL AMAR PREET, JALNA ROAD, AURANGABAD, MAHARASHTRA - 431 001",6450241,AURANGABAD,AURANGABAD,MAHARASHTRA
"CATHOLIC SYRIAN BANK LIMITED",CSBK0000359,NA,PHAGWARA,"MILAP TOWERS, G T ROAD PHAGWARA 144 401 PUNJAB",645902,PHAGWARA,KAPURTHALA,PUNJAB
"CATHOLIC SYRIAN BANK LIMITED",CSBK0000358,NA,HOSUR,"164, CITY SQUARE KRISHNAGIRI BYE PASS ROAD HOSUR 635 109, KRISHNAGIRI DT. T.NADU",645001,HOSUR,KRISHNAGIRI,"TAMIL NADU"
"CATHOLIC SYRIAN BANK LIMITED",CSBK0000357,422047002,NASIK,"SHOP NO 9,10,11, CANADA CORNER, RUSHIRAJ AVENUE, SHARANPUR TIMBAK LINK ROAD, NASIK 422002, MAHARASHTRA",6452265,NASHIK,NASHIK,MAHARASHTRA
"CATHOLIC SYRIAN BANK LIMITED",CSBK0000356,NA,HOSKOTE,"K R EXTENSION NO.10321 HOSKOTE BANGALORE 562 114 KARNATAKA",27905328,HOSKOTE,"BANGALORE RURAL",KARNATAKA
"CATHOLIC SYRIAN BANK LIMITED",CSBK0000355,NA,EDAPPAL,"C K TOWER NEAR BLOCK DEV.OFFICE PATTAMBI ROAD EDAPPAL 679 576 MALAPPURAM DT KERALA",6451820,EDAPPAL,MALAPURAM,KERALA
"CATHOLIC SYRIAN BANK LIMITED",CSBK0000354,NA,PONNANI,"BALAKRISHNA BUILDING, OPP VIJAYAMATHA CONVENT MAIN ROAD, PONNANI 679577",6451822,PONNANI,MALAPURAM,KERALA
"CATHOLIC SYRIAN BANK LIMITED",CSBK0000353,NA,ATTINGAL,"473/XII PRASAD HOTEL COMPLEX N H 47-NEAR KACHERY JUNCTION-ATTINGAL",6452191,ATTINGAL,TRIVANDRUM,KERALA
"CATHOLIC SYRIAN BANK LIMITED",CSBK0000352,NA,CHIRAKKADAVU,"DOOR NO. 260/A, VETTICATTU BUILDINGS, MANNAMPLAVU JUNCTION, CHIRAKKADAVU, KOTTAYAM-686 520, KERALA",645006,CHIRAKKADAVU,KOTTAYAM,KERALA
"CATHOLIC SYRIAN BANK LIMITED",CSBK0000351,NA,PAYANKULAM,"SACRED HEART HOSPITAL, PAYANKULAM, THODUPUZHA-685 584 IDUKKI DT., KERALA.",2200857,THODUPUZHA,IDUKKI,KERALA
"CATHOLIC SYRIAN BANK LIMITED",CSBK0000350,NA,PULLUVAZHI,"ST.THOMAS CHURCH PREMISES, PULLUVAZHI, M.C ROAD, PERUMBAVOOR P.O., ERNAKULAM - 683 541, KERALA.",6451607,PERUMBAVOOR,ERNAKULAM,KERALA
"CATHOLIC SYRIAN BANK LIMITED",CSBK0000349,NA,MURINGOOR,"DIVINE RETREAT CENTRE, MURINGOOR, CHALAKUDY - 680 316 TRICHUR DT., KERALA.",6450104,MURINGUR,TRISSUR,KERALA
"CATHOLIC SYRIAN BANK LIMITED",CSBK0000348,682047022,TRIKKAKARA,"BHARAT MATHA COLLEGE, TRIKKAKARA, KOCHI - 682021",6451632,THRIKKAKARA,ERNAKULAM,KERALA
"CATHOLIC SYRIAN BANK LIMITED",CSBK0000347,400047017,"ULHAS NAGAR MUMBAI","HOLY FAMILY CONVENT HS, LAL CHAKKI, ULHAS NAGAR, MUMBAI - 421004",6480171,ULHASNAGAR,THANE,MAHARASHTRA
"CATHOLIC SYRIAN BANK LIMITED",CSBK0000346,400047020,DOMBIVLI,"ST.THERESE CONVENT SCHOOL, PANDIT DINDAYAL ROAD, DOMBIVILI WEST, MUMBAI - 421202",6450232,DOMBIVLI,THANE,MAHARASHTRA
"CATHOLIC SYRIAN BANK LIMITED",CSBK0000345,NA,KARANCHIRA,"BISHOP ALAPATT MISSION HOSPITAL, KARANCHIRA, P.O.KATTOOR - 680 702. TRICHUR DT., KERALA.",9287271939,IRINJALAKUDA,TRISSUR,KERALA
"CATHOLIC SYRIAN BANK LIMITED",CSBK0000344,NA,THUMPAMON,"ST.MARYS ORTHODOX CATHEDRAL CHURCH THUMPAMON, VIA PANDALAM, PATHANAMTHITTA-689 502, KERALA",9287271930,PATHANAMTHITTA,PATHANAMTHITTA,KERALA
"CATHOLIC SYRIAN BANK LIMITED",CSBK0000343,NA,KUZHIKATTUSSERY,"MARIA THRESA HOSPITAL KUZHIKATTUSSERY, TRICHUR PIN-680 696, KERALA",6450110,MALA,TRISSUR,KERALA
"CATHOLIC SYRIAN BANK LIMITED",CSBK0000342,NA,MALAPARAMBA,"PROVIDENCE WOMENS COLLEGE, CARMEL HILL, P.O MALAPARAMBA, KOZHIKODE - 673009",6451606,CALICUT,KOZHIKODE,KERALA
"CATHOLIC SYRIAN BANK LIMITED",CSBK0000341,NA,KUDASSANAD,"N.S.S. HIGH SCHOOL, KUDASSANAD- 689 512 ALLEPPEY DT., KERALA.",9287271990,ALAPPUZHA,ALAPUZZHA,KERALA
"CATHOLIC SYRIAN BANK LIMITED",CSBK0000340,400047018,NERUL,"ST.THOMAS JACOBITE SYRIAN ORTHADOX CHURCH BLDG., NEAR ST.XAVIER'S SCHOOL, SECTOR-3, PLOT NO.10, NERUL, NAVI MUMBAI - 400 706",64502173,"NEW MUMBAI",THANE,MAHARASHTRA
"CATHOLIC SYRIAN BANK LIMITED",CSBK0000339,400047016,"ANDHERI EAST","INSTITUTE OF INDIAN CULTURE, OPP.CANOSSA HIGH SCHOOL, MAHAKALI CAVES ROAD, ANDHERI EAST, MUMBAI 400093",28268394,MUMBAI,"GREATER MUMBAI",MAHARASHTRA
"CATHOLIC SYRIAN BANK LIMITED",CSBK0000338,NA,CHOONDAL,"ST.JOSEPH'S HOSPITAL BUILDING, CHOONDL P.O., TRICHUR. PIN - 680502, KERALA",645008,CHOONDAL,TRISSUR,KERALA
"CATHOLIC SYRIAN BANK LIMITED",CSBK0000337,560047008,"DAVIS ROAD BANGALORE","THE CATHOLIC SYRIAN BANK LTD,NO 3/1,CLARKE ROAD,RICHARDS TOWN FRAZER TOWN P O,BANGALORE 560005",64502597,BANGALORE,"BANGALORE URBAN",KARNATAKA
"CATHOLIC SYRIAN BANK LIMITED",CSBK0000336,600047013,PERAVALLUR,"CATHOLIC SYRIAN BANK, PERAVALLUR, CHENNAI.",64546558,CHENNAI,CHENNAI,"TAMIL NADU"
"CATHOLIC SYRIAN BANK LIMITED",CSBK0000335,NA,Mallad,"Nalakath Shopping Complex, Mallad, Perakom PO, Thrissur-680506",6451638,KOTTAPADI,TRISSUR,KERALA
"CATHOLIC SYRIAN BANK LIMITED",CSBK0000334,695047013,"TRIVANDRUM, STATUE ROAD","ST. JOSEPHS HIGH SCHOOL, ARCHANA BLDG, STATUE, GH ROAD, THRIUVANANTHAPURAM - 695001",6451608,THIRUVANANTHAPURAM,TRIVANDRUM,KERALA
"CATHOLIC SYRIAN BANK LIMITED",CSBK0000333,400047015,BANDRA,"SOCIETY OF DIVINE WORD, 510, SVD HOUSE, OPP. NATIONAL COLLEGE, BANDRA WEST.",64502161,MUMBAI,"GREATER MUMBAI",MAHARASHTRA
"CATHOLIC SYRIAN BANK LIMITED",CSBK0000332,NA,CHENGAROOR,"ST.GEORGE CATHOLIC CHURCH SHOPPING COMPX CHENGAROOR -689 594 PATHANAMTHITTA DT., KERALA",9287271973,PATHANAMTHITTA,PATHANAMTHITTA,KERALA
"CATHOLIC SYRIAN BANK LIMITED",CSBK0000331,400047014,BORIVLI,"ST.FRANCIS ITI, MOUNT POINSUR, BORIVILI WEST, MUMBAI - 400103",28948555,MUMBAI,"GREATER MUMBAI",MAHARASHTRA
"CATHOLIC SYRIAN BANK LIMITED",CSBK0000330,560047007,DHARMARAM,"DHARMARAM COLLEGE PO., CHRIST SCHOOL ROAD, BANGALORE - 560029",65766342,BANGALORE,"BANGALORE URBAN",KARNATAKA
"CATHOLIC SYRIAN BANK LIMITED",CSBK0000329,695047007,NALANCHIRA,"SARVODAYA VIDYALAYA, NALANCHIRA, THIRUVANANTHAPURAM - 695015",6451609,NALANCHIRA,TRIVANDRUM,KERALA
"CATHOLIC SYRIAN BANK LIMITED",CSBK0000328,680047015,PARAVATTANI,"ST. ANTONY'S SHOPPING COMPLEX, PARAVATTANI - 680005, THRISSUR DISTRICT",6451632,THICHUR,TRISSUR,KERALA
"CATHOLIC SYRIAN BANK LIMITED",CSBK0000327,NA,VYLATHUR,"VIII/538 B, CHRISTY COMPLEX VYLATHUR, NHAMANANGAD P O TRICHUR - 679 563, KERALA",6453227,VYLATHUR,TRISSUR,KERALA
"CATHOLIC SYRIAN BANK LIMITED",CSBK0000326,680047017,KANATTUKARA,"SREE KERALA VARMA COLLEGE, KANATTUKARA, THRISSUR - 680011",6451631,THRISSUR,TRISSUR,KERALA
"CATHOLIC SYRIAN BANK LIMITED",CSBK0000325,NA,PARAPPUKKARA,"ST.JOHNS FORANE CHURCH PARAPPUKKARA - 680 310 TRICHUR DT., KERALA",6450113,AMBALLUR,TRISSUR,KERALA
"CATHOLIC SYRIAN BANK LIMITED",CSBK0000324,NA,PARAPPUR,"ST.JOHNS FORANE CHURCH PREMISES, PARAPPUR P.O., MUTHUVARA TRICHUR -680 552. KERALA.",2285415,PARAPPUR,TRISSUR,KERALA
"CATHOLIC SYRIAN BANK LIMITED",CSBK0000323,680047016,KOTTEKAD,"ST. MARY'S ASSUMPTION CHURCH CHURCH SHOPPING COMPLEX, KOTTEKAD - 680013, THRISSUR DISTRICT",6451637,KOTTEKKAD,TRISSUR,KERALA
"CATHOLIC SYRIAN BANK LIMITED",CSBK0000322,110047008,"GAUTHAM NAGAR","NO.216-A/5, NEAR FR.AGNEL SENIOR SECONDARY SCHOOL, GAUTAM NAGAR, NEW DELHI - 110 049, NEW DELHI",64501215,DELHI,"NEW DELHI",DELHI
"CATHOLIC SYRIAN BANK LIMITED",CSBK0000321,110047001,"SERVICE BR DELHI","G36, GROUND FLOOR, CONNAUGHT CIRCUS, NEW DELHI - 110001",64501217,DELHI,"NEW DELHI",DELHI
"CATHOLIC SYRIAN BANK LIMITED",CSBK0000320,600047012,"ANNANAGAR CHENNAI","B13,2ND MAIN ROAD, ANNA NAGAR EAST,CHENNAI 600 012",64503967,CHENNAI,CHENNAI,"TAMIL NADU"
"CATHOLIC SYRIAN BANK LIMITED",CSBK0000318,144047002,JALANDHAR,"32, G T ROAD, AMARDEEP BUILDING, OPP:NARINDER CINEMA, JALANDHAR CITY - 144 001, PUNJAB",6450109,JALANDHAR,JALANDHAR,PUNJAB
"CATHOLIC SYRIAN BANK LIMITED",CSBK0000317,NA,MANJERI,"COURT ROAD, MANJERI - 676121, MALAPPURAM DISTRICT, KERALA",6451602,MANJERI,MALAPURAM,KERALA
"CATHOLIC SYRIAN BANK LIMITED",CSBK0000316,110047007,GURGAON,"SCO-4, GROUND FLOOR, SECTOR-14, NEAR PAYAL CINEMA, GURGAON-122 001, HARYANA",2303840,GURGAON,GURGAON,HARYANA
"CATHOLIC SYRIAN BANK LIMITED",CSBK0000315,751047002,BHUBANESWAR,"NO.45, ASHOK NAGAR, JANPATH, BHUBANESWAR - 751 009, ORISSA",2536040,BHUBANESWAR,KHURDA,ODISHA
"CATHOLIC SYRIAN BANK LIMITED",CSBK0000314,NA,MARGAO,"RENATO BUILDING ,FR. MIRANDA ROAD , NEAR GARDEN,MARGAO - 403 601",2732695,MARGAO,"SOUTH GOA",GOA
"CATHOLIC SYRIAN BANK LIMITED",CSBK0000313,NA,THIRUMALA,"ROHINI BUILDING, THIRUMALA, TRIVANDRUM -6, KERALA",2358997,THIRUVANANTHAPURAM,TRIVANDRUM,KERALA
"CATHOLIC SYRIAN BANK LIMITED",CSBK0000312,302047002,JAIPUR,"11, MOTILAL ATAL ROAD, JAIPUR - 302 001, RAJASTHAN",2377599,JAIPUR,JAIPUR,RAJASTHAN
"CATHOLIC SYRIAN BANK LIMITED",CSBK0000311,680047014,MANNUTHY,"ST. ANTONY'S CHURCH BUILDING, P.O. MANNUTHY - 680651, THRISSUR DISTRICT, KERALA",6451630,THRISSUR,TRISSUR,KERALA
"CATHOLIC SYRIAN BANK LIMITED",CSBK0000310,NA,MALA,"ST. STANISLAUS FORANCE CHURCH BLDG., MALA 680732, THRISSUR DISTRICT",6450112,MALA,TRISSUR,KERALA
"CATHOLIC SYRIAN BANK LIMITED",CSBK0000309,680047013,THALORE,"INFANT JESUS MONASTRY COMPLEX, P.O. THALORE, THRISSUR - 680306",6451629,THRISSUR,TRISSUR,KERALA
"CATHOLIC SYRIAN BANK LIMITED",CSBK0000308,686047003,KALATHIPADY,"NOYAPLAZA,KALATHIPADY,VADAVATHOOR PO,686010,KOTTAYAM DT,KERALA,INDIA",2572986,KOTTAYAM,KOTTAYAM,KERALA
"CATHOLIC SYRIAN BANK LIMITED",CSBK0000306,641047002,"R S PURAM COIMBATORE","CSB ZONAL OFFICE PREMISES, 513, DB ROAD, R.S PURAM, COIMBATORE - 641002",2472288,COIMBATORE,COIMBOTORE,"TAMIL NADU"
"CATHOLIC SYRIAN BANK LIMITED",CSBK0000305,600047011,PADI,"DOOR NO 32 , 1ST MAIN ROAD,OLYMPIC COLONY.PADI ,CHENNAI 600 050",65166784,CHENNAI,CHENNAI,"TAMIL NADU"
"CATHOLIC SYRIAN BANK LIMITED",CSBK0000304,400047013,"MAHIM WEST","VICTORIA HIGH SCHOOL SITLADEVI TEMPLE RD. MAHIM (W) MUMBAI - 400 016.",24459341,MUMBAI,"GREATER MUMBAI",MAHARASHTRA
"CATHOLIC SYRIAN BANK LIMITED",CSBK0000303,400047010,"ANDHERI WEST","COSMOPOLITAN EDUCATION SOCIETY, VALIA COLLEGE OF COMMERCE AND ARTS, D.N NAGAR, LINK ROAD, ANDHERI WEST",26239604,MUMBAI,"GREATER MUMBAI",MAHARASHTRA
"CATHOLIC SYRIAN BANK LIMITED",CSBK0000302,NA,"MULUND WEST(NAHUR)","SHOPNO.718 ST.PIUS X SCHOOL STPIUS SHOPPING CENTRE, MMM. RD, NAHUR,MULUND W ,MUMBAI-80",25643172,MUMBAI,"GREATER MUMBAI",MAHARASHTRA
"CATHOLIC SYRIAN BANK LIMITED",CSBK0000301,400047012,"VILE PARLE","VILE PARLE BRANCH, NEAR BMC BAZAAR, OPP. PAWAN HOUSE, VILE PARLE (W), MUMBAI - 400 056",64503304,MUMBAI,"GREATER MUMBAI",MAHARASHTRA
"CATHOLIC SYRIAN BANK LIMITED",CSBK0000300,110047006,FARIDABAD,"A-2/B, NEELAM BATA ROAD, FARIDABAD - 121 001, HARYANA",2414968,FARIDABAD,FARIDABAD,HARYANA
"CATHOLIC SYRIAN BANK LIMITED",CSBK0000299,680047012,"EAST FORT THRISSUR","C.M.K. COMPLEX, PALAKKAD MAIN ROAD, EAST FORT, THRISSUR - 680005, KERALA",2333427,THRISSUR,TRISSUR,KERALA
"CATHOLIC SYRIAN BANK LIMITED",CSBK0000298,695047008,PATTOM,"ST.MARY'S HIGHER SECONDARY SCHOOL BUILDING, PATTOM, THIRUVANANTHAPURAM-695004, KERALA",2441377,THIRUVANANTHAPURAM,TRIVANDRUM,KERALA
"CATHOLIC SYRIAN BANK LIMITED",CSBK0000297,110047005,NOIDA,"C-60, SECTOR-2, NOIDA - 201 301, GAUTHAM BUDH NAGAR(DT.), UTTAR PRADESH",2485240,NOIDA,"GAUTAM BODDA NAGAR","UTTAR PRADESH"
"CATHOLIC SYRIAN BANK LIMITED",CSBK0000296,110047004,"GREATER KAILASH","M-17, MARKET, GREATER KAILASH II, NEW DELHI - 110 048, NEW DELHI",29217818,DELHI,"NEW DELHI",DELHI
"CATHOLIC SYRIAN BANK LIMITED",CSBK0000295,141047002,LUDHIANA,"GREEN FIELD, NEAR SARABHA NAGAR CHOWK, LUDHIANA - 141 002, PUNJAB",6450109,LUDHIANA,LUDHIANA,PUNJAB
"CATHOLIC SYRIAN BANK LIMITED",CSBK0000294,160047002,CHANDIGARH,"SCO-114-115, SECTOR-34A, CHANDIGARH - 160 022, CHANDIGARH (U.T.)",2665995,CHANDIGARH,CHANDIGARH,CHANDIGARH
"CATHOLIC SYRIAN BANK LIMITED",CSBK0000293,NA,"FTS CENTRE","DJM BUILDING, MARKET ROAD, ERNAKULAM - 682011",6451658,KOCHI,ERNAKULAM,KERALA
"CATHOLIC SYRIAN BANK LIMITED",CSBK0000292,400047009,THANE,"OPP. ST JOHN THE BAPTIST H.S., JAMBLINAKA,THANE WEST 400 601",25395766,MUMBAI,"GREATER MUMBAI",MAHARASHTRA
"CATHOLIC SYRIAN BANK LIMITED",CSBK0000291,400047008,VASAI,"C-001 ORNAMENT APARTMENT,  EVERSHINE CITY VASAI EADST",2460656,VASAI,THANE,MAHARASHTRA
"CATHOLIC SYRIAN BANK LIMITED",CSBK0000290,NA,KALPAKANCHERY,"MAIN ROAD, KADUNGATHUKUNDU, KALPAKANCHERY - 676551",2547818,KALPAKANCHERY,MALAPURAM,KERALA
"CATHOLIC SYRIAN BANK LIMITED",CSBK0000289,682047002,"IT DEPARTMENT","D.J.M BUILDING, MARKET ROAD,COCHI,682011",6451658,KOCHI,ERNAKULAM,KERALA
"CATHOLIC SYRIAN BANK LIMITED",CSBK0000288,682047013,PONNURUNNI,"THAMMANAM RD,PONNURUNNI,KOCHI, P.O.VYTILLA,682019",6452801,KALOOR,ERNAKULAM,KERALA
"CATHOLIC SYRIAN BANK LIMITED",CSBK0000286,400047007,KALYAN,"NISHANT II, VAIDYAWADI,RAMBAUG MAIN ROAD, KALYAN 421 301",2329326,MUMBAI,"GREATER MUMBAI",MAHARASHTRA
"CATHOLIC SYRIAN BANK LIMITED",CSBK0000285,NA,KARUMATHAMPATTY,"AYAR AMBROSE RURAL SELF EMPLOYMENT INSTITUTE BLDGS., AVANASHI RD., KARUMATHAMPATTY, COIMBATORE, T N- 641 659",2332800,KARUMATHAMPATTY,COIMBOTORE,"TAMIL NADU"
"CATHOLIC SYRIAN BANK LIMITED",CSBK0000284,560047006,T.DASARAHALLI,"NO 28-29, Srinidhi Towers,Tumkur Road  NH-4,T Dasarahalli , Bangalore- 560057",28398854,DASARAHALLI,"BANGALORE URBAN",KARNATAKA
"CATHOLIC SYRIAN BANK LIMITED",CSBK0000283,110047003,"ASHOK VIHAR DELHI","OPP:DEEP CINEMA, ASHOK VIHAR, PHASE -I, DELHI - 110 052, NEW DELHI",27221341,DELHI,"NEW DELHI",DELHI
"CATHOLIC SYRIAN BANK LIMITED",CSBK0000282,411047002,RAMWADI,"26/4, MATCHWEL FACTORY ROAD, RAMWADI, PUNE - 411014",27031237,PUNE,PUNE,MAHARASHTRA
"CATHOLIC SYRIAN BANK LIMITED",CSBK0000281,400047001,"SERVICE BR. MUMBAI","SERVICE BR. P.B.NO.925,53 EAST&WEST BLDGMUMBAI SAMACHAR MARG, OPP.MUMBAI STOCK EXCHANGE,FORT MUMBAI-400023, MAHARASHTRA",22650851,MUMBAI,"GREATER MUMBAI",MAHARASHTRA
"CATHOLIC SYRIAN BANK LIMITED",CSBK0000280,680047001,"THRISSUR SERVICE BR","PO BOX NO 250, MAIN BRANCH PREMISES, ROUND SOUTH, THRISSUR - 680001",6451627,THRISSUR,TRISSUR,KERALA
"CATHOLIC SYRIAN BANK LIMITED",CSBK0000278,641047103,AVANASHI,"1ST FLOOR, PRIYADHARSHINI TOWERS, EAST CAR STREET, AVANASHI 641654, COIMBATORE DT., TAMIL NADU",272162,AVANASHI,COIMBOTORE,"TAMIL NADU"
"CATHOLIC SYRIAN BANK LIMITED",CSBK0000277,400047006,VASHI,"NO. 20, DAFFODILS, SECTOR -14, VASHI, NAVI MUMBAI -400 703",27664123,MUMBAI,"GREATER MUMBAI",MAHARASHTRA
"CATHOLIC SYRIAN BANK LIMITED",CSBK0000276,500047003,SECUNDERABAD,"1ST FLOOR,DIAMOND TOWERS, S D ROAD, DECUNDERABAD- 500003",27817576,"SECUNDERABAD CANTONMENT","HYDERABAD URBAN","ANDHRA PRADESH"
"CATHOLIC SYRIAN BANK LIMITED",CSBK0000275,680047009,ARANATTUKARA,"ST. THOMAS CHURCH SHOPPING COMPLEX, BIG BAZAR, ARANNATTUKARA, THRISSUR - 680618, KERALA",6451626,THRISSUR,TRISSUR,KERALA
"CATHOLIC SYRIAN BANK LIMITED",CSBK0000274,NA,UDUMALPET,"45, FIRST FLOOR , DHALI ROAD,UDUMALPET 642126",224946,UDUMALPET,COIMBOTORE,"TAMIL NADU"
"CATHOLIC SYRIAN BANK LIMITED",CSBK0000273,600047010,GUINDY,"DOOR NO.64, MOUNT ROAD, GUINDY, CHENNAI - 600032",22348008,CHENNAI,CHENNAI,"TAMIL NADU"
"CATHOLIC SYRIAN BANK LIMITED",CSBK0000272,NA,TIRURANGADI,"KAKKAD-CHEMMAD ROAD, OPP PSMO COLLEGE, TIRURANGADI-676306",6450008,MALAPPURAM,MALAPURAM,KERALA
"CATHOLIC SYRIAN BANK LIMITED",CSBK0000271,NA,GOBICHETTIPALAYAM,"77,MAIN ROAD, NEAR BUS STAND GOBICHETTIPALAYAM-638476 TAMILNADU",223671,GOBICHETTIPALAYAM,ERODE,"TAMIL NADU"
"CATHOLIC SYRIAN BANK LIMITED",CSBK0000270,682047001,"ERNAKULAM SER.BR","DJM BUILDING, MARKET ROAD, ERNAKULAM.",6451630,KOCHI,ERNAKULAM,KERALA
"CATHOLIC SYRIAN BANK LIMITED",CSBK0000269,641047005,GANAPATHY,"KALPA BUILDING ,LAKSHMIPURAM ,GANAPATHY ,COIMBATORE PIN 641006",2522213,COIMBATORE,COIMBOTORE,"TAMIL NADU"
"CATHOLIC SYRIAN BANK LIMITED",CSBK0000268,NA,KANHANGAD,"OPP.CITY HOSPITAL, NORTH KOTTACHERY, KANHANGAD-671315 KASARGOD DT., KERALA",6451601,KANHANGAD,KASARAGOD,KERALA
"CATHOLIC SYRIAN BANK LIMITED",CSBK0000267,NA,KANJIKODE,"PANNIVELIL BLDGS,OPP.ITI, KANJIKODE WEST - 678 623",6451601,KANJIKODE,PALAKKAD,KERALA
"CATHOLIC SYRIAN BANK LIMITED",CSBK0000266,600047009,AMBATTUR,"358, M.T.H ROAD, AMBATTUR, CHENNAI - 600053",26250625,AMBATTUR,TIRUVALLUR,"TAMIL NADU"
"CATHOLIC SYRIAN BANK LIMITED",CSBK0000265,NA,SIVAKASI,"33-33A, WEST CAR STREET, SIVAKASI,VIRUDHANAGAR DT., T N - 626 123",223912,SIVAKASI,VIRUDHUNAGAR,"TAMIL NADU"
"CATHOLIC SYRIAN BANK LIMITED",CSBK0000264,400047005,"IFB MUMBAI","GROUND FLOOR, MARSHALL ANNEX BUILDING, SOORJI VALLABHDAS MARG, BALLARD ESTATE, MUMBAI - 400001",22650850,MUMBAI,MUMBAI,MAHARASHTRA
"CATHOLIC SYRIAN BANK LIMITED",CSBK0000263,641047006,COIMBATORE-IFB,"SHIVA COMPLEX, 54 OLD POST OFFICE ROAD COIMBATORE, TAMILNADU PIN-641018",2215803,COIMBATORE,COIMBOTORE,"TAMIL NADU"
"CATHOLIC SYRIAN BANK LIMITED",CSBK0000262,380047002,AHMEDABAD,"P B NO.11042, 1ST FLOOR, SAHAJANAND TRADE CENTRE,  ASHRAM ROAD, PREETAM NAGAR, PALDI, AHMEDABAD 380006",26585930,AHMEDABAD,AHMEDABAD,GUJARAT
"CATHOLIC SYRIAN BANK LIMITED",CSBK0000261,NA,BHAVANI,"SAMY COMPLEX, FIRST FLOOR, METTUR ROAD, NEAR NEW BUS STAND, BHAVANI-638302 ERODE DT., TAMILNADU",9244931482,BHAVANI,ERODE,"TAMIL NADU"
"CATHOLIC SYRIAN BANK LIMITED",CSBK0000260,NA,KASARGOD,"K J JOSEPH, PHONE: 04994-222590,EMAIL: KASARGOD@CSB.CO.IN",645160,KASARAGOD,KASARAGOD,KERALA
"CATHOLIC SYRIAN BANK LIMITED",CSBK0000259,600047008,IFB-CHENNAI,"826,TARAPORE TOWERS,MOUNT ROAD,CHENNAI - 600 002",28526397,CHENNAI,CHENNAI,"TAMIL NADU"
"CATHOLIC SYRIAN BANK LIMITED",CSBK0000258,NA,MUNNAR,"CARMEL CENTRE, G.H ROAD, MUNNAR - 685612, IDUKKI DT. KERALA",230362,MUNNAR,IDUKKI,KERALA
"CATHOLIC SYRIAN BANK LIMITED",CSBK0000257,NA,PERINTHALMANNA,"SASIDHARAN T K, PHONE: 04933-226477,EMAIL: PERINTHALMANNA@CSB.CO.IN",9287271986,PERINTALMANNA,MALAPURAM,KERALA
"CATHOLIC SYRIAN BANK LIMITED",CSBK0000256,NA,KALPETTA,"KEERTHI BUILDING, MAIN ROAD, KALPETTA, WAYANAD - 673 121",645003,KALPETTA,WAYANAD,KERALA
"CATHOLIC SYRIAN BANK LIMITED",CSBK0000255,NA,VARKALA,"DOOR NO.XX 1/356, TEMPLE ROAD, VARKALA. THIRUVANANTHAPURAM DT., KERALA",6450005,VARKALA,TRIVANDRUM,KERALA
"CATHOLIC SYRIAN BANK LIMITED",CSBK0000253,NA,"PANAJI GOA","GROUND FLOOR,'HOTEL SUMMIT BLDG,MENEZEZ BRAGANZA RD,NEAR FIDALGO,PANAJI,403001",2435945,PANAJI,"NORTH GOA",GOA
"CATHOLIC SYRIAN BANK LIMITED",CSBK0000252,682047016,KALAMASSERY,"FIRST FLOOR, RAINA COMPLEX, PREMIER JUNCTION, KALAMASSERY - 683104",6451629,KALAMASSERY,ERNAKULAM,KERALA
"CATHOLIC SYRIAN BANK LIMITED",CSBK0000251,673047005,"MAVOOR ROAD, KOZHIKODE","ALPHONSA BLDG.,MAVOOR RD.,KOZHIKODE 673004",6451605,CALICUT,KOZHIKODE,KERALA
"CATHOLIC SYRIAN BANK LIMITED",CSBK0000250,NA,KUMBANAD,"LEEJOY BUILDINGS, IV/450, KOIPURAM PANCHAYAT,P.O.KUMBANAD-689547 PATHANAMTHITTA DT., KERALA",6450005,PATHANAMTHITTA,PATHANAMTHITTA,KERALA
"CATHOLIC SYRIAN BANK LIMITED",CSBK0000249,NA,KANJIRAPALLY,"TMC BUILDINGS,NEAR RUBBER BOARD REGIONAL OFFICE,KK ROAD,KANJIRAPALLY PO, KOTTAYAM DT.",645010,KOTTAYAM,KOTTAYAM,KERALA
"CATHOLIC SYRIAN BANK LIMITED",CSBK0000248,NA,"T.K ROAD,THIRUVALLA","KUNNATHUPARAMBIL SHOPPING COMPLEX T K ROAD, THIRUVALLA - 689101 PATHANAMTHITTA DT., KERALA",6450004,THIRUVALLA,PATHANAMTHITTA,KERALA
"CATHOLIC SYRIAN BANK LIMITED",CSBK0000247,682047004,"KALOOR AZAD ROAD","PAVAKULAM CHAMBERS 36/2289 B,AZAD ROAD,KALOOR,KOCHI,682017",2346412,KALOOR,ERNAKULAM,KERALA
"CATHOLIC SYRIAN BANK LIMITED",CSBK0000246,NA,RANNI,"PB NO 7,MULAMOOTTIL BLDG,RANNI,PAZHAVANGADI-689673",645003,RANNI,PATHANAMTHITTA,KERALA
"CATHOLIC SYRIAN BANK LIMITED",CSBK0000245,560047005,YELEHANKA,"1217, OPP. SHOPPING COMPLEX, NEW TOWN, YELAHANKA, BANGALORE - 560064",28462878,YELAHANKA,"BANGALORE URBAN",KARNATAKA
"CATHOLIC SYRIAN BANK LIMITED",CSBK0000244,600047007,PALLAVARAM,"7/IA, INDIRA GANDHI ROAD, PALLAVARAM, KANCHEEPURAM DT, CHENNAI - 600 043",22643935,PALLAVARAM,KANCHEEPURAM,"TAMIL NADU"
"CATHOLIC SYRIAN BANK LIMITED",CSBK0000243,NA,TIRUVALLUR,"NO.50, MOTILAL STREET, THIRUVALLUR - 602001 TAMIL NADU",27660007,TIRUVALLUR,TIRUVALLUR,"TAMIL NADU"
"CATHOLIC SYRIAN BANK LIMITED",CSBK0000242,NA,MANNARKKAD,"`DOOR NO. 7/191, 1ST FLOOR, NAWAR COMPLEX, HOSPITAL JUNCTION, MANNARKKAD-678582",645005,MANNARKAD,PALAKKAD,KERALA
"CATHOLIC SYRIAN BANK LIMITED",CSBK0000241,NA,"SULTAN BATHERY","PB NO.25, FIRST FLOOR, SUJANA COMPLEX, KALPETTA - MYSORE ROAD, SULTHAN BATHERY - 673592",645004,SULTHANBATHERY,WAYANAD,KERALA
"CATHOLIC SYRIAN BANK LIMITED",CSBK0000240,395047002,SURAT,"FIRST FLOOR,DEVANG SHOPPING CENTRE,NEAR PEARL POINT, SURAT-395 007",2222437,SURAT,SURAT,GUJARAT
"CATHOLIC SYRIAN BANK LIMITED",CSBK0000239,390047002,BARODA,"AANGAN TOWER, OPP. BHAVANS SCHOOL, INDIRA GANDHI MARG, BARODA - 390004",2655942,VADODARA,GANDHINAGAR,GUJARAT
"CATHOLIC SYRIAN BANK LIMITED",CSBK0000238,NA,KOTHAMANGALAM,"PILMA BUILDING, P.B.NO: 55, A.M ROAD, KOTHAMANGALAM, ERNAKULAM DT. -686691",2861157,KOTHAMANGALAM,ERNAKULAM,KERALA
"CATHOLIC SYRIAN BANK LIMITED",CSBK0000237,680047000,"THRISSUR NRI","CSB BHAVAN', ST. MARY'S COLLEGE ROAD, THRISSUR - 680020",6450159,THRISSUR,TRISSUR,KERALA
"CATHOLIC SYRIAN BANK LIMITED",CSBK0000236,NA,KOZHENCHERRY,"PB NO 16, DEVASWOM BLDG,OPP PANCHAYAT BUS STAND,KOZHENCHERRY 689641",2214156,KOZHENCHERRY,PATHANAMTHITTA,KERALA
"CATHOLIC SYRIAN BANK LIMITED",CSBK0000235,695047006,"NRI THIRUVANANTHAPURAM KOWDIAR","MALANKARA BUILDING COMPLEX, PALAYAM, THIRUVANANTHAPURAM - 695034, KERALA",2438236,THIRUVANANTHAPURAM,TRIVANDRUM,KERALA
"CATHOLIC SYRIAN BANK LIMITED",CSBK0000234,682047003,PALARIVATTOM,"MARKET ROAD, ERNAKULAM, KOCHI - 682011, ERNAKULAM, KERALA",2343138,KOCHI,ERNAKULAM,KERALA
"CATHOLIC SYRIAN BANK LIMITED",CSBK0000233,400047004,MULUND,"ANU APARTMENTS, GOVARDHAN NAGAR,L B S MARG, MULUND WEST 400 082",21640867,MUMBAI,"GREATER MUMBAI",MAHARASHTRA
"CATHOLIC SYRIAN BANK LIMITED",CSBK0000232,600047001,"SERVICE BR. CHENNAI","826,TARAPORE TOWERS,MOUNT ROAD,CHENNAI - 600 002",28523993,CHENNAI,CHENNAI,"TAMIL NADU"
"CATHOLIC SYRIAN BANK LIMITED",CSBK0000231,680047006,"COLLEGE ROAD THRISSUR","P.B. NO.502, ""COLLEGE VIEW"", HEAD OFFICE BUILDING, ST. MARY'S COLLEGE ROAD, THRISSUR - 680020, KERALA",6450162,THRISSUR,TRISSUR,KERALA
"CATHOLIC SYRIAN BANK LIMITED",CSBK0000230,411047001,PUNE,"FIRST STERLING CENTRE, OPP. HOTEL ARORA TOWER, M G ROAD, PUNE 411 01",26130376,MUMBAI,"GREATER MUMBAI",MAHARASHTRA
"CATHOLIC SYRIAN BANK LIMITED",CSBK0000229,NA,GULBARGA,"PLOT NO.7., SUPER MARKET, P.B. NO. 33, GULBARGA, KARNATAKA- 585 101",240659,GULBARGA,GULBERGA,KARNATAKA
"CATHOLIC SYRIAN BANK LIMITED",CSBK0000228,605047001,PONDICHERRY,"DOOR NO. 474/476/478 M G ROAD PONDICHERRY - 605 001",2229176,PONDICHERRY,PONDICHERRY,PUDUCHERRY
"CATHOLIC SYRIAN BANK LIMITED",CSBK0000227,680047004,"WEST FORT, THRISSUR","P.B. NO. 805, M.G. ROAD, WEST FORT, THRISSUR - 680004, KERALA",2384812,THRISSUR,TRISSUR,KERALA
"CATHOLIC SYRIAN BANK LIMITED",CSBK0000226,NA,NELLAD,"PARAKKUDIYIL BUILDINGS, DOOR NO.726, P.O.NELLAD - 686721 ERNAKULAM DT., KERALA",9287276794,MUVATTUPUZHA,ERNAKULAM,KERALA
"CATHOLIC SYRIAN BANK LIMITED",CSBK0000225,NA,AVANOOR,"II/248, AVANOOR - 680547, (VIA) MUNDUR, THRISSUR DISTRICT",6453236,THRISSUR,TRISSUR,KERALA
"CATHOLIC SYRIAN BANK LIMITED",CSBK0000224,NA,MAMMIYOOR,"VAKKAYIL COMPLEX, MAMMIYOOR JUNCTION, P.O. GURUVAYUR, THRISSUR - 680101, KERALA",2557188,GURUVAYUR,TRISSUR,KERALA
"CATHOLIC SYRIAN BANK LIMITED",CSBK0000223,600047006,"MOUNT ROAD CHENNAI","826,TARAPORE TOWERS,MOUNT ROAD,CHENNAI - 600 002",28410599,CHENNAI,CHENNAI,"TAMIL NADU"
"CATHOLIC SYRIAN BANK LIMITED",CSBK0000222,575047002,MANGALORE,"I FLOOR, KUNIL CENTRE, DR. U P MALAYA ROAD,HAMPANKETTA, MANGALORE-575001",6536002,MANGALORE,"DAKSHINA KANNADA",KARNATAKA
"CATHOLIC SYRIAN BANK LIMITED",CSBK0000221,NA,RAJAMUNDRY,"PB NO 23, FIRST FLOOR, STADIUM ROAD, RAJAMUNDRY, EAST GODAVARY - 533101",2433514,RAJAHMUNDRY,"EAST GODAVARI","ANDHRA PRADESH"
"CATHOLIC SYRIAN BANK LIMITED",CSBK0000220,NA,CHENAPPADY,"P.O.CHENAPPADY VIA KANJIRAPALLY-686525 KOTTAYAM DT., KERALA",9287271931,KANJIRAPPALLY,KOTTAYAM,KERALA
"CATHOLIC SYRIAN BANK LIMITED",CSBK0000219,NA,BHIMAVARAM,"PB NO 57, P.P ROAD, 22/2/23, PRAKASAM CHOWK, BHIMAVARAM - 534201, WEST GODAVARI DT, ANDHRA PRADESH",232199,BHIMAVARAM,"WEST GODAVARI","ANDHRA PRADESH"
"CATHOLIC SYRIAN BANK LIMITED",CSBK0000218,600047005,ROYAPETTAH,"NO.18,V.S.S.M BUILDING,ROYAPETTAH ROAD,CHENNAI - 600 014",28132620,CHENNAI,CHENNAI,"TAMIL NADU"
"CATHOLIC SYRIAN BANK LIMITED",CSBK0000217,NA,KANAKKARY,"K.P.W.10,KANAKKARY P O,KOTTAYAM DT,686632",6451613,KOTTAYAM,KOTTAYAM,KERALA
"CATHOLIC SYRIAN BANK LIMITED",CSBK0000216,NA,R.V.P.PUDUR,"5/432, MAIN ROAD, P.O. R.V.P PUDUR, PIN- 678555 PALAKKAD DT., KERALA",9287271981,ERUTHEMPATHY,PALAKKAD,KERALA
"CATHOLIC SYRIAN BANK LIMITED",CSBK0000215,NA,VALLICODE,"VAYANASALA JUNCTION, P.O.VALLICODE PIN-689659, PATHANAMTHITTA DT., KERALA",2350310,VALLICODE,PATHANAMTHITTA,KERALA
"CATHOLIC SYRIAN BANK LIMITED",CSBK0000214,NA,THEKKADA,"THEKKADA P.O.VEMBAYAM - 695615 THIRUVANATHAPURAM DT., KERALA",2832051,VEMBAYAM,TRIVANDRUM,KERALA
"CATHOLIC SYRIAN BANK LIMITED",CSBK0000213,580047002,HUBLI,"FIRST FLOOR LAKSHMI - BALAKRISHNA SQUARE STATION ROAD DHARWAD DT. HUBLI, KARNATAKA- 580 020",6566002,HUBLI-DHARWAD,DHARWAD,KARNATAKA
"CATHOLIC SYRIAN BANK LIMITED",CSBK0000212,NA,THANJAVUR,"104,ESAT MAIN STREET ,THANJAVUR , TAMILNADU PIN 613001",238425,THANJAVUR,THANJAVUR,"TAMIL NADU"
"CATHOLIC SYRIAN BANK LIMITED",CSBK0000211,700047002,"LAL BAZAR KOLKATA","FIRST FLOOR, PODDAR COURT, 18, RABINDRA SARANI, KOLKATA 700001",22252987,KOLKATA,KOLKATA,"WEST BENGAL"
"CATHOLIC SYRIAN BANK LIMITED",CSBK0000210,NA,NELLORE,"PB NO 3, SUBEDARPET ROAD, NELLORE - 524001, ANDHRA PRADESH",6532006,NELLORE,NELLORE,"ANDHRA PRADESH"
"CATHOLIC SYRIAN BANK LIMITED",CSBK0000209,641047102,TIRUPUR,"SEETHA ARCADE , KUMARAN ROAD , TIRUPUR , COIMBATORE 641601",2203051,TIRUPUR,COIMBOTORE,"TAMIL NADU"
"CATHOLIC SYRIAN BANK LIMITED",CSBK0000208,560047004,"BANGALORE CITY","FIRST MAIN ROAD, GANDHI NAGAR, BANGALORE CITY - 560009",22261442,BANGALORE,"BANGALORE URBAN",KARNATAKA
"CATHOLIC SYRIAN BANK LIMITED",CSBK0000207,520047102,GUNTUR,"MAIN ROAD, ARUNDALPET, GUNTUR - 522002",2225819,GUNTUR,GUNTUR,"ANDHRA PRADESH"
"CATHOLIC SYRIAN BANK LIMITED",CSBK0000206,520047001,VIJAYAWADA,"USHA ESTATES, DOOR NO 27.13.28, GOPALAREDDY ROAD, GOVERNPOST, VIJAYAWADA - 520002",2571375,VIJAYAWADA,KRISHNA,"ANDHRA PRADESH"
"CATHOLIC SYRIAN BANK LIMITED",CSBK0000205,110047002,"CONNAUGHT CIRCUS NEWDELHI","G-36 CONNAUGHT CIRCUS,NEW DELHI - 110 001, NEW DELHI",23328747,DELHI,"NEW DELHI",DELHI
"CATHOLIC SYRIAN BANK LIMITED",CSBK0000204,NA,MYSORE,"PB NO 5, SILVER TOWER, D.NO 9/2, OPP CLOCK TOWER, ASHOKA ROAD, MYSORE - 570001",2425918,MYSORE,MYSORE,KARNATAKA
"CATHOLIC SYRIAN BANK LIMITED",CSBK0000203,NA,BELGAUM,"ISHANOPUS,IST FLR,P.B.NO 533,CONGRESS RD,TILAKWADI,BELGAUM,590006",6536002,BELGAUM,BELGAUM,KARNATAKA
"CATHOLIC SYRIAN BANK LIMITED",CSBK0000202,NA,MAKKARAPARAMBA,"P.B.NO.2, MAIN ROAD, MAKKARAPARAMBA - 676507 MALAPPURAM DT., KERALA",9287271985,MALAPPURAM,MALAPURAM,KERALA
"CATHOLIC SYRIAN BANK LIMITED",CSBK0000201,500047002,HYDERABAD,"D/NO.5-9-241-244,FIRST FLOOR , OPP. GRAMMAR SCHOOL,ABID ROAD,HYDERABAD - 500 001",23202985,HYDERABAD,"HYDERABAD URBAN","ANDHRA PRADESH"
"CATHOLIC SYRIAN BANK LIMITED",CSBK0000200,NA,VELLORE,"80/2 , IDA SCUDDER ROAD , OPP CMS , VELLORE 632004",2220883,VELLORE,VELLORE,"TAMIL NADU"
"CATHOLIC SYRIAN BANK LIMITED",CSBK0000199,NA,VELLAR,"5/90, DHARMAPURI MAIN ROAD KOVIL, VELLAR-636451 SALEM DT., TAMIL NADU",269047,VELLAR,SALEM,"TAMIL NADU"
"CATHOLIC SYRIAN BANK LIMITED",CSBK0000198,600047003,KODAMBAKKAM,"49,GOKULAM BLDG,ARCOT ROAD,KODAMBAKKOM-600 024",24727659,CHENNAI,CHENNAI,"TAMIL NADU"
"CATHOLIC SYRIAN BANK LIMITED",CSBK0000197,NA,NATTIKA,"P.B. NO. 13, THRIPRAYAR JUNCTION, P.O. NATTIKA, THRISSUR - 680566, KERALA",2402236,TRIPRAYAR,TRISSUR,KERALA
"CATHOLIC SYRIAN BANK LIMITED",CSBK0000196,NA,AMMAPALAYAM,"MAIN ROAD, AMMAPALAYAM-621 101 PERAMBALUR DT., TAMIL NADU",269222,PERAMBALUR,PERAMBALUR,"TAMIL NADU"
"CATHOLIC SYRIAN BANK LIMITED",CSBK0000195,NA,PANAMARATHUPATTI,"SANJEEVI COMPLEX, CHANDAPETTAI, PANAMARATHUPATTI-636204, SALEM DT.",6501113,PANAMARATHUPATTI,SALEM,"TAMIL NADU"
"CATHOLIC SYRIAN BANK LIMITED",CSBK0000194,NA,ANTHIKAD,"P.O. ANTHIKAD, ANTHIKAD - 680641, THRISSUR DISTRICT",6451606,ANTHIKAD,TRISSUR,KERALA
"CATHOLIC SYRIAN BANK LIMITED",CSBK0000193,NA,VANNAPURAM,"VIA THODUPUZHA VANNAPPURAM-685582, THOPPIL BUILDING, IDUKKI DT., KERALA",9287276463,THODUPUZHA,IDUKKI,KERALA
"CATHOLIC SYRIAN BANK LIMITED",CSBK0000192,NA,THATTAYIL,"K.S.JACOB BUILDING P.O.THATTAYIL - 691525 PATHANAMTHITTA DT., KERALA",9287271928,PATHANAMTHITTA,PATHANAMTHITTA,KERALA
"CATHOLIC SYRIAN BANK LIMITED",CSBK0000191,NA,MALAKKARA,"VIA, EDAYARANMULA,MALAKKARA-689 532,PATHANAMTHITTA DIST, KERALA",2317407,PATHANAMTHITTA,PATHANAMTHITTA,KERALA
"CATHOLIC SYRIAN BANK LIMITED",CSBK0000190,NA,PRAVUMKOOD,"PALLATH MADAM BUILDINGS PRAVUMKOOD JN., MAZHUKEER,P.O.KALLISSERY PIN-689124, ALAPPUZHA DT., KERALA",9287271936,ALAPPUZHA,ALAPUZZHA,KERALA
"CATHOLIC SYRIAN BANK LIMITED",CSBK0000189,NA,KOMBODINJAMAKKAL,"RAJ COMPLEX, KOMBODINJAMAKKAL, P.O. THAZHEKAD - 680697",6450109,KOMBODINJAMAKKAL,TRISSUR,KERALA
"CATHOLIC SYRIAN BANK LIMITED",CSBK0000188,NA,THIKKOTI,"ROSE TOWERS, MAIN ROAD, THIKKOTI - 673529",6450005,THIKKOTI,KOZHIKODE,KERALA
"CATHOLIC SYRIAN BANK LIMITED",CSBK0000187,NA,VADAKARA,"P.B.NO.1, CHORODE 673106, BADAGARA, KOZHIKODE DT., KERALA",6450004,VADAKARA,KOZHIKODE,KERALA
"CATHOLIC SYRIAN BANK LIMITED",CSBK0000186,682047005,GIRINAGAR,"DOOR NO. XXX/IV, GCDA BUILDING, GIRINAGAR NORTH ,COCHI,682020",2203718,KOCHI,ERNAKULAM,KERALA
"CATHOLIC SYRIAN BANK LIMITED",CSBK0000185,680047003,"M O ROAD THRISSUR","DOOR NO. XXV/46, P.B. NO. 132, M.O. ROAD, THRISSUR - 680001, KERALA",2421329,THRISSUR,TRISSUR,KERALA
"CATHOLIC SYRIAN BANK LIMITED",CSBK0000184,NA,TIRUPATTUR,"38-A, SUNDER LODGE BUILDING,GROUND FLOOR KRISHNAGIRI ROAD, TIRUPATTUR - 635601 NORTH ARCOT DT., TAMIL NADU",226755,TIRUPATTUR,VELLORE,"TAMIL NADU"
"CATHOLIC SYRIAN BANK LIMITED",CSBK0000183,NA,TUTICORIN,"MANUEL TOWERS, 52/B EAST CAR STREET, TUTICORIN-628002 TAMIL NADU",2322703,TUTICORIN,THOOTHKUDI,"TAMIL NADU"
"CATHOLIC SYRIAN BANK LIMITED",CSBK0000182,NA,NALUKODY,"VALUPARAMBIL BUILDING,NALUKODY-686548,KOTTAYAM DT,KERALA.",2447309,CHANGANASSERY,KOTTAYAM,KERALA
"CATHOLIC SYRIAN BANK LIMITED",CSBK0000181,NA,KOOVAPALLY,"NARAYANA BUILDING KOOVAPALLY-686518 KOTTAYAM DT., KERALA",9287271933,KOOVAPALLY,KOTTAYAM,KERALA
"CATHOLIC SYRIAN BANK LIMITED",CSBK0000180,NA,MAVELIKARA,"THAYYIL SHOPPING COMPLEX, 1ST FLOOR, AVJ JUNCTION., MAVELIKARA - 690101 ALAPPUZHA DT., KERALA",6450008,MAVELIKKARA,ALAPUZZHA,KERALA
"CATHOLIC SYRIAN BANK LIMITED",CSBK0000179,695047009,KAZHAKUTTOM,"PLACKAL TOWER, KP 2/876, NH BYE PASS, PO. KAZHAKUTTOM, THIRUVANANTHAPURAM - 695582",2418316,KAZHAKUTTAM,TRIVANDRUM,KERALA
"CATHOLIC SYRIAN BANK LIMITED",CSBK0000178,NA,VAIKOM,"VII/350, 1ST FLOOR, HOSPITAL ROAD VAIKOM KOTTAYAM DT KERALA - 686 141",645004,VAIKOM,KOTTAYAM,KERALA
"CATHOLIC SYRIAN BANK LIMITED",CSBK0000177,400047002,"MUMBAI FORT","MARSHALL BLDG ANNEX,SOORJI VALLABHDAS MARG, BALLARD ESTATE,MUMBAI - 400 038, MAHARASHTRA",22665641,MUMBAI,"GREATER MUMBAI",MAHARASHTRA
"CATHOLIC SYRIAN BANK LIMITED",CSBK0000176,685047002,THODUPUZHA,"JYOTHI SUPER BAZAR, THODUPUZHA, IDUKKI DISTRICT",222476,THODUPUZHA,IDUKKI,KERALA
"CATHOLIC SYRIAN BANK LIMITED",CSBK0000175,NA,DINDIGUL,"NO. 27, NISHA COMPLEX PALANI ROAD DINDIGUL - 624 001",2433395,DINDIGUL,DINDIGUL,"TAMIL NADU"
"CATHOLIC SYRIAN BANK LIMITED",CSBK0000174,695047007,MANNATHALA,"RAJEEVAM SHOPPING COMPLEX, UP XIV/716, MANNANTHALA PO, THIRUVANANTHAPURAM - 695015",2531102,MANNANTHALA,TRIVANDRUM,KERALA
"CATHOLIC SYRIAN BANK LIMITED",CSBK0000173,NA,MULLURKARA,"DOOR NO. V/36A, MULLURKARA - 680583, THRISSUR DISTRICT",645002,MULLURKKARA,TRISSUR,KERALA
"CATHOLIC SYRIAN BANK LIMITED",CSBK0000172,NA,KOOTTANAD,"CITY CENTRE, GURUVAYUR ROAD, KOOTTANAD ┬û 679533",6450004,KOOTTANAD,PALAKKAD,KERALA
"CATHOLIC SYRIAN BANK LIMITED",CSBK0000171,NA,NEEZHOOR,"KADUTHURUTHY ELANJI ROAD NEEZHOOR - 686612 KOTTAYAM DT., KERALA",263629,NEEZHOOR,KOTTAYAM,KERALA
"CATHOLIC SYRIAN BANK LIMITED",CSBK0000170,NA,PUNNAVELI,"VADAKEDATH BUILDING, KULATHUNGAL KAVALA PUNNAVELI - 689589, P.O.PUNNAVELI, PATHANAMTHITTA DT., KERALA",9287271972,PATHANAMTHITTA,PATHANAMTHITTA,KERALA
"CATHOLIC SYRIAN BANK LIMITED",CSBK0000169,NA,ARIPALAM,"ST. MARY'S SHOPPING COMPLEX, ARIPALAM - 680688, THRISSUR DISTRICT, KERALA",6450630,IRINJALAKUDA,TRISSUR,KERALA
"CATHOLIC SYRIAN BANK LIMITED",CSBK0000168,NA,PUNALUR,"KESAVAPILLAI, E-MAIL : PUNALUR@CSB.CO.IN, PHONE: 0475 2222349",2222759,PUNALUR,KOLLAM,KERALA
"CATHOLIC SYRIAN BANK LIMITED",CSBK0000167,NA,ANGAMALY,"DOOR NO. IV/254F, KOORAN'S AVENUE,ANGAMALY 683572, ERNAKULAM DIST",2452501,ANGAMALY,ERNAKULAM,KERALA
"CATHOLIC SYRIAN BANK LIMITED",CSBK0000166,NA,KADUTHURUTHY,"P.B.NO.5, KALAPURAYIL BUILDING, P.O.KADUTHURUTHY, KOTTAYAM DT.- 686604",285515,KADUTHURUTHY,KOTTAYAM,KERALA
"CATHOLIC SYRIAN BANK LIMITED",CSBK0000165,NA,PATHANAMTHITTA,"THELLERETH PLAZA,K P ROAD,PATHANAMTHITTA-689645,KERALA",2222404,PATHANAMTHITTA,PATHANAMTHITTA,KERALA
"CATHOLIC SYRIAN BANK LIMITED",CSBK0000164,NA,PANDALAM,"SANKARATHIL BUILDING, M.C.ROAD P.B.NO.3, PANDALAM - 689501 PATHANAMTHITTA DT., KERALA",252301,PANDALAM,PATHANAMTHITTA,KERALA
"CATHOLIC SYRIAN BANK LIMITED",CSBK0000163,NA,CHENGANNUR,"XIV/144A, K.O.PHILIP & CO.BUILDING CHENGANNUR-689121 ALAPUZHA DT., KERALA",2452453,CHENGANNUR,ALAPUZZHA,KERALA
"CATHOLIC SYRIAN BANK LIMITED",CSBK0000162,682047017,"NORTH PARAVUR","JOSE VALOORAN,E-MAIL:NORTHPARAVUR@CSB.CO.IN  TELEPHONE 04842442204",2441755,PARAVUR,ERNAKULAM,KERALA
"CATHOLIC SYRIAN BANK LIMITED",CSBK0000161,700047003,"BURRA BAZAR KOLKOTA","BURRA BAZAR, 48, SIR HARIRAM GOENKA STREET, KOLKATA - 700007",22749963,KOLKATA,KOLKATA,"WEST BENGAL"
"CATHOLIC SYRIAN BANK LIMITED",CSBK0000160,NA,VILABHAGOM,"VILABHAGOM, P.O.NEDUNGANDA-695307 VIA.KADAKKAVUR THIRUVANANTHAPURAM DT., KERALA",9287271974,VILABHAGOM,TRIVANDRUM,KERALA
"CATHOLIC SYRIAN BANK LIMITED",CSBK0000159,NA,PUTHUSSERY,"PUTHUSSERY SOUTH - 689602 VIA.KALLOOPARA, THIRUVALLA PATHANAMTHITTA DT., KERALA",6450007,THIRUVALLA,PATHANAMTHITTA,KERALA
"CATHOLIC SYRIAN BANK LIMITED",CSBK0000158,NA,ELAKAMON,"OONNIMOODU JUNCTION P.O.ELAKAMON-695310 AYIROOR-VARKALA, TRIVANDRUM DT., KERALA",9287271971,AYIROOR,TRIVANDRUM,KERALA
"CATHOLIC SYRIAN BANK LIMITED",CSBK0000157,NA,THATTARAMBALAM,"MMC500-WARD NO.14,POOTHIYOT BUILDING,THATTARAMBALAM,690103.",6450115,MAVELIKKARA,ALAPUZZHA,KERALA
"CATHOLIC SYRIAN BANK LIMITED",CSBK0000156,NA,PERUMBAVOOR,"P.B.NO.27, PERUMBAVOOR - 683542 ERNAKULAM DT., KERALA",2523173,PERUMBAVOOR,ERNAKULAM,KERALA
"CATHOLIC SYRIAN BANK LIMITED",CSBK0000155,NA,KOOTHATTUKULAM,"P.B.NO.10, M.C.ROAD, KOOTHATTUKULAM-686662",6450006,KOOTHATTUKULAM,ERNAKULAM,KERALA
"CATHOLIC SYRIAN BANK LIMITED",CSBK0000154,NA,ETTUMANOOR,"VETTOOR HOUSE,M C ROAD,ETTUMANOOR,686631,KOTTAYAM DT,KERALA,INDIA",6451612,ETTUMANOOR,KOTTAYAM,KERALA
"CATHOLIC SYRIAN BANK LIMITED",CSBK0000153,NA,PALA,"MATTATHIL BUILDINGS,OPP.OLD PRIVATE BUS STAND,PALA,686575",2212606,PALAI,KOTTAYAM,KERALA
"CATHOLIC SYRIAN BANK LIMITED",CSBK0000152,680047011,MUTHUVARA,"P. O. PUZHAKKAL, MUTHUVARA - 680553, THRISSUR DISTRICT",2306040,MUTHUVARA,TRISSUR,KERALA
"CATHOLIC SYRIAN BANK LIMITED",CSBK0000151,NA,CHERIYANAD,"NISHI BUILDINGS, P.O.CHERIYANAD-689511 ALAPUZHA DT., KERALA",2362122,CHERIANAD,ALAPUZZHA,KERALA
"CATHOLIC SYRIAN BANK LIMITED",CSBK0000150,NA,MUNDATHIKODE,"DOOR NO. 11/369, P. O. MUNDATHIKODE - 680595, THRISSUR DISTRICT",9287271979,MUNDATHICODE,TRISSUR,KERALA
"CATHOLIC SYRIAN BANK LIMITED",CSBK0000149,NA,MANGALAM,"FIRST FLOOR, FATHIMA TOWER, PO MANGALAM - 676561",6450005,MANGALAM,MALAPURAM,KERALA
"CATHOLIC SYRIAN BANK LIMITED",CSBK0000148,NA,CHOONAD,"MANJADIKUTTIYIL BUILDINGS, CHOONAD, P.O.ELIPPAKULAM-690503,VIA PALLIKKAL, ALAPUZHA DT., KERLALA",6450005,CHOONAD,ALAPUZZHA,KERALA
"CATHOLIC SYRIAN BANK LIMITED",CSBK0000147,NA,KALLUMALA,"KARTHIKA BUILDINGS, KALLUMALA P.O.MAVELIKARA-690101 ALAPPUZHA DT., KERALA",6450007,KALLUMALA,ALAPUZZHA,KERALA
"CATHOLIC SYRIAN BANK LIMITED",CSBK0000146,NA,PUTHIYAKAVU,"K S PURAM P O,NATIONAL HIGHWAY, KARUNAGAPALLY----690544",6450002,PUTHIYAKAVU,KOLLAM,KERALA
"CATHOLIC SYRIAN BANK LIMITED",CSBK0000145,NA,PALLAVUR,"PAULY THOMAS V, PHONE:04922-234249, EMAIL: PALLAVUR@CSB.CO.IN",9287271980,PALLAVUR,PALAKKAD,KERALA
"CATHOLIC SYRIAN BANK LIMITED",CSBK0000144,NA,MUKATHALA,"DECENT JUNCTION, P.O MUKATHALA - 691577 KOLLAM DT KERALA",6450001,MUKATHALA,KOLLAM,KERALA
"CATHOLIC SYRIAN BANK LIMITED",CSBK0000143,NA,TALIPARAMBA,"P B NO.105, MANNA, P O TALIPARAMBA - 670 141",9287271946,TALIPARAMBA,KANNUR,KERALA
"CATHOLIC SYRIAN BANK LIMITED",CSBK0000142,NA,THOYAKAVU,"II/344,THOYAKKAVU-MULLASSERY RD,THOYAKKAVU, THRISSUR DISTRICT, 680513",6451636,THOYAKKAVU,TRISSUR,KERALA
"CATHOLIC SYRIAN BANK LIMITED",CSBK0000141,NA,VANIYAMBADI,"P.B.NO.178, NO.1, CNS PLAZA NEAR BUS STAND, CNA ROAD, VANIYAMBADI-635751VELLORE DT.,TAMIL NADU",226077,VANIYAMBADI,VELLORE,"TAMIL NADU"
"CATHOLIC SYRIAN BANK LIMITED",CSBK0000140,NA,POOCHINNIPADAM,"POOCHINNI PADAM, P.O.URAKAM,680562",6451635,"POOCHINNI PADAM",TRISSUR,KERALA
"CATHOLIC SYRIAN BANK LIMITED",CSBK0000139,NA,MUKKOOTTUTHARA,"P.B.NO.1, PAMPAVALY ROAD, MUKKOOTTUTHARA - 686510 KOTTAYAM DT., KERALA",254127,KOTTAYAM,KOTTAYAM,KERALA
"CATHOLIC SYRIAN BANK LIMITED",CSBK0000138,682047007,"ERNAKULAM MG ROAD","CC-40/9668 A-3 EMGEE SQUARE GROUND FLOOR, M G ROAD ERNAKULAM KOCHI - 682 035",2369580,KOCHI,ERNAKULAM,KERALA
"CATHOLIC SYRIAN BANK LIMITED",CSBK0000137,682047009,KAKKANAD,"NGO QUARTERS JN, PO TRIKAKKARA, KOCHI - 682021",2422206,KAKKANAD,ERNAKULAM,KERALA
"CATHOLIC SYRIAN BANK LIMITED",CSBK0000136,682047018,ALENGAD,"KOTTAPURAM JN,ALENGAD P O,ERNAKULAM DIST PIN-683511",6451636,ALENGAD,ERNAKULAM,KERALA
"CATHOLIC SYRIAN BANK LIMITED",CSBK0000135,NA,PERINNANAM,"PERINNANAM, THRISSUR - 680686",2843372,PERINGANAM,TRISSUR,KERALA
"CATHOLIC SYRIAN BANK LIMITED",CSBK0000134,NA,PERUMBA,"KEYAR BUILDINGS, PERUMBA, P O PAYYANNUR - 670307.",645003,CANNUR,KANNUR,KERALA
"CATHOLIC SYRIAN BANK LIMITED",CSBK0000133,NA,THURAVOOR,"THURAVOOR P.O., ANGAMALLY VIA, ERNAKULAM-683586 KERALA",6451023,THURAVOOR,ERNAKULAM,KERALA
"CATHOLIC SYRIAN BANK LIMITED",CSBK0000132,NA,CHENNAMANGALAM,"PAULSON K.M, PHONE: 0484 2518261",6451605,CHENNAMANGALAM,ERNAKULAM,KERALA
"CATHOLIC SYRIAN BANK LIMITED",CSBK0000131,NA,NAGERCOIL,"NO:4, DENNISON STREET, NAGERCOIL-629001",651121,NAGERCOIL,KANNIYAKUMARI,"TAMIL NADU"
"CATHOLIC SYRIAN BANK LIMITED",CSBK0000130,NA,PERAMBRA,"VIA KODAKARA, P.O. PERAMBRA - 680689, THRISSUR DISTRICT",6450102,CHALAKUDY,TRISSUR,KERALA
"CATHOLIC SYRIAN BANK LIMITED",CSBK0000129,NA,THALIKULAM,"HAYADARIA BUILDING, P.O. THALIKULAM, THRISSUR - 680569, KERALA",2600438,THRISSUR,TRISSUR,KERALA
"CATHOLIC SYRIAN BANK LIMITED",CSBK0000128,695047004,PALLIMUKKU,"PALLIMUKKU,VANCHYOOR P O, TRIVANDRUM",2473052,THIRUVANANTHAPURAM,TRIVANDRUM,KERALA
"CATHOLIC SYRIAN BANK LIMITED",CSBK0000127,673047004,KOVOOR,"NEW DEVAGIRI BLDG,MEDICAL COLLEGE P O,KOVOOR,KOZHIKODE-673008MR",2355272,CALICUT,KOZHIKODE,KERALA
"CATHOLIC SYRIAN BANK LIMITED",CSBK0000126,NA,OKKAL,"ST.JOSEPH'S CHURCH BUILDING, THANIPUZHA, P.O.OKKAL, PIN- 683 550",2464475,OKKAL,ERNAKULAM,KERALA
"CATHOLIC SYRIAN BANK LIMITED",CSBK0000125,682047021,"SOUTH VAZHAKULAM","SHEELA M JOSE, E-MAIL : SOUTHVAZHAKULAM@CSB.CO.IN, PHONE: 0484 2677158",6451604,VAZHAKULAM,ERNAKULAM,KERALA
"CATHOLIC SYRIAN BANK LIMITED",CSBK0000124,NA,MANNATHUR,"142/A-9, THADIYAPILLIL BLDGS ATHANIKAL JN., P.O.MANNATHUR-686723 VIA.MUVATTUPUZHA, EKM DT., KERALA",2875397,MANNATHOOR,ERNAKULAM,KERALA
"CATHOLIC SYRIAN BANK LIMITED",CSBK0000123,641047003,GANDHIPURAM,"P.B. NO. 2929,IST FLOOR SREE GANESHA COMPLEX, NO 12 10TH STREET GANDHIPURAM COIMBATORE-641 012 TAMILNADU",2493741,COIMBATORE,COIMBOTORE,"TAMIL NADU"
"CATHOLIC SYRIAN BANK LIMITED",CSBK0000122,NA,EDAKKUNNU,"ANTONY CHEVOOKARAN, E-MAIL : EDAKKUNNU@CSB.CO.IN, PHONE: 0484 2451533",2451533,EDAKKUNNU,ERNAKULAM,KERALA
"CATHOLIC SYRIAN BANK LIMITED",CSBK0000121,NA,MADURAI,"79 WEST TOWER STREET, MADURAI 625001",2346592,MADURAI,MADURAI,"TAMIL NADU"
"CATHOLIC SYRIAN BANK LIMITED",CSBK0000120,682047020,PALLIPURAM,"BABY LUCKOSE, E-MAIL : PALLIPURAM@CSB.CO.IN, PHONE: 0484 2488011",6451620,PALLIPPURAM,ERNAKULAM,KERALA
"CATHOLIC SYRIAN BANK LIMITED",CSBK0000119,NA,SREENARAYANAPURAM,"TRIPLE COMPLEX, NH -17, P.O PANANGAD - 680665, THRISSUR DISTRICT",2850543,SREENARAYANAPURAM,TRISSUR,KERALA
"CATHOLIC SYRIAN BANK LIMITED",CSBK0000118,NA,EDAVA,"P.B.NO.502, P.O.EDAVA MAS BUILDING, PIN-695311 THIRUVANATHAPURAM DT., KERALA",9287271970,EDAVA,TRIVANDRUM,KERALA
"CATHOLIC SYRIAN BANK LIMITED",CSBK0000117,620047002,TRICHY,"NEW NO 8, OLD NO 56, ST.ANNES BLDG, MADURAI ROAD, MELAPPUDUR, PB NO. 149, THIRUCHIRAPALLI - 620001",2411083,TIRUCHIRAPPALLI,TIRUCHIORAPPALLI,"TAMIL NADU"
"CATHOLIC SYRIAN BANK LIMITED",CSBK0000116,NA,PUTHENVELIKKARA,"VIVIKA CHANDRIKA SABHA BUILDINGS, 1ST FLOOR,PUTHENVELIKKARA,P.O.PUTHENVEL PIN-683594, ERNAKULAM DT., KERALA",2485600,PUTHENVELIKKARA,ERNAKULAM,KERALA
"CATHOLIC SYRIAN BANK LIMITED",CSBK0000115,NA,SHORANUR,"KULAPPULLY JUNCTION, SHORANUR - 679122",6450007,SHORANUR,PALAKKAD,KERALA
"CATHOLIC SYRIAN BANK LIMITED",CSBK0000114,NA,THURUTHIPURAM,"THURUTHIPURAM P.O.MOOTHAKUNNAM - 683516 ERNAKULAM DT., KERALA",6451602,THURUTHIPURAM,ERNAKULAM,KERALA
"CATHOLIC SYRIAN BANK LIMITED",CSBK0000113,678047002,PALAKKAD,"IMPERIAL BUILDINGS, T B ROAD, PALAKKAD - 678014",6451603,PALAKKAD,PALAKKAD,KERALA
"CATHOLIC SYRIAN BANK LIMITED",CSBK0000112,682047006,KALOOR,"ST.ANTONY'S SHRINE.HOLY TUESDAY SHOPPING MALL. KALOOR.COCHIN682017",2539475,KOCHI,ERNAKULAM,KERALA
"CATHOLIC SYRIAN BANK LIMITED",CSBK0000111,NA,ADOOR,"P B NO.7,ADOOR-691 523,PATHANAMTHITTA DIST, KERALA",224776,ADOOR,PATHANAMTHITTA,KERALA
"CATHOLIC SYRIAN BANK LIMITED",CSBK0000110,NA,KOTTARAKKARA,"SHEEBA BLDG,PULAMON JUNCTION,KOTTARAKKARA,-691531,KOLLAM DT. KERALA",245274,KOTTARAKKARA,KOLLAM,KERALA
"CATHOLIC SYRIAN BANK LIMITED",CSBK0000109,NA,CHUNGATHARA,"P.O.CHUNGATHARA, NILAMBUR TALUK, MALAPPURAM DT  679334",9287271942,CHUNGATHARA,MALAPURAM,KERALA
"CATHOLIC SYRIAN BANK LIMITED",CSBK0000108,NA,WADAKKANCHERRY,"THOUFEEQ BUILDING, OPP. OTTUPARA BUS STAND, OTTUPARA - 680590, THRISSUR DISTRICT",235930,WADAKANCHERRY,TRISSUR,KERALA
"CATHOLIC SYRIAN BANK LIMITED",CSBK0000107,NA,MALLAPALLY,"KUSHIMANNIL BUILDING,POST OFFICE JN,THIRUVALLA RD,MALLAPALLY, PATHANAMTHITTA DT.KERALA- 689 585",6451601,MALLAPPALLY,PATHANAMTHITTA,KERALA
"CATHOLIC SYRIAN BANK LIMITED",CSBK0000106,NA,KUNDARA,"GHEE HOME, KALLARACKKAL HOSPITAL JN., KUNDARA- 691 501 KOLLAM DT., KERALA",2523766,KUNDARA,KOLLAM,KERALA
"CATHOLIC SYRIAN BANK LIMITED",CSBK0000105,NA,PATTAMBI,"PATTAMBI - 679303, PALAKKAD DISTRICT., KERALA",6450006,PATTAMBI,PALAKKAD,KERALA
"CATHOLIC SYRIAN BANK LIMITED",CSBK0000104,NA,PONKUNNAM,"P.B. NO. 3, P.O. PONKUNNAM KOTTAYAM DT KERALA - 686 506",645005,PONKUNNAM,KOTTAYAM,KERALA
"CATHOLIC SYRIAN BANK LIMITED",CSBK0000103,NA,NEMMARA,"MOHAN NAIR C, PHONE: 04923-244211, EMAIL: NEMMARA@CSB.CO.IN",9287271947,NEMMARA,PALAKKAD,KERALA
"CATHOLIC SYRIAN BANK LIMITED",CSBK0000102,NA,OTTAPALAM,"AYODHYA TOWER, BANK LANE, OTTAPALAM ┬û 679101",6450005,OTTAPALAM,PALAKKAD,KERALA
"CATHOLIC SYRIAN BANK LIMITED",CSBK0000101,NA,VELLIKULANGARA,"KALAMBADEN'S BUILDINGS VELLIKULANGARA-680693 THRISSUR DT., KERALA",2740529,VELLIKULANGARA,TRISSUR,KERALA
"CATHOLIC SYRIAN BANK LIMITED",CSBK0000100,682047002,"IBD ERNAKULAM","PB NO. 1156, MARKET ROAD, ERNAKULAM - 682 011, KERALA",2380441,ERNAKULAM,ERNAKULAM,KERALA
"CATHOLIC SYRIAN BANK LIMITED",CSBK0000099,NA,VALLAMKULAM,"OORAYIL BLDGS, VALLAMKULAM-689541 VALLAMKULAM EAST P.O., VIA.THIRUVALLA PATHANAMTHITTA DT., KERALA",6450006,THIRUVALLA,PATHANAMTHITTA,KERALA
"CATHOLIC SYRIAN BANK LIMITED",CSBK0000098,682047011,VALANJAMBALAM,"PB NO 1745, CHITTOOR ROAD, VALANJAMBALAM, ERNAKULAM SOUTH - 682016",2376039,KALOOR,ERNAKULAM,KERALA
"CATHOLIC SYRIAN BANK LIMITED",CSBK0000097,695047002,ULLOOR,"ULLOOR, MEDICAL COLLEGE P O, THIRUVANANTHAPURAM 695011,KERALA",244860,THIRUVANANTHAPURAM,TRIVANDRUM,KERALA
"CATHOLIC SYRIAN BANK LIMITED",CSBK0000096,695047002,"THIRUVANANTHAPURAM MAIN","MALANKAA BUILDING COMPLEX,PALAYAM,THIRUVANANTHAPURAM-695034,KERALA",2475945,THIRUVANANTHAPURAM,TRIVANDRUM,KERALA
"CATHOLIC SYRIAN BANK LIMITED",CSBK0000095,682047015,TRIPUNITHURA,"PB. NO.10, KALARIKKAL BAZAR, HILL PALACE ROAD, THRIPUNITHURA - 682301",2777350,TRIPPUNITHURA,ERNAKULAM,KERALA
"CATHOLIC SYRIAN BANK LIMITED",CSBK0000094,680047002,"THRISSUR MAIN","P.B. NO.7, ROUND SOUTH, THRISSUR - 680001,KERALA",2428527,THRISSUR,TRISSUR,KERALA
"CATHOLIC SYRIAN BANK LIMITED",CSBK0000093,689047002,THIRUVALLA,"M C ROAD,THIRUVALLA 689101,PATHANAMTHITTA DIST, KERALA",2601247,THIRUVALLA,PATHANAMTHITTA,KERALA
"CATHOLIC SYRIAN BANK LIMITED",CSBK0000092,NA,TIRUR,"TARIFF BUILDING,PAN BAZAR, TIRUR - 676 101.",6450007,TIRUR,MALAPURAM,KERALA
"CATHOLIC SYRIAN BANK LIMITED",CSBK0000091,NA,THOTTAKAD,"THOTTAKAD - 686539 KOTTAYAM DT KERALA",6451619,THOTTAKAD,KOTTAYAM,KERALA
"CATHOLIC SYRIAN BANK LIMITED",CSBK0000090,682047010,THOPPUMPADY,"PB NO. 813, THOPPUMPADY, KOCHI - 682005",2231484,KALOOR,ERNAKULAM,KERALA
"CATHOLIC SYRIAN BANK LIMITED",CSBK0000089,NA,THALASSERY,"P B NO.57, M M ROAD JUNCTION, THALASSERY - 670101, KANNUR DIST.",6450004,THALASSERY,KANNUR,KERALA
"CATHOLIC SYRIAN BANK LIMITED",CSBK0000088,NA,TATTAMANGALAM,"2/280, MAIN ROAD TATTAMANGALAM - 678102, CHITTUR TALUK, PALAKKAD DT., KERALA",9287271949,TATTAMANGALAM,PALAKKAD,KERALA
"CATHOLIC SYRIAN BANK LIMITED",CSBK0000087,NA,TANUR,"RAILWAY STATION ROAD,P O TANUR, MALAPPURAM KERALA- 676 302",6450006,TANUR,MALAPURAM,KERALA
"CATHOLIC SYRIAN BANK LIMITED",CSBK0000086,NA,SOORANAD,"CHAKKUVALLY JUNCTION, P.O.SOORANAD-690522 KOLLAM DT., KERALA",2851326,SOORANAD,KOLLAM,KERALA
"CATHOLIC SYRIAN BANK LIMITED",CSBK0000085,641047004,SINGANELLUR,"KAMARAJ ROAD, UPPILIPALAYANM, P.B. NO.3306, SINGANELLUR, COIMBATORE T N- 641 015",2573342,COIMBATORE,COIMBOTORE,"TAMIL NADU"
"CATHOLIC SYRIAN BANK LIMITED",CSBK0000084,NA,CHERTHALA,"MUTTOM BAZAR,CHERTHALA,688524,ALAPUZHA DT,KERALA,INDIA.",2822687,CHERTHALA,ALAPUZZHA,KERALA
"CATHOLIC SYRIAN BANK LIMITED",CSBK0000083,636047002,SALEM,"DAVY PAUL, E-MAIL : SALEM@CSB.CO.IN  TELEPHONE : 0484 2353927",2353927,SALEM,SALEM,"TAMIL NADU"
"CATHOLIC SYRIAN BANK LIMITED",CSBK0000082,NA,KOLLAM,"NAJEEM COMPLEX,DISTRICT HOSPITAL ROAD,VADAYATTUKOTTA ROAD END,CHAMAKADA,KOLLAM-691001,KERALA",2750475,KOLLAM,KOLLAM,KERALA
"CATHOLIC SYRIAN BANK LIMITED",CSBK0000081,NA,PUTHOOR,"P.O.PUTHOOR-691507 KOLLAM DT KERALA",2415541,PUTHOOR,KOLLAM,KERALA
"CATHOLIC SYRIAN BANK LIMITED",CSBK0000080,NA,PUTHENPEEDIKA,"VII/363,VIKAS BLDG,MAIN ROAD,PUTHENPEEDIKA,680642",6451604,PUTHENPEEDIKA,TRISSUR,KERALA
"CATHOLIC SYRIAN BANK LIMITED",CSBK0000079,NA,POLLACHI,"141-COIMBATORE ROAD OPP NALLAPPA THEATRE POLLACHI 642 001",221477,POLLACHI,COIMBOTORE,"TAMIL NADU"
"CATHOLIC SYRIAN BANK LIMITED",CSBK0000078,NA,PAVARATTY,"P.B. NO. 7, MAIN ROAD, P.O. PAVARATTY, THRISSUR - 680507, KERALA",2642454,PAVARATTY,TRISSUR,KERALA
"CATHOLIC SYRIAN BANK LIMITED",CSBK0000077,NA,PATTIKKAD,"DOOR NO. VII/274A, NATIONAL HIGHWAY, PATTIKAD - 680652, THRISSUR DISTRICT, KERALA",6451618,PATTIKAD,TRISSUR,KERALA
"CATHOLIC SYRIAN BANK LIMITED",CSBK0000076,NA,PARATHODE,"K.K.ROAD, P.O.CHITTADY - 686524 KOTTAYAM DT., KERALA",645003,PARATHODE,KOTTAYAM,KERALA
"CATHOLIC SYRIAN BANK LIMITED",CSBK0000075,NA,PALAYAMPARMBU,"PALAYAMPARAMBU P.O. - 680741, (VIA) ANNAMANADA, THRISSUR DISTRICT",2719058,ASHTAMICHIRA,TRISSUR,KERALA
"CATHOLIC SYRIAN BANK LIMITED",CSBK0000074,682047008,"BANAERJI ROAD","BANERJI ROAD, PALATHODE, TATAPURAM, KOCHI 682014",239130,KOCHI,ERNAKULAM,KERALA
"CATHOLIC SYRIAN BANK LIMITED",CSBK0000073,680047008,OLLUR,"P.B. NO. 83, PANAMKUTTICHIRA, P.O. OLLUR, THRISSUR - 680306, KERALA",2350342,OLLUR,TRISSUR,KERALA
"CATHOLIC SYRIAN BANK LIMITED",CSBK0000072,NA,OLAVAKKODE,"MALAMPUZHA ROAD, OLAVAKKODE - 678 002",6451602,PALAKKAD,PALAKKAD,KERALA
"CATHOLIC SYRIAN BANK LIMITED",CSBK0000071,NA,NEYYATTINKARA,"P.S THOMAS, E-MAIL : NEYYATTINKARA@CSB.CO.IN, PHONE:04716451612",2225992,NEYYATTINKARA,TRIVANDRUM,KERALA
"CATHOLIC SYRIAN BANK LIMITED",CSBK0000070,NA,NEMOM,"DOOR NO.1/1019,NEMOM-695020,THIRUVANANTHAPURAM",6451602,THIRUVANANTHAPURAM,TRIVANDRUM,KERALA
"CATHOLIC SYRIAN BANK LIMITED",CSBK0000069,68204719,NARAKKAL,"POPPU AND MARIAM MEMORIAL BLDG, V.P ROAD, NARAKKAL - 682505",6451612,NARAKKAL,ERNAKULAM,KERALA
"CATHOLIC SYRIAN BANK LIMITED",CSBK0000068,NA,MUVATTUPUZHA,"VALLAMATTAM ESTATE, POST OFFICE JN. MUVATTUPUZHA ERNAKULAM DT. KERALA- 686 661",2835119,MUVATTUPUZHA,ERNAKULAM,KERALA
"CATHOLIC SYRIAN BANK LIMITED",CSBK0000067,NA,MURUKKUMPUZHA,"PANACHAMOODU JN.,MURUKKUMPUZHA-695302",2420270,MURUKKUPUZHA,TRIVANDRUM,KERALA
"CATHOLIC SYRIAN BANK LIMITED",CSBK0000066,NA,MARATHAKKARA,"P.B. NO. 51, MARATHAKKARA - 680320, THRISSUR DISTRICT, KERALA",6451615,THRISSUR,TRISSUR,KERALA
"CATHOLIC SYRIAN BANK LIMITED",CSBK0000065,NA,MARANCHERRY,"PONNANI ROAD, MARANCHERY, MALAPPURAM - 679 581",6450004,MALAPPURAM,MALAPURAM,KERALA
"CATHOLIC SYRIAN BANK LIMITED",CSBK0000064,NA,MANIMALA,"KOVOOR BUILDING, MANIMALA RANNI ROAD P.B.NO.2, MANIMALA - 686543 KOTTAYAM DT., KERALA",247122,MANIMALA,KOTTAYAM,KERALA
"CATHOLIC SYRIAN BANK LIMITED",CSBK0000063,NA,MANANTHAVADY,"P B NO. 5, MP VI/581, KOZHIKODE ROAD, MANANTHAVADY - 670645, WYNAD DT.",645003,MANANTHAVADY,WAYANAD,KERALA
"CATHOLIC SYRIAN BANK LIMITED",CSBK0000062,NA,MANALUR,"MANALUR - 680617, THRISSUR DISTRICT",6451614,MANALUR,TRISSUR,KERALA
"CATHOLIC SYRIAN BANK LIMITED",CSBK0000061,NA,MALAYATTUR,"ST.THOMAS CHURCH BUILDING MALAYATTUR - 683587 ERNAKULAM DT., KERALA",6451608,MALAYATTUR,ERNAKULAM,KERALA
"CATHOLIC SYRIAN BANK LIMITED",CSBK0000060,NA,MALAPPURAM,"CATHOLIC CENTRE, UP-HILL, MALAPPURAM, PB NO 24, 676 505",6451601,MALAPPURAM,MALAPURAM,KERALA
"CATHOLIC SYRIAN BANK LIMITED",CSBK0000059,600047004,PURUSAWALKAM,"268,PURUSAWALKAM HIGH ROAD,CHENNAI-600 007",26425500,CHENNAI,CHENNAI,"TAMIL NADU"
"CATHOLIC SYRIAN BANK LIMITED",CSBK0000058,600047002,CHENNAI-1,"NO.3, 2ND LINE BEACH,CHENNAI-600 001,TAMILNADU",25233921,CHENNAI,CHENNAI,"TAMIL NADU"
"CATHOLIC SYRIAN BANK LIMITED",CSBK0000057,NA,KUZHUR,"KUZHUR P.O. PIN-680734, VIA MALA THRISSUR DT., KERALA",6450005,KUZHUR,TRISSUR,KERALA
"CATHOLIC SYRIAN BANK LIMITED",CSBK0000056,NA,KUTTIKAD,"P.O.KUTTIKAD-680721 VIA CHALAKUDY THRISSUR DT., KERALA",2746026,KUTTIKADU,TRISSUR,KERALA
"CATHOLIC SYRIAN BANK LIMITED",CSBK0000055,680047007,KUTTANALLUR,"7/450 A, M.M. BROTHERS BUILDING, P.O. ANCHERY, KUTTANELLUR - 680006, THRISSUR DISTRICT, KERALA",6451613,THRISSUR,TRISSUR,KERALA
"CATHOLIC SYRIAN BANK LIMITED",CSBK0000054,NA,KURUPPANTHARA,"MARKET JN. MANJOOR P.O.,  KOTTAYAM 686 603",645003,KURUPPANTHARA,KOTTAYAM,KERALA
"CATHOLIC SYRIAN BANK LIMITED",CSBK0000053,NA,KURUMPILAVU,"CHIRAKKAL CENTRE, KURUMPILAVU - 680584, THRISSUR DISTRICT",6451603,KURUMPILAV-PUZHUVIL,TRISSUR,KERALA
"CATHOLIC SYRIAN BANK LIMITED",CSBK0000052,NA,KURIYANNOOR,"BUILDING NO.5/358A, POST OFFICE JN. PUTHETHU VADAKETHIL BUILDING KURIYANNOOR-689550,PATHANAMTHITTA,KERALA",9287271926,PATHANAMTHITTA,PATHANAMTHITTA,KERALA
"CATHOLIC SYRIAN BANK LIMITED",CSBK0000051,NA,KUNNATHANGADI,"X/118, P. O. VELUTHUR - 680616, THRISSUR DISTRICT",6451639,KANNATHANGADI,TRISSUR,KERALA
"CATHOLIC SYRIAN BANK LIMITED",CSBK0000050,NA,KUNNAMKULAM,"P. B. NO. 3, GURUVAYUR ROAD, KUNNAMKULAM - 680503, THRISSUR DISTRICT",222250,KUNNAMKULAM,TRISSUR,KERALA
"CATHOLIC SYRIAN BANK LIMITED",CSBK0000049,NA,KUMBAZHA,"DANIE COMPLEX, P.O.KUMBAZHA-689653 RANNI ROAD,P.B.NO.1, PATHANAMTHITTA DT., KERALA",6450006,PATHANAMTHITTA,PATHANAMTHITTA,KERALA
"CATHOLIC SYRIAN BANK LIMITED",CSBK0000048,695047003,KUMARAPURAM,"PB NO. 2405, P.O MEDICAL COLLEGE, KUMARAPURAM, THIRUVANANTHAPURAM - 695011",2444524,KUMARAPURAM,ALAPUZZHA,KERALA
"CATHOLIC SYRIAN BANK LIMITED",CSBK0000047,NA,KUMARANALLOOR,"KUMARANALLOOR,PERUBAIKOD PO, KOTTAYAM DT.",2597362,KOTTAYAM,KOTTAYAM,KERALA
"CATHOLIC SYRIAN BANK LIMITED",CSBK0000046,673047002,"KOZHIKODE CITY","MANUEL SONS TOWERS, G S ROAD, KOZHIKODE - 673001.",6451604,CALICUT,KOZHIKODE,KERALA
"CATHOLIC SYRIAN BANK LIMITED",CSBK0000045,NA,"KOZHIKODE BAZAR","VARGHESE GEORGE, PHONE:0495-2727240 EMAIL:KOZHIKODEBAZAR@CSB.CO.IN",6451603,CALICUT,KOZHIKODE,KERALA
"CATHOLIC SYRIAN BANK LIMITED",CSBK0000044,NA,KOTTAYI,"ANUGRAHA SHOPPING COMPLEX P.O.KOTTAYI-678572 PALAKKAD DT., KERALA",9287271944,KOTTAYI,PALAKKAD,KERALA
"CATHOLIC SYRIAN BANK LIMITED",CSBK0000043,686047002,KOTTAYAM,"MATTEETHARA BUILDINGS,BAKER JUNCTION,KOTTAYAM 68601,KERAL,INDIA",2560475,KOTTAYAM,KOTTAYAM,KERALA
"CATHOLIC SYRIAN BANK LIMITED",CSBK0000042,NA,KOTTAPADI,"MAIN ROAD, KOTTAPADI - 680505, THRISSUR DISTRICT",2553236,KOTTAPADI,TRISSUR,KERALA
"CATHOLIC SYRIAN BANK LIMITED",CSBK0000041,NA,KOONAMMUCHI,"DOOR NO. IX-144, BAZAR JUNCTION, KOONAMMUCHI - 680504, THRISSUR DISTRICT",645004,MATTOM-KOONAMMUCHI,TRISSUR,KERALA
"CATHOLIC SYRIAN BANK LIMITED",CSBK0000040,NA,KOLLAPPALLY,"ST.AUGUSTINE'S CHURCH ROAD, P.O.ANTHINAD-686651 KOTTAYAM DT., KERALA",9287271976,KOLLAPPALLY,KOTTAYAM,KERALA
"CATHOLIC SYRIAN BANK LIMITED",CSBK0000039,680047005,"R S ROAD THRISSUR","P.B. NO. 139, RAILWAY STATION ROAD, THRISSUR - 680001, KERALA",2422013,THRISSUR,TRISSUR,KERALA
"CATHOLIC SYRIAN BANK LIMITED",CSBK0000038,NA,KODUVAYUR,"K.S ABOOBACKER BUILDING, PALAKKAD ROAD, KODUVAYUR - 678501",9287271943,KODUVAYUR,PALAKKAD,KERALA
"CATHOLIC SYRIAN BANK LIMITED",CSBK0000037,NA,KODUMUDI,"BUILDING NO.9, P.B.NO.6, BY PASS ROAD, WARD NO.6, KODUMUDI-638151 PERIYAR DT., TAMILNADU",222784,KODUMUDI,ERODE,"TAMIL NADU"
"CATHOLIC SYRIAN BANK LIMITED",CSBK0000036,NA,KILIKOLLUR,"MOONAMKUTTY JUNCTION, KILIKOLLUR-691004 KOLLAM DT., KERALA",2710948,KILIKOLLUR,KOLLAM,KERALA
"CATHOLIC SYRIAN BANK LIMITED",CSBK0000035,NA,KEERAMPARA,"KEERAMPARA JUNCTION P.O.KEERAMPARA-686691 ERNAKULAM DT., KERALA",2570152,KEERAMPARA,ERNAKULAM,KERALA
"CATHOLIC SYRIAN BANK LIMITED",CSBK0000034,NA,KAYAMKULAM,"MAIN ROAD, P.B.NO.18 KAYAMKULAM-690502 ALAPPUZHA DT., KERALA",6450006,KAYAMKULAM,ALAPUZZHA,KERALA
"CATHOLIC SYRIAN BANK LIMITED",CSBK0000033,NA,KATTANAM,"P.O.PALLIKKAL-690503 P.B.NO.3 ALAPPUZHA DT., KERALA",6450004,ALAPPUZHA,ALAPUZZHA,KERALA
"CATHOLIC SYRIAN BANK LIMITED",CSBK0000032,NA,KARUR,"1,SOUTH MADAVILAGAM ST,PRABHU TOWERS,HOSPITAL RD,PB 19,KARUR 639001",650110,KARUR,KARUR,"TAMIL NADU"
"CATHOLIC SYRIAN BANK LIMITED",CSBK0000031,NA,KARUKACHAL,"PUTHUPARAMBIL BUILDING,KARUKACHAL,686540",6451615,KARUKACHAL,KOTTAYAM,KERALA
"CATHOLIC SYRIAN BANK LIMITED",CSBK0000030,NA,KANDASSANKADAVU,"MAIN ROAD, KANDASSANKADAVU - 680613, THRISSUR DISTRICT",6451611,THRISSUR,TRISSUR,KERALA
"CATHOLIC SYRIAN BANK LIMITED",CSBK0000029,NA,KALLIASSERY,"466E/IX, NH 17, P O KALLIASSERY, KANNUR - 670562",6451601,KALLIASSERY,KANNUR,KERALA
"CATHOLIC SYRIAN BANK LIMITED",CSBK0000028,NA,KADUKUTTY,"JOSE P.A, E-MAIL: KADUKUTTY@CSB.CO.IN, PHONE: 0480 2718278",6450004,KADUKUTTY,TRISSUR,KERALA
"CATHOLIC SYRIAN BANK LIMITED",CSBK0000027,NA,KADAMPANAD,"XII/670, P.O.KADAMBANAD SOUTH PIN-691553 PATHANAMTHITTA DT., KERALA",9287271924,KADAMBANAD,PATHANAMTHITTA,KERALA
"CATHOLIC SYRIAN BANK LIMITED",CSBK0000026,NA,IRINJALAKUDA,"TANA JUNCTION, P.B. NO. 5, IRINJALAKUDA, THRISSUR - 680121, KERALA",2825232,IRINJALAKUDA,TRISSUR,KERALA
"CATHOLIC SYRIAN BANK LIMITED",CSBK0000025,NA,GURUVAYOOR,"P.B. NO. 10, EAST NADA, GURUVAYUR, THRISSUR - 680101, KERALA",2556240,GURUVAYUR,TRISSUR,KERALA
"CATHOLIC SYRIAN BANK LIMITED",CSBK0000024,NA,GUDALUR,"VAISHANAVI COMPLEX , P.B.NO.3 CALICUT ROAD, GUDALUR-643212 NILGIRIS DT., TAMILNADU",263173,GUDALUR,NILGIRIS,"TAMIL NADU"
"CATHOLIC SYRIAN BANK LIMITED",CSBK0000023,NA,FEROKE,"KODINJI TOWERS, CHERUVANNUR, FEROKE - 673631",6451601,FEROKE,KOZHIKODE,KERALA
"CATHOLIC SYRIAN BANK LIMITED",CSBK0000022,638047022,ERODE,"25, CUTCHERRY STREET ERODE - 638 001 TAMIL NADU",2254599,ERODE,ERODE,"TAMIL NADU"
"CATHOLIC SYRIAN BANK LIMITED",CSBK0000021,682047002,"ERNAKULAM MARKET ROAD","D.J.M BUILDING, MARKET ROAD,COCHI,682011",6466634,KOCHI,ERNAKULAM,KERALA
"CATHOLIC SYRIAN BANK LIMITED",CSBK0000020,NA,ENGANDIYUR,"MAIN ROAD, P.O. ENGANDIYUR, THRISSUR - 680615",6451609,CHAVAKKAD,TRISSUR,KERALA
"CATHOLIC SYRIAN BANK LIMITED",CSBK000001A,NA,ALAPPUZHA,"GOLD MERCHANT'S ASSOCIATION BLDGS, NO.XVIII/1285, P.B.NO.3818, MULLAKKAL, ALAPPUZHA-688010, KERALA.",2262660,ALAPPUZHA,ALAPUZZHA,KERALA
"CATHOLIC SYRIAN BANK LIMITED",CSBK0000019,641047002,RAJASTREET,"DOOR NO. 153, RAJA STREET, P.B. NO.124, COIMBATORE, T N- 641 001",2398204,COIMBATORE,COIMBOTORE,"TAMIL NADU"
"CATHOLIC SYRIAN BANK LIMITED",CSBK0000018,682047012,KOCHI-1,"PALAMOOTTIL BUILDING,CC NO.1/583/1, UNNUMPURAM,KOCHI,682001",6451610,KOCHI,ERNAKULAM,KERALA
"CATHOLIC SYRIAN BANK LIMITED",CSBK0000017,NA,CHITTUR,"SOHAR COMPLEX,MAIN ROAD, CHITTUR - 678101.",9287271941,CHITTUR,PALAKKAD,KERALA
"CATHOLIC SYRIAN BANK LIMITED",CSBK0000016,NA,CHITTATTUKARA,"MAIN ROAD, CHITTATTUKARA - 680511, THRISSUR DISTRICT",6451633,PAVARATTY,TRISSUR,KERALA
"CATHOLIC SYRIAN BANK LIMITED",CSBK0000015,NA,CHAVAKKAD,"P.B. NO. 3, BYE PASS ROAD, CHAVAKKAD, THRISSUR - 680506, KERALA",2507322,CHAVAKKAD,TRISSUR,KERALA
"CATHOLIC SYRIAN BANK LIMITED",CSBK0000014,NA,CHANGANASSERY,"KULATHUNGAL BUILDINGS,M C ROAD,.PERUNNA PO,686102,KOTAAM DT,KERALAINDIA.",2420459,CHANGANASSERY,KOTTAYAM,KERALA
"CATHOLIC SYRIAN BANK LIMITED",CSBK0000013,NA,CHALISSERY,"ORUMA COMPLEX, MAIN ROAD JN, CHALISSERY-679536",6450003,CHALISSERY,PALAKKAD,KERALA
"CATHOLIC SYRIAN BANK LIMITED",CSBK0000012,NA,CHALAKUDY,"KAITHARATHU BUILDING, MAIN ROAD, CHALAKKUDY,KERALA STATE. PIN 680307",2701359,CHALAKUDY,TRISSUR,KERALA
"CATHOLIC SYRIAN BANK LIMITED",CSBK0000011,NA,KANNUR,"VEEKAY COMPLEX,FORT ROAD,KANNUR",2706645,KANNUR,KANNUR,KERALA
"CATHOLIC SYRIAN BANK LIMITED",CSBK0000010,400047003,"CHEMBUR MUMBAI","GAMA GRANDEUR, CENTRAL AVENUE ROAD, P O CHEMBUR, MUMBAI-40 071",25272845,MUMBAI,"GREATER MUMBAI",MAHARASHTRA
"CATHOLIC SYRIAN BANK LIMITED",CSBK0000009,560047002,"BRIGADE ROAD BANGALORE","ST.PATRICK'S SHOPPING ARCADE,BRIGADE ROAD,BANGALORE - 560 025",25588374,BANGALORE,"BANGALORE URBAN",KARNATAKA
"CATHOLIC SYRIAN BANK LIMITED",CSBK0000008,NA,AZHIKODE,"VANKULATHUVAYAL, P O AZHIKODE, KANNUR - 670 009",6451603,AZHIKODE,KANNUR,KERALA
"CATHOLIC SYRIAN BANK LIMITED",CSBK0000007,NA,KUNNUKARA,"ATHANI MANJALI ROAD, P.O.KUNNUKARA-683524 ERNAKULAM DT., KERALA",6451601,KUNNUKARA,ERNAKULAM,KERALA
"CATHOLIC SYRIAN BANK LIMITED",CSBK0000006,NA,ALTHARA,"P.B. NO. 2, P.O. PUNNAYURKULAM, ALTHARA, THRISSUR - 679561",2542229,ATTUPURAM,TRISSUR,KERALA
"CATHOLIC SYRIAN BANK LIMITED",CSBK0000005,NA,ASHTAMICHIRA,"XII/773(L), MUDILIKULATH SHOPPING COMPLEX, ASHTAMICHIRA P.O. - 680731, THRISSUR DISTRICT",6450003,ASHTAMICHIRA,TRISSUR,KERALA
"CATHOLIC SYRIAN BANK LIMITED",CSBK0000004,NA,ANNAMANADA,"CHAKKARAMPILLYSHOPING COMPLEX COMPLEX",6450105,ANNAMANADA,TRISSUR,KERALA
"CATHOLIC SYRIAN BANK LIMITED",CSBK0000003,NA,AMBALLUR,"SREE KRISHNA BUILDING, AMBALLUR JUNCTION, P.O. ALAGAPPA NAGAR, THRISSUR - 680302",2752883,AMBALLUR,TRISSUR,KERALA
"CATHOLIC SYRIAN BANK LIMITED",CSBK0000002,682047014,ALUVA,"PAUL DAVIS, E-MAIL : ALUVA@CSB.CO.IN, PHONE: 0484 2624565",2624231,ALUVA,ERNAKULAM,KERALA
"CATHOLIC SYRIAN BANK LIMITED",CSBK0000001,682047002,RTGS-HO,"MARKET ROAD, ERNAKULAM, KOCHI - 682011, ERNAKULAM, KERALA",6460167,KOCHI,ERNAKULAM,KERALA
