BANK,IFSC,MICR,BRANCH,ADDRESS,CONTACT,CITY,DISTRICT,STATE
"THE HASTI COOP BANK LTD",HCBL0000122,411736002,"THE HASTI CO-OP BANK LTD","THE HASTI CO-OP BANK LTD PAUD PHATA KOTHARUD PUNE -411038",744743780,PUNE,PUNE,MAHARASHTRA
"THE HASTI COOP BANK LTD",HCBL0000121,425736506,"THE HASTI CO-OP BANK LTD","NEAR DR.HEMANT PATIL NIJAMPUR TALUKA-SAKRI SIST-DHULE 424305",8888891643,NIJAMPUR,DHULE,MAHARASHTRA
"THE HASTI COOP BANK LTD",HCBL0000120,425736505,"VISARWADI BRANCH","VISARWADI TAL NAVAPUR DIS NANDURBAR 425426",240306,VISARWADI,NANDURBAR,MAHARASHTRA
"THE HASTI COOP BANK LTD",HCBL0000119,424736002,"DEOPUR DHULE","PLOT NO 65 SARASWATI COLONY GONDUR ROAD DEOUPR DHULE 424002",244306,DHULE,DHULE,MAHARASHTRA
"THE HASTI COOP BANK LTD",HCBL0000118,425736203,"GIRIVIHAR NANDURBAR","GIRIVIHAR GATE NANDURBAR 425412",233118,NANDURBAR,NANDURBAR,MAHARASHTRA
"THE HASTI COOP BANK LTD",HCBL0000117,425736504,TALODA,"MAIN ROAD TALODA DIST NANDURBAR MH PIN 425413",233002,TALODA,NANDURBAR,MAHARASHTRA
"THE HASTI COOP BANK LTD",HCBL0000116,423736151,SATANA,"Near Uma Hospital SATANA dist Nasik",8888843722,SATANA,NASIK,MH
"THE HASTI COOP BANK LTD",HCBL0000115,425736152,AMALNER,"New Plot, Bank Street , AMALNER Dist Jalgaon",8888843715,AMALNER,JALGAON,MH
"THE HASTI COOP BANK LTD",HCBL0000114,424736202,CHALISGAON,"Ghat Road, Chalisgaon",8888843755,CHALISGAON,JALGAON,MH
"THE HASTI COOP BANK LTD",HCBL0000113,425736503,NAVAPUR,"Limdiwadi, Navapur pin",8888891656,NAVAPUR,NANDURBAR,MH
"THE HASTI COOP BANK LTD",HCBL0000112,425736052,SHIRPUR,"237,Aadarsh Nagar,Near Gayatri Mandir, Shirpur  Dist   Dhule  Pin  425405",8888891655,SHIRPUR,DHULE,MH
"THE HASTI COOP BANK LTD",HCBL0000111,425736001,"MARKET YARD JALGAON","Market Yard, Jalgaon  Dist   Jalgaon   Pin  425001",8888891654,JALGAON,JALGAON,MH
"THE HASTI COOP BANK LTD",HCBL0000109,425736302,SHAHADA,"Bohari Market, Near Bus Stand, Tal.Shahada  Dist  Nandurbar  Pin  425409",8888891653,SHAHADA,NANDURBAR,MH
"THE HASTI COOP BANK LTD",HCBL0000108,425736502,AKKALKUWA,"Main Road, Akkalkuwa,  Dist   Nandurbar  Pin  425415",8888891652,AKKALKUWA,NANDURBAR,MH
"THE HASTI COOP BANK LTD",HCBL0000107,424736001,DHULE,"1350, Lane No 5th, Nagarpatti ,Dhule. Pin  424001",8888891651,DHULE,DHULE,MH
"THE HASTI COOP BANK LTD",HCBL0000106,424736503,SAKRI,"3,Panzara Colony, Sakri,  Dist   Dhule  Pin  424308",8888891640,SAKRI,DHULE,MH
"THE HASTI COOP BANK LTD",HCBL0000105,424736502,PIMPALNER,"Satana Road, Pimpalner, Tal.Sakri,  Dist   Dhule  Pin  424306",8888891649,PIMPALNER,DHULE,MH
"THE HASTI COOP BANK LTD",HCBL0000104,425736202,NANDURBAR,"Near Ahilyabai Vihir, Hat Darwaja, Tal. Dist   Nandurbar Pin 425412",8888891648,NANDURBAR,NANDURBAR,MH
"THE HASTI COOP BANK LTD",HCBL0000103,424736501,SONGIR,"Bazar Peth, Songir,   Dist   Dhule   Pin  424309",8888891647,SONGIR,DHULE,MH
"THE HASTI COOP BANK LTD",HCBL0000102,425736501,SHINDKHEDA,"Near S.T. Stand, Shindkheda,   Dist   Dhule  Pin  425408",8888891646,SHINDKHEDA,DHULE,MH
"THE HASTI COOP BANK LTD",HCBL0000101,425736402,"MAIN BRANCH","HASTI SAHAKAR DEEP STATION AREA DONDAICHA DIST DHULE Pin 425408",8888891644,DONDAICHA,DHULE,MH
