BANK,IFSC,MICR,BRANCH,ADDRESS,CONTACT,CITY,DISTRICT,STATE
"KARNATAKA VIKAS GRAMEENA BANK",KVGB0099933,WAITING,"MOBILE BANKING","KARNATAKA VIKAS GRAMEENA BANK POST BOX NO 111 HEAD OFFICE IT DIVISION MOBILE BANKING VIRTUAL BRANCH DHARWAD 580008",2442204,DHARWAD,DHARWAD,KARNATAKA
"KARNATAKA VIKAS GRAMEENA BANK",KVGB0009555,581483599,GULLAPUR,"NAGAPATI HEGDE BLDG A/P: GULLAPUR TQ. YELLAPURDT:U.K. PIN ┬û 581 337",0,YELLAPUR,KUMTA,KARNATAKA
"KARNATAKA VIKAS GRAMEENA BANK",KVGB0009554,581483597,MADNUR,"GRAM PANCHAYAT BUILDING  MADANUR AT/PO:HUNSHETTIKOPPA TQ. YELLAPUR (U.K)  PIN ┬û 581 359",0,YELLAPUR,KUMTA,KARNATAKA
"KARNATAKA VIKAS GRAMEENA BANK",KVGB0009553,580483541,YELLAPUR,"YELLAPUR BRANCH YELLAPUR- 581359 HUBLI-KARWAR ROAD, DIST UTTARA KANNADA",261127,YELLAPUR,KUMTA,KARNATAKA
"KARNATAKA VIKAS GRAMEENA BANK",KVGB0009552,580483540,VAJRALLI,"VAJRALLI BRANCH PO: VAJRALLI ┬û 581337, TA: YELLAPUR, DIST UTTARA KANNADA.",238004,VAJRALLI,KUMTA,KARNATAKA
"KARNATAKA VIKAS GRAMEENA BANK",KVGB0009551,580483541,UMACHAGI,"UMACHAGI BRANCH PO: UMACHAGI- 581 347 TA: YALLAPUR DIST UTTARA KANNADA,",255651,KUNDARGI,KUMTA,KARNATAKA
"KARNATAKA VIKAS GRAMEENA BANK",KVGB0009504,WAITING,BHAIRUMBE,"KVG BANK, GRAM PANCHAYAT BUILDING BHAIRUMBE TQ SIRSI UTTAR KANNADA",9108699768,SIRSI,"UTTAR KANNADA",KARNATAKA
"KARNATAKA VIKAS GRAMEENA BANK",KVGB0009503,580483540,VANAHALLI,"VANALLI BRANCH PO: VANALLI ┬û 581336, TA: SIRSI,DIST UTTARA KANNADA.",246838,VANALLI,KUMTA,KARNATAKA
"KARNATAKA VIKAS GRAMEENA BANK",KVGB0009502,581483586,SIRSI,"SIRSI BRANCH SHAKTI CHAMBERS DEVIKERE ROAD, SIRSI ┬û 581401,DIST UTTARA KANNADA.",225665,SIRSI,KUMTA,KARNATAKA
"KARNATAKA VIKAS GRAMEENA BANK",KVGB0009501,581483585,KORLAKATTA,"KORLAKATTA BRANCH PO: KORALKATTA- 581318 TA: SIRSI DIST UTTARA KANNADA.",284010,KORLAKATTA,KUMTA,KARNATAKA
"KARNATAKA VIKAS GRAMEENA BANK",KVGB0009456,WAITING,HERUR,"KARNATAKA VIKAS GRAMEENA BANK BRANCH HERUR SIDDAPURA TALUK UTTAR KANNADA DIST",9108699770,SIDDAPUR,"UTTAR KANNADA",KARNATAKA
"KARNATAKA VIKAS GRAMEENA BANK",KVGB0009455,WAITING,BIDARKAN,"KARNATAKA VIKAS GRAMEENA BANK BRANCH BIDARKAN TALUK SIDDAPUR DIST UTTAR KANNADA",9480699042,SIDDAPUR,"UTTAR KANNADA",KARNATAKA
"KARNATAKA VIKAS GRAMEENA BANK",KVGB0009454,581483402,"VANDANE EC","INCHARGE , TEMPLE BUILDING, LAMBAPUR PO: VAJGOD",277074,VANDANE,KUMTA,KARNATAKA
"KARNATAKA VIKAS GRAMEENA BANK",KVGB0009453,581483584,VANDANE,"VANDANE BRANCH PO: GUBBAGOD- 581355 TA: SIDDAPUR DIST UTTARA KANNADA",239050,VANDANE,KUMTA,KARNATAKA
"KARNATAKA VIKAS GRAMEENA BANK",KVGB0009452,581483582,SIDDAPUR,"SIDDAPUR BRANCH,MARAIA  COMPLEX,PO: SIDDAPUR 581 355 DIST UTTARA KANNADA",230292,SIDDAPUR,KUMTA,KARNATAKA
"KARNATAKA VIKAS GRAMEENA BANK",KVGB0009451,581483583,HARSIKATTA,"HARSIKATTA BRANCH PO: HARSIKATTA- 581355 TA: SIDDAPUR DIST UTTARA KANNADA",248118,HARSHIKATTA,KUMTA,KARNATAKA
"KARNATAKA VIKAS GRAMEENA BANK",KVGB0009404,WAITING,BEDASAGAON,"KARNATAKA VIKAS GRAMEENA BANK BRANCH BEDASAGON TALUK MUNDAGOD DIST UTTAR KANNADA 581346",9480699042,MUNDAGOD,"UTTAR KANNADA",KARNATAKA
"KARNATAKA VIKAS GRAMEENA BANK",KVGB0009403,581483598,NANDIKATTA,"GRAM PANCHAYAT BUILDING NANDIKATTA TQ. MUNDGOD(U.K) PIN ┬û 581 411",0,MUNDGOD,KUMTA,KARNATAKA
"KARNATAKA VIKAS GRAMEENA BANK",KVGB0009402,581483581,MUNDGOD,"MUNDAGOD BRANCH,MAIN ROAD,TA: MUNDUGOD, 581 349, DIST UTTARA KANNADA,",222362,MUNDGOD,KUMTA,KARNATAKA
"KARNATAKA VIKAS GRAMEENA BANK",KVGB0009401,580483538,HUNGUND,"HUNGUND BRANCH PO: HUNAGUND- 581349, TA: MUNDAGOD,DIST UTTARA KANNADA.",270003,HUNGUNDA,KUMTA,KARNATAKA
"KARNATAKA VIKAS GRAMEENA BANK",KVGB0009356,WAITING,BARGI,"KARNATAKA VIKAS GRAMEENA BANK BRANCH BARGI KUMTA ANKOLA ROAD KUMTA TALUKA NH17 HIGH WAY UTTARKANNADA DIST",9480699042,KUMTA,"UTTAR KANNADA",KARNATAKA
"KARNATAKA VIKAS GRAMEENA BANK",KVGB0009355,580483539,"KUMTA EC","THE OFFICER IN-CHARGE , APMC YARD KUMTA.",222636,KUMTA,KUMTA,KARNATAKA
"KARNATAKA VIKAS GRAMEENA BANK",KVGB0009354,580483538,SANTEGULI,"SANTEGULI BRANCH PO: SANTEGULI- 581332 TA: KUMTA, DIST UTTARA KANNADA",273259,SANTEGULI,KUMTA,KARNATAKA
"KARNATAKA VIKAS GRAMEENA BANK",KVGB0009353,581483652,KUMTA,", KUMTA BRANCH,NELLIKERI, KUMTA-581343 MAHAVEER MANSION, DIST UTTARA KANNADA.",222416,KUMTA,KUMTA,KARNATAKA
"KARNATAKA VIKAS GRAMEENA BANK",KVGB0009352,581483572,KAGAL,"KAGAL BRANCH,PAI BUILDING, PO: KAGAL TA: KUMTA  581443 DIST: UTTARA KANNADA.",261150,KAGAL,KUMTA,KARNATAKA
"KARNATAKA VIKAS GRAMEENA BANK",KVGB0009351,581483652,GOKARN,"GOKARNA BRANCH, SREELAXMI, NEAR BUS STAND, TA: KUMATA 581 326, DIST: UTTARA KANNADA",257652,GOKARN,KUMTA,KARNATAKA
"KARNATAKA VIKAS GRAMEENA BANK",KVGB0009303,WAITING,MUDGERI,"KARNATAKA VIKAS GRAMEENA BANK, SHIVANATH TEMPLE TRUST BUILDING, MUDGERI, DT UTTAR KANNAD, KARNATAKA",9480699459,MUDGERI,"UTTAR KANNAD",KARNATAKA
"KARNATAKA VIKAS GRAMEENA BANK",KVGB0009302,581483603,AMADALLI,"PANCHAYAT BUILDING AMADALLI  TQ.  KARWAR DT: U.K. PIN ┬û 581 324",0,AVERSA,"UTTAR KANNAD",KARNATAKA
"KARNATAKA VIKAS GRAMEENA BANK",KVGB0009301,581483570,KARWAR,"KARWAR BRANCH,RADHAKRISHNA COMPLEX,TA: KARWAR, 581 301 DIST UTTARA KANNADA",220282,KARWAR,KUMTA,KARNATAKA
"KARNATAKA VIKAS GRAMEENA BANK",KVGB0009252,581483576,ULAVI,"ULUVI BRANCH,TEMPLE BUILDING,PO: ULVI , TA: JOIDA,DIST UTTARA KANNADA.",250802,"ULVI KSHETRA",KUMTA,KARNATAKA
"KARNATAKA VIKAS GRAMEENA BANK",KVGB0009251,581483575,GUND,"GUND BRANCH, GUND- 581187, TA: JOIDA, DIST UTTARA KANNADA",252528,JOIDA,KUMTA,KARNATAKA
"KARNATAKA VIKAS GRAMEENA BANK",KVGB0009208,WAITING,KADLE,"KARNATAKA VIKAS GRAMEENA BANK KADLE HEBBRNAKERI HONNAVAR UTTAR KANNADA",9449574362,KADLE,"UTTAR KANNAD",KARNATAKA
"KARNATAKA VIKAS GRAMEENA BANK",KVGB0009207,WAITING,KASARKOD,"KARNATAKA VIKAS GRAMEEN BANK, SRI GOPAL KRISHNA TEMPLE BUILDING, KASARKOD, TQ HONNAVAR, DT UTTARA KANNADA, KARNATAKA",7022599736,KASARKOD,"UTTARA KANNADA",KARNATAKA
"KARNATAKA VIKAS GRAMEENA BANK",KVGB0009205,581483604,KAVALAKKI,"SAGAR ROAD , AT & POST KAVALAKKI - 581334, TQ: HONNAVAR DT UTTARA KANNADA",0,HONAVAR,"UTTAR KANNAD",KARNATAKA
"KARNATAKA VIKAS GRAMEENA BANK",KVGB0009204,581483576,KOLAGADDE,"KOLAGADDE BRANCH,PO: KHARVA ,TA: HONNAVAR, 581 424,DIST UTTARA KANNADA,",269826,KHARWA,KUMTA,KARNATAKA
"KARNATAKA VIKAS GRAMEENA BANK",KVGB0009203,581483575,IDAGUNJI,"IDAGUNJI BRANCH IDAGUNJI- 581423 TA: HONNAVAR DIST UTTARA KANNADA.",247249,MELIN-IDGUNJI,KUMTA,KARNATAKA
"KARNATAKA VIKAS GRAMEENA BANK",KVGB0009202,581483580,HONNAVAR,"HONNAVAR BRANCH MAHALE COMPLEX, NH 17.PO: HARSIKATTA- 581334 TA: HONNAVAR DIST UTTARA KANNADA",221041,HONAVAR,KUMTA,KARNATAKA
"KARNATAKA VIKAS GRAMEENA BANK",KVGB0009201,581483579,ALLANKI,"ALLANKI BRANCH,PO: HERANGADI,TA: HONNAVAR ,DIST UTTARA KANNADA.",261819,ALLANKI,KUMTA,KARNATAKA
"KARNATAKA VIKAS GRAMEENA BANK",KVGB0009152,581483602,HALIYAL,"HALIYAL BRANCH.FERNADES BUILDING,NEAR POST OFFICE,KSRTC BUS STAND,TA: HALYAL, 581 329,DIST UTTARA KANNADA",221422,HALIYAL,KUMTA,KARNATAKA
"KARNATAKA VIKAS GRAMEENA BANK",KVGB0009151,581483578,BELAVATAGI,"BELAWATAGI BRANCH PO: BELWATGI- 581329,TA: HALIYAL, DIST UTTARA KANNADA.",271347,BELWATGI,KUMTA,KARNATAKA
"KARNATAKA VIKAS GRAMEENA BANK",KVGB0009101,581483552,DANDELI,"DANDELI BRANCH AR SULAD BUILDING, JN ROAD, KSRTC BUS STAND,TA: HALIYAL 581 314,DIST UTTARA KANNADA,",230797,DANDELI,KUMTA,KARNATAKA
"KARNATAKA VIKAS GRAMEENA BANK",KVGB0009053,581483577,"MAVALLI (MURD)","MURDESHWAR BRANCH MURDESHWAR- 581350,PANHAYAT BUILDING TA: BHATKAL, DIST UTTARA KANNADA.",268920,MURDESHWAR,KUMTA,KARNATAKA
"KARNATAKA VIKAS GRAMEENA BANK",KVGB0009052,581483502,KONAR,"KONAR BRANCH PO: KONAR: 581320 TA: BHATKAL, DIST UTTARA KANNADA.",266326,KONAR,KUMTA,KARNATAKA
"KARNATAKA VIKAS GRAMEENA BANK",KVGB0009051,581483574,BHATKAL,"BHATKAL BRANCH,MUSHBA COMPLEX,OPP KSRTC COMPLEX,TA: BHATKAL, 581 320,DIST UTTARA KANNADA",227098,BHATKAL,KUMTA,KARNATAKA
"KARNATAKA VIKAS GRAMEENA BANK",KVGB0009003,581483573,HILLUR,"HILLUR BRANCH PO: HILLUR- 581344 TA: ANKOLA DIST UTTARA KANNADA.",276023,HILLUR,KUMTA,KARNATAKA
"KARNATAKA VIKAS GRAMEENA BANK",KVGB0009002,581483352,ANKOLA,"ANKOLA BRANCH,PRABHU COMPLEX,KSRTC BUS STAND,TA: ANKOLA, 581 314,DIST UTTARA KANNADA",232036,ANKOLA,KUMTA,KARNATAKA
"KARNATAKA VIKAS GRAMEENA BANK",KVGB0009001,581483569,AGASUR,"AGSUR BRANCH,MAIN ROAD,PO: AGSUR ┬û 581413,TA: ANKOLA,DIST UTTARA KANNADA.",276535,AGSUR,KUMTA,KARNATAKA
"KARNATAKA VIKAS GRAMEENA BANK",KVGB0009000,NA,"KUMTA R O","REGIONAL MANAGER,KARNATAKA VIKAS GRAMEENA BANK,RO,VIDYAGIRI,BAGGON ROAD,HERWATTA UMATA 581343",0,KUMTA,KUMTA,KARNATAKA
"KARNATAKA VIKAS GRAMEENA BANK",KVGB0008208,WAITING,"GUDDE ANGADI","KARNATAKA VIKAS GRAMEEN BANK, MATRU KRUPA, GUDDE ANGADI, BOMMARABETTU VILLAGE, VIA HIRIYADAKA, TQ AND DIST UDUPI, 576 113, KARNATAKA",7022599702,HIRIADKA,UDIPI,KARNATAKA
"KARNATAKA VIKAS GRAMEENA BANK",KVGB0008207,NA,SAIBARAKATTE,"LAXMINARASIMHA,MAIN ROAD,SAIBARAKATTE",9480699683,SAIBARAKATTE,UDIPI,KARNATAKA
"KARNATAKA VIKAS GRAMEENA BANK",KVGB0008206,576483005,AMBAGILU,"AJIT COMPLEX ,KALSANKA ROAD ,AMBAGILU ┬û 576105, UDUPI, TQ& DT : UDUPI",0,AMBAGILU,UDIPI,KARNATAKA
"KARNATAKA VIKAS GRAMEENA BANK",KVGB0008205,581483302,INDRALI,"INDRALLI ENGLISH MEDIUM SCHOOL COMPOUND, MGM COLLEGE OVER BRIDGE BUILDING, INDRALLI TQ: UDUPI, DIST: UDUPI",2527660,UDUPI,MANGALORE,KARNATAKA
"KARNATAKA VIKAS GRAMEENA BANK",KVGB0008204,581483568,PADUBIDRI,"PADUBIDRI BRANCH ACHARYA COMPLEX ,KARKAL CROSS , TQ. & DIST: UDUPI.",2599199,NADSAL,MANGALORE,KARNATAKA
"KARNATAKA VIKAS GRAMEENA BANK",KVGB0008203,576483003,KOKKARNE,", KOKKARNE BRANCH, MAIN ROAD, KOKKARNE TQ & DT: UDUPI",2598906,KOKKARNE,MANGALORE,KARNATAKA
"KARNATAKA VIKAS GRAMEENA BANK",KVGB0008202,576483507,KINNIMULKY,", KINNIMULKI (UDUPI) BRANCH, UDUPI ┬û 576 101 TQ&DIST: UDUPI",2531416,UDUPI,MANGALORE,KARNATAKA
"KARNATAKA VIKAS GRAMEENA BANK",KVGB0008201,576483506,BRAHMAVARA,", BRAHMAVAR BRANCH,UDUPI TQ,UDUPI DISTRICT.",2562062,BRAHMAVARA,MANGALORE,KARNATAKA
"KARNATAKA VIKAS GRAMEENA BANK",KVGB0008110,WAITING,ULTHOOR,"KARNATAKA VIKAS GRAMEENA BANK BRANCH ULTHOOR KUNDAPUR TALUK UDUPI DIST",9108699772,KUNDAPUR,UDUPI,KARNATAKA
"KARNATAKA VIKAS GRAMEENA BANK",KVGB0008109,NA,MUDURU,"ST. MARY CHURCH COMPLEX, IST FLOOR, UDAYA NAGAR, MUDURU",9480699671,BYNDOOR,UDIPI,KARNATAKA
"KARNATAKA VIKAS GRAMEENA BANK",KVGB0008108,576483511,AMPAR,"GRAMA PANCHAYATH BUILDING, AMPAR- 576211,  TQ: KUNDAPUR. DT: UDAPI",0,HANDADI,UDIPI,KARNATAKA
"KARNATAKA VIKAS GRAMEENA BANK",KVGB0008107,576483510,HUNSIMAKKI,"VASANTI M SHETTY BLDG, HOMBADY-MADADY PO: HUNSEMAKKI TQ. KUNDAPUR DT:UDUPI PIN- 576 222",0,COONDAPUR,MANGALORE,KARNATAKA
"KARNATAKA VIKAS GRAMEENA BANK",KVGB0008106,576483509,GOLIHOLE,"SANJU GOUDA BLDG A/P: GOLIHOLE TQ. KUNDAPUR DT:UDUPI PIN ┬û 576 214",0,KAMBADAKONE,MANGALORE,KARNATAKA
"KARNATAKA VIKAS GRAMEENA BANK",KVGB0008105,576483508,AJRI,"SMT MS SHETTY BLDG,NEAR BUS STAND AJRI TQ. KUNDAPUR",0,SIDDAPUR,MANGALORE,KARNATAKA
"KARNATAKA VIKAS GRAMEENA BANK",KVGB0008104,576483202,KUNDAPUR,", KUNDAPUR BRANCH, KUNDAPURA TQ, UDUPI DISTRICT.",232331,COONDAPUR,MANGALORE,KARNATAKA
"KARNATAKA VIKAS GRAMEENA BANK",KVGB0008103,576483508,HEMMADY,", HEMMADI BRANCH,KUNDAPURA TQ,UDUPI DISTRICT",278340,HEMMADI,MANGALORE,KARNATAKA
"KARNATAKA VIKAS GRAMEENA BANK",KVGB0008102,576483202,HALLIHOLE,", HALLIHOLE BRANCH, KUNDAPURA TQ, UDUPI DISTRICT.",277227,HALLIHOLE,MANGALORE,KARNATAKA
"KARNATAKA VIKAS GRAMEENA BANK",KVGB0008101,576483503,BYNDOOR,", BYNDOOR BRANCH, KUNDAPURA TQ, UDUPI DISTRICT.",251399,BYNDOOR,MANGALORE,KARNATAKA
"KARNATAKA VIKAS GRAMEENA BANK",KVGB0008005,575483507,RENJAL,"SODE MATH ROAD , SRI VASU SHETTY BLDG, A/P RENJAL TQ. KARKAL",0,KARKALA,MANGALORE,KARNATAKA
"KARNATAKA VIKAS GRAMEENA BANK",KVGB0008004,576483501,KARKALA,", KARAKALA BRANCH, KARKALA TQ, UDUPI DISTRICT.",232820,KARKALA,MANGALORE,KARNATAKA
"KARNATAKA VIKAS GRAMEENA BANK",KVGB0008003,575483507,HOSMAR,", HOSMAR BRANCH, KARKALA TQ, UDUPI DISTRICT",277374,IDU,MANGALORE,KARNATAKA
"KARNATAKA VIKAS GRAMEENA BANK",KVGB0008002,575483008,HEBRI,", HEBRI BRANCH, KARKALA TQ, UDUPI DISTRICT.",251300,HEBRI,MANGALORE,KARNATAKA
"KARNATAKA VIKAS GRAMEENA BANK",KVGB0008001,575483506,BELMAN,", BELMAN BRANCH,KARKALA TQ,UDUPI DISTRICT.",274344,BELMAN,MANGALORE,KARNATAKA
"KARNATAKA VIKAS GRAMEENA BANK",KVGB0007609,581483605,HULAGUR,"Y B RAIKAR BUILDING , MARADI ONI , HULAGUR- 581126 TQ: SHIGOAN DT : HAVERI",0,HULGUR,HAVERI,KARNATAKA
"KARNATAKA VIKAS GRAMEENA BANK",KVGB0007608,581483595,BANNUR,"PANCHAYAT BUILDING BANNUR TQ. SHIGGAON PIN ┬û 581 205",0,SHIGGAON,HAVERI,KARNATAKA
"KARNATAKA VIKAS GRAMEENA BANK",KVGB0007607,576483504,TADAS,"GRAM PANCHAYAT BLDG,TADAS TQ.SHIGGAON DT:HAVERI",0,TADAS,HAVERI,KARNATAKA
"KARNATAKA VIKAS GRAMEENA BANK",KVGB0007605,581483539,SHIGGAON,"SHIGGAON BRANCH  PRABHU NURSING HOME BUILDING, NEAR OLD BUS STAND, SHIGGAON - 581 205. TQ. : SHIGGAON,┬á DIST. : HAVERI.┬á┬á┬á┬á┬á┬á┬á",255249,SHIGGAON,HAVERI,KARNATAKA
"KARNATAKA VIKAS GRAMEENA BANK",KVGB0007604,581483533,KONANKERI,"KONANKERI BRANCH  V.P.C. BUILDING,  NEAR BUS STAND,  KONANAKERI - 581 193. TQ. : SHIGGAON,┬á DIST. : HAVERI.┬á┬á┬á",217277,KONANKERI,HAVERI,KARNATAKA
"KARNATAKA VIKAS GRAMEENA BANK",KVGB0007603,581483539,HIREBENDIGERI,"HIREBENDIGERI BRANCHKADEEM DEEVAN BUILDING,  HIREBENDIGERI - 581 203.  TQ. : SHIGGAON, DIST. : HAVERI",209013,HIREBENDIGERI,HAVERI,KARNATAKA
"KARNATAKA VIKAS GRAMEENA BANK",KVGB0007602,581483550,DHUNDASHI,"DHUNDASHI BRANCHGRAM PANCHAYAT BUILDING,  MAIN ROAD,DHUNDASHI - - 581 193.  TQ. : SHIGGAON,┬á DIST. : HAVERI",251145,DHUNDSHI,HAVERI,KARNATAKA
"KARNATAKA VIKAS GRAMEENA BANK",KVGB0007601,581483537,BANKAPUR,"BANKAPUR BRANCHB. C. SHETTAR BUILDING,  MARKET ROAD, NEAR BUS STAND,  BANKAPUR - 581 202.  TQ. : SHIGGAON, DIST. : HAVERI",254857,BANKAPUR,HAVERI,KARNATAKA
"KARNATAKA VIKAS GRAMEENA BANK",KVGB0007509,WAITING,HIREMARALIHALLI,"KARNATAKA VIKAS GRAMEENA BANK, KALLAPPA MALLANNAVAR BUILDING, HIREMARALIHALLI, TQ SAVANUR, DT HAVERI",2442204,SAVANUR,HAVERI,KARNATAKA
"KARNATAKA VIKAS GRAMEENA BANK",KVGB0007508,NA,HURALIKUPPI,"GRAMA PANCHAYATH BUILDING, MAIN ROAD, HURALIKUPPI",9480699676,SAVANUR,HAVERI,KARNATAKA
"KARNATAKA VIKAS GRAMEENA BANK",KVGB0007507,581483594,JALLAPUR,"PANCHAYAT BUILDING JALLAPUR TQ. SAVANUR PIN ┬û 581 118",0,SAVANUR,HAVERI,KARNATAKA
"KARNATAKA VIKAS GRAMEENA BANK",KVGB0007506,581483593,KARADAGI,"PANCHAYAT BUILDING KARADAGI TQ: SAVANUR PIN ┬û 581 126",0,SAVANUR,HAVERI,KARNATAKA
"KARNATAKA VIKAS GRAMEENA BANK",KVGB0007505,581483588,KADAKOL,"GRAM PANCHAYAT BLDG, KADAKOL TQ.SAVANUR DT:HAVERI",0,SAVANUR,HAVERI,KARNATAKA
"KARNATAKA VIKAS GRAMEENA BANK",KVGB0007504,581483534,YALIVIGI,"YALAVIGI BRANCHJ. R. Y. BUILDING,  STATION ROAD,  YALAVIGI - 581 118. TQ. : SAVANUR,┬á DIST. : HAVERI.",240225,YELAVIGI,HAVERI,KARNATAKA
"KARNATAKA VIKAS GRAMEENA BANK",KVGB0007503,581483588,TEWARAMELLIHALI,"TEVARMELLIHALLI BRANCHPANCHAYAT BUILDING,  MAIN ROAD,  TEVAREMELLIHALLI - 581 214.  TQ. : SAVANUR,┬á DIST. : HAVERI.",253515,TAVARMELLIHALLI,HAVERI,KARNATAKA
"KARNATAKA VIKAS GRAMEENA BANK",KVGB0007502,581483534,SAVANUR,"SAVANUR BRANCHGUDISAGAR BUILDING, MARKET ROAD,  SAVANUR - 581 118.  TQ. : SAVANUR,┬á DIST. : HAVERI┬á┬á┬á┬á┬á┬á",241716,SAVANUR,HAVERI,KARNATAKA
"KARNATAKA VIKAS GRAMEENA BANK",KVGB0007501,581483525,HATTIMATTUR,"HATTIMATTUR BRANCH GRAM PANCHAYAT BUILDING,MAIN ROAD,HATTIMATTUR - 581 109 TQ. : SAVANUR,┬á DIST. : HAVERI",240633,HATTIMATTUR,HAVERI,KARNATAKA
"KARNATAKA VIKAS GRAMEENA BANK",KVGB0007415,WAITING,"SHG BRANCH RANEBENNUR","KARNATAKA VIKAS GRAMEENA BANK SHG BRANCH RANEBENNUR RANEBENNUR TALUK HAVERI DIST",0,RANEBENNUR,HAVERI,KARNATAKA
"KARNATAKA VIKAS GRAMEENA BANK",KVGB0007414,NA,"SIDDESHWAR NAGAR","AJARATTI BUILDING, OPP SHETTI PETROL BUNK, PB ROAD, RANEBENNUR",9480699693,RANEBENNUR,HAVERI,KARNATAKA
"KARNATAKA VIKAS GRAMEENA BANK",KVGB0007413,581483596,KARUR,"PANCHAYAT BUILDING KARUR TQ.RANEBENNUR PIN ┬û 581 143",0,RANEBENNUR,HAVERI,KARNATAKA
"KARNATAKA VIKAS GRAMEENA BANK",KVGB0007412,581483531,"MEDLERI ROAD RNR","KANAVI COMPLEX, NEAR DR R B PATIL, MEDLERI ROAD TQ. RANEBENNUR DT. HAVERI",0,RANEBENNUR,HAVERI,KARNATAKA
"KARNATAKA VIKAS GRAMEENA BANK",KVGB0007411,581483547,SUNAKALBIDRI,"SUNAKALBIDRI BRANCHBASAVESHWAR DEVASTHAN BUILDING,  SUNAKALBIDRI - 581 115. TQ. : RANEBENNUR,┬á DIST. : HAVERI.",254404,SUNKALBIDRI,HAVERI,KARNATAKA
"KARNATAKA VIKAS GRAMEENA BANK",KVGB0007410,581483103,RANEBENNUR,"RANEBENNUR BRANCH┬ôSHIVAPARVATI┬ö HANAGODIMATH COMPLEX,  NEHRU MARKET,  RANEBENNUR - 581 115.┬á TQ. : RANEBENNUR,┬á DIST. :  HAVERI.",268483,RANEBENNUR,HAVERI,KARNATAKA
"KARNATAKA VIKAS GRAMEENA BANK",KVGB0007409,581483547,MEDLERI,"NKMEDLERI BRANCH SRI V. S. KOTTUR BUILDING,  MAIN ROAD, MEDLERI - 581 211.┬á┬áTQ. : RANEBENNUR,┬á DIST. : HAVERI.",245450,MEDLERI,HAVERI,KARNATAKA
"KARNATAKA VIKAS GRAMEENA BANK",KVGB0007408,581483102,KUPPELUR,"KUPPELUR BRANCHPANCHAYAT BUILDING,  KUPPELUR - 581 144.  TQ. : RANEBENNUR,┬á DIST. :HAVERI┬á",249102,KUPPELUR,HAVERI,KARNATAKA
"KARNATAKA VIKAS GRAMEENA BANK",KVGB0007407,581483544,"KODIYALA HOSPET","KODIYAL-HOSPET BRANCHJ.D.H. COMPLEX,KODIYAL-HOSPET - 581 123  (KUMARPATTANAM) TQ. : RANEBENNUR, DIST. : HAVERI.",240570,KUMARAPATNAM,HAVERI,KARNATAKA
"KARNATAKA VIKAS GRAMEENA BANK",KVGB0007406,581483556,KAKOL,"KAKOL BRANCHDYMANGOUDAR BUILDING,  KAKOL - 581 118.TQ. : RANEBENNUR,┬á DIST. : HAVERI.",253517,KAKOL,HAVERI,KARNATAKA
"KARNATAKA VIKAS GRAMEENA BANK",KVGB0007405,581483551,HONNATTI,"HONNATTI BRANCHPANCHAYAT BUILDING,  HONNATTI - 581 141.  TQ. : RANEBENNUR,┬á DIST. : HAVERI",255110,HONNATTI,HAVERI,KARNATAKA
"KARNATAKA VIKAS GRAMEENA BANK",KVGB0007404,581483555,HARANAGIRI,"HARANAGIRI BRANCHGRAM PANCHAYAT BUILDING,  HARANAGIRI - 581 115  TQ. : RANEBENNUR,┬á DIST. : HAVERI",250343,HARANAGIRI,HAVERI,KARNATAKA
"KARNATAKA VIKAS GRAMEENA BANK",KVGB0007403,581483563,HALAGERI,"HALAGERI BRANCH  DR. V. V. GIRIGOUDAR BUILDING, NEAR BUS STAND,HALAGERI - 581 208. TQ. : RANEBENNUR,┬á DIST. : HAVERI.",252366,HALGERI,HAVERI,KARNATAKA
"KARNATAKA VIKAS GRAMEENA BANK",KVGB0007402,581483562,CHALAGERI,"CHALAGERI BRANCH KERUR BUILDING,  CHALAGERI - 581 145.  TQ. : RANEBENNUR, DIST. : HAVERI.",248603,CHALAGERI,HAVERI,KARNATAKA
"KARNATAKA VIKAS GRAMEENA BANK",KVGB0007401,581483561,AREMALLAPUR,"AREMALLAPUR BRANCH  GIDDAPPANAVAR BUILDING, AREMALLAPUR - 581 221.TQ. : RANEBENNUR, DIST. : HAVERI.",245411,AREMALLAPUR,HAVERI,KARNATAKA
"KARNATAKA VIKAS GRAMEENA BANK",KVGB0007312,NA,LINGADEVARAKOPPA,"LOKAPPA BHIMAPPA LAMANI BUILDING, BYADAGI- RATTIHALLI ROAD, AT POST LINGADEVARAKOPPA - 581208, TQ. HIREKERUR, DIST HAVERI",0,HIREKERUR,HAVERI,KARNATAKA
"KARNATAKA VIKAS GRAMEENA BANK",KVGB0007311,WAITING,NESHWI,"KARNATAKA VIKAS GRAMEEN BANK, PATIL BUILDING, NESHWI, TQ HIREKERUR, DT HAVERI, KARNATAKA",7022599712,HIREKERUR,HAVERI,KARNATAKA
"KARNATAKA VIKAS GRAMEENA BANK",KVGB0007310,581483606,CHINNAMULAGUND,"GRAM PANCHAYAT BUILDING, TQ: HIREKERUR- 581109,DIST: HAVERI",0,HIREKERUR,HAVERI,KARNATAKA
"KARNATAKA VIKAS GRAMEENA BANK",KVGB0007309,581483560,CHEKERUR,"GRAM PANCHAYATI BLDG A/P:  CHIKKERUR TQ.HIREKERUR  DT: HAVERI",0,CHIKKERUR,HAVERI,KARNATAKA
"KARNATAKA VIKAS GRAMEENA BANK",KVGB0007308,581483589,HALLUR,"SRI LAXMI RANGANATH COMMERCIAL COMPLEX, HALLUR TQ. HIREKERUR DT> HAVERI",0,HIREKERUR,HAVERI,KARNATAKA
"KARNATAKA VIKAS GRAMEENA BANK",KVGB0007307,581483554,TIPPAIKOPPA,"TIPPAIKOPPA BRANCH┬á┬á┬á┬á┬á┬á CHALAGERI BUILDING,  TIPPAIKOPPA - 581 210.  TQ. : HIREKERUR,┬á DIST. : HAVERI.┬á┬á┬á",285097,YATTINAHALLI,HAVERI,KARNATAKA
"KARNATAKA VIKAS GRAMEENA BANK",KVGB0007306,581483589,TADAKANAHALLI,"TADAKANAHALLI  PANCHAYAT BUILDING,  TADAKANAHALLI - 581 210.  TQ. : HIREKERUR,┬á DIST. : HAVERI.┬á┬á┬á┬á┬á┬á┬á",258827,TADAKANAHALLI,HAVERI,KARNATAKA
"KARNATAKA VIKAS GRAMEENA BANK",KVGB0007305,581483554,RATTIHALLI,"RATTIHALLI BRANCHBAJIRAYA BUILDING,  MASUR ROAD,  RATTIHALLI - 581 116.  TQ. : HIREKERUR,┬á DIST. : HAVERI.┬á┬á┬á┬á┬á┬á┬á┬á┬á┬á",286282,RATTIHALLI,HAVERI,KARNATAKA
"KARNATAKA VIKAS GRAMEENA BANK",KVGB0007304,581483553,KUDUPALI,"KUDUPALI BRANCH  RAMAGIRI BUILDING,  KUDUPALI -┬á 581 115.  TQ. : HIREKERUR,┬á DIST. : HAVERI.",286383,KUDAPALI,HAVERI,KARNATAKA
"KARNATAKA VIKAS GRAMEENA BANK",KVGB0007303,581483550,KOD,"┬á  KOD BRANCH┬á┬á┬á┬áPANCHAYAT BUILDING,  KOD - 591 283.  TQ. : HIREKERUR,┬á DIST. : HAVERI.┬á┬á┬á┬á┬á┬á┬á┬á┬á",287035,HIREKERUR,HAVERI,KARNATAKA
"KARNATAKA VIKAS GRAMEENA BANK",KVGB0007302,581483538,HIREKERUR,"HIREKERUR BRANCHSRI N. C. BANAKAR BUILDING,  OPP. K.S.R.T.C. BUS STAND,  HIREKERUR - 581 111.  TQ. : HIREKERUR,┬á DIST. : HAVERI",282209,HIREKERUR,HAVERI,KARNATAKA
"KARNATAKA VIKAS GRAMEENA BANK",KVGB0007301,581483550,HAUNSBHAVI,"NKHAUNSABHAVI BRANCHSRI M. M. MALIMATH BUILDINGD. NO. 409, MAIN ROAD,  HAUNSABHAVI - 581 109.  TQ. : HIREKERUR,┬á DIST. : HAVERI.┬á┬á┬á",289066,HAUNSBHAVI,HAVERI,KARNATAKA
"KARNATAKA VIKAS GRAMEENA BANK",KVGB0007218,WAITING,"SHG BRANCH HAVERI","KARNATAKA VIKAS GRAMEENA BANK SHG BRANCH HAVERI",9480699046,HAVERI,HAVERI,KARNATAKA
"KARNATAKA VIKAS GRAMEENA BANK",KVGB0007217,WAITING,"NAGENDRAMATTI EXTENSION","KARNATAKA VIKAS GRAMEENA BANK, SRI. HANUMANTAPPA H DEVAGIRI BUILDING, NAGENDRAMATTI EXTENSION, HAVERI",2442204,HAVERI,HAVERI,KARNATAKA
"KARNATAKA VIKAS GRAMEENA BANK",KVGB0007215,581483600,KABBUR,"GRAM PANCHAYAT BUILDING KABBURTQ. HAVERI DT: HAVERI PIN ┬û 581 110",0,HAVERI,HAVERI,KARNATAKA
"KARNATAKA VIKAS GRAMEENA BANK",KVGB0007214,581483601,KANAVALLI,"DR. JARTARGHAR BLDG PO. KANAVALLI TQ. HAVERI DT: HAVERI  PIN ┬û 581 172",0,HAVERI,HAVERI,KARNATAKA
"KARNATAKA VIKAS GRAMEENA BANK",KVGB0007213,581483590,YALAGACHCHA,"SRI S B DASHAMANI BLDG, YALAGACHCHA TQ & DT. HAVERI",0,HAVERI,HAVERI,KARNATAKA
"KARNATAKA VIKAS GRAMEENA BANK",KVGB0007212,NA,"DC EXTEN VIDYANAGAR HVR","DC OFFICE COMPLEX HAVERI DT HAVERI",249067,HAVERI,HAVERI,KARNATAKA
"KARNATAKA VIKAS GRAMEENA BANK",KVGB0007211,581483590,GUTTAL,"GUTTAL BRANCHBHUSANUR MATH BUILDING, BAZAAR ROAD, GUTTAL - TQ. : GUTTAL,┬á DIST. : HAVERI.┬á┬á┬á┬á┬á┬á┬á┬á┬á PH.NO. 08375 291656",291656,GUTTAL,HAVERI,KARNATAKA
"KARNATAKA VIKAS GRAMEENA BANK",KVGB0007210,581483053,"VIDYANAGAR HVR","HAVERI ┬û VIDYANAGAR BRANCH  DC OFFICE ROAD, VIDYANAGAR, HAVERI ┬û581 110",237314,HAVERI,HAVERI,KARNATAKA
"KARNATAKA VIKAS GRAMEENA BANK",KVGB0007209,581483530,SANGUR,"SANGUR BRANCH  P. G. BELAVIGI BUILDING, HAVERI - HANAGAL ROAD, SANGUR - 581 148. TQ. : HAVERI,┬á DIST. : HAVERI.",284442,SANGUR,HAVERI,KARNATAKA
"KARNATAKA VIKAS GRAMEENA BANK",KVGB0007208,581483523,NEGALUR,"NEGALUR BRANCH  JRY BUILDING, BAZAR ROAD, NEGALUR - 581 155.  TQ. : HAVERI,┬á DIST. : HAVERI.┬á┬á┬á┬á┬á┬á┬á┬á┬á┬á┬á┬á┬á",220660,HAVERI,HAVERI,KARNATAKA
"KARNATAKA VIKAS GRAMEENA BANK",KVGB0007207,581483524,HOSARITTI,"HOSARITTI BRANCH  KRISHNA COMPLEX, NEAR BUS STAND, HOSARITTI - 581 213. TQ. : HAVERI,┬á DIST. : HAVERI.",287765,HOSARITTI,HAVERI,KARNATAKA
"KARNATAKA VIKAS GRAMEENA BANK",KVGB0007206,581483523,HAVERI,"HAVERI MAIN BRANCH  G. G. MAGAVI CHAMBERS┬á┬á┬áNEAR BUS STAND, P. B. ROAD, HAVERI - 581 110.  TQ. : HAVERI,┬á DIST. : HAVERI",236425,HAVERI,HAVERI,KARNATAKA
"KARNATAKA VIKAS GRAMEENA BANK",KVGB0007205,581483529,HAVANUR,"HAVANUR BRANCH  J. R. Y. BUILDING, HAVANUR - 581 133. TQ. : HAVERI,┬á DIST. : HAVERI.┬á┬á┬á┬á┬á┬á┬á┬á┬á┬á┬á┬á",221429,HAVANUR,HAVERI,KARNATAKA
"KARNATAKA VIKAS GRAMEENA BANK",KVGB0007204,581483052,DEVIHOSUR,"DEVIHOSUR BRANCHPANCHAYAT BUILDING, DEVIHOSUR - 581 152. TQ. : HAVERI, DIST. : HAVERI.",284463,DEVI.HOSUR,HAVERI,KARNATAKA
"KARNATAKA VIKAS GRAMEENA BANK",KVGB0007203,581483528,DEVAGIRI,"DEVAGIRI BRANCHPANCHAYAT BUILDING,  DEVAGIRI - 581 132. TQ. : HAVERI, DIST. : HAVERI.",283305,DEVGIRI,HAVERI,KARNATAKA
"KARNATAKA VIKAS GRAMEENA BANK",KVGB0007202,581483527,BELAVIGI,"BELAVIGI BRANCH  V.P.C. NO. 67,  M. H. DADDI BUILDING, BELAVIGI - 581 108. TQ. : HAVERI, DIST. : HAVERI.",225529,BELAVIGI,HAVERI,KARNATAKA
"KARNATAKA VIKAS GRAMEENA BANK",KVGB0007201,581483526,AGADI,"AGADI BRANCH  PRABHU SWAMYMATH BUILDING, AGADI - 581 128. TQ. : HAVERI, DIST. HAVERI.",286126,AGADI,HAVERI,KARNATAKA
"KARNATAKA VIKAS GRAMEENA BANK",KVGB0007112,WAITING,SOMASAGAR,"KARNATAKA VIKAS GRAMEENA BANK, TILAVALLI BUILDING, MAIN ROAD, NEAR GRAM PANCHAYAT, SOMASAGAR, TQ HANGAL, DIST HAVERI",7022599735,HANGAL,HAVERI,KARNATAKA
"KARNATAKA VIKAS GRAMEENA BANK",KVGB0007111,NA,KANCHINEGALUR,"M R LANGTI BUILDING, KANCHINEGALUR",9480699191,HANGAL,HAVERI,KARNATAKA
"KARNATAKA VIKAS GRAMEENA BANK",KVGB0007110,581483602,BAICHAWALLI,"BAYALU RANGAMANDIR BLDG PO: BAICHAVALLI TQ.  HANGAL  DT: HAVERI PIN ┬û 581 104",0,HANGAL,HAVERI,KARNATAKA
"KARNATAKA VIKAS GRAMEENA BANK",KVGB0007109,581483521,BOMMANAHALLI,"GRAM PANCHAYAT BLDG MAIN ROAD, BOMMANAHALLI TQ. HANGAL DT: HAVERI PIN ┬û 581 203",0,BOMMANAHALLI,HAVERI,KARNATAKA
"KARNATAKA VIKAS GRAMEENA BANK",KVGB0007108,581483592,TILAVALLI,"TILAVALLI BRANCHTQ. : HANAGAL,┬á DIST. : HAVERI.┬á┬á┬á┬á┬á",264875,TILAVALLI,HAVERI,KARNATAKA
"KARNATAKA VIKAS GRAMEENA BANK",KVGB0007107,581483546,SHESHAGIRI,"SHESHAGIRI BRANCHPANCHAYAT BUILDING,  SHESHAGIRI - 581 138. TQ. : HANAGAL,┬á DIST. : HAVERI.",264405,SHESHAGIRI,HAVERI,KARNATAKA
"KARNATAKA VIKAS GRAMEENA BANK",KVGB0007106,581483554,NAREGAL,"NAREGAL BRANCHNEAR BUS STAND,  NAREGAL - 581 165. TQ. : HANAGAL,┬á DIST. : HAVERI.",267230,NAREGAL,HAVERI,KARNATAKA
"KARNATAKA VIKAS GRAMEENA BANK",KVGB0007105,581483546,KUSANUR,"KUSANUR BRANCH  KODANDI BUILDING, HALEPETH, KUSANUR - 581 120. TQ. : HANAGAL,┬á DIST. : HAVERI.",268330,KUSNUR,HAVERI,KARNATAKA
"KARNATAKA VIKAS GRAMEENA BANK",KVGB0007104,581483545,HANAGAL,"HANGAL BRANCHPARANDE BUILDING,  NEAR UDASHI KALAYAN MANTAP,  BUS STAND ROAD,  HANAGAL - 581 104. TQ. : HANAGAL,┬á DIST. : HAVERI.┬á┬á┬á┬á┬á┬á┬á┬á",262216,HANGAL,HAVERI,KARNATAKA
"KARNATAKA VIKAS GRAMEENA BANK",KVGB0007103,581483566,CHI.HOSUR,"CHIKKABASUR BRANCH SRI MALLIGER BUILDING, CHIKKABASUR - 581 120. TQ. : BYADAGI, DIST. : HAVERI.",269210,"CHIKKAUNSHI HOSUR",HAVERI,KARNATAKA
"KARNATAKA VIKAS GRAMEENA BANK",KVGB0007102,581483543,AKKIALUR,"AKKI-ALUR BRANCHMARKET ROAD,  AKKI ALUR - 581 102.  TQ. : HANAGAL, DIST. : HAVERI.",261665,AKKIALUR,HAVERI,KARNATAKA
"KARNATAKA VIKAS GRAMEENA BANK",KVGB0007101,581483564,ADUR,"ADUR BRANCH ┬á  MAIN ROAD,  ADUR - 581 101.TQ. : HANAGAL┬á DIST. : HAVERI",265235,ADUR,HAVERI,KARNATAKA
"KARNATAKA VIKAS GRAMEENA BANK",KVGB0007006,NA,BISALAHALLI,"SHEKARAGOUDA PATIL BUILDING, MAIN ROAD, BISALAHALLI",9480699677,BYADGI,HAVERI,KARNATAKA
"KARNATAKA VIKAS GRAMEENA BANK",KVGB0007005,581483541,MOTEBENNUR,"┬áMOTEBENNUR BRANCHPANCHAYAT BUILDING,  MOTEBENNUR . TQ. : BYADAGI,┬á DIST. : HAVERI.",228424,MOTEBENNUR,HAVERI,KARNATAKA
"KARNATAKA VIKAS GRAMEENA BANK",KVGB0007004,581483540,KAGINELLI,"KAGINELLI BRANCHANJUMAN-E-ISLAM BUILDING,  KAGINELLI - 581 153.  TQ. : BYADAGI,┬á DIST. : HAVERI┬á┬á┬á┬á┬á┬á┬á┬á┬á",289234,KAGINELLI,HAVERI,KARNATAKA
"KARNATAKA VIKAS GRAMEENA BANK",KVGB0007003,581483567,KADARAMANDALAGI,"KADARMANDALAGI BRANCHANJANEYASWAMY TRUST BUILDING,  KADARAMANDALAGI - 581 146.  TQ. : BYDAGI,┬á DIST. : HAVERI.",228979,KADARMANDALGI,HAVERI,KARNATAKA
"KARNATAKA VIKAS GRAMEENA BANK",KVGB0007002,581483557,CHIKBASUR,"CHIKKAUNSHI-HOSUR BRANCHHARAVI BUILDING,CHIKKAUNSHIHOSUR - 581 104.  TQ. : HANAGAL,┬á DIST. : HAVERI.",288337,CHIKKABASUR,HAVERI,KARNATAKA
"KARNATAKA VIKAS GRAMEENA BANK",KVGB0007001,581483565,BYADAGI,"BYADAGI BRANCHT.M.C. BUILDING,  NEAR BUS STAND,  BYADAGI - 581 106.  TQ. : BYADAGI, DIST. : HAVERI.",229108,BYADGI,HAVERI,KARNATAKA
"KARNATAKA VIKAS GRAMEENA BANK",KVGB0007000,NA,"HAVERI R O","SURAJ COMPLEX HIGH SCHOOL ROAD NEAR SBM,P B ROAD,HAVERI 581 110",0,HAVERI,HAVERI,KARNATAKA
"KARNATAKA VIKAS GRAMEENA BANK",KVGB0006410,582483546,MAGADI,"SRI GAJANANA COMPLEX, GADA LAXMISHWAR ROAD MAGADI,TQ: SHIRAHATTI, DT: GADAG",0,SHIRAHATTI,GADAG,KARNATAKA
"KARNATAKA VIKAS GRAMEENA BANK",KVGB0006409,581483542,SHIGLI,"R.F.KUSANUR BUILDING SHIGLI  TQ. SHIRAHATTI DT: GADAG PIN ┬û 582 210",0,SHIGLI,GADAG,KARNATAKA
"KARNATAKA VIKAS GRAMEENA BANK",KVGB0006408,582483542,BALEHOSUR,"GRAM PANCHAYAT BUILDING  A/P BALAEHOSUR TQ.SHIRAHATTI  PIN ┬û 582 112",0,SURANGGI,GADAG,KARNATAKA
"KARNATAKA VIKAS GRAMEENA BANK",KVGB0006407,582483540,HEBBAL,"GRAM PANCHAYAT BLDG,HEBBAL TQ. SHIRAHATTI DT.GADAG",0,HOLE-ITAGI,GADAG,KARNATAKA
"KARNATAKA VIKAS GRAMEENA BANK",KVGB0006406,582483537,BELLATTI,", BELLATTI, SHIRAHATTIMATH BUILDING , NEAR BUS STAND, TQ: SHIRAHATTI, DIST GADAG",269672,BELLATTI,GADAG,KARNATAKA
"KARNATAKA VIKAS GRAMEENA BANK",KVGB0006405,582483540,YALAVATTI,"YALAWATTI BRANCH V.P.C. BUILDING,YALAWATTI - 582 114. TQ. : SHIRAHATTI,  DIST. : GADAG",244272,YALAVATTI,GADAG,KARNATAKA
"KARNATAKA VIKAS GRAMEENA BANK",KVGB0006404,582483537,SURANAGI,"SURANAGI BRANCH PANCHAYAT BUILDING,SURANAGI - 582 215. TQ. : SHIRAHATTI,  DIST. : GADAG.",271229,SURANGGI,GADAG,KARNATAKA
"KARNATAKA VIKAS GRAMEENA BANK",KVGB0006403,582483536,SHIRAHATTI(DWD),"SHIRAHATTI BRANCH KUBASAD BUILDING,MARKET ROAD, SHIRAHATTI - 582 120. DT: GADAG",0,SHIRAHATTI,GADAG,KARNATAKA
"KARNATAKA VIKAS GRAMEENA BANK",KVGB0006402,582483535,LAXMESWARA,"LAXMESHWAR BRANCH SHETH BUILDING,  NEAR BUS STAND,LAXMESHWAR - 582 116. TQ. : SHIRAHATTI,  DIST. : GADAG",272261,LAKSHMESHWAR,GADAG,KARNATAKA
"KARNATAKA VIKAS GRAMEENA BANK",KVGB0006401,582483534,HOLE-ITAGI,"HOLE-ITAGI BRANCH GANIGER BUILDING,HOLE ITAGI - 582 112. TQ. : SHIRAHATTI,  DIST. : GADAG.",260714,HOLE-ITAGI,GADAG,KARNATAKA
"KARNATAKA VIKAS GRAMEENA BANK",KVGB0006317,WAITING,HALAKERI,"KARNATAKA VIKAS GRAMEENA BANK, GRAM PANCHAYAT BUILDING, HALAKERI, TQ RON",2442204,RON,GADAG,KARNATAKA
"KARNATAKA VIKAS GRAMEENA BANK",KVGB0006316,NA,JAKKALI,"PRATHAMIKA KRISHI PATTINA SAHAKARI SANGHA BUILDING, JAKKALI",9480699679,RON,GADAG,KARNATAKA
"KARNATAKA VIKAS GRAMEENA BANK",KVGB0006315,NA,SHANTAGIRI,"GRAMA PANCHAYATH BUILDING, SHANTAGIRI",9480699680,RON,GADAG,KARNATAKA
"KARNATAKA VIKAS GRAMEENA BANK",KVGB0006314,582483544,ITAGI,"GRAM PANCHAYAT BUILDING  A/P ITAGI TQ.RON  PIN ┬û 582 212",0,SUDI,GADAG,KARNATAKA
"KARNATAKA VIKAS GRAMEENA BANK",KVGB0006313,582483539,ASUTI,"SRI KARYAMMA DEVI TRUST BLDG, ASUTIT TQ.RON DT GADAG",280289,"HOLE ALUR",GADAG,KARNATAKA
"KARNATAKA VIKAS GRAMEENA BANK",KVGB0006312,582483538,YAVAGAL,"YAVAGAL VSS BANK LTD, A/P: YAVAGAL TQRON DT GADAG",212016,NARGUND,GADAG,KARNATAKA
"KARNATAKA VIKAS GRAMEENA BANK",KVGB0006311,582483539,"HOLE ALUR","HOLE ALUR BRANCH KALAMANI. BUILDING, NEAR I.B HOLE ALUR- 582 118. TQ. : RON, DIST. : GADAG",266111,"HOLE ALUR",GADAG,KARNATAKA
"KARNATAKA VIKAS GRAMEENA BANK",KVGB0006310,582483538,SUDI,"SUDI BRANCH M. S. BIDARUR BUILDING,SUDI - 582 211. TQ. : RON,  DIST. : GADAG.",284256,SUDI,GADAG,KARNATAKA
"KARNATAKA VIKAS GRAMEENA BANK",KVGB0006309,582483531,SAVADI,"SAVADI BRANCH PANCHAYAT BUILDING, MAIN ROAD, SAVADI - 582 219. TQ. : RON,  DIST. : GADAG",285407,SAWADI,GADAG,KARNATAKA
"KARNATAKA VIKAS GRAMEENA BANK",KVGB0006308,582483530,RON,"RON BRANCH G.S. PATIL COMPLEX, MAIN ROAD, RON - 582 209. TQ. : RON,  DIST. : GADAG. PH.NO. 08381 267261",267261,RON,GADAG,KARNATAKA
"KARNATAKA VIKAS GRAMEENA BANK",KVGB0006307,582483529,NIDAGUNDI,"NIDAGUNDI BRANCH  PANCHAYAT BUILDING, NIDAGUNDI - 582 130. TQ. : RON,  DIST. : GADAG.",283247,NIDAGUNDI,GADAG,KARNATAKA
"KARNATAKA VIKAS GRAMEENA BANK",KVGB0006306,582483528,NAREGAL(RON,"NAREGAL BRANCH RAMABAI B. KULKARNI BUILDING, NAREGAL - 582 119. TQ. : RON,  DIST. : GADAG.",268111,NAREGAL,GADAG,KARNATAKA
"KARNATAKA VIKAS GRAMEENA BANK",KVGB0006305,582483527,MUSHIGERI,"MUSHIGERI BRANCH V. B. SAJJANAR BUILDING, NEAR BUS STAND, MUSHIGERI - 582 211. TQ. : RON,  DIST. : GADAG.",287229,MUSHIGERI,GADAG,KARNATAKA
"KARNATAKA VIKAS GRAMEENA BANK",KVGB0006304,582483526,MENASAGI,"MENASAGI BRANCH  KULKARNI BUILDING, MENASAGI - 582 232 TQ. : RON,  DIST. : GADAG.",217301,MENASIGI,GADAG,KARNATAKA
"KARNATAKA VIKAS GRAMEENA BANK",KVGB0006303,582483525,HIREHAL,"HIREHAL BRANCH SRI VEERABHADRESHWAR TRUST COMMITTEE BUILDING,HIREHAL - 582 217. TQ. : RON,  DIST. : GADAG.",286243,HIREHAL,GADAG,KARNATAKA
"KARNATAKA VIKAS GRAMEENA BANK",KVGB0006302,582483524,GAJENDRAGAD,"GAJENDRAGAD BRANCH MEHARWADE BUILDING,MAIN ROAD,GAJENDRAGAD - 582 114. TQ. : RON,  DIST. : GADAG.",262217,GAJENDRAGAD,GADAG,KARNATAKA
"KARNATAKA VIKAS GRAMEENA BANK",KVGB0006301,582483523,ABBIGERI,"ABBIGERI BRANCH NEAR GANDHI CIRCLE,TARUNA SANGH BUILDING,ABBIGERI - 582 111. TQ. : RON, DIST. : GADAG.",282217,ABBIGERI,GADAG,KARNATAKA
"KARNATAKA VIKAS GRAMEENA BANK",KVGB0006205,582483548,SHIROL,"CHANDANNVAR BUILDING, HADLI ROAD , SHIROL-582207, TQ : NARAGUND, DT: GADAG",0,SHIROL,GADAG,KARNATAKA
"KARNATAKA VIKAS GRAMEENA BANK",KVGB0006204,582483522,KONNUR,"HORAKERI BLDG OLD VIJAYA BANK BLDG, MAIN ROAD, KONNUR TQ: NARAGUND, DIST : GADAG",0,KONNUR,GADAG,KARNATAKA
"KARNATAKA VIKAS GRAMEENA BANK",KVGB0006203,582483521,NARAGUND,"NARAGUND BRANCH GUDISAGAR BUILDING, NEAR COURT, KEMPAGASI ROAD, NARAGUND - 582 207. TQ. : NARAGUND,  DIST. : GADAG",264512,NARGUND,GADAG,KARNATAKA
"KARNATAKA VIKAS GRAMEENA BANK",KVGB0006202,582483520,HADLI,"HADLI BRANCH PANCHAYAT BUILDING,HADLI - 582 228. TQ. : NARAGUND,  DIST. : GADAG.",263344,HADLI,GADAG,KARNATAKA
"KARNATAKA VIKAS GRAMEENA BANK",KVGB0006201,582483519,CHI-NARAGUND,"CHIKKANARAGUND BRANCH PANCHAYAT BUILDING, CHIKKANARANGUND - 582 235. TQ. : NARAGUND, DIST. : GADAG.",262242,CHIKKANARGUND,GADAG,KARNATAKA
"KARNATAKA VIKAS GRAMEENA BANK",KVGB0006111,WAITING,MUNDAWAD,"KARNATAKA VIKAS GRAMEENA BANK, MUNDAWAD BRANCH, KELAGINAGOUDAR BUILDING, NEAR BUS STAND, AT POST MUNDAWAD TALUK MUNDARGI GADAG",9108699744,MUNDAWAD,GADAG,KARNATAKA
"KARNATAKA VIKAS GRAMEENA BANK",KVGB0006110,582483543,"JANTLI SHIRUR","GRAM PANCHAYAT BUILDING AT & PO. JANTLI SHIRUR TQ. MUNDARGI PIN ┬û 582 113",0,HALLIGULI,GADAG,KARNATAKA
"KARNATAKA VIKAS GRAMEENA BANK",KVGB0006109,582483541,DONI,"GRAM PANCHAYAT BUILDING AT & PO. DONI TQ. MUNDARGI PIN ┬û 582 103",0,DAMBAL,GADAG,KARNATAKA
"KARNATAKA VIKAS GRAMEENA BANK",KVGB0006108,582483516,MUNDARAGI,"MUNDARAGI BRANCH METI BUILDING, MARKET ROAD,MUNDARAGI - 582 118. TQ. : MUNDARAGI,  DIST. : GADAG.  PH.NO. 08371 262107",262107,MUNDARGI,GADAG,KARNATAKA
"KARNATAKA VIKAS GRAMEENA BANK",KVGB0006107,582483515,MEVUNDI,"MEVUNDI BRANCH HARUGERI BUILDING, MUNDARGI ROAD,MEVUNDI - 581 317. TQ. : MUNDARAGI,  DIST. : GADAG.",292500,MEUNDI,GADAG,KARNATAKA
"KARNATAKA VIKAS GRAMEENA BANK",KVGB0006106,582483516,KORLAHALLI,"A.H. HEMADRI BUILDING,KORLAHALLI BRANCH  CHANALDAR ONI, KORLAHALLI - 582 118. TQ. : MUNDARAGI,  DIST. : GADAG.",265233,KORLHALLI,GADAG,KARNATAKA
"KARNATAKA VIKAS GRAMEENA BANK",KVGB0006105,582483515,KALKERI,"KALKERI BRANCH J.R.Y. BUILDING, KALAKERI - 582 118. TQ. : MUNDARAGI,  DIST. : GADAG.",263532,KALKERI,GADAG,KARNATAKA
"KARNATAKA VIKAS GRAMEENA BANK",KVGB0006104,582483514,HAMMIGI,"HAMMIGI BRANCH JRY BUILDING,HAMMIGI - 582 118.TQ. : MUNDARAGI,  DIST. : GADAG.",264634,HAMMIGI,GADAG,KARNATAKA
"KARNATAKA VIKAS GRAMEENA BANK",KVGB0006103,582483513,HALLIGUDI,"HALLIGUDI BRANCH NEAR BASAVESHWAR TEMPLE,V. P. C. BUILDING, STATION ROAD,HALLIGUDI - 582 115. TQ. : MUNDARAGI,  DIST. : GADAG.",269240,HALLIGULI,GADAG,KARNATAKA
"KARNATAKA VIKAS GRAMEENA BANK",KVGB0006102,582483512,DAMBAL,"DAMBAL BRANCH PANCHAYAT BUILDING, DAMBAL - 582 113. TQ. : MUNDARAGI, DIST. : GADAG.",266247,DAMBAL,GADAG,KARNATAKA
"KARNATAKA VIKAS GRAMEENA BANK",KVGB0006101,582483511,BAGEWADI,"BAGEWADI BRANCH V. P. C. BUILDING, BAGEWADI - 582 118. TQ. : MUNDARAGI, DIST. : GADAG",263573,BAGEWADI,GADAG,KARNATAKA
"KARNATAKA VIKAS GRAMEENA BANK",KVGB0006017,NA,HUILGOL,"KIRITAGERI ROAD, OPP. SUGURESHWAR MATH, HUILGOL, TQ GADAG, DIST. GADAG - 582102",0,GADAG,GADAG,KARNATAKA
"KARNATAKA VIKAS GRAMEENA BANK",KVGB0006016,WAITING,YALISHIRUR,"KARNATAKA VIKAS GRAMEENA BANK YALISHIRUR BRANCH GRAMA PANCHAYATH BUILDING YELISHIRUR TALUKA GADAG DIST GADAG",9108699738,GADAG,GADAG,KARNATAKA
"KARNATAKA VIKAS GRAMEENA BANK",KVGB0006015,WAITING,"ANTUR BENTUR","KARNATAKA VIKAS GRAMEENA BANK BRANCH ANTUR BENTUR TALUK GADAG DIST GADAG",9480699044,GADAG,GADAG,KARNATAKA
"KARNATAKA VIKAS GRAMEENA BANK",KVGB0006014,WAITING,HULKOTI,"KARNATAKA VIKAS GRAMEEN BANK, PATIL BUILDING, HARTI ROAD, HULKOTI, TQ AND DT GADAG 582205, KARNATAKA",7022599734,HULKOTI,GADAG,KARNATAKA
"KARNATAKA VIKAS GRAMEENA BANK",KVGB0006013,WAITING,LAKKUNDI,"KARNATAKA VIKAS GRAMEEN BANK, GRAM PANCHYAT BUILDING, LAKKUNDI, DT GADAG, KARNATAKA",7022599733,LAKKUNDI,GADAG,KARNATAKA
"KARNATAKA VIKAS GRAMEENA BANK",KVGB0006012,582483548,KOTAMUCHAGI,"KARNATAKA VIKAS GRAMEENA BANK, PANCHAYAT BUILDING KOTAMUCHAGI- 582119 , TQ: GADAG ,DT : GADAG , KARNATAKA",0,GADAG,GADAG,KARNATAKA
"KARNATAKA VIKAS GRAMEENA BANK",KVGB0006011,582483510,"HATALGERI NAKA","PLOT NO. 7 S T BALLARY BUILDING, VIJAYA TARA COMPLEX, HATALGERI ROAD, OPP J T COLLEGE.",0,GADAG,GADAG,KARNATAKA
"KARNATAKA VIKAS GRAMEENA BANK",KVGB0006010,582483509,MULAGUND,"MULGUND BRANCH BADNI BUILDING, MAIN MARKET ROAD  MULGUND TQ. : MULAGUND,  DIST. : GADAG",280312,MULGUND,GADAG,KARNATAKA
"KARNATAKA VIKAS GRAMEENA BANK",KVGB0006009,582483508,SORATUR,"SORTUR BRANCH NEAR BUS STAND,SORTUR - 582 213.TQ. : GADAG,  DIST. : GADAG",281042,SORTUR,GADAG,KARNATAKA
"KARNATAKA VIKAS GRAMEENA BANK",KVGB0006008,582483507,NAGAVI,"NAGAVI BRANCH PANCHAYAT BUILDING,NAGAVI - 582 124.TQ:GADAG, DIST:GADAG",218005,NAGAVI,GADAG,KARNATAKA
"KARNATAKA VIKAS GRAMEENA BANK",KVGB0006007,582483506,"MULAGUND NAKA","MULGUNDNAKA BRANCH HOSALLIMATH COMPLEX,MULGUND NAKA BARANCH TQ. : GADAG,  DIST. : GADAG.",239823,GADAG,GADAG,KARNATAKA
"KARNATAKA VIKAS GRAMEENA BANK",KVGB0006006,582483505,KURTHAKOTI,"KURTHAKOTI BRANCH GADAREDDY BUILDING,KURTHAKOTI - 582 214.TQ. : GADAG,  DIST. : GADAG.",287017,KURTAKOTI,GADAG,KARNATAKA
"KARNATAKA VIKAS GRAMEENA BANK",KVGB0006005,582483004,HOMBAL,"HOMBAL BRANCH PANCHAYAT BUILDING,HOMBAL - 582 204 TQ. : GADAG,  DIST. : GADAG.",284035,HOMBAL,GADAG,KARNATAKA
"KARNATAKA VIKAS GRAMEENA BANK",KVGB0006004,582483504,HARTI,"HARTI BRANCH SOCIETY BUILDING,HARTI - 582 123.TQ. : GADAG,  DIST. : GADAG.",285009,HARTI,GADAG,KARNATAKA
"KARNATAKA VIKAS GRAMEENA BANK",KVGB0006003,582483503,GADAG,"GADAG MAIN BRANCH S. P. GADAG BUILDING,J. T. MATH ROAD, GADAG - 582 101. TQ. : GADAG,  DIST. : GADAG.",278016,GADAG,GADAG,KARNATAKA
"KARNATAKA VIKAS GRAMEENA BANK",KVGB0006002,582483502,BETAGERI,"BETAGERI BRANCH KABADI BUILDING, PALA-BADAMI ROAD, BETAGERI - 582 102. TQ. : GADAG,  DIST. : GADAG.",245048,GADAG-BETIGERI,GADAG,KARNATAKA
"KARNATAKA VIKAS GRAMEENA BANK",KVGB0006001,582483002,BALAGANUR,"BALAGANUR BRANCH  MARUTI DEVASTAN BUILDING, MAIN ROAD, BALAGANUR - 582 231. TQ. : GADAG, DIST. : GADAG",286033,BALAGANUR,GADAG,KARNATAKA
"KARNATAKA VIKAS GRAMEENA BANK",KVGB0006000,NA,"GADAG R O","CHAMBER OF COMMERCE BUILDING,APMC ROAD,GADAG.582101",0,GADAG,GADAG,KARNATAKA
"KARNATAKA VIKAS GRAMEENA BANK",KVGB0005503,582483003,SUBRAMANYA,"GRAMA PANCHYAT BUILDING,SUBRAMANYA BRANCH,ULLIA TQ,DAKSHINA KANNADA DIST.",281237,SUBRAMANYA,MANGALORE,KARNATAKA
"KARNATAKA VIKAS GRAMEENA BANK",KVGB0005502,582483501,SULLIA,"SULLIA BRANCH,SULLIA TQ,DAKSHINA KANNADA DIST.",230821,SULLIA,MANGALORE,KARNATAKA
"KARNATAKA VIKAS GRAMEENA BANK",KVGB0005501,574483502,BELLARE,"BELLARE BRANCH,SULLIA TQ, DAKSHINA KANNADA DIST.",271516,BELLARE,MANGALORE,KARNATAKA
"KARNATAKA VIKAS GRAMEENA BANK",KVGB0005404,NA,KANIYOOR,"D K COMPLEX, IST FLOOR, MAIN ROAD, KANIYOOR",9480699682,KANIYUR,"DAKSHIN KANNAD",KARNATAKA
"KARNATAKA VIKAS GRAMEENA BANK",KVGB0005403,575483509,KABAK,"K NARAYANA NAIK COMPLEX, I FLOOR,  KABAKA -574220, PUTTUR TALUK, DAKSHINA KANNADA  DT",0,KABAKA,"DAKSHIN KANNAD",KARNATAKA
"KARNATAKA VIKAS GRAMEENA BANK",KVGB0005402,574483302,UPPINGADY,"UPPINGADI BRANCH,PUTTUR TQ, DAKSHINA KANNADA DIST.",251635,UPPINANGADY,MANGALORE,KARNATAKA
"KARNATAKA VIKAS GRAMEENA BANK",KVGB0005401,574483501,PUTTUR,"PUTTUR BRANCH,PUTTUR TQ,DAKSHINA KANNADA DIST.",232897,PUTTUR,MANGALORE,KARNATAKA
"KARNATAKA VIKAS GRAMEENA BANK",KVGB0005211,575483015,KRISHNAPUR,"KARNATAKA VIKAS GRAMEENA BANK, LONDOAN PLAZA II, 1ST FLOOR, 7TH BLOCK MAIN ROAD, KRISHNAPUR - 575014 , PO SURATKAL , MANGALORE DT: SOUTH KANARA",0,MANGALORE,MANGALORE,KARNATAKA
"KARNATAKA VIKAS GRAMEENA BANK",KVGB0005210,575483508,BELVAI,"ANANDA COMPLEX, I FLOOR, MAIN ROAD BELVAI -574213 ,MANGALORE TALUK, DAKSHINA KANNADA DT",0,BELWAI,MANGALORE,KARNATAKA
"KARNATAKA VIKAS GRAMEENA BANK",KVGB0005209,575483010,"BUNDER MANGALORE","LAXMAN COMMERCIAL COMPLEX OPP:ATTUR VASUDEV PRABHU,JM-2ND CROSS ROAD,BUNDER MANGALORE",0,MANGALORE,MANGALORE,KARNATAKA
"KARNATAKA VIKAS GRAMEENA BANK",KVGB0005208,575483007,KAVOOR,"KVOOR JUNCTION, KAVOOR MANGALORE TQ & DT.MANGALORE",0,MANGALORE,MANGALORE,KARNATAKA
"KARNATAKA VIKAS GRAMEENA BANK",KVGB0005207,575483013,"KATEEL (KONDEMULA)","HOTEL SOUDARYA OALACE COMPLEX, KATEEL- KINNIGOLI ROAD KATEEL TQ & DT. MANGALORE",0,KATEEL,MANGALORE,KARNATAKA
"KARNATAKA VIKAS GRAMEENA BANK",KVGB0005206,575483012,TALAPADY,"NJATH COMPLEX, OPP: RTO CHECK POST N H 17 TALAPADY TQ: MANGALORE, DIST: DAXINA KANNADA",280500,TALPADY,MANGALORE,KARNATAKA
"KARNATAKA VIKAS GRAMEENA BANK",KVGB0005205,575483011,SURATKAL,"SURATKAL,SHANKAR SADAN OPP: POST OFFICE N H 17 SUARAT KAL TQ:MANGALORE  DIST: DAKSHINA KANNADA",0,MANGALORE,MANGALORE,KARNATAKA
"KARNATAKA VIKAS GRAMEENA BANK",KVGB0005204,575483014,"Z P EXTENSION MANGALORE","THE OFFICER INCHARGE , ZILLA PANCHAYAT OFFICE COMPLEX , URVA MANGALORE",2459571,MANGALORE,MANGALORE,KARNATAKA
"KARNATAKA VIKAS GRAMEENA BANK",KVGB0005203,575483003,MOODABIDRI,"MOODABIDARE BRANCH,MANGALORE TQ,DAKSHINA KANNADA DIST.",237192,MOODABIDRI,MANGALORE,KARNATAKA
"KARNATAKA VIKAS GRAMEENA BANK",KVGB0005202,575483002,KARANGALAPADY,"KARANGALAPADY (MANGALORE) BRANCH,MANGALORE TQ,DAKSHINA KANNADA DIST.",2492571,MANGALORE,MANGALORE,KARNATAKA
"KARNATAKA VIKAS GRAMEENA BANK",KVGB0005201,575483006,KAIKAMBA,"KAIKAMBA  BRANCH,MANGALORE TQ,DAKSHINA KANNADA DIST.",2258951,KAIKAMBA,MANGALORE,KARNATAKA
"KARNATAKA VIKAS GRAMEENA BANK",KVGB0005104,575483510,ALADANGADY,"GRAMA PANCHAYATH BUILDING, 1ST FLOOR, ALADANGADY-574217, BELTHANGADY TALUK, DAKSHINA KANNADA DT",0,ALADANGADY,"DAKSHIN KANNAD",KARNATAKA
"KARNATAKA VIKAS GRAMEENA BANK",KVGB0005103,575483002,VENUR,"VENUR BRANCH,BELTHANGADI TQ,DAKSHINA KANNADA DIST.",286017,VENOOR,MANGALORE,KARNATAKA
"KARNATAKA VIKAS GRAMEENA BANK",KVGB0005102,575483005,UJRE,"UJIRE BRANCH,BELTHANGADI TQ,DAKSHINA KANNADA DIST.",236533,UJRE,MANGALORE,KARNATAKA
"KARNATAKA VIKAS GRAMEENA BANK",KVGB0005101,575483503,ARASINMAKKI,"ARASINAMAKKI BRANCH,BELTHANGADI TQ, DAKSHINA KANNADA DIST.",268262,REKHYA,MANGALORE,KARNATAKA
"KARNATAKA VIKAS GRAMEENA BANK",KVGB0005005,WAITING,SIDDAKATTE,"KARNATAKA VIKAS GRAMEENA BANK SWAGATH COMPLEX SIDDAKATTE BANTWALA DK 574237",9108699760,SIDDAKATTE,"DAKSHIN KANNADA",KARNATAKA
"KARNATAKA VIKAS GRAMEENA BANK",KVGB0005004,NA,FARANGIPETE,"ATHAYEE COMPLEX, IST FLOOR, MAIN ROAD, FARANGIPETE",9480699691,FARANGIPET,"DAKSHIN KANNAD",KARNATAKA
"KARNATAKA VIKAS GRAMEENA BANK",KVGB0005003,575483502,VITTAL,"VH ASHRAF COMPLEX, VITTAL BRANCH,BANTWAL TQ,DAKSHINA KANNADA DIST.",239877,VITTAL,MANGALORE,KARNATAKA
"KARNATAKA VIKAS GRAMEENA BANK",KVGB0005002,575483501,KALLADKA,"PANCHAVATI COMMERCIAL COMPLEX KALLADKA BRANCH,BANTWAL TQ,DAKSHINA KANNADA DIST.",275212,KALLADKA,MANGALORE,KARNATAKA
"KARNATAKA VIKAS GRAMEENA BANK",KVGB0005001,575483009,"BC ROAD","B.C. ROAD BRANCH,NEAR BUS STAND B.C. ROAD, BANTWAL TQ,DAKSHINA KANNADA DIST.",232884,B.C.ROAD,MANGALORE,KARNATAKA
"KARNATAKA VIKAS GRAMEENA BANK",KVGB0005000,NA,"MANGALORE R O","I ST FLOOR,KRISHNA TOWERS,LADY HILL,CHILIMBI,MANGALORE 575006",0,MANGALORE,MANGALORE,KARNATAKA
"KARNATAKA VIKAS GRAMEENA BANK",KVGB0004411,WAITING,ANNIGERI,"VM HUBLI COMPLEX  CTS NO 44/C1 OPPOSITE TO SBI NAVALGUND GADAG ROAD ANNIGERI DHARWAD-582201",9108699790,ANNIGERI,DHARWAD,KARNATAKA
"KARNATAKA VIKAS GRAMEENA BANK",KVGB0004410,575483504,MORAB,"NEAR PANCHAYAT OFFICE , OPP KALMESHWAR TEMPLE MORAB, AT & PO MORAB , TQ : NAVALGUND , DHRAWDA - 580112",0,MORAB,DHARWAD,KARNATAKA
"KARNATAKA VIKAS GRAMEENA BANK",KVGB0004408,575483004,TIRLAPUR,"TIRLAPUR BRANCH PANCHAYAT BUILDING, TIRLAPUR - 582 221. TQ. : NAVALAGUND,  DIST. : DHARWAD",234547,TIRLAPUR,DHARWAD,KARNATAKA
"KARNATAKA VIKAS GRAMEENA BANK",KVGB0004407,580483518,SHIRKOL,"SHIRKOL BRANCH TEMPLE BUILDING, SHIRKOL - 582 208. TQ. : NAVALAGUND,  DIST. : DHARWAD.",213295,SHIRKOL,DHARWAD,KARNATAKA
"KARNATAKA VIKAS GRAMEENA BANK",KVGB0004406,580483519,SHALAWADI,"SHALAWADI BRANCH  KADLI BUILDING  NEAR BUS STAND, SHALAWADI - 582 238. TQ. : NAVALAGUND,  DIST. : DHARWAD",225618,SHELAVADI,DHARWAD,KARNATAKA
"KARNATAKA VIKAS GRAMEENA BANK",KVGB0004405,580483518,NAVALGUND,"NAVALGUND BRANCH JAIN BUILDING, MARKET ROAD, NAVALAGUND - 582 208. TQ. : NAVALAGUND,  DIST. : DHARWAD.",229461,NAVALGUND,DHARWAD,KARNATAKA
"KARNATAKA VIKAS GRAMEENA BANK",KVGB0004404,580483517,NALAWADI,"NALAWADI BRANCH MUDAREDDY BUILDING, MAIN ROAD, NALAWADI - 582 220. TQ. : NAVALAGUND,  DIST. : DHARWAD",226517,NALAWADI,DHARWAD,KARNATAKA
"KARNATAKA VIKAS GRAMEENA BANK",KVGB0004403,580483516,HALLIKERI,"HALLIKERI BRANCH  MADALLI BUILDING, BAZAR ROAD,  HALLIKERI - 582 201. TQ. : NAVALAGUND,  DIST. : DHARWAD.",228332,HALLIKERI,DHARWAD,KARNATAKA
"KARNATAKA VIKAS GRAMEENA BANK",KVGB0004402,580483515,AREKURAHATTI,"AREKURAHATTI BRANCH HARIHAR BUILDING,AREKURAHATTI - 581 208. TQ. : NAVALAGUND, DIST. : DHARWAD.",224270,AREKURAHATT,DHARWAD,KARNATAKA
"KARNATAKA VIKAS GRAMEENA BANK",KVGB0004401,580483514,ALAGAWADI,", ALNAVAR BRANCH  ACHARI COMPLEX, AZAD ROAD, ALNAVAR - 581 103. TQ. : DHARWAD  DIST. : DHARWAD",235210,ALAGAWADI,DHARWAD,KARNATAKA
"KARNATAKA VIKAS GRAMEENA BANK",KVGB0004308,WAITING,HIREHARAKUNI,"KARNATAKA VIKAS GRAMEEN BANK, GRAM PANCHYAT BUILDING, HIREHARAKUNI, TQ KUNDGOL, DT DHARWAD, KARNATAKA",7022599732,KUNDGOL,DHARWAD,KARNATAKA
"KARNATAKA VIKAS GRAMEENA BANK",KVGB0004307,WAITING,TARLAGHATTA,"KARNATAKA VIKAS GRAMEENA BANK BRANCH TARLAGHATTA KUNDAGOL TALUK DHARWAD DIST",0,HUBLI,DHARWAD,KARNATAKA
"KARNATAKA VIKAS GRAMEENA BANK",KVGB0004306,580483513,YAREBUDIHAL,"YAREBUDIHAL BRANCH KANOJI BUILDING, YAREBUDIHAL - 581 162.TQ. : KUNDGOL,  DIST. : DHARWAD.",294082,YAREBUDIHAL,DHARWAD,KARNATAKA
"KARNATAKA VIKAS GRAMEENA BANK",KVGB0004305,580483512,YARAGUPPI,"YARAGUPPI BRANCH YALIGAR BUILDING, KUNDGOL ROAD, YARAGUPPI - 580 215. TQ. : KUNDAGOL,  DIST. : DHARWAD",293312,YERAGUPPI,DHARWAD,KARNATAKA
"KARNATAKA VIKAS GRAMEENA BANK",KVGB0004304,580483529,KUNDAGOL,"KUNDAGOL BRANCH BALIKAI BUILDING, KUNDAGOL - 581 113. TQ. : KUNDAGOL,  DIST. : DHARWAD",290348,KUNDGOL,DHARWAD,KARNATAKA
"KARNATAKA VIKAS GRAMEENA BANK",KVGB0004303,580483530,KAMADOLLI,"KAMADOLLI BRANCH LIBRARY BUILDING, KAMADOLLI - 581 113.TQ. : KUNDGOL,  DIST. : DHARWAD",299003,KAMADOLLI,DHARWAD,KARNATAKA
"KARNATAKA VIKAS GRAMEENA BANK",KVGB0004302,580483528,KALAS,"KALAS BRANCH WALAD BUILDING, KALAS - 581 107. TQ. : KUNDAGOL,  DIST. : DHARWAD",298129,KALASA,DHARWAD,KARNATAKA
"KARNATAKA VIKAS GRAMEENA BANK",KVGB0004301,580483527,INGALAGI,"INGALAGI BRANCH PATIL KULKARNI BUILDING, INGALAGI - 581 128. TQ. : KUNDGOL,  DIST. : DHARWAD",297015,INGALAGI,DHARWAD,KARNATAKA
"KARNATAKA VIKAS GRAMEENA BANK",KVGB0004209,WAITING,TAVARGERI,"KARNATAKA VIKAS GRAMEEN BANK, GRAM PANCHYAT BLDG, TAWARAGERI TQ KALAGHATAGI DT DHARWAD, KARNATAKA",7022599713,KALGHATGI,DHARWAD,KARNATAKA
"KARNATAKA VIKAS GRAMEENA BANK",KVGB0004208,580483547,DEVIKOPPA,"GRAM PANCHAYAT BUILDING DEVIKOPPA_581204, TQ: KALGATGI, DT: DHARWAD",0,KALGHATGI,DHARWAD,KARNATAKA
"KARNATAKA VIKAS GRAMEENA BANK",KVGB0004207,580483526,TA.HO.HALLI,"TABADAHONNIHALLI BRANCH PANCHAYAT BUILDING, TABAKADAHONNIHALLI - 581 212. TQ. : KALAGHATAGI,  DIST. : DHARWAD.",281234,TABAKADAHONNIHALLI,KUMTA,KARNATAKA
"KARNATAKA VIKAS GRAMEENA BANK",KVGB0004206,580483525,MUTTAGI,"MUTTAGI BRANCH PANCHAYAT BUILDING, MUTTAGI - 581 204. TQ. : KALAGHATAGI,  DIST. : DHARWAD",210322,MUTTIAGI,KUMTA,KARNATAKA
"KARNATAKA VIKAS GRAMEENA BANK",KVGB0004205,580483537,MISHRIKOTI,"MISHRIKOTI BRANCH JRY BUILDING, NEAR BUS STAND, MISHRIKOTI - 581 226. TQ. : KALAGHATAGI,  DIST. : DHARWAD.",283726,MISHRIKOTI,KUMTA,KARNATAKA
"KARNATAKA VIKAS GRAMEENA BANK",KVGB0004204,580483536,KALAGHATAGI,"KALAGHATAGAI BRANCH CTS 4536/2/1 NAIK BUILDING HUBLI-KARWAR ROAD  KALAGHATAGI - 581 204. TQ. : KALAGHATAGI,  DIST. : DHARWAD.",284562,KALGHATGI,KUMTA,KARNATAKA
"KARNATAKA VIKAS GRAMEENA BANK",KVGB0004203,580483535,HI.HO.HALLI,"HIREHONNIHALLI BRANCH J. R. Y. BUILDING, HIREHONNIHALLI - 581 225.TQ. : KALAGHATAGI,  DIST. : DHARWAD.",287246,HIREHONNIHALLI,KUMTA,KARNATAKA
"KARNATAKA VIKAS GRAMEENA BANK",KVGB0004202,580483534,GA.HULKOPPA,"GHALAGI-HULKOP BRANCH MANDALGIRI, MARKET, GALAGI HULKOP - 581 208. TQ. : KALAGHATAGI,  DIST. : DHARWAD.",280916,"GHALGI HULKOPPA",KUMTA,KARNATAKA
"KARNATAKA VIKAS GRAMEENA BANK",KVGB0004201,580483533,BOMMIGATTI,"BOMMIGATTI BRANCH PANCHAYAT BUILDING, BOMMIGATTI - 581 223. TQ. : KALAGHATAGI,  DIST. : DHARWAD",289272,BOMMIGATTI,KUMTA,KARNATAKA
"KARNATAKA VIKAS GRAMEENA BANK",KVGB0004121,NA,RAYANAL,"REVANA SIDDESHWARA SAMSTHANA VIRAKTHAMATHA AVARANA, RAYANAL",9480699674,"HUBLI DHARWAD",DHARWAD,KARNATAKA
"KARNATAKA VIKAS GRAMEENA BANK",KVGB0004120,580483545,ADARAGUNCHI,"M I KAMADOLLI BLDG MAIN ROAD ADARGUNCHI TQ.HUBLI PIN ┬û 580 028",0,HUBLI-DHARWAD,DHARWAD,KARNATAKA
"KARNATAKA VIKAS GRAMEENA BANK",KVGB0004119,580483542,SHIRAGUPPI,"OLD LIBRARY,MAIN ROAD, SHIRAGUPPI TQ HUBLI DT. DHARWAD",0,HUBLI-DHARWAD,DHARWAD,KARNATAKA
"KARNATAKA VIKAS GRAMEENA BANK",KVGB0004118,580483011,GOKUL,"MARUTI YUVAK MANDAL BLDG, NEAR ISHWAR TEMPLE  GOKUL TQ HUBLI & DT. DHARWAD",0,HUBLI-DHARWAD,DHARWAD,KARNATAKA
"KARNATAKA VIKAS GRAMEENA BANK",KVGB0004117,580483542,"STATION RD HUBLI",", KAMKAR BUILDING, OPPOSITE DECCAN TAKIES , STATION ROAD , HUBLI",2264156,HUBLI-DHARWAD,DHARWAD,KARNATAKA
"KARNATAKA VIKAS GRAMEENA BANK",KVGB0004116,580483011,"MADHURA COLONY HUBLI","AKSHAYA ENCLAVES MADHURA COLONY, KUSUGAL ROAD, HUBLI 580023",0,HUBLI-DHARWAD,DHARWAD,KARNATAKA
"KARNATAKA VIKAS GRAMEENA BANK",KVGB0004115,580483012,BHAIRIDEVARAKOPPA-HBL,"BHAIRIDEVARAKOPPA BRANCH YUVAKA MANDALA BUILDING, NEAR BUS STOP, P.B.ROAD HUBLI. BHAIRIDEVARAKOPPA TQ. : HUBLI,  DIST. : DHARWAD.",2277889,BHANDIWAD,DHARWAD,KARNATAKA
"KARNATAKA VIKAS GRAMEENA BANK",KVGB0004114,580483011,WARUR,"WARUR BRANCH HIREMATH BUILDING, P. B. ROAD, WARUR - 581 234. TQ. : HUBLI,  DIST. : DHARWAD.",2480326,WARUR,DHARWAD,KARNATAKA
"KARNATAKA VIKAS GRAMEENA BANK",KVGB0004113,580483021,"VIJAYNAGAR HBL","HUBLI ┬û VIJAYNAGAR BRANCH PLOT NO. 151 (A), CHACHADI BUILDING, NEAR VIJAYANAGAR POST OFFICE, VIJAYANAGAR, HUBLI - 580 032. TQ. : HUBLI,  DIST. : DHARWAD.",2356012,HUBLI-DHARWAD,DHARWAD,KARNATAKA
"KARNATAKA VIKAS GRAMEENA BANK",KVGB0004112,580483524,SRINAGARHBL,"HUBLI ┬ûSHRINAGAR BRANCH  C.B. NO. 2/A, SMT. S. S. PATIL BUILDING, SAI NAGAR UNKAL, HUBLI - 580 031 TQ. : HUBLI,  DIST. : DHARWAD.",2371875,HUBLI-DHARWAD,DHARWAD,KARNATAKA
"KARNATAKA VIKAS GRAMEENA BANK",KVGB0004111,580483006,"SHIRUR PARK HBL","HUBLI ┬û SHIRUR PARK BRANCH  CB, 3749,  MISKIN BUILDING, MAIN ROAD, SHIRUR PARK, HUBLI - 580 031 TQ. : HUBLI,  DIST. : DHARWAD.",2370275,HUBLI-DHARWAD,DHARWAD,KARNATAKA
"KARNATAKA VIKAS GRAMEENA BANK",KVGB0004110,580483003,"OLD HUBLI","HUBLI ┬û OLD HUBLI BRANCH JOSHI BUILDING,VENKATESHWAR COMPLEX, FORT ROAD, OLD HUBLI, HUBLI - 580 024. TQ. : HUBLI,  DIST. : DHARWAD",2217151,HUBLI-DHARWAD,DHARWAD,KARNATAKA
"KARNATAKA VIKAS GRAMEENA BANK",KVGB0004109,580483004,NULVI,"NULVI BRANCH M. G. DHARWAD BUILDING, NULVI - 580 214. TQ. : HUBLI,  DIST. : DHARWAD",2317247,NULVI,DHARWAD,KARNATAKA
"KARNATAKA VIKAS GRAMEENA BANK",KVGB0004108,580483009,NAVANAGAR,"NAVANAGAR BRANCH  MIG-17, OPP. CANCER HOSPITAL, NAVANAGAR - 580 025(HUBLI)  DIST. : DHARWAD.",2223496,HUBLI-DHARWAD,DHARWAD,KARNATAKA
"KARNATAKA VIKAS GRAMEENA BANK",KVGB0004107,580483523,KUSUGAL,"KUSUGAL BRANCH D.K. PATIL BUILDING,  KILLA ROAD, KUSUGAL - 581 100. TQ. : HUBLI,  DIST. : DHARWAD.",2315237,KUSUGAL,DHARWAD,KARNATAKA
"KARNATAKA VIKAS GRAMEENA BANK",KVGB0004106,580483010,KESHWAPUR-HUBLI,"HUBLI ┬ûKESHWAPUR JAGAJYOTHI COMPLEX, NAGESHETTIKOPPA ROAD, KESHAVAPUR, HUBLI - 580 023.",2284269,KESHWAPUR,DHARWAD,KARNATAKA
"KARNATAKA VIKAS GRAMEENA BANK",KVGB0004105,580483522,INGALAHALLI,"INGALAHALLI BRANCH PANCHAYAT BUILDING, INGALAHALLI - 581 231. TQ. : HUBLI,  DIST. : DHARWAD.",2318606,INGALAHALLI,DHARWAD,KARNATAKA
"KARNATAKA VIKAS GRAMEENA BANK",KVGB0004104,580483008,"HUBLI (M)","HUBLI MAIN BRANCH CLUB ROAD HUBLI - 580 028. TQ. : HUBLI,  DIST. : DHARWAD.",0,HUBLI-DHARWAD,DHARWAD,KARNATAKA
"KARNATAKA VIKAS GRAMEENA BANK",KVGB0004103,580483521,HALLIHAL,"HALLIHAL BRANCH GRAM PANCHAYAT BUILDING,MAIN ROAD,HALLIHAL - 580 023. TQ. : HUBLI,  DIST. : DHARWAD.",2311633,HALLIHAL,DHARWAD,KARNATAKA
"KARNATAKA VIKAS GRAMEENA BANK",KVGB0004102,580483002,"GOKUL RD HUBLI","HUBLI ┬û GOKUL ROAD BRANCHE & F BLOCK, STALL NO. 7 & 8, AKSHAYA PARK, GOKUL ROAD, HUBLI - 580 030. TQ. : HUBLI,  DIST. : DHARWAD",2232147,HUBLI-DHARWAD,DHARWAD,KARNATAKA
"KARNATAKA VIKAS GRAMEENA BANK",KVGB0004101,580483520,"CBT HUBLI","HUBLI ┬û BARDAN SAL BRANCH  NEELI BUILDING, BARADAN GALLI, NEAR C.B.T.  HUBLI - 580 020. TQ. : HUBLI,  DIST. : DHARWAD.",2217149,BHANDIWAD,DHARWAD,KARNATAKA
"KARNATAKA VIKAS GRAMEENA BANK",KVGB0004028,WAITING,MANAGUNDI,"KARNATAKA VIKAS GRAMEENA BANK WALMIKI SEVA SANGH BUILDING MANAGUNDI DHARWAD",9108699771,MANAGUNDI,DHARWAD,KARNATAKA
"KARNATAKA VIKAS GRAMEENA BANK",KVGB0004027,WAITING,"DISTRICT COURT COMPLEX - DHARWAD","DISTRICT COURT COMPLEX, GROUND FLOOR, PRINCIPAL DISTRICT AND SESSION COURT COMPLEX, NEAR KALABHAVAN, PB ROAD, DHARWAD - 580008",9480699694,"HUBLI - DHARWAD",DHARWAD,KARNATAKA
"KARNATAKA VIKAS GRAMEENA BANK",KVGB0004026,WAITING,HALLIGERI,"KARNATAKA VIKAS GRAMEENA BANK, OLD PANCHAYAT BUILDING, MAIN ROAD, HALLIGERI, DT DHARWAD, KARNATAKA",9480699696,HALLIGERI,DHARWAD,KARNATAKA
"KARNATAKA VIKAS GRAMEENA BANK",KVGB0004025,580483024,RAJATGIRI,"KARNATAKA VIKAS GRAMEENA BANK, CHAVADI  ARCHADE, SARASWATPUR, KALAGATGI DHARWAD-580002 , DT DHARWAD , KARNATAKA",0,HUBLI-DHARWAD,DHARWAD,KARNATAKA
"KARNATAKA VIKAS GRAMEENA BANK",KVGB0004024,580483023,MALAMADDI,"MALAMADDI BRANCH , MANJUNATH PURA NEAR RAYAR MATT DHARAWD - 580007",0,HUBLI-DHARWAD,DHARWAD,KARNATAKA
"KARNATAKA VIKAS GRAMEENA BANK",KVGB0004023,580483311,"VIKAS NAGAR","PLOT NO 141, NEAR BGS SCHOOL, VIKAS NAGAR DHARWAD -580008",0,HUBLI-DHARWAD,DHARWAD,KARNATAKA
"KARNATAKA VIKAS GRAMEENA BANK",KVGB0004022,580483544,MAADANBHAVI,"GRAM PANCHAYATI BLDG MADANBHAVI TQ.DHARWAD PIN ┬û 581 105",0,HUBLI-DHARWAD,DHARWAD,KARNATAKA
"KARNATAKA VIKAS GRAMEENA BANK",KVGB0004021,580483543,KOTABAGI,"OLD PANCHAYAT OFFICE A/P: KOTABAGI TQ. & DT:  DHARWAD PIN ┬û 581 105",0,HUBLI-DHARWAD,DHARWAD,KARNATAKA
"KARNATAKA VIKAS GRAMEENA BANK",KVGB0004020,580483022,"GANDHI CHOWK DWD","PRATIMA PLAZA, DAROGA ONI GANDHI CHOWK TQ: DHARWAD, DIST: DHARWAD",2447500,HUBLI-DHARWAD,DHARWAD,KARNATAKA
"KARNATAKA VIKAS GRAMEENA BANK",KVGB0004019,580483511,"WALMI COMPLEX-DHARWAD","WALMI BRANCH  WALMI COMPLEX BELGAUM ROAD, DHARWAD. TQ. &  DIST. : DHARWAD",2113250,HUBLI-DHARWAD,DHARWAD,KARNATAKA
"KARNATAKA VIKAS GRAMEENA BANK",KVGB0004018,580483022,"UPPIN BETAGERI","UPPIN BETAGERI BRANCH  DR. TOTAR BUILDING,  OPP, BUT STAND UPPIN BETAGERI, TQ & DT: DHARWAD",2783515,"UPPIN BETAGERE",DHARWAD,KARNATAKA
"KARNATAKA VIKAS GRAMEENA BANK",KVGB0004017,580483511,TEGUR,"TEGUR BRANCH TIMMAPUR BUILDING, TEGUR - 580 008. TQ. : DHARWAD,  DIST. : DHARWAD",2781119,TEGUR,DHARWAD,KARNATAKA
"KARNATAKA VIKAS GRAMEENA BANK",KVGB0004016,580483510,TADAKOD,"TADAKOD BRANCH PANCHAYAT BUILDING, TADAKOD - 581 105. TQ. : DHARWAD,  DIST. : DHARWAD.",2787858,TADAKOD,DHARWAD,KARNATAKA
"KARNATAKA VIKAS GRAMEENA BANK",KVGB0004015,580483509,SHIVALLI,"SHIVALLI BRANCH PANCHAYAT BUILDING, NEAR BUS STAND, SHIVALLI - 580 112. TQ. : DHARWAD,  DIST. : DHARWAD.",2788240,SHIVALLI,DHARWAD,KARNATAKA
"KARNATAKA VIKAS GRAMEENA BANK",KVGB0004014,580483508,NIGADI,"NIGADI BRANCH PANCHAYAT BUILDING, NIGADI - 580 008. TQ. : DHARWAD,  DIST. : DHARWAD.",2789254,NIGADI,DHARWAD,KARNATAKA
"KARNATAKA VIKAS GRAMEENA BANK",KVGB0004013,580483507,NAVALUR,"NAVALUR BRANCH BALLUR BUILDING,MELINA AGASI, NAVALUR - 580 009. TQ. : DHARWAD,  DIST. : DHARWAD",2217146,NAVALUR,DHARWAD,KARNATAKA
"KARNATAKA VIKAS GRAMEENA BANK",KVGB0004012,580483506,MUMMIGATTI,"K MUMMIGATTI BRANCH  V.P.C.NO. 556,KYATAPPANAVAR BUILDING, MUMMIGATTI - 581 203. TQ. : DHARWAD,  DIST. : DHARWAD",2486601,MUMMIGATTI,DHARWAD,KARNATAKA
"KARNATAKA VIKAS GRAMEENA BANK",KVGB0004011,580483505,MUGAD,"MUGAD BRANCH  DHARWAD BUILDING, MAIN ROAD, NEAR BUS STAND, MUGAD - 580 007. TQ. : DHARWAD,  DIST. : DHARWAD",2786639,MUGAD,DHARWAD,KARNATAKA
"KARNATAKA VIKAS GRAMEENA BANK",KVGB0004010,580483504,"LINE BAZAR DWD","DHARWAD ┬û LINE BAZAR BRANCH S. N. KARANTH BUILDING,OPP. BAGALKOT PETROL BUNK, HUBLI ROAD, DHARWAD - 580 001. TQ. : DHARWAD,  DIST. : DHARWAD.",2749099,HUBLI-DHARWAD,DHARWAD,KARNATAKA
"KARNATAKA VIKAS GRAMEENA BANK",KVGB0004009,580483503,"JAYANAGAR DWD","DHARWAD ┬û JAYANAGAR BRANCH CTS 41, PATIL BUILDING, 1ST FLOOR, JAYANAGAR, 2ND CROSS, DHARWAD - 580 001. TQ. : DHARWAD,  DIST. : DHARWAD",2775188,HUBLI-DHARWAD,DHARWAD,KARNATAKA
"KARNATAKA VIKAS GRAMEENA BANK",KVGB0004008,580483017,"H O BRANCH","DHARWAD ┬û HO BRANCH H.O. BUILDING, P. B. NO. 111, BELGAUM ROAD, DHARWAD - 580 008. TQ. : DHARWAD,  DIST. : DHARWAD",2217145,HUBLI-DHARWAD,DHARWAD,KARNATAKA
"KARNATAKA VIKAS GRAMEENA BANK",KVGB0004007,580483020,GANDHINAGAR,"DHARWAD ┬û GANDHINAGAR BRANCH SHAKAMBARI COMMERCIAL COMPLEX, SHAMBHAVI COLONY, GANDHI NAGAR, DHARWAD - 580 008.TQ. : DHARWAD,  DIST. : DHARWAD PH.NO. 0836 2460750",2460750,HUBLI-DHARWAD,DHARWAD,KARNATAKA
"KARNATAKA VIKAS GRAMEENA BANK",KVGB0004006,580483016,DODDANAIKANKOP,"DHARWAD ┬û D.N.KOP BRANCH PLOT NO. 40, R. R. ARALIKATTI BLDG, KELAGERI ROAD, DHARWAD - 580 008. TQ. : DHARWAD,  DIST. : DHARWAD PH.NO. 0836 2771468",2771468,HUBLI-DHARWAD,DHARWAD,KARNATAKA
"KARNATAKA VIKAS GRAMEENA BANK",KVGB0004005,580483015,DHARWAD,"DHARWAD MAIN BRANCH  ANJUMAN COMPLEX, VIJAYA ROAD, NEAR C.B.T. DHARWAD - 580 001.TQ. : DHARWAD,  DIST. : DHARWAD",2444104,HUBLI-DHARWAD,DHARWAD,KARNATAKA
"KARNATAKA VIKAS GRAMEENA BANK",KVGB0004004,580483019,"DBHPS DWD","DHARWAD ┬û DBHPS BRANCH  CTS 139/1, C. B. GUTTAL COMPLEX, D. C. COMPOUND,DHARWAD - 580 001. TQ. : DHARWAD,  DIST. : DHARWAD",2442815,HUBLI-DHARWAD,DHARWAD,KARNATAKA
"KARNATAKA VIKAS GRAMEENA BANK",KVGB0004003,580483013,ARAWATAGI,"ARAWATAGI BRANCH S. G. BHUMANNAVAR BUILDING,ARAWATAGI - 580 008.TQ. : DHARWAD, DIST. : DHARWAD.",2386170,ARWATGI,DHARWAD,KARNATAKA
"KARNATAKA VIKAS GRAMEENA BANK",KVGB0004002,580483014,"APMC BRANCH","DHARWAD ┬û APMC BRANCHJADHAV BUILDING, FORT ROAD,MRUTYUNJAYA MARKET, APMC DHARWAD - 580 008.TQ. : DHARWAD,  DIST. : DHARWAD.",2442199,HUBLI-DHARWAD,DHARWAD,KARNATAKA
"KARNATAKA VIKAS GRAMEENA BANK",KVGB0004001,580483502,ALANAVAR,"ARAWATAGI BRANCH S. G. BHUMANNAVAR BUILDING,ARAWATAGI - 580 008.TQ. : DHARWAD, DIST. : DHARWAD.",2385390,ALNAWAR,DHARWAD,KARNATAKA
"KARNATAKA VIKAS GRAMEENA BANK",KVGB0004000,NA,"DHARWAD RO","REGIONAL OFFICE HEAD OFFICE BUILDING,BELGAUM ROAD,DHARWAD 580 008",0,"HUBLI DHARWAD","HUBLI DHARWAD",KARNATAKA
"KARNATAKA VIKAS GRAMEENA BANK",KVGB0003423,WAITING,YALGOD,"B S PATTAR BUILDING AT PO YALGOD",9108699764,YALGOD,VIJAYAPUR,KARNATAKA
"KARNATAKA VIKAS GRAMEENA BANK",KVGB0003422,WAITING,SUNGATHAN,"KARNATAKA VIKAS GRAMEENA BANK, I S BIRADAR BUILDING, VPC NO. 85 B, SUNGATHAN, TQ SINDAGI, DT VIJAYAPUR",2442204,SINDGI,BIJAPUR,KARNATAKA
"KARNATAKA VIKAS GRAMEENA BANK",KVGB0003421,WAITING,DEVARAHIPPARAGI,"KARNATAKA VIKAS GRAMEENA BANK, SRI. SIDDESHWAR JANA KALYAN SANSTHE BUILDING, DEVAR HIPPARAGI, TQ SINDAGI, DT BIJAPUR, KARNATAKA",7022599737,SINDGI,BIJAPUR,KARNATAKA
"KARNATAKA VIKAS GRAMEENA BANK",KVGB0003420,586483556,MORATAGI,"TIWARI  ADAT COMPLEX,AT/PO: MORATAGI -586123, TQ. SINDAGI, DIST: BIJAPUR",0,SINDGI,BIJAPUR,KARNATAKA
"KARNATAKA VIKAS GRAMEENA BANK",KVGB0003419,586483550,HONNALLI,"GRAM PANCHAYAT BUILDING HONNALLI TQ.SINDAGI PIN ┬û586 128",0,SINDGI,BIJAPUR,KARNATAKA
"KARNATAKA VIKAS GRAMEENA BANK",KVGB0003418,586483549,KADANI,"SMT J A KATTI BLDG, KADANI TQ. SINDAGI DT. BIJAPUR",0,SINDGI,BIJAPUR,KARNATAKA
"KARNATAKA VIKAS GRAMEENA BANK",KVGB0003417,586483546,"YARAGAL BK","YARAGAL B.K. BRANCH GRAM PANCHAYAT BLDG, D.NO.1,MAIN BAZAR ROAD, YARAGAL B.K- 586123, TQ: SINDAGI. DIST :BIJAPUR",235050,YARGAL(BK),BIJAPUR,KARNATAKA
"KARNATAKA VIKAS GRAMEENA BANK",KVGB0003416,586483549,YANKANCHI,", YANKANCHI BRANCH M.M.DAMBAL BUILDING,DOOR NO. 692, YANKANCHI - 586 144, TQ: SINDAGI. DIST :BIJAPUR",236001,YANKANCHI,BIJAPUR,KARNATAKA
"KARNATAKA VIKAS GRAMEENA BANK",KVGB0003415,586483546,SINDAGI,", SINDAGI BRANCH  SMT.G.M.PATIL BLDG, BIJAPUR ROAD  SINDAGI. TQ : SINDAGI, DIST :BIJAPUR",221425,SINDGI,BIJAPUR,KARNATAKA
"KARNATAKA VIKAS GRAMEENA BANK",KVGB0003414,586483545,MALAGHAN,", MALAGHAN BRANCH S.G. DESAI  BUILDING, MALAGHAN - 586 128, TQ: SINDAGI  DIST :BIJAPUR",235124,MALAGHAN,BIJAPUR,KARNATAKA
"KARNATAKA VIKAS GRAMEENA BANK",KVGB0003413,586483519,KONDAGULI,",KONDAGULI BRANCH PATIL BUILDING,D.NO.96/477, MAIN ROAD,KONDAGULI - 586 120,TQ: SINDAGI. DIST :BIJAPUR",271202,KONDGULI,BIJAPUR,KARNATAKA
"KARNATAKA VIKAS GRAMEENA BANK",KVGB0003412,586483520,KANNOLI,"KANNOLLI BRANCH P.Y.JANGINAMATH'S BLDG,D.NO.535, MAIN ROAD,KANNOLLI - 586 115,TQ: SINDAGI. DIST :BIJAPUR",284322,KANNOLLI,BIJAPUR,KARNATAKA
"KARNATAKA VIKAS GRAMEENA BANK",KVGB0003411,586483544,JALAWAD,",JALAWAD BRANCH U.H.MANNUR'S BUILDING,MAIN ROAD,JALAWAD ┬û 586 120,TQ: SINDAGI. DIST :BIJAPUR",276001,JALWAD,BIJAPUR,KARNATAKA
"KARNATAKA VIKAS GRAMEENA BANK",KVGB0003410,586483543,GUBBEWAD,",GUBBEWAD BRANCH G.S.MANGALAGI BUILDING,MAIN ROAD,GUBBEWAD - 586 128, TQ: SINDAGI  DIST :BIJAPUR",275770,GUBBEWAD,BIJAPUR,KARNATAKA
"KARNATAKA VIKAS GRAMEENA BANK",KVGB0003409,586483542,GOLAGERI,"GOLAGERI BRANCH PATIL'S BUILDING, NEAR BUS STAND, GOLAGERI ┬û 586 169, TQ: SINDAGI. DIST :BIJAPUR",275562,GOLGERI,BIJAPUR,KARNATAKA
"KARNATAKA VIKAS GRAMEENA BANK",KVGB0003408,586483541,GABASAVALAGI,"GABASAVALAGI GRAM PANCHAYAT BLDG, D.NO.44, MAIN ROAD, GABASAVALAGI-586123, TQ: SINDAGI  DIST :BIJAPUR",220183,GABASAVALGI,BIJAPUR,KARNATAKA
"KARNATAKA VIKAS GRAMEENA BANK",KVGB0003407,586483540,"DEVARA NAVADAGI","DEVARANAVADAGI BRANCH KULKARNI'S BUILDING,D.NO.111, MAIN ROAD,DEVARA NAVADAGI - 586 206,TQ: SINDAGI. DIST :BIJAPUR",234563,DEVARNAVADGI,BIJAPUR,KARNATAKA
"KARNATAKA VIKAS GRAMEENA BANK",KVGB0003406,586483539,DEVANAGAON,"DEVANAGAON BRANCH GRAM PANCHAYAT BLDG,816/3, MAIN ROAD,DEVANAGAON-586 206, TQ: SINDAGI. DIST :BIJAPUR",234409,DEVANGAO,BIJAPUR,KARNATAKA
"KARNATAKA VIKAS GRAMEENA BANK",KVGB0003405,586483538,CHIKRUGI,"CHIKKA RUGI BRANCH A.B.CHANDAKI BUILDING HOUSE NO.49, MAIN ROAD, CHIKKA RUGI ┬û 586 215, TQ: SINDAGI. DIST :BIJAPUR",285060,RUGI,BIJAPUR,KARNATAKA
"KARNATAKA VIKAS GRAMEENA BANK",KVGB0003404,586483537,CHANDAKAVATE,"CHANDKAWATE BRANCH D.G.PATIL'S BUILDING,D.NO.91, MAIN ROAD, CHANDAKAVATE - 586 143, TQ: SINDAGI.DIST :BIJAPUR",224403,CHANDKAVATHE,BIJAPUR,KARNATAKA
"KARNATAKA VIKAS GRAMEENA BANK",KVGB0003403,586483536,BALAGANUR,", BALAGANUR BRANCH CHOUDESHWAR TEMPLE BUILDING, MAIN ROAD, BALAGANUR┬û 586128,TQ: SINDAGI. DIST :BIJAPUR",237001,BALAGANUR,BIJAPUR,KARNATAKA
"KARNATAKA VIKAS GRAMEENA BANK",KVGB0003402,586483535,ASKI,", 1ASKI BRANCH PATIL BUILDING, D.NO.256, MAIN ROAD, ASKI ┬û586118 TQ: SINDAGI. DIST :BIJAPUR",273636,ASKI,BIJAPUR,KARNATAKA
"KARNATAKA VIKAS GRAMEENA BANK",KVGB0003401,586483534,ALMEL,", ALMEL BRANCH M.B.TAMBOLI BUILDING,D.NO.1158/3, WARD NO.3, MAIN ROAD,ALMEL - 586 202, TQ: SINDAGI. DIST :BIJAPUR",232118,ALMEL,BIJAPUR,KARNATAKA
"KARNATAKA VIKAS GRAMEENA BANK",KVGB0003306,WAITING,RAKKASAGI,"KARNATAKA VIKAS GRAMEENA BANK, GRAM PANCHAYAT BUILDING, RAKKASAGI, TQ MUDDEBIHAL, DT VIJAYAPUR",2442204,MUDDEBIHAL,BIJAPUR,KARNATAKA
"KARNATAKA VIKAS GRAMEENA BANK",KVGB0003305,NA,HULLUR,"R B KONDIKATTI BUILDING, DOOR NO. 441, HULLUR",9480699688,MUDDEBIHAL,BIJAPUR,KARNATAKA
"KARNATAKA VIKAS GRAMEENA BANK",KVGB0003304,586483533,TALIKOTI,"TALIKOT BRANCH BILEBHAVI BUILDING APMC YARD,  TALIKOT TQ: MUDDEBIHAL  DIST:BIJAPUR",266579,TALIKOTI,BIJAPUR,KARNATAKA
"KARNATAKA VIKAS GRAMEENA BANK",KVGB0003303,586483532,MUDDEBIHAL,"MUDDEBIHAL BRANCH VVV SANGH┬ÆS GIRLS HIGH SCHOOL BLDG. MAIN ROAD, NEAR : BUS STAND,MUDDEBIHAL.",221963,MUDDEBIHAL,BIJAPUR,KARNATAKA
"KARNATAKA VIKAS GRAMEENA BANK",KVGB0003302,586483531,MINAJAGI,"MINAJAGI BRANCH BENNUR'S BUILDING, D.NO.344, TAILKOTI-MUDDEBIHAL ROAD, MINAJAGI - 586 214, TQ : MUDDEBIHAL. DIST :BIJAPUR.",266434,MINAJAGI,BIJAPUR,KARNATAKA
"KARNATAKA VIKAS GRAMEENA BANK",KVGB0003301,586483530,ALUR,"ALUR BRANCH GRAM PANCHAYAT BUILDING, ALUR - 586 129 TQ : MUDDEBIHAL. DIST :BIJAPUR.",234072,ALUR,BIJAPUR,KARNATAKA
"KARNATAKA VIKAS GRAMEENA BANK",KVGB0003211,WAITING,SHIRSHYAD,"KARNATAKA VIKAS GRAMEENA BANK BRANCH SHIRSHYAD TALUK INDI DIST BIJAPUR 586217",0,INDI,BIJAPUR,KARNATAKA
"KARNATAKA VIKAS GRAMEENA BANK",KVGB0003210,586483529,TAMBA,"PADMAVATI BLDG,MAIN ROAD, TAMBA TQ. INDI DT: BIJAPUR  PIN ┬û 586 215",0,TAMBA,BIJAPUR,KARNATAKA
"KARNATAKA VIKAS GRAMEENA BANK",KVGB0003209,586483551,UMARANI,"GRAM PANCHAYAT BUILDING UMRANI TQ. INDI PIN - 586 205",0,INDI,BIJAPUR,KARNATAKA
"KARNATAKA VIKAS GRAMEENA BANK",KVGB0003208,586483553,KHEDAGI,"H G MIRAGI BLDG A/P KHEDAGI TQ.INDI DT BIJAPUR PIN - 586 218",0,INDI,BIJAPUR,KARNATAKA
"KARNATAKA VIKAS GRAMEENA BANK",KVGB0003207,586483527,CHADACHAN,"SRI K B PATIL, COMPLEX, PANDHARPUR ROAD, CHADCHAN-586205",278600,CHADCHAN,BIJAPUR,KARNATAKA
"KARNATAKA VIKAS GRAMEENA BANK",KVGB0003206,586483526,"NAD BK","NAD B.K. BRANCH MAIN ROAD,NAD B.K. - 586 217 TQ : INDI DIST :BIJAPUR",240219,NAD(B.K.),BIJAPUR,KARNATAKA
"KARNATAKA VIKAS GRAMEENA BANK",KVGB0003205,586483527,"LONI BK","DONI B.K. BRANCH KORE'S  BUILDING,LONI B.K. - 586 204,TQ : INDIDIST :BIJAPUR",276606,LONI(B.K.),BIJAPUR,KARNATAKA
"KARNATAKA VIKAS GRAMEENA BANK",KVGB0003204,586483526,JIGAJIVANI,"JIGAJIVANI BRANCH Z.P.BUILDING, MAIN ROAD,JIGAJIVANI ┬û 586 204,TQ : INDIDIST :BIJAPUR",275016,JIGAJEEVANI,BIJAPUR,KARNATAKA
"KARNATAKA VIKAS GRAMEENA BANK",KVGB0003203,586483525,INDI,"INDI BRANCH R.D.SHAH BUILDING,MAIN ROAD, NEAR BUS STAND, INDI - 586 209  TQ : INDI DIST :BIJAPUR",225836,INDI,BIJAPUR,KARNATAKA
"KARNATAKA VIKAS GRAMEENA BANK",KVGB0003202,586483524,DHULAKHED,"DULKHED BRANCH Z.P.BUILDING, BIJAPUR-SOLAPUR ROAD,DHULKHED - 586 207,TQ : INDIDIST :BIJAPUR",280518,DHULAKHED,BIJAPUR,KARNATAKA
"KARNATAKA VIKAS GRAMEENA BANK",KVGB0003201,586483523,BHATAGUNAKI,"BHATAGUNAKI BRANCH  MAIN ROAD, BHATAGUNAKI -586 227 TQ : INDI  DIST :BIJAPUR",288701,BHATAGUNAKI,BIJAPUR,KARNATAKA
"KARNATAKA VIKAS GRAMEENA BANK",KVGB0003122,WAITING,"DARGA ROAD","KARNATAKA VIKAS GRAMEENA BANK BRANCH DARGA ROAD NAIK BUILDING MANASA RESIDENTIAL DARGA ROAD VIJAYAPUR-586101",9108699793,BIJAPUR,BIJAPUR,KARNATAKA
"KARNATAKA VIKAS GRAMEENA BANK",KVGB0003121,WAITING,"VAJRA HANUMAN NAGAR, BIJAPUR","KARNATAKA VIKAS GRAMEENA BANK, SRI M S KAMALAPUR BUILDING, NEAR SAINT JOSEPH SCHOOL, MAIN ROAD, VAJRA HANUMAN NAGAR, BIJAPUR 586103, KARNATAKA",7022599716,BIJAPUR,BIJAPUR,KARNATAKA
"KARNATAKA VIKAS GRAMEENA BANK",KVGB0003120,NA,GUNADAL,"B K SALINKE BUILDING, DOOR NO. 210, GUNADAL",9480699672,BIJAPUR,BIJAPUR,KARNATAKA
"KARNATAKA VIKAS GRAMEENA BANK",KVGB0003119,586483007,"SHOLAPUR ROAD BIJAPUR","SOLAPUR ROAD  ,BANJARA CROSS , NEAR PETROL BANK , BIJAPUR ,TQ& DT : BIJAPUR",0,BIJAPUR,BIJAPUR,KARNATAKA
"KARNATAKA VIKAS GRAMEENA BANK",KVGB0003118,586483558,TORAVI,"SMT S H ALAGUR BUILDING ,ATHANI ROAD, TORAVI-586106 ,TQ: BIJAPUR, DT BIJAPUR",0,BIJAPUR,BIJAPUR,KARNATAKA
"KARNATAKA VIKAS GRAMEENA BANK",KVGB0003117,586483548,TAJPUR,"S I NIDONI BLDG TAJPUR(H) TQ. BIJAPUR",0,BIJAPUR,BIJAPUR,KARNATAKA
"KARNATAKA VIKAS GRAMEENA BANK",KVGB0003116,586483521,"STATION RD BIJAPUR","KOTAGI BLDG, NEAR LIC OFFICE< MUKUND NAHGAR STATION ROAD BIJAPUR",0,BIJAPUR,BIJAPUR,KARNATAKA
"KARNATAKA VIKAS GRAMEENA BANK",KVGB0003115,586483547,DEVARAGENNUR,"MAHALAXMI DEVASTHAN BLDG, DEVARAGENNUR TQ & DT. BIJAPUR",0,BIJAPUR,BIJAPUR,KARNATAKA
"KARNATAKA VIKAS GRAMEENA BANK",KVGB0003114,586483006,"SAINIK SCHOOL RD BJP","SAINIK SCHOOL BRANCH MUNDARGI BUILDING, SHASTRI NAGAR,SAINIK SCHOOL ROAD. TQ: BIJAPUR DIST:BIJAPUR",270206,BIJAPUR,BIJAPUR,KARNATAKA
"KARNATAKA VIKAS GRAMEENA BANK",KVGB0003113,586483547,"ASHRAM ROAD-BIJAPUR","ASHRAM ROAD BRANCH JADIMATH COMPLEX, NEAR BLDE MEDICAL COLLEGE, ASHRAM ROAD. TQ: BIJAPUR DIST:BIJAPUR",260600,BIJAPUR,BIJAPUR,KARNATAKA
"KARNATAKA VIKAS GRAMEENA BANK",KVGB0003112,586483005,BABALESHWAR,"BABALESHWAR BRANCH G N KOKARE BUILDING,  BABALESHWAR - 586 113, TQ :BIJAPUR. DIST :BIJAPUR.",283071,BABALESHWAR,BIJAPUR,KARNATAKA
"KARNATAKA VIKAS GRAMEENA BANK",KVGB0003111,586483004,VIVEKNAGAR,"BIJAPUR-VIVEKNAGAR BRANCH  VIVEKNAGAR (WEST), BASAVANA BAGEWADI ROAD, BIJAPUR ┬û 586 101",278598,BIJAPUR,BIJAPUR,KARNATAKA
"KARNATAKA VIKAS GRAMEENA BANK",KVGB0003110,586483518,TIKOTA,"TIKOTA BRANCH CHATRE BUILDING, D.G.CHATRE BUILDING TIKOTA - 586 130,TQ BIJAPUR DIST:BIJAPUR.",231560,TIKOTA,BIJAPUR,KARNATAKA
"KARNATAKA VIKAS GRAMEENA BANK",KVGB0003109,586483003,SARAWAD,"SARAWAD BRANCH  NEAR GRAM PANCHAYAT OFFICE  SARAWAD - 586 125, TQ: BIJAPUR DIST:BIJAPUR",287727,SARAWAD,BIJAPUR,KARNATAKA
"KARNATAKA VIKAS GRAMEENA BANK",KVGB0003108,586483516,NAGATHAN,"NAGATHAN BRANCH  METRI'S BUILDING, NAGATHAN - 586 161,TQ: BIJAPUR DIST:BIJAPUR.",232250,NAGATHAN,BIJAPUR,KARNATAKA
"KARNATAKA VIKAS GRAMEENA BANK",KVGB0003107,586483515,KANAMADI,"KANAMADI BRANCH KALYANI┬ÆS BUILDING,H.NO.768, MAIN ROAD, KANAMADI - 586 138,TQ: BIJAPUR DIST :BIJAPUR.",238042,KANAMADI,BIJAPUR,KARNATAKA
"KARNATAKA VIKAS GRAMEENA BANK",KVGB0003106,586483514,JAMBAGI,"JAMBAGI BRANCH G.S.HUGAR BUILDING,VPC NO. 59/1,59/2,  WARD NO. 2, JAMBAGI  - 586 112,TQ: BIJAPUR DIST:BIJAPUR.",239534,JAMBAGI(A),BIJAPUR,KARNATAKA
"KARNATAKA VIKAS GRAMEENA BANK",KVGB0003105,586483513,JAINAPUR,"JAINAPUR BRANCH JAINAPUR - 586 102, TQ: BIJAPUR DIST:BIJAPUR.",285357,JAINAPUR,BIJAPUR,KARNATAKA
"KARNATAKA VIKAS GRAMEENA BANK",KVGB0003104,586483512,HONNUTAGI,"HONAWAD BRANCH  U.P.GOKHALE  BUILDING, HONAWAD - 586 130, TQ: BIJAPUR DIST:BIJAPUR.",236033,HONNUTAGI,BIJAPUR,KARNATAKA
"KARNATAKA VIKAS GRAMEENA BANK",KVGB0003103,586483517,HONAWAD,"HONNUTAGI BRANCH  MAIN ROAD, HONNUTAGI - 586 127, TQ: DIST:BIJAPUR.",233963,HONWAD,BIJAPUR,KARNATAKA
"KARNATAKA VIKAS GRAMEENA BANK",KVGB0003102,586483510,BIJAPUR,"BIJAPUR MAIN BRANCH  APTE BUILDING, MEENAKSHI CHOWK, BIJAPUR - 586 101, TQ: BIJAPUR DIST:BIJAPUR.",252327,BIJAPUR,BIJAPUR,KARNATAKA
"KARNATAKA VIKAS GRAMEENA BANK",KVGB0003101,586483511,ARJUNAGI,"ARJUNAGI BRANCH DESAI BUILDING,  D.NO.260/A, MAIN ROAD,  ARJUNAGI - 586 113, TQ: BIJAPUR DIST:BIJAPUR.",288734,ARJUNAGI,BIJAPUR,KARNATAKA
"KARNATAKA VIKAS GRAMEENA BANK",KVGB0003011,586483557,"HRS-RC CENTER","SRI M S KURI BUILDING, MAIN ROAD ,HRS- RC CENTRE- 586210, TQ: BASAVANABAGEWADI, DT:BIJAPUR",0,"BASAVANA BAGEVADI",BIJAPUR,KARNATAKA
"KARNATAKA VIKAS GRAMEENA BANK",KVGB0003010,586483002,MANAGULI,"PANCHAYAT BUILDING MANGULI TQ. BASAVAN BAGEWADI  DT: BIJAPUR PIN ┬û 586 112",0,MANAGULI,BIJAPUR,KARNATAKA
"KARNATAKA VIKAS GRAMEENA BANK",KVGB0003009,586483552,KUDIGI,"HANUMAN DEVASTHAN MANGAL BHAVAN A/P: KUDAGI TQ. BASAVAN BAGEWADI DT: BIJAPUR PIN ┬û 586 121",0,"BASAVANA BAGEVADI",BIJAPUR,KARNATAKA
"KARNATAKA VIKAS GRAMEENA BANK",KVGB0003008,582483527,NIDAGUNDI-BJP,"NIDAGUNDI BRANCH  KEMBHAVI BUILDING,  NEAR MUDDEBIHAL CIRCLE , NIDAGUNDI - 586 213, TQ : BASAVAN BAGEWADI. DIST :BIJAPUR",281826,NIDAGUNDI,BIJAPUR,KARNATAKA
"KARNATAKA VIKAS GRAMEENA BANK",KVGB0003007,586483507,UKKALI,"UKKALI BRANCH B.N.JUMANAL BUILDING, UKKALI - 586 152, 1TQ : BASAVANA BAGEWADI DIST :BIJAPUR.",249527,UKKALI,BIJAPUR,KARNATAKA
"KARNATAKA VIKAS GRAMEENA BANK",KVGB0003006,586483508,MUTTAGI,",  MUTTAGI BRANCH  B.C.CHIMMALAGI┬ÆS  BLDG, D.NO.245/1, BUS STAND ROAD, MUTTAGI - 586 232, TQ : BASAVANA BAGEWADI. DIST :BIJAPUR. PH.NO.08426-284121",284121,MUTTAGI,BIJAPUR,KARNATAKA
"KARNATAKA VIKAS GRAMEENA BANK",KVGB0003005,586483507,MULAWAD,"MULWAD BRANCH GRAM PANCHAYAT, MULWAD - 586 149, TQ : BASAVANA BAGEWADI. DIST :BIJAPUR.",289036,MULAWAD,BIJAPUR,KARNATAKA
"KARNATAKA VIKAS GRAMEENA BANK",KVGB0003004,586483506,MASUTI,"ASUTI BRANCH S.S.PATIL BUILDING, DOOR NO.4,NEAR BUS STAND MASUTI - 586 150, TQ : BASAVANA BAGEWADI DIST :BIJAPUR.",288051,MASUTI,BIJAPUR,KARNATAKA
"KARNATAKA VIKAS GRAMEENA BANK",KVGB0003003,586483505,KOLHAR,"KOLHAR BRANCH  MAIN ROAD, KOLHAR - 586 210, TQ : BASAVANA BAGEWADI. DIST :BIJAPUR.",283028,KOLHAR,BIJAPUR,KARNATAKA
"KARNATAKA VIKAS GRAMEENA BANK",KVGB0003002,586483504,ITAGI,"ITAGI BRANCH S.S.SAJJAN BUILDING, DOOR NO.502, MAIN ROAD,ITAGI - 586 213,TQ : BASAVANA BAGEWADI. DIST :BIJAPUR.",275041,ITAGI,BIJAPUR,KARNATAKA
"KARNATAKA VIKAS GRAMEENA BANK",KVGB0003001,586483503,"BASAVAN BAGEWADI","BASAVANA BAGEWADI BRANCH SAJJAN BUILDING,  CTS 3117, INGALESHWAR CROSS ROAD,BASAVANA BAGEWADI - 586 203, TQ: BASAVANA BAGEWADIDIST :BIJAPUR.",245306,"BASAVANA BAGEVADI",BIJAPUR,KARNATAKA
"KARNATAKA VIKAS GRAMEENA BANK",KVGB0003000,NA,"BIJAPUR R O","REGIONAL MANAGER,KARNATAKA VIKAS GRAMEENA BANK,RO,VIVEK NAGAR WEST,BAGEWADI ROAD,BIJAPUR.586101",0,BIJAPUR,BIJAPUR,KARNATAKA
"KARNATAKA VIKAS GRAMEENA BANK",KVGB0002916,WAITING,SATTIGERI,"KARNATAKA VIKAS GRAMEEN BANK, ANGADI BUILDING, NEAR BUS STAND, TQ SAUNDATTI, DT BELGAUM, KARNATAKA",7022599731,SAUNDATTI,BELGAUM,KARNATAKA
"KARNATAKA VIKAS GRAMEENA BANK",KVGB0002915,WAITING,HOOLI,"KARNATAKA VIKAS GRAMEEN BANK, HOOLI UNNE UTPADAKAR KAIGARIKA SAHAKARI SANGH LTD, HOOLI, TQ SOUNDATTI, DT BELGAUM, KARNATAKA",7022599730,SAUNDATTI,BELGAUM,KARNATAKA
"KARNATAKA VIKAS GRAMEENA BANK",KVGB0002914,NA,MURAGOD,"HOUSE NO. 419, OPPOSITE BUS STAND, MURAGOD",9480699687,MURGOD,BELGAUM,KARNATAKA
"KARNATAKA VIKAS GRAMEENA BANK",KVGB0002913,591483604,ASUNDI,"PANCHAYAT BUILDING ASUNDI  TQ.SOUNDATTI DT: BELGAUM PIN ┬û 591 126",0,SAUNDATTI,BELGAUM,KARNATAKA
"KARNATAKA VIKAS GRAMEENA BANK",KVGB0002912,586483501,YARAGATTI,"REBBANAVAR COMPLEX< GOKAK ROAD YARAGATTI TQ.SOUNDATTI PIN- 591 129",254968,YARAGATTI,BELGAUM,KARNATAKA
"KARNATAKA VIKAS GRAMEENA BANK",KVGB0002911,591483592,YAKKUNDI,"JAKKANVAR BUILDING YAKKUNDI TQ: SOUNDATTI, DIST; BELGAUM",242526,YAKKUNDI,BELGAUM,KARNATAKA
"KARNATAKA VIKAS GRAMEENA BANK",KVGB0002910,590483527,UGARGOL,"UGARGOL BRANCH┬á┬á┬á┬áSRI BASAVESHWAR DEVASTHAN BUILDING, UGARGOL - 591 196. TQ. : SAVADATTI,┬á DIST. : BELGAUM┬á┬á┬á┬á┬á┬á┬á┬á",294368,UGARGOL,BELGAUM,KARNATAKA
"KARNATAKA VIKAS GRAMEENA BANK",KVGB0002909,591483592,TALLUR,"TALLUR BRANCH ┬á UPPIN BUILDING,OPP. BUS STAND, TALLUR - 591 170. TQ. : SAVADATTI,┬á DIST. : BELGAUM.┬á┬á┬á",248733,TALLUR,BELGAUM,KARNATAKA
"KARNATAKA VIKAS GRAMEENA BANK",KVGB0002908,591483591,SOUNDATTI,"SOUNDATTI BRANCH  INGALAGI BUILDING, MAIN ROAD, SOUNDATTI - 591 126. TQ. : SOUNDATTI,┬á DIST. : BELGAUM.┬á┬á┬á",223892,SAUNDATTI,BELGAUM,KARNATAKA
"KARNATAKA VIKAS GRAMEENA BANK",KVGB0002907,591483590,SIRASANGI,"SIRASANGI BRANCHKALAL BUILDING, SIRASANGI - 591 126. TQ. : SAVADATTI,┬á DIST. : BELGAUM.┬á",231137,SIRASANGI,BELGAUM,KARNATAKA
"KARNATAKA VIKAS GRAMEENA BANK",KVGB0002906,591483588,MUNAVALLI,"KARNATAKA VIKAS GRAMEENA BANK  MUNAVALLI BRANCH  HOTEL SHIVA BUILDING, YARAGATTI ROAD, MUNAVALLI - 591 117. TQ. : SOUNDATTI,  DIST. : BELGAUM",277330,MUNAVALLI,BELGAUM,KARNATAKA
"KARNATAKA VIKAS GRAMEENA BANK",KVGB0002905,591483589,INCHAL,"INCHAL BRANCH  SHIVANAND BHARATHI  SWAMIJI MATH BUILDING, INCHAL - 591 126.  TQ. : SAUNDATTI,┬á DIST. : BELGAUM.",244926,INCHAL,BELGAUM,KARNATAKA
"KARNATAKA VIKAS GRAMEENA BANK",KVGB0002904,591483588,INAMHONGAL,"┬á  INAM-HONGAL BRANCH┬á  MAIN ROAD, INAMHONGAL - 591 162. TQ. : SAVADATTI,┬á DIST. : BELGAUM.",286133,INAMHONGAL,BELGAUM,KARNATAKA
"KARNATAKA VIKAS GRAMEENA BANK",KVGB0002903,591483587,HULIKATTI,"HULIKATTI BRANCH┬á┬á ADRUSHANNAVAR BUILDING, NEAR BUS STAND, HULIKATTI - 591 126  TQ. : SAUNDATTI,┬á DIST. : BELGAUM┬á┬á┬á┬á┬á┬á┬á",266703,HULIKATTI,BELGAUM,KARNATAKA
"KARNATAKA VIKAS GRAMEENA BANK",KVGB0002902,591483586,HOSUR,"HOSUR BRANCH┬á┬á┬áPATIL BUILDING, MAIN ROAD, HOSUR - 591 111. TQ. : SAUNDATTI,┬á DIST. : BELGAUM.",258409,HOSUR,BELGAUM,KARNATAKA
"KARNATAKA VIKAS GRAMEENA BANK",KVGB0002901,591483585,HANCHINAL,"HANCHINAL BRANCH V. P. C. NO. 924  HULAGANNAVAR BUILDING, MAIN ROAD, HANCHINAL - 591 157. TQ. : SAUNDATTI,┬á DIST. : BELGAUM┬á",284349,HANCHINAL,BELGAUM,KARNATAKA
"KARNATAKA VIKAS GRAMEENA BANK",KVGB0002809,WAITING,"K JUNIPETH","KARNATAKA VIKAS GRAMEENA BANK SHIRAJ G MAHAT AT POST K JUNIPETH TQ RAMADURG DIST BELGAUM PIN-591123",9108699802,RAMADURG,BELGAUM,KARNATAKA
"KARNATAKA VIKAS GRAMEENA BANK",KVGB0002808,WAITING,MUDAKAVI,"KVGB MUDAKAVI, TQ RAMDURG BELGAUM",9108699761,RAMDURG,BELGAUM,KARNATAKA
"KARNATAKA VIKAS GRAMEENA BANK",KVGB0002807,591483596,CHUNCHANUR,"GRAM PANCHAYAT BUILDING CHUNCHANUR TQ. RAMDURG PIN ┬û 591 703",0,RAMDURG,BELGAUM,KARNATAKA
"KARNATAKA VIKAS GRAMEENA BANK",KVGB0002806,591483583,SALAHALLI,"SALAHALLI BRANCH  BATAKURKI BUILDING, SALAHALLI - 591 130. TQ. : RAMADURG,┬á DIST. : BELGAUM.",273051,SALAHALLI,BELGAUM,KARNATAKA
"KARNATAKA VIKAS GRAMEENA BANK",KVGB0002805,591483581,RAMADURGA,"RAMDURG BRANCH  HALYAL BUILDING, JUNIPETH,  RAMADURG - 591 123.  TQ. : RAMADURG,┬á DIST. : BELGAUM.",242375,RAMDURG,BELGAUM,KARNATAKA
"KARNATAKA VIKAS GRAMEENA BANK",KVGB0002804,591483582,KATKOL,"KATKOL BRANCH  SHETTISADAURTI BUILDING, BAZAR ROAD, KATKOL - 591 114.  TQ. : RAMDURG,┬á DIST. : BELGAUM.",262161,KATKOL,BELGAUM,KARNATAKA
"KARNATAKA VIKAS GRAMEENA BANK",KVGB0002803,591483581,HULKUND,"HULKUND BRANCH  MAIN ROAD, HULKUND - 591 160.  TQ. : RAMDURG, ┬áDIST. : BELGAUM┬á┬á",288243,HULKUND,BELGAUM,KARNATAKA
"KARNATAKA VIKAS GRAMEENA BANK",KVGB0002802,591483580,HOSAKOTI,"HOSAKOTI BRANCH  L. S. KOLACHE BUILDING, NEAR BUS STAND,  HOSAKOTI - 591 187.  TQ. : RAMDURG,┬á DIST. : BELGAUM.",256238,HOSAKOTI,BELGAUM,KARNATAKA
"KARNATAKA VIKAS GRAMEENA BANK",KVGB0002801,591483579,BATAKURKI,"BATAKURKI BRANCH  MUDHOLI BUILDING,┬á LOKAPURROAD┬á  BATAKURKI-591151.  TQ: RAMDURG, DIST :BELGAUM",263624,BATAKURKI,BELGAUM,KARNATAKA
"KARNATAKA VIKAS GRAMEENA BANK",KVGB0002715,NA,PALABHAVI,"NEAR BASAVESHWAR TEMPLE, TEMPLE ROAD, PALABHAVI, TQ RAIBHAG, DIST. BELAGAVI - 591235",0,RAIBHAG,BELAGAVI,KARNATAKA
"KARNATAKA VIKAS GRAMEENA BANK",KVGB0002714,WAITING,ITNAL,"GRAMA PANCHAYATH BUILDING ITNAL BRANCH RAIBAG TALUK BELGAUM DIST",9408699735,RAIBAG,BELGAUM,KARNATAKA
"KARNATAKA VIKAS GRAMEENA BANK",KVGB0002713,591483602,NANDIKURLI,"PANCHAYATI BLDG NANDIKURLI TQ. RAIBAG DT: BELGAUM  PIN ┬û 591 317",0,RAIBAG,CHIKKODI,KARNATAKA
"KARNATAKA VIKAS GRAMEENA BANK",KVGB0002712,591483554,RAIBAG,"RAIBAG BRANCH  C. B. BADORE BUILDING, V. P. C. NO. 1560, ANKALI ROAD, RAIBAG - 591 317. TQ. : RAIBAG,┬á DIST. : BELGAUM.┬á┬á┬á┬á┬á┬á┬á┬á",225610,RAIBAG,CHIKKODI,KARNATAKA
"KARNATAKA VIKAS GRAMEENA BANK",KVGB0002711,591483574,PARAMANANDWADI,"PARAMANDAWADI BRANCH  KOULGUDDA BUILDING, PARAMANANDAWADI - 591 329. TQ. : RAIBAG,┬á DIST. : BELGAUM",233201,PARAMANANDAWADI,CHIKKODI,KARNATAKA
"KARNATAKA VIKAS GRAMEENA BANK",KVGB0002710,591483575,NIPPANAL,"NIPPANAL BRANCH GRAM PANCHAYAT BUILDING, NIPPANAL - 591 222.TQ. : RAIBAG,┬á DIST. : BELGAUM.┬á┬á┬á",281310,NIPANI,CHIKKODI,KARNATAKA
"KARNATAKA VIKAS GRAMEENA BANK",KVGB0002709,591483574,MUGALKHOD,"MUGALKHOD BRANCH ┬á PANCHAYAT BUILDING (JRY),  MUGALKHOD - 591 235.  TQ. : RAIBAG,┬á DIST. : BELGAUM.┬á┬á┬á",252227,MUGALKHOD,CHIKKODI,KARNATAKA
"KARNATAKA VIKAS GRAMEENA BANK",KVGB0002708,591483302,MORAB,"MORAB BRANCH  SHINDAGI BUILDING,BAZAR ROAD,  MORAB - 591 317.  TQ. : RAIBAG,┬á DIST. : BELGAUM",226703,MORAB,CHIKKODI,KARNATAKA
"KARNATAKA VIKAS GRAMEENA BANK",KVGB0002707,591483572,MEKHALI,"┬á MEKHALI BRANCHKARIGAR BUILDING,  MEKHALI - 591 317.  TQ. : RAIBAG,┬á DIST. : BELGAUM",225763,MEKHALI,CHIKKODI,KARNATAKA
"KARNATAKA VIKAS GRAMEENA BANK",KVGB0002706,591483571,KANKANAWADI,"KANKANAWADI BRANCH┬ôGANESH KRUPA┬öKANKANWADI - 591 222.  TQ. : RAIBAG,┬á DIST. : BELGAUM.",281007,KANKANWADI,CHIKKODI,KARNATAKA
"KARNATAKA VIKAS GRAMEENA BANK",KVGB0002705,591483570,HIDAKAL,"HIDKAL BRANCHDR. KOKATNUR BUILDING,  HIDKAL - 591 255.  TQ. : RAIBAG,┬á DIST. : BELGAUM.",223043,HIDAKAL,CHIKKODI,KARNATAKA
"KARNATAKA VIKAS GRAMEENA BANK",KVGB0002704,591483569,HARUGERI,"HARUGERI BRANCHCHOUGULA BUILDING,  CHANDRAMA TALKIES ROAD,  HARUGERI - 591 220.  TQ. : RAIBAG,┬á DIST. : BELGAUM",257341,HARUGERI,CHIKKODI,KARNATAKA
"KARNATAKA VIKAS GRAMEENA BANK",KVGB0002703,591483568,HANDIGUND,"HANDIGUND BRANCHUNAGALL BUILDING,HANDIGUND - 591 235.  TQ. : RAIBAG,┬á DIST. : BELGAUM.",229092,HANDIGUND,CHIKKODI,KARNATAKA
"KARNATAKA VIKAS GRAMEENA BANK",KVGB0002702,591483567,CHINCHALI,"CHINCHALI BRANCHHARUGERI BUILDING ,┬á MAINROAD,┬á┬á┬á┬á CHINCHALI -591217. TQ: RAIBAG, DIST :BELGAUM.",237256,CHINCHALI,CHIKKODI,KARNATAKA
"KARNATAKA VIKAS GRAMEENA BANK",KVGB0002701,591483566,BHENDAWAD,"BHENDWAD BRANCHPANCHAYAT BUILDING ,┬á┬á┬á┬áBHENDWAD-591318.  TQ:RAIBAG, DIST :BELGAUM",259218,BHENDWAD,CHIKKODI,KARNATAKA
"KARNATAKA VIKAS GRAMEENA BANK",KVGB0002611,591483565,PARISHWAD,"501, LAVAGI BLDG, NEAR POST OFFICE PARISHWADTQ. KHANAPUR DT: BELGAUM PIN ┬û 591 131",0,PARISHWAD,BELGAUM,KARNATAKA
"KARNATAKA VIKAS GRAMEENA BANK",KVGB0002610,591483564,NANDAGAD,"KARNATAKAVIKASGRAMEENA BANK 633,K.C.DINNIMATH BLDG MATH GALLI, NANDGAD TQ. KHANAPURDT. BELGAUM  PIN ┬û 591 120",0,NANDGAD,BELGAUM,KARNATAKA
"KARNATAKA VIKAS GRAMEENA BANK",KVGB0002609,590483526,LONDA,"LONDA BRANCH  1ST FLOOR, KALPANA HOTEL BUILDING, NEAR RAILWAY STATION, LONDA - 591 301. TQ. : KHANAPUR,┬á DIST. : BELGAUM.",234635,LONDA,BELGAUM,KARNATAKA
"KARNATAKA VIKAS GRAMEENA BANK",KVGB0002608,590483525,LINGANAMATH,"LINGANAMATH BRANCH  MIRASHI BUILDING, LINGANAMATH - 591 106. TQ. : KHANAPUR,┬á DIST. : BELGAUM.",288890,LINGANMATH,BELGAUM,KARNATAKA
"KARNATAKA VIKAS GRAMEENA BANK",KVGB0002607,590483526,KHANAPUR,"KHANAPUR BRANCH  DAMALE BUILDING, STATION ROAD, KHANAPUR - 591 302. TQ. : KHANAPUR,┬á DIST. : BELGAUM",222924,KHANAPUR,BELGAUM,KARNATAKA
"KARNATAKA VIKAS GRAMEENA BANK",KVGB0002606,590483525,JAMBOTI,"JAMBOTI BRANCH  H.NO. 59, KUDATARKAR BUILDING,┬á┬áRAMPUR PETH,JAMBOTI-591302. TQ:KHANAPUR, DIST :BELGAUM.",266212,JAMBOTI,BELGAUM,KARNATAKA
"KARNATAKA VIKAS GRAMEENA BANK",KVGB0002605,590483524,HALASHI,"ALASHI BRANCH  PANCHAYAT BUILDING, HALASHI - 591 142. TQ. : KHANAPUR,┬á DIST. : BELGAUM.",236464,HALASI,BELGAUM,KARNATAKA
"KARNATAKA VIKAS GRAMEENA BANK",KVGB0002604,590483523,GUNJI,"UNJI BRANCH  SRI K. S. KULKARNI BUILDING, LONDA ROAD, GUNJI - 591 302. TQ. : KHANAPUR,┬á DIST. : BELGAUM.",252941,GUNJI,BELGAUM,KARNATAKA
"KARNATAKA VIKAS GRAMEENA BANK",KVGB0002603,590483522,GARLAGUNJI,"ARLAGUNJI BRANCH  SIDDANI BUILDING, GARLGUNJI - 591 331. TQ. : KHANAPUR,┬á DIST. : BELGAUM.",260151,GARLAGUNJI,BELGAUM,KARNATAKA
"KARNATAKA VIKAS GRAMEENA BANK",KVGB0002602,590483521,GANDIGWAD,"ANDIGAWAD BRANCH  PADMA NIVAS, MAIN ROAD, GANDIGWAD - 591 112. TQ. : KHANAPUR,┬á DIST. : BELGAUM",261049,GANDIGWAD,BELGAUM,KARNATAKA
"KARNATAKA VIKAS GRAMEENA BANK",KVGB0002601,590483520,BEEDI,"BEEDI BRANCH  SRI DAFEDAR BUILDING ,┬á┬á┬á NO.916,┬á BEEDI- 591106. TQ: KHANAPUR, DIST :BELGAUM.",256741,BIDI,BELGAUM,KARNATAKA
"KARNATAKA VIKAS GRAMEENA BANK",KVGB0002514,WAITING,SULTANPUR,"KARANATA VIKAS GRAMEENA BANK, SR. S D MULLA BUILDING, BASAVESHWAR CIRCLE, SULTANPUR, TQ HUKKERI, DT BELGAUM, KARNATAKA",7022599729,HUKKERI,BELGAUM,KARNATAKA
"KARNATAKA VIKAS GRAMEENA BANK",KVGB0002513,WAITING,SOLAPUR,"KARANATA VIKAS GRAMEENA BANK, S P K P SAHAKARI SANGH BUILDING, NEAR GRAM PANCHYAT BUILDING, TQ HUKKERI DT BELGAUM, KARNATAKA",7022599728,HUKKERI,BELGAUM,KARNATAKA
"KARNATAKA VIKAS GRAMEENA BANK",KVGB0002512,NA,AMMANAGI,"GRAMA PANCHAYATH BUILDING, AMMANAGI",9480699673,HUKKERI,BELGAUM,KARNATAKA
"KARNATAKA VIKAS GRAMEENA BANK",KVGB0002511,590483528,GODAGERI,"RAITAR ONI GHODAGERI TQ. HUKKERI DT: BELGAUM PIN ┬û 591 107",0,HUKKERI,BELGAUM,KARNATAKA
"KARNATAKA VIKAS GRAMEENA BANK",KVGB0002510,591483595,YADAGUD,"GRAM PANCHAYAT BUILDING  YADGUDTQ. HUKKERI  PIN ┬û 591 253",0,HUKKERI,BELGAUM,KARNATAKA
"KARNATAKA VIKAS GRAMEENA BANK",KVGB0002509,NA,"NIDASOSHI EC","THE OFFICER INCHARGE , HIT COLLEGE COMPLEX , NIDASOSHI",278688,NIDASOSI,BELGAUM,KARNATAKA
"KARNATAKA VIKAS GRAMEENA BANK",KVGB0002508,591483577,"BELLAD BAGEWADI","BELLADA BAGEWADI BRANCH  .  TQ. : HUKKERI,┬á DIST. : BELGAUM.",267055,"BELLAD BAGEWADI",BELGAUM,KARNATAKA
"KARNATAKA VIKAS GRAMEENA BANK",KVGB0002507,591483541,SANKESWARA,"SANKESHWAR BRANCHNALAWADE COMPLEX, MAIN ROAD,  SANKESHWAR - 591 313.  TQ. : HUKKERI,┬á DIST. : BELGAUM.",273734,SANKESHWAR,BELGAUM,KARNATAKA
"KARNATAKA VIKAS GRAMEENA BANK",KVGB0002506,591483577,NIDASOSHI,"NIDASOSI BRANCH  S. N. J. P. S. N. M. S. TRUST BUILDING, NIDASOSHI - 591 236.  TQ. : HUKKERI,┬á DIST. : BELGAUM.┬á┬á",278606,NIDASOSI,BELGAUM,KARNATAKA
"KARNATAKA VIKAS GRAMEENA BANK",KVGB0002505,591483541,KANAGALE,"KANAGALE BRANCH  H. NO. 942, LAXMI ROAD, KANAGALE - 591 225.┬á┬áTQ. : HUKKERI,┬á DIST. : BELGAUM",279260,KANAGALE,BELGAUM,KARNATAKA
"KARNATAKA VIKAS GRAMEENA BANK",KVGB0002504,591483576,HUKKERI,"HUKKERI BRANCH┬á┬á┬á┬áDESAI BUILDING,  OPP. BUS STAND, HUKKERI - 591 309. TQ. : HUKKERI,┬á DIST. : BELGAUM┬á┬á┬á┬á┬á┬á┬á┬á┬á┬á",265233,HUKKERI,BELGAUM,KARNATAKA
"KARNATAKA VIKAS GRAMEENA BANK",KVGB0002503,591483540,HIDAKAL-DAM,"HIDKAL-DAM BRANCH  EX. ENGINEERS BUILDING, HIDKAL DAM - 591 107. TQ. : HUKKERI,┬á DIST. : BELGAUM.┬á┬á┬á┬á┬á┬á┬á┬á┬á┬á",263264,HIDKAL,BELGAUM,KARNATAKA
"KARNATAKA VIKAS GRAMEENA BANK",KVGB0002502,591483539,GUDAS,"UDAS BRANCH  J. R. Y. BUILDING,  GUDAS - 591 106. TQ. : HUKKERI,┬á DIST. : BELGAUM.",269228,GUDAS,BELGAUM,KARNATAKA
"KARNATAKA VIKAS GRAMEENA BANK",KVGB0002501,591483553,BASAPUR,"BASAPUR BRANCHSHRI LAXMI DEVI BUILDING TEMPLE, BASAPUR-591122.  TQ: HUKKERI, DIST :BELGAUM",289027,BASAPUR,BELGAUM,KARNATAKA
"KARNATAKA VIKAS GRAMEENA BANK",KVGB0002417,WAITING,HALLUR,"KARNATAKA VIKAS GRAMEENA BANK C/O KEMPANNA M ANGADI NEAR GRAM PANCHAYATH HALLUR GOKAK TALUK BELGAUM DIST-591312",9480699072,GOKAK,BELGAUM,KARNATAKA
"KARNATAKA VIKAS GRAMEENA BANK",KVGB0002416,WAITING,GHATAPRABHA,"KARNATAKA VIKAS GRAMEENA BANK C/O MARUTHI RAJARAM MANE NO 668 MALAPUR PG GHATAPRABHA TALUK GOKAK DIAT BELGAUM 591306",9480699072,GOKAK,BELGAUM,KARNATAKA
"KARNATAKA VIKAS GRAMEENA BANK",KVGB0002415,WAITING,AKKATANGEERAHAL,"KARANATAKA VIKAS GRAMEENA BANK, CO NINGAPPA ADIVEPPA SATIGERI, AKKATANGERHAL, TQ GOKAK, DT BELGAUM, KARNATAKA",7022599726,GOKAK,BELGAUM,KARNATAKA
"KARNATAKA VIKAS GRAMEENA BANK",KVGB0002414,591483552,KONNUR,"KARNATAKAVIKASGRAMEENA BANK DR. KAMMAR BLDG KONNUR TQ.GOKAK DT; BELGAUM  PIN ┬û  591 231",0,KONNUR,CHIKKODI,KARNATAKA
"KARNATAKA VIKAS GRAMEENA BANK",KVGB0002413,590483517,ANKALGI,"BHUSANNAVAR BLDG, MAIN ROAD, ANKALAGI. TQ.GOKAK DT: BELGAUM  PIN ┬û 591 101",0,ANKALGI,CHIKKODI,KARNATAKA
"KARNATAKA VIKAS GRAMEENA BANK",KVGB0002412,591483597,RAJAPUR,"C.L.C.BUILDING RAJAPUR TQ. GOKAK PIN ┬û 591 224",0,GOKAK,CHIKKODI,KARNATAKA
"KARNATAKA VIKAS GRAMEENA BANK",KVGB0002411,591483551,YADAWAD,"DAWAD BRANCH  KALYANI BUILDING, MAIN MARKET ROAD,  YADAWAD. TQ. : GOKAK,┬á DIST. : BELGAUM",279255,YADWAD,CHIKKODI,KARNATAKA
"KARNATAKA VIKAS GRAMEENA BANK",KVGB0002410,591483551,SUNADHOLLI,"UNADHOLI BRANCH ┬á NARAGUND BUILDING, SUNADHOLI - 591 508. TQ. : GOKAK,┬á DIST. : BELGAUM.┬á┬á┬á┬á┬á┬á┬á┬á┬á┬á┬á┬á",275262,SUNADHOLI,CHIKKODI,KARNATAKA
"KARNATAKA VIKAS GRAMEENA BANK",KVGB0002409,591483550,SINDHIKURBET,"SHINDHIKURBET BRANCH  KURBAR SAMAJ BUILDING,  NEAR VITTAL TEMPLE, MAIN ROAD, SHINDHIKURBET - 591 310. TQ.: GOKAK,┬á DT.: BELGAUM.┬á┬á┬á┬á┬á┬á┬á┬á┬á┬á┬á",286406,SHINDIKURBET,CHIKKODI,KARNATAKA
"KARNATAKA VIKAS GRAMEENA BANK",KVGB0002408,591483549,NAGANUR,"NAGANUR BRANCH  A.D. KOLUR BUILDING,┬á NAGANUR - 591 319. TQ. : GOKAK,┬á DIST. : BELGAUM.",288656,NAGANUR,CHIKKODI,KARNATAKA
"KARNATAKA VIKAS GRAMEENA BANK",KVGB0002407,591483548,MUDALAGI,"MUDALAGI BRANCH  TMC NO. 1228, D. P. PHIROJI BUILDING, NEAR BUS STAND, MAIN ROAD, MUDALAGI - 591 312. TQ. : GOKAK,┬á DIST. : BELGAUM",251993,MUDALGI,CHIKKODI,KARNATAKA
"KARNATAKA VIKAS GRAMEENA BANK",KVGB0002406,591483547,MAMADAPUR,"MAMADAPUR BRANCH  CHIKKANNAVAR BUILDING, H. NO. 1365, NEAR BUS STAND, MAMADAPUR - 591 233. TQ. : GOKAK,┬á DIST. : BELGAUM┬á",234245,MAMADAPUR,CHIKKODI,KARNATAKA
"KARNATAKA VIKAS GRAMEENA BANK",KVGB0002405,591483546,KOUJALAGI,"KOUJALAGI BRANCH  SHIVANMARI BUILDING, KOUJALAGI - 591 227. TQ. : GOKAK,┬á DIST. : BELGAUM.┬á┬á┬á┬á┬á┬á┬á┬á┬á",273219,KOUJALAGI,CHIKKODI,KARNATAKA
"KARNATAKA VIKAS GRAMEENA BANK",KVGB0002404,591483545,KHANAGAON,"KHANAGAON BRANCH  PANCHAYAT BUILDING, V. P. C. NO. 408, KHANAGAON - 591 334. TQ. : GOKAK,┬á DIST. : BELGAUM.┬á┬á┬á┬á┬á┬á┬á┬á┬á",233449,KHANAGAON,CHIKKODI,KARNATAKA
"KARNATAKA VIKAS GRAMEENA BANK",KVGB0002403,591483544,KALLOLLI,"KALLOLI BRANCH  PANCHAYAT BUILDING, KALLOLI - 591 224. TQ. : GOKAK,┬á DIST. : BELGAUM.",284626,KALLOLLI,CHIKKODI,KARNATAKA
"KARNATAKA VIKAS GRAMEENA BANK",KVGB0002402,591483543,GOKAK,"OKAK BRANCH  WALI BUILDING,  NEAR COURT CIRCLE, GOKAK - 591 307. TQ. : GOKAK,┬á DIST. : BELGAUM.",227097,GOKAK,CHIKKODI,KARNATAKA
"KARNATAKA VIKAS GRAMEENA BANK",KVGB0002401,591483502,ARABHAVI,"ARABHAVI BRANCH  AGADI BUILDING ,┬á  NEAR DURADUNDESHWAR MATH, GOKAK-GHATAPRABHAROAD,┬á┬á┬á┬áARABHAVI- 591318. TQ:GOKAK, DIST :BELGAUM",226581,ARABHAVI,CHIKKODI,KARNATAKA
"KARNATAKA VIKAS GRAMEENA BANK",KVGB0002327,NA,JAGANUR,"PANCHAYAT BUILDING, MAIN ROAD, JAGANUR, TQ CHIKKODI, DIST. BELAGAVI - 591305",0,BELAGAVI,BELAGAVI,KARNATAKA
"KARNATAKA VIKAS GRAMEENA BANK",KVGB0002326,WAITING,MANGUR,"KARNATAKA VIKAS GRAMEENA BANK BRANCH MANGUR TALUK CHIKKODI DIST BELGAUM",9480699072,CHIKKODI,BELGAUM,KARNATAKA
"KARNATAKA VIKAS GRAMEENA BANK",KVGB0002325,WAITING,SHIRGOAN,"KARNATAKA VIKAS GRAMEENA BANK, CO BEERAPPA SIDAPPA BANNE, SHIRGAON, TQ CHIKKODI, DT BELGAUM, KARNATAKA",7022599724,CHIKODI,BELGAUM,KARNATAKA
"KARNATAKA VIKAS GRAMEENA BANK",KVGB0002324,WAITING,KHADAKLAT,"KARNATAKA VIKAS GRAMEENA BANK, RAJASHREE BUILDING, CO ANNA LINGAOUDA PATIL, KHADALAKAT TQ CHIKKODI, DT BELGAUM, KARNATAKA",7022599725,CHIKODI,BELGAUM,KARNATAKA
"KARNATAKA VIKAS GRAMEENA BANK",KVGB0002322,NA,SADALAGA,"CHANDGADE BULDING, NEAR OLD BUS STAND, SADALAGA",9480699690,SADALGA,BELGAUM,KARNATAKA
"KARNATAKA VIKAS GRAMEENA BANK",KVGB0002321,WAITING,"BASAVA CIRCLE, CHIKKODI","KARNATAKA VIKAS GRAMEENA BANK,├╜├╜VANTAMUTTE BUILDING, CHIKKODI-BIJAPUR MAIN ROAD, CHIKKODI-591201, KARNATAKA",7022599715,CHIKODI,CHIKODI,KARNATAKA
"KARNATAKA VIKAS GRAMEENA BANK",KVGB0002320,591483605,KAROSHI,"NEAR BUS STAND , AT & PO: KAROSHI -591226.TQ. CHIKODI,DIST: BELGAUM",0,CHIKODI,BELGAUM,KARNATAKA
"KARNATAKA VIKAS GRAMEENA BANK",KVGB0002319,591483601,NEJ,"HUCHCHANNAVAR BLDG NEJ TQ. CHIKKODI DT: BELGAUM  PIN ┬û 591 239",0,CHIKODI,CHIKKODI,KARNATAKA
"KARNATAKA VIKAS GRAMEENA BANK",KVGB0002318,591483542,GALATAGA,"PATIL BLDG, NEAR BUS STAND GALATAGATQ. CHIKKODI DT: BELGAUM  PIN ┬û 591 219",0,GALATGA,CHIKKODI,KARNATAKA
"KARNATAKA VIKAS GRAMEENA BANK",KVGB0002317,591483562,EXAMBA,"┬á┬á EXAMBA BRANCH┬á┬á┬á  S.S.MALI BUILDING, TQ: CHIKODI, DIST: BELGAUM",276700,EXAMBA,CHIKKODI,KARNATAKA
"KARNATAKA VIKAS GRAMEENA BANK",KVGB0002316,591483561,YADUR,"YADUR BRANCH┬á┬á┬á┬ôSHIVA KRUPA┬ö┬á SAVADATTI BUILDING,  YADUR - 591 512.  TQ. : CHIKKODI,┬á DIST. : BELGAUM.┬á┬á",258509,YADUR,CHIKKODI,KARNATAKA
"KARNATAKA VIKAS GRAMEENA BANK",KVGB0002315,591483538,PATTANAKUDI,"ATTANAKUDI BRANCHB. A. PATIL BUILDING, WALAKI ROAD,  PATTANAKUDI - 591 238.  TQ. : CHIKKODI,┬á DIST. : BELGAUM┬á┬á┬á┬á┬á┬á┬á┬á┬á",221134,PATTANAKUDI,CHIKKODI,KARNATAKA
"KARNATAKA VIKAS GRAMEENA BANK",KVGB0002314,591483573,NIPPANI,"NIPPANI BRANCH┬á┬á┬á┬áKOTEWALE BUILDING, ASHOK NAGAR,  NIPPANI - 591 237.  TQ. : CHIKKODI,┬á DIST. : BELGAUM",221345,NIPPANAL,CHIKKODI,KARNATAKA
"KARNATAKA VIKAS GRAMEENA BANK",KVGB0002313,591483560,NAGARAMUNOLI,"NAGARMUNOLI BRANCH  PANCHAYAT BUILDING, NAGARMUNOLI - TQ. : CHIKKODI,┬á BELGAUM┬á┬á",284456,NAGARMUNOLI,CHIKKODI,KARNATAKA
"KARNATAKA VIKAS GRAMEENA BANK",KVGB0002312,591483559,MANJARI,"MANJARI BRANCHP.K.P.S. SOCIETY BUILDING,  H. NO. 114, MANJARI - 591 264.  TQ. : CHIKKODI,┬á DIST. : BELGAUM",252243,MANJARI,CHIKKODI,KARNATAKA
"KARNATAKA VIKAS GRAMEENA BANK",KVGB0002311,591483537,KURLI,"URLI BRANCH  S. A. DIVATE BUILDING, MAIN ROAD, KURLI -┬á 591 241. TQ. : CHIKKODI,┬á DIST. : BELGAUM",263205,KURLI,CHIKKODI,KARNATAKA
"KARNATAKA VIKAS GRAMEENA BANK",KVGB0002310,591483536,KOGANALLI,"┬á┬á KOGNOLI BRANCH┬á┬áCHOUGALA BUILDING,MARKET ROAD,  KOGANALLI - 591 229.  TQ. : CHIKKODI,┬á DIST. : BELGAUM.┬á",269305,KONGANOLLI,CHIKKODI,KARNATAKA
"KARNATAKA VIKAS GRAMEENA BANK",KVGB0002309,591483558,KERUR,"KERUR BRANCHSRI. D. R. MALI BUILDING,  V.P.C. NO. 363, KERUR - 591 283.  TQ. : CHIKKODI,┬á DIST. : BELGAUM",286818,KERUR,CHIKKODI,KARNATAKA
"KARNATAKA VIKAS GRAMEENA BANK",KVGB0002308,591483557,KALLOL,"┬á KALLOL BRANCH  MANGAVATE BUILDING, KALLOL - 591 282. TQ. : CHIKKODI,┬á DIST. : BELGAUM",254286,KALLOL,CHIKKODI,KARNATAKA
"KARNATAKA VIKAS GRAMEENA BANK",KVGB0002307,591483556,KABBUR,"KABBUR BRANCH  VIJAYANAGAR BUILDING, MAIN ROAD, KABBUR - 591 222. TQ. : CHIKKODI,┬á DIST. : BELGAUM.┬á",229105,KABBUR,CHIKKODI,KARNATAKA
"KARNATAKA VIKAS GRAMEENA BANK",KVGB0002306,591483555,INGALI,"┬á INGALI BRANCH  VITHOBHA MANDIR BUILDING, INGALI - 591 277. TQ. : CHIKKODI,┬á DIST. : BELGAUM.┬á",280808,INGALI,CHIKKODI,KARNATAKA
"KARNATAKA VIKAS GRAMEENA BANK",KVGB0002305,591483563,HIREKUDI,"HIREKODI BRANCH┬á┬á┬á┬áMAIN ROAD, HIREKODI - 591 274.  TQ. : CHIKKODI,┬á DIST. : BELGAUM┬á┬á┬á┬á┬á┬á┬á┬á┬á",272553,HIREKUDI,CHIKKODI,KARNATAKA
"KARNATAKA VIKAS GRAMEENA BANK",KVGB0002304,591483202,CHIKKODI,"HIKKODI BRANCH┬á  MIRJE COMPLEX, K.C ROAD .  CHIKKODI-591201. TQ: CHIKKODI, DIST :BELGAUM",272283,CHIKODI,CHIKKODI,KARNATAKA
"KARNATAKA VIKAS GRAMEENA BANK",KVGB0002303,591483535,BORGAON,"K  BORGAON BRANCH  PANCHAYAT BUILDING, BADIGER GALLI.  BORGAON-591216.  TQ: CHIKKODI, DIST :BELGAUM.",251823,BORGAON,CHIKKODI,KARNATAKA
"KARNATAKA VIKAS GRAMEENA BANK",KVGB0002302,591483534,BHOJ,"HOJ BRANCH  SHINDHE BUILDING,NEAR HANUMAN TEMPLE,  BHOJ-591263. TQ: CHIKKODI, DIST :BELGAUM",262143,BHOJ,CHIKKODI,KARNATAKA
"KARNATAKA VIKAS GRAMEENA BANK",KVGB0002301,591483533,BENADI,"BENADI BRANCH┬á  V.P.C NO.1359  JANAWADE BUILDING,  BENADI-591215. TQ: CHIKKODI, DIST :BELGAUM",267461,BENADI,CHIKKODI,KARNATAKA
"KARNATAKA VIKAS GRAMEENA BANK",KVGB0002226,WAITING,GANESHPUR,"KARNATAKA VIKAS GRAMEENA BANK GANESHPUR BRANCH GRAMA PANCHAYATH BUILDING BELGAUM TAULK BELGAUM DIST 591108",9108699789,BELGAUM,BELGAUM,KARNATAKA
"KARNATAKA VIKAS GRAMEENA BANK",KVGB0002225,WAITING,MUTNAL,"KARNATAKA VIKAS GRAMEENA BANK BRANCH MUTNAL TALUK BELGAUM DIST BELGAUM-591109",9480699040,BELGAUM,BELGAUM,KARNATAKA
"KARNATAKA VIKAS GRAMEENA BANK",KVGB0002224,WAITING,KANABARGI,"KARNATAKA VIKAS GRAMEENA BANK, NEAR BUS STAND, PLOT 12, RS NO 429 2, TQ AND DT BELGAUM, KARNATAKA",7022599722,BELGAUM,BELGAUM,KARNATAKA
"KARNATAKA VIKAS GRAMEENA BANK",KVGB0002223,WAITING,BADALANKALAGI,"KARNATAKA VIKAS GRAMEENA BANK, SMT. P C PATIL BUILDING, MAIN ROAD, NEAR BUS STAND, BADALANKALAGI, TQ BELGAUM DT BELGAUM, KARNATAKA",7022599723,BELGAUM,BELGAUM,KARNATAKA
"KARNATAKA VIKAS GRAMEENA BANK",KVGB0002222,WAITING,"BASAVAN KUDACHI","KARNATAKA VIKAS GRAMEENA BANK, SRI. S B PATIL BUILDING, R S NO.528, BASAVANKUDACHI, DIST. BELAGAVI",2442204,BELGAUM,BELGAUM,KARNATAKA
"KARNATAKA VIKAS GRAMEENA BANK",KVGB0002221,WAITING,"RANICHANNAMMANAGAR, BELGAUM","KARNATAKA VIKAS GRAMEENA BANK,├╜SRI S N HEBBAR BUILDING, 1ST STAGE, RANI CHANAMMA NAGAR, BELGAUM-590016, KARNATAKA",7022599720,BELGAUM,BELGAUM,KARNATAKA
"KARNATAKA VIKAS GRAMEENA BANK",KVGB0002220,NA,AGASAGE,"KALAGOUDA B PATIL BUILDING, AGASAGE",9480699689,BELGAUM,BELGAUM,KARNATAKA
"KARNATAKA VIKAS GRAMEENA BANK",KVGB0002219,NA,"SANTI BASTAWAD","HOUSE NO. 1341 PATIL BUILDING, SANTI BASTAWAD",9480699686,BELGAUM,BELGAUM,KARNATAKA
"KARNATAKA VIKAS GRAMEENA BANK",KVGB0002218,590483013,UDYAMBHAG,"OPP. GOVT. ITI COLLEGE, MAZAGAON ROAD,  UDYAM BAG, BELGAUMTQ. BELGAUM PIN ┬û 590 008",0,BELGAUM,BELGAUM,KARNATAKA
"KARNATAKA VIKAS GRAMEENA BANK",KVGB0002217,590483529,DESUR,"UPSTAIR GRAM PANCHAYAT BUILDING DESUR TQ. BELGAUM PIN ┬û 590 014",0,DESHNUR,BELGAUM,KARNATAKA
"KARNATAKA VIKAS GRAMEENA BANK",KVGB0002216,590483012,"SRINAGAR BELGAUM",",MD NARGUND BLDG, H NO 643,SECTOR 5< DOUBLE ROAD BELGAUM",0,BELGAUM,BELGAUM,KARNATAKA
"KARNATAKA VIKAS GRAMEENA BANK",KVGB0002215,590483011,"VAIBHAV NAGAR - BELGAUM","DR C R PATIL BLDG,  BAUXITE ROAD, NEHARU NAGAR POST,VAIBHAV NAGAR BELGAUM TQ & DT. BELGAUM",2472004,BELGAUM,BELGAUM,KARNATAKA
"KARNATAKA VIKAS GRAMEENA BANK",KVGB0002214,590483010,SAMBRA,"SAMBRA BRANCH ""J.L.TIPPACHE BLDG S.NO.751,MAIN ROAD TQ.BELGAUM DT.BELGAUM",2562477,SAMBRA,BELGAUM,KARNATAKA
"KARNATAKA VIKAS GRAMEENA BANK",KVGB0002213,590483009,"HANUMAN NAGAR-BELGAUM","HANUMAN NAGAR BRANCHCTS PLOT NO.62, KADAM BUILDING, HANUMAN NAGAR. DOORADARSHAN NAGAR, TQ. : BELGAUM,┬á DIST. : BELGAUM.┬á┬á┬á┬á┬á┬á┬á┬á",2422391,BELGAUM,BELGAUM,KARNATAKA
"KARNATAKA VIKAS GRAMEENA BANK",KVGB0002212,590483516,UCHAGAON,"UCHAGAON BRANCH  KADAM BUILDING, UCHAGAON - 591 128. TQ. : BELGAUM,┬á DIST. : BELGAUM.┬á",2492241,UCHAGAON,BELGAUM,KARNATAKA
"KARNATAKA VIKAS GRAMEENA BANK",KVGB0002211,590483004,SHAHPUR-BELGAUM,"BELGAUM SHAHAPUR ┬ûBRANCH  DAMANEKAR BUILDING,┬á┬á┬á ┬áNATH PAI CIRCLE, SHAHAPUR  BELGAUM-590003. TQ & DIST :BELGAUM",2405177,BELGAUM,BELGAUM,KARNATAKA
"KARNATAKA VIKAS GRAMEENA BANK",KVGB0002210,590483006,PEERANAWADI,"PEERANAWADI BRANCH  MAIN ROAD, PEERANAWADI - 591 014. TQ. : BELGAUM,┬á DIST. : BELGAUM┬á┬á",2405176,PEERANAWADI,BELGAUM,KARNATAKA
"KARNATAKA VIKAS GRAMEENA BANK",KVGB0002209,590483515,MARIHAL,"MARIHAL BRANCH  GAJAPATHI, BUILDING, MARIHAL - 591 167. TQ. : BELGAUM,┬á DIST. : BELGAUM",2418343,MARIHAL,BELGAUM,KARNATAKA
"KARNATAKA VIKAS GRAMEENA BANK",KVGB0002208,590483514,"K K KOPPA","K.K.KOP BRANCH  KAMBI BUILDING, K. K. KOP - 591 145. TQ. : BELGAUM,┬á DIST. : BELGAUM",2557215,KANAVI-KARAVIN-KOP,BELGAUM,KARNATAKA
"KARNATAKA VIKAS GRAMEENA BANK",KVGB0002207,590483513,HUDLI,"HUDLI BRANCHB. R. BIKKANNAAR BUILDING,  HUDLI - 591 148. TQ. : BELGAUM,┬á DIST. : BELGAUM.",2419243,HUDLI,BELGAUM,KARNATAKA
"KARNATAKA VIKAS GRAMEENA BANK",KVGB0002206,590483512,HIREBAGEWADI,"HIREBAGEWADI BRANCHM. P. HADIMANI BUILDING,  BAILHONGAL ROAD,  HIREBAGEWADI - 591 109.  TQ. : BELGAUM,┬á DIST. : BELGAUM",2564014,"HIRE BAGEWADI",BELGAUM,KARNATAKA
"KARNATAKA VIKAS GRAMEENA BANK",KVGB0002205,590483005,HINDALAGA,"HINDALAGA BRANCH ┬áNAIK BUILDING,VENGURLA ROAD, HINDALAGA - 591 108.  TQ. : BELGAUM,┬á DIST. : BELGAUM.",2405175,HINDALAGE,BELGAUM,KARNATAKA
"KARNATAKA VIKAS GRAMEENA BANK",KVGB0002204,590483007,GOAVES-BELGAUM,"BELGAUM GOAVES BRANCHKAVALE BUILDING,┬á┬á┬áNEAR R.P.D. CROSS, TILKAWADI,  BELGAUM-590006.TQ & DIST :BELGAUM.",2405174,BELGAUM,BELGAUM,KARNATAKA
"KARNATAKA VIKAS GRAMEENA BANK",KVGB0002203,590483003,"FORT-ROAD BELGAUM","┬á┬áBELGAUM FORT ROAD BRANCH┬á┬á  KSRTC COMPLEX,┬á┬áBUS STAND ROAD,┬á┬á BELGAUM ┬û 590 001┬á┬á┬á┬á┬á┬á┬á┬á┬á┬á┬á┬á┬á┬á┬á┬á┬á┬á┬á",2405173,BELGAUM,BELGAUM,KARNATAKA
"KARNATAKA VIKAS GRAMEENA BANK",KVGB0002202,590483002,"BELGAUM MAIN","┬á BELGAUM MAIN BRANCHSHIVAMALE BUILDING,┬á ┬áKHADAK GALLI,  BELGAUM-590002.TQ & DIST :BELGAUM.",2405172,BELGAUM,BELGAUM,KARNATAKA
"KARNATAKA VIKAS GRAMEENA BANK",KVGB0002201,590483008,"AZAMNAGAR, BELGAUM","BELGAUM ┬û AZAMNAGAR┬á BRANCH  R.S KADALASKAR BUILDING,┬á┬áBOXITE ROAD,  TQ : & DIST :BELGAUM.",2405178,BELGAUM,BELGAUM,KARNATAKA
"KARNATAKA VIKAS GRAMEENA BANK",KVGB0002200,NA,"CHICKODI R O","REGIONAL OFFICE,VANTAMUTTE BUILDING,GURUWAR PET,CHIKKODI.591201",0,CHIKODI,CHIKODI,KARNATAKA
"KARNATAKA VIKAS GRAMEENA BANK",KVGB0002115,WAITING,BELAVADI,"SHRI KANCHIGIDAD COMMERCIAL COMPLEX, BAILHONGAL ROAD, BELAVADI - 591102",0,BAILHONGAL,BELGAUM,KARNATAKA
"KARNATAKA VIKAS GRAMEENA BANK",KVGB0002114,NA,BUDARKATTI,"GRAMA PANCHAYATH BUILDING, BUDARKATTI",9480699684,BAILHONGAL,BELGAUM,KARNATAKA
"KARNATAKA VIKAS GRAMEENA BANK",KVGB0002113,NA,AMBADAGATTI,"GRAMA PANCHAYATH BUILDING, AMBADGATTI",9480699685,BAILHONGAL,BELGAUM,KARNATAKA
"KARNATAKA VIKAS GRAMEENA BANK",KVGB0002112,591483594,VANNUR,"ANNUR BRANCH  PANCHAYAT BUILDING, VANNUR - 591 122. TQ. : BAILHONGAL,┬á DIST. : BELGAUM.┬á┬á┬á┬á",272108,VANNUR,BELGAUM,KARNATAKA
"KARNATAKA VIKAS GRAMEENA BANK",KVGB0002111,590483511,UDUKERI,"┬á┬á┬á UDUKERI BRANCH  PANCHAYAT BUILDING, UDUKERI - 591 104. TQ. : BAILHONGAL,┬á DIST. : BELGAUM.┬á┬á┬á",223634,UDAKERI,BELGAUM,KARNATAKA
"KARNATAKA VIKAS GRAMEENA BANK",KVGB0002110,590483510,TIGADI,"┬á┬áTIGADI BRANCH┬á┬á┬á┬áVPC NO. 254, PATIL BUILDING,  MAIN ROAD, TIGADI - 591 171. TQ. : BAILHONGAL,┬á DIST. : BELGAUM.┬á┬á┬á┬á┬á┬á",225163,TIGADI,BELGAUM,KARNATAKA
"KARNATAKA VIKAS GRAMEENA BANK",KVGB0002109,590483509,SANGOLLI,"┬á┬á SANGOLLI BRANCH  PANCHAYAT BUILDING, SANGOLLI - 591 191. TQ. : BAILHONGAL,┬á DIST. : BELGAUM",238531,SANGOLLI,BELGAUM,KARNATAKA
"KARNATAKA VIKAS GRAMEENA BANK",KVGB0002108,590483508,NESARAGI,"┬á┬á NESARAGI BRANCH ┬á ZILLA PANCHAYAT BUILDING, EXTENSION AREA, NESARAGI - 591 121. TQ. : BAILHONGAL,┬á DIST. : BELGAUM",275210,NESARGI,BELGAUM,KARNATAKA
"KARNATAKA VIKAS GRAMEENA BANK",KVGB0002107,590483507,NEGINAHAL,"┬á NEGINHAL BRANCH┬á┬á┬á┬á┬áSRI MADIWALESHWAR MATH BUILDING, NEGINAHAL - 591 190. TQ. : BAILHONGAL,┬á DIST. : BELGAUM.",252814,NEGINAHAL,BELGAUM,KARNATAKA
"KARNATAKA VIKAS GRAMEENA BANK",KVGB0002106,590483506,M.K.HUBLI,"M.K. HUBLI BRANCH  PANCHAYAT BUILDING, P. B. ROAD, M. K. HUBLI - 591 153. TQ. : BAILHONGAL,┬á DIST. : BELGAUM.",274055,"MUGUTKHAN HUBLI",BELGAUM,KARNATAKA
"KARNATAKA VIKAS GRAMEENA BANK",KVGB0002105,590483505,KITTUR,"┬á KITTUR BRANCH┬á┬á┬á┬á┬áLANGOTI BUILDING, KITTUR - 591 115. TQ. : BAILHONGAL,┬á DIST. : BELGAUM.┬á",286828,KITTUR,BELGAUM,KARNATAKA
"KARNATAKA VIKAS GRAMEENA BANK",KVGB0002104,590483504,HUNASHIKATTI,"HUNASHIKATTI BRANCH  VPC NO. 459/B NAGANUR BUILDING, MAIN ROAD, HUNASHIKATTI - 591 153  TQ. : BAILHONGAL,┬á DIST. : BELGAUM",283733,ITGI,BELGAUM,KARNATAKA
"KARNATAKA VIKAS GRAMEENA BANK",KVGB0002103,590483503,DODAWAD,"DODWAD BRANCH  ZILLA PANCHAYAT BUILDING, NO. M.P. 1395, BUS STAND ROAD,  DODWAD-591104. TQ :BAILHONGAL. DIST :BELGAUM.┬á┬á┬á┬á",235526,DODAWAD,BELGAUM,KARNATAKA
"KARNATAKA VIKAS GRAMEENA BANK",KVGB0002102,590483502,BAILUR,"BAILUR BRANCH  R.R DEGAU BUILDING,  BAILUR-591115. TQ :BAILHONGAL. DIST :BELGAUM.",277240,BAILUR,BELGAUM,KARNATAKA
"KARNATAKA VIKAS GRAMEENA BANK",KVGB0002101,590483501,BAILHONGAL,"BAILHONGAL BRANCH  OPP: BUS STAND┬á┬á┬á┬áBAILHONGAL-591102. TQ :BAILHONGAL. DIST:BELGAUM┬á┬á┬á┬á┬á┬á┬á┬á┬á┬á┬á┬á┬á┬á┬á┬á┬á┬á┬á┬á┬á┬á┬á┬á",233303,BAILHONGAL,BELGAUM,KARNATAKA
"KARNATAKA VIKAS GRAMEENA BANK",KVGB0002018,WAITING,AINAPUR,"KARNATAKA VIKAS GRAMEENA BANK AINAPUR BRANCH LONDE BUILDING BAZAAR ROAD AINAPUR- TQ ATHANI DT BELGAUM PIN 591303",9108699801,ATHANI,BELGAUM,KARNATAKA
"KARNATAKA VIKAS GRAMEENA BANK",KVGB0002017,WAITING,MALABAD,"KARNATAKA VIKAS GRAMEENA BANK, KALLOLI BUILDING, VPC NO. 32, MALABAD, TQ ATHNI, DT BELAGAVI",2442204,MALABAD,BELGAUM,KARNATAKA
"KARNATAKA VIKAS GRAMEENA BANK",KVGB0002016,WAITING,KAKAMARI,"├╜KARNATAKA VIKAS GRAMEENA BANK, SRI G S DYASHAL BUILDING, MAIN MARKET, KAKAMARI, TQ ATHANI, DT BELGAUM, KARNATAKA",7022599714,ATHANI,CHIKKODI,KARNATAKA
"KARNATAKA VIKAS GRAMEENA BANK",KVGB0002014,591483598,KOTTALAGI,"NEAR BUS STAND, C.M.TELI BUILDING KOTTALAGI,  TQ: ATHANI  PIN ┬û 591 265",239111,ATHANI,CHIKKODI,KARNATAKA
"KARNATAKA VIKAS GRAMEENA BANK",KVGB0002013,591483532,TELSANG,"TELSANG BRANCH ┬á┬á┬áA.S. UNDODI BUILDING,  TELSANG - 591 265.  TQ. : ATHANI,┬á DIST. : BELGAUM.┬á┬á┬á┬á┬á┬á┬á┬á",276274,TELSANG,CHIKKODI,KARNATAKA
"KARNATAKA VIKAS GRAMEENA BANK",KVGB0002012,591483531,SHIRAHATTI,"SHIRAHATTI BRANCHV.P.C. NO. 180/2,  KULKARNI BUILDING,  MAIN ROAD,  SHIRAHATTI - 591 341.┬á┬á┬á┬á┬á┬á┬á┬á┬á┬á┬á┬á┬á┬á┬á┬á┬á",284901,SHIRHATTI,CHIKKODI,KARNATAKA
"KARNATAKA VIKAS GRAMEENA BANK",KVGB0002011,591483530,SHIRAGUPPI,"SHIRAGUPPI BRANCHBHAGYALAXMI LIFT IRRIGATION  SOCIETY BUILDING, KAGAWAD ROAD,  SHIRAGUPPI - 591 242. TQ. : ATHANI,┬á DIST. : BELGAUM.┬á┬á┬á┬á",265282,SHIRGUPPI,CHIKKODI,KARNATAKA
"KARNATAKA VIKAS GRAMEENA BANK",KVGB0002010,591483529,SHANKRAHATI,"SHANKRATTI BRANCHGRAM PANCHAYAT BUILDING,  SHANKRATTI - 591 220.  TQ. : ATHANI,┬á DIST. : BELGAUM.┬á┬á┬á┬á┬á",250853,SHANKRATTI,CHIKKODI,KARNATAKA
"KARNATAKA VIKAS GRAMEENA BANK",KVGB0002009,591483528,MOLE,"MOLE BRANCHPATIL BUILDING, BAZAR ROAD,  MOLE - 591 332.TQ. : ATHANI,┬á DIST. : BELGAUM.┬á┬á┬á┬á┬á┬á┬á┬á┬á┬á",278201,MOLE,CHIKKODI,KARNATAKA
"KARNATAKA VIKAS GRAMEENA BANK",KVGB0002008,591483527,MANGASULI,"MANGASULI BRANCHSOCIETY BUILDING,  MANGASULI - 591 234  TQ. : ATHANI,┬á DIST. : BELGAUM.┬á┬á┬á┬á┬á┬á┬á┬á┬á┬á┬á",277431,MANGSULI,CHIKKODI,KARNATAKA
"KARNATAKA VIKAS GRAMEENA BANK",KVGB0002007,591483526,MADABHAVI,"MADABHAVI BRANCHBHANDARI BUILDING,  MAIN STREET,  MADABHAVI - 591 232.  TQ. : ATHANI,┬á DIST. : BELGAUM",236526,MADABHAVI,CHIKKODI,KARNATAKA
"KARNATAKA VIKAS GRAMEENA BANK",KVGB0002006,591483525,KOKATNUR,"KOKATNUR BRANCH  B.D.O. BUILDING,  NEAR BUS STAND,  KOKATNUR - 591 230  TQ. : ATHANI,┬á DIST. : BELGAUM",257602,KOKATNUR,CHIKKODI,KARNATAKA
"KARNATAKA VIKAS GRAMEENA BANK",KVGB0002005,591483524,KHILEGAON,"KHILEGAON BRANCH  BAGADI BUILDING,  KHILEGAON - 591 212.  TQ. : ATHANI,┬á DIST. : BELGAUM.┬á┬á┬á┬á┬á┬á",295078,KHILEGAON,CHIKKODI,KARNATAKA
"KARNATAKA VIKAS GRAMEENA BANK",KVGB0002004,591483523,KAGAWAD,"KAGAWAD BRANCH┬á  PATIL BUILDING, BAJARPETH,  KAGAWAD - 591 223.  TQ. : ATHANI,┬á DIST. : BELGAUM.┬á┬á┬á┬á┬á┬á┬á┬á┬á┬á┬á┬á┬á",264125,KAGWAD,CHIKKODI,KARNATAKA
"KARNATAKA VIKAS GRAMEENA BANK",KVGB0002003,591483522,HALYAL,"HALYAL BRANCHPANCHAYAT BUILDING,  HALYAL - 591 304.  TQ. : ATHANI,┬á DIST. : BELGAUM",294864,HALYAL,CHIKKODI,KARNATAKA
"KARNATAKA VIKAS GRAMEENA BANK",KVGB0002002,591483402,ATHANI,"ATHANI BRANCH┬á┬á TMC BUILDING, SAREE MARKET,  ATHANI ┬û 591 304┬á┬á┬á",251683,ATHANI,CHIKKODI,KARNATAKA
"KARNATAKA VIKAS GRAMEENA BANK",KVGB0002001,591483521,ADAHALLI,"ADAHALLI BRANCHKENCHANNAVAR BUILDING,ADAHALLI-591266.  TQ :ATHANI. DIST :BELGAUM.",259487,ADHALLI,CHIKKODI,KARNATAKA
"KARNATAKA VIKAS GRAMEENA BANK",KVGB0002000,NA,"BELGAUM R O","REGIONAL OFFICE,2ND FLOOR,PLD BANK BUILDING,1076,OLD P.B ROAD,KOLHAPUR CROSS,BELGAUM 590 016",0,BELGAUM,BELGAUM,MAHARASHTRA
"KARNATAKA VIKAS GRAMEENA BANK",KVGB0001515,WAITING,MADABHAVI,"KARNATAKA VIKAS GRAMEENA BANK TIMMAPUR BUILDING MARAPUR ROAD MADABHAVI BAGALKOT- 587316",9108699763,MADABHAVI,BAGALKOT,KARNATAKA
"KARNATAKA VIKAS GRAMEENA BANK",KVGB0001514,587483556,MALALI,"GRAM PANCHAYAT BLDG MAIN ROAD MALALI TQ. MUDHOL DT:BAGALKOT PIN ┬û 587 113",0,MUDHOL,BAGALKOT,KARNATAKA
"KARNATAKA VIKAS GRAMEENA BANK",KVGB0001513,587483554,VANTAGODI,"SRI VENKATESHWAR YUVAK MANDAL, MAIN ROAD, VANTAGODI TQ.MUDHOL PIN ┬û 587 313",200300,MUGALKHOD,BAGALKOT,KARNATAKA
"KARNATAKA VIKAS GRAMEENA BANK",KVGB0001512,587483539,LOKAPUR,"LOKAPUR BRANCH  NINGANURGOUDAR BUILDING,  DURGADEVI TEMPLE ROAD , LOKAPUR - 587 122, TQ : MUDHOL. DIST :BAGALKOT",0,LOKAPUR,BAGALKOT,KARNATAKA
"KARNATAKA VIKAS GRAMEENA BANK",KVGB0001511,587483538,VAJRAMATTI,"VAJJRAMATTI BRANCH  MANTUR BUILDING, H.NO.289, VAJJRAMATTI - 587 313, TQ : MUDHOL. DIST : BAGALKOT.┬á",276010,VAJJARMATTI,BAGALKOT,KARNATAKA
"KARNATAKA VIKAS GRAMEENA BANK",KVGB0001510,587483537,UTTUR,"UTTUR BRANCH ┬á CHINIWAL BUILDINGG, D.NO.1/A, MAIN ROAD, UTTUR - 587 313, TQ : MUDHOL, DIST:BAGALKOT.┬á┬á┬á┬á┬á┬á┬á┬á┬á┬á┬á┬á┬á┬á┬á┬á┬á┬á┬á┬á┬á┬á┬á┬á┬á",277044,UTTUR,BAGALKOT,KARNATAKA
"KARNATAKA VIKAS GRAMEENA BANK",KVGB0001509,587483536,SHIROL,"SHIROL BRANCH  GRAM PANCHAYAT┬á BLDG,  DOOR NO 71,SHIROL - 587 328, TQ : MUDHOL. DIST: BAGALKOT.",242005,SHIROL,BAGALKOT,KARNATAKA
"KARNATAKA VIKAS GRAMEENA BANK",KVGB0001508,587483531,MUGALAKHOD,"MUGALKHOD BRANCH  A.P.SUNAGAD BUILDING  MUGALKHOD - 587 113, TQ : MUDHOL.DIST : BAGALKOT.",248006,MUGALKHOD,BAGALKOT,KARNATAKA
"KARNATAKA VIKAS GRAMEENA BANK",KVGB0001507,587483543,MUDHOL,"MUDHOL BRANCH  BAKSHI BUILDING,W.NO.1, MAIN ROAD, MUDHOL - 587 313, TQ : MUDHOL. DIST : BAGALKOT.",281255,MUDHOL,BAGALKOT,KARNATAKA
"KARNATAKA VIKAS GRAMEENA BANK",KVGB0001506,587483542,MUDDAPUR,"MUDDAPUR BRANCH  SARKAVAS BUILDING, MUDDAPUR - 587 122,TQ : MUDHOL. DIST : BAGALKOT.┬á┬á┬á┬á┬á┬á┬á┬á┬á┬á┬á┬á┬á┬á┬á┬á┬á┬á┬á┬á┬á┬á┬á┬á┬á",202033,MUDDAPUR,BAGALKOT,KARNATAKA
"KARNATAKA VIKAS GRAMEENA BANK",KVGB0001505,587483513,MAHALINGAPUR,"MAHALINGPUR BRANCH ┬áSAKRI BUILDING, D.NO.57/A, MAIN┬á ROAD, MAHALINGAPUR -587 312,┬á┬á TQ : MUDHOL. ┬áDIST : BAGALKOT.",270603,MAHALINGPUR,BAGALKOT,KARNATAKA
"KARNATAKA VIKAS GRAMEENA BANK",KVGB0001504,587483528,MACHAKANUR,"MACHAKANUR BRANCH  MAIN ROAD, MACHAKNUR - 587 313,┬á┬áTQ : MUDHOL. DIST : BAGALKOT.",249034,MACHAKNUR,BAGALKOT,KARNATAKA
"KARNATAKA VIKAS GRAMEENA BANK",KVGB0001503,587483541,HOSAKOTI,"HOSAKOTI BRANCH  GRAM PANCHAYAT BLDG, HOSAKOTI- 587 122, TQ : MUDHOL.DIST : BAGALKOT.",240351,HOSAKOTI,BAGALKOT,KARNATAKA
"KARNATAKA VIKAS GRAMEENA BANK",KVGB0001502,587483540,"CHICHAKHANDI KD","CHINCHAKHANDI K.D. BRANCH  B.S.HUNSHI BLDG,┬á CHINCHAKHANDI K.D.- 587 313, TQ : MUDHOL. DIST : BAGALKOT.",247047,"CHINCHKHANDI(K D)",BAGALKOT,KARNATAKA
"KARNATAKA VIKAS GRAMEENA BANK",KVGB0001501,587483548,BELAGALI,"BELAGALI BRANCH  M.A.SIDDAPUR BUILDING,  DOOR NO. 511, BELAGALI - 587 113, TQ : MUDHOL. DIST : BAGALKOT.",270406,BELAGALI,BAGALKOT,KARNATAKA
"KARNATAKA VIKAS GRAMEENA BANK",KVGB0001417,587483303,"KUNCHANUR CIRCLE JAMAKANDI","BAGWAN COMPLEX, TIPPU SULTAN CIRCLE, JAMAKANDI - 587301",0,JAMKHANDI,BAGALKOTE,KARNATAKA
"KARNATAKA VIKAS GRAMEENA BANK",KVGB0001416,587483558,CHIMMAD,"SAMUDAY BHAVAN CHIMMAD TQ. JAMKHANDI DT: BAGALKOT PIN ┬û 587 312",0,MAHALINGPUR,BAGALKOT,KARNATAKA
"KARNATAKA VIKAS GRAMEENA BANK",KVGB0001415,587483551,LINGANUR,"GRAM PANCHAYAT BLDG, LINGANUR TQ. JAMKHANDI DT. BAGALKOT",0,JAMKHANDI,BAGALKOT,KARNATAKA
"KARNATAKA VIKAS GRAMEENA BANK",KVGB0001414,587483552,KULAHALLI,"NEAR SHIVALINGESHWAR TEMPLE  MAIN ROAD, KULAHALLI TQ:JAMKHANDI, DIST : BAGALKOT.",0,JAMKHANDI,BAGALKOT,KARNATAKA
"KARNATAKA VIKAS GRAMEENA BANK",KVGB0001413,587483547,TERDAL,"TERDAL BRANCH  GANACHARI BUILDING, NEAR PRABHUDEV TEMPLE TQ : JAMKHANDI. DIST : BAGALKOT.",0,TERDAL,BAGALKOT,KARNATAKA
"KARNATAKA VIKAS GRAMEENA BANK",KVGB0001412,587483546,SASALATTI,"SASALATTI BRANCH  HANAGANDI BUILDING, DOOR NO. 92, SASALATTI - 587 327, TQ : JAMAKHANDI. DIST : BAGALKOT.",255381,SASALATTI,BAGALKOT,KARNATAKA
"KARNATAKA VIKAS GRAMEENA BANK",KVGB0001411,587483545,NAVALAGI,"NAVALAGI BRANCH  HANUMAN TEMPLE COMMITTEE BUILDING, NAVALAGI - 587 320, TQ : JAMAKHANDI. DIST : BAGALKOT.",236050,NAVALAGI,BAGALKOT,KARNATAKA
"KARNATAKA VIKAS GRAMEENA BANK",KVGB0001410,587483535,KONNUR,"KONNUR BRANCH  KARISIDDESHWAR TEMPLE BUILDING,  MAIN ROAD, KONNUR - 587 121, TQ : JAMAKHANDI. DIST : BAGALKOT.",239063,KONNUR,BAGALKOT,KARNATAKA
"KARNATAKA VIKAS GRAMEENA BANK",KVGB0001409,587483302,JAMKHANDI,"JAMAKHANDI BRANCH  R.M.BURJI BLDG,┬á┬á NEAR BUS-STAND  JAMAKHANDI┬á┬á DIST; BAGALKOT.",224611,JAMKHANDI,BAGALKOT,KARNATAKA
"KARNATAKA VIKAS GRAMEENA BANK",KVGB0001408,587483534,JAKANUR,"JAKANUR BRANCH  GRAM PANCHAYAT BLDG,  MAIN ROAD, JAKANUR - 587 301, TQ: JAMAKHANDI. DIST : BAGALKOT.",234542,JAKANUR,BAGALKOT,KARNATAKA
"KARNATAKA VIKAS GRAMEENA BANK",KVGB0001407,587483533,"HIRE PADASALAGI","HIREPADASALAGI BRANCH  HUTAGI┬á BUILDING, D.NO.108,  HIREPADASALAGI- 587 323, TQ : JAMAKHANDI. DIST : BAGALKOT.",254073,HIREPADASALGI,BAGALKOT,KARNATAKA
"KARNATAKA VIKAS GRAMEENA BANK",KVGB0001406,587483532,HIPPARAGI,"HIPPARAGI BRANCH  KANNOLLI 'S BUILDING,MAIN ROAD,  HIPPARAGI - 587 318,  TQ : JAMAKHANDI. DIST : BAGALKOT.",228536,HIPPARGI,BAGALKOT,KARNATAKA
"KARNATAKA VIKAS GRAMEENA BANK",KVGB0001405,587483544,HALINGALI,"HALINGALI BRANCH  A.R.MUNNOLLI BLDG  HALINGALI - 587 315,  TQ : JAMAKHANDI. DIST : BAGALKOT.",255321,HALINGALI,BAGALKOT,KARNATAKA
"KARNATAKA VIKAS GRAMEENA BANK",KVGB0001404,587483530,GOTHE,"GOTHE BRANCH  SRI PAWAD BASAVESHWAR SADBHAKTA┬á┬á MANDALI BUILDING,┬á NEAR BUS STAND, GOTHE - 586 126, TQ : JAMAKHANDI. DIST : BAGALKOT.",253059,GOTHE,BAGALKOT,KARNATAKA
"KARNATAKA VIKAS GRAMEENA BANK",KVGB0001403,587483529,BIDARI,"BIDARI BRANCH  BIDARI'S BUILDING,  BIDARI - 586 125, TQ : JAMAKHANDI. DIST : BAGALKOT.",252091,BIDRI,BAGALKOT,KARNATAKA
"KARNATAKA VIKAS GRAMEENA BANK",KVGB0001402,587483352,BANAHATTI,"BANAHATTI BRANCH  V.R.KADAM BUILDING, ┬á BANAHATTI -587311  TQ : JAMAKHANDI. DIST : BAGALKOT.",231338,"RABKAVI BANHATTI",BAGALKOT,KARNATAKA
"KARNATAKA VIKAS GRAMEENA BANK",KVGB0001401,587483527,ALAGUR,"ALAGUR BRANCH PARAMAGONDA BUILDING, DOOR NO. 221, ALAGUR - 587 301, TQ : JAMAKHANDI. DIST : BAGALKOT.",200116,ALAGUR,BAGALKOT,KARNATAKA
"KARNATAKA VIKAS GRAMEENA BANK",KVGB0001312,WAITING,TUMBA,"KARNATAKA VIKAS GRAMEENA BANK BRANCH TUMBA C/O BASAVARAJ Y SAJJAN TUMBA HUNAGUND TALUK BAGALKOT DIST-587154",9480699603,HUNAGUND,BAGALKOT,KARNATAKA
"KARNATAKA VIKAS GRAMEENA BANK",KVGB0001311,WAITING,AMINGAD,"KARNATAKA VIKAS GRAMEENA BANK BRANCH AMINGAD GRAM PANCHAYATH BUILDING HUNAGUND TALUK BAGALKOT DIST-587112",9108699774,HUNAGUND,BAGALKOT,KARNATAKA
"KARNATAKA VIKAS GRAMEENA BANK",KVGB0001310,587483560,KAMATAGI,"OPPSITE HUCHESHWAR MATH, NEAR BUSSTAND KAMATAGI, TQ: HUNAGUND - 587120, DT: BAGALKOTE",0,KAMATGI,BAGALKOTE,KARNATAKA
"KARNATAKA VIKAS GRAMEENA BANK",KVGB0001309,587483550,KUDALASANGAM,"SRI SANGAMESHWAR UCHIT PRASAD NILAY BLDG,KUDALASANGAMTQ. HUNAGUND",268045,"KOODAL SANGAM",BAGALKOT,KARNATAKA
"KARNATAKA VIKAS GRAMEENA BANK",KVGB0001308,587483526,ILKAL,"NEAR KANTHI CIRCLE ILKAL TQ: HUNAGUND, DIST : BAGALKOT.",270074,ILKAL,BAGALKOT,KARNATAKA
"KARNATAKA VIKAS GRAMEENA BANK",KVGB0001307,587483525,NAGUR,"NAGUR BRANCH  NARAGUNDCOMPLEX, MAINROAD, ┬á┬áNAGUR ┬û 587118 ┬áTQ : HUNGUND DIST : BAGALKOT┬á┬á┬á┬á┬á┬á┬á┬á┬á┬á┬á┬á┬á┬á┬á┬á┬á┬á┬á",260708,NAGUR,BAGALKOT,KARNATAKA
"KARNATAKA VIKAS GRAMEENA BANK",KVGB0001306,587483524,KANDAGAL,"KANDAGAL BRANCH  POLICE PATIL BUILDING, MAIN ROAD,  KANDAGAL ┬û 587154. TQ : HUNAGUND, DIST : BAGALKOT",267132,KANDAGAL,BAGALKOT,KARNATAKA
"KARNATAKA VIKAS GRAMEENA BANK",KVGB0001305,587483523,HUNGUND,"HUNGUND BRANCH  M.S.KADAPATTI BUILDING,┬áOPPOSITE BUS-STAND  HUNAGUND. DIST: BAGALKOT",261390,HUNGUND,BAGALKOT,KARNATAKA
"KARNATAKA VIKAS GRAMEENA BANK",KVGB0001304,587483522,GANJIHAL,"GANJIHAL BRANCH  GRAM PANCHAYAT BLDG,  DOOR NO. 487, MAIN ROAD,┬á┬áGANJIHAL ┬û587115  TQ : HUNGUND,┬á DIST: BAGALKOT┬á┬á┬á┬á┬á┬á┬á┬á┬á┬á┬á┬á┬á┬á┬á┬á┬á┬á",200174,GANJIHAL,BAGALKOT,KARNATAKA
"KARNATAKA VIKAS GRAMEENA BANK",KVGB0001303,587483521,DHANNUR,"DHANNUR BRANCH  DHANESHWAR VACHANALAYA  BUILDING, BELAGALL ROAD,┬á DHANNUR ┬û 587 118 TQ: HUNAGUNDDIST: BAGALKOT",276009,DHANNUR,BAGALKOT,KARNATAKA
"KARNATAKA VIKAS GRAMEENA BANK",KVGB0001302,587483520,CHITTARAGI,"CHITTARAGI BRANCHVIJAYA MAHANTESH TRUST,┬áCHITTARAGI ┬û587 112 TQ: HUNGUND DIST : BAGALKOT.",274127,CHITTARGI,BAGALKOT,KARNATAKA
"KARNATAKA VIKAS GRAMEENA BANK",KVGB0001301,587483519,AIHOLE,"AIHOLE BRANCH  C.M.NASHI BLDG,┬á AIHOLE ┬û 587 138┬á┬á┬á┬áTQ : HUNGUND┬á┬á DIST : BAGALKOT┬á┬á┬á┬á┬á┬á┬á┬á┬á┬á",284505,AIHOLE,BAGALKOT,KARNATAKA
"KARNATAKA VIKAS GRAMEENA BANK",KVGB0001207,WAITING,JANAMATTI,"KARNATAKA VIKAS GRAMEENA BANK BRANCH JANAMATTI TALUK BILAGI DIST BAGALKOT",9480699037,BILAGI,BAGALKOT,KARNATAKA
"KARNATAKA VIKAS GRAMEENA BANK",KVGB0001206,587483518,TEGGI,"KARNATAKAVIKASGRAMEENA BANK J B KUDAGI BLDG,  MAIN ROAD, TEGGI TQ. BILAGI DT: BAGALKOT  PIN ┬û  587 117",0,TEGGI,BAGALKOT,KARNATAKA
"KARNATAKA VIKAS GRAMEENA BANK",KVGB0001205,587483517,SUNAG,"SUNAG BRANCH  GRAM PANCHAYAT┬á BLDG,┬á D.NO.196,┬á┬á┬á┬á MAIN ROAD, SUNAG - 587 128,  TQ : BILAGI. DIST : BAGALKOT.",277450,SUNAG,BAGALKOT,KARNATAKA
"KARNATAKA VIKAS GRAMEENA BANK",KVGB0001204,587483516,KATARAKI,"KATARAKI BRANCH  MATHAD BUILDING, D.NO.1/A, MAIN ROAD, KATARAKI - 587 204, TQ : BILAGI. DIST : BAGALKOT.",273956,KATARKI,BAGALKOT,KARNATAKA
"KARNATAKA VIKAS GRAMEENA BANK",KVGB0001203,587483515,BILAGI,"BILAGI BRANCH MAIN ROAD, S.S. PATIL BUILDING, BILAGI ┬û 587 116 DIST: BAGALKOT",275872,BILGI,BAGALKOT,KARNATAKA
"KARNATAKA VIKAS GRAMEENA BANK",KVGB0001202,587483514,ANAGAWADI,"ANAGAWADI BRANCH  ANAGAWADI - 587 116, TQ : BILAGI. DIST : BAGALKOT.",279901,ANAGWADI,BAGALKOT,KARNATAKA
"KARNATAKA VIKAS GRAMEENA BANK",KVGB0001201,587483553,AMALAZARI,"AMALZARI BRANCH  MARUTI SEVA SAMEETI┬á BUILDING,  AMALZARI - 587 125, TQ : BILAGI. DIST : BAGALKOT.",246006,AMALZARI,BAGALKOT,KARNATAKA
"KARNATAKA VIKAS GRAMEENA BANK",KVGB0001111,WAITING,TULASIGERI,"KARNATAKA VIKAS GRAMMENA BANK, NO 196 B, GPC BUILDING, TULASIGERI-587204, DT BAGALAKOT, KARNATAKA",7022599718,BAGALKOT,BAGALKOT,KARNATAKA
"KARNATAKA VIKAS GRAMEENA BANK",KVGB0001110,WAITING,"VIDYAGIRI BAGALAKOT","KARNATAKA VIKAS GRAMMENA BANK, SRI B V V SANGH KATTI BUILDING, OPPOSIT ENGINEERING COLLEGE, BAGALAKOT-587103, KARNATAKA",7022599719,BAGALKOT,BAGALKOT,KARNATAKA
"KARNATAKA VIKAS GRAMEENA BANK",KVGB0001109,587483559,RAMPUR,"SRI TELI BUILDING ,RAMPUR- 587207, TQ; BAGALKOT, DT BAGALKOTE",0,BAGALKOT,BAGALKOTE,KARNATAKA
"KARNATAKA VIKAS GRAMEENA BANK",KVGB0001108,587483555,BHANTANUR,"HIREKANNAVAR BUILDING  BHANTANUR TQ.MUDHOL  PIN ┬û 587 204",0,MUDHOL,BAGALKOT,KARNATAKA
"KARNATAKA VIKAS GRAMEENA BANK",KVGB0001107,587483553,ANWAL,"SOCIETY BLDG, ANWAL TQ BADAMI DT. BAGALKOT",0,BADAMI,BAGALKOT,KARNATAKA
"KARNATAKA VIKAS GRAMEENA BANK",KVGB0001106,587483549,KALADGI,"HNNU BELEGARARA SANGH BLDG, NEAR POLICE STATION,KALADGI TQ & DT. BAGALKOT",240088,KALADGI,BAGALKOT,KARNATAKA
"KARNATAKA VIKAS GRAMEENA BANK",KVGB0001105,587483103,NAVANAGAR-BAGALKOT,"NAVANAGAR BRANCH  PLOT NO.C-69, SECTOR 33  SBM BUILDING, NEAR DIST CONSUMERS FORUM , NAVANAGAR - 587 103, TQ: DIST BAGALKOT.",200450,BAGALKOT,BAGALKOT,KARNATAKA
"KARNATAKA VIKAS GRAMEENA BANK",KVGB0001104,587483512,SUTAGUNDAR,"SUTAGUNDAR BRANCH MAIN ROAD, SUTAGUNDAR-587 207, TQ : BAGALKOT. DIST :BAGALKOT.",255010,SUTAGUNDAR,BAGALKOT,KARNATAKA
"KARNATAKA VIKAS GRAMEENA BANK",KVGB0001103,587483511,GADDANAKERI,"GADDANAKERI BRANCH  KKGS SANGHA BUILDING, D.NO.157/1,KALADAGI RD, GADDANAKERI - 587 115, TQ : BAGALKOT. DIST : BAGALKOT.",244328,GADDANKERI,BAGALKOT,KARNATAKA
"KARNATAKA VIKAS GRAMEENA BANK",KVGB0001102,587483510,BENAKATTI,"BENAKATTI BRANCH MALLAMMAMBE MAHILA MANDAL BUILDING,  D.NO.93, MAIN ROAD, BENAKATTI - 587 111, TQ :DIST : BAGALKOT.",257015,BENAKATTI,BAGALKOT,KARNATAKA
"KARNATAKA VIKAS GRAMEENA BANK",KVGB0001101,587483102,BAGALAKOT,"BAGALKOT BRANCH  SHREYAS OMPLEX, I FLOOR, NEAR BUS STAND, ┬áQ& DT: BAGALKOT",226194,BAGALKOT,BAGALKOT,KARNATAKA
"KARNATAKA VIKAS GRAMEENA BANK",KVGB0001100,NA,"BAGALKOTE R O","REGIONAL MANAGER,KARNATAKA VIKAS GRAMEENA BANK,RO,SBI BUILDING,NAVANAGAR,BAGALKOT.587183",0,BAGALKOT,BAGALKOT,KARNATAKA
"KARNATAKA VIKAS GRAMEENA BANK",KVGB0001013,WAITING,"KULAGERI CROSS","KARNATAKA VIKAS GRAMEENA BANK BRANCH KULAGERI CROSS BADAMI TALUK BAGALKOT DIST",0,BADAMI,BAGALKOT,KARNATAKA
"KARNATAKA VIKAS GRAMEENA BANK",KVGB0001012,WAITING,KERUR,"├╜KARNATAKA VIKAS GRAMEENA BANK, SRI M B KATTI BUILDING, OPPOSIT GOVT HOSPITAL, SOLAPUR-HUBLI MAIN ROAD, KERUR, KARNATAKA",7022599717,KERUR,BAGALKOT,KARNATAKA
"KARNATAKA VIKAS GRAMEENA BANK",KVGB0001010,NA,KAGALAGOMB,"PKPSB BUILDING, NEAR BUS STAND, KAGALAGOMB",9480699681,BADAMI,BAGALKOTE,KARNATAKA
"KARNATAKA VIKAS GRAMEENA BANK",KVGB0001009,587483509,GULEDGUDDA,"SANGAMESHWAR PRINTING PRESS BLDG, GULEDGUDDA, TQ: BADAMI DIST : BAGALKOT",250354,GULEDAGUDDA,BAGALKOT,KARNATAKA
"KARNATAKA VIKAS GRAMEENA BANK",KVGB0001008,587483508,NEELAGUND,"NEELAGUND BRANCH  MAIN ROAD, NEELAGUND - 587 201, TQ : BADAMI DIST : BAGALKOT.┬á┬á┬á PH.NO.08357-238003",238003,NEELAGUND,BAGALKOT,KARNATAKA
"KARNATAKA VIKAS GRAMEENA BANK",KVGB0001007,587483507,NANDIKESHWAR,"NANDIKESHWAR BRANCH  KULKARNI'S BLDG, MAIN ROAD, ┬áNANDIKESHWAR - 587 320,┬á┬á TQ:BADAMI DIST:BAGALKOT.",243054,NANDIKESHWAR,BAGALKOT,KARNATAKA
"KARNATAKA VIKAS GRAMEENA BANK",KVGB0001006,587483506,MUSTIGERI,"MUSTIGERI BRANCH  P A C C BANK,┬á BUILDING D.NO.504, MAIN STREET,┬á┬áMUSTIGERI - 587 206,┬á TQ : BADAMI. DIST : BAGALKOT.┬á ┬á┬á┬á ┬á┬á┬á┬á┬á┬á┬á┬á┬á┬á┬á┬á┬á┬á┬á┬á",238074,MUSTIGERI,BAGALKOT,KARNATAKA
"KARNATAKA VIKAS GRAMEENA BANK",KVGB0001005,587483505,KATAGERI,"KATAGERI BRANCH  KATAGERI MILK PRODUCERS' CO-OP. SOCIETY'S BUILDING,MAIN┬á ROAD, ┬áKATAGERI - 587 205, TQ : BADAMI DIST : BAGALKOT.",237045,KATAGERI,BAGALKOT,KARNATAKA
"KARNATAKA VIKAS GRAMEENA BANK",KVGB0001004,587483504,HEBBALLI,"HEBBALLI BRANCH  GRAM PANCHAYAT BLDG,  BAZAAR ROAD, HEBBALLI - 582 203, TQ:BADAMI┬á DIST:BAGALKOT.",231649,HEBBALLI,BAGALKOT,KARNATAKA
"KARNATAKA VIKAS GRAMEENA BANK",KVGB0001003,587483503,CHOLACHAGUDDA,"CHOLACHAGUDDA BRANCH  S.C.HUMBI BLDG,┬á┬áCHOLACHAGUDDA-587201  TQ:BADAMI DIST:BAGALKOT",240543,CHOLACHAGUDDA,BAGALKOT,KARNATAKA
"KARNATAKA VIKAS GRAMEENA BANK",KVGB0001002,587483502,BELUR,"BELUR BRANCH  GRAM PANCHAYAT BLDG,┬á  BELUR - 587 113,┬áTQ:BADAMI, DIST:BAGALKOT.┬á┬á┬á┬á┬á┬á┬á┬á┬á┬á┬á┬á┬á┬á┬á┬á┬á┬á┬á┬á┬á┬á┬á┬á┬á┬á┬á",240553,BELUR,BAGALKOT,KARNATAKA
"KARNATAKA VIKAS GRAMEENA BANK",KVGB0001001,587483501,BADAMI,"BADAMI BRANCH  NEAR BUS-STAND┬á┬á┬áBADAMI- 587 201  DIST: BAGALKOT",221614,BADAMI,BAGALKOT,KARNATAKA
"KARNATAKA VIKAS GRAMEENA BANK",KVGB0000001,NA,RTGS-HO,"KARNATAKA VIKAS GRAMEENA BANK HEAD OFFICE BUILDING,BELGAUM ROAD DHARWAD-580008",2442204,HUBLI-DHARWAD,"HEAD OFFICE",KARNATAKA
