BANK,IFSC,MICR,BRANCH,ADDRESS,CONTACT,CITY,DISTRICT,STATE
"THE ANDHRA PRADESH STATE COOPERATIVE BANK LIMITED",APBL0023031,NA,"KONDA MALLEPALLI","DEVERAKONDA ROAD, KONDAMALLEPALLY",0,"KONDA MALLEPALLI",NALGONDA,"ANDHRA PRADESH"
"THE ANDHRA PRADESH STATE COOPERATIVE BANK LIMITED",APBL0023030,NA,METTAMPALLI,MATTAMPALLY,0,METTAMPALLI,NALGONDA,"ANDHRA PRADESH"
"THE ANDHRA PRADESH STATE COOPERATIVE BANK LIMITED",APBL0023029,NA,DINDI,"OPP. SAIBABA TEMPLE DINDI",0,DINDI,NALGONDA,"ANDHRA PRADESH"
"THE ANDHRA PRADESH STATE COOPERATIVE BANK LIMITED",APBL0023028,NA,KATTANGUR,"KALIMERA ROAD, KATTANGOOR",0,KATTANGUR,NALGONDA,"ANDHRA PRADESH"
"THE ANDHRA PRADESH STATE COOPERATIVE BANK LIMITED",APBL0023027,NA,THIRUMALAGIRI,"THIRUMALAGIRI, (M) THIRUMALAGIRI",0,THIRUMALAGIRI,NALGONDA,"ANDHRA PRADESH"
"THE ANDHRA PRADESH STATE COOPERATIVE BANK LIMITED",APBL0023026,NA,ANUMALA,"DEVERAKONDA ROAD, HALIYA",0,ANUMALA,NALGONDA,"ANDHRA PRADESH"
"THE ANDHRA PRADESH STATE COOPERATIVE BANK LIMITED",APBL0023024,NA,YADAGIRIGUTTA,"YADAGIRIGUTTA, (M) YADAGIRIPALLY",0,YADAGIRIGUTTA,NALGONDA,"ANDHRA PRADESH"
"THE ANDHRA PRADESH STATE COOPERATIVE BANK LIMITED",APBL0023023,NA,VALIGONDA,"MAIN ROAD, VOLIGONDA",0,VALIGONDA,NALGONDA,"ANDHRA PRADESH"
"THE ANDHRA PRADESH STATE COOPERATIVE BANK LIMITED",APBL0023022,NA,THUNGATHURTHI,THUNGATHURTHY,0,THUNGATHURTHI,NALGONDA,"ANDHRA PRADESH"
"THE ANDHRA PRADESH STATE COOPERATIVE BANK LIMITED",APBL0023021,NA,TRIPURARAM,"MAIN ROAD, TRIPURARAM",0,TRIPURARAM,NALGONDA,"ANDHRA PRADESH"
"THE ANDHRA PRADESH STATE COOPERATIVE BANK LIMITED",APBL0023020,NA,SURYAPET,"NEAR: OLD BUSSTAND, SURYAPET,  508213",0,SURYAPET,NALGONDA,"ANDHRA PRADESH"
"THE ANDHRA PRADESH STATE COOPERATIVE BANK LIMITED",APBL0023019,NA,RAMANNAPET,"# 6-131, GANDHI NAGAR, RAMMANNAPET",0,RAMANNAPET,NALGONDA,"ANDHRA PRADESH"
"THE ANDHRA PRADESH STATE COOPERATIVE BANK LIMITED",APBL0023018,NA,NUTANAKALU,NOOTHANKAL,0,NUTANAKALU,NALGONDA,"ANDHRA PRADESH"
"THE ANDHRA PRADESH STATE COOPERATIVE BANK LIMITED",APBL0023017,NA,NIDAMANURA,"BESIDE: AGRI.MARKET OFFICE, SAGAR ROAD, NIDMANUR",0,NIDAMANURA,NALGONDA,"ANDHRA PRADESH"
"THE ANDHRA PRADESH STATE COOPERATIVE BANK LIMITED",APBL0023016,NA,NEREDCHERLA,"RAMAPURAM ROAD, NEREDUCHARLA",0,NEREDCHERLA,NALGONDA,"ANDHRA PRADESH"
"THE ANDHRA PRADESH STATE COOPERATIVE BANK LIMITED",APBL0023015,NA,"HEAD OFFICE","OPP: II TOWN P.S.RAMGIRI, NALGONDA",0,NALGONDA,NALGONDA,"ANDHRA PRADESH"
"THE ANDHRA PRADESH STATE COOPERATIVE BANK LIMITED",APBL0023014,NA,NAKREKAL,"OPP: SBH ATM, NH NO-9 NAKREKAL",0,NAKREKAL,NALGONDA,"ANDHRA PRADESH"
"THE ANDHRA PRADESH STATE COOPERATIVE BANK LIMITED",APBL0023013,NA,MUNGOD,"CHITYAL ROAD, POST & MON: MUNUGODE",0,MUNGOD,NALGONDA,"ANDHRA PRADESH"
"THE ANDHRA PRADESH STATE COOPERATIVE BANK LIMITED",APBL0023012,NA,MUNAGALA,"# 1-245/1, NH NO-9, MUNAGALA",0,MUNAGALA,NALGONDA,"ANDHRA PRADESH"
"THE ANDHRA PRADESH STATE COOPERATIVE BANK LIMITED",APBL0023011,NA,MOTHKUR,"OPP: AGRI.MARKET OFFICE, BHONGIRI ROAD, MOTHKUR",0,MOTHKUR,NALGONDA,"ANDHRA PRADESH"
"THE ANDHRA PRADESH STATE COOPERATIVE BANK LIMITED",APBL0023010,NA,MIRYALGUDA,"# 19-77, REDDY COLONY, SAGAR ROAD, MIRIYALAGUDA",0,MIRYALGUDA,NALGONDA,"ANDHRA PRADESH"
"THE ANDHRA PRADESH STATE COOPERATIVE BANK LIMITED",APBL0023009,NA,KODAD,"ABINAV STREET, NAYANAGAR, KODAD",0,KODAD,NALGONDA,"ANDHRA PRADESH"
"THE ANDHRA PRADESH STATE COOPERATIVE BANK LIMITED",APBL0023008,NA,HUZURNAGAR,"H.NO.13/93, HUZURNAGAR",0,HUZURNAGAR,NALGONDA,"ANDHRA PRADESH"
"THE ANDHRA PRADESH STATE COOPERATIVE BANK LIMITED",APBL0023007,NA,GURRAMPODE,"NAMPALLY ROAD, GURRAMPODE",0,GURRAMPODE,NALGONDA,"ANDHRA PRADESH"
"THE ANDHRA PRADESH STATE COOPERATIVE BANK LIMITED",APBL0023006,NA,DEVARAKONDA,"OPP:CPI OFFICE, DEVERAKONDA, 508248",0,DEVARAKONDA,NALGONDA,"ANDHRA PRADESH"
"THE ANDHRA PRADESH STATE COOPERATIVE BANK LIMITED",APBL0023005,NA,CHOUTUPPAL,"GM COMPLEX, OPP:BUSSTAND, CHOUTUPPAL",0,CHOUTUPPAL,NALGONDA,"ANDHRA PRADESH"
"THE ANDHRA PRADESH STATE COOPERATIVE BANK LIMITED",APBL0023004,NA,BHONGIR,"HYD-BAD ROAD, BHONGIRI",0,BHONGIR,NALGONDA,"ANDHRA PRADESH"
"THE ANDHRA PRADESH STATE COOPERATIVE BANK LIMITED",APBL0023003,NA,BIBINAGAR,"POCHAMPALLY ROAD, (M) BIBINAGAR",0,BIBINAGAR,NALGONDA,"ANDHRA PRADESH"
"THE ANDHRA PRADESH STATE COOPERATIVE BANK LIMITED",APBL0023002,NA,ALER,"OPP:RAILWAY STATION, MAIN ROAD, ALAIR",0,ALER,NALGONDA,"ANDHRA PRADESH"
"THE ANDHRA PRADESH STATE COOPERATIVE BANK LIMITED",APBL0023001,NA,NALGONDA,"# 6-2-4, NEAR: CLOCK TOWER, NALGONDA",0,NALGONDA,NALGONDA,"ANDHRA PRADESH"
"THE ANDHRA PRADESH STATE COOPERATIVE BANK LIMITED",APBL0022036,507809782,"DCC BANK KHAMMAM - CHANDRUGONDA","H NO. 1-16/1, OPP. SBH CHANDRUGONDA PIN 507166",9100039183,KHAMMAM,KHAMMAM,TELANGANA
"THE ANDHRA PRADESH STATE COOPERATIVE BANK LIMITED",APBL0022034,507809007,"THE DISTRICT CENTRAL CO-OP BANK LTD.,KHAMMAM, ROTARY NAGAR","3-2-48, INDIRA NAGAR, NEAR PARNASHALA, KHAMMAM. 507002",9948967755,KHAMMAM,KHAMMAM,TELANGANA
"THE ANDHRA PRADESH STATE COOPERATIVE BANK LIMITED",APBL0022033,NA,LAXMINAGARAM,"MULKALAPADU ROAD,LAXMI NAGARAM. PINCODE:507137",0,LAXMINAGARAM,KHAMMAM,"ANDHRA PRADESH"
"THE ANDHRA PRADESH STATE COOPERATIVE BANK LIMITED",APBL0022032,NA,CHINTOOR,"NEAR MRO OFFICE,CHINTOOR. PINCODE: 507113",0,CHINTOOR,KHAMMAM,"ANDHRA PRADESH"
"THE ANDHRA PRADESH STATE COOPERATIVE BANK LIMITED",APBL0022031,NA,GUNDALA,"NEAR MDO OFFICE,GUNDALA. PINCODE:507123",0,GUNDALA,KHAMMAM,"ANDHRA PRADESH"
"THE ANDHRA PRADESH STATE COOPERATIVE BANK LIMITED",APBL0022030,NA,"NST BRANCH","11-10-621/1, SARITHACLINCI CENTER, NST ROAD, BURHANPURAM, KHAMMAM. PINCODE:507001",0,"NST BRANCH",KHAMMAM,"ANDHRA PRADESH"
"THE ANDHRA PRADESH STATE COOPERATIVE BANK LIMITED",APBL0022029,NA,PENUBALLY,"5-126,SATHUPALLY ROAD,PENUBALLY. PINCODE:507302",0,PENUBALLY,KHAMMAM,"ANDHRA PRADESH"
"THE ANDHRA PRADESH STATE COOPERATIVE BANK LIMITED",APBL0022028,NA,MULKALAPALLY,"2-269,MAIN ROAD,MULKALAPALLY.PINCODE:507115",0,MULKALAPALLY,KHAMMAM,"ANDHRA PRADESH"
"THE ANDHRA PRADESH STATE COOPERATIVE BANK LIMITED",APBL0022027,NA,MARLAPADU,"3-581/1,MAIN ROAD,VIYA VEMSOOR,MARLAPADU. PINCODE:507164",0,MARLAPADU,KHAMMAM,"ANDHRA PRADESH"
"THE ANDHRA PRADESH STATE COOPERATIVE BANK LIMITED",APBL0022026,NA,"KHAMMAM RURAL","2-5-52,FIRST FOLLR,PSR ROAD,KHAMMAM. PINCODE:507003",0,"KHAMMAM RURAL",KHAMMAM,"ANDHRA PRADESH"
"THE ANDHRA PRADESH STATE COOPERATIVE BANK LIMITED",APBL0022025,NA,YERRUPALEM,"2-131,GANDHI BOMMACENTER,YERRUPLEM. PINCODE:507201",0,YERRUPALEM,KHAMMAM,"ANDHRA PRADESH"
"THE ANDHRA PRADESH STATE COOPERATIVE BANK LIMITED",APBL0022024,NA,ENKOOR,"3-63,NEAR BUSSTAND, ENKOOR.PINCODE:507168",0,ENKOOR,KHAMMAM,"ANDHRA PRADESH"
"THE ANDHRA PRADESH STATE COOPERATIVE BANK LIMITED",APBL0022023,NA,KUSUMANCHI,"3-226, MAINROAD, KUSUMANCHI. PINCODE:507159",0,KUSUMANCHI,KHAMMAM,"ANDHRA PRADESH"
"THE ANDHRA PRADESH STATE COOPERATIVE BANK LIMITED",APBL0022022,NA,VENKATAPURAM,"C-5-28,MAIN ROAD,VENKATAPURAM. PINCODE:507136",0,VENKATAPURAM,KHAMMAM,"ANDHRA PRADESH"
"THE ANDHRA PRADESH STATE COOPERATIVE BANK LIMITED",APBL0022021,NA,CHERLA,"4-150/0,MAIN ROAD,CHERLA.PINCODE:507133",0,CHERLA,KHAMMAM,"ANDHRA PRADESH"
"THE ANDHRA PRADESH STATE COOPERATIVE BANK LIMITED",APBL0022020,NA,BHADRACHALAM,"6-1.9,RAJAVEEDHI, BHADRACHALAM. PINCODE:507111",0,BHADRACHALAM,KHAMMAM,"ANDHRA PRADESH"
"THE ANDHRA PRADESH STATE COOPERATIVE BANK LIMITED",APBL0022019,NA,BURGAMPAHAD,"7-42, OPP:GOVTHOSPITAL  BURGAMPADU,  PINCODE:507114",0,BURGAMPAHAD,KHAMMAM,"ANDHRA PRADESH"
"THE ANDHRA PRADESH STATE COOPERATIVE BANK LIMITED",APBL0022018,NA,WYRA,"5-258/A,MAIN ROAD,WYRA. PINCODE:507165",0,WYRA,KHAMMAM,"ANDHRA PRADESH"
"THE ANDHRA PRADESH STATE COOPERATIVE BANK LIMITED",APBL0022017,NA,BONAKAL,"5-62, BESIDEPOLICESTATION,  BONAKAL. PINCODE:507204",0,BONAKAL,KHAMMAM,"ANDHRA PRADESH"
"THE ANDHRA PRADESH STATE COOPERATIVE BANK LIMITED",APBL0022016,NA,PALVONCHA,"19-1-116,SHASTRY CENTER,PALVONCHA. PINCODE:507115",0,PALVONCHA,KHAMMAM,"ANDHRA PRADESH"
"THE ANDHRA PRADESH STATE COOPERATIVE BANK LIMITED",APBL0022015,NA,ASWARAOPETA,"1-82,ANDRABANK ROAD ,ASWARAOPET. PINCODE:507301",0,ASWARAOPETA,KHAMMAM,"ANDHRA PRADESH"
"THE ANDHRA PRADESH STATE COOPERATIVE BANK LIMITED",APBL0022014,NA,MUDIGONDA,"4-78/1,VALLABI ROAD,MUDIGONDA,  PINCODE:507158",0,MUDIGONDA,KHAMMAM,"ANDHRA PRADESH"
"THE ANDHRA PRADESH STATE COOPERATIVE BANK LIMITED",APBL0022013,NA,TIRUMALAYAPALEM,"8-10,MAIN ROAD, TIRUMALAYAPALEM. PINCODE:507163",0,TIRUMALAYAPALEM,KHAMMAM,"ANDHRA PRADESH"
"THE ANDHRA PRADESH STATE COOPERATIVE BANK LIMITED",APBL0022012,NA,GARLA,"10-118, NEHRUCENTER, GARLA. PINCODE:5072010",0,GARLA,KHAMMAM,"ANDHRA PRADESH"
"THE ANDHRA PRADESH STATE COOPERATIVE BANK LIMITED",APBL0022011,NA,NELAKONDAPALLY,"3-33/1,KHAMMAM ROAD,NELAKONDAPALLY. PINCODE:507160",0,NELAKONDAPALLY,KHAMMAM,"ANDHRA PRADESH"
"THE ANDHRA PRADESH STATE COOPERATIVE BANK LIMITED",APBL0022010,NA,KUKKUNUR,"3-83, MAINROAD, KUKUNUR. PINCODE:507114",0,KUKKUNUR,KHAMMAM,"ANDHRA PRADESH"
"THE ANDHRA PRADESH STATE COOPERATIVE BANK LIMITED",APBL0022009,NA,KUNAVARAM,"1-57,MAIN ROAD,KUNAVARAM. PINCODE;507121",0,KUNAVARAM,KHAMMAM,"ANDHRA PRADESH"
"THE ANDHRA PRADESH STATE COOPERATIVE BANK LIMITED",APBL0022008,NA,SATHUPALLY,"3-101,MAIN ROAD,BESIDE KALPATHARU HOTEL,SATHUPALLY. PINCODE:507303",0,SATHUPALLY,KHAMMAM,"ANDHRA PRADESH"
"THE ANDHRA PRADESH STATE COOPERATIVE BANK LIMITED",APBL0022007,NA,YELLANDU,"1-2-29,OPP POLICE STATION,MAIN ROAD,YELLANDU. PINCODE:507123",0,YELLANDU,KHAMMAM,"ANDHRA PRADESH"
"THE ANDHRA PRADESH STATE COOPERATIVE BANK LIMITED",APBL0022006,NA,MADHIRA,"12-39,LADAKH BAZAR,MADIRA. PINCODE:507203",0,MADHIRA,KHAMMAM,"ANDHRA PRADESH"
"THE ANDHRA PRADESH STATE COOPERATIVE BANK LIMITED",APBL0022005,NA,KOTHAGUDEM,"5.1-48, BAJANAMANDIR ROAD,KOTHAGUDEM. PINCODE:507101",0,KOTHAGUDEM,KHAMMAM,"ANDHRA PRADESH"
"THE ANDHRA PRADESH STATE COOPERATIVE BANK LIMITED",APBL0022004,NA,MANUGUR,"8-1-79,MAIN ROAD,TDPCENTER,MANUGUR. PINCODE:507117",0,MANUGUR,KHAMMAM,"ANDHRA PRADESH"
"THE ANDHRA PRADESH STATE COOPERATIVE BANK LIMITED",APBL0022003,NA,KALLOOR,"1-70,MAIN ROAD,KALOOR. PINCODE:507209",0,KALLOOR,KHAMMAM,"ANDHRA PRADESH"
"THE ANDHRA PRADESH STATE COOPERATIVE BANK LIMITED",APBL0022002,NA,KHAMMAM,"5-1-543, FIRSTFLOWER,SAIPRASHANTHICOMPLEX,WYRA ROADKHAMMAM.PINCODE:507002",0,KHAMMAM,KHAMMAM,"ANDHRA PRADESH"
"THE ANDHRA PRADESH STATE COOPERATIVE BANK LIMITED",APBL0022001,NA,HO,"2-1-91,MG ROAD,GANDHI CHOWK KHAMMAM.PINCODE:507003",0,KHAMMAM,KHAMMAM,"ANDHRA PRADESH"
"THE ANDHRA PRADESH STATE COOPERATIVE BANK LIMITED",APBL0021019,NA,WARDHANNAPET,"POST:WARDHANNAPET,MDL:WARDHANNAPET",0,WARDHANNAPET,WARANGAL,"ANDHRA PRADESH"
"THE ANDHRA PRADESH STATE COOPERATIVE BANK LIMITED",APBL0021018,NA,WARANGAL,"POST:WARANGALMDL.WARANGAL,",0,WARANGAL,WARANGAL,"ANDHRA PRADESH"
"THE ANDHRA PRADESH STATE COOPERATIVE BANK LIMITED",APBL0021017,NA,THORRUR,"POST:THORROR,MDL:THORROR,",0,THORRUR,WARANGAL,"ANDHRA PRADESH"
"THE ANDHRA PRADESH STATE COOPERATIVE BANK LIMITED",APBL0021016,NA,PARKAL,"POST:PARKAL,MDL:PARKAL,",0,PARKAL,WARANGAL,"ANDHRA PRADESH"
"THE ANDHRA PRADESH STATE COOPERATIVE BANK LIMITED",APBL0021015,NA,NEKKONDA,"POST:NEKKONDA,MDL:NEKKONDA,",0,NEKKONDA,WARANGAL,"ANDHRA PRADESH"
"THE ANDHRA PRADESH STATE COOPERATIVE BANK LIMITED",APBL0021014,NA,NARASAMPET,"POST:NARSAMPET,MDL:NARSAMPET,",0,NARASAMPET,WARANGAL,"ANDHRA PRADESH"
"THE ANDHRA PRADESH STATE COOPERATIVE BANK LIMITED",APBL0021013,NA,NARMETTA,"POST:NARMETTA.MDL:NARMETTA,",0,NARMETTA,WARANGAL,"ANDHRA PRADESH"
"THE ANDHRA PRADESH STATE COOPERATIVE BANK LIMITED",APBL0021012,NA,MULUG,"POST:MULUG,MDL::MULUG,",0,MULUG,WARANGAL,"ANDHRA PRADESH"
"THE ANDHRA PRADESH STATE COOPERATIVE BANK LIMITED",APBL0021011,NA,MARIPEDA,"POST:MARIPEDA,MDL:MARIPEDA,",0,MARIPEDA,WARANGAL,"ANDHRA PRADESH"
"THE ANDHRA PRADESH STATE COOPERATIVE BANK LIMITED",APBL0021010,NA,MAHBUBABAD,"POST:MAHABOOBABAD,MDL:MAHABOOBABAD,",0,MAHBUBABAD,WARANGAL,"ANDHRA PRADESH"
"THE ANDHRA PRADESH STATE COOPERATIVE BANK LIMITED",APBL0021009,NA,JANGAON,"POST:JANGAON,MDL:JANGAON,",0,JANGAON,WARANGAL,"ANDHRA PRADESH"
"THE ANDHRA PRADESH STATE COOPERATIVE BANK LIMITED",APBL0021008,NA,HANAMKONDA,"POST:HANAMKONDAMDL.HANAMKONDA,",0,WARANGAL,WARANGAL,"ANDHRA PRADESH"
"THE ANDHRA PRADESH STATE COOPERATIVE BANK LIMITED",APBL0021007,NA,GUDUR,"POST:GUDUR,MDL:GUDUR,",0,GUDUR,WARANGAL,"ANDHRA PRADESH"
"THE ANDHRA PRADESH STATE COOPERATIVE BANK LIMITED",APBL0021006,NA,GHANAPUR,"POST:GHANAPUR,MDL:GHANAPUR,",0,GHANAPUR,WARANGAL,"ANDHRA PRADESH"
"THE ANDHRA PRADESH STATE COOPERATIVE BANK LIMITED",APBL0021005,NA,DORNAKAL,"POST:DORNAKAL.MDL:DORNAKAL,",0,DORNAKAL,WARANGAL,"ANDHRA PRADESH"
"THE ANDHRA PRADESH STATE COOPERATIVE BANK LIMITED",APBL0021004,NA,CHERIYAL,"POST:CHERIAL,MDL:CHERIAL,",0,CHERIYAL,WARANGAL,"ANDHRA PRADESH"
"THE ANDHRA PRADESH STATE COOPERATIVE BANK LIMITED",APBL0021003,NA,BHUPALPALLY,"POST:BHOOPALPALLY,MDL:BHOOPALPALLY,",0,BHUPALPALLY,WARANGAL,"ANDHRA PRADESH"
"THE ANDHRA PRADESH STATE COOPERATIVE BANK LIMITED",APBL0021002,NA,ATMAKUR,"POST:ATHMAKUR,MDL:ATHMAKUR,",0,ATMAKUR,WARANGAL,"ANDHRA PRADESH"
"THE ANDHRA PRADESH STATE COOPERATIVE BANK LIMITED",APBL0021001,NA,"H.O BRANCH","SUBEDARI,HANMKONDA",0,WARANGAL,WARANGAL,"ANDHRA PRADESH"
"THE ANDHRA PRADESH STATE COOPERATIVE BANK LIMITED",APBL0020050,WAITING,"KARIMNAGAR DCC BANK - GUNDI GOPALRAOPET","H NO. 1-87/1, GUNDI GOPALRAOPET VILLAGE KARIMNAGAR DIST PINCODE 505531",2288232,"GUNDI GOPALRAOPET",KARIMNAGAR,TELANGANA
"THE ANDHRA PRADESH STATE COOPERATIVE BANK LIMITED",APBL0020049,WAITING,"KARIMNAGAR DCC BANK - CHIGURUMAMIDI","H NO. 12-15, CHIGURUMAMIDI VILLAGE AND MANDAL KARIMNAGAR DIST PINCODE 505467",255437,CHIGURUMAMIDI,KARIMNAGAR,TELANGANA
"THE ANDHRA PRADESH STATE COOPERATIVE BANK LIMITED",APBL0020048,WAITING,"KARIMNAGAR DCC BANK LTD., BRANCH MEDIPALLI NTPC","MAIN ROAD MEDIPALLI NTPC RAMAGUNDAM",7702700543,RAMAGUNDAM,KARIMNAGAR,TELANGANA
"THE ANDHRA PRADESH STATE COOPERATIVE BANK LIMITED",APBL0020047,WAITING,"KARIMNAGAR DCC BANK LTD., BRANCH VELGATOOR","H NO 2 140 1 VELGATOOR MAIN ROAD VELGATOOR",7702700534,VELGATOOR,KARIMNAGAR,TELANGANA
"THE ANDHRA PRADESH STATE COOPERATIVE BANK LIMITED",APBL0020046,WAITING,"KARIMNAGAR DCC BANK LTD., BRANCH GOLLAPALLI","JAGTIAL TO DHARMARAM MAIN ROAD GOLLAPALLI",7702700534,GOLLAPALLI,KARIMNAGAR,TELANGANA
"THE ANDHRA PRADESH STATE COOPERATIVE BANK LIMITED",APBL0020045,WAITING,"KARIMNAGAR DCC BANK LTD., BRANCH PEGADAPALLI","PEGADAPALLI MAIN ROAD NEAR PACS PEGADAPALLI",7702700535,PEGADAPALLI,KARIMNAGAR,TELANGANA
"THE ANDHRA PRADESH STATE COOPERATIVE BANK LIMITED",APBL0020044,WAITING,"KARIMNAGAR DCC BANK LTD., BRANCH IBRAHIMPATNAM","H NO 12 47 MAIN ROAD IBRAHIMPATNAM",7702700538,IBRAHIMPATNAM,KARIMNAGAR,TELANGANA
"THE ANDHRA PRADESH STATE COOPERATIVE BANK LIMITED",APBL0020043,WAITING,"KARIMNAGAR DCC BANK LTD., BRANCH KALVA SRIRAMPUR","H NO 4 72 4 NEAR GRAMOR CENTRE KALVA SRIRAMPUR",7702700540,"KALVA SRIRAMPUR",KARIMNAGAR,TELANGANA
"THE ANDHRA PRADESH STATE COOPERATIVE BANK LIMITED",APBL0020042,WAITING,"KARIMNAGAR DCC BANK LTD., BRANCH RUDRANGI","H NO 8 68 1 LIBRARY BUILDING CHENDURTHI",7702700527,CHENDURTHI,KARIMNAGAR,TELANGANA
"THE ANDHRA PRADESH STATE COOPERATIVE BANK LIMITED",APBL0020041,WAITING,"KARIMNAGAR DCC BANK LTD., BRANCH KATHLAPUR","H NO 3 35 1 MAIN RAOD NEAR ANDHRA BANK KATHALAPUR",7702700539,KATHLAPUR,KARIMNAGAR,TELANGANA
"THE ANDHRA PRADESH STATE COOPERATIVE BANK LIMITED",APBL0020040,WAITING,"KARIMNAGAR DCC BANK LTD., BRANCH VIDYANAGAR","H NO 10-3-102/1 NEAR ST JOHNS SCHOOL MALKAPUR",7702700515,KARIMNAGAR,KARIMNAGAR,TELANGANA
"THE ANDHRA PRADESH STATE COOPERATIVE BANK LIMITED",APBL0020039,WAITING,"KARIMNAGAR DCC BANK LTD., BRANCH ELKATURTHI","H NO 5 98 2C MAIN ROAD ELKATURTHI",7702700523,KARIMNAGAR,KARIMNAGAR,TELANGANA
"THE ANDHRA PRADESH STATE COOPERATIVE BANK LIMITED",APBL0020038,WAITING,"KARIMNAGAR DCC BANK LTD., BRANCH SHANKARAPATNAM","H N O 7 118 2 VILL MDL SHANKARAPATNAM",7702700523,KARIMNAGAR,KARIMNAGAR,TELANGANA
"THE ANDHRA PRADESH STATE COOPERATIVE BANK LIMITED",APBL0020037,WAITING,"KARIMNAGAR DCC BANK LTD., BRANCH MANAKONDUR","H NO 12 25 VILL MDL MANAKONDUR ├╜",7702700516,MANAKONDUR,KARIMNAGAR,TELANGANA
"THE ANDHRA PRADESH STATE COOPERATIVE BANK LIMITED",APBL0020036,505810524,"DISTCOOPBANKLTD KARIMNAGAR MALLAPUR","H NO 5 94 OPP Z P H SCHOOL NEAR BUS STAND MALLAPUR DIST KARIMNAGAR 505331",2262192,MALLAPUR,KARIMNAGAR,"ANDHRA PRADESH"
"THE ANDHRA PRADESH STATE COOPERATIVE BANK LIMITED",APBL0020035,NA,MAIDIPALLY,"MAIN ROAD,  MAIDIPALLY",0,MAIDIPALLY,KARIMNAGAR,"ANDHRA PRADESH"
"THE ANDHRA PRADESH STATE COOPERATIVE BANK LIMITED",APBL0020034,NA,DHARMARAM-MYDARAM,"MAIN ROAD,  DHARMARAM",0,DHARMARAM-MYDARAM,KARIMNAGAR,"ANDHRA PRADESH"
"THE ANDHRA PRADESH STATE COOPERATIVE BANK LIMITED",APBL0020033,NA,"SIRCILLA TOWN","BUS STAND ROAD,  SIRCILLA",0,"SIRCILLA TOWN",KARIMNAGAR,"ANDHRA PRADESH"
"THE ANDHRA PRADESH STATE COOPERATIVE BANK LIMITED",APBL0020032,NA,KAMANPURA,"MAIN ROAD,  KAMANPUR",0,KAMANPURA,KARIMNAGAR,"ANDHRA PRADESH"
"THE ANDHRA PRADESH STATE COOPERATIVE BANK LIMITED",APBL0020031,NA,KODIMIAL,"MARKET ROAD,  KODIMIAL",0,KODIMIAL,KARIMNAGAR,"ANDHRA PRADESH"
"THE ANDHRA PRADESH STATE COOPERATIVE BANK LIMITED",APBL0020030,NA,KONARAOPET,"VILLAGE,  KONARAOPET",0,KONARAOPET,KARIMNAGAR,"ANDHRA PRADESH"
"THE ANDHRA PRADESH STATE COOPERATIVE BANK LIMITED",APBL0020029,NA,YELLAREDDIPET,"MAIN ROAD,  YELLAREDDIPET",0,YELLAREDDIPET,KARIMNAGAR,"ANDHRA PRADESH"
"THE ANDHRA PRADESH STATE COOPERATIVE BANK LIMITED",APBL0020028,NA,VEMULAWADA,"TEMPLE RAOD,  VEMULAWADA",0,VEMULAWADA,KARIMNAGAR,"ANDHRA PRADESH"
"THE ANDHRA PRADESH STATE COOPERATIVE BANK LIMITED",APBL0020027,NA,V.SAIDAPUR,"MAIN RAOD,  SAIDAPUR",0,V.SAIDAPUR,KARIMNAGAR,"ANDHRA PRADESH"
"THE ANDHRA PRADESH STATE COOPERATIVE BANK LIMITED",APBL0020026,NA,"TOWN BRANCH, KARIMNAGAR","NEAR PADMANAYAKA  GARDENS, KARIMNAGAR TOWN",0,"TOWN BRANCH, KARIMNAGAR",KARIMNAGAR,"ANDHRA PRADESH"
"THE ANDHRA PRADESH STATE COOPERATIVE BANK LIMITED",APBL0020025,NA,SULTANABAD,"MAIN ROAD,  SULTANABAD",0,SULTANABAD,KARIMNAGAR,"ANDHRA PRADESH"
"THE ANDHRA PRADESH STATE COOPERATIVE BANK LIMITED",APBL0020024,NA,SIRCILLA,"NEAR POLICE STATION,  SIRCILLA",0,SIRCILLA,KARIMNAGAR,"ANDHRA PRADESH"
"THE ANDHRA PRADESH STATE COOPERATIVE BANK LIMITED",APBL0020023,NA,RAIKAL,"MAIN ROAD,  RAIKAL",0,RAIKAL,KARIMNAGAR,"ANDHRA PRADESH"
"THE ANDHRA PRADESH STATE COOPERATIVE BANK LIMITED",APBL0020022,NA,POTHKAPALLY,"MANDAL HEAD QUARTER,  POTHKAPALLY",0,POTHKAPALLY,KARIMNAGAR,"ANDHRA PRADESH"
"THE ANDHRA PRADESH STATE COOPERATIVE BANK LIMITED",APBL0020021,NA,PEDDAPALLY,"MAIN ROAD,  PEDDAPALLY",0,PEDDAPALLY,KARIMNAGAR,"ANDHRA PRADESH"
"THE ANDHRA PRADESH STATE COOPERATIVE BANK LIMITED",APBL0020020,NA,MUSTABAD,"MAIN ROAD,  MUSTABAD",0,MUSTABAD,KARIMNAGAR,"ANDHRA PRADESH"
"THE ANDHRA PRADESH STATE COOPERATIVE BANK LIMITED",APBL0020019,NA,METPALLY,"MAIN ROAD,  METPALLY",0,METPALLY,KARIMNAGAR,"ANDHRA PRADESH"
"THE ANDHRA PRADESH STATE COOPERATIVE BANK LIMITED",APBL0020018,NA,MANTHANI,"MAIN ROAD,  MANTHANI",0,MANTHANI,KARIMNAGAR,"ANDHRA PRADESH"
"THE ANDHRA PRADESH STATE COOPERATIVE BANK LIMITED",APBL0020017,NA,MANKAMMATHOTA,"MANKAMMATHOTA,  KARIMNAGAR",0,MANKAMMATHOTA,KARIMNAGAR,"ANDHRA PRADESH"
"THE ANDHRA PRADESH STATE COOPERATIVE BANK LIMITED",APBL0020016,NA,MALLIAL,"KOTHAPETA,  MALLIAL",0,MALLIAL,KARIMNAGAR,"ANDHRA PRADESH"
"THE ANDHRA PRADESH STATE COOPERATIVE BANK LIMITED",APBL0020015,NA,KORUTLA,"NIZAMBAD ROAD,  KORUTLA",0,KORUTLA,KARIMNAGAR,"ANDHRA PRADESH"
"THE ANDHRA PRADESH STATE COOPERATIVE BANK LIMITED",APBL0020014,NA,KATARAM,"MAIN ROAD,  KATARAM",0,KATARAM,KARIMNAGAR,"ANDHRA PRADESH"
"THE ANDHRA PRADESH STATE COOPERATIVE BANK LIMITED",APBL0020013,NA,KAMALPUR,"MARKET ROAD,  KAMLAPUR",0,KAMALPUR,KARIMNAGAR,"ANDHRA PRADESH"
"THE ANDHRA PRADESH STATE COOPERATIVE BANK LIMITED",APBL0020012,NA,JAMMIKUNTA,"MAIN ROAD,  JAMMIKUNTA",0,JAMMIKUNTA,KARIMNAGAR,"ANDHRA PRADESH"
"THE ANDHRA PRADESH STATE COOPERATIVE BANK LIMITED",APBL0020011,NA,JAGITYAL,"BESIDE POLICE STATION,  JAGITYAL",0,JAGITYAL,KARIMNAGAR,"ANDHRA PRADESH"
"THE ANDHRA PRADESH STATE COOPERATIVE BANK LIMITED",APBL0020010,NA,HUZURABAD,"MAIN ROAD,  HUZURABAD",0,HUZURABAD,KARIMNAGAR,"ANDHRA PRADESH"
"THE ANDHRA PRADESH STATE COOPERATIVE BANK LIMITED",APBL0020009,NA,HUSNABAD,"MAIN ROAD,  HUSNABAD",0,HUSNABAD,KARIMNAGAR,"ANDHRA PRADESH"
"THE ANDHRA PRADESH STATE COOPERATIVE BANK LIMITED",APBL0020008,NA,GODAVARIKHANI,"LAXMI NAGAR,  GODAVARIKHANI",0,GODAVARIKHANI,KARIMNAGAR,"ANDHRA PRADESH"
"THE ANDHRA PRADESH STATE COOPERATIVE BANK LIMITED",APBL0020007,NA,GANGADHARA,"MAIN ROAD,  GANGADHARA",0,GANGADHARA,KARIMNAGAR,"ANDHRA PRADESH"
"THE ANDHRA PRADESH STATE COOPERATIVE BANK LIMITED",APBL0020006,NA,GAMBHIRAOPET,"NEAR GRAM PANCHAYAT,  GAMBHIRAOPET",0,GAMBHIRAOPET,KARIMNAGAR,"ANDHRA PRADESH"
"THE ANDHRA PRADESH STATE COOPERATIVE BANK LIMITED",APBL0020005,NA,ELLANTHAKUNTA,"MAIN ROAD,  ELLANTAKUNTA",0,ELLANTHAKUNTA,KARIMNAGAR,"ANDHRA PRADESH"
"THE ANDHRA PRADESH STATE COOPERATIVE BANK LIMITED",APBL0020004,NA,DHARMAPURI,"MAIN ROAD,  DHARMAPURI",0,DHARMAPURI,KARIMNAGAR,"ANDHRA PRADESH"
"THE ANDHRA PRADESH STATE COOPERATIVE BANK LIMITED",APBL0020003,NA,CHOPPADANDI,"MAIN ROAD,  CHOPPADANDI",0,CHOPPADANDI,KARIMNAGAR,"ANDHRA PRADESH"
"THE ANDHRA PRADESH STATE COOPERATIVE BANK LIMITED",APBL0020002,NA,BEJJANKI,"MAIN ROAD,  BEJJANKI",0,BEJJANKI,KARIMNAGAR,"ANDHRA PRADESH"
"THE ANDHRA PRADESH STATE COOPERATIVE BANK LIMITED",APBL0020001,NA,KARIMNAGAR,"SIKHWADI,  KARIMNAGAR",0,KARIMNAGAR,KARIMNAGAR,"ANDHRA PRADESH"
"THE ANDHRA PRADESH STATE COOPERATIVE BANK LIMITED",APBL0019029,WAITING,"ADILABAD DCC BANK LTD., BRANCH BELA","DOOR NO 2-38, TANDOOR,RAJIVE COLONY,OPP, HONDA SHOWROOM├╜ ├╜",8498089894,TANDOOR,ADILABAD,TELANGANA
"THE ANDHRA PRADESH STATE COOPERATIVE BANK LIMITED",APBL0019028,WAITING,"ADILABAD DCC BANK LTD., BRANCH BELA","DOOR NO 1-71/3,PACS SIRPUR ,├╜├╜BESIDE MPDO OFFICE PIN 504279├╜ ├╜├╜",8498089905,SIRPUR,ADILABAD,TELANGANA
"THE ANDHRA PRADESH STATE COOPERATIVE BANK LIMITED",APBL0019027,WAITING,"ADILABAD DCC BANK LTD., BRANCH BELA","DOOR NO 3-94, D. LINGA REDDY S/O. MUTHANNA.├╜├╜├╜LAXMANCHANDA├╜├╜ ├╜ ├╜PIN 504231├╜ ├╜ ├╜",8498089817,LAXMANCHANDA,ADILABAD,TELANGANA
"THE ANDHRA PRADESH STATE COOPERATIVE BANK LIMITED",APBL0019026,WAITING,"ADILABAD DCC BANK LTD., BRANCH BELA","ARYASAMKSHEMASANGAM, BUILDING, OPP PACS GURDPET,KOWTHALA",8498089877,KOWTHALA,ADILABAD,TELANGANA
"THE ANDHRA PRADESH STATE COOPERATIVE BANK LIMITED",APBL0019025,WAITING,"ADILABAD DCC BANK LTD., BRANCH BELA","DOOR NO. 1-69/1, MAIN ROAD NEAR MARKET OFFICE, JAINOOR.",8498053865,JAINOOR,ADILABAD,TELANGANA
"THE ANDHRA PRADESH STATE COOPERATIVE BANK LIMITED",APBL0019024,WAITING,"ADILABAD DCC BANK LTD., BRANCH BELA","DOOR NO├╜3-25/1,BESIDE DGB GUDIHATHNOOR├╜PIN 504308├╜├╜ ├╜",8498089831,GUDIHATNOOR,ADILABAD,TELANGANA
"THE ANDHRA PRADESH STATE COOPERATIVE BANK LIMITED",APBL0019023,WAITING,"ADILABAD DCC BANK LTD., BRANCH BELA","DOOR NO 3-255/2,├╜ ├╜ ├╜├╜BESIDE POLICE STATION.├╜ ├╜ DHEGAON,├╜MDL DHEGAON,ADILABAD",8498089877,DEHAGAON,ADILABAD,TELANGANA
"THE ANDHRA PRADESH STATE COOPERATIVE BANK LIMITED",APBL0019022,WAITING,"ADILABAD DCC BANK LTD., BRANCH BELA","DOOR NO├╜5-354,5-355,5-356,MARKET YARD, BELA├╜├╜ ├╜PIN 504309.├╜",8143312768,BELA,ADILABAD,TELANGANA
"THE ANDHRA PRADESH STATE COOPERATIVE BANK LIMITED",APBL0019021,WAITING,MANDAMARRI,"DOOR NO 15-77/8,VIDYANAGAR,MARKET ROAD, MANDAMARI,PIN 504231",8498089881,MANDAMARRI,ADILABAD,TELANGANA
"THE ANDHRA PRADESH STATE COOPERATIVE BANK LIMITED",APBL0019020,WAITING,JANNARAM,"DOOR NO.3-187,NEAR AMBEDKAR STATUE,POST-PONKAL JANNARAM,PINCODE-504205",8498089812,JANNARAM,ADILABAD,TELANGANA
"THE ANDHRA PRADESH STATE COOPERATIVE BANK LIMITED",APBL0019019,NA,THAMSI,"ADILABAD DISTRICT COOPERATIVE CENTRAL BANK LTD., BR. TAMSI, NEAR BUSSTAND, TAMSI ┬û 504312.",0,THAMSI,ADILABAD,"ANDHRA PRADESH"
"THE ANDHRA PRADESH STATE COOPERATIVE BANK LIMITED",APBL0019018,NA,UTNOOR,"ADILABAD DISTRICT COOPERATIVE CENTRAL BANK LTD., BR. UTNOOR, NEAR I.B. UTNOOR ┬û 504311.",0,UTNOOR,ADILABAD,"ANDHRA PRADESH"
"THE ANDHRA PRADESH STATE COOPERATIVE BANK LIMITED",APBL0019017,NA,SARANGPUR,"ADILABAD DISTRICT COOPERATIVE CENTRAL BANK LTD., BR. SARANGAPUR, NEAR BUS STAND, SARANGAPUR- 504110.",0,SARANGPUR,ADILABAD,"ANDHRA PRADESH"
"THE ANDHRA PRADESH STATE COOPERATIVE BANK LIMITED",APBL0019016,NA,"SIRPUR KAGAZNAGAR","ADILABAD DISTRICT COOPERATIVE CENTRAL BANK LTD., BR. S.K.NAGAR, AMBEDKAR CHOWK ROAD, S.K.NAGAR ┬û 504296.",0,"SIRPUR KAGAZNAGAR",ADILABAD,"ANDHRA PRADESH"
"THE ANDHRA PRADESH STATE COOPERATIVE BANK LIMITED",APBL0019015,NA,NIRMAL,"ADILABAD DISTRICT COOPERATIVE CENTRAL BANK LTD., BR. NIRMAL, N.H.7 ROAD, NIRMAL ┬û 504106.",0,NIRMAL,ADILABAD,"ANDHRA PRADESH"
"THE ANDHRA PRADESH STATE COOPERATIVE BANK LIMITED",APBL0019014,NA,MUDHOL,"ADILABAD DISTRICT COOPERATIVE CENTRAL BANK LTD., BR. MUDHOLE, GANDHI CHOWK, MUDHOLE - 504102",0,MUDHOL,ADILABAD,"ANDHRA PRADESH"
"THE ANDHRA PRADESH STATE COOPERATIVE BANK LIMITED",APBL0019013,NA,MANCHERIYAL,"ADILABAD DISTRICT COOPERATIVE CENTRAL BANK LTD., BR. MANCHERIAL, CHENNUR ROAD, RBHV, NEAR DURGA MATA MANDIR, MANCHERIAL-504209",0,MANCHERIYAL,ADILABAD,"ANDHRA PRADESH"
"THE ANDHRA PRADESH STATE COOPERATIVE BANK LIMITED",APBL0019012,NA,LAKSHATHIPET,"ADILABAD DISTRICT COOPERATIVE CENTRAL BANK LTD., BR. LUXETTIPET, MRO OFFICE ROAD, LUXETTIPET- 504125",0,LAKSHATHIPET,ADILABAD,"ANDHRA PRADESH"
"THE ANDHRA PRADESH STATE COOPERATIVE BANK LIMITED",APBL0019011,NA,KHANAPUR,"ADILABAD DISTRICT COOPERATIVE CENTRAL BANK LTD., BR. KHANAPUR, BUS STAND ROAD, KHANAPUR-504203",0,KHANAPUR,ADILABAD,"ANDHRA PRADESH"
"THE ANDHRA PRADESH STATE COOPERATIVE BANK LIMITED",APBL0019010,NA,KALLUR,"ADILABAD DISTRICT COOPERATIVE CENTRAL BANK LTD., BR. KALLUR, MAIN ROAD, KALLUR ┬û 504109.",0,KALLUR,ADILABAD,"ANDHRA PRADESH"
"THE ANDHRA PRADESH STATE COOPERATIVE BANK LIMITED",APBL0019009,NA,JAINAD,"ADILABAD DISTRICT COOPERATIVE CENTRAL BANK LTD., BR. JAINAD, NEAR BUSSTAND, JAINAD-504309.",0,JAINAD,ADILABAD,"ANDHRA PRADESH"
"THE ANDHRA PRADESH STATE COOPERATIVE BANK LIMITED",APBL0019008,NA,ICHODA,"ADILABAD DISTRICT COOPERATIVE CENTRAL BANK LTD., BR. ICHODA, N.H.7 ROAD, ICHODA ┬û 504307.",0,ICHODA,ADILABAD,"ANDHRA PRADESH"
"THE ANDHRA PRADESH STATE COOPERATIVE BANK LIMITED",APBL0019007,NA,CHINNOR,"ADILABAD DISTRICT COOPERATIVE CENTRAL BANK LTD., BR. CHENNUR, GANDHI CHOWK, CHENNUR-504201.",0,CHINNOR,ADILABAD,"ANDHRA PRADESH"
"THE ANDHRA PRADESH STATE COOPERATIVE BANK LIMITED",APBL0019006,NA,BHAINSA,"ADILABAD DISTRICT COOPERATIVE CENTRAL BANK LTD., BR. BHAINSA, NARSIMLU NAGAR, GANDHI ASHRAM, BHAINSA ┬û 504103.",0,BHAINSA,ADILABAD,"ANDHRA PRADESH"
"THE ANDHRA PRADESH STATE COOPERATIVE BANK LIMITED",APBL0019005,NA,BOATH,"ADILABAD DISTRICT COOPERATIVE CENTRAL BANK LTD., BR. BOATH, AGRICULTURE GODOWN ROAD, BOATH ┬û 504304.",0,BOATH,ADILABAD,"ANDHRA PRADESH"
"THE ANDHRA PRADESH STATE COOPERATIVE BANK LIMITED",APBL0019004,NA,BELLAMPALLI,"ADILABAD DISTRICT COOPERATIVE CENTRAL BANK LTD, BR. BELLAMPALLY, BESIDE TELEPHONE EXCHANGE, COLL TAX, BELLAMPALLY-504251",0,BELLAMPALLI,ADILABAD,"ANDHRA PRADESH"
"THE ANDHRA PRADESH STATE COOPERATIVE BANK LIMITED",APBL0019003,NA,ASIFABAD,"ADILABAD DISTRICT COOPERATIVE CENTRAL BANK LTD., BR. ASIFABAD, GANDHI CHOWK, ASIFABAD ┬û 504293.",0,ASIFABAD,ADILABAD,"ANDHRA PRADESH"
"THE ANDHRA PRADESH STATE COOPERATIVE BANK LIMITED",APBL0019002,NA,ADILABAD,"ADILABAD DISTRICT COOPERATIVE CENTRAL BANK LTD., ADILABAD, CINEMA ROAD, ADILABAD ┬û 504001",0,ADILABAD,ADILABAD,"ANDHRA PRADESH"
"THE ANDHRA PRADESH STATE COOPERATIVE BANK LIMITED",APBL0019001,NA,ADILABAD,"ADILABAD DISTRICT COOPERATIVE CENTRAL BANK LTD., ADILABAD, CINEMA ROAD, ADILABAD - 504001",0,ADILABAD,ADILABAD,"ANDHRA PRADESH"
"THE ANDHRA PRADESH STATE COOPERATIVE BANK LIMITED",APBL0018051,WAITING,"NIZAMABAD DIST COOP CENTRAL BANK LTD DONGLI","H.NO 2-49/3,BASWESHWARA CHOWK, DONGLI",9666408845,MADNOOR,KAMAREDDY,TELANGANA
"THE ANDHRA PRADESH STATE COOPERATIVE BANK LIMITED",APBL0018050,WAITING,"NIZAMABAD DIST COOP CENTRAL BANK LTD BODHAN","H.NO 1-4-1263/1,GOUSHALA COMPLEX,BODHAN",9666408836,BODHAN,NIZAMABAD,TELANGANA
"THE ANDHRA PRADESH STATE COOPERATIVE BANK LIMITED",APBL0018049,WAITING,"NIZAMABAD DIST COOP CENTRAL BANK LTD BASWAPUR","H.NO 1-29,BASWAPUR,BHIKNOOR MANDAL",9666408848,BHIKNOOR,KAMAREDDY,TELANGANA
"THE ANDHRA PRADESH STATE COOPERATIVE BANK LIMITED",APBL0018048,WAITING,"NIZAMABAD DIST COOP CENTRAL BANK LTD RAMAREDDY","H.NO 7-55/24/P/1,RAMAREDDY VILLAGE & MANDAL",9666408849,RAMAREDDY,KAMAREDDY,TELANGANA
"THE ANDHRA PRADESH STATE COOPERATIVE BANK LIMITED",APBL0018047,WAITING,"NIZAMABAD DIST COOP CENTRAL BANK LTD KAMAREDDY GUNJ","H.NO 1-6-130,GUNJ KAMAREDDY",9666408846,KAMAREDDY,KAMAREDDY,TELANGANA
"THE ANDHRA PRADESH STATE COOPERATIVE BANK LIMITED",APBL0018046,WAITING,"NIZAMABAD DIST COOP CENTRAL BANK LTD MENDORA","H.NO 5-68/6,MENDORA VILLAGE & MANDAL",9666408828,MENDORA,NIZAMABAD,TELANGANA
"THE ANDHRA PRADESH STATE COOPERATIVE BANK LIMITED",APBL0018045,WAITING,"NIZAMABAD DIST COOP CENTRAL BANK LTD DEVUNIPALLY","H.NO 4-37/2,TADWAI ROAD,KAMAREDDY",8096437666,KAMAREDDY,KAMAREDDY,TELANGANA
"THE ANDHRA PRADESH STATE COOPERATIVE BANK LIMITED",APBL0018044,WAITING,"NIZAMABAD DIST COOP CENTRAL BANK LTD VANNEL K","H.NO 4-66,VANNEL( K ), NANDIPET MANDAL",8499990827,NANDIPET,NIZAMABAD,TELANGANA
"THE ANDHRA PRADESH STATE COOPERATIVE BANK LIMITED",APBL0018043,WAITING,"NIZAMABAD DIST COOP CENTRAL BANK LTD MARAMPALLY","H.NO 4-35/18,MARAMPALLY, NANDIPET MANDAL",9666408827,NANDIPET,NIZAMABAD,TELANGANA
"THE ANDHRA PRADESH STATE COOPERATIVE BANK LIMITED",APBL0018042,WAITING,"NIZAMABAD DIST COOP CENTRAL BANK LTD HANMAJIPET","H.NO 3-52,HANMAJIPET, BANSWADA MANDAL",9666408841,BANSWADA,KAMAREDDY,TELANGANA
"THE ANDHRA PRADESH STATE COOPERATIVE BANK LIMITED",APBL0018041,NA,JUKKAL,"PACS BUILDING JUKKAL MANDAL JUKKAL",8499990826,JUKKAL,NIZAMABAD,TELANGANA
"THE ANDHRA PRADESH STATE COOPERATIVE BANK LIMITED",APBL0018040,NA,KAMMARPALLY,"JAGITYAK ROAD KAMMARPALLY",8499990826,KAMMARPALLY,NIZAMABAD,TELANGANA
"THE ANDHRA PRADESH STATE COOPERATIVE BANK LIMITED",APBL0018039,NA,MAKLOOR,"OPP THASILDAR OFFICE, MAHAPUR, MDL MAKLOOR",0,MAKLOOR,NIZAMABAD,"ANDHRA PRADESH"
"THE ANDHRA PRADESH STATE COOPERATIVE BANK LIMITED",APBL0018038,NA,MACHAREDDY,"SIDDIPET ROAD, MACHAREDDY COURASTHA, MDL. MACHAREDDY",0,MACHAREDDY,NIZAMABAD,"ANDHRA PRADESH"
"THE ANDHRA PRADESH STATE COOPERATIVE BANK LIMITED",APBL0018037,NA,BIBIPET,"OPP BUSTAND, PACS BUILDING, BIBIPET, MDL DOMAKONDA",0,BIBIPET,NIZAMABAD,"ANDHRA PRADESH"
"THE ANDHRA PRADESH STATE COOPERATIVE BANK LIMITED",APBL0018036,NA,JAKKARAMPALLY,"OPP ZP HIGH SCHOOL, MAIN ROAD JAKRANPALLY",0,JAKKARAMPALLY,NIZAMABAD,"ANDHRA PRADESH"
"THE ANDHRA PRADESH STATE COOPERATIVE BANK LIMITED",APBL0018035,NA,BALKONDA,"VENNAL X ROAD, PLANE BUILDING, BALKONDA",0,BALKONDA,NIZAMABAD,"ANDHRA PRADESH"
"THE ANDHRA PRADESH STATE COOPERATIVE BANK LIMITED",APBL0018034,NA,TADWAI,"NEAR GRAM PANCHAYAT, MAIN ROAD, TADWAI",0,TADWAI,NIZAMABAD,"ANDHRA PRADESH"
"THE ANDHRA PRADESH STATE COOPERATIVE BANK LIMITED",APBL0018033,NA,LINGAMPET,"C/O BALAGOUD QUARTERS, MAIN ROAD, LINGAMPET, MDL LINGAMPET",0,LINGAMPET,NIZAMABAD,"ANDHRA PRADESH"
"THE ANDHRA PRADESH STATE COOPERATIVE BANK LIMITED",APBL0018032,NA,YERGATLA,"YERGATLA, VIA KAMMARPALLY, MANDAL MORTHAD",0,YERGATLA,NIZAMABAD,"ANDHRA PRADESH"
"THE ANDHRA PRADESH STATE COOPERATIVE BANK LIMITED",APBL0018031,NA,YELLAREDDY,"MAIN ROAD, YELLAREDDY, MANDAL YELLAREDDY",0,YELLAREDDY,NIZAMABAD,"ANDHRA PRADESH"
"THE ANDHRA PRADESH STATE COOPERATIVE BANK LIMITED",APBL0018030,NA,VELPUR,"VELPOOR,MANDAL VELPOOR",0,VELPUR,NIZAMABAD,"ANDHRA PRADESH"
"THE ANDHRA PRADESH STATE COOPERATIVE BANK LIMITED",APBL0018029,NA,VARNI,"NEAR BUSSTAND, SN PURAM, VARNI, MANDAL VARNI",0,VARNI,NIZAMABAD,"ANDHRA PRADESH"
"THE ANDHRA PRADESH STATE COOPERATIVE BANK LIMITED",APBL0018028,NA,SIRIKONDA,"OPP. POLICE STATION, SIRIKONDA, MANDAL SIRIKONDA",0,SIRIKONDA,NIZAMABAD,"ANDHRA PRADESH"
"THE ANDHRA PRADESH STATE COOPERATIVE BANK LIMITED",APBL0018027,NA,SADASIVNAGAR,"NEAR POLICE STATION, SADASHIVNAGAR, MANDAL SADASHIVNAGAR",0,SADASIVNAGAR,NIZAMABAD,"ANDHRA PRADESH"
"THE ANDHRA PRADESH STATE COOPERATIVE BANK LIMITED",APBL0018026,NA,NIZAMABAD,"BESIDE SRI KRISHNA TEMPLE, KANTESWAR, NIZAMABAD",0,NIZAMABAD,NIZAMABAD,"ANDHRA PRADESH"
"THE ANDHRA PRADESH STATE COOPERATIVE BANK LIMITED",APBL0018025,NA,RANJERLA,"OPP. SRGB, RENJARLA, MANDAL BALKONDA",0,RANJERLA,NIZAMABAD,"ANDHRA PRADESH"
"THE ANDHRA PRADESH STATE COOPERATIVE BANK LIMITED",APBL0018024,NA,ARMOOR,"BESIDE VIJAY PUBLIC SCHOOL, MJ HOSPITAL ROAD, ARMOOR",0,ARMOOR,NIZAMABAD,"ANDHRA PRADESH"
"THE ANDHRA PRADESH STATE COOPERATIVE BANK LIMITED",APBL0018023,NA,PITLAM,"NEAR BUSSTAND, PITLAM, MANDAL PITLAM",0,PITLAM,NIZAMABAD,"ANDHRA PRADESH"
"THE ANDHRA PRADESH STATE COOPERATIVE BANK LIMITED",APBL0018022,NA,NIZAMSAGAR,"OPP SBH, NIZAMSAGAR, MANDAL NIZAMSAGAR",0,NIZAMSAGAR,NIZAMABAD,"ANDHRA PRADESH"
"THE ANDHRA PRADESH STATE COOPERATIVE BANK LIMITED",APBL0018021,NA,NIZAMABAD,"SIRNAPALLYGADI, GOLE HANUMAN, NIZAMABAD",0,NIZAMABAD,NIZAMABAD,"ANDHRA PRADESH"
"THE ANDHRA PRADESH STATE COOPERATIVE BANK LIMITED",APBL0018020,NA,NAVIPET,"NEAR BUSSTAND, NAVIPET, MANDAL NAVIPET",0,NAVIPET,NIZAMABAD,"ANDHRA PRADESH"
"THE ANDHRA PRADESH STATE COOPERATIVE BANK LIMITED",APBL0018019,NA,VARNI,"MAIN ROAD, NASRULLABAD, BIRKKUR MANDAL",0,VARNI,NIZAMABAD,"ANDHRA PRADESH"
"THE ANDHRA PRADESH STATE COOPERATIVE BANK LIMITED",APBL0018018,NA,NANDIPET,"MAIN ROAD, NANDIPET, MANDAL NANDIPET",0,NANDIPET,NIZAMABAD,"ANDHRA PRADESH"
"THE ANDHRA PRADESH STATE COOPERATIVE BANK LIMITED",APBL0018017,NA,NAGIREDDIPET,"NAGIREDDYPET, MANDAL YELLAREDDY",0,NAGIREDDIPET,NIZAMABAD,"ANDHRA PRADESH"
"THE ANDHRA PRADESH STATE COOPERATIVE BANK LIMITED",APBL0018016,NA,MORTAD,"RATHAM ROAD, MARKET ROAD, MORTHAD",0,MORTAD,NIZAMABAD,"ANDHRA PRADESH"
"THE ANDHRA PRADESH STATE COOPERATIVE BANK LIMITED",APBL0018015,NA,MADNOOR,"MAIN ROAD, OPP. HANUMAN TEMPLE, MADNOOR, MANDAL MADNOOR",0,MADNOOR,NIZAMABAD,"ANDHRA PRADESH"
"THE ANDHRA PRADESH STATE COOPERATIVE BANK LIMITED",APBL0018014,NA,KOTGIRI,"OPP. MPDO OFFICE, KOTGIR, MANDAL KOTGIR",0,KOTGIRI,NIZAMABAD,"ANDHRA PRADESH"
"THE ANDHRA PRADESH STATE COOPERATIVE BANK LIMITED",APBL0018013,NA,KAMAREDDY,"NH 7 ROAD, OPP. ABHAYA HOSPITAL, KAMAREDDY",0,KAMAREDDY,NIZAMABAD,"ANDHRA PRADESH"
"THE ANDHRA PRADESH STATE COOPERATIVE BANK LIMITED",APBL0018012,NA,GANDHARI,"MAIN ROAD, GANDHARI, MANDAL GANDHARI",0,GANDHARI,NIZAMABAD,"ANDHRA PRADESH"
"THE ANDHRA PRADESH STATE COOPERATIVE BANK LIMITED",APBL0018011,NA,DOMAKONDA,"OPP. GOVT HOSPITAL, DOMAKONDA, MANDAL DOMAKONDA",0,DOMAKONDA,NIZAMABAD,"ANDHRA PRADESH"
"THE ANDHRA PRADESH STATE COOPERATIVE BANK LIMITED",APBL0018010,NA,DICHPALLY,"MAIN ROAD, DICHPALLY, MANDAL DICHPALLY",0,DICHPALLY,NIZAMABAD,"ANDHRA PRADESH"
"THE ANDHRA PRADESH STATE COOPERATIVE BANK LIMITED",APBL0018009,NA,DARPALLY,"DHARPALLY, MANDAL DHARPALLY",0,DARPALLY,NIZAMABAD,"ANDHRA PRADESH"
"THE ANDHRA PRADESH STATE COOPERATIVE BANK LIMITED",APBL0018008,NA,BODHAN,"BESIDE POLICE STATION, NARSI ROAD, BODHAN",0,BODHAN,NIZAMABAD,"ANDHRA PRADESH"
"THE ANDHRA PRADESH STATE COOPERATIVE BANK LIMITED",APBL0018007,NA,BHIRKUR,"PACS BUILDING, BIRKUR, MANDAL BIRKUR",0,BHIRKUR,NIZAMABAD,"ANDHRA PRADESH"
"THE ANDHRA PRADESH STATE COOPERATIVE BANK LIMITED",APBL0018006,NA,BICHKUNDA,"BICHKUNDA, MANDAL BICHKUNDA",0,BICHKUNDA,NIZAMABAD,"ANDHRA PRADESH"
"THE ANDHRA PRADESH STATE COOPERATIVE BANK LIMITED",APBL0018005,NA,BHIKNUR,"OPP. BUSSTAND, BHIKNOOR, MANDAL DOMAKONDA",0,BHIKNUR,NIZAMABAD,"ANDHRA PRADESH"
"THE ANDHRA PRADESH STATE COOPERATIVE BANK LIMITED",APBL0018004,NA,BHEEMGAL,"NEAR BUSSTAND, BHEEMGAL, MANDAL BHEEMGAL",0,BHEEMGAL,NIZAMABAD,"ANDHRA PRADESH"
"THE ANDHRA PRADESH STATE COOPERATIVE BANK LIMITED",APBL0018003,NA,BANSWADA,"2-4-67, OPP FOREST OFFICE, YELLAREDDY ROAD, BANSWADA",0,BANSWADA,NIZAMABAD,"ANDHRA PRADESH"
"THE ANDHRA PRADESH STATE COOPERATIVE BANK LIMITED",APBL0018002,NA,ARMOOR,"OPP. R& B GUEST HOUSE, GANDHI  ROAD, ARMOOR",0,ARMOOR,NIZAMABAD,"ANDHRA PRADESH"
"THE ANDHRA PRADESH STATE COOPERATIVE BANK LIMITED",APBL0018001,NA,NIZAMABAD,"BESIDE RDO OFFICE, YELLAMMAGUTTA, NIZAMABAD",0,NIZAMABAD,NIZAMABAD,"ANDHRA PRADESH"
"THE ANDHRA PRADESH STATE COOPERATIVE BANK LIMITED",APBL0017039,WAITING,"MEDAK DCC BANK LTD., BRANCH SIDDIPET","H NO 4-3-11, SIDDIPET, SIDDIPET (D) - 502103",8466995822,SIDDIPET,SIDDIPET,TELANGANA
"THE ANDHRA PRADESH STATE COOPERATIVE BANK LIMITED",APBL0017038,WAITING,"MEDAK DCC BANK LTD., BRANCH RAMACHANDRAPURAM","H NO 4-46 NEAR BHEL BUS DEPOT, X ROAD, RACHANDRAPURAM, HYDERABAD - 500032",8466995822,SANGAREDDY,SANGAREDDY,TELANGANA
"THE ANDHRA PRADESH STATE COOPERATIVE BANK LIMITED",APBL0017037,WAITING,"MEDAK DCC BANK LTD., BRANCH PULKAL","H NO 1-6, PULKAL (V) & (M), SANGAREDDY (D) - 502293",8466995822,SANGAREDDY,SANGAREDDY,TELANGANA
"THE ANDHRA PRADESH STATE COOPERATIVE BANK LIMITED",APBL0017036,WAITING,"MEDAK DCC BANK LTD., BRANCH POTHIREDDYPALLY X ROADS","H NO 96 MIG PHASE 2, SITE 1, POTHIREDDYPALLY, SANGAREDDY - 502295",8466995822,SANGAREDDY,SANGAREDDY,TELANGANA
"THE ANDHRA PRADESH STATE COOPERATIVE BANK LIMITED",APBL0017035,WAITING,"MEDAK DCC BANK LTD., BRANCH MULUGU","H NO 4-74/1, VONTIMAMIDI (V), MULUGU (M), SIDDIPET (D) - 502279",8466995822,SIDDIPET,SIDDIPET,TELANGANA
"THE ANDHRA PRADESH STATE COOPERATIVE BANK LIMITED",APBL0017034,WAITING,"MEDAK DCC BANK LTD., BRANCH KONDAPAK","H NO 3-82, KONDAPAK (V), KONDAPAK (M), SIDDIPET (D) - 502372",8466995822,SIDDIPET,SIDDIPET,TELANGANA
"THE ANDHRA PRADESH STATE COOPERATIVE BANK LIMITED",APBL0017033,WAITING,"MEDAK DCC BANK LTD., BRANCH KOHIR","SS COMPLEX, KOHIR (V) & (M), SANGAREDDY (D) - 502210",8466995822,SANGAREDDY,SANGAREDDY,TELANGANA
"THE ANDHRA PRADESH STATE COOPERATIVE BANK LIMITED",APBL0017032,WAITING,"MEDAK DCC BANK LTD., BRANCH JAGDEVPUR","JAGDEVPUR (V), JAGDEVPUR (M), SIDDIPET (D)",8466995822,SIDDIPET,SIDDIPET,TELANGANA
"THE ANDHRA PRADESH STATE COOPERATIVE BANK LIMITED",APBL0017031,WAITING,"MEDAK DCC BANK LTD., BRANCH CHINNAKODUR","PLOT NO 909, BESIDE TELANGANA TALLI VIGRAHAM, CHINNAKODURU (M), SIDDIPET (D) - 502276",8466995822,SIDDIPET,SIDDIPET,TELANGANA
"THE ANDHRA PRADESH STATE COOPERATIVE BANK LIMITED",APBL0017030,WAITING,"MEDAK DCC BANK LTD., BRANCH AMEENPUR","PLOT NO 4, H NO 16-107/11/4, ICRISAT COLONY, NEAR WATER TANK, BEERAMGUDA, AMEENPUR (M), SANGAREDDY (D) - 502032",8466995822,SANGAREDDY,SANGAREDDY,TELANGANA
"THE ANDHRA PRADESH STATE COOPERATIVE BANK LIMITED",APBL0017029,WAITING,"MEDAK DCC BANK LTD., BRANCH KOWDIPALLE","SURVEY NO 157, KOWDIPALLY (V), BESIDE PETROL BUNK, KOWDIPALLY (V) & (M), MEDAK (D) - 502316",8466995822,MEDAK,MEDAK,TELANGANA
"THE ANDHRA PRADESH STATE COOPERATIVE BANK LIMITED",APBL0017028,WAITING,"MEDAK DCC BANK LTD., BRANCH KALLAKAL","H NO 4-34/B, KALLAKAL (V), TOOPRAN (M), MEDAK (D) - 502334",8466995822,MEDAK,MEDAK,TELANGANA
"THE ANDHRA PRADESH STATE COOPERATIVE BANK LIMITED",APBL0017027,WAITING,"MEDAK DCC BANK LTD., BRANCH ISNAPUR","H NO 6-98, ISNAPUR X ROAD, PASHAMMYLARAM INDUSTRIAL ROAD, PATANCHERU (M), SANGAREDDY (D) - 502307",8466995822,SANGAREDDY,SANGAREDDY,TELANGANA
"THE ANDHRA PRADESH STATE COOPERATIVE BANK LIMITED",APBL0017026,WAITING,"MEDAK DCC BANK LTD., BRANCH DOULTHABAD","H NO 5-49, GAJWEL ROAD, DOULTHABAD - II, DOULTHABAD (M), MEDAK (D) - 502247",8466995822,MEDAK,MEDAK,TELANGANA
"THE ANDHRA PRADESH STATE COOPERATIVE BANK LIMITED",APBL0017025,WAITING,"MEDAK DCC BANK LTD., BRANCH GUMMADIDALA","H NO 1-100/18/1 SURVEY NO 448, GUMMADIDALA, OPP HANUMAN TEMPLE, GUMMADIDALA (M), MEDAK (D) - 502313",8466995822,MEDAK,MEDAK,TELANGANA
"THE ANDHRA PRADESH STATE COOPERATIVE BANK LIMITED",APBL0017024,NA,SHANKARAMPET,"NEAR JR.COLLEGE MAIN ROAD SHANKARAMPET PIN:502248",0,SHANKARAMPET,SANGAREDDY,"ANDHRA PRADESH"
"THE ANDHRA PRADESH STATE COOPERATIVE BANK LIMITED",APBL0017023,NA,JARASANGAM,"OPP. ZPHS JHARASANGAM 502246",0,JARASANGAM,SANGAREDDY,"ANDHRA PRADESH"
"THE ANDHRA PRADESH STATE COOPERATIVE BANK LIMITED",APBL0017022,NA,SANGAREDDY,"NEAR TRINETRA COMPLEX EXTN COUNTER SANGAREDDY-502001",0,SANGAREDDY,SANGAREDDY,"ANDHRA PRADESH"
"THE ANDHRA PRADESH STATE COOPERATIVE BANK LIMITED",APBL0017021,NA,SANGAREDDY,"NEAR ZILLA PARISHAT HEAD OFFICE SANGAREDDY-502001",0,SANGAREDDY,SANGAREDDY,"ANDHRA PRADESH"
"THE ANDHRA PRADESH STATE COOPERATIVE BANK LIMITED",APBL0017020,NA,ZAHEERABAD,"H.NO. 3-3-97/1 SUBASH GUNJ. MAIN ROAD ZAHEERABAD-502220",0,ZAHEERABAD,SANGAREDDY,"ANDHRA PRADESH"
"THE ANDHRA PRADESH STATE COOPERATIVE BANK LIMITED",APBL0017019,NA,YELDURTHY,"NEAR AMBEDKAR STATUE, MEDAK CIRCLE YELDURTHY- 502255",0,YELDURTHY,SANGAREDDY,"ANDHRA PRADESH"
"THE ANDHRA PRADESH STATE COOPERATIVE BANK LIMITED",APBL0017018,NA,TOOPRAN,"NEAR POLICE STATION, MAIN ROAD TOOPRAN PIN: 502334",0,TOOPRAN,SANGAREDDY,"ANDHRA PRADESH"
"THE ANDHRA PRADESH STATE COOPERATIVE BANK LIMITED",APBL0017017,NA,SIDDIPET,"H.NO. 7-1-56/4 SUBASH ROAD, SHIVA COMPLEX, SIDDIPET PIN: 502103",0,SIDDIPET,SANGAREDDY,"ANDHRA PRADESH"
"THE ANDHRA PRADESH STATE COOPERATIVE BANK LIMITED",APBL0017016,NA,SHANKARAMPET,"NEAR POST OFFICE REGODE ROAD SHANKARAMPET PIN: 502271",0,SHANKARAMPET,SANGAREDDY,"ANDHRA PRADESH"
"THE ANDHRA PRADESH STATE COOPERATIVE BANK LIMITED",APBL0017015,NA,SANGAREDDY,"FRIDAY MARKET ROAD SANGAREDDY-502001",0,SANGAREDDY,SANGAREDDY,"ANDHRA PRADESH"
"THE ANDHRA PRADESH STATE COOPERATIVE BANK LIMITED",APBL0017014,NA,SADASHIVPET,"NEAR BOMBAY TALKIES N.H.9, MAIN ROAD SADASIVPET-502291",0,SADASHIVPET,SANGAREDDY,"ANDHRA PRADESH"
"THE ANDHRA PRADESH STATE COOPERATIVE BANK LIMITED",APBL0017013,NA,RAMAYANPET,"H.NO. 15-73/1/10, RAJENDRANAGAR RAMAYAMPET PIN: 502101",0,RAMAYANPET,SANGAREDDY,"ANDHRA PRADESH"
"THE ANDHRA PRADESH STATE COOPERATIVE BANK LIMITED",APBL0017012,NA,PATANCHERU,"NEAR BUS STAND , OPP BJP OFFICE , MAIN ROAD PATANCHERU",0,PATANCHERU,SANGAREDDY,"ANDHRA PRADESH"
"THE ANDHRA PRADESH STATE COOPERATIVE BANK LIMITED",APBL0017011,NA,PAPANNAPET,"H.NO. 10-93/1 OPP: M.R.O OFFICE, MAIN ROAD PAPANNAPET PIN: 502303",0,PAPANNAPET,SANGAREDDY,"ANDHRA PRADESH"
"THE ANDHRA PRADESH STATE COOPERATIVE BANK LIMITED",APBL0017010,NA,NARSAPUR,"NEAR MANDAL OFFICE HYDERABAD ROAD NARSAPUR PIN: 502313",0,NARSAPUR,SANGAREDDY,"ANDHRA PRADESH"
"THE ANDHRA PRADESH STATE COOPERATIVE BANK LIMITED",APBL0017009,NA,NARAYANKHED,"OPP BUS STAND, MAIN ROAD NARAYANKHED-502286",0,NARAYANKHED,SANGAREDDY,"ANDHRA PRADESH"
"THE ANDHRA PRADESH STATE COOPERATIVE BANK LIMITED",APBL0017008,NA,"HEAD OFFICE","H.NO.1-9-2/2/31 1ST FLOOR GKR COMPLEX, MAIN ROAD MEDAK PIN:502110",0,MEDAK,SANGAREDDY,"ANDHRA PRADESH"
"THE ANDHRA PRADESH STATE COOPERATIVE BANK LIMITED",APBL0017007,NA,MAMBOJIPALLY,"NEAR NDSL SUGAR FACTORY, POST MACHAVARAM MAMBOJIPALLY 502109",0,MEDAK,SANGAREDDY,"ANDHRA PRADESH"
"THE ANDHRA PRADESH STATE COOPERATIVE BANK LIMITED",APBL0017006,NA,JOGIPET,"H.NO. 9-66 NEAR BUS STAND, MAIN ROAD JOGIPET : 502270",0,JOGIPET,SANGAREDDY,"ANDHRA PRADESH"
"THE ANDHRA PRADESH STATE COOPERATIVE BANK LIMITED",APBL0017005,NA,GAJWEL,"MUTRAJPALLY ROAD, NEAR POLICE STATION GAJWEL,:5022278",0,GAJWEL,SANGAREDDY,"ANDHRA PRADESH"
"THE ANDHRA PRADESH STATE COOPERATIVE BANK LIMITED",APBL0017004,NA,DUBBAK,"H.NO. 1-37/1 NEAR BSNL OFFICE DUBBAK  502108",0,DUBBAK,SANGAREDDY,"ANDHRA PRADESH"
"THE ANDHRA PRADESH STATE COOPERATIVE BANK LIMITED",APBL0017003,NA,DOULTHABAD,"OPP: OLD CINIMA THEATRE, DOULTABAD MANDAL HATHNOORA  502296",0,DOULTHABAD,SANGAREDDY,"ANDHRA PRADESH"
"THE ANDHRA PRADESH STATE COOPERATIVE BANK LIMITED",APBL0017002,NA,CHEGUNTA,"MAHANKALI STREET, MEDAK ROAD, CHEGUNTA-502255",0,CHEGUNTA,SANGAREDDY,"ANDHRA PRADESH"
"THE ANDHRA PRADESH STATE COOPERATIVE BANK LIMITED",APBL0017001,NA,SANGAREDDY,"NEAR ZILLA PARISHAT HEAD OFFICE SANGAREDDY-502001",0,SANGAREDDY,SANGAREDDY,"ANDHRA PRADESH"
"THE ANDHRA PRADESH STATE COOPERATIVE BANK LIMITED",APBL0015027,NA,SHAMSHABAD,"H.NO.208,PLOT NO.236, RAALAGUDA ROAD, SHAMSHABAD.",0,SHAMSHABAD,SHAMSHABAD,"ANDHRA PRADESH"
"THE ANDHRA PRADESH STATE COOPERATIVE BANK LIMITED",APBL0015025,NA,"GANDIMYSAMMA X ROAD","D. NO. 3-96/2, PLOT NO.7,8,9, GANDIMAISAMMA X ROAD, DOOLA POCHAMPALLY, QUTHBULLAPUR MANDAL, RANGA REDDY DISTRICT - 500 043",0,HYDERABAD,"RANGA REDDY","ANDHRA PRADESH"
"THE ANDHRA PRADESH STATE COOPERATIVE BANK LIMITED",APBL0015024,NA,SERI-LINGAMPALLY,"D. NO.1-5-8/A JAGADESH COMPLEX,TARANAGARR.R DIST-502032",0,SERI-LINGAMPALLY,"RANGA REDDY","ANDHRA PRADESH"
"THE ANDHRA PRADESH STATE COOPERATIVE BANK LIMITED",APBL0015023,NA,MOINABAD,"DOOR NO.6-152/2,GROUND FLOOR,SHIVANAGAR COLONY,MINABAD R.R DIST. - 501 503",0,MOINABAD,"RANGA REDDY","ANDHRA PRADESH"
"THE ANDHRA PRADESH STATE COOPERATIVE BANK LIMITED",APBL0015022,NA,"THE HYDERABAD DCCB LTD","PLOT NO.1,SARVA SUKI COLONY,BESIDE PADMASHALI BHAVAN,WEST MAREDPALLY,SECUNDERABAD 500 026",0,SECUNDERABAD,HYDERABAD,"ANDHRA PRADESH"
"THE ANDHRA PRADESH STATE COOPERATIVE BANK LIMITED",APBL0015021,NA,VIKARABAD,"H. NO. 4-1-184/A NEAR GUNJ, ALAMPALLY ROAD, VIKARABAD VILLAGE & MANDAL, RANGA REDDY DISTRICT - 501 101",0,VIKARABAD,"RANGA REDDY","ANDHRA PRADESH"
"THE ANDHRA PRADESH STATE COOPERATIVE BANK LIMITED",APBL0015020,NA,"WEST MAREDPALLY","AP TRANSCO COMPOUND KHAIRATABAD, HYDERABAD - 82 040-23441232",23441232,HYDERABAD,HYDERABAD,"ANDHRA PRADESH"
"THE ANDHRA PRADESH STATE COOPERATIVE BANK LIMITED",APBL0015019,NA,VASANTHANAGAR,"D. NO. 7-829, SHOPPING COMPLEX, VASANTHANAGAR COLONY, KUKATPALLY, HYDERABAD - 500 085",0,HYDERABAD,HYDERABAD,"ANDHRA PRADESH"
"THE ANDHRA PRADESH STATE COOPERATIVE BANK LIMITED",APBL0015018,NA,TANDUR,"D. NO. 1-3-90, CHINCHOLI ROAD, TANDUR, RANGA REDDY DISTRICT - 501 141",0,TANDUR,"RANGA REDDY","ANDHRA PRADESH"
"THE ANDHRA PRADESH STATE COOPERATIVE BANK LIMITED",APBL0015017,NA,SHANKARAPALLI,"D. NO.8-81/1, SHANKARPALLY VILLAGE & MANDAL, RR DISTRICT 501 203",0,SHANKARAPALLI,"RANGA REDDY","ANDHRA PRADESH"
"THE ANDHRA PRADESH STATE COOPERATIVE BANK LIMITED",APBL0015016,NA,VANASTHALIPURAM,"D. NO. 6-5-175/C 2-90, SELF FINANCE COLONY, OPP: VYSYA BANK, VANASTHALIPURAM, HYDERABAD - 500 070",0,HYDERABAD,HYDERABAD,"ANDHRA PRADESH"
"THE ANDHRA PRADESH STATE COOPERATIVE BANK LIMITED",APBL0015015,NA,UPPAL,"D. NO. 3-9-90/3, SHARADANAGAR, RAMANTHAPUR, HYDERABAD - 500 013",0,UPPAL,"RANGA REDDY","ANDHRA PRADESH"
"THE ANDHRA PRADESH STATE COOPERATIVE BANK LIMITED",APBL0015014,NA,PARGI,"D. NO. 2-75/4, OPP: MUNSIF COURT, PARGI VILLAGE & MANDAL,  RR DIST - 501 501",0,PARGI,"RANGA REDDY","ANDHRA PRADESH"
"THE ANDHRA PRADESH STATE COOPERATIVE BANK LIMITED",APBL0015013,NA,MOMINPET,"D. NO. 8-123/A, MAIN ROAD, MOMINPET VILLAGE & MANDAL, RANGA REDDY DISTRICT - 501 202",0,MOMINPET,"RANGA REDDY","ANDHRA PRADESH"
"THE ANDHRA PRADESH STATE COOPERATIVE BANK LIMITED",APBL0015012,NA,MOHAMMADABAD,"D. NO. 7-94, TANDUR ROAD, MOHAMMADABAD, MANDAL GANDEED, RR DIST - 509 337",0,MOHAMMADABAD,"RANGA REDDY","ANDHRA PRADESH"
"THE ANDHRA PRADESH STATE COOPERATIVE BANK LIMITED",APBL0015011,NA,MEDCHAL,"BESIDE LAXMAMMA HIGH SCHOOL, MEDCHAL VILLAGE & MANDAL, RANGA REDDY DISTRICT - 501 401",0,MEDCHAL,"RANGA REDDY","ANDHRA PRADESH"
"THE ANDHRA PRADESH STATE COOPERATIVE BANK LIMITED",APBL0015010,NA,MAHESHWARAM,"D. NO. 7-81, MDO OFFICE ROAD, MAHESHWARAM, RANGA REDDY DISTRICT - 501 359",0,MAHESHWARAM,"RANGA REDDY","ANDHRA PRADESH"
"THE ANDHRA PRADESH STATE COOPERATIVE BANK LIMITED",APBL0015009,NA,NAMPALLY,"DOOR NO.5-4-448, NAMPALLY STATION ROAD, HYDERABAD - 500 004",0,HYDERABAD,HYDERABAD,"ANDHRA PRADESH"
"THE ANDHRA PRADESH STATE COOPERATIVE BANK LIMITED",APBL0015008,NA,KUKATPALLY,"PLOT NO.144, BHAGYANAGAR COLONY, OPP: KUKATPALLY, HYDERABAD - 500 072",0,KUKATPALLY,KUKATPALLY,"ANDHRA PRADESH"
"THE ANDHRA PRADESH STATE COOPERATIVE BANK LIMITED",APBL0015007,NA,RAJENDRANAGAR,"D. NO. 9-1-29/5 TO 10, GSR COMPLEX, OPP: PETROL PUMP, LANGAR HOUSE,HYDERABAD 500 008",0,RAJENDRANAGAR,RAJENDRANAGAR,"ANDHRA PRADESH"
"THE ANDHRA PRADESH STATE COOPERATIVE BANK LIMITED",APBL0015006,NA,IBRAHIMPATAM,"NEAR GOVT JR COLLEGE, IBRAHIMPATNAM VILLAGE & MANDAL, RANGA REDDY DISTRICT - 501 506",0,IBRAHIMPATAM,"RANGA REDDY","ANDHRA PRADESH"
"THE ANDHRA PRADESH STATE COOPERATIVE BANK LIMITED",APBL0015005,NA,HAYATNAGAR,"D. NO. 9-136, BAGH AREAD, HAYATHNAGAR, RANGA REDDY DISTRICT - 501 505",0,HAYATNAGAR,"RANGA REDDY","ANDHRA PRADESH"
"THE ANDHRA PRADESH STATE COOPERATIVE BANK LIMITED",APBL0015004,NA,MADANNAPET,"D. NO.9-6-2, SGR COLONY, SAGAR ROAD, NEAR ROSE GARDEN, CHAMPAPET, HYDERABAD - 500 079",0,HYDERABAD,HYDERABAD,"ANDHRA PRADESH"
"THE ANDHRA PRADESH STATE COOPERATIVE BANK LIMITED",APBL0015003,NA,CHEVELLA,"MANDAL ROAD, OPP. GVT. GUEST HOUSE, CHEVELLA, RANGA REDDY DISTRICT - 501 503",0,CHEVELLA,"RANGA REDDY","ANDHRA PRADESH"
"THE ANDHRA PRADESH STATE COOPERATIVE BANK LIMITED",APBL0015002,NA,"BALAPUR X ROAD","4-149 PLOT NO.2 TRIVENI NAGAR COLONY MEERPET GRAM PANCHAYAT BALAPUR CROSS ROAD RANGA REDDY DISTRICT - 500097",0,HYDERABAD,"RANGA REDDY","ANDHRA PRADESH"
"THE ANDHRA PRADESH STATE COOPERATIVE BANK LIMITED",APBL0015001,NA,SANATHNAGAR,"D. NO. 7-2-1750/1, OPP: VOLTAS CO., SANATHNAGAR, HYDERABAD",0,HYDERABAD,HYDERABAD,"ANDHRA PRADESH"
"THE ANDHRA PRADESH STATE COOPERATIVE BANK LIMITED",APBL0014020,NA,WANAPARTHI,WANAPARTHY,0,WANAPARTHI,MAHBUBNAGAR,"ANDHRA PRADESH"
"THE ANDHRA PRADESH STATE COOPERATIVE BANK LIMITED",APBL0014019,NA,"TOWN BRANCH",MAHABUBNAGAR,0,MAHBUBNAGAR,MAHBUBNAGAR,"ANDHRA PRADESH"
"THE ANDHRA PRADESH STATE COOPERATIVE BANK LIMITED",APBL0014018,NA,SHANTHINAGAR,SHANTHINAGAR,0,MAHBUBNAGAR,MAHBUBNAGAR,"ANDHRA PRADESH"
"THE ANDHRA PRADESH STATE COOPERATIVE BANK LIMITED",APBL0014017,NA,SHADNAGAR,SHADNAGAR,0,MAHBUBNAGAR,MAHBUBNAGAR,"ANDHRA PRADESH"
"THE ANDHRA PRADESH STATE COOPERATIVE BANK LIMITED",APBL0014016,NA,NARAYANPET,NARAYANPET,0,NARAYANPET,MAHBUBNAGAR,"ANDHRA PRADESH"
"THE ANDHRA PRADESH STATE COOPERATIVE BANK LIMITED",APBL0014015,NA,NAGARKURNOOL,NAGARKURNOOL,0,NAGARKURNOOL,MAHBUBNAGAR,"ANDHRA PRADESH"
"THE ANDHRA PRADESH STATE COOPERATIVE BANK LIMITED",APBL0014014,NA,MAKTHAL,MAKTHAL,0,MAKTHAL,MAHBUBNAGAR,"ANDHRA PRADESH"
"THE ANDHRA PRADESH STATE COOPERATIVE BANK LIMITED",APBL0014013,NA,KOTHAKOTA,KOTHAKOTA,0,KOTHAKOTA,MAHBUBNAGAR,"ANDHRA PRADESH"
"THE ANDHRA PRADESH STATE COOPERATIVE BANK LIMITED",APBL0014012,NA,KOLLAPUR,KOLLAPUR,0,KOLLAPUR,MAHBUBNAGAR,"ANDHRA PRADESH"
"THE ANDHRA PRADESH STATE COOPERATIVE BANK LIMITED",APBL0014011,NA,KODANGAL,KODANGAL,0,KODANGAL,MAHBUBNAGAR,"ANDHRA PRADESH"
"THE ANDHRA PRADESH STATE COOPERATIVE BANK LIMITED",APBL0014010,NA,KALWAKURTI,KALWAKURTHY,0,KALWAKURTI,MAHBUBNAGAR,"ANDHRA PRADESH"
"THE ANDHRA PRADESH STATE COOPERATIVE BANK LIMITED",APBL0014009,NA,GADWAL,GADWAL,0,GADWAL,MAHBUBNAGAR,"ANDHRA PRADESH"
"THE ANDHRA PRADESH STATE COOPERATIVE BANK LIMITED",APBL0014008,NA,DEVERKADRA,DEVERKADRA,0,DEVERKADRA,MAHBUBNAGAR,"ANDHRA PRADESH"
"THE ANDHRA PRADESH STATE COOPERATIVE BANK LIMITED",APBL0014007,NA,BIJNEPALLE,BIJNEPALLY,0,BIJNEPALLE,MAHBUBNAGAR,"ANDHRA PRADESH"
"THE ANDHRA PRADESH STATE COOPERATIVE BANK LIMITED",APBL0014006,NA,BADEPALLE,BADEPALLY,0,BADEPALLE,MAHBUBNAGAR,"ANDHRA PRADESH"
"THE ANDHRA PRADESH STATE COOPERATIVE BANK LIMITED",APBL0014005,NA,ATMAKUR,ATMAKUR,0,ATMAKUR,MAHBUBNAGAR,"ANDHRA PRADESH"
"THE ANDHRA PRADESH STATE COOPERATIVE BANK LIMITED",APBL0014004,NA,AMANGAL,AMANGAL,0,AMANGAL,MAHBUBNAGAR,"ANDHRA PRADESH"
"THE ANDHRA PRADESH STATE COOPERATIVE BANK LIMITED",APBL0014003,NA,ALAMPUR,ALAMPUR,0,ALAMPUR,MAHBUBNAGAR,"ANDHRA PRADESH"
"THE ANDHRA PRADESH STATE COOPERATIVE BANK LIMITED",APBL0014002,NA,ACHAMPET,ACHAMPET,0,ACHAMPET,MAHBUBNAGAR,"ANDHRA PRADESH"
"THE ANDHRA PRADESH STATE COOPERATIVE BANK LIMITED",APBL0014001,NA,MAHBUBNAGAR,MAHABUBNAGAR,0,MAHBUBNAGAR,MAHBUBNAGAR,"ANDHRA PRADESH"
"THE ANDHRA PRADESH STATE COOPERATIVE BANK LIMITED",APBL0013022,NA,NOONEPALLI,"H NO 28 8406 13 OPP SYUMPHONY HEIGHTS BESIDES KHALEEL SIDDIQUI SCHOOL NGOS COLONY NANDYAL 518002",240440,NANDYAL,KURNOOL,"ANDHRA PRADESH"
"THE ANDHRA PRADESH STATE COOPERATIVE BANK LIMITED",APBL0013021,WAITING,BETHAMCHERLA,"DOOR NO 229 14 BESIDES STATE BANK OF INDIA BETHAMCHERLA 518599",276140,KURNOOL,KURNOOL,"ANDHRA PRADESH"
"THE ANDHRA PRADESH STATE COOPERATIVE BANK LIMITED",APBL0013020,NA,YEMMIGANUR,"UTY BUILDING, NEAR GEETHA MANDIR, YEMMIGANUR.",0,YEMMIGANUR,KURNOOL,"ANDHRA PRADESH"
"THE ANDHRA PRADESH STATE COOPERATIVE BANK LIMITED",APBL0013019,NA,VELGODU,"H.NO: 547/A, NEAR R.T.C BUS STAND, VELUGODU",0,VELGODU,KURNOOL,"ANDHRA PRADESH"
"THE ANDHRA PRADESH STATE COOPERATIVE BANK LIMITED",APBL0013018,NA,SIRVEL,"SIRIVELLA METTA, OPP: S.B.I., SIRIVELLA.",0,SIRVEL,KURNOOL,"ANDHRA PRADESH"
"THE ANDHRA PRADESH STATE COOPERATIVE BANK LIMITED",APBL0013017,NA,PATTIKONDA,"H.NO:17/68, OPP:M.D.O. OFFICE, GOOTY ROAD, PATHIKONDA.",0,PATTIKONDA,KURNOOL,"ANDHRA PRADESH"
"THE ANDHRA PRADESH STATE COOPERATIVE BANK LIMITED",APBL0013016,NA,PANYAM,"H.NO: 9/23, PANYAM.",0,PANYAM,KURNOOL,"ANDHRA PRADESH"
"THE ANDHRA PRADESH STATE COOPERATIVE BANK LIMITED",APBL0013015,NA,OWK,"H.NO:3/92, MUSLIM STREET, OWK.",0,OWK,KURNOOL,"ANDHRA PRADESH"
"THE ANDHRA PRADESH STATE COOPERATIVE BANK LIMITED",APBL0013014,NA,KURNOOL,"H.NO: 57/9, FORT, KURNOOL.",0,KURNOOL,KURNOOL,"ANDHRA PRADESH"
"THE ANDHRA PRADESH STATE COOPERATIVE BANK LIMITED",APBL0013013,NA,NANDYAL,"H.NO:25/552, SRINIVASA NAGAR, NANDYAL.",0,NANDYAL,KURNOOL,"ANDHRA PRADESH"
"THE ANDHRA PRADESH STATE COOPERATIVE BANK LIMITED",APBL0013012,NA,NANDIKOTKUR,"H.NO: 16/38/C/4, NEAR",0,NANDIKOTKUR,KURNOOL,"ANDHRA PRADESH"
"THE ANDHRA PRADESH STATE COOPERATIVE BANK LIMITED",APBL0013011,NA,KRISHNAGIRI,"H.NO: 79/109, KRISHNA NAGAR, KURNOOL",0,KURNOOL,KURNOOL,"ANDHRA PRADESH"
"THE ANDHRA PRADESH STATE COOPERATIVE BANK LIMITED",APBL0013010,NA,KOILKUNTLA,"H.NO: 10-121 / 26 / 6, KOILAKUNTLA",0,KOILKUNTLA,KURNOOL,"ANDHRA PRADESH"
"THE ANDHRA PRADESH STATE COOPERATIVE BANK LIMITED",APBL0013009,NA,KODUMUR,"OPP: A.P.G. BANK, LADDAGIRI ROAD, KODUMUR",0,KODUMUR,KURNOOL,"ANDHRA PRADESH"
"THE ANDHRA PRADESH STATE COOPERATIVE BANK LIMITED",APBL0013008,NA,GUDUR,"H.NO:13/32-1, NEAR R.T.C BUS STAND, GUDUR.",0,GUDUR,KURNOOL,"ANDHRA PRADESH"
"THE ANDHRA PRADESH STATE COOPERATIVE BANK LIMITED",APBL0013007,NA,DHONE,"H.NO: 12/15 UP-STAIR, VINAYAKA STREET, DHONE",0,DHONE,KURNOOL,"ANDHRA PRADESH"
"THE ANDHRA PRADESH STATE COOPERATIVE BANK LIMITED",APBL0013006,NA,BANAGANAPALLI,"H.NO:8/118/A, BANAGANAPALLI",0,BANAGANAPALLI,KURNOOL,"ANDHRA PRADESH"
"THE ANDHRA PRADESH STATE COOPERATIVE BANK LIMITED",APBL0013005,NA,ATMAKUR,"H.NO:98-11, JOJI REDDY COMPLEX, GOUD CENTRE, ATMAKUR.",0,ATMAKU,KURNOOL,"ANDHRA PRADESH"
"THE ANDHRA PRADESH STATE COOPERATIVE BANK LIMITED",APBL0013004,NA,ALUR,"H.NO:1-32, BELLARY ROAD, ALUR.",0,GUDUR,KURNOOL,"ANDHRA PRADESH"
"THE ANDHRA PRADESH STATE COOPERATIVE BANK LIMITED",APBL0013003,NA,ALLAGADDA,"H.NO: 3/5/69, MAIN BAZAR, ALLAGADDA.",0,DHONE,KURNOOL,"ANDHRA PRADESH"
"THE ANDHRA PRADESH STATE COOPERATIVE BANK LIMITED",APBL0013002,NA,ADONI,"H.NO:21/142-16, OPP:",0,ADONI,KURNOOL,"ANDHRA PRADESH"
"THE ANDHRA PRADESH STATE COOPERATIVE BANK LIMITED",APBL0013001,NA,KURNOOL,"H.NO: 46-1-C, BUDHAWARPETA, KURNOOL.",0,KURNOOL,KURNOOL,"ANDHRA PRADESH"
"THE ANDHRA PRADESH STATE COOPERATIVE BANK LIMITED",APBL0012028,NA,KANEKAL,"KANEKAL VILLAGE AND MANDAL",0,KANEKAL,ANANTAPUR,"ANDHRA PRADESH"
"THE ANDHRA PRADESH STATE COOPERATIVE BANK LIMITED",APBL0012027,NA,MADHOODI,"MADHOODI VILLAGE, AGALI MANDAL, ANANTAPUR DIST.",0,MADHOODI,ANANTAPUR,"ANDHRA PRADESH"
"THE ANDHRA PRADESH STATE COOPERATIVE BANK LIMITED",APBL0012026,NA,VAJRAKARUR,"VAJRAKARUR VILLAGE, VAJRAKARUR MANDAL.",0,VAJRAKARUR,ANANTAPUR,"ANDHRA PRADESH"
"THE ANDHRA PRADESH STATE COOPERATIVE BANK LIMITED",APBL0012025,NA,ANANTAPUR,"NEAR FLY-OVER, NH-7, RUDRAMPETA CIRCLE, ANANTAPUR",0,ANANTAPUR,ANANTAPUR,"ANDHRA PRADESH"
"THE ANDHRA PRADESH STATE COOPERATIVE BANK LIMITED",APBL0012024,NA,GUDIBANDA,"C/O MANDALA PALLI PACS BUILDING, GUDIBANDA.",0,GUDIBANDA,ANANTAPUR,"ANDHRA PRADESH"
"THE ANDHRA PRADESH STATE COOPERATIVE BANK LIMITED",APBL0012023,NA,ATMAKUR,"UP-STAIRS, MAIN ROAD, ATMAKURU",0,ATMAKUR,ANANTAPUR,"ANDHRA PRADESH"
"THE ANDHRA PRADESH STATE COOPERATIVE BANK LIMITED",APBL0012022,NA,KOTHACHERUVU,"UP-STAIRS, DHARMAVARAM ROAD,KOTHA CHERUVU.",0,KOTHACHERUVU,ANANTAPUR,"ANDHRA PRADESH"
"THE ANDHRA PRADESH STATE COOPERATIVE BANK LIMITED",APBL0012021,NA,"OBULA DEVARA CHERUVU","C/O SOCIETY COMPOUND, OBULADEVARA CHERUVU.",0,"OBULA DEVARA CHERUVU",ANANTAPUR,"ANDHRA PRADESH"
"THE ANDHRA PRADESH STATE COOPERATIVE BANK LIMITED",APBL0012020,NA,ANANTAPUR,"GOOTY ROAD, OLD TOWN, ANANTAPUR",0,ANANTAPUR,ANANTAPUR,"ANDHRA PRADESH"
"THE ANDHRA PRADESH STATE COOPERATIVE BANK LIMITED",APBL0012019,NA,YADIKI,"D NO. 7/107/C, VEMULAPADU ROAD, YADIKI.",0,YADIKI,ANANTAPUR,"ANDHRA PRADESH"
"THE ANDHRA PRADESH STATE COOPERATIVE BANK LIMITED",APBL0012018,NA,URAVAKONDA,"D NO.7-4-41, A NEAR GRAMA PANCHAYATH, URAVAKONDA.",0,URAVAKONDA,ANANTAPUR,"ANDHRA PRADESH"
"THE ANDHRA PRADESH STATE COOPERATIVE BANK LIMITED",APBL0012017,NA,TANAKAL,"NEAR SBI, BANK STREET, TANAKAL",0,TANAKAL,ANANTAPUR,"ANDHRA PRADESH"
"THE ANDHRA PRADESH STATE COOPERATIVE BANK LIMITED",APBL0012016,NA,TADPATRI,"COLLEGE ROAD, SANJEEVA NAGAR, TADIPATRI, ANANTAPUR DIST.",0,TADPATRI,ANANTAPUR,"ANDHRA PRADESH"
"THE ANDHRA PRADESH STATE COOPERATIVE BANK LIMITED",APBL0012015,NA,RAYADURG,"OPP: SBI, RAYADURG",0,RAYADURG,ANANTAPUR,"ANDHRA PRADESH"
"THE ANDHRA PRADESH STATE COOPERATIVE BANK LIMITED",APBL0012014,NA,PUTTAPARTHI,"SATHYA SAI SAHAKARA BHAVAN, SBI STREET ENDING, PUTTAPARTHY.",0,PUTTAPARTHI,ANANTAPUR,"ANDHRA PRADESH"
"THE ANDHRA PRADESH STATE COOPERATIVE BANK LIMITED",APBL0012013,NA,PENUKONDA,"BEHIND RDO OFFICE, NEAR TELUGU THALLI STATUE, PENUKONDA.",0,PENUKONDA,ANANTAPUR,"ANDHRA PRADESH"
"THE ANDHRA PRADESH STATE COOPERATIVE BANK LIMITED",APBL0012012,NA,PAMIDI,"D NO,1/27-95, BEHIND MANASA HOTEL, PAMIDI.",0,PAMIDI,ANANTAPUR,"ANDHRA PRADESH"
"THE ANDHRA PRADESH STATE COOPERATIVE BANK LIMITED",APBL0012011,NA,MUDIGUBBA,"KADIRI MAIN ROAD, MUDIGUBBA",0,MUDIGUBBA,ANANTAPUR,"ANDHRA PRADESH"
"THE ANDHRA PRADESH STATE COOPERATIVE BANK LIMITED",APBL0012010,NA,MADAKASIRA,"NEAR SAIBABA TEMPLE, MADAKASIRA",0,MADAKASIRA,ANANTAPUR,"ANDHRA PRADESH"
"THE ANDHRA PRADESH STATE COOPERATIVE BANK LIMITED",APBL0012009,NA,KALYANDURG,"GOVT. JUNIOR COLLEGE ROAD, DCMS COMPOUND, KALYANADURG",0,KALYANDURG,ANANTAPUR,"ANDHRA PRADESH"
"THE ANDHRA PRADESH STATE COOPERATIVE BANK LIMITED",APBL0012008,NA,KADIRI,"D NO.1-36-5-2, COLLEGE ROAD, KADIRI.",0,KADIRI,ANANTAPUR,"ANDHRA PRADESH"
"THE ANDHRA PRADESH STATE COOPERATIVE BANK LIMITED",APBL0012007,NA,HINDUPUR,"RAILWAY STATION ROAD, HINDUPUR",0,HINDUPUR,ANANTAPUR,"ANDHRA PRADESH"
"THE ANDHRA PRADESH STATE COOPERATIVE BANK LIMITED",APBL0012006,NA,GUNTAKAL,"ANDHRA BANK STREET, GUNTAKAL.",0,GUNTAKAL,ANANTAPUR,"ANDHRA PRADESH"
"THE ANDHRA PRADESH STATE COOPERATIVE BANK LIMITED",APBL0012005,NA,GORANTLA,"NEAR RTC BUS-STAND, GORANTLA.",0,GORANTLA,ANANTAPUR,"ANDHRA PRADESH"
"THE ANDHRA PRADESH STATE COOPERATIVE BANK LIMITED",APBL0012004,NA,GOOTY,"D NO.7-740, (UP-STAIRS) OPP: APSRTC BUS-STAND, MAIN ROAD, GOOTY",0,GOOTY,ANANTAPUR,"ANDHRA PRADESH"
"THE ANDHRA PRADESH STATE COOPERATIVE BANK LIMITED",APBL0012003,NA,DHARMAVARAM,"BRAHMIN STREET, NEAR TOWN BANK, DHARMAVARAM",0,DHARMAVARAM,ANANTAPUR,"ANDHRA PRADESH"
"THE ANDHRA PRADESH STATE COOPERATIVE BANK LIMITED",APBL0012002,NA,ANANTAPUR,"1ST ROAD, NEW TOWN, ANANTAPUR",0,ANANTAPUR,ANANTAPUR,"ANDHRA PRADESH"
"THE ANDHRA PRADESH STATE COOPERATIVE BANK LIMITED",APBL0012001,NA,ANANTAPUR,"OPP: RAGHUVEERA TOWERS, SUBHASH ROAD, ANANTAPUR",0,ANANTAPUR,ANANTAPUR,"ANDHRA PRADESH"
"THE ANDHRA PRADESH STATE COOPERATIVE BANK LIMITED",APBL0011024,NA,DUVVUR,"D. NO. 5/204, MAIN ROAD, DUVVURU",0,DUVVUR,CUDDAPAH,"ANDHRA PRADESH"
"THE ANDHRA PRADESH STATE COOPERATIVE BANK LIMITED",APBL0011023,NA,TSUNDUPALLI,"D. NO. 2/550, RAMAGULLAPALLI ROAD, BUSTAND CENTER,  T. SUNDUPALLI",0,TSUNDUPALLI,CUDDAPAH,"ANDHRA PRADESH"
"THE ANDHRA PRADESH STATE COOPERATIVE BANK LIMITED",APBL0011022,NA,RAYACHOTI,"D. NO. 59/140-2, KAMSALAVEEDI, RAYACHOTY",0,RAYACHOTI,CUDDAPAH,"ANDHRA PRADESH"
"THE ANDHRA PRADESH STATE COOPERATIVE BANK LIMITED",APBL0011021,NA,GALIVEEDU,"MAIN ROAD, NEAR POLICE STATION, GALIVEEDU",0,GALIVEEDU,CUDDAPAH,"ANDHRA PRADESH"
"THE ANDHRA PRADESH STATE COOPERATIVE BANK LIMITED",APBL0011020,NA,CHITVEL,"D. NO. 1/248, UPSTAIR, MAIN ROAD, CHITVEL",0,CHITVEL,CUDDAPAH,"ANDHRA PRADESH"
"THE ANDHRA PRADESH STATE COOPERATIVE BANK LIMITED",APBL0011019,NA,PULLAMPET,"MAIN ROAD, NEAR APG BANK, PULLAMPET",0,PULLAMPET,CUDDAPAH,"ANDHRA PRADESH"
"THE ANDHRA PRADESH STATE COOPERATIVE BANK LIMITED",APBL0011018,NA,CUDDAPAH,"APSARA CIRCLE, MADRAS ROAD, KADAPA",0,CUDDAPAH,CUDDAPAH,"ANDHRA PRADESH"
"THE ANDHRA PRADESH STATE COOPERATIVE BANK LIMITED",APBL0011017,NA,VEMPALLE,"PULIVENDULA ROAD, NEAR BUSTAND, VEMPALLI",0,VEMPALLE,CUDDAPAH,"ANDHRA PRADESH"
"THE ANDHRA PRADESH STATE COOPERATIVE BANK LIMITED",APBL0011016,NA,SIDDAVATTAM,"RATNASABHAPALLI NAGAR, SIDDAVATAM",0,SIDDAVATTAM,CUDDAPAH,"ANDHRA PRADESH"
"THE ANDHRA PRADESH STATE COOPERATIVE BANK LIMITED",APBL0011015,NA,RAYACHOTI,"CHITTOOR ROAD, RAYACHOTY",0,RAYACHOTI,CUDDAPAH,"ANDHRA PRADESH"
"THE ANDHRA PRADESH STATE COOPERATIVE BANK LIMITED",APBL0011014,NA,RAJAMPET,"D. NO. 4/225-29, MADRAS ROAD, RAJAMPET",0,RAJAMPET,CUDDAPAH,"ANDHRA PRADESH"
"THE ANDHRA PRADESH STATE COOPERATIVE BANK LIMITED",APBL0011013,NA,CUDDAPAH,"D. NO. 20/316, 317, R.K. NAGAR, KADAPA",0,CUDDAPAH,CUDDAPAH,"ANDHRA PRADESH"
"THE ANDHRA PRADESH STATE COOPERATIVE BANK LIMITED",APBL0011012,NA,PULIVENDLA,"Y.S. RAJAREDDY STREET, PULIVENDULA",0,PULIVENDLA,CUDDAPAH,"ANDHRA PRADESH"
"THE ANDHRA PRADESH STATE COOPERATIVE BANK LIMITED",APBL0011011,NA,PORUMAMILLA,"D. NO. 13/96-4, B BLOCK, MAHILA MANDALI STREET, PORUMAMILLA",0,PORUMAMILLA,CUDDAPAH,"ANDHRA PRADESH"
"THE ANDHRA PRADESH STATE COOPERATIVE BANK LIMITED",APBL0011010,NA,PRODDATUR,"D. NO. 10/112, BHAGATH SINGH COLONY, PRODDATUR",0,PRODDATUR,CUDDAPAH,"ANDHRA PRADESH"
"THE ANDHRA PRADESH STATE COOPERATIVE BANK LIMITED",APBL0011009,NA,CUDDAPAH,"D. NO. 6/80, G.R. RAO STREET, KADAPA",0,CUDDAPAH,CUDDAPAH,"ANDHRA PRADESH"
"THE ANDHRA PRADESH STATE COOPERATIVE BANK LIMITED",APBL0011008,NA,MYDUKUR,"KADAPA ROAD, MYDUKURU",0,MYDUKUR,CUDDAPAH,"ANDHRA PRADESH"
"THE ANDHRA PRADESH STATE COOPERATIVE BANK LIMITED",APBL0011007,NA,PRODDATUR,"D. NO. 3/1151, Y.M.R. COLONY, PRODDATUR",0,PRODDATUR,CUDDAPAH,"ANDHRA PRADESH"
"THE ANDHRA PRADESH STATE COOPERATIVE BANK LIMITED",APBL0011006,NA,LAKKIREDDIPALLE,"D. NO. 3/493, RAYACHOTI ROAD, L.R. PALLI",0,LAKKIREDDIPALLE,CUDDAPAH,"ANDHRA PRADESH"
"THE ANDHRA PRADESH STATE COOPERATIVE BANK LIMITED",APBL0011005,NA,KODUR,"D. NO. 7/308, NEW KRISHNA  NAGAR, KODUR",0,KODUR,CUDDAPAH,"ANDHRA PRADESH"
"THE ANDHRA PRADESH STATE COOPERATIVE BANK LIMITED",APBL0011004,NA,KAMALAPURAM,"D. NO. 13/196, R.S. ROAD,  KAMALAPURAM",0,KAMALAPURAM,CUDDAPAH,"ANDHRA PRADESH"
"THE ANDHRA PRADESH STATE COOPERATIVE BANK LIMITED",APBL0011003,NA,JAMMALAMADAGU,"D. NO. 24/122, OLD BUSTAND,  JAMMALAMADUGU",0,JAMMALAMADAGU,CUDDAPAH,"ANDHRA PRADESH"
"THE ANDHRA PRADESH STATE COOPERATIVE BANK LIMITED",APBL0011002,NA,BADVEL,"D. NO. 4/108, MAIN BAZAR, BADVEL",0,BADVEL,CUDDAPAH,"ANDHRA PRADESH"
"THE ANDHRA PRADESH STATE COOPERATIVE BANK LIMITED",APBL0011001,NA,CUDDAPAH,"D. NO. 2/52 R.S. ROAD, KADAPA",0,CUDDAPAH,CUDDAPAH,"ANDHRA PRADESH"
"THE ANDHRA PRADESH STATE COOPERATIVE BANK LIMITED",APBL0010031,NA,"THE CHITTOOR DCCB LTD CHANDRAGIRI","D NO2 14 BY 1,BAZAR STREET,KOTHAPETA,CHANDRAGIRI 517101",0,CHANDRAGIRI,CHITTOOR,"ANDHRA PRADESH"
"THE ANDHRA PRADESH STATE COOPERATIVE BANK LIMITED",APBL0010030,NA,"THE CHITTOOR DCCB LTD RENIGUNTA","DOOR.NO 15 893,SRIKALAHASTHI ROAD,RENIGUNTA 517520",7702606444,RENIGUNTA,CHITTOOR,"ANDHRA PRADESH"
"THE ANDHRA PRADESH STATE COOPERATIVE BANK LIMITED",APBL0010029,NA,"THE CHITTOOR DCCB LTD MADANAPALLI","DOOR.NO 2 250 A 2 3,RAMIREDDY LAYOUT,NEERUGATTUVARIPALLE,MADANAPALLE 517325",9963475289,MADANAPALLE,CHITTOOR,"ANDHRA PRADESH"
"THE ANDHRA PRADESH STATE COOPERATIVE BANK LIMITED",APBL0010028,NA,"THE CHITTOOR DCCB LTD ANGALLU","DOOR NO 1 18,MBT ROAD,ANGALLU 517325",9573169188,MADANAPALLE,CHITTOOR,"ANDHRA PRADESH"
"THE ANDHRA PRADESH STATE COOPERATIVE BANK LIMITED",APBL0010027,NA,PAPANAIDUPET,"D NO 3-28,  CO-OPBANK STREET, PAPANAIDUPETA (V) PINCODE - 517526",0,PAPANAIDUPET,CHITTOOR,"ANDHRA PRADESH"
"THE ANDHRA PRADESH STATE COOPERATIVE BANK LIMITED",APBL0010026,NA,TIRUPATI,"DNO.19-8-110, R C ROAD, OPP.RYTHU BAZAR, TIRUPATI, PINCODE - 517501",0,TIRUPATI,CHITTOOR,"ANDHRA PRADESH"
"THE ANDHRA PRADESH STATE COOPERATIVE BANK LIMITED",APBL0010025,NA,VAYALPAD,"DO.NO.9/141, KOTHAPETA STREET,VOYALPAD,  PINCODE - 517299",0,VAYALPAD,CHITTOOR,"ANDHRA PRADESH"
"THE ANDHRA PRADESH STATE COOPERATIVE BANK LIMITED",APBL0010024,NA,VENKATAGIRIKOTA,"MAIN ROAD, V KOTA,PINCODE - 517424",0,VENKATAGIRIKOTA,CHITTOOR,"ANDHRA PRADESH"
"THE ANDHRA PRADESH STATE COOPERATIVE BANK LIMITED",APBL0010023,NA,TIRUPATI,"DO.NO.12-5-526,TILAK ROAD,  TIRUPATI.  PINCODE - 517501",0,TIRUPATI,CHITTOOR,"ANDHRA PRADESH"
"THE ANDHRA PRADESH STATE COOPERATIVE BANK LIMITED",APBL0010022,NA,SRIKALAHASTI,"DO.NO.6/175,  GANDHI STREET,  SRIKALAHASTHI - 517644",0,SRIKALAHASTI,CHITTOOR,"ANDHRA PRADESH"
"THE ANDHRA PRADESH STATE COOPERATIVE BANK LIMITED",APBL0010021,NA,SATYAVEDU,"PALLAPU STREET,SATHYAVEDU,PINCODE - 517588",0,SATYAVEDU,CHITTOOR,"ANDHRA PRADESH"
"THE ANDHRA PRADESH STATE COOPERATIVE BANK LIMITED",APBL0010020,NA,PUTTUR,"DO.NO.4-24, BAZAR STREET, PUTTUR,  PINCODE - 517583",0,PUTTUR,CHITTOOR,"ANDHRA PRADESH"
"THE ANDHRA PRADESH STATE COOPERATIVE BANK LIMITED",APBL0010019,NA,PUNGANUR,"DO.NO.15/16,CAR STREET,  PUNGANUR,PINCODE - 517247",0,PUNGANUR,CHITTOOR,"ANDHRA PRADESH"
"THE ANDHRA PRADESH STATE COOPERATIVE BANK LIMITED",APBL0010018,NA,PITCHATURU,"MAIN ROAD,PICHATUR, PINCODE - 517587",0,PITCHATURU,CHITTOOR,"ANDHRA PRADESH"
"THE ANDHRA PRADESH STATE COOPERATIVE BANK LIMITED",APBL0010017,NA,PILER,"DO.NO.2-105/1,  L B S ROAD, PILER, PINCODE - 517214",0,PILER,CHITTOOR,"ANDHRA PRADESH"
"THE ANDHRA PRADESH STATE COOPERATIVE BANK LIMITED",APBL0010016,NA,PALAMANER,"DO.NO.12-312, MADANAPALLE ROAD,  PALAMANER,  PINCODE - 517408",0,PALAMANER,CHITTOOR,"ANDHRA PRADESH"
"THE ANDHRA PRADESH STATE COOPERATIVE BANK LIMITED",APBL0010015,NA,PAKALA,"MURALI COMPLEX,  R T C BUS STAND, PAKALA, PINCODE - 517112",0,PAKALA,CHITTOOR,"ANDHRA PRADESH"
"THE ANDHRA PRADESH STATE COOPERATIVE BANK LIMITED",APBL0010014,NA,PATHALAPATTU,"DO.NO.6,MAIN ROAD,P S  GATE, PINCODE - 517124",0,PATHALAPATTU,CHITTOOR,"ANDHRA PRADESH"
"THE ANDHRA PRADESH STATE COOPERATIVE BANK LIMITED",APBL0010013,NA,NAGARI,"DO.NO.10-204, NAGALAPURAM ROAD,  NAGARI, PINCODE - 517590",0,NAGARI,CHITTOOR,"ANDHRA PRADESH"
"THE ANDHRA PRADESH STATE COOPERATIVE BANK LIMITED",APBL0010012,NA,MADANAPALLE,"BANK STREET,MADANAPALLE, PINCODE - 517325",0,MADANAPALLE,CHITTOOR,"ANDHRA PRADESH"
"THE ANDHRA PRADESH STATE COOPERATIVE BANK LIMITED",APBL0010011,NA,KUPPAM,"DO-NO.14-378 PALACE ROAD, KUPPAMPINCODE - 517425",0,KUPPAM,CHITTOOR,"ANDHRA PRADESH"
"THE ANDHRA PRADESH STATE COOPERATIVE BANK LIMITED",APBL0010010,NA,CHITTOOR,"D NO.3-790, GREAMSPET,OLD INDIAN BANK BUILDING,CHITTOOR  PINCODE - 517001",0,CHITTOOR,CHITTOOR,"ANDHRA PRADESH"
"THE ANDHRA PRADESH STATE COOPERATIVE BANK LIMITED",APBL0010009,NA,KARVETINAGAR,"DO.NO.6-58, BAZAR STREET,K NAGAR  PINCODE - 517582",0,KARVETINAGAR,CHITTOOR,"ANDHRA PRADESH"
"THE ANDHRA PRADESH STATE COOPERATIVE BANK LIMITED",APBL0010008,NA,KANIPAKKAM,"MAIN ROAD, KANIPAKAM  PINCODE - 517131",0,KANIPAKKAM,CHITTOOR,"ANDHRA PRADESH"
"THE ANDHRA PRADESH STATE COOPERATIVE BANK LIMITED",APBL0010007,NA,GANGADHARNALLORE,"PUTTUR ROAD,  G D NELLORE PINCODE - 517125",0,GANGADHARNALLORE,CHITTOOR,"ANDHRA PRADESH"
"THE ANDHRA PRADESH STATE COOPERATIVE BANK LIMITED",APBL0010006,NA,CHITTOOR,"DO-NO. 7-381, JANDA STREET,  CHITTOOR PINCODE - 517001",0,CHITTOOR,CHITTOOR,"ANDHRA PRADESH"
"THE ANDHRA PRADESH STATE COOPERATIVE BANK LIMITED",APBL0010005,NA,CHOWDEPALLE,"DO-NO.2-47, MOTOR STREET, CHOWDEPALLE PINCODE - 517257",0,CHOWDEPALLE,CHITTOOR,"ANDHRA PRADESH"
"THE ANDHRA PRADESH STATE COOPERATIVE BANK LIMITED",APBL0010004,NA,CHINAGOTTIGALLU,"D-NO.6.78/A, MAIN ROAD, CHINNA GOTTI GALLU, PINCODE-517193",0,CHINAGOTTIGALLU,CHITTOOR,"ANDHRA PRADESH"
"THE ANDHRA PRADESH STATE COOPERATIVE BANK LIMITED",APBL0010003,NA,BANGARUPALEM,"D-NO.2-92/5, M B T ROAD, BANGARUPALYAMPINCODE-517416",0,BANGARUPALEM,CHITTOOR,"ANDHRA PRADESH"
"THE ANDHRA PRADESH STATE COOPERATIVE BANK LIMITED",APBL0010002,NA,B.KOTHAKOTA,"D.NO.12-55-2, POKANATI STREET, B KOTHAKOTA  ,PIN CODE - 517370",0,B.KOTHAKOTA,CHITTOOR,"ANDHRA PRADESH"
"THE ANDHRA PRADESH STATE COOPERATIVE BANK LIMITED",APBL0010001,NA,CHITTOOR,"POST BOX NO.7, HEAD OFFICE, PRAKASAM HIGH WAY, CHITTOOR - 517001",0,CHITTOOR,CHITTOOR,"ANDHRA PRADESH"
"THE ANDHRA PRADESH STATE COOPERATIVE BANK LIMITED",APBL0009021,524841682,ALLUR,"DNO 3 11 34 Y RAJARAMI REDDY HOSPITAL BHAVAN ALLUR MANDAL",2328221,NELLORE,NELLORE,"ANDHRA PRADESH"
"THE ANDHRA PRADESH STATE COOPERATIVE BANK LIMITED",APBL0009020,524841006,"RAMMURTHY NAGAR","D NO 16 3 614 MIMI BYEPASS ROAD RAMMUTHY NAGAR NELLORE 524002",2328221,NELLORE,NELLORE,"ANDHRA PRADESH"
"THE ANDHRA PRADESH STATE COOPERATIVE BANK LIMITED",APBL0009019,524841622,"Sri Potti Sri Ramulu Nellore District Cooperative Central Bank Ltd., RAPUR","D NO 6 30 MOGHUL STREET OPP SYNDICATE BANK RAPUR 524408",2328221,RAPUR,NELLORE,"ANDHRA PRADESH"
"THE ANDHRA PRADESH STATE COOPERATIVE BANK LIMITED",APBL0009018,NA,KOVUR,"MASTHANAIA COMPLEX, B-11-550 , HOUSE THOTA, MARRI CHETTU CENTER",0,KOVUR,"SRI POTTI SRI RAMULU NELLORE","ANDHRA PRADESH"
"THE ANDHRA PRADESH STATE COOPERATIVE BANK LIMITED",APBL0009017,NA,"NELLORE  TOWN EXT COUNTER","FIRST FLOOR, K.P. COMPLEX-2, D.NO.5-1-128, PAPPULA STREET, STONEHOUSE PET, NELLORE",0,NELLORE,"SRI POTTI SRI RAMULU NELLORE","ANDHRA PRADESH"
"THE ANDHRA PRADESH STATE COOPERATIVE BANK LIMITED",APBL0009016,NA,VINJAMUR,"D.NO. 2/233, MAIN BAZAR,PATHURU,  VINJAMUR (P & M) VINJAMUR",0,VINJAMUR,"SRI POTTI SRI RAMULU NELLORE","ANDHRA PRADESH"
"THE ANDHRA PRADESH STATE COOPERATIVE BANK LIMITED",APBL0009015,NA,VENKATAGIRI,"D.V.S.COMPLEX, RAJA STREET, VENKATAGIRI (MANDAL), VENKATAGIRI",0,VENKATAGIRI,"SRI POTTI SRI RAMULU NELLORE","ANDHRA PRADESH"
"THE ANDHRA PRADESH STATE COOPERATIVE BANK LIMITED",APBL0009014,NA,VAKADU,"VAKADU (P & M) VAKADU",0,VAKADU,"SRI POTTI SRI RAMULU NELLORE","ANDHRA PRADESH"
"THE ANDHRA PRADESH STATE COOPERATIVE BANK LIMITED",APBL0009013,NA,UDAYAGIRI,"MAIN ROAD, UDAYAGIRI",0,UDAYAGIRI,"SRI POTTI SRI RAMULU NELLORE","ANDHRA PRADESH"
"THE ANDHRA PRADESH STATE COOPERATIVE BANK LIMITED",APBL0009012,NA,SULLURPET,"PARK STREET, SULLURPET",0,SULLURPET,"SRI POTTI SRI RAMULU NELLORE","ANDHRA PRADESH"
"THE ANDHRA PRADESH STATE COOPERATIVE BANK LIMITED",APBL0009011,NA,PODALAKUR,"C/O M.SREENIVASULA REDDY HOSPITAL, MAIN ROAD, PODALAKUR",0,PODALAKUR,"SRI POTTI SRI RAMULU NELLORE","ANDHRA PRADESH"
"THE ANDHRA PRADESH STATE COOPERATIVE BANK LIMITED",APBL0009010,NA,"NELLORE TOWN","OPP. SUNDAR LODGE, NEAR R.T.C.BUS STAND, ARAVINDA NAGAR, NELLORE",0,NELLORE,"SRI POTTI SRI RAMULU NELLORE","ANDHRA PRADESH"
"THE ANDHRA PRADESH STATE COOPERATIVE BANK LIMITED",APBL0009009,NA,NAIDUPET,"D.NO. 1-1-62, OLD KALAHASTRI ROAD, NAIDUPET",0,NAIDUPET,"SRI POTTI SRI RAMULU NELLORE","ANDHRA PRADESH"
"THE ANDHRA PRADESH STATE COOPERATIVE BANK LIMITED",APBL0009008,NA,KOVUR,"D.NO. 2-6-67, R.F ROAD, KOVUR ( P & M) KOVUR.",0,KOVUR,"SRI POTTI SRI RAMULU NELLORE","ANDHRA PRADESH"
"THE ANDHRA PRADESH STATE COOPERATIVE BANK LIMITED",APBL0009007,NA,KOTA,"MAIN ROAD, KOTA (P & V), KOTA",0,KOTA,"SRI POTTI SRI RAMULU NELLORE","ANDHRA PRADESH"
"THE ANDHRA PRADESH STATE COOPERATIVE BANK LIMITED",APBL0009006,NA,"KAVALI EXTENSION","MAA COMPLEX, OPP. ARUNODAYA CLOTH MERCHANTS, KAVALI MAIN ROAD, KAVALI",0,KAVALI,"SRI POTTI SRI RAMULU NELLORE","ANDHRA PRADESH"
"THE ANDHRA PRADESH STATE COOPERATIVE BANK LIMITED",APBL0009005,NA,KAVALI,"JANATHA PET, KAVALI",0,KAVALI,"SRI POTTI SRI RAMULU NELLORE","ANDHRA PRADESH"
"THE ANDHRA PRADESH STATE COOPERATIVE BANK LIMITED",APBL0009004,NA,GUDUR,"GANGAMMA TEMPLE STREET, NEAR STATE BANK OF INDIA, GUDUR",0,GUDUR,"SRI POTTI SRI RAMULU NELLORE","ANDHRA PRADESH"
"THE ANDHRA PRADESH STATE COOPERATIVE BANK LIMITED",APBL0009003,NA,ATMAKUR,"MAIN BAZAR, NEAR ANDHRA BANK, ATMAKUR (P & M), ATMAKUR",0,ATMAKUR,"SRI POTTI SRI RAMULU NELLORE","ANDHRA PRADESH"
"THE ANDHRA PRADESH STATE COOPERATIVE BANK LIMITED",APBL0009002,NA,"HEAD OFFICE BRANCH","NEAR GANDHI STATUE, TRUNK ROAD, NELLORE.",0,NELLORE,"SRI POTTI SRI RAMULU NELLORE","ANDHRA PRADESH"
"THE ANDHRA PRADESH STATE COOPERATIVE BANK LIMITED",APBL0008029,NA,YERRAGONDAPALEM,"MAIN ROAD, YERRAGONDAPALEM , PRAKASAM DIST, PIN 523327",0,YERRAGONDAPALEM,PRAKASAM,"ANDHRA PRADESH"
"THE ANDHRA PRADESH STATE COOPERATIVE BANK LIMITED",APBL0008028,NA,UPPUGUNDUR,"NAGULUPPALAPADU MANDAL, PRAKASAM DIST PIN 523186",0,UPPUGUNDUR,PRAKASAM,"ANDHRA PRADESH"
"THE ANDHRA PRADESH STATE COOPERATIVE BANK LIMITED",APBL0008027,NA,"TOWN BRANCH","THE PDCCBANK, LTD., TRUNK ROAD, ONGOLE PIN  523001",0,ONGOLE,PRAKASAM,"ANDHRA PRADESH"
"THE ANDHRA PRADESH STATE COOPERATIVE BANK LIMITED",APBL0008026,NA,TANGUTURU,"THE PDCCBANK LTD.,  R.R.COMPLEX, TAGUTURU, PIN 523274",0,TANGUTURU,PRAKASAM,"ANDHRA PRADESH"
"THE ANDHRA PRADESH STATE COOPERATIVE BANK LIMITED",APBL0008025,NA,SINGARAYAKONDA,"THE PDCCBANK LTD.,  SINGARAYAKONDA, PRAKASAM DIST. PIN 523101",0,SINGARAYAKONDA,PRAKASAM,"ANDHRA PRADESH"
"THE ANDHRA PRADESH STATE COOPERATIVE BANK LIMITED",APBL0008024,NA,SANTHAMAGULUR,"THE PDCCBANK LTD.,  MAIN ROAD, S.MAGULURU, PRAKASAM DIST, PIN 523302",0,SANTHAMAGULUR,PRAKASAM,"ANDHRA PRADESH"
"THE ANDHRA PRADESH STATE COOPERATIVE BANK LIMITED",APBL0008023,NA,RAVINUTHALA,"THE PDCCBANK LTD., OPP. PANCHAYAT OFFICE,PRAKASAM DIST, PIN 523213",0,RAVINUTHALA,PRAKASAM,"ANDHRA PRADESH"
"THE ANDHRA PRADESH STATE COOPERATIVE BANK LIMITED",APBL0008022,NA,PODILI,"THE PDCCBANK LTD., ,NEAR MRO OFFICE, PRAKASAM DIST. PIN 523245",0,PODILI,PRAKASAM,"ANDHRA PRADESH"
"THE ANDHRA PRADESH STATE COOPERATIVE BANK LIMITED",APBL0008021,NA,PARCHOOR,"THE PDCCBANK LTD.,  PARCHURU, PRAKASAM DIST. PIN 523169",0,PARCHOOR,PRAKASAM,"ANDHRA PRADESH"
"THE ANDHRA PRADESH STATE COOPERATIVE BANK LIMITED",APBL0008020,NA,PAMUR,"THE PDCCBANK LTD.,PAMURU, PRAKASAM DIST, PIN 523108",0,PAMUR,PRAKASAM,"ANDHRA PRADESH"
"THE ANDHRA PRADESH STATE COOPERATIVE BANK LIMITED",APBL0008019,NA,MARTURU,"THE PDCCBANK LTD. MARTURU , PRAKASAM DIST. PIN 523301",0,MARTURU,PRAKASAM,"ANDHRA PRADESH"
"THE ANDHRA PRADESH STATE COOPERATIVE BANK LIMITED",APBL0008018,NA,MARKAPUR,"THE PDCCBANK LTD., MARKAPUR, PRAKASAM DIST. PIN 523316",0,MARKAPUR,PRAKASAM,"ANDHRA PRADESH"
"THE ANDHRA PRADESH STATE COOPERATIVE BANK LIMITED",APBL0008017,NA,M.NIDAMALURU,"THE PDCCBANK LTD.MAIN ROAD, M.NIDAMALURU,  PIN 523279",0,M.NIDAMALURU,PRAKASAM,"ANDHRA PRADESH"
"THE ANDHRA PRADESH STATE COOPERATIVE BANK LIMITED",APBL0008016,NA,LAWYERPETA,"THE PDCCBANK LTD.,  ONGOLE, PRAKASAM DIST. PIN 523001",0,ONGOLE,PRAKASAM,"ANDHRA PRADESH"
"THE ANDHRA PRADESH STATE COOPERATIVE BANK LIMITED",APBL0008015,NA,"KURNOOL ROAD","THE PDCCBANK LTD., KURNOOL ROAD, ONGOLE, PRAKASAM DIST. PIN 523001",0,ONGOLE,PRAKASAM,"ANDHRA PRADESH"
"THE ANDHRA PRADESH STATE COOPERATIVE BANK LIMITED",APBL0008014,NA,KURICHEDU,"THE PDCCBANK LTD. KURICHEDU, PRAKASAM DIST. PIN 523304",0,KURICHEDU,PRAKASAM,"ANDHRA PRADESH"
"THE ANDHRA PRADESH STATE COOPERATIVE BANK LIMITED",APBL0008013,NA,KONDAPI,"THE PDCCBANK LTD., KONDEPI, PRAKASAM DIST. PIN 523270",0,KONDAPI,PRAKASAM,"ANDHRA PRADESH"
"THE ANDHRA PRADESH STATE COOPERATIVE BANK LIMITED",APBL0008012,NA,KARAMCHEDU,"THE PDCCBANK LTD.KARAMCHEDU, PRAKASAM DIST. PIN 523168",0,KARAMCHEDU,PRAKASAM,"ANDHRA PRADESH"
"THE ANDHRA PRADESH STATE COOPERATIVE BANK LIMITED",APBL0008011,NA,KANIGIRI,"THE PDCCBANK LTD., KANIGIRI ,PRAKASAM DIST. PIN 523230",0,KANIGIRI,PRAKASAM,"ANDHRA PRADESH"
"THE ANDHRA PRADESH STATE COOPERATIVE BANK LIMITED",APBL0008010,NA,KANDUKUR,"THE PDCCBANK LTD.,PAMURU ROAD, PRAKASAM DIST. PIN -523105",0,KANDUKUR,PRAKASAM,"ANDHRA PRADESH"
"THE ANDHRA PRADESH STATE COOPERATIVE BANK LIMITED",APBL0008009,NA,INKOLLU,"THE PDCCBANK LTD, GANGARAM ROAD,PRAKASAM DIST. PIN.523167",0,INKOLLU,PRAKASAM,"ANDHRA PRADESH"
"THE ANDHRA PRADESH STATE COOPERATIVE BANK LIMITED",APBL0008008,NA,GIDDALUR,"THE PDCCBANK LTD.,GIDDALRU, PRAKASAM DIST. PIN 523357",0,GIDDALUR,PRAKASAM,"ANDHRA PRADESH"
"THE ANDHRA PRADESH STATE COOPERATIVE BANK LIMITED",APBL0008007,NA,DARSI,"THE PDCCBANK LTD.,DARSI, PRAKASAM DIST. PIN 523247",0,DARSI,PRAKASAM,"ANDHRA PRADESH"
"THE ANDHRA PRADESH STATE COOPERATIVE BANK LIMITED",APBL0008006,NA,CHIRALA,"THE PDCCBANK LTD, CHIRALA, PRAKASAM DIST. PIN 523155",0,CHIRALA,PRAKASAM,"ANDHRA PRADESH"
"THE ANDHRA PRADESH STATE COOPERATIVE BANK LIMITED",APBL0008005,NA,CHIMAKURTHI,"THE PDCCBANK LTD., MAIN ROAD,CHIMAKURHTY, PIN- 523226",0,CHIMAKURTHI,PRAKASAM,"ANDHRA PRADESH"
"THE ANDHRA PRADESH STATE COOPERATIVE BANK LIMITED",APBL0008004,NA,BESTAVARAPET,"THE PDCCBANK LTD., BESTAVARI PET  , PRAKASAM DIST, AP",0,BESTAVARAPET,PRAKASAM,"ANDHRA PRADESH"
"THE ANDHRA PRADESH STATE COOPERATIVE BANK LIMITED",APBL0008003,NA,B.NIDAMANUR,"THE PDCCBANK LTD.,  B.NIDAMNURU, A.P - 523296",0,B.NIDAMANUR,PRAKASAM,"ANDHRA PRADESH"
"THE ANDHRA PRADESH STATE COOPERATIVE BANK LIMITED",APBL0008002,NA,ADDANKI,"THE PDCCBANK LTD., MAIN ROAD,ADDANKI ,  AP ,PIN - 523201",0,ADDANKI,PRAKASAM,"ANDHRA PRADESH"
"THE ANDHRA PRADESH STATE COOPERATIVE BANK LIMITED",APBL0008001,NA,"HEAD OFFICE","THE PDCCBANK LTD,  GOVERNOR ROAD , ONGOLE PIN 523001",0,ONGOLE,PRAKASAM,"ANDHRA PRADESH"
"THE ANDHRA PRADESH STATE COOPERATIVE BANK LIMITED",APBL0007038,522635587,"THE GUNTUR DIST CO OP CENTRAL BANK LTD TADIKONDA","D NO 12 34 BESIDE V M THEATRE MAIN ROAD TADIKONDA 522237",8297345681,TADIKONDA,GUNTUR,"ANDHRA PRADESH"
"THE ANDHRA PRADESH STATE COOPERATIVE BANK LIMITED",APBL0007037,522635563,"THE GUNTUR DIST CO OP CENTRAL BANK LTD BHATTIPROLU","GADDAR BRIDGE ROAD NEAR POST OFFICE BHATTIPROLU",9441127708,BHATTIPROLU,GUNTUR,"ANDHRA PRADESH"
"THE ANDHRA PRADESH STATE COOPERATIVE BANK LIMITED",APBL0007036,NA,"THE GUNTUR DIST. CO-OP. CENTRAL BANK LTD., MANDADAM","D.NO. 4-94/3, GROUND FLOOR, MASJID CENTRE, MANDADAM-522237",243178,MANDADAM,GUNTUR,"ANDHRA PRADESH"
"THE ANDHRA PRADESH STATE COOPERATIVE BANK LIMITED",APBL0007035,NA,KOTAPPAKONDA,"KOTAPPAKONDA, GURAVAYAPALEM (PO), NARASARAOPET MANDAL - 522 601",0,NARSARAOPET,GUNTUR,"ANDHRA PRADESH"
"THE ANDHRA PRADESH STATE COOPERATIVE BANK LIMITED",APBL0007034,NA,VINUKONDA,"VINUKONDA ┬û 522647",0,VINUKONDA,GUNTUR,"ANDHRA PRADESH"
"THE ANDHRA PRADESH STATE COOPERATIVE BANK LIMITED",APBL0007033,NA,VEMURU,"VEMURU ┬û 522261",0,VEMURU,GUNTUR,"ANDHRA PRADESH"
"THE ANDHRA PRADESH STATE COOPERATIVE BANK LIMITED",APBL0007032,NA,THULLUR,"THULLURU ┬û 522237",0,THULLUR,GUNTUR,"ANDHRA PRADESH"
"THE ANDHRA PRADESH STATE COOPERATIVE BANK LIMITED",APBL0007031,NA,SATTENAPALLE,"SATTENAPALLI ┬û 522403",0,SATTENAPALLE,GUNTUR,"ANDHRA PRADESH"
"THE ANDHRA PRADESH STATE COOPERATIVE BANK LIMITED",APBL0007030,NA,SANTHAGUDIPADU,"SANTHAGUDIPADU ┬û 522615",0,GUNTUR,GUNTUR,"ANDHRA PRADESH"
"THE ANDHRA PRADESH STATE COOPERATIVE BANK LIMITED",APBL0007029,NA,REPALLE,"REPALLE ┬û 522265 KIRANA COMPLEX.",0,REPALLE,GUNTUR,"ANDHRA PRADESH"
"THE ANDHRA PRADESH STATE COOPERATIVE BANK LIMITED",APBL0007028,NA,PRATHIPADU,"PRATHIPADU ┬û 522019",0,PRATHIPADU,GUNTUR,"ANDHRA PRADESH"
"THE ANDHRA PRADESH STATE COOPERATIVE BANK LIMITED",APBL0007027,NA,PONNUR,"S.P.P. ROAD, PONNURU ┬û522124",0,PONNUR,GUNTUR,"ANDHRA PRADESH"
"THE ANDHRA PRADESH STATE COOPERATIVE BANK LIMITED",APBL0007026,NA,PIDUGURALLA,"PIDUGURALLA ┬û 522413",0,PIDUGURALLA,GUNTUR,"ANDHRA PRADESH"
"THE ANDHRA PRADESH STATE COOPERATIVE BANK LIMITED",APBL0007025,NA,PHIRANGIPURAM,"PHINRANGIPURAM ┬û 522509",0,PHIRANGIPURAM,GUNTUR,"ANDHRA PRADESH"
"THE ANDHRA PRADESH STATE COOPERATIVE BANK LIMITED",APBL0007024,NA,PEDAKURAPADU,"PEDAKURAPADU ┬û 522402",0,PEDAKURAPADU,GUNTUR,"ANDHRA PRADESH"
"THE ANDHRA PRADESH STATE COOPERATIVE BANK LIMITED",APBL0007023,NA,NIZAMPATNAM,"NIZAMPATNAM ┬û 522314,",0,NIZAMPATNAM,GUNTUR,"ANDHRA PRADESH"
"THE ANDHRA PRADESH STATE COOPERATIVE BANK LIMITED",APBL0007022,NA,NARSARAOPET,"NARASARAOPET, PRAKASH NAGAR ┬û 522602",0,NARSARAOPET,GUNTUR,"ANDHRA PRADESH"
"THE ANDHRA PRADESH STATE COOPERATIVE BANK LIMITED",APBL0007021,NA,MANGALAGIRI,"MANAGALAGIRI ┬û 522503",0,MANGALAGIRI,GUNTUR,"ANDHRA PRADESH"
"THE ANDHRA PRADESH STATE COOPERATIVE BANK LIMITED",APBL0007020,NA,MACHERLA,"MACHERLA ┬û 522426",0,MACHERLA,GUNTUR,"ANDHRA PRADESH"
"THE ANDHRA PRADESH STATE COOPERATIVE BANK LIMITED",APBL0007019,NA,KROSUR,"KROSURU ┬û 522410",0,KROSUR,GUNTUR,"ANDHRA PRADESH"
"THE ANDHRA PRADESH STATE COOPERATIVE BANK LIMITED",APBL0007018,NA,KORITEPADU,"KORITEPADU,  GUNTUR  - 522007",0,GUNTUR,GUNTUR,"ANDHRA PRADESH"
"THE ANDHRA PRADESH STATE COOPERATIVE BANK LIMITED",APBL0007017,NA,"KOLLI PARA","KOLLIPARA -  522304",0,"KOLLI PARA",GUNTUR,"ANDHRA PRADESH"
"THE ANDHRA PRADESH STATE COOPERATIVE BANK LIMITED",APBL0007016,NA,KHAJIPALEM,"┬áKHAJIPALEM ┬û 522329",0,KHAJIPALEM,GUNTUR,"ANDHRA PRADESH"
"THE ANDHRA PRADESH STATE COOPERATIVE BANK LIMITED",APBL0007015,NA,KAKUMANU,"KAKUMANU ┬û 522112",0,KAKUMANU,GUNTUR,"ANDHRA PRADESH"
"THE ANDHRA PRADESH STATE COOPERATIVE BANK LIMITED",APBL0007014,NA,TENALI,"7-5-86, PRAKASAM ROAD,TENALI ┬û 522201",0,TENALI,GUNTUR,"ANDHRA PRADESH"
"THE ANDHRA PRADESH STATE COOPERATIVE BANK LIMITED",APBL0007013,NA,GURAZALA,"GURAZALA ┬û 522415",0,GURAZALA,GUNTUR,"ANDHRA PRADESH"
"THE ANDHRA PRADESH STATE COOPERATIVE BANK LIMITED",APBL0007012,NA,DUGGIRALA,"DUGGIRALA ┬û 522330",0,DUGGIRALA,GUNTUR,"ANDHRA PRADESH"
"THE ANDHRA PRADESH STATE COOPERATIVE BANK LIMITED",APBL0007011,NA,DACHEPALLI,"DACHEPALLI ┬û 522414",0,DACHEPALLI,GUNTUR,"ANDHRA PRADESH"
"THE ANDHRA PRADESH STATE COOPERATIVE BANK LIMITED",APBL0007010,NA,GUNTUR,"2/1, BRODIPET, GUNTUR  - 522002",0,GUNTUR,GUNTUR,"ANDHRA PRADESH"
"THE ANDHRA PRADESH STATE COOPERATIVE BANK LIMITED",APBL0007009,NA,CHILAKALURIPET,"CHILAKALURIPET ┬û 522616TSR COMPLEX.",0,CHILAKALURIPET,GUNTUR,"ANDHRA PRADESH"
"THE ANDHRA PRADESH STATE COOPERATIVE BANK LIMITED",APBL0007008,NA,CHERUKUPALLI,"CHERUKUPALLI ┬û 522309",0,CHERUKUPALLI,GUNTUR,"ANDHRA PRADESH"
"THE ANDHRA PRADESH STATE COOPERATIVE BANK LIMITED",APBL0007007,NA,CHEBROLE,"CHEBROLU ┬û 522212",0,CHEBROLE,GUNTUR,"ANDHRA PRADESH"
"THE ANDHRA PRADESH STATE COOPERATIVE BANK LIMITED",APBL0007006,NA,TENALI,"BOSE ROAD, TENALI  ┬û 522201,",0,TENALI,GUNTUR,"ANDHRA PRADESH"
"THE ANDHRA PRADESH STATE COOPERATIVE BANK LIMITED",APBL0007005,NA,BAPATLA,"M.G, ROAD, BAPATLA ┬û 522101",0,BAPATLA,GUNTUR,"ANDHRA PRADESH"
"THE ANDHRA PRADESH STATE COOPERATIVE BANK LIMITED",APBL0007004,NA,AMARAVATHI,"AMARAVATHI ┬û 522020",0,AMARAVATHI,GUNTUR,"ANDHRA PRADESH"
"THE ANDHRA PRADESH STATE COOPERATIVE BANK LIMITED",APBL0007003,NA,ACB,"KOTHAPETA, BATTALABAZAR,  GUNTUR  ┬û 522001",0,GUNTUR,GUNTUR,"ANDHRA PRADESH"
"THE ANDHRA PRADESH STATE COOPERATIVE BANK LIMITED",APBL0007002,NA,A.O,"2/13, BRODIPET, GUNTUR┬û522002",0,GUNTUR,GUNTUR,"ANDHRA PRADESH"
"THE ANDHRA PRADESH STATE COOPERATIVE BANK LIMITED",APBL0007001,NA,H.O,"NTR BAVAN, 2/13, BRODIPET, GUNTUR┬û522002",0,GUNTUR,GUNTUR,"ANDHRA PRADESH"
"THE ANDHRA PRADESH STATE COOPERATIVE BANK LIMITED",APBL0006054,WAITING,"KRISHNA DCC BANK LTD, BHAVANIPURAM","D NO 1-3-113, OPP. APPALA SWAMY QUARRY, VIDYADARAPURAM, VIJAYAWADA 520012",0,VIJAYAWADA,KRISHNA,"ANDHRA PRADESH"
"THE ANDHRA PRADESH STATE COOPERATIVE BANK LIMITED",APBL0006053,WAITING,"KRISHNA DCC BANK JAVVARPETA","DOOR NO 7/487, JAVVARPETA, MACHILIPATNAM, KRISHNA DISTRICT, 521001",229084,MACHILIPATNAM,KRISHNA,"ANDHRA PRADESH"
"THE ANDHRA PRADESH STATE COOPERATIVE BANK LIMITED",APBL0006052,NA,"THE KRISHNA DIST. CO-OP. CENTRAL BANK LTD.,PAYAKAPURAM","D.NO. 77-16/1-22DPP, LAKSHMI NAGAR COLONY, AJITH SINGH NAGAR, PAYAKAPURAM, VIJAYAWADA-520015",2400486,VIJAYAWADA,KRISHNA,"ANDHRA PRADESH"
"THE ANDHRA PRADESH STATE COOPERATIVE BANK LIMITED",APBL0006051,NA,"NANDIGAMA BAZAR","NANDIGAMA BAZAR",0,NANDIGAMA,KRISHNA,"ANDHRA PRADESH"
"THE ANDHRA PRADESH STATE COOPERATIVE BANK LIMITED",APBL0006050,NA,KODURU,KODURU,0,KODURU,KRISHNA,"ANDHRA PRADESH"
"THE ANDHRA PRADESH STATE COOPERATIVE BANK LIMITED",APBL0006049,NA,"GUDIVADA BAZAAR","GUDIVADA BAZAAR",0,GUDIVADA,KRISHNA,"ANDHRA PRADESH"
"THE ANDHRA PRADESH STATE COOPERATIVE BANK LIMITED",APBL0006048,NA,CHINNAPURAM,CHINNAPURAM,0,CHINNAPURAM,KRISHNA,"ANDHRA PRADESH"
"THE ANDHRA PRADESH STATE COOPERATIVE BANK LIMITED",APBL0006047,NA,CHATRAI,CHATRAI,0,CHATRAI,KRISHNA,"ANDHRA PRADESH"
"THE ANDHRA PRADESH STATE COOPERATIVE BANK LIMITED",APBL0006046,NA,GHANTASALA,GHANTASALA,0,GHANTASALA,KRISHNA,"ANDHRA PRADESH"
"THE ANDHRA PRADESH STATE COOPERATIVE BANK LIMITED",APBL0006045,NA,SATYANARAYANAPURAM,SATYANARAYANAPURAM,0,SATYANARAYANAPURAM,KRISHNA,"ANDHRA PRADESH"
"THE ANDHRA PRADESH STATE COOPERATIVE BANK LIMITED",APBL0006044,NA,KATURU,KATURU,0,KATURU,KRISHNA,"ANDHRA PRADESH"
"THE ANDHRA PRADESH STATE COOPERATIVE BANK LIMITED",APBL0006043,NA,KAMBHAMPADU,KAMBHAMPADU,0,KAMBHAMPADU,KRISHNA,"ANDHRA PRADESH"
"THE ANDHRA PRADESH STATE COOPERATIVE BANK LIMITED",APBL0006042,NA,VATSAVAI,VATSAVAI,0,VATSAVAI,KRISHNA,"ANDHRA PRADESH"
"THE ANDHRA PRADESH STATE COOPERATIVE BANK LIMITED",APBL0006041,NA,GUDURU,GUDURU,0,GUDURU,KRISHNA,"ANDHRA PRADESH"
"THE ANDHRA PRADESH STATE COOPERATIVE BANK LIMITED",APBL0006040,NA,RUDRAPAKA,RUDRAPAKA,0,RUDRAPAKA,KRISHNA,"ANDHRA PRADESH"
"THE ANDHRA PRADESH STATE COOPERATIVE BANK LIMITED",APBL0006039,NA,G.KONDURU,G.KONDURU,0,G.KONDURU,KRISHNA,"ANDHRA PRADESH"
"THE ANDHRA PRADESH STATE COOPERATIVE BANK LIMITED",APBL0006038,NA,CHANDARLAPADU,CHANDARLAPADU,0,CHANDARLAPADU,KRISHNA,"ANDHRA PRADESH"
"THE ANDHRA PRADESH STATE COOPERATIVE BANK LIMITED",APBL0006037,NA,PEDDAPURAM,PEDDAPURAM,0,PEDDAPURAM,KRISHNA,"ANDHRA PRADESH"
"THE ANDHRA PRADESH STATE COOPERATIVE BANK LIMITED",APBL0006036,NA,AGIRIPALLI,AGIRIPALLI,0,AGIRIPALLI,KRISHNA,"ANDHRA PRADESH"
"THE ANDHRA PRADESH STATE COOPERATIVE BANK LIMITED",APBL0006035,NA,TELAPROLU,TELAPROLU,0,TELAPROLU,KRISHNA,"ANDHRA PRADESH"
"THE ANDHRA PRADESH STATE COOPERATIVE BANK LIMITED",APBL0006034,NA,MUSUNURU,MUSUNURU,0,MUSUNURU,KRISHNA,"ANDHRA PRADESH"
"THE ANDHRA PRADESH STATE COOPERATIVE BANK LIMITED",APBL0006033,NA,NAGAYALANKA,NAGAYALANKA,0,NAGAYALANKA,KRISHNA,"ANDHRA PRADESH"
"THE ANDHRA PRADESH STATE COOPERATIVE BANK LIMITED",APBL0006032,NA,SURYARAOPET,SURYARAOPET,0,SURYARAOPET,KRISHNA,"ANDHRA PRADESH"
"THE ANDHRA PRADESH STATE COOPERATIVE BANK LIMITED",APBL0006031,NA,GAMPALAGUDEM,GAMPALAGUDEM,0,GAMPALAGUDEM,KRISHNA,"ANDHRA PRADESH"
"THE ANDHRA PRADESH STATE COOPERATIVE BANK LIMITED",APBL0006030,NA,IBRAHIMPATNAM,IBRAHIMPATNAM,0,IBRAHIMPATNAM,KRISHNA,"ANDHRA PRADESH"
"THE ANDHRA PRADESH STATE COOPERATIVE BANK LIMITED",APBL0006029,NA,PENUGANCHIPROLU,PENUGANCHIPROLU,0,PENUGANCHIPROLU,KRISHNA,"ANDHRA PRADESH"
"THE ANDHRA PRADESH STATE COOPERATIVE BANK LIMITED",APBL0006028,NA,THOTLAVALLURU,THOTLAVALLURU,0,THOTLAVALLURU,KRISHNA,"ANDHRA PRADESH"
"THE ANDHRA PRADESH STATE COOPERATIVE BANK LIMITED",APBL0006027,NA,VEERANKILOCK,VEERANKILOCK,0,VEERANKILOCK,KRISHNA,"ANDHRA PRADESH"
"THE ANDHRA PRADESH STATE COOPERATIVE BANK LIMITED",APBL0006026,NA,VISSANNAPETA,VISSANNAPETA,0,VISSANNAPETA,KRISHNA,"ANDHRA PRADESH"
"THE ANDHRA PRADESH STATE COOPERATIVE BANK LIMITED",APBL0006025,NA,KALIDINDI,KALIDINDI,0,KALIDINDI,KRISHNA,"ANDHRA PRADESH"
"THE ANDHRA PRADESH STATE COOPERATIVE BANK LIMITED",APBL0006024,NA,PEDANA,PEDANA,0,PEDANA,KRISHNA,"ANDHRA PRADESH"
"THE ANDHRA PRADESH STATE COOPERATIVE BANK LIMITED",APBL0006023,NA,MOVVA,MOVVA,0,MOVVA,KRISHNA,"ANDHRA PRADESH"
"THE ANDHRA PRADESH STATE COOPERATIVE BANK LIMITED",APBL0006022,NA,PATAMATA,PATAMATA,0,PATAMATA,KRISHNA,"ANDHRA PRADESH"
"THE ANDHRA PRADESH STATE COOPERATIVE BANK LIMITED",APBL0006021,NA,KANCHIKACHERLA,KANCHIKACHERLA,0,KANCHIKACHERLA,KRISHNA,"ANDHRA PRADESH"
"THE ANDHRA PRADESH STATE COOPERATIVE BANK LIMITED",APBL0006020,NA,KANKIPADU,KANKIPADU,0,KANKIPADU,KRISHNA,"ANDHRA PRADESH"
"THE ANDHRA PRADESH STATE COOPERATIVE BANK LIMITED",APBL0006019,NA,MYLAVARAM,MYLAVARAM,0,MYLAVARAM,KRISHNA,"ANDHRA PRADESH"
"THE ANDHRA PRADESH STATE COOPERATIVE BANK LIMITED",APBL0006018,NA,BANTUMILLI,BANTUMILLI,0,BANTUMILLI,KRISHNA,"ANDHRA PRADESH"
"THE ANDHRA PRADESH STATE COOPERATIVE BANK LIMITED",APBL0006017,NA,"HANUMAN JUNCTION","HANUMAN JUNCTION",0,"HANUMAN JUNCTION",KRISHNA,"ANDHRA PRADESH"
"THE ANDHRA PRADESH STATE COOPERATIVE BANK LIMITED",APBL0006016,NA,PAMARRU,PAMARRU,0,PAMARRU,KRISHNA,"ANDHRA PRADESH"
"THE ANDHRA PRADESH STATE COOPERATIVE BANK LIMITED",APBL0006015,NA,MUDINEPALLI,MUDINEPALLI,0,MUDINEPALLI,KRISHNA,"ANDHRA PRADESH"
"THE ANDHRA PRADESH STATE COOPERATIVE BANK LIMITED",APBL0006014,NA,CHALLAPALLI,CHALLAPALLI,0,CHALLAPALLI,KRISHNA,"ANDHRA PRADESH"
"THE ANDHRA PRADESH STATE COOPERATIVE BANK LIMITED",APBL0006013,NA,GUDLAVALLERU,GUDLAVALLERU,0,GUDLAVALLERU,KRISHNA,"ANDHRA PRADESH"
"THE ANDHRA PRADESH STATE COOPERATIVE BANK LIMITED",APBL0006012,NA,KAIKALURU,KAIKALURU,0,KAIKALURU,KRISHNA,"ANDHRA PRADESH"
"THE ANDHRA PRADESH STATE COOPERATIVE BANK LIMITED",APBL0006011,NA,GANNAVARAM,GANNAVARAM,0,GANNAVARAM,KRISHNA,"ANDHRA PRADESH"
"THE ANDHRA PRADESH STATE COOPERATIVE BANK LIMITED",APBL0006010,NA,"NANDIGAMA MAIN",NANDIGAMA,0,NANDIGAMA,KRISHNA,"ANDHRA PRADESH"
"THE ANDHRA PRADESH STATE COOPERATIVE BANK LIMITED",APBL0006009,NA,AVANIGADDA,AVANIGADDA,0,AVANIGADDA,KRISHNA,"ANDHRA PRADESH"
"THE ANDHRA PRADESH STATE COOPERATIVE BANK LIMITED",APBL0006008,NA,TIRUVURU,TIRUVURU,0,TIRUVURU,KRISHNA,"ANDHRA PRADESH"
"THE ANDHRA PRADESH STATE COOPERATIVE BANK LIMITED",APBL0006007,NA,VUYYURU,VUYYURU,0,VUYYURU,KRISHNA,"ANDHRA PRADESH"
"THE ANDHRA PRADESH STATE COOPERATIVE BANK LIMITED",APBL0006006,NA,"GUDIVADA MAIN",GUDIVADA,0,GUDIVADA,KRISHNA,"ANDHRA PRADESH"
"THE ANDHRA PRADESH STATE COOPERATIVE BANK LIMITED",APBL0006005,NA,NUZIVEEDU,NUZIVEEDU,0,NUZIVEEDU,KRISHNA,"ANDHRA PRADESH"
"THE ANDHRA PRADESH STATE COOPERATIVE BANK LIMITED",APBL0006004,NA,JAGGAIAHPET,JAGGAIAHPET,0,JAGGAIAHPET,KRISHNA,"ANDHRA PRADESH"
"THE ANDHRA PRADESH STATE COOPERATIVE BANK LIMITED",APBL0006003,NA,VIJAYAWADA,VIJAYAWADA,0,VIJAYAWADA,KRISHNA,"ANDHRA PRADESH"
"THE ANDHRA PRADESH STATE COOPERATIVE BANK LIMITED",APBL0006002,NA,MACHILIPATNAM,MACHILIPATNAM,0,MACHILIPATNAM,KRISHNA,"ANDHRA PRADESH"
"THE ANDHRA PRADESH STATE COOPERATIVE BANK LIMITED",APBL0006001,NA,"HEAD OFFICE","27-29-28, NTR SAHAKARA BHAVAN,  KSHEERA SAGAR HOSPITAL ROAD, GOVERNERPET, VIJAYAWADA-208662579523",0,VIJAYAWADA,KRISHNA,"ANDHRA PRADESH"
"THE ANDHRA PRADESH STATE COOPERATIVE BANK LIMITED",APBL0005035,NA,JANGAREDDIGUDEM,"NOVA COLLEGE ROAD, VEGAVARAM",0,JANGAREDDIGUDEM,ELURU,"ANDHRA PRADESH"
"THE ANDHRA PRADESH STATE COOPERATIVE BANK LIMITED",APBL0005034,NA,YERNAGUDEM,"NEAR RTC BUS STAND, YERNAGUDEM",0,YERNAGUDEM,ELURU,"ANDHRA PRADESH"
"THE ANDHRA PRADESH STATE COOPERATIVE BANK LIMITED",APBL0005033,NA,VEERAVASARAM,"MAIN ROAD, VEERAVASARAM",0,VEERAVASARAM,ELURU,"ANDHRA PRADESH"
"THE ANDHRA PRADESH STATE COOPERATIVE BANK LIMITED",APBL0005032,NA,TALLAPUDI,"MAIN ROAD, TALLAPUDI",0,TALLAPUDI,ELURU,"ANDHRA PRADESH"
"THE ANDHRA PRADESH STATE COOPERATIVE BANK LIMITED",APBL0005031,NA,TANUKU,"MAIN ROAD, TANUKU",0,TANUKU,ELURU,"ANDHRA PRADESH"
"THE ANDHRA PRADESH STATE COOPERATIVE BANK LIMITED",APBL0005030,NA,TADEPALLIGUDEM,"BHIMAVARAM ROAD, T.P.GUDEM BAZAAR",0,TADEPALLIGUDEM,ELURU,"ANDHRA PRADESH"
"THE ANDHRA PRADESH STATE COOPERATIVE BANK LIMITED",APBL0005029,NA,TADEPALLIGUDEM,"OLD GOVT. HOSPITAL ROAD, T.P.GUDEM",0,TADEPALLIGUDEM,ELURU,"ANDHRA PRADESH"
"THE ANDHRA PRADESH STATE COOPERATIVE BANK LIMITED",APBL0005028,NA,"SATRAMPADU ROAD","SANTHI NAGAR, SATRAMPADU ROAD, ELURU",0,ELURU,ELURU,"ANDHRA PRADESH"
"THE ANDHRA PRADESH STATE COOPERATIVE BANK LIMITED",APBL0005027,NA,R.R.PETA,"BENDAPUDI VARI STREET, R.R.PETA, ELURU",0,ELURU,ELURU,"ANDHRA PRADESH"
"THE ANDHRA PRADESH STATE COOPERATIVE BANK LIMITED",APBL0005026,NA,PERAVALI,"MAIN ROAD, PERAVALI",0,PERAVALI,ELURU,"ANDHRA PRADESH"
"THE ANDHRA PRADESH STATE COOPERATIVE BANK LIMITED",APBL0005025,NA,PENUGONDA,"MAIN ROAD, PENUGONDA",0,PENUGONDA,ELURU,"ANDHRA PRADESH"
"THE ANDHRA PRADESH STATE COOPERATIVE BANK LIMITED",APBL0005024,NA,PALAKOL,"MATTAM STREET, PALACOLE",0,PALAKOL,ELURU,"ANDHRA PRADESH"
"THE ANDHRA PRADESH STATE COOPERATIVE BANK LIMITED",APBL0005023,NA,NIDADAVOLE,"YERNAGUDEM ROAD, NIDADAVOLE",0,NIDADAVOLE,ELURU,"ANDHRA PRADESH"
"THE ANDHRA PRADESH STATE COOPERATIVE BANK LIMITED",APBL0005022,NA,NARSAPUR,"ROYAPETA, NARASAPURAM",0,NARSAPUR,ELURU,"ANDHRA PRADESH"
"THE ANDHRA PRADESH STATE COOPERATIVE BANK LIMITED",APBL0005021,NA,MOGALTUR,"MAIN ROAD, MOGALTURU",0,MOGALTUR,ELURU,"ANDHRA PRADESH"
"THE ANDHRA PRADESH STATE COOPERATIVE BANK LIMITED",APBL0005020,NA,MARTERU,"CANAL ROAD, MARTERU",0,MARTERU,ELURU,"ANDHRA PRADESH"
"THE ANDHRA PRADESH STATE COOPERATIVE BANK LIMITED",APBL0005019,NA,KOYYALAGUDEM,"MAIN ROAD, KOYYALAGUDEM",0,KOYYALAGUDEM,ELURU,"ANDHRA PRADESH"
"THE ANDHRA PRADESH STATE COOPERATIVE BANK LIMITED",APBL0005018,NA,KOVVUR,"SRMT ROAD, KOVVUR",0,KOVVUR,ELURU,"ANDHRA PRADESH"
"THE ANDHRA PRADESH STATE COOPERATIVE BANK LIMITED",APBL0005017,NA,KAMAVARAPUKOTA,"MAIN ROAD, K.KOTA",0,KAMAVARAPUKOTA,ELURU,"ANDHRA PRADESH"
"THE ANDHRA PRADESH STATE COOPERATIVE BANK LIMITED",APBL0005016,NA,JANGAREDDIGUDEM,"ASWARAO PETA ROAD, J.R.GUDEM",0,JANGAREDDIGUDEM,ELURU,"ANDHRA PRADESH"
"THE ANDHRA PRADESH STATE COOPERATIVE BANK LIMITED",APBL0005015,NA,GOPALAPURAM,"MAIN ROAD, GOPALAPURAM",0,GOPALAPURAM,ELURU,"ANDHRA PRADESH"
"THE ANDHRA PRADESH STATE COOPERATIVE BANK LIMITED",APBL0005014,NA,GANAPAVARAM,"NEAR RTC BUS STAND, GANAPAVARAM",0,GANAPAVARAM,ELURU,"ANDHRA PRADESH"
"THE ANDHRA PRADESH STATE COOPERATIVE BANK LIMITED",APBL0005013,NA,ELAMANCHILI,"MAIN ROAD, ELAMANCHILI",0,ELAMANCHILI,ELURU,"ANDHRA PRADESH"
"THE ANDHRA PRADESH STATE COOPERATIVE BANK LIMITED",APBL0005012,NA,"ELURU BAZAR","OPP. HUNUMAN TEMPLE, KOTHA ROAD, ELURU",0,ELURU,ELURU,"ANDHRA PRADESH"
"THE ANDHRA PRADESH STATE COOPERATIVE BANK LIMITED",APBL0005011,NA,"DWARAKA TIRUMALA","MAIN ROAD, D.TIRUMALA",0,"DWARAKA TIRUMALA",ELURU,"ANDHRA PRADESH"
"THE ANDHRA PRADESH STATE COOPERATIVE BANK LIMITED",APBL0005010,NA,CHAGALLU,"MAIN ROAD, CHAGALLU",0,CHAGALLU,ELURU,"ANDHRA PRADESH"
"THE ANDHRA PRADESH STATE COOPERATIVE BANK LIMITED",APBL0005009,NA,CHINTALAPUDI,"NEAR TELEPHONE OFFICE, CHINTALAPUDI",0,CHINTALAPUDI,ELURU,"ANDHRA PRADESH"
"THE ANDHRA PRADESH STATE COOPERATIVE BANK LIMITED",APBL0005008,NA,"BHIMAVARAM (BAZAR)","JUVVALAPALEM ROAD, BHIMAVARAM",0,BHIMAVARAM,ELURU,"ANDHRA PRADESH"
"THE ANDHRA PRADESH STATE COOPERATIVE BANK LIMITED",APBL0005007,NA,"BHIMAVARAM (MAIN)","NEAR SBI, THYAGARAJ BHAVAN, BHIMAVARAM",0,BHIMAVARAM,ELURU,"ANDHRA PRADESH"
"THE ANDHRA PRADESH STATE COOPERATIVE BANK LIMITED",APBL0005006,NA,BUTTAIGUDEM,"MAIN ROAD, BUTTAIGUDEM",0,BUTTAIGUDEM,ELURU,"ANDHRA PRADESH"
"THE ANDHRA PRADESH STATE COOPERATIVE BANK LIMITED",APBL0005005,NA,BHIMADOLE,"MAIN ROAD, BHIMADOLE",0,BHIMADOLEDE,ELURU,"ANDHRA PRADESH"
"THE ANDHRA PRADESH STATE COOPERATIVE BANK LIMITED",APBL0005004,NA,ATTILI,"BANK STREET, ATTILI",0,ATTILI,ELURU,"ANDHRA PRADESH"
"THE ANDHRA PRADESH STATE COOPERATIVE BANK LIMITED",APBL0005003,NA,AKIVIDU,"NEAR SBI, AKIVEEDU",0,AKIVIDU,ELURU,"ANDHRA PRADESH"
"THE ANDHRA PRADESH STATE COOPERATIVE BANK LIMITED",APBL0005002,NA,"HEAD OFFICE","PANUGANTI VARI STREET, R.R.PET, ELURU",0,ELURU,ELURU,"ANDHRA PRADESH"
"THE ANDHRA PRADESH STATE COOPERATIVE BANK LIMITED",APBL0004053,NA,"THE DIST COOP CENTRAL BANK KAKINADA KARAPA","D NO 147 MAIN ROAD KARAPA KAKINADA RURAL MANDAL EAST GODAVARI DISTRICT ANDHRA PRADESH STATE 533462",2394688,KARAPA,"EAST GODAVARI","ANDHRA PRADESH"
"THE ANDHRA PRADESH STATE COOPERATIVE BANK LIMITED",APBL0004052,NA,"DCCB KAKINADA RAMPACHODAVARAM","D.NO.2-269,RAMPAROAD,BEHINDOLDLIBRARY,RAMPACHODAVARAM,EASTGODAVARIDT,ANDHRAPRADESH,PINCODE-533288",243477,RAMPACHODAVARAM,"EAST GODAVARI","ANDHRA PRADESH"
"THE ANDHRA PRADESH STATE COOPERATIVE BANK LIMITED",APBL0004051,NA,"DCCB KAKINADA SAKHINETIPALLI","D.NO.1-303,GEETA MANDIRAM,SBI ROAD,SAKHINETIPALLI,EAST GODAVARI DT,ANDHRA PRADESH,PIN CODE - 533251",244999,SAKHINETIPALLE,"EAST GODAVARI","ANDHRA PRADESH"
"THE ANDHRA PRADESH STATE COOPERATIVE BANK LIMITED",APBL0004050,NA,"DCCB KAKINADA AMBAJIPETA","OPP.ANDHRABANK,AMBAJIPETA,EASTGODAVARIDIST,ANDHRAPRADESH.PINCODE-533214",243999,KAKINADA,"EAST GODAVARI","ANDHRA PRADESH"
"THE ANDHRA PRADESH STATE COOPERATIVE BANK LIMITED",APBL0004048,NA,YELESWARAM,"D.NO.1-111, RUPULAMMA TEMPLE STREET, YELESWARAM",0,YELESWARAM,KAKINADA,"ANDHRA PRADESH"
"THE ANDHRA PRADESH STATE COOPERATIVE BANK LIMITED",APBL0004047,NA,UPPALAGUPTAM,"D.NO.6-95/30, UPPALAGUPTAM",0,UPPALAGUPTAM,KAKINADA,"ANDHRA PRADESH"
"THE ANDHRA PRADESH STATE COOPERATIVE BANK LIMITED",APBL0004046,NA,TUNI,"D.NO.3-17-419/1, KOMAKULA VARI STREET, TUNI",0,TUNI,KAKINADA,"ANDHRA PRADESH"
"THE ANDHRA PRADESH STATE COOPERATIVE BANK LIMITED",APBL0004045,NA,THORREDU,"D.NO.6-179, BESIDE  OF WATER TANK, THORREDU",0,THORREDU,KAKINADA,"ANDHRA PRADESH"
"THE ANDHRA PRADESH STATE COOPERATIVE BANK LIMITED",APBL0004044,NA,"TEMPLE STREET","D.NO.34-01-33, TEMPLE STREET, KAKINADA",0,KAKINADA,KAKINADA,"ANDHRA PRADESH"
"THE ANDHRA PRADESH STATE COOPERATIVE BANK LIMITED",APBL0004043,NA,TATIPAKA,"D.NO.8-313, BNR COMPLEX, OPP:ANJANEYA SWAMY TEMPLE,TATIPAKA",0,TATIPAKA,KAKINADA,"ANDHRA PRADESH"
"THE ANDHRA PRADESH STATE COOPERATIVE BANK LIMITED",APBL0004042,NA,TALLAREVU,"D.NO.3-18, NEAR VENKATESWARA SWAMY TEMPLE, TALLAREVU",0,TALLAREVU,KAKINADA,"ANDHRA PRADESH"
"THE ANDHRA PRADESH STATE COOPERATIVE BANK LIMITED",APBL0004041,NA,SAMALKOT,"D.NO.13-3-36, GOLIVARI STREET, DEVI CHOWK, SAMALKOT",0,SAMALKOT,KAKINADA,"ANDHRA PRADESH"
"THE ANDHRA PRADESH STATE COOPERATIVE BANK LIMITED",APBL0004040,NA,RAZOLE,"D.NO.2-55, NEAR LIC OFFICE, RAZOLE",0,RAZOLE,KAKINADA,"ANDHRA PRADESH"
"THE ANDHRA PRADESH STATE COOPERATIVE BANK LIMITED",APBL0004039,NA,RAYAVARAM,"D.NO.5-3, BESIDE TELE PHONE EXCHANGE, RAYAVARAM",0,RAMACHANDRAPURAM,KAKINADA,"ANDHRA PRADESH"
"THE ANDHRA PRADESH STATE COOPERATIVE BANK LIMITED",APBL0004038,NA,RAVULAPALEM,"D.NO.8-395, VEDIRESWARAM ROAD, RAVULAPALEM",0,RAVULAPALEM,KAKINADA,"ANDHRA PRADESH"
"THE ANDHRA PRADESH STATE COOPERATIVE BANK LIMITED",APBL0004037,NA,RANGAMPETA,"D.NO.6-121, MAIN ROAD, RANGAMPETA",0,RANGAMPETA,KAKINADA,"ANDHRA PRADESH"
"THE ANDHRA PRADESH STATE COOPERATIVE BANK LIMITED",APBL0004036,NA,RAJANAGARAM,"D.NO.2-183, NEAR MARKET, RAJANAGARAM",0,RAJANAGARAM,KAKINADA,"ANDHRA PRADESH"
"THE ANDHRA PRADESH STATE COOPERATIVE BANK LIMITED",APBL0004035,NA,RAJAHMUNDRY,"D.NO.6-5-7, MAIN ROAD, INNIS PETA, RAJAHMUNDRY",0,RAJAHMUNDRY,KAKINADA,"ANDHRA PRADESH"
"THE ANDHRA PRADESH STATE COOPERATIVE BANK LIMITED",APBL0004034,NA,RAGHUDEVAPURAM,"D.NO.12-133, MAIN ROAD, RAGHUDEVAPURAM",0,RAGHUDEVAPURAM,KAKINADA,"ANDHRA PRADESH"
"THE ANDHRA PRADESH STATE COOPERATIVE BANK LIMITED",APBL0004033,NA,RAMACHANDRAPURAM,"D.NO.19-1-54, NEAR LIC OFFICE, RAMACHANDRAPURAM",0,RAMACHANDRAPURAM,KAKINADA,"ANDHRA PRADESH"
"THE ANDHRA PRADESH STATE COOPERATIVE BANK LIMITED",APBL0004032,NA,PRATHIPADU,"D.NO.6-161, TUNI ROAD, PRATHIPADU",0,PRATHIPADU,KAKINADA,"ANDHRA PRADESH"
"THE ANDHRA PRADESH STATE COOPERATIVE BANK LIMITED",APBL0004031,NA,PITHAPURAM,"D.NO.4-2-26, CHURCH CENTER ROAD, PITHAPURAM",0,PITHAPURAM,KAKINADA,"ANDHRA PRADESH"
"THE ANDHRA PRADESH STATE COOPERATIVE BANK LIMITED",APBL0004030,NA,PEDDAPURAM,"D.NO.6-3-19, NEAR ANJANEYA SWAMY TEMPLE, PEDDAPURAM",0,PEDDAPURAM,KAKINADA,"ANDHRA PRADESH"
"THE ANDHRA PRADESH STATE COOPERATIVE BANK LIMITED",APBL0004029,NA,PEDAPUDI,"D.NO.10-64, NEAR  MDO OFFICE, PEDAPUDI",0,PEDAPUDI,KAKINADA,"ANDHRA PRADESH"
"THE ANDHRA PRADESH STATE COOPERATIVE BANK LIMITED",APBL0004028,NA,PATHAGANNAVARAM,"D.NO.6-115/3B, NEAR POLICE STATION, P.GANNAVARAM",0,PATHAGANNAVARAM,KAKINADA,"ANDHRA PRADESH"
"THE ANDHRA PRADESH STATE COOPERATIVE BANK LIMITED",APBL0004026,NA,MURAMULLA,"D.NO.132-15, I.POLAVARAM ROAD, MURAMALLA",0,MURAMULLA,KAKINADA,"ANDHRA PRADESH"
"THE ANDHRA PRADESH STATE COOPERATIVE BANK LIMITED",APBL0004025,NA,MUKKAMALA,"D.NO.2-143, SIVALAYAM STREET,  MUKKAMALA",0,AMALAPURAM,KAKINADA,"ANDHRA PRADESH"
"THE ANDHRA PRADESH STATE COOPERATIVE BANK LIMITED",APBL0004024,NA,MANDAPETA,"D.NO.5-16-14, BURRUGUNTA TANK ROAD, MANDAPETA",0,MANDAPETA,KAKINADA,"ANDHRA PRADESH"
"THE ANDHRA PRADESH STATE COOPERATIVE BANK LIMITED",APBL0004023,NA,MAMIDIKUDURU,"D.NO.4-34, MAIN  ROAD, MAMIDIKUDURU",0,TATIPAKA,KAKINADA,"ANDHRA PRADESH"
"THE ANDHRA PRADESH STATE COOPERATIVE BANK LIMITED",APBL0004022,NA,MALIKIPURAM,"D.NO.6-286, NEAR SAI BABA TEMPLE, MALIKIPURAM",0,MALIKIPURAM,KAKINADA,"ANDHRA PRADESH"
"THE ANDHRA PRADESH STATE COOPERATIVE BANK LIMITED",APBL0004021,NA,MUMMIDIVARAM,"D.NO.6-161, MAIN ROAD, BALLA GATE CENTER, MUMMIDIVARAM",0,MUMMIDIVARAM,KAKINADA,"ANDHRA PRADESH"
"THE ANDHRA PRADESH STATE COOPERATIVE BANK LIMITED",APBL0004020,NA,KOTHAPETA,"D.NO.8-2(7), OLD BUS STAND CENTER, KOTHAPETA",0,KOTHAPETA,KAKINADA,"ANDHRA PRADESH"
"THE ANDHRA PRADESH STATE COOPERATIVE BANK LIMITED",APBL0004019,NA,KORUKONDA,"D.NO.12/51, NEAR BUS STAND, KORUKONDA",0,KORUKONDA,KAKINADA,"ANDHRA PRADESH"
"THE ANDHRA PRADESH STATE COOPERATIVE BANK LIMITED",APBL0004018,NA,KATRENIKONA,"D.NO.3-45, NEAREST ANDHRA BANK, KATRENIKONA",0,KATRENIKONA,KAKINADA,"ANDHRA PRADESH"
"THE ANDHRA PRADESH STATE COOPERATIVE BANK LIMITED",APBL0004017,NA,KADIAM,"PANCHAYAT STREET,  KADIAM",0,KADIAM,KAKINADA,"ANDHRA PRADESH"
"THE ANDHRA PRADESH STATE COOPERATIVE BANK LIMITED",APBL0004016,NA,JAGGAMPETA,"D.NO.6-76A, DEVI CENTRE,  JAGGAMPETA",0,JAGGAMPETA,KAKINADA,"ANDHRA PRADESH"
"THE ANDHRA PRADESH STATE COOPERATIVE BANK LIMITED",APBL0004015,NA,INAVALLI,"D.NO.4-13, MAIN  ROAD,  INAVILLI",0,INAVALLI,KAKINADA,"ANDHRA PRADESH"
"THE ANDHRA PRADESH STATE COOPERATIVE BANK LIMITED",APBL0004014,NA,GOLLAPALEM,"D.NO.1-72. MAIN ROAD, GOLLAPALEM",0,GOLLAPALEM,KAKINADA,"ANDHRA PRADESH"
"THE ANDHRA PRADESH STATE COOPERATIVE BANK LIMITED",APBL0004013,NA,GOKAVARAM,"D.NO.10-77,  NEAR  OFFICE, GOKAVARAM",0,GOKAVARAM,KAKINADA,"ANDHRA PRADESH"
"THE ANDHRA PRADESH STATE COOPERATIVE BANK LIMITED",APBL0004012,NA,GANGAVARAM,"D.NO.1-16, KOTIPALLI ROAD, K.GANGAVARAM",0,DRAKSHARAMA,KAKINADA,"ANDHRA PRADESH"
"THE ANDHRA PRADESH STATE COOPERATIVE BANK LIMITED",APBL0004011,NA,GANDEPALLI,"D.NO.5-170, CO-OP BANK ST, GANDEPALLI",0,RAJANAGARAM,KAKINADA,"ANDHRA PRADESH"
"THE ANDHRA PRADESH STATE COOPERATIVE BANK LIMITED",APBL0004010,NA,DRAKSHARAMA,"D.NO.1-137,  THOTA PETA, DRAKSHARAMA",0,DRAKSHARAMA,KAKINADA,"ANDHRA PRADESH"
"THE ANDHRA PRADESH STATE COOPERATIVE BANK LIMITED",APBL0004008,NA,ATREYAPURAM,"D.NO.468-1, MAIN  ROAD,  ATREYAPURAM",0,ATREYAPURAM,KAKINADA,"ANDHRA PRADESH"
"THE ANDHRA PRADESH STATE COOPERATIVE BANK LIMITED",APBL0004007,NA,ANNAVARAM,"D.NO.6-72, VAHANALAVEEDHI, ANNAVARAM",0,ANNAVARAM,KAKINADA,"ANDHRA PRADESH"
"THE ANDHRA PRADESH STATE COOPERATIVE BANK LIMITED",APBL0004006,NA,ANGARA,"D.NO.4-174, VENU GOPALA SWAMY TEMPLE STREET, ANGARA",0,ANGARA,KAKINADA,"ANDHRA PRADESH"
"THE ANDHRA PRADESH STATE COOPERATIVE BANK LIMITED",APBL0004005,NA,ANAPARTHI,"D.NO.6-188, CANAL ROAD, ANAPARTHI",0,ANAPARTHI,KAKINADA,"ANDHRA PRADESH"
"THE ANDHRA PRADESH STATE COOPERATIVE BANK LIMITED",APBL0004004,NA,AMALAPURAM,"D.NO.3-3-20, K.AGRAHARAM  ROAD, AMALAPURAM",0,AMALAPURAM,KAKINADA,"ANDHRA PRADESH"
"THE ANDHRA PRADESH STATE COOPERATIVE BANK LIMITED",APBL0004003,NA,ALLAVARAM,"D.NO.6-2, MAIN  ROAD, ALLAVARAM",0,AMALAPURAM,KAKINADA,"ANDHRA PRADESH"
"THE ANDHRA PRADESH STATE COOPERATIVE BANK LIMITED",APBL0004002,NA,ALAMURU,"D.NO.12-126, SAI MADHAVA NILAYAM, ALAMURU",0,ALAMURU,KAKINADA,"ANDHRA PRADESH"
"THE ANDHRA PRADESH STATE COOPERATIVE BANK LIMITED",APBL0004001,NA,KAKINADA,"D.NO.70-01-28/1, NAGAMALLITHOTA JN, KAKINADA",0,KAKINADA,KAKINADA,"ANDHRA PRADESH"
"THE ANDHRA PRADESH STATE COOPERATIVE BANK LIMITED",APBL0003029,NA,YELLAMANCHILI,"MAIN ROSD YELAMANCHILI, VISAKHA DIST",0,YELLAMANCHILI,VISAKHAPATNAM,"ANDHRA PRADESH"
"THE ANDHRA PRADESH STATE COOPERATIVE BANK LIMITED",APBL0003028,NA,"V L NAGAR BRANCH","DOOR NO 10-29-85/1,V.L.NAGAR VISAKHAPATNAM",0,VISAKHAPATNAM,VISAKHAPATNAM,"ANDHRA PRADESH"
"THE ANDHRA PRADESH STATE COOPERATIVE BANK LIMITED",APBL0003027,NA,VISAKHAPATNAM,"D.NO 26-15-176, MAIN ROAD, VISAKHAPATNAM 531001",0,VISAKHAPATNAM,VISAKHAPATNAM,"ANDHRA PRADESH"
"THE ANDHRA PRADESH STATE COOPERATIVE BANK LIMITED",APBL0003026,NA,"STEEL CITY BRANCH","SHOP NO3&6,SECTORV,UKKUNAGARAM,VISAKHAPATNAM",0,VISAKHAPATNAM,VISAKHAPATNAM,"ANDHRA PRADESH"
"THE ANDHRA PRADESH STATE COOPERATIVE BANK LIMITED",APBL0003025,NA,SRIHARIPURAM,"DOOR NO 64-1-51,SRIHARIPURAM,VISAKHAPATNAM-530011",0,SRIHARIPURAM,VISAKHAPATNAM,"ANDHRA PRADESH"
"THE ANDHRA PRADESH STATE COOPERATIVE BANK LIMITED",APBL0003024,NA,"SEETHAMMADHARA BRANCH","DOOR NO 50-44-13, SEETAMMADARA,VISAKHAPATNAM",0,VISAKHAPATNAM,VISAKHAPATNAM,"ANDHRA PRADESH"
"THE ANDHRA PRADESH STATE COOPERATIVE BANK LIMITED",APBL0003023,NA,RAVIKAMATAM,"RAVIKAMATAM,VISAKHA DIST",0,RAVIKAMATAM,VISAKHAPATNAM,"ANDHRA PRADESH"
"THE ANDHRA PRADESH STATE COOPERATIVE BANK LIMITED",APBL0003022,NA,"RLY NEW COLONY BRANCH","DOOR NO 43-9-197,RLY NEWCOLONY,VISAKHAPATNAM",0,VISAKHAPATNAM,VISAKHAPATNAM,"ANDHRA PRADESH"
"THE ANDHRA PRADESH STATE COOPERATIVE BANK LIMITED",APBL0003021,NA,PENDURTI,"DOOR NO 17-89/8,MAIN ROAD,PENDURTHY,VISAKHAPATNAM 71",0,PENDURTI,VISAKHAPATNAM,"ANDHRA PRADESH"
"THE ANDHRA PRADESH STATE COOPERATIVE BANK LIMITED",APBL0003020,NA,PAYAKARAOPET,"DOOR NO 13-4,MAIN ROAD PAYAKARAOPETA,VISAKHA DIST,",0,PAYAKARAOPET,VISAKHAPATNAM,"ANDHRA PRADESH"
"THE ANDHRA PRADESH STATE COOPERATIVE BANK LIMITED",APBL0003019,NA,PADERU,"MAIN ROAD PADERU,VISAKHA DIST",0,PADERU,VISAKHAPATNAM,"ANDHRA PRADESH"
"THE ANDHRA PRADESH STATE COOPERATIVE BANK LIMITED",APBL0003018,NA,NARSIPATNAM,"DOOR NO1-90/10,MAIN ROAD NARSIPATNAM,VISAKHA DT.",0,NARSIPATNAM,VISAKHAPATNAM,"ANDHRA PRADESH"
"THE ANDHRA PRADESH STATE COOPERATIVE BANK LIMITED",APBL0003017,NA,VISAKHAPATNAM,"MARRIPALEM VUDA LAYOUT,DOOR NO58-14-57/1NH-5 VISAKHAPATNAM",0,VISAKHAPATNAM,VISAKHAPATNAM,"ANDHRA PRADESH"
"THE ANDHRA PRADESH STATE COOPERATIVE BANK LIMITED",APBL0003016,NA,MAHARANIPETA,"DOOR NO 14-25-11/A,MAHARANIPETA VISAKHAPATNAM",0,VISAKHAPATNAM,VISAKHAPATNAM,"ANDHRA PRADESH"
"THE ANDHRA PRADESH STATE COOPERATIVE BANK LIMITED",APBL0003015,NA,MADUGULA,"MADUGULA,VISAKHA DIST.",0,MADUGULA,VISAKHAPATNAM,"ANDHRA PRADESH"
"THE ANDHRA PRADESH STATE COOPERATIVE BANK LIMITED",APBL0003014,NA,MADHURAVADA,"DOOR NO 4-75,MADHURAWADA, VISAKHAPATNAM",0,MADHURAVADA,VISAKHAPATNAM,"ANDHRA PRADESH"
"THE ANDHRA PRADESH STATE COOPERATIVE BANK LIMITED",APBL0003013,NA,"M V P COLONY BRANCH","PLOT NOHIG-100,DOOR NO1-83-11/1/1SECTOR-I,MVP COLONY, VISAKHAP[ATNAM",0,VISAKHAPATNAM,VISAKHAPATNAM,"ANDHRA PRADESH"
"THE ANDHRA PRADESH STATE COOPERATIVE BANK LIMITED",APBL0003012,NA,KOTAURATLA,"KOTAURTLA,  MAIN ROAD VISAKHA DIST",0,KOTAURATLA,VISAKHAPATNAM,"ANDHRA PRADESH"
"THE ANDHRA PRADESH STATE COOPERATIVE BANK LIMITED",APBL0003011,NA,"KANCHARAPALEM BRANCH","DOOR NO 57-1-20,KANCHARAPALEM,VISAKHAPATNAM",0,VISAKHAPATNAM,VISAKHAPATNAM,"ANDHRA PRADESH"
"THE ANDHRA PRADESH STATE COOPERATIVE BANK LIMITED",APBL0003010,NA,K.KOTAPADU,"DOOR NO 5-311,K.KOTAPADU, VISAKHA DT",0,K.KOTAPADU,VISAKHAPATNAM,"ANDHRA PRADESH"
"THE ANDHRA PRADESH STATE COOPERATIVE BANK LIMITED",APBL0003009,NA,GOPALAPATNAM,"MAIN ROAD, GOPALAPATNAM VISAKHAPATNAM",0,GOPALAPATNAM,VISAKHAPATNAM,"ANDHRA PRADESH"
"THE ANDHRA PRADESH STATE COOPERATIVE BANK LIMITED",APBL0003008,NA,"GANDHIPLACE BRANCH","D NO 8-1-99, OLD CBI JN, ANDHRA UNIVERSITY ROAD , VISAKHAPATNAM",0,VISAKHAPATNAM,VISAKHAPATNAM,"ANDHRA PRADESH"
"THE ANDHRA PRADESH STATE COOPERATIVE BANK LIMITED",APBL0003007,NA,GAJUWAKA,"D NO 12-60-10/3, BC ROAD, GAJUWAKA VISAKHAPTNAM 530026",0,GAJUWAKA,VISAKHAPATNAM,"ANDHRA PRADESH"
"THE ANDHRA PRADESH STATE COOPERATIVE BANK LIMITED",APBL0003006,NA,"DWARAKANAGAR BRANCH","D NO. 47-10-7/2, NEAR DIMOND PARK, DWARAKANAGAR , VISAKHAPATNAM 16",0,VISAKHAPATNAM,VISAKHAPATNAM,"ANDHRA PRADESH"
"THE ANDHRA PRADESH STATE COOPERATIVE BANK LIMITED",APBL0003005,NA,DEVARAPALLI,"DOOR NO 1-167/1,DEVARAPALLI,",0,DEVARAPALLI,VISAKHAPATNAM,"ANDHRA PRADESH"
"THE ANDHRA PRADESH STATE COOPERATIVE BANK LIMITED",APBL0003004,NA,CHODAVARAM,"COOP COLONY,CHODAVARAM 531036, VISAKHA DT",0,CHODAVARAM,VISAKHAPATNAM,"ANDHRA PRADESH"
"THE ANDHRA PRADESH STATE COOPERATIVE BANK LIMITED",APBL0003003,NA,BHEEMUNIPATNAM,"DOOR NO 12-26-4,BHEEMUNIPATNAM,VISAKHA DIST",0,BHEEMUNIPATNAM,VISAKHAPATNAM,"ANDHRA PRADESH"
"THE ANDHRA PRADESH STATE COOPERATIVE BANK LIMITED",APBL0003002,NA,ANAKAPALLE,"DOOR NO 3-7-22,MAIN ROAD, ANAKAPALLI, VISAKHAPATAM DT 531001",0,ANAKAPALLE,VISAKHAPATNAM,"ANDHRA PRADESH"
"THE ANDHRA PRADESH STATE COOPERATIVE BANK LIMITED",APBL0003001,NA,"SERVICE BRANCH (CENTRAL OFFICE)","MARRIPALEM, VUDA LAYOUT, DOO BO. 58-14-57/2 NH 5 , VISAKHAPATNAM 531009",0,VISAKHAPATNAM,VISAKHAPATNAM,"ANDHRA PRADESH"
"THE ANDHRA PRADESH STATE COOPERATIVE BANK LIMITED",APBL0002017,NA,BALIJIPETABRANCH,"THE DISTRICT CO-OPERATIVE CENTRAL BANK LTD., COLLEGE ROAD, BALIJIPETA MANDAL",0,BOBBILI,VIZIANAGARAM,"ANDHRA PRADESH"
"THE ANDHRA PRADESH STATE COOPERATIVE BANK LIMITED",APBL0002016,NA,VIZIANAGARAM,"THE DISTRICT CO-OPERATIVE CENTRAL BANK LTD., VIZIANAGARAM BRANCH A.G.ROAD, VIZIANAGARAM",0,VIZIANAGARAM,VIZIANAGARAM,"ANDHRA PRADESH"
"THE ANDHRA PRADESH STATE COOPERATIVE BANK LIMITED",APBL0002015,NA,"V.T. AGRAHARAMBRANCH","THE DISTRICT CO-OPERATIVE CENTRAL BANK LTD., V.T.AGRAHARAM BRANCH OPP. ELECTRICAL SUB-STATION, VIZIANAGARAM",0,VIZIANAGARAM,VIZIANAGARAM,"ANDHRA PRADESH"
"THE ANDHRA PRADESH STATE COOPERATIVE BANK LIMITED",APBL0002014,NA,TERLAM,"THE DISTRICT CO-OPERATIVE CENTRAL BANK LTD., THERLAM BRANCH,  CHERUVU GATTU, THERLAM",0,TERLAM,VIZIANAGARAM,"ANDHRA PRADESH"
"THE ANDHRA PRADESH STATE COOPERATIVE BANK LIMITED",APBL0002013,NA,"SEETHANAGARAM  BRANCH","THE DISTRICT CO-OPERATIVE CENTRAL BANK LTD., SEETHANAGARAM BRANCH  DR.NO.2-154, VELAMAVARI STREET, SEETHANAGARAM",0,SEETHANAGARAM,VIZIANAGARAM,"ANDHRA PRADESH"
"THE ANDHRA PRADESH STATE COOPERATIVE BANK LIMITED",APBL0002012,NA,SALUR,"ANJANEYA THEATRE OPP, JAIPORE ROAD",0,SALUR,VIZIANAGARAM,"ANDHRA PRADESH"
"THE ANDHRA PRADESH STATE COOPERATIVE BANK LIMITED",APBL0002011,NA,SRUNGAVARAPUKOTA,"OPP.BARA GANGAMMA TEMPLE",0,SRUNGAVARAPUKOTA,VIZIANAGARAM,"ANDHRA PRADESH"
"THE ANDHRA PRADESH STATE COOPERATIVE BANK LIMITED",APBL0002010,NA,POOSAPATIREGA,"THE DISTRICT CO-OPERATIVE CENTRAL BANK LTD., POOSAPATIREGA BRANCH",0,POOSAPATIREGA,VIZIANAGARAM,"ANDHRA PRADESH"
"THE ANDHRA PRADESH STATE COOPERATIVE BANK LIMITED",APBL0002009,NA,PARVATHIPURAM,"THE DISTRICT CO-OPERATIVE CENTRAL BANK LTD., PARVATHIPURAM BRANCH PADMASREE CINEMA THEATRE OPPSIT SAHARA INDIA UPSTAIRS PARVATI PURAM",0,PARVATHIPURAM,VIZIANAGARAM,"ANDHRA PRADESH"
"THE ANDHRA PRADESH STATE COOPERATIVE BANK LIMITED",APBL0002008,NA,NELLIMERLA,"THE DISTRICT CO-OPERATIVE CENTRAL BANK LTD., NELLIMARLA BRANCH  DR NO.2277, MOIDA JUNCTION, NELLIMARLA",0,NELLIMERLA,VIZIANAGARAM,"ANDHRA PRADESH"
"THE ANDHRA PRADESH STATE COOPERATIVE BANK LIMITED",APBL0002007,NA,KOTHAVALASA,"THE DISTRICT CO-OPERATIVE CENTRAL BANK LTD., KOTHAVALASA BRANCH, VIZIANAGARAM ROAD.",0,KOTHAVALASA,VIZIANAGARAM,"ANDHRA PRADESH"
"THE ANDHRA PRADESH STATE COOPERATIVE BANK LIMITED",APBL0002006,NA,GARIVIDI,"THE DISTRICT CO-OPERATIVE CENTRAL BANK LTD., MAIN ROAD, GARIVIDI BRANCH GARIVIDI TOWN",0,GARIVIDI,VIZIANAGARAM,"ANDHRA PRADESH"
"THE ANDHRA PRADESH STATE COOPERATIVE BANK LIMITED",APBL0002005,NA,GANTYADA,"THE DISTRICT CO-OPERATIVE CENTRAL BANK LTD., GANTYADA BRANCH KOTARUBILLI JUNCTION",0,GANTYADA,VIZIANAGARAM,"ANDHRA PRADESH"
"THE ANDHRA PRADESH STATE COOPERATIVE BANK LIMITED",APBL0002004,NA,GAJAPATHINAGARAM,"THE DISTRICT CO-OPERATIVE CENTRAL BANK LTD., GAJAPATHINAGARAM BRANCH",0,GAJAPATHINAGARAM,VIZIANAGARAM,"ANDHRA PRADESH"
"THE ANDHRA PRADESH STATE COOPERATIVE BANK LIMITED",APBL0002003,NA,CHEEPURUPALLE,"THE DISTRICT CO-OPERATIVE CENTRAL BANK LTD., CHEEPURUPALLI BRANCH 4/112, RAJAM ROAD, MAIN ROAD,CHEEPURUPALLI",0,CHEEPURUPALLE,VIZIANAGARAM,"ANDHRA PRADESH"
"THE ANDHRA PRADESH STATE COOPERATIVE BANK LIMITED",APBL0002002,NA,BOBBILI,"THE DISTRICT CO-OPERATIVE CENTRAL BANK LTD., BOBBILI BRANCH, 33/110A, BALIJIPETA ROAD,BOBBILI",0,BOBBILI,VIZIANAGARAM,"ANDHRA PRADESH"
"THE ANDHRA PRADESH STATE COOPERATIVE BANK LIMITED",APBL0002001,NA,"HEAD OFFICE","THE DISTRICT CO-OPERATIVE CENTRAL BANK LTD., VIZIANAGARAM BRANCH A.G.ROAD, VIZIANAGARAM",0,VIZIANAGARAM,VIZIANAGARAM,"ANDHRA PRADESH"
"THE ANDHRA PRADESH STATE COOPERATIVE BANK LIMITED",APBL0001020,WAITING,"THE DIST. CO-OPERATIVE CENTRAL BANK LTD., SRIKAKULAM - HIRAMANDALAM","D NO 2-26,BESIDE PETROL BUNK,OPP NEELAMMATHALLI TEMPLE, KORADA STREE MAIL ROAD, HIRAMANADALAM - 532459",9160018933,HIRAMANDALAM,SRIKAKULAM,"ANDHRA PRADESH"
"THE ANDHRA PRADESH STATE COOPERATIVE BANK LIMITED",APBL0001019,WAITING,"THE DIST. CO-OPERATIVE CENTRAL BANK LTD., SRIKAKULAM - MANDASA","BESIDES SRSM Z.P. HIGH SCHOOL,MAIN ROAD, MANDASA (MANDAL & TOWN) - 532242",9160018933,MANDASA,SRIKAKULAM,"ANDHRA PRADESH"
"THE ANDHRA PRADESH STATE COOPERATIVE BANK LIMITED",APBL0001018,WAITING,"THE DIST. CO-OPERATIVE CENTRAL BANK LTD., SRIKAKULAM - RANASTHALAM","OPP NEW POLICE STATION, JR PURAM, RANASTHALAM,SRIKAKULAM - 532407",9160018933,SRIKAKULAM,SRIKAKULAM,"ANDHRA PRADESH"
"THE ANDHRA PRADESH STATE COOPERATIVE BANK LIMITED",APBL0001017,WAITING,"THE DIST. CO-OPERATIVE CENTRAL BANK LTD., SRIKAKULAM - DANDIVEEDHI","DANDIVEEDHI DCCB BRANCH, COLLECTOR BUNGALOW ROAD, SRIKAKULAM - 532001",9160018911,SRIKAKULAM,SRIKAKULAM,"ANDHRA PRADESH"
"THE ANDHRA PRADESH STATE COOPERATIVE BANK LIMITED",APBL0001016,NA,"DISTCOOPBANKLTD SRKL GARA","GARA DCCB MDL SRIKAKULAM 532432",228297,GARA,SRIKAKULAM,"ANDHRA PRADESH"
"THE ANDHRA PRADESH STATE COOPERATIVE BANK LIMITED",APBL0001015,NA,"DISTCOOPBANKLTD SRKL CHALLAVANIPETA","MARKET JN JALUMURU MDL SRIKAKULAM 532432",222301,KOTABOMMALI,SRIKAKULAM,"ANDHRA PRADESH"
"THE ANDHRA PRADESH STATE COOPERATIVE BANK LIMITED",APBL0001014,NA,TEKKALI,"RAILWAY STATION ROAD, NEAR OLD BUS STAND, TEKKALI -532 201",0,TEKKALI,SRIKAKULAM,"ANDHRA PRADESH"
"THE ANDHRA PRADESH STATE COOPERATIVE BANK LIMITED",APBL0001013,NA,SRIKAKULAM,"G.T. ROAD, SRIKAKULAM -532 001",0,SRIKAKULAM,SRIKAKULAM,"ANDHRA PRADESH"
"THE ANDHRA PRADESH STATE COOPERATIVE BANK LIMITED",APBL0001012,NA,SOMPETA,"POST OFFICE ROAD, SOMEPTA -532 284",0,SOMPETA,SRIKAKULAM,"ANDHRA PRADESH"
"THE ANDHRA PRADESH STATE COOPERATIVE BANK LIMITED",APBL0001011,NA,RAJAM,"MADAVA BAZAR, RAJAM -532 127",0,RAJAM,SRIKAKULAM,"ANDHRA PRADESH"
"THE ANDHRA PRADESH STATE COOPERATIVE BANK LIMITED",APBL0001010,NA,PONDURU,"MARKET ROAD, PONDURU",0,PONDURU,SRIKAKULAM,"ANDHRA PRADESH"
"THE ANDHRA PRADESH STATE COOPERATIVE BANK LIMITED",APBL0001009,NA,PATHAPATNAM,"MAIN ROAD, PATHAPATNAM",0,PATHAPATNAM,SRIKAKULAM,"ANDHRA PRADESH"
"THE ANDHRA PRADESH STATE COOPERATIVE BANK LIMITED",APBL0001008,NA,PALASA,"MAIN ROAD, PALASA",0,PALASA,SRIKAKULAM,"ANDHRA PRADESH"
"THE ANDHRA PRADESH STATE COOPERATIVE BANK LIMITED",APBL0001007,NA,PALAKONDA,"MUDUNRUVARI VEEDI, PALAKONDA -532 440",0,PALAKONDA,SRIKAKULAM,"ANDHRA PRADESH"
"THE ANDHRA PRADESH STATE COOPERATIVE BANK LIMITED",APBL0001006,NA,NARSANNAPET,"MAIN ROAD, NARASANNAPETA - 532 421",0,NARSANNAPET,SRIKAKULAM,"ANDHRA PRADESH"
"THE ANDHRA PRADESH STATE COOPERATIVE BANK LIMITED",APBL0001005,NA,KOTTURU,"MAIN ROAD, NEAR POLICE STATION, KOTTURU",0,KOTTURU,SRIKAKULAM,"ANDHRA PRADESH"
"THE ANDHRA PRADESH STATE COOPERATIVE BANK LIMITED",APBL0001004,NA,KOTABOMMALI,"MAIN ROAD, KOTABOMMALI -  532 195",0,KOTABOMMALI,SRIKAKULAM,"ANDHRA PRADESH"
"THE ANDHRA PRADESH STATE COOPERATIVE BANK LIMITED",APBL0001003,NA,ICHAPURAM,"NEAR RAMA LODGE, ICHAPURAM- 532 312",0,ICHAPURAM,SRIKAKULAM,"ANDHRA PRADESH"
"THE ANDHRA PRADESH STATE COOPERATIVE BANK LIMITED",APBL0001002,NA,AMADALAVALASA,"MAIN ROAD, NEAR POLICE STATION, AMADALAVALASA  -532 001",0,AMADALAVALASA,SRIKAKULAM,"ANDHRA PRADESH"
"THE ANDHRA PRADESH STATE COOPERATIVE BANK LIMITED",APBL0001001,NA,SRIKAKULAM,"G.T. ROAD, SRIKAKULAM -532 001",0,SRIKAKULAM,SRIKAKULAM,"ANDHRA PRADESH"
"THE ANDHRA PRADESH STATE COOPERATIVE BANK LIMITED",APBL0000126,NA,VIJAYAWADA,"27-29-28, NTR SAHAKARA BHAVAN,  KSHEERA SAGAR HOSPITAL ROAD, GOVERNERPET, VIJAYAWADA-2",9848578645,VIJAYAWADA,PRAKASAM,"ANDHRA PRADESH"
"THE ANDHRA PRADESH STATE COOPERATIVE BANK LIMITED",APBL0000106,NA,TIRUPATI,"PLOT NO 21 RC ROAD , TIRUPATI",9848544241,TIRUPATI,CHITTOOR,"ANDHRA PRADESH"
"THE ANDHRA PRADESH STATE COOPERATIVE BANK LIMITED",APBL0000014,WAITING,CHENCHUPET,"TENALI MUNICIPALITY 1ST WARD, 1ST BLOCK, TS NO.146/4C, PLOT NO MIG A-82, CHENCHUPET, TENALI, GUNTUR DISTRICT 522202",0,TENALI,GUNTUR,"ANDHRA PRADESH"
"THE ANDHRA PRADESH STATE COOPERATIVE BANK LIMITED",APBL0000013,WAITING,MOGALRAJPURAM,"D.NO.32-14-5A,OPP. SIVALAYAM,MOGALRAJPURAM,VIJAYAWADA,KRISHNA DISTRICT-520010",0,VIJAYAWADA,KRISHNA,"ANDHRA PRADESH"
"THE ANDHRA PRADESH STATE COOPERATIVE BANK LIMITED",APBL0000012,WAITING,MANGALAGIRI,"FLAT NO.C-2, GROUND FLOOR,DEEPIKA RESIDENCY,BYPASS ROAD,MANGALAGIRI,GUNTUR DISTRICT-522503",0,MANGALAGIRI,GUNTUR,"ANDHRA PRADESH"
"THE ANDHRA PRADESH STATE COOPERATIVE BANK LIMITED",APBL0000011,WAITING,"CURRENCY NAGAR","H.NO.48-19-5/1,SRI RAMA CHANDRA NAGAR ROAD,BANK COLONY,CURRENCY NAGAR,VIJAYAWADA,KRISHNA DISTRICT-520008",0,VIJAYAWADA,KRISHNA,"ANDHRA PRADESH"
"THE ANDHRA PRADESH STATE COOPERATIVE BANK LIMITED",APBL0000010,WAITING,KANURU,"SAI PLAZA DOOR NO 11-46/1, OPP PINNAMANENI TEACHERS COLONY, NEAR PANTAKALUVA, KANURU MAIN ROAD,VIJAYAWADA - 520007",2553400,VIJAYAWAD,KRISHNA,"ANDHRA PRADESH"
"THE ANDHRA PRADESH STATE COOPERATIVE BANK LIMITED",APBL0000009,WAITING,RAYAPUDI,"DOOR NO 3-34, ADJACENT TO RAYAPUDI PACS, AMARAVATI ROAD, RAYAPUDI VILLAGE,RAYAPUDI PO, TULLURU MANDAL,GUNTUR DISTRICT- 522237",244311,GUNTUR,GUNTUR,"ANDHRA PRADESH"
"THE ANDHRA PRADESH STATE COOPERATIVE BANK LIMITED",APBL0000008,WAITING,"VENUGOPALA NAGAR","DOOR NO 26-46-38, VENUGOPALA NAGAR, NGO COLONY, GUNTUR, GUNTUR DISTRICT- 522004",0,GUNTUR,GUNTUR,"ANDHRA PRADESH"
"THE ANDHRA PRADESH STATE COOPERATIVE BANK LIMITED",APBL0000007,WAITING,RAMAVARAPPADU,"DOOR NO 6-121, S E R CENTRE, PRASADAMPADU, RAMAVARAPPADU POST, VIJAYAWADA 521108",2844145,VIJAYAWADA,KRISHNA,"ANDHRA PRADESH"
"THE ANDHRA PRADESH STATE COOPERATIVE BANK LIMITED",APBL0000006,WAITING,"KALESWARA RAO MARKET","DOOR NO 9-3-3, BRAHMIN VEEDHI, KOTHAPET, VIJAYAWADA 520013",2414909,VIJAYAWADA,KRISHNA,"ANDHRA PRADESH"
"THE ANDHRA PRADESH STATE COOPERATIVE BANK LIMITED",APBL0000005,WAITING,GOLLAPUDI,"DOOR NO 23-3,SAIPURAM COLONY,GOLLAPUDI,VIJAYAWADA 521225",0,VIJAYAWADA,KRISHNA,"ANDHRA PRADESH"
"THE ANDHRA PRADESH STATE COOPERATIVE BANK LIMITED",APBL0000004,WAITING,GANNAVARAM,"DOOR NO 9-121,RAI NAGAR,GANNAVARAM 521345",0,VIJAYAWADA,KRISHNA,"ANDHRA PRADESH"
"THE ANDHRA PRADESH STATE COOPERATIVE BANK LIMITED",APBL0000003,WAITING,"BRUNDAVAN GARDENS","DOOR NO 1-2-55,JKC COLLEGE ROAD,OPP KLP SCHOOL,JKC NAGAR,GUNTUR 522006",0,GUNTUR,GUNTUR,"ANDHRA PRADESH"
"THE ANDHRA PRADESH STATE COOPERATIVE BANK LIMITED",APBL0000002,WAITING,HO-BARKATPURA,"DOOR NO 3-4-447&448,SAHAKARA BHAVAN,BARKATPURA,HYDERABAD 500027",27687459,HYDERABAD,HYDERABAD,TELANGANA
"THE ANDHRA PRADESH STATE COOPERATIVE BANK LIMITED",APBL0000001,NA,RTGS-HO,"TROOP BAZAR, HYDERABAD 500001",8499998636,HYDERABAD,"RANGA REDDY","ANDHRA PRADESH"
