BANK,IFSC,MICR,BRANCH,ADDRESS,CONTACT,CITY,DISTRICT,STATE
"THE WEST BENGAL STATE COOPERATIVE BANK",WBSC0VCCB39,721800302,MIDNAPORE,"AT- CHOTOBAZAR, P.O - MIDNAPUR, DIST.-PASCHIM MEDINIPUR, PIN-721101",275744,MIDNAPORE,"PASCHIM MEDINIPUR","WEST BENGAL"
"THE WEST BENGAL STATE COOPERATIVE BANK",WBSC0VCCB38,721800252,"JHARGRAM EVENING","P.O - JHARGRAM, DIST.-PASCHIM MEDINIPUR, PIN-721507",259741,JHARGRAM,"PASCHIM MEDINIPUR","WEST BENGAL"
"THE WEST BENGAL STATE COOPERATIVE BANK",WBSC0VCCB37,721800956,CHAKRASUL,"P.O - CHAKRASUL, DIST.-PURBA MEDINIPUR, PIN-721456",277007,CHAKRASUL,"PURBA MEDINIPUR","WEST BENGAL"
"THE WEST BENGAL STATE COOPERATIVE BANK",WBSC0VCCB36,721800952,SAUTIA,"P.O - SAUTIA, DIST.-PASCHIM MEDINIPUR, PIN-721457",251251,SAUTIA,"PASCHIM MEDINIPUR","WEST BENGAL"
"THE WEST BENGAL STATE COOPERATIVE BANK",WBSC0VCCB35,721800605,KHAKURDA,"P.O - KHAKURDA, DIST.-PASCHIM MEDINIPUR, PIN-721445",259545,KHAKURDA,"PASCHIM MEDINIPUR","WEST BENGAL"
"THE WEST BENGAL STATE COOPERATIVE BANK",WBSC0VCCB34,721800303,"MIDNAPORE EVENING","AT- CHHOTOBAZAR, P.O - MIDNAPUR, DIST.-PASCHIM MEDINIPUR, PIN-721101",274884,MIDNAPORE,"PASCHIM MEDINIPUR","WEST BENGAL"
"THE WEST BENGAL STATE COOPERATIVE BANK",WBSC0VCCB33,721800103,"MALANCHA ROAD","AT-KHARIDA, P.O - KHARAGPUR, DIST.-PASCHIM MEDINIPUR, PIN-721301",253140,MALANCHA,"PASCHIM MEDINIPUR","WEST BENGAL"
"THE WEST BENGAL STATE COOPERATIVE BANK",WBSC0VCCB32,721800604,GOLGRAM,"P.O - GOLGRAM, DIST.-PASCHIM MEDINIPUR, PIN-721136",240488,GOLGRAM,"PASCHIM MEDINIPUR","WEST BENGAL"
"THE WEST BENGAL STATE COOPERATIVE BANK",WBSC0VCCB31,721800556,SILDA,"P.O - SILDA, DIST.-PASCHIM MEDINIPUR, PIN-721515",252245,SILDA,"PASCHIM MEDINIPUR","WEST BENGAL"
"THE WEST BENGAL STATE COOPERATIVE BANK",WBSC0VCCB30,721800808,SALBONI,"P.O - SALBONI, DIST.-PASCHIM MEDINIPUR, PIN-721147",285255,SALBONI,"PASCHIM MEDINIPUR","WEST BENGAL"
"THE WEST BENGAL STATE COOPERATIVE BANK",WBSC0VCCB29,721800954,PANIPARUL,"P.O - PANIPARUL, DIST.-PURBA MEDINIPUR, PIN-721448",261223,PANIPARUL,"PURBA MEDINIPUR","WEST BENGAL"
"THE WEST BENGAL STATE COOPERATIVE BANK",WBSC0VCCB28,721800807,PIRAKATA,"P.O - PIRAKATA, DIST.-PASCHIM MEDINIPUR, PIN-721516",284546,PIRAKATA,"PASCHIM MEDINIPUR","WEST BENGAL"
"THE WEST BENGAL STATE COOPERATIVE BANK",WBSC0VCCB27,721800607,NARAYANGARH,"P.O - NARAYANGARH, DIST.-PASCHIM MEDINIPUR, PIN-721437",258227,NARAYANGARH,"PASCHIM MEDINIPUR","WEST BENGAL"
"THE WEST BENGAL STATE COOPERATIVE BANK",WBSC0VCCB26,721800608,PINGLA,"P.O - PINGLA, DIST.-PASCHIM MEDINIPUR, PIN-721140",238541,PINGLA,"PASCHIM MEDINIPUR","WEST BENGAL"
"THE WEST BENGAL STATE COOPERATIVE BANK",WBSC0VCCB25,721800557,ROHINI,"P.O - ROHINI, DIST.-PASCHIM MEDINIPUR, PIN-721143",268312,ROHINI,"PASCHIM MEDINIPUR","WEST BENGAL"
"THE WEST BENGAL STATE COOPERATIVE BANK",WBSC0VCCB24,721800806,LALGARH,"P.O - LALGARH, DIST.-PASCHIM MEDINIPUR, PIN-721516",263287,LALGARH,"PASCHIM MEDINIPUR","WEST BENGAL"
"THE WEST BENGAL STATE COOPERATIVE BANK",WBSC0VCCB23,721800551,BALIGERIA,"P.O - BALIGERIA, DIST.-PASCHIM MEDINIPUR, PIN-721125",267367,BALIGERIA,"PASCHIM MEDINIPUR","WEST BENGAL"
"THE WEST BENGAL STATE COOPERATIVE BANK",WBSC0VCCB22,721800553,BELPAHARI,"P.O - BELPAHARI, DIST.-PASCHIM MEDINIPUR, PIN-721501",253205,BELPAHARI,"PASCHIM MEDINIPUR","WEST BENGAL"
"THE WEST BENGAL STATE COOPERATIVE BANK",WBSC0VCCB21,721800402,CONTAI,"P.O -CONTAI, DIST.-PURBA MEDINIPUR, PIN-721401",255211,CONTAI,"PURBA MEDINIPUR","WEST BENGAL"
"THE WEST BENGAL STATE COOPERATIVE BANK",WBSC0VCCB20,721800602,BELDA,"P.O - BELDA, DIST.-PASCHIM MEDINIPUR, PIN-721424",255248,BELDA,"PASCHIM MEDINIPUR","WEST BENGAL"
"THE WEST BENGAL STATE COOPERATIVE BANK",WBSC0VCCB19,721800801,"CHANDRAKONA ROAD","AT- CHANDRAKONA, P.O - SATBANKURA, DIST.-PASCHIM MEDINIPUR, PIN-721253",282234,"CHANDRAKONA ROAD","PASCHIM MEDINIPUR","WEST BENGAL"
"THE WEST BENGAL STATE COOPERATIVE BANK",WBSC0VCCB18,721800955,MONGLAMARO,"P.O - MANGLAMARO, DIST.-PURBA MEDINIPUR, PIN-721434",249223,MONGLAMARO,"PURBA MEDINIPUR","WEST BENGAL"
"THE WEST BENGAL STATE COOPERATIVE BANK",WBSC0VCCB17,721800804,HOOMGARH,"P.O - HOOMGARH, DIST.-PASCHIM MEDINIPUR, PIN-721157",284224,HOOMGARH,"PASCHIM MEDINIPUR","WEST BENGAL"
"THE WEST BENGAL STATE COOPERATIVE BANK",WBSC0VCCB16,721800803,GOALTORE,"P.O - GOALTORE, DIST.-PASCHIM MEDINIPUR, PIN-721228",288222,GOALTORE,"PASCHIM MEDINIPUR","WEST BENGAL"
"THE WEST BENGAL STATE COOPERATIVE BANK",WBSC0VCCB15,721800951,MOHANPUR,"P.O - MOHANPUR, DIST.-PASCHIM MEDINIPUR, PIN-721436",232227,MOHANPUR,"PASCHIM MEDINIPUR","WEST BENGAL"
"THE WEST BENGAL STATE COOPERATIVE BANK",WBSC0VCCB14,721800552,BELIABERAH,"P.O - BELIABERAH, DIST.-PASCHIM MEDINIPUR, PIN-721517",261258,BELIABERAH,"PASCHIM MEDINIPUR","WEST BENGAL"
"THE WEST BENGAL STATE COOPERATIVE BANK",WBSC0VCCB13,721800603,DANTAN,"P.O - DANTAN, DIST.-PASCHIM MEDINIPUR, PIN-721426",253235,DANTAN,"PASCHIM MEDINIPUR","WEST BENGAL"
"THE WEST BENGAL STATE COOPERATIVE BANK",WBSC0VCCB12,721800555,GIDHNI,"P.O - GIDHNI, DIST.-PASCHIM MEDINIPUR, PIN-721505",268239,GIDHNI,"PASCHIM MEDINIPUR","WEST BENGAL"
"THE WEST BENGAL STATE COOPERATIVE BANK",WBSC0VCCB11,721800953,PRATAPDIGHI,"P.O - PRATAPDIGHI, DIST.-PURBA MEDINIPUR, PIN-721440",246222,PRATAPDIGHI,"PURBA MEDINIPUR","WEST BENGAL"
"THE WEST BENGAL STATE COOPERATIVE BANK",WBSC0VCCB10,721800554,GOPIBALLAVPUR,"P.O - GOPIBALLAVPUR, DIST.-PASCHIM MEDINIPUR, PIN-721506",266236,GOPIBALLAVPUR,"PASCHIM MEDINIPUR","WEST BENGAL"
"THE WEST BENGAL STATE COOPERATIVE BANK",WBSC0VCCB09,721800609,SABONG,"P.O - SABANG, DIST.-PASCHIM MEDINIPUR, PIN-721144",249223,SABONG,"PASCHIM MEDINIPUR","WEST BENGAL"
"THE WEST BENGAL STATE COOPERATIVE BANK",WBSC0VCCB08,721800805,KESHPUR,"P.O - KESHPUR, DIST.-PASCHIM MEDINIPUR, PIN-721150",250236,KESHPUR,"PASCHIM MEDINIPUR","WEST BENGAL"
"THE WEST BENGAL STATE COOPERATIVE BANK",WBSC0VCCB07,721800606,KESHIARY,"P.O - KESHIARY, DIST.-PASCHIM MEDINIPUR, PIN-721133",252227,KESHIARY,"PASCHIM MEDINIPUR","WEST BENGAL"
"THE WEST BENGAL STATE COOPERATIVE BANK",WBSC0VCCB06,721800802,GARHBETA,"P.O - GARHBETA, DIST.-PASCHIM MEDINIPUR, PIN-721127",265057,GARHBETA,"PASCHIM MEDINIPUR","WEST BENGAL"
"THE WEST BENGAL STATE COOPERATIVE BANK",WBSC0VCCB05,721800051,EGRA,"P.O - EGRA, DIST.-PURBA MEDINIPUR, PIN-721429",244232,EGRA,"PURBA MEDINIPUR","WEST BENGAL"
"THE WEST BENGAL STATE COOPERATIVE BANK",WBSC0VCCB04,721800601,BALICHAK,"P.O - BALICHAK, DIST.-PASCHIM MEDINIPUR, PIN-721124",244241,BALICHAK,"PASCHIM MEDINIPUR","WEST BENGAL"
"THE WEST BENGAL STATE COOPERATIVE BANK",WBSC0VCCB03,721800102,KHARAGPUR,"AT- KOUSHALYA, P.O - KHARAGPUR, DIST.-PASCHIM MEDINIPUR, PIN-721301",255404,KHARAGPUR,"PASCHIM MEDINIPUR","WEST BENGAL"
"THE WEST BENGAL STATE COOPERATIVE BANK",WBSC0VCCB02,721800251,JHARGRAM,"P.O - JHARGRAM, DIST.-PASCHIM MEDINIPUR, PIN-721507",255023,JHARGRAM,"PASCHIM MEDINIPUR","WEST BENGAL"
"THE WEST BENGAL STATE COOPERATIVE BANK",WBSC0VCCB01,721800000,"HEAD OFFICE","P.O - MIDNAPUR, DIST.-PASCHIM MEDINIPUR, PIN-721101",275417,MIDNAPORE,"PASCHIM MEDINIPUR","WEST BENGAL"
"THE WEST BENGAL STATE COOPERATIVE BANK",WBSC0TUCB01,700093255,MAHINAGAR,"PO-MALANCHA-MAHINAGAR  VILL-MAHINAGAR",24379149,KOLKATA,"24 PGS NORTH","WEST BENGAL"
"THE WEST BENGAL STATE COOPERATIVE BANK",WBSC0TCCB23,NA,"TAMLUK GHATAL CENTRAL CO OPERATIVE BANK LTD HEAD OFFICE","VILL-TAMLUK,POST-TAMLUK,P.S-TAMLUK",9332612699,TAMLUK,"PURBA MEDINIPUR","WEST BENGAL"
"THE WEST BENGAL STATE COOPERATIVE BANK",WBSC0TCCB22,NA,"T G C COOP BANK LTD SAGARPUR","VILL P.O SAGARPUR P.S DASPUR PASCHIM MEDINIPUR PIN 721211",0,SAGARPUR,MEDINIPUR,"WEST BENGAL"
"THE WEST BENGAL STATE COOPERATIVE BANK",WBSC0TCCB21,NA,"T G C COOP BANK LTD RAMJIBANPUR","VILL P.O RAMJIBANPUR P.S CHANDRAKONA PASCHIM MEDINIPUR PIN 721242",0,RAMJIBANPUR,MEDINIPUR,"WEST BENGAL"
"THE WEST BENGAL STATE COOPERATIVE BANK",WBSC0TCCB20,NA,"TCCB SONAKHALI","SOYLA SONAKHALI DASPUR PASCHIM MEDINIPUR PIN 721146",0,SONAKHALI,MEDINIPUR,"WEST BENGAL"
"THE WEST BENGAL STATE COOPERATIVE BANK",WBSC0TCCB19,NA,"TCCB NIMTAURI","UTTAR NARIKELDA DAKSHIN NARIKELDA TAMLUK PURBA MEDINIPUR PIN 721648",0,TAMLUK,"PURBA MEDINIPUR","WEST BENGAL"
"THE WEST BENGAL STATE COOPERATIVE BANK",WBSC0TCCB18,NA,"TCCB BRAJALALCHAK","BRAJALALCHAWK DAKSHINCHAK BHWANIPUR PURBA MEDINIPUR PIN 721654",0,"BRAJALAL CHAWK","PURBA MEDINIPUR","WEST BENGAL"
"THE WEST BENGAL STATE COOPERATIVE BANK",WBSC0TCCB17,NA,NONAKURI,"NONAKURI NONAKURI BAZAR PIN 721172",0,NONAKURIBAZAR,"PURBA MEDINIPUR","WEST BENGAL"
"THE WEST BENGAL STATE COOPERATIVE BANK",WBSC0TCCB16,NA,NANDIGRAM,"NANDIGRAM PURBA MEDINIPUR PIN 721631",0,NANDIGRAM,"PURBA MEDINIPUR","WEST BENGAL"
"THE WEST BENGAL STATE COOPERATIVE BANK",WBSC0TCCB15,NA,KHIRPAI,"KHIRPAI PASCHIM MEDINIPUR PIN 721232",0,KHIRPAI,MEDINIPUR,"WEST BENGAL"
"THE WEST BENGAL STATE COOPERATIVE BANK",WBSC0TCCB14,NA,NANDAKUMAR,"NANDAKUMAR PURBA MEDINIPUR PIN 721632",0,NANDAKUMAR,"PURBA MEDINIPUR","WEST BENGAL"
"THE WEST BENGAL STATE COOPERATIVE BANK",WBSC0TCCB13,NA,DASPUR,"DASPUR PASCHIM MEDINIPUR PIN 721211",0,DASSPUR,MEDINIPUR,"WEST BENGAL"
"THE WEST BENGAL STATE COOPERATIVE BANK",WBSC0TCCB12,NA,CHAITANYAPUR,"CHAITANYAPUR PURBA MEDINIPUR PIN 721645",0,CHAITANYAPUR,"PURBA MEDINIPUR","WEST BENGAL"
"THE WEST BENGAL STATE COOPERATIVE BANK",WBSC0TCCB11,NA,MATHCHANDIPUR,"CHANDIPUR MATHCHANDIPUR PIN 721659",0,MATCHANDIPUR,"PURBA MEDINIPUR","WEST BENGAL"
"THE WEST BENGAL STATE COOPERATIVE BANK",WBSC0TCCB10,NA,KOLAGHAT,"KOLAGHAT PURBA MEDINIPUR PIN 721134",0,KOLAGHAT,"PURBA MEDINIPUR","WEST BENGAL"
"THE WEST BENGAL STATE COOPERATIVE BANK",WBSC0TCCB09,NA,MAHISHADAL,"GARH KAMALPUR MAHISHADAL PIN 721628",0,MAHISHADAL,"PURBA MEDINIPUR","WEST BENGAL"
"THE WEST BENGAL STATE COOPERATIVE BANK",WBSC0TCCB08,NA,GOURA,"CHECHUA GOBINDANAGAR PASCHIM MEDINIPUR PIN 721146",0,GOURA,MEDINIPUR,"WEST BENGAL"
"THE WEST BENGAL STATE COOPERATIVE BANK",WBSC0TCCB07,NA,REAPARA,"REAPARA PURBA MEDINIPUR PIN 721650",0,REYAPARA,"PURBA MEDINIPUR","WEST BENGAL"
"THE WEST BENGAL STATE COOPERATIVE BANK",WBSC0TCCB06,NA,MOYNA,"ANANDAPUR MOYNA PIN 721629",0,MOYNA,"PURBA MEDINIPUR","WEST BENGAL"
"THE WEST BENGAL STATE COOPERATIVE BANK",WBSC0TCCB05,NA,CHANDRAKONA,"CHANDRAKONA TOWN PIN 721201",0,CHANDRAKONA,MEDINIPUR,"WEST BENGAL"
"THE WEST BENGAL STATE COOPERATIVE BANK",WBSC0TCCB04,NA,HALDIA,"DURGACHAK NEAR SUPERMARKET PURBA MEDINIPUR PIN 721602",0,"DURGA CHOWK","PURBA MEDINIPUR","WEST BENGAL"
"THE WEST BENGAL STATE COOPERATIVE BANK",WBSC0TCCB03,NA,PANSKURA,"BAHARGRAM PANSKURA R.S PIN 721152",0,PANSKURA,"PURBA MEDINIPUR","WEST BENGAL"
"THE WEST BENGAL STATE COOPERATIVE BANK",WBSC0TCCB02,NA,GHATAL,"VILL P.O GHATAL PASCHIM MEDINIPUR PIN 721212",0,GHATAL,MEDINIPUR,"WEST BENGAL"
"THE WEST BENGAL STATE COOPERATIVE BANK",WBSC0TCCB01,NA,"TAMLUK MAIN","TAMLUK PURBA MEDINIPUR WEST BENGAL PIN 721636",0,TAMLUK,TAMLUK,"WEST BENGAL"
"THE WEST BENGAL STATE COOPERATIVE BANK",WBSC0RCCB16,NA,"CHOPRA BR","BESIDE CHOPRA RURAL LIBRARY,CHOPRA",0,CHOPRA,"U/ DINAJPUR","WEST BENGAL"
"THE WEST BENGAL STATE COOPERATIVE BANK",WBSC0RCCB15,NA,"ISLAMPUR BR","GROUND FLOOR ZEELA PARISAD BANGLO,ISLAMPUR",0,ISLAMPUR,"U/ DINAJPUR","WEST BENGAL"
"THE WEST BENGAL STATE COOPERATIVE BANK",WBSC0RCCB14,NA,"PANJIPARA BR","BESIDE BAS STAND,KANKI",0,PANJIPARA,"U/ DINAJPUR","WEST BENGAL"
"THE WEST BENGAL STATE COOPERATIVE BANK",WBSC0RCCB13,NA,"KANKI BR","BESIDE KANKI JAIN BIDYAMANDIR,KANKI",0,KANKI,"U/ DINAJPUR","WEST BENGAL"
"THE WEST BENGAL STATE COOPERATIVE BANK",WBSC0RCCB12,NA,"DALKHOLA BR","N.H.34,NEAR RAILWAY GHOOMTY,DALKHOLA",0,DALKHOLA,"U/ DINAJPUR","WEST BENGAL"
"THE WEST BENGAL STATE COOPERATIVE BANK",WBSC0RCCB11,NA,"TUNGIDIGHI BR","N.H.34,BESIDE BUS STAND,TUNGIDIGHI",0,TUNGIDIGHI,"U/ DINAJPUR","WEST BENGAL"
"THE WEST BENGAL STATE COOPERATIVE BANK",WBSC0RCCB10,NA,"ITAHAR BR","THANA ROAD,ITAHAR,UBYDINAJPUR",0,ITAHAR,"U/ DINAJPUR","WEST BENGAL"
"THE WEST BENGAL STATE COOPERATIVE BANK",WBSC0RCCB09,NA,"KUNOR BR","KUNOR BUS STAND,KUNOR,UBYDINAJPUR",0,KUNOR,"U/ DINAJPUR","WEST BENGAL"
"THE WEST BENGAL STATE COOPERATIVE BANK",WBSC0RCCB08,NA,"HEMTABAD BR","HEMTABAD BUS STAND,HEMTABAD",0,HEMTABAD,"U/ DINAJPUR","WEST BENGAL"
"THE WEST BENGAL STATE COOPERATIVE BANK",WBSC0RCCB07,NA,"KALIYAGANJ BR","OPP.OF KALIYAGANJ STATION,KALIYAGANJ",0,KALIYAGANJ,"U/ DINAJPUR","WEST BENGAL"
"THE WEST BENGAL STATE COOPERATIVE BANK",WBSC0RCCB06,NA,"KUSHMANDI BR","KUSHMANDI BUS STAND,DBYDINAJPUR",0,KUSHMANDI,"D/ DINAJPUR","WEST BENGAL"
"THE WEST BENGAL STATE COOPERATIVE BANK",WBSC0RCCB05,NA,"HARIRAMPUR BR","HARIRAMPUR,DBYDINAJPUR",0,HARIRAMPUR,"D/ DINAJPUR","WEST BENGAL"
"THE WEST BENGAL STATE COOPERATIVE BANK",WBSC0RCCB04,NA,"BUNIADPUR BR","BUNIADPUR BUS STAND,DBYDINAJPUR",0,BUNIADPUR,"D/ DINAJPUR","WEST BENGAL"
"THE WEST BENGAL STATE COOPERATIVE BANK",WBSC0RCCB03,NA,"UKILPARA BR","TOWN CLUB LANE,UKILPARA,RAIGANJ",0,RAIGANJ,U/DINAJPUR,"WEST BENGAL"
"THE WEST BENGAL STATE COOPERATIVE BANK",WBSC0RCCB02,NA,"MOHANBATI BR","N.S.ROAD,RAIGANJ",0,RAIGANJ,U/DINAJPUR,"WEST BENGAL"
"THE WEST BENGAL STATE COOPERATIVE BANK",WBSC0RCCB01,NA,"RAIGANJ MAIN BR","UKILPARA,INSTITUTE BUILDING,RAIGANJ,RAIGANJ",0,RAIGANJ,RAIGANJ,"WEST BENGAL"
"THE WEST BENGAL STATE COOPERATIVE BANK",WBSC0PCCB08,NA,RAGHUNATHPUR,"BARAKAR ROAD,NEAR L I CI BLDG,AT AND P O RAGHUNATHPUR",0,PURULIA,PURULIA,"WEST BENGAL"
"THE WEST BENGAL STATE COOPERATIVE BANK",WBSC0PCCB07,NA,MANBAZAR,"HOSPITAL ROAD,AT AND P O MANBAZAR,DIST PURULIA PIN 723131",0,PURULIA,PURULIA,"WEST BENGAL"
"THE WEST BENGAL STATE COOPERATIVE BANK",WBSC0PCCB06,NA,"KASHIPUR PURULIA","HAT TOLA MORE,NEAR KASHIPUR,G P OFFICE,P O P K RAJ,DIST PURULIA 723132",0,PURULIA,PURULIA,"WEST BENGAL"
"THE WEST BENGAL STATE COOPERATIVE BANK",WBSC0PCCB05,NA,BALARAMPUR,"BARABAZAR ROAD,AT BALARAMPUR,P O RANGADIH,DIST PURULIA PIN 723143",0,PURULIA,PURULIA,"WEST BENGAL"
"THE WEST BENGAL STATE COOPERATIVE BANK",WBSC0PCCB04,NA,"JHALDA BRANCH","PURULIA MAIN ROAD,AT AND P O JHALDA,DIST PURULIA,PIN 723202",0,PURULIA,PURULIA,"WEST BENGAL"
"THE WEST BENGAL STATE COOPERATIVE BANK",WBSC0PCCB03,NA,"PURULIYA DAY","RANCHI ROAD,P O AND DIST PURULIA PIN 723101",0,PURULIA,PURULIA,"WEST BENGAL"
"THE WEST BENGAL STATE COOPERATIVE BANK",WBSC0PCCB02,NA,"PURULIYA DAY","RANCHI ROAD,P O AND DIST PURULIA PIN 723101",0,PURULIA,PURULIA,"WEST BENGAL"
"THE WEST BENGAL STATE COOPERATIVE BANK",WBSC0PCCB01,NA,"HEAD OFFICE","RANCHI ROAD,P O AND DIST PURULIA PIN 723101",0,PURULIA,PURULIA,"WEST BENGAL"
"THE WEST BENGAL STATE COOPERATIVE BANK",WBSC0NDCB22,NA,"NADIA DISTRICT CENTRAL CO-OPERATIVE BANK LTD","BAGULA COLLEGE ROAD P-O BAGULA",256771,BAGULA,NADIA,"WEST BENGAL"
"THE WEST BENGAL STATE COOPERATIVE BANK",WBSC0NDCB21,NA,"NADIA DISTRICT CENTRAL CO-OPERATIVE BANK LTD","VILL & P.O-5/672 KATAGANJA P.O BEDIBHAWAN DIST-NADIA PIN-741250",8373072135,KRISHNANAGAR,NADIA,"WEST BENGAL"
"THE WEST BENGAL STATE COOPERATIVE BANK",WBSC0NDCB20,NA,"NADIA DISTRICT CENTRAL CO-OPERATIVE BANK LTD","VILL & P.O MADANPUR P.S CHAKDA DIST NADIA PIN-741545",8373072135,KRISHNANAGAR,NADIA,"WEST BENGAL"
"THE WEST BENGAL STATE COOPERATIVE BANK",WBSC0NDCB19,NA,"NADIA DISTRICT CENTRAL CO-OPERATIVE BANK LTD","M M GHOSH STREET P.O KRISHNANAGAR DIST- NADIA PIN-741101",8373072135,KRISHNANAGAR,NADIA,"WEST BENGAL"
"THE WEST BENGAL STATE COOPERATIVE BANK",WBSC0NDCB18,NA,"NADIA DISTRICT CENTRAL CO-OPERATIVE BANK LTD","M M GHOSH STREET P.O KRISHNANAGAR DIST NADIA PIN 741101",8373072135,KRISHNANAGAR,NADIA,"WEST BENGAL"
"THE WEST BENGAL STATE COOPERATIVE BANK",WBSC0NDCB17,741807505,MAJDIA,"MAJDIA RAIL BAZAR",276055,MAJDIA,NADIA,"WEST BENGAL"
"THE WEST BENGAL STATE COOPERATIVE BANK",WBSC0NDCB16,700093263,KALYANI,"KALYANI, CENTRAL PARK",25826101,KALYANI,NADIA,"WEST BENGAL"
"THE WEST BENGAL STATE COOPERATIVE BANK",WBSC0NDCB15,741807506,DHUBULIA,"DHUBULIA BATTALA BAZAR",261247,DHUBULIA,NADIA,"WEST BENGAL"
"THE WEST BENGAL STATE COOPERATIVE BANK",WBSC0NDCB14,741807509,PALASIPARA,PALASIPARA,252238,PALASIPARA,NADIA,"WEST BENGAL"
"THE WEST BENGAL STATE COOPERATIVE BANK",WBSC0NDCB13,741807507,SANTIPUR,"SANTIPUR K.C. DAS ROAD",278041,SANTIPUR,NADIA,"WEST BENGAL"
"THE WEST BENGAL STATE COOPERATIVE BANK",WBSC0NDCB12,741807302,NABADWIP,"NABADWIP BOWBAZAR",240346,NABADWIP,NADIA,"WEST BENGAL"
"THE WEST BENGAL STATE COOPERATIVE BANK",WBSC0NDCB11,741807510,TEHATTA,"TEHATTA JITPUR MORE",250248,TEHATTA,NADIA,"WEST BENGAL"
"THE WEST BENGAL STATE COOPERATIVE BANK",WBSC0NDCB10,741807503,HANSKHALI,"HANSKHALI BUS STAND",231011,HANSKHALI,NADIA,"WEST BENGAL"
"THE WEST BENGAL STATE COOPERATIVE BANK",WBSC0NDCB09,741807501,CHAPRA,"CHAPRA BAZAR",270242,CHAPRA,NADIA,"WEST BENGAL"
"THE WEST BENGAL STATE COOPERATIVE BANK",WBSC0NDCB08,741807508,DEBAGRAM,"DEBAGRAM CHOURASTAR MORE",266216,DEBAGRAM,NADIA,"WEST BENGAL"
"THE WEST BENGAL STATE COOPERATIVE BANK",WBSC0NDCB07,741807504,BADKULLA,"BADKULLA BAZAR",270223,BADKULLA,NADIA,"WEST BENGAL"
"THE WEST BENGAL STATE COOPERATIVE BANK",WBSC0NDCB06,741807601,CHAKDHA,"CHAKDHA MUNICIPALATY MARKET",245056,CHAKDHA,NADIA,"WEST BENGAL"
"THE WEST BENGAL STATE COOPERATIVE BANK",WBSC0NDCB05,741807502,BETHUADAHARY,"BETHUADAHARI BAZAR",255235,BETHUADAHARY,NADIA,"WEST BENGAL"
"THE WEST BENGAL STATE COOPERATIVE BANK",WBSC0NDCB04,741807602,HARINGHATA,"HARINGHATA BAZAR",233373,HARINGHATA,NADIA,"WEST BENGAL"
"THE WEST BENGAL STATE COOPERATIVE BANK",WBSC0NDCB03,741807511,KARIMPUR,"KARIMPUR, THANAR MORE",255119,KARIMPUR,NADIA,"WEST BENGAL"
"THE WEST BENGAL STATE COOPERATIVE BANK",WBSC0NDCB02,741807202,RANAGHAT,"PANDIT KALIMOY GHATAK  LANE , RANAGHAT-741201",210070,RANAGHAT,NADIA,"WEST BENGAL"
"THE WEST BENGAL STATE COOPERATIVE BANK",WBSC0NDCB01,741807102,"KRISHNAGAR MAIN BRANCH","M.M. GHOSH STREET KRISHNAGAR-741101",252789,KRISHNAGAR,NADIA,"WEST BENGAL"
"THE WEST BENGAL STATE COOPERATIVE BANK",WBSC0MUCB01,NA,"KOLKATA MAHILA COOP BANK","8D,KRISHNA LAHA LANE,BOWBAZAR",0,KOLKATA,KOLKATA,"WEST BENGAL"
"THE WEST BENGAL STATE COOPERATIVE BANK",WBSC0MGCB12,721812911,"MUGBERIA CENTRAL CO OPERATIVE BANK LTD","VILL-SAIYADPUR,POST-RAMNAGAR",270223,RAMNAGAR,"PURBA MEDINIPUR","WEST BENGAL"
"THE WEST BENGAL STATE COOPERATIVE BANK",WBSC0MGCB11,721812910,"MGCB,BHAGWANPUR  EVENING","VILL -BENUDIA P.O - BHAGWANPUR, P.S. - BHAGWANPUR, DIST-PURBA MEDINIPUR-721601",3220272004,MUGBERIA,"PURBA MEDINIPUR","WEST BENGAL"
"THE WEST BENGAL STATE COOPERATIVE BANK",WBSC0MGCB10,721812909,"MGCB,CONTAI MOR EVE","SARASWATITALA ,P.O - CONTAI, P.S. - CONTAI, DIST-PURBA MEDINIPUR-721401",3220259603,MUGBERIA,"PURBA MEDINIPUR","WEST BENGAL"
"THE WEST BENGAL STATE COOPERATIVE BANK",WBSC0MGCB09,721812908,"MGCB,HARIA","VILL + P.O - HARIA, P.S. - KHEJURI, DIST-PURBA MEDINIPUR-721430",3220276388,MUGBERIA,"PURBA MEDINIPUR","WEST BENGAL"
"THE WEST BENGAL STATE COOPERATIVE BANK",WBSC0MGCB08,721812907,"MGCB,MADHAKHALI EVE","VILL + P.O - MADHAKHALI, P.S. - BHUPATINAGAR, DIST-PURBA MEDINIPUR-721425",3220270535,MUGBERIA,"PURBA MEDINIPUR","WEST BENGAL"
"THE WEST BENGAL STATE COOPERATIVE BANK",WBSC0MGCB07,721812906,"MGCB,JANKA","VILL + P.O - JANKA, P.S. - KHEJURI, DIST-PURBA MEDINIPUR-721431",3220282275,MUGBERIA,"PURBA MEDINIPUR","WEST BENGAL"
"THE WEST BENGAL STATE COOPERATIVE BANK",WBSC0MGCB06,721812905,"MGCB,ITABERIA","VILL &  P.O - ITABERIA, P.S. - BHUPATINAGAR, DIST-PURBA MEDINIPUR-721456",3220277021,MUGBERIA,"PURBA MEDINIPUR","WEST BENGAL"
"THE WEST BENGAL STATE COOPERATIVE BANK",WBSC0MGCB05,721812904,"MGCB,BAJKUL","VILL-BAJKUL, P.O - KISMAT BAJKUL, P.S. - BHUPATINAGAR, DIST-PURBA MEDINIPUR-721655",3220274257,MUGBERIA,"PURBA MEDINIPUR","WEST BENGAL"
"THE WEST BENGAL STATE COOPERATIVE BANK",WBSC0MGCB04,721812903,"MGCB,BHAGWANPUR","VILL -BENUDIA P.O - BHAGWANPUR, P.S. - BHAGWANPUR, DIST-PURBA MEDINIPUR-721601",3220272222,MUGBERIA,"PURBA MEDINIPUR","WEST BENGAL"
"THE WEST BENGAL STATE COOPERATIVE BANK",WBSC0MGCB03,721812902,"MGCB,KALAGACHHIA","VILL- KALAGACHHIA ,P.O - KAMARDA BAZAR, P.S. - KHEJURI, DIST-PURBA MEDINIPUR-721432",3220280077,MUGBERIA,"PURBA MEDINIPUR","WEST BENGAL"
"THE WEST BENGAL STATE COOPERATIVE BANK",WBSC0MGCB02,721812402,"MGCB,CONTAI","SARASWATITALA ,P.O - CONTAI, P.S. - CONTAI, DIST-PURBA MEDINIPUR-721401",3220255053,MUGBERIA,"PURBA MEDINIPUR","WEST BENGAL"
"THE WEST BENGAL STATE COOPERATIVE BANK",WBSC0MGCB01,721812901,"MGCB,MAIN","VILL + P.O - MUGBERIA, P.S. - BHUPATINAGAR, DIST-PURBA MEDINIPUR-721425",3220270224,MUGBERIA,"PURBA MEDINIPUR","WEST BENGAL"
"THE WEST BENGAL STATE COOPERATIVE BANK",WBSC0MCCB20,NA,DHULIAN,"VILL AND PO DHULIAN,PIN 742202",0,DHULIAN,MURSHIDABAD,"WEST BENGAL"
"THE WEST BENGAL STATE COOPERATIVE BANK",WBSC0MCCB19,NA,HARIHARPARA,"VILL AND PO HARIHARPARA,PIN 742166",0,HARIHARPARA,MURSHIDABAD,"WEST BENGAL"
"THE WEST BENGAL STATE COOPERATIVE BANK",WBSC0MCCB18,742806512,"MURSHIDABAD DIST CENTRAL COOP BANK","VILL AND PO SAKTIPUR",251116,KOLKATA,MURSHIDABAD,"WEST BENGAL"
"THE WEST BENGAL STATE COOPERATIVE BANK",WBSC0MCCB17,742806512,SALAR,"SALAR, P.O. SALAR, PIN- 742 401",7872007722,SALAR,MURSHIDABAD,"WEST BENGAL"
"THE WEST BENGAL STATE COOPERATIVE BANK",WBSC0MCCB16,742806511,ISLAMPUR,"ISLAMPUR, P.O. ISLAMPUR, 742 304",7872771111,ISLAMPUR,MURSHIDABAD,"WEST BENGAL"
"THE WEST BENGAL STATE COOPERATIVE BANK",WBSC0MCCB15,NA,"HEAD OFFICE","BAHARAMPUR, P.O. BAHARAMPUR, 742101",251116,BERHAMPORE,MURSHIDABAD,"WEST BENGAL"
"THE WEST BENGAL STATE COOPERATIVE BANK",WBSC0MCCB14,742806501,LALBAGH,"JIAGANJ, P.O. JIAGANJ, 742123",255370,JIAGANJ,MURSHIDABAD,"WEST BENGAL"
"THE WEST BENGAL STATE COOPERATIVE BANK",WBSC0MCCB13,742806509,LALGOLA,"LALGOLA, P.O. LALGOLA, 742148",274348,LALGOLA,MURSHIDABAD,"WEST BENGAL"
"THE WEST BENGAL STATE COOPERATIVE BANK",WBSC0MCCB12,742806503,BELDANGA,"BELDANGA, P.O. BELDANGA, 742133",264042,BELDANGA,MURSHIDABAD,"WEST BENGAL"
"THE WEST BENGAL STATE COOPERATIVE BANK",WBSC0MCCB11,742806508,NAGAR,"NAGAR, P.O. NAGAR, 742159",279044,NAGAR,MURSHIDABAD,"WEST BENGAL"
"THE WEST BENGAL STATE COOPERATIVE BANK",WBSC0MCCB10,742806505,GRAMSALIKA,"GRAMSALIKA, P.O. GRAMSALIKA, 742186",271040,GRAMSALIKA,MURSHIDABAD,"WEST BENGAL"
"THE WEST BENGAL STATE COOPERATIVE BANK",WBSC0MCCB09,742806502,KANDI,"KANDI, P.O. KANDI, 742137",255257,KANDI,MURSHIDABAD,"WEST BENGAL"
"THE WEST BENGAL STATE COOPERATIVE BANK",WBSC0MCCB08,742806510,NABAGRAM,"NABAGRAM, P.O. NABAGRAM, 742184",270211,NABAGRAM,MURSHIDABAD,"WEST BENGAL"
"THE WEST BENGAL STATE COOPERATIVE BANK",WBSC0MCCB07,742806506,SAGARDIGHI,"SAGARDIGHI, P.O. SAGARDIGHI, 742 226",268045,SAGARDIGHI,MURSHIDABAD,"WEST BENGAL"
"THE WEST BENGAL STATE COOPERATIVE BANK",WBSC0MCCB06,742806102,JANGIPUR,"JANGIPUR, P.O. RAGHUNATHGANJ, 742 225",266110,JANGIPUR,MURSHIDABAD,"WEST BENGAL"
"THE WEST BENGAL STATE COOPERATIVE BANK",WBSC0MCCB05,742806507,FARAKKA,"FARAKKA, P.O. FARAKKA BARRAGE, 742212",253248,FARAKKA,MURSHIDABAD,"WEST BENGAL"
"THE WEST BENGAL STATE COOPERATIVE BANK",WBSC0MCCB04,742806504,DOMKAL,"DOMKAL, P.O. DOMKAL, 742303",230755,DOMKAL,MURSHIDABAD,"WEST BENGAL"
"THE WEST BENGAL STATE COOPERATIVE BANK",WBSC0MCCB03,742806003,PANCHANANTALA,"PANCHANANTALA, P.O. BAHARAMPUR, 742101",250733,BERHAMPORE,MURSHIDABAD,"WEST BENGAL"
"THE WEST BENGAL STATE COOPERATIVE BANK",WBSC0MCCB02,742806004,KHAGRA,"48, 49, B.B. SEN ROAD, P.O. BAHARAMPUR, 742101",251116,BERHAMPORE,MURSHIDABAD,"WEST BENGAL"
"THE WEST BENGAL STATE COOPERATIVE BANK",WBSC0MCCB01,742806002,MAIN,"48, 49, B.B. SEN ROAD, P.O. BAHARAMPUR, 742010",251116,BERHAMPORE,MURSHIDABAD,"WEST BENGAL"
"THE WEST BENGAL STATE COOPERATIVE BANK",WBSC0MALD18,NA,"MALDA DCCB HABIBPUR","PO HABIBPUR PIN 732122",0,MALDA,MALDAH,"WEST BENGAL"
"THE WEST BENGAL STATE COOPERATIVE BANK",WBSC0MALD17,NA,"MALDA DCCB AMRITY","ENGLISH BAZAR,PO.AMRITY732208",0,MALDA,MALDAH,"WEST BENGAL"
"THE WEST BENGAL STATE COOPERATIVE BANK",WBSC0MALD15,NA,HEADOFFICE,"S P ROADPIN732101",0,ENGLISHBAZAR,MALDAH,"WEST BENGAL"
"THE WEST BENGAL STATE COOPERATIVE BANK",WBSC0MALD14,NA,PUKHURIA,POPUKURIAPIN732213,0,PUKHURIA,MALDAH,"WEST BENGAL"
"THE WEST BENGAL STATE COOPERATIVE BANK",WBSC0MALD13,NA,PAKUA,POPAKUAHATPIN732138,0,PAKUAHAT,MALDAH,"WEST BENGAL"
"THE WEST BENGAL STATE COOPERATIVE BANK",WBSC0MALD12,NA,MANIKCHAK,POMATHURAPURPIN732203,0,MATHURAPUR,MALDAH,"WEST BENGAL"
"THE WEST BENGAL STATE COOPERATIVE BANK",WBSC0MALD11,NA,CHANCHAL,POCHANCHALPIN732123,0,CHANCHAL,MALDAH,"WEST BENGAL"
"THE WEST BENGAL STATE COOPERATIVE BANK",WBSC0MALD10,NA,HARISHCHANDRAPUR,"PO H.C.PUR,PIN 732125",0,MALDA,MALDAH,"WEST BENGAL"
"THE WEST BENGAL STATE COOPERATIVE BANK",WBSC0MALD09,NA,SAMSI,POSAMSIPIN732139,0,SAMSI,MALDAH,"WEST BENGAL"
"THE WEST BENGAL STATE COOPERATIVE BANK",WBSC0MALD08,NA,MOTHABARI,POMOTHABARIPIN732207,0,MOTHABARI,MALDAH,"WEST BENGAL"
"THE WEST BENGAL STATE COOPERATIVE BANK",WBSC0MALD07,NA,KALIACHAK,"NH34,KALIACHAK,PIN732201",0,KALIACHAK,MALDAH,"WEST BENGAL"
"THE WEST BENGAL STATE COOPERATIVE BANK",WBSC0MALD06,NA,GAZOLE,"GAZOLE PIN732124",0,GAZOLE,MALDAH,"WEST BENGAL"
"THE WEST BENGAL STATE COOPERATIVE BANK",WBSC0MALD05,NA,GOURROAD,"GOURROAD,MOKDUMPUR PIN732103",0,ENGLISHBAZAR,MALDAH,"WEST BENGAL"
"THE WEST BENGAL STATE COOPERATIVE BANK",WBSC0MALD04,NA,MANGALBARI,"NH34,MANGALBARI,PIN732142",0,MANGALBARI,MALDAH,"WEST BENGAL"
"THE WEST BENGAL STATE COOPERATIVE BANK",WBSC0MALD03,NA,RATHBARI,"RATHBARI,PIN732101",0,RATHBARI,MALDAH,"WEST BENGAL"
"THE WEST BENGAL STATE COOPERATIVE BANK",WBSC0MALD02,NA,JHALJHALIA,"STATIONROAD,JHALJHALIA PIN732102",0,ENGLISHBAZAR,MALDAH,"WEST BENGAL"
"THE WEST BENGAL STATE COOPERATIVE BANK",WBSC0MALD01,NA,MALDAH,"N S ROAD MALDA PIN 732101",0,"ENGLISH BAZAR",MALDAH,"WEST BENGAL"
"THE WEST BENGAL STATE COOPERATIVE BANK",WBSC0KUCB02,700093267,"KHARDAH CO OPERATIVE BANK LTD","TARAK MARKET COMPLEX,ARUNACHAL",25681191,KHARDAH,"NORTH 24 PARGANAS","WEST BENGAL"
"THE WEST BENGAL STATE COOPERATIVE BANK",WBSC0KUCB01,700093260,"KHARDAH CO OPERATIVE BANK LTD","P.K.BISWAS ROAD",25536557,KHARDAH,"NORTH 24 PARGANAS","WEST BENGAL"
"THE WEST BENGAL STATE COOPERATIVE BANK",WBSC0KPCB04,NA,"KOLKATA POLICE CO-OPERATIVE BANK LTD ULTADANGA BRANCH","7M, COMMERCIAL BUILDING,5TH BN KAP,ULTADANGA KOLKATA 700054",23554817,KOLKATA,KOLKATA,"WEST BENGAL"
"THE WEST BENGAL STATE COOPERATIVE BANK",WBSC0KPCB03,NA,"KOLKATA POLICE CO-OPERATIVE BANK LTD B.T ROAD BRANCH","29/1 B.T ROAD COSSIPORE, 2ND KAP KOLKATA 700002",25300885,KOLKATA,KOLKATA,"WEST BENGAL"
"THE WEST BENGAL STATE COOPERATIVE BANK",WBSC0KPCB02,700002257,"KOLKATA POLICE CO-OPERATIVE BANK LTD LINES BRANCH","7 D.H ROAD KHIDDERPORE KOLKATA 700027",24099207,KOLKATA,KOLKATA,"WEST BENGAL"
"THE WEST BENGAL STATE COOPERATIVE BANK",WBSC0KPCB01,700002254,"KOLKATA POLICE CO-OPERATIVE BANK LTD LALBAZAR BRANCH","18 LALBAZAR STREET KOLKATA 700001",22505058,KOLKATA,KOLKATA,"WEST BENGAL"
"THE WEST BENGAL STATE COOPERATIVE BANK",WBSC0JCCB20,NA,"KALCHINI BRANCH","KALCHINI NIMTI CHOWPATHY",230477,ALIPURDUAR,ALIPURDUAR,"WEST BENGAL"
"THE WEST BENGAL STATE COOPERATIVE BANK",WBSC0JCCB19,NA,"NAXALBARI BRANCH","NAXALBARI BUS STAND",231573,DARJEELING,DARJEELING,"WEST BENGAL"
"THE WEST BENGAL STATE COOPERATIVE BANK",WBSC0JCCB18,NA,"NAGRAKATA BRANCH","NANDU MORE",230477,JALPAIGURI,JALPAIGURI,"WEST BENGAL"
"THE WEST BENGAL STATE COOPERATIVE BANK",WBSC0JCCB17,NA,"J C COOP BANK LTD ALIPURDUAR","COLLEGE HALT,ALIPURDUAR,DIST JALPAIGURI",0,"ALIPUR DUAR",JALPAIGURI,"WEST BENGAL"
"THE WEST BENGAL STATE COOPERATIVE BANK",WBSC0JCCB16,NA,"THE JALPAIGURI CTRL BANK PANDAPARA","PANDAPARA ROAD OPP.SRI DAYAL CINEMA HALL,PO AND DIST JALPAIGURI,WEST BENGAL 735101",0,JALPAIGURI,JALPAIGURI,"WEST BENGAL"
"THE WEST BENGAL STATE COOPERATIVE BANK",WBSC0JCCB15,NA,"THE JALPAIGURI CTRL BANK BARDHAMAN","1 VIDYASAGAR ROAD,FAST ACCESS BUILDING GR.FL,PO SILIGURI,DIST JALPAIGURI,WEST BENGAL 735005",0,SILIGURI,DARJILING,"WEST BENGAL"
"THE WEST BENGAL STATE COOPERATIVE BANK",WBSC0JCCB14,NA,"THE JALPAIGURI CTRL BANK PURATAN","PURATAN MASJID,PO AND DIST JALPAIGURI,WEST BENGAL 735101",0,JALPAIGURI,JALPAIGURI,"WEST BENGAL"
"THE WEST BENGAL STATE COOPERATIVE BANK",WBSC0JCCB12,NA,"THE JALPAIGURI CTRL BANK GHOGOMALI","NAGALAND BUILDING GR.FL,PO GHOGOMALI,DIST JALPAIGURI,WEST BENGAL 734406",0,SILIGURI,JALPAIGURI,"WEST BENGAL"
"THE WEST BENGAL STATE COOPERATIVE BANK",WBSC0JCCB11,NA,"THE JALPAIGURI CTRL BANK BANARHAT","UBI ROAD,PO BANARHAT,DIST JALPAIGURI,WEST BENGAL 735202",0,BANARHAT,JALPAIGURI,"WEST BENGAL"
"THE WEST BENGAL STATE COOPERATIVE BANK",WBSC0JCCB10,NA,BIDHANNAGAR,"PANCHAYAT ROAD,PO BIDHANNAGAR,DIST DARJEELING,WEST BENGAL 734426",0,BIDHANNAGAR,DARJILING,"WEST BENGAL"
"THE WEST BENGAL STATE COOPERATIVE BANK",WBSC0JCCB09,NA,"JALPAIGURI EVENING BR","TEMPLE STREET GR.FL,PO AND DIST JALPAIGURI,WEST BENGAL 735101",0,JALPAIGURI,JALPAIGURI,"WEST BENGAL"
"THE WEST BENGAL STATE COOPERATIVE BANK",WBSC0JCCB08,NA,SILIGURI,"AVOY KUNJA,1ST FL,HAKIMPARA BEHIND GOURI SHANKAR MARKET,PO SILIGURI,DARJEELING,WEST BENGAL 734001",0,SILIGURI,DARJILING,"WEST BENGAL"
"THE WEST BENGAL STATE COOPERATIVE BANK",WBSC0JCCB07,NA,HALDIBARI,"MITRA COMPLEX 1ST FL,NEAR BUS STAND,PO HALDIBARI,DIST COOCHBEHAR,WEST BENGAL 735122",0,HALDIBARI,"KOCH BIHAR","WEST BENGAL"
"THE WEST BENGAL STATE COOPERATIVE BANK",WBSC0JCCB06,NA,MAL,"CALTEX MORE,PO MAL,DIST JALPAIGURI,WEST BENGAL 735221",0,MAL,JALPAIGURI,"WEST BENGAL"
"THE WEST BENGAL STATE COOPERATIVE BANK",WBSC0JCCB05,NA,RAJGANJ,"RAJGANJ BAZAR,PO RAJGANJ,DIST JALPAIGURI,WEST BENGAL 735134",0,RAJGANJ,JALPAIGURI,"WEST BENGAL"
"THE WEST BENGAL STATE COOPERATIVE BANK",WBSC0JCCB04,NA,BELAKOBA,"PRASANNANAGAR,PO PRASANNANAGAR,DIST JALPAIGURI,WEST BENGAL 735133",0,BELAKOBA,JALPAIGURI,"WEST BENGAL"
"THE WEST BENGAL STATE COOPERATIVE BANK",WBSC0JCCB03,NA,MAYNAGURI,"MAYNAGURI SUPER MARKET,PO MAYNAGURI,DIST JALPAIGURI,WEST BENGAL 735224",0,MAINAGURI,JALPAIGURI,"WEST BENGAL"
"THE WEST BENGAL STATE COOPERATIVE BANK",WBSC0JCCB02,NA,DHUPGURI,"COLLEGE ROAD,PO DHUPGURI,DIST JALPAIGURI,WEST BENGAL 735210",0,DHUPGURI,JALPAIGURI,"WEST BENGAL"
"THE WEST BENGAL STATE COOPERATIVE BANK",WBSC0JCCB01,NA,"JALPAIGURI MAIN","TEMPLE STREET GR.FL,PO AND DIST JALPAIGURI,WEST BENGAL 735101",0,JALPAIGURI,JALPAIGURI,"WEST BENGAL"
"THE WEST BENGAL STATE COOPERATIVE BANK",WBSC0HDCB19,NA,HARIT,"AKBAR MARKET,HARIT HATTALA,HARIT,HOOGHLY 712305",0,HARIT,"HOOGHLY (HUGLI)","WEST BENGAL"
"THE WEST BENGAL STATE COOPERATIVE BANK",WBSC0HDCB18,NA,BOINCHEE,"NEAR G.T.ROAD,ROYJEE MARKET,BOINCHEE BHASTARA ROAD,BOINCHEE,HOOGHLY 712134",0,BOINCHEE,"HOOGHLY (HUGLI)","WEST BENGAL"
"THE WEST BENGAL STATE COOPERATIVE BANK",WBSC0HDCB17,NA,CHANDITALA,"NEAR MAHALAXMI CINEMA,CHANDITALA,HOOGHLY 712148",0,DANKUNI,"HOOGHLY (HUGLI)","WEST BENGAL"
"THE WEST BENGAL STATE COOPERATIVE BANK",WBSC0HDCB16,NA,SINGUR,"SINGUR BAZAR,S.N.MALLICK ROAD,NEAR ALLAHABAD BANK,SINGUR,HOOGHLY 712409",0,SINGUR,"HOOGHLY (HUGLI)","WEST BENGAL"
"THE WEST BENGAL STATE COOPERATIVE BANK",WBSC0HDCB15,NA,HARIPAL,"URIA BAZAR,HARIPAL STATION ROAD,NEAR ALLAHABAD BANK,HARIPAL,HOOGHLY 712409",0,HARIPAL,"HOOGHLY (HUGLI)","WEST BENGAL"
"THE WEST BENGAL STATE COOPERATIVE BANK",WBSC0HDCB14,NA,KAMARPUKUR,"TARAKESWAR BANKURA ROAD,KAMARPUKUR,OPP.ZILLA PARISHAD BUNGALOW,HOOGHLY 712612",0,KAMARPUKUR,"HOOGHLY (HUGLI)","WEST BENGAL"
"THE WEST BENGAL STATE COOPERATIVE BANK",WBSC0HDCB13,NA,PURSURAH,"PURSURAH THANA ROAD,PURSURAH,HOOGHLY 712401",0,PURSURAH,"HOOGHLY (HUGLI)","WEST BENGAL"
"THE WEST BENGAL STATE COOPERATIVE BANK",WBSC0HDCB12,NA,KHAMARGACHI,"SIJA RATHTALA,NEAR KHAMARGACHI RAILWAY STATION,KHAMARGACHI,HOOGHLY 712515",0,KHAMARGACHI,"HOOGHLY (HUGLI)","WEST BENGAL"
"THE WEST BENGAL STATE COOPERATIVE BANK",WBSC0HDCB11,NA,DHANIAKHALI,"MADAN MOHAN TALA,DHANIAKHALI,HOOGHLY 712302",0,DHANIAKHALI,"HOOGHLY (HUGLI)","WEST BENGAL"
"THE WEST BENGAL STATE COOPERATIVE BANK",WBSC0HDCB10,NA,JANGIPARA,"JANGIPARA,HOOGHLY,OPP.JANGIPARA POLICE STATION,PIN 712404",0,JANGIPARA,"HOOGHLY (HUGLI)","WEST BENGAL"
"THE WEST BENGAL STATE COOPERATIVE BANK",WBSC0HDCB09,NA,KHANAKUL,"RAMNAGAR,NEAR KHANAKUL I BLOCK OFFICE,KHANAKUL,HOOGHLY 712406",0,KHANAKUL,"HOOGHLY (HUGLI)","WEST BENGAL"
"THE WEST BENGAL STATE COOPERATIVE BANK",WBSC0HDCB08,NA,TARAKESWAR,"TARAKESWAR THANA ROAD,TARAKESWAR,HOOGHLY 712149",0,TARAKESWAR,"HOOGHLY (HUGLI)","WEST BENGAL"
"THE WEST BENGAL STATE COOPERATIVE BANK",WBSC0HDCB07,NA,PANDUA,"G.T.ROAD,PANDUA,KALNA MORE,PANDUA,HOOGHLY 712149",0,PANDUA,"HOOGHLY (HUGLI)","WEST BENGAL"
"THE WEST BENGAL STATE COOPERATIVE BANK",WBSC0HDCB06,NA,ARAMBAGH,"P.C.SEN ROAD,OPP.CHAYABANI CINEMA,ARAMBAGH,HOOGHLY 712601",0,ARAMBAGH,"HOOGHLY (HUGLI)","WEST BENGAL"
"THE WEST BENGAL STATE COOPERATIVE BANK",WBSC0HDCB05,NA,NALIKUL,"NALIKUL BATALA,P.O.NALIKUL,NALIKUL,PIN 712407",0,NALIKUL,"HOOGHLY (HUGLI)","WEST BENGAL"
"THE WEST BENGAL STATE COOPERATIVE BANK",WBSC0HDCB04,NA,RISHRA,"PANCHASAR APPARTMENT MORE PUKUR ROAD,RISHRA,PIN 712248",0,RISHRA,"HOOGHLY (HUGLI)","WEST BENGAL"
"THE WEST BENGAL STATE COOPERATIVE BANK",WBSC0HDCB03,NA,MOGRA,"MOGRA STATION ROAD MOGRA,MOGRA,PIN 712101",0,MOGRA,"HOOGHLY (HUGLI)","WEST BENGAL"
"THE WEST BENGAL STATE COOPERATIVE BANK",WBSC0HDCB02,NA,SERAMPORE,"69B G.T.ROAD,SERAMPORE,PIN 712201",0,SERAMPORE,"HOOGHLY (HUGLI)","WEST BENGAL"
"THE WEST BENGAL STATE COOPERATIVE BANK",WBSC0HDCB01,NA,CHINSURAH,"NETAJI SUBHAS ROAD CHINSURAH,CHINSURAH,PIN 712101",0,"HOOGHLY CHINSU","HOOGHLY CHINSU","WEST BENGAL"
"THE WEST BENGAL STATE COOPERATIVE BANK",WBSC0HCCB14,NA,"THE HOWRAH DISTRICT CENTRAL CO-OPERTAIVE BANK LTD PENRO BRANCH","VILL P.O - PENRO P.S - UNPUR DIST - HOWRAH PIN - 711411",50588,HOWRAH,HOWRAH,"WEST BENGAL"
"THE WEST BENGAL STATE COOPERATIVE BANK",WBSC0HCCB13,NA,"BEGRI BRANCH","VILL P O BEGRI NEAR BATTALA DIST HOWRAH PIN 711411",0,HOWRAH,HAORA,"WEST BENGAL"
"THE WEST BENGAL STATE COOPERATIVE BANK",WBSC0HCCB12,NA,"BELARI BRANCH","VILL ICHAPUR P O BELARI NEAR 58 GATE DIST HOWRAH PIN 711315",0,HOWRAH,HAORA,"WEST BENGAL"
"THE WEST BENGAL STATE COOPERATIVE BANK",WBSC0HCCB11,NA,"RANIHATI BRANCH","VILL RANIHATI P O JOYNAGAR DIST HOWRAH PIN 711302",0,HOWRAH,HAORA,"WEST BENGAL"
"THE WEST BENGAL STATE COOPERATIVE BANK",WBSC0HCCB10,NA,"BELPUKUR BRANCH","VILL P O AJODHYA DIST HOWRAH PIN 711312",0,HOWRAH,HAORA,"WEST BENGAL"
"THE WEST BENGAL STATE COOPERATIVE BANK",WBSC0HCCB09,NA,"BAGNAN BRANCH","VILL P O BAGNAN DIST HOWRAH PIN 711303",0,HOWRAH,HAORA,"WEST BENGAL"
"THE WEST BENGAL STATE COOPERATIVE BANK",WBSC0HCCB08,NA,"HOWRAH BRANCH","5OR6 MAHATMA GANDHI ROAD DIST HOWRAH PIN 711101",0,HOWRAH,HAORA,"WEST BENGAL"
"THE WEST BENGAL STATE COOPERATIVE BANK",WBSC0HCCB07,NA,"BARGACHIA BRANCH","VILL P O BARGACHIA DIST HOWRAH PIN 711404",0,HOWRAH,HAORA,"WEST BENGAL"
"THE WEST BENGAL STATE COOPERATIVE BANK",WBSC0HCCB06,NA,"ULUBERIA BRANCH","VILL P O ULUBERIA DIST HOWRAH PIN 711315",0,HOWRAH,HAORA,"WEST BENGAL"
"THE WEST BENGAL STATE COOPERATIVE BANK",WBSC0HCCB05,NA,"JHIKIRA BRANCH","VILL P O JHIKIRA DIST HOWRAH PIN 711401",0,HOWRAH,HAORA,"WEST BENGAL"
"THE WEST BENGAL STATE COOPERATIVE BANK",WBSC0HCCB04,NA,"UDAYNARAYANPUR BRANCH","VILL P O UDAYNARAYANPUR DIST HOWRAH PIN 711266",0,HOWRAH,HAORA,"WEST BENGAL"
"THE WEST BENGAL STATE COOPERATIVE BANK",WBSC0HCCB03,NA,"SHYAMPUR BRANCH","VILL P O SHYAMPUR DIST HOWRAH PIN 711314",0,HOWRAH,HAORA,"WEST BENGAL"
"THE WEST BENGAL STATE COOPERATIVE BANK",WBSC0HCCB02,NA,"AMTA BRANCH","VILL P O AMTA DIST HOWRAH PIN 711401",0,HOWRAH,HAORA,"WEST BENGAL"
"THE WEST BENGAL STATE COOPERATIVE BANK",WBSC0HCCB01,NA,"HEAD OFFICE","P O ULUBERIA NEAR ULUBERIA COURT DIST HOWRAH PIN 711315",0,HOWRAH,HAORA,"WEST BENGAL"
"THE WEST BENGAL STATE COOPERATIVE BANK",WBSC0DJCB12,NA,"DARJEELING DISTRICT CENTRAL CO-OPERATIVE BANK LTD","DARJEELING DCCB LTD,JHOLONG BRANCH,P O JALDHAKA SUB-DIV KALIMPONG DISTRICT-DARJEELING (WB-734503 )",9832039658,JHOLONG,DARJEELING,"WEST BENGAL"
"THE WEST BENGAL STATE COOPERATIVE BANK",WBSC0DJCB11,734816608,"MUNGPOO BRANCH",MUNGPOO,255372,DARJEELING,DARJEELING,"WEST BENGAL"
"THE WEST BENGAL STATE COOPERATIVE BANK",WBSC0DJCB10,734816607,"MIRIK BRANCH",DARJEELING,258979,DARJEELING,DARJEELING,"WEST BENGAL"
"THE WEST BENGAL STATE COOPERATIVE BANK",WBSC0DJCB09,NA,"HEAD OFFICE",KALIMPONG,255372,KAMLIMPONG,DARJEELING,"WEST BENGAL"
"THE WEST BENGAL STATE COOPERATIVE BANK",WBSC0DJCB08,734816606,RIMBICK,"P.O. RIMBICK BAZAR, DIST. DARJEELING, PIN - 734201",7797911877,RIMBICK,DARJEELING,"WEST BENGAL"
"THE WEST BENGAL STATE COOPERATIVE BANK",WBSC0DJCB07,734816605,BIJANBARI,"RASHIK PATH, P.O. BIJANBARI, DT. DARJEELING, PIN-734201",2260285,BIJANBARI,DARJEELING,"WEST BENGAL"
"THE WEST BENGAL STATE COOPERATIVE BANK",WBSC0DJCB06,734816604,SUKHIAPOKHARI,"SUKHIAPOKHARI BAZAR, P.O. SUKHIAPOKHARI, DT. DARJEELING, PIN- 734221",2264391,SUKHIAPOKHARI,DARJEELING,"WEST BENGAL"
"THE WEST BENGAL STATE COOPERATIVE BANK",WBSC0DJCB05,734816603,KURSEONG,"BELOW SUB-DIV. HOSPITAL, P.O. KURSEONG, DT. DARJEELING, PIN -734203",2344486,KURSEONG,DARJEELING,"WEST BENGAL"
"THE WEST BENGAL STATE COOPERATIVE BANK",WBSC0DJCB04,734816102,DARJEELING,"9, S.M. DAS ROAD, OPP. RED CROSS, P.O. & DIST. DARJEELING, PIN-734101",2252487,DARJEELING,DARJEELING,"WEST BENGAL"
"THE WEST BENGAL STATE COOPERATIVE BANK",WBSC0DJCB03,734816501,GORUBATHAN,"SOMBARAY BAZAR, P.O. FAGU, GORUBATHAN, DT. DARJEELING, PIN-735231",222003,GORUBATHAN,DARJEELING,"WEST BENGAL"
"THE WEST BENGAL STATE COOPERATIVE BANK",WBSC0DJCB02,734816602,PEDONG,"PEDONG BAZAR, P.O. PEDONG, DT. DARJEELING, PIN-734311",281334,"PEDONG BAZAR",DARJEELING,"WEST BENGAL"
"THE WEST BENGAL STATE COOPERATIVE BANK",WBSC0DJCB01,734816202,KALIMPONG,"RISHI ROAD, SAHID D.B. GIRI ROAD, P.O. KALIMPONG -734301",258979,KALIMPONG,DARJEELING,"WEST BENGAL"
"THE WEST BENGAL STATE COOPERATIVE BANK",WBSC0DDCB08,733803506,"HILI BRANCH","HILI BAZAR, HILI",250931,HILI,"DAKSHIN DINAJPUR","WEST BENGAL"
"THE WEST BENGAL STATE COOPERATIVE BANK",WBSC0DDCB07,733803505,"KUMARGANJ BRANCH",KUMARGANJ,254181,KUMARGANJ,"DAKSHIN DINAJPUR","WEST BENGAL"
"THE WEST BENGAL STATE COOPERATIVE BANK",WBSC0DDCB06,733803504,"PATIRAM BRANCH","PATIRAM BAZAR, PATIRAM",273124,BALURGHAT,"DAKSHIN DINAJPUR","WEST BENGAL"
"THE WEST BENGAL STATE COOPERATIVE BANK",WBSC0DDCB05,733803503,"GANGARAMPUR BRANCH","HIGH ROAD, GANGARAMPUR",255050,GANGARAMPUR,"DAKSHIN DINAJPUR","WEST BENGAL"
"THE WEST BENGAL STATE COOPERATIVE BANK",WBSC0DDCB04,733803502,"TAPAN BRANCH","CHOWRANGI MORE, TAPAN",252042,TAPAN,"DAKSHIN DINAJPUR","WEST BENGAL"
"THE WEST BENGAL STATE COOPERATIVE BANK",WBSC0DDCB03,733803501,"BALURGHAT EVENING BRANCH","KACHARI ROAD, BALURGHAT",255379,BALURGHAT,"DAKSHIN DINAJPUR","WEST BENGAL"
"THE WEST BENGAL STATE COOPERATIVE BANK",WBSC0DDCB02,733803102,"BALURGHAT MAIN BRANCH","KACHARI ROAD, BALURGHAT",255379,BALURGHAT,"DAKSHIN DINAJPUR","WEST BENGAL"
"THE WEST BENGAL STATE COOPERATIVE BANK",WBSC0DDCB01,NA,"HEAD OFFICE","KACHARI ROAD, BALURGHAT",255379,BALURGHAT,"DAKSHIN DINAJPUR","WEST BENGAL"
"THE WEST BENGAL STATE COOPERATIVE BANK",WBSC0BUCB04,700093254,"BHATPARA NAIHATI COOP BANK LTD. SHYAMNAGAR BR","4/1 WEST GHOSH PARA ROAD, P.O. - SHYAMNAGAR",25862113,SHYAMNAGAR,"24 PGS NORTH","WEST BENGAL"
"THE WEST BENGAL STATE COOPERATIVE BANK",WBSC0BUCB03,700093254,"BHATPARA NAIHATI COOP BANK LTD. GARIFA BR","BELA BHAVAN, KRISHNA SADHUKHAN ROAD, P.O.- ANANDABAZAR",25818000,NAIHATI,"24 PGS NORTH","WEST BENGAL"
"THE WEST BENGAL STATE COOPERATIVE BANK",WBSC0BUCB02,700093254,"BHATPARA NAIHATI COOP BANK LTD. NAIHATI BR","20 HARIDAS GHOSH ROAD, P.O. - NAIHATI",25812680,NAIHATI,"24 PGS NORTH","WEST BENGAL"
"THE WEST BENGAL STATE COOPERATIVE BANK",WBSC0BUCB01,700093254,"BHATPARA NAIHATI COOP BANK LTD. BHATPARA MAIN BR","3 MUKHERJEE PARA ROAD, P.O.- BHATPARA,",25812673,BHATPARA,"24 PGS NORTH","WEST BENGAL"
"THE WEST BENGAL STATE COOPERATIVE BANK",WBSC0BIRB19,NA,LOHAPUR,"PO LOHAPUR STATION ROAD DIST BIRBHUM PIN 731237",259237,LOHAPUR,BIRBHUM,"WEST BENGAL"
"THE WEST BENGAL STATE COOPERATIVE BANK",WBSC0BIRB18,NA,"SAINTHIA BRANCH","HOUSE OF DEBABRATA SAHA SO LATE PRAFULLA SAHA WORD NO 9 HATTALA NEAR SABJI MARKET PO SAINTHIA PIN 731234",264113,SAINTHIA,BIRBHUM,"WEST BENGAL"
"THE WEST BENGAL STATE COOPERATIVE BANK",WBSC0BIRB14,NA,MOLLARPUR,"BANK ROAD MOLLARPUR DIST BIRBHUM PIN 731216",262241,MOLLARPUR,BIRBHUM,"WEST BENGAL"
"THE WEST BENGAL STATE COOPERATIVE BANK",WBSC0BIRB13,NA,ABINASHPUR,"PO ABINASHPUR DIST BIRBHUM PIN 731121",272257,ABINASHPUR,BIRBHUM,"WEST BENGAL"
"THE WEST BENGAL STATE COOPERATIVE BANK",WBSC0BIRB12,NA,LABPUR,"LABPUR BUS STAND DIST BIRBHUM PIN 731303",266226,LABPUR,BIRBHUM,"WEST BENGAL"
"THE WEST BENGAL STATE COOPERATIVE BANK",WBSC0BIRB11,NA,AHMEDPUR,"AHMEDPUR KAGAS ROAD DIST BIRBHUM PIN 731201",230275,AHMEDPUR,BIRBHUM,"WEST BENGAL"
"THE WEST BENGAL STATE COOPERATIVE BANK",WBSC0BIRB10,NA,MURARAI,"BHADISWAR MORE PO MURARAI DIST BIRBHUM PIN 731219",252223,MURARAI,BIRBHUM,"WEST BENGAL"
"THE WEST BENGAL STATE COOPERATIVE BANK",WBSC0BIRB09,NA,KOTASUR,"PO KOTASUR DIST BIRBHUM PIN 731234",235227,KOTASUR,BIRBHUM,"WEST BENGAL"
"THE WEST BENGAL STATE COOPERATIVE BANK",WBSC0BIRB08,NA,DUBRAJPUR,"NEAR DUBRAJPUR COART FIRST FLOOR PO DUBRAJPUR DIST BIRBHUM PIN 731123",244376,DUBRAJPUR,BIRBHUM,"WEST BENGAL"
"THE WEST BENGAL STATE COOPERATIVE BANK",WBSC0BIRB07,NA,KIRNAHAR,"PO KIRNAHAR DIST BIRBHUM PIN 731302",267256,KIRNAHAR,BIRBHUM,"WEST BENGAL"
"THE WEST BENGAL STATE COOPERATIVE BANK",WBSC0BIRB06,NA,BOLPUR,"STATION ROAD PO BOLPUR DIST BIRBHUM PIN 731204",252510,BOLPUR,BIRBHUM,"WEST BENGAL"
"THE WEST BENGAL STATE COOPERATIVE BANK",WBSC0BIRB05,NA,"VISVA BHARATI","SRINIKETAN ROAD SURUL PO SRINIKETAN DIST BIRBHUM PIN 731236",264350,SRINIKETAN,BIRBHUM,"WEST BENGAL"
"THE WEST BENGAL STATE COOPERATIVE BANK",WBSC0BIRB04,NA,NALHATI,"BANK ROAD PO NALHATI DIST BIRBHUM PIN 731243",255237,NALHATI,BIRBHUM,"WEST BENGAL"
"THE WEST BENGAL STATE COOPERATIVE BANK",WBSC0BIRB03,NA,RAMPURHAT,"BANK ROAD PO RAMPURHAT DIST BIRBHUM PIN 731224",255042,RAMPURHAT,BIRBHUM,"WEST BENGAL"
"THE WEST BENGAL STATE COOPERATIVE BANK",WBSC0BIRB02,NA,SURI,"GROUND FLOOR VIBEKANANDA ROAD NEAR DIST LIBRARY PO SURI DIST BIRBHUM PIN 731101",258102,SURI,BIRBHUM,"WEST BENGAL"
"THE WEST BENGAL STATE COOPERATIVE BANK",WBSC0BIRB01,NA,"HEAD OFFICE","1ST FLOOR VIVEKANANDA ROAD NEAR DIST LIBRARY PO SURI DIST BIRBHUM PIN 731101",255304,SURI,BIRBHUM,"WEST BENGAL"
"THE WEST BENGAL STATE COOPERATIVE BANK",WBSC0BDCB20,NA,"HEAD OFFICE,  BANKURA","MACHANTALA, P.O. & DIST-BANKURA",250302,BANKURA,BANKURA,"WEST BENGAL"
"THE WEST BENGAL STATE COOPERATIVE BANK",WBSC0BDCB19,722809501,"DURLAVPUR BRANCH","P.O. DURLAVPUR, DIST-BANKURA",262075,DURLAVPUR,BANKURA,"WEST BENGAL"
"THE WEST BENGAL STATE COOPERATIVE BANK",WBSC0BDCB18,722809502,"KAMALPUR BRANCH","P.O. KAMALPUR, DIST-BANKURA",274300,KAMALPUR,BANKURA,"WEST BENGAL"
"THE WEST BENGAL STATE COOPERATIVE BANK",WBSC0BDCB17,722809605,"RANIBANDH  BRANCH","P.O. RANIBANDH, DIST-BANKURA",250380,RANIBANDH,BANKURA,"WEST BENGAL"
"THE WEST BENGAL STATE COOPERATIVE BANK",WBSC0BDCB16,722809506,"BANKURA EVENING BRANCH","MACHANTALA, P.O. & DIST-BANKURA",250302,BANKURA,BANKURA,"WEST BENGAL"
"THE WEST BENGAL STATE COOPERATIVE BANK",WBSC0BDCB15,722809604,"RAIPUR  BRANCH","PO: GARH RAIPUR, DIST-BANKURA",267357,RAIPUR,BANKURA,"WEST BENGAL"
"THE WEST BENGAL STATE COOPERATIVE BANK",WBSC0BDCB14,722809503,"ONDA  BRANCH","P.O. ONDA, DIST-BANKURA",266291,ONDA,BANKURA,"WEST BENGAL"
"THE WEST BENGAL STATE COOPERATIVE BANK",WBSC0BDCB13,722809601,"TALDANGRA  BRANCH","P.O. TALDANGRA, DIST-BANKURA",265210,TALDANGRA,BANKURA,"WEST BENGAL"
"THE WEST BENGAL STATE COOPERATIVE BANK",WBSC0BDCB12,722809702,"PATRASAYER  BRANCH","P.O. PATRASAYER, DIST-BANKURA",266228,PATRASAYER,BANKURA,"WEST BENGAL"
"THE WEST BENGAL STATE COOPERATIVE BANK",WBSC0BDCB11,722809102,"KHATRA  BRANCH","P.O. KHATRA, DIST-BANKURA",255244,KHATRA,BANKURA,"WEST BENGAL"
"THE WEST BENGAL STATE COOPERATIVE BANK",WBSC0BDCB10,722809505,"CHHATNA  BRANCH","P.O. CHHATNA, DIST-BANKURA",277230,CHHATNA,BANKURA,"WEST BENGAL"
"THE WEST BENGAL STATE COOPERATIVE BANK",WBSC0BDCB09,722809504,"BARJORA  BRANCH","P.O. BARJORA, DIST-BANKURA",257233,BARJORA,BANKURA,"WEST BENGAL"
"THE WEST BENGAL STATE COOPERATIVE BANK",WBSC0BDCB08,722809603,"SARENGA  BRANCH","RAJABAZAR, P.O. SARENGA, DIST-BANKURA",269224,SARENGA,BANKURA,"WEST BENGAL"
"THE WEST BENGAL STATE COOPERATIVE BANK",WBSC0BDCB07,722809703,"INDUS  BRANCH","P.O. INDAS, DIST-BANKURA",263221,INDAS,BANKURA,"WEST BENGAL"
"THE WEST BENGAL STATE COOPERATIVE BANK",WBSC0BDCB06,722809602,"SIMLAPAL  BRANCH","P.O. SIMLAPAL, DIST-BANKURA",262223,SIMLAPAL,BANKURA,"WEST BENGAL"
"THE WEST BENGAL STATE COOPERATIVE BANK",WBSC0BDCB05,722809704,"KOTULPUR  BRANCH","P.O. KOTULPUR, DIST-BANKURA",240239,KOTUPUR,BANKURA,"WEST BENGAL"
"THE WEST BENGAL STATE COOPERATIVE BANK",WBSC0BDCB04,722809705,"JOYPUR  BRANCH","P.O. JOYPUR, DIST-BANKURA",249223,JOYPUR,BANKURA,"WEST BENGAL"
"THE WEST BENGAL STATE COOPERATIVE BANK",WBSC0BDCB03,722809701,"SONAMUKHI  BRANCH","P.O. SONAMUKHI, DIST-BANKURA",275247,SONAMUKHI,BANKURA,"WEST BENGAL"
"THE WEST BENGAL STATE COOPERATIVE BANK",WBSC0BDCB02,722809001,"BISHNUPUR  BRANCH","GOPALGANJA, P.O. BISHNUPUR, DIST-BANKURA",252085,BISHNUPUR,BANKURA,"WEST BENGAL"
"THE WEST BENGAL STATE COOPERATIVE BANK",WBSC0BDCB01,722809002,"BANKURA MAIN BRANCH","MACHANTALA, P.O. & DIST-BANKURA",251090,BANKURA,BANKURA,"WEST BENGAL"
"THE WEST BENGAL STATE COOPERATIVE BANK",WBSC000RTGS,NA,"HEAD OFFICE","24A,WATERLOO STREET,2ND FLOOR,KOLKATA 700069",22488492,KOLKATA,KOLKATA,"WEST BENGAL"
"THE WEST BENGAL STATE COOPERATIVE BANK",WBSC0000043,736093503,"TOOFANGUNJ BRANCH","PO TOOFANGUNJ,NEAR FIRE SERVICE STATION,DIST.COOCH BEHAR",244300,TOOFANGUNJ,COOCHBEHAR,"WEST BENGAL"
"THE WEST BENGAL STATE COOPERATIVE BANK",WBSC0000042,735093551,"FALAKATA BRANCH","PO FALAKATA,NR.BUS STOP AND SITALA MANDIR,DIST.JALPAIGURI",260273,FALAKATA,JALPAIGURI,"WEST BENGAL"
"THE WEST BENGAL STATE COOPERATIVE BANK",WBSC0000041,736093151,"DINHATA BRANCH","PO DINHATA,NEAR B.D.O.OFFICE,COOCH BEHAR",255073,DINHATA,COOCHBEHAR,"WEST BENGAL"
"THE WEST BENGAL STATE COOPERATIVE BANK",WBSC0000040,736093502,"ALIPURDUAR BRANCH","PO ALIPURDUAR,NEAR CHOWPATHI,DIST.JALPAIGURI",255242,ALIPURDUAR,JALPAIGURI,"WEST BENGAL"
"THE WEST BENGAL STATE COOPERATIVE BANK",WBSC0000039,736093501,"MATHABHANGA BRANCH","PO MATHABHANGA,NEAR BUS STOP,COOCH BEHAR",255258,MATHABHANGA,COOCHBEHAR,"WEST BENGAL"
"THE WEST BENGAL STATE COOPERATIVE BANK",WBSC0000038,736093002,"COOCH BEHAR BRANCH","BISWA SINGHA RD,NEAR B.D.HOTEL,P.O.AND DIST. COOCH BEHAR",222717,COOCHBEHAR,COOCHBEHAR,"WEST BENGAL"
"THE WEST BENGAL STATE COOPERATIVE BANK",WBSC0000037,700093021,"DUM DUM BRANCH","60,PURBA SINTHI ROAD,DUM DUM,KADAMTALA MARKET,KOL 30",25135758,"DUM DUM","NORTH 24 PARGANAS","WEST BENGAL"
"THE WEST BENGAL STATE COOPERATIVE BANK",WBSC0000036,700093501,"BASIRHAT BRANCH","NEAR BASIRHAT COURT,NORTH 24 PARGNAS",265233,BASIRHAT,"NORTH 24 PARGANAS","WEST BENGAL"
"THE WEST BENGAL STATE COOPERATIVE BANK",WBSC0000035,700093505,"HELENCHA BRANCH","P.O.HELENCHA,P.S.BAGDAH,24 PARGANAS NORTH",264771,HELENCHA,"NORTH 24 PARGANAS","WEST BENGAL"
"THE WEST BENGAL STATE COOPERATIVE BANK",WBSC0000034,700093017,"PANSILA BRANCH","PANIHATI MUNICIPALITY MARKET COMPLEX,R.N.AVENUE, P.O.KHARDAH,NORTH 24 PGS",25689191,PANSILA,"NORTH 24 PARGANAS","WEST BENGAL"
"THE WEST BENGAL STATE COOPERATIVE BANK",WBSC0000033,700093511,"CHANDPARA BRANCH","CHANDPARA BUS STAND,CHANDPARA BAZAR,NORTH 24 PGS",250044,CHANDPARA,"NORTH 24 PARGANAS","WEST BENGAL"
"THE WEST BENGAL STATE COOPERATIVE BANK",WBSC0000032,700093507,"AMDANGA BRANCH","ARKHALI,AMDANGA PANCHYAT B.D.O.OFFICE.NORT 24 PGS",260118,AMDANGA,"NORTH 24 PARGANAS","WEST BENGAL"
"THE WEST BENGAL STATE COOPERATIVE BANK",WBSC0000031,700093020,"HABRA BRANCH","NEAR HABRA RLY STATION,NORTH 24 PGS",237024,HABRA,"NORTH 24 PARGANAS","WEST BENGAL"
"THE WEST BENGAL STATE COOPERATIVE BANK",WBSC0000030,700093022,"KANCHRAPARA BRANCH","LICHUBAGAN,KANCHRAPARA, NORTH 24 PGS",25852674,KANCHRAPARA,"NORTH 24 PARGANAS","WEST BENGAL"
"THE WEST BENGAL STATE COOPERATIVE BANK",WBSC0000029,700093506,"BADURIA BRANCH","NEAR BADURIA BUS STOP,BADURIA,NORTH 24 PGS",238538,BADURIA,"NORTH 24 PARGANAS","WEST BENGAL"
"THE WEST BENGAL STATE COOPERATIVE BANK",WBSC0000028,700093015,"BARRACKPORE BRANCH","ASHADWIP MUNICIPAL COMPLEX,BARRACKPORE,CHIRIAMORE,NORTH 24 PG",25931651,BARRACKPORE,"NORTH 24 PARGANAS","WEST BENGAL"
"THE WEST BENGAL STATE COOPERATIVE BANK",WBSC0000027,743093002,"BONGAON BRANCH","NEAR BONGAON COURT,SCHOOL ROAD,BONGAON,NORTH 24 PGS",255069,BONGAON,"NORTH 24 PARGANAS","WEST BENGAL"
"THE WEST BENGAL STATE COOPERATIVE BANK",WBSC0000026,700093016,"BARASAT BRANCH","1ST FLOOR,R.B.C.RD.NEAR BARASAT COURT,NORTH 24 PGS",25628202,BARASAT,"NORTH 24 PARGANAS","WEST BENGAL"
"THE WEST BENGAL STATE COOPERATIVE BANK",WBSC0000025,700093504,"BIJOYGUNJ BRANCH","BIJOY GANJ BAZAR,MANDIR BAZAR,24 PGS.SOUTH",277158,BIJOYGUNJ,"SOUTH 24 PARGANAS","WEST BENGAL"
"THE WEST BENGAL STATE COOPERATIVE BANK",WBSC0000024,700093013,"BARUIPUR BRANCH","NEAR BARUIPUR RLY.STATION,24 PGS.SOUTH",24338646,BARUIPUR,"SOUTH 24 PARGANAS","WEST BENGAL"
"THE WEST BENGAL STATE COOPERATIVE BANK",WBSC0000023,700093510,"BHANGORE BRANCH","BHANGORE,NEAR GHATAKPUKUR BUS STOP,24 PGS.SOUTH",270535,BHANGORE,"SOUTH 24 PARGANAS","WEST BENGAL"
"THE WEST BENGAL STATE COOPERATIVE BANK",WBSC0000022,700093508,"PATHAR PRATIMA BRANCH","PATHAR PRATIMA BAZAR,24 PGS.SOUTH",267324,"PATHAR PRATIMA","SOUTH 24 PARGANAS","WEST BENGAL"
"THE WEST BENGAL STATE COOPERATIVE BANK",WBSC0000021,700093509,"SAGAR BRANCH","RUDRANAGAR,SAGAR,24 PGS.SOUTH",242533,SAGAR,"SOUTH 24 PARGANAS","WEST BENGAL"
"THE WEST BENGAL STATE COOPERATIVE BANK",WBSC0000020,700093019,"AMTALA BRANCH","AMTALA BUS STAND,PO.AMTALA,24PGS.SOUTH",24709342,AMTALA,"SOUTH 24 PARGANAS","WEST BENGAL"
"THE WEST BENGAL STATE COOPERATIVE BANK",WBSC0000019,700093503,"KASHINAGAR BRANCH","NEAR KASHINAGAR BAZAR,PO.KASHINAGR,24 PGS.SOUTH",274221,KASHINAGAR,"SOUTH 24 PARGANAS","WEST BENGAL"
"THE WEST BENGAL STATE COOPERATIVE BANK",WBSC0000018,700093102,"KAKDWIP BRANCH","KAKDWIP BAZAR,NEAR KAKDWIP POLICE STATION,24 PGS.SOUTH",255043,KAKDWIP,"SOUTH 24 PARGANAS","WEST BENGAL"
"THE WEST BENGAL STATE COOPERATIVE BANK",WBSC0000017,700093502,"CANNING BRANCH","NEAR CANNING POST OFFICE,24 PGS.SOUTH",255239,CANNING,"SOUTH 24 PARGANAS","WEST BENGAL"
"THE WEST BENGAL STATE COOPERATIVE BANK",WBSC0000016,700093023,"DIAMOND HARBOUR BRANCH","NEAR DIAMOND HARBOUR MUNICIPALITY,24 PGS.SOUTH",255684,"DIAMOND HARBOUR","SOUTH 24 PARGANAS","WEST BENGAL"
"THE WEST BENGAL STATE COOPERATIVE BANK",WBSC0000015,700093016,"POURABHAWAN BRANCH","415 A,1ST FLOOR,FD BLOCK,SEC III,POURA BHAWAN,SALT LAKE CITY,KOLKATA 700 064",23213724,"SALT LAKE",KOLKATA,"WEST BENGAL"
"THE WEST BENGAL STATE COOPERATIVE BANK",WBSC0000014,700093014,"SALT LAKE CITY BRANCH","EC BLOCK,SALT LAKE CITY,KOLKATA 700 054",23370438,"SALT LAKE",KOLKATA,"WEST BENGAL"
"THE WEST BENGAL STATE COOPERATIVE BANK",WBSC0000013,734093003,"SILIGURI EVENING BRANCH","1ST FLOOR,HILL CART ROAD.SARKAR MANSION,SILIGURI,DIST.DARJEELING",2432237,SILIGURI,DARJEELING,"WEST BENGAL"
"THE WEST BENGAL STATE COOPERATIVE BANK",WBSC0000012,734093002,"SILIGURI DAY BRANCH","1ST FLOOR,HILL CART ROAD.SARKAR MANSION,SILIGURI,DIST.DARJEELING",2432257,SILIGURI,DARJEELING,"WEST BENGAL"
"THE WEST BENGAL STATE COOPERATIVE BANK",WBSC0000011,700093011,CHETLA,"AUDITORIUM BLOCK,CIT MARKET,KOLKATA 700037",24797747,KOLKATA,KOLKATA,"WEST BENGAL"
"THE WEST BENGAL STATE COOPERATIVE BANK",WBSC0000010,700093008,"NEW ALIPORE","23 / A,NEW ALIPORE,BLOCK 21 C,KOLKATA 700053",23966156,KOLKATA,KOLKATA,"WEST BENGAL"
"THE WEST BENGAL STATE COOPERATIVE BANK",WBSC0000009,700093009,"GOLPARK BRANCH","28 / 3 A,GARIAHAT RD,KOLKATA 700029",24405654,KOLKATA,KOLKATA,"WEST BENGAL"
"THE WEST BENGAL STATE COOPERATIVE BANK",WBSC0000008,700093004,"GARIAHAT BRANCH","2 / 2 A,NANDY STREET,KOLKATA 700 029",24643203,KOLKATA,KOLKATA,"WEST BENGAL"
"THE WEST BENGAL STATE COOPERATIVE BANK",WBSC0000007,700093005,"ENTALLY BRANCH","27 / 1 BY C,CIT SCHEME,LV,KOLKATA 700014",22657442,KOLKATA,KOLKATA,"WEST BENGAL"
"THE WEST BENGAL STATE COOPERATIVE BANK",WBSC0000006,700093010,"HATIBAGAN BRANCH","89,ARABINDA SARANI,KOLKATA 700005",25553428,KOLKATA,KOLKATA,"WEST BENGAL"
"THE WEST BENGAL STATE COOPERATIVE BANK",WBSC0000005,700093006,"BELIAGHATA BRANCH","P 52,CIT SCHEME,VIP MARKET,KOLKATA 700010",23205108,KOLKATA,KOLKATA,"WEST BENGAL"
"THE WEST BENGAL STATE COOPERATIVE BANK",WBSC0000004,700093007,"BEHALA BRANCH","15,S.N.ROY RD,KOLKATA 700038",23961373,KOLKATA,KOLKATA,"WEST BENGAL"
"THE WEST BENGAL STATE COOPERATIVE BANK",WBSC0000003,700093003,"SHYAMBAZAR BRANCH","15 BY 2 B,BALARAM GHOSH ST,KOLKATA 700004",25556588,KOLKATA,KOLKATA,"WEST BENGAL"
"THE WEST BENGAL STATE COOPERATIVE BANK",WBSC0000002,700093002,"BHOWANIPUR BRANCH","28 A,S.P.MUKHERJEE ROAD KOLKATA 700025",24551199,KOLKATA,KOLKATA,"WEST BENGAL"
"THE WEST BENGAL STATE COOPERATIVE BANK",WBSC0000001,700093012,RTGS-HO,"24A,WATERLOO STREET,KOLKATA - 700069",22437816,KOLKATA,KOLKATA,"WEST BENGAL"
