BANK,IFSC,MICR,BRANCH,ADDRESS,CONTACT,CITY,DISTRICT,STATE
"Maharashtra Gramin Bank",MAHG0099922,NA,"VIRTUAL BRANCH","AT JEEVANSHREE PLOT NO 35 SECTOR G TOWN CENTRE CIDCO AURANGABAD MAHARASHTRA 431005",2476139,AURANGABAD,AURANGABAD,MAHARASHTRA
"Maharashtra Gramin Bank",MAHG0006004,425570509,TALODA,"AT TALODA TQ DIST NANDURBAR",233202,TALODA,NANDURBAR,MAHARASHTRA
"Maharashtra Gramin Bank",MAHG0006003,425570506,VADALI,"AT VADALI TQ DIST NANDURBAR",255414,VADALI,NANDURBAR,MAHARASHTRA
"Maharashtra Gramin Bank",MAHG0006002,425570508,MOD,"AT MOD TQ DIST NANDURBAR",236281,MOD,NANDURBAR,MAHARASHTRA
"Maharashtra Gramin Bank",MAHG0006001,425570507,SHANIMANDAL,"AT SHANIMANDAL TQ DIST NANDURBAR",251333,SHANIMANDAL,NANDURBAR,MAHARASHTRA
"Maharashtra Gramin Bank",MAHG0006000,425570202,NANDURBAR,"AT NANDURBAR TQ DIST NANDURBAR",220100,NANDURBAR,NANDURBAR,MAHARASHTRA
"Maharashtra Gramin Bank",MAHG0005903,400014269,SUKAPUR,"AT SUKAPUR TQ DIST RAIGAD",232032,SUKAPUR,RAIGAD,MAHARASHTRA
"Maharashtra Gramin Bank",MAHG0005902,400014268,DAHIVALI,"AT DAHIVALI TQ DIST RAIGAD",222448,DAHIVALI,RAIGAD,MAHARASHTRA
"Maharashtra Gramin Bank",MAHG0005901,402570501,"CHENDHARE ALIBAG","AT CHENDHARE ALIBAG TQ DIST RAIGAD",282162,"CHENDHARE ALIBAG",RAIGAD,MAHARASHTRA
"Maharashtra Gramin Bank",MAHG0005803,424570504,SAKARI,"AT SAKARI TQ DIST DHULE",344059,SAKARI,DHULE,MAHARASHTRA
"Maharashtra Gramin Bank",MAHG0005802,425570504,VARUL,"AT VARUL TQ DIST DHULE",271211,VARUL,DHULE,MAHARASHTRA
"Maharashtra Gramin Bank",MAHG0005801,424570002,"DEOPUR DHULE","AT DEOPUR DHULE TQ DIST DHULE",222699,"DEOPUR DHULE",DHULE,MAHARASHTRA
"Maharashtra Gramin Bank",MAHG0005710,NA,MADSANGVI,"GUT NO 295 4 PLOT NO 5 SHREE GANESH SANKUL NASIK AURANGABAD HIGHWAY AT MADSANGVI TQ DIST NASIK",25344059,MADSANGVI,NASHIK,MAHARASHTRA
"Maharashtra Gramin Bank",MAHG0005709,NA,"OZAR MIG","PLOT NO 7 SAI DARSHAN COMPLEX OZAR SAIKHEDA ROAD TQ NIPHAD DIST NASIK",25435154,"OZAR MIG",NASHIK,MAHARASHTRA
"Maharashtra Gramin Bank",MAHG0005708,NA,"BELGAON DHAGA","PLOT NO 528 TRIMBAK ROAD 6TH MILE BELGAON DHAGA PO TRIMBAK VIDYA MANDIR TQ DIST NASIK",25344059,"BELGAON DHAGA",NASHIK,MAHARASHTRA
"Maharashtra Gramin Bank",MAHG0005707,422570503,SHINDE,"AT SHINDE TQ DIST NASIK",802548,SHINDE,NASIK,MAHARASHTRA
"Maharashtra Gramin Bank",MAHG0005706,423570151,SATANA,"AT SATANA TQ DIST NASIK",223700,SATANA,NASIK,MAHARASHTRA
"Maharashtra Gramin Bank",MAHG0005705,423570352,YEOLA,"AT YEOLA TQ DIST NASIK",266621,YEOLA,NASIK,MAHARASHTRA
"Maharashtra Gramin Bank",MAHG0005704,422570003,SINNAR,"AT SINNAR TQ DIST NASIK",220010,SINNAR,NASIK,MAHARASHTRA
"Maharashtra Gramin Bank",MAHG0005703,422570501,NANDGAON,"AT NANDGAON TQ DIST NASIK",242041,NANDGAON,NASIK,MAHARASHTRA
"Maharashtra Gramin Bank",MAHG0005702,422570502,DINDORI,"AT DINDORI TQ DIST NASIK",221919,DINDORI,NASIK,MAHARASHTRA
"Maharashtra Gramin Bank",MAHG0005701,422570002,NASIK,"AT NASIK TQ DIST NASIK",472050,NASIK,NASIK,MAHARASHTRA
"Maharashtra Gramin Bank",MAHG0005634,401570501,DAHANU,"AT DAHANU TQ DIST PALGHAR",224411,DAHANU,PALGHAR,MAHARASHTRA
"Maharashtra Gramin Bank",MAHG0005633,400014261,"GHODBUNDER ROAD THANE","AT GHODBUNDER ROAD THANE TQ DIST THANE",971447,"GHODBUNDER ROAD THANE",THANE,MAHARASHTRA
"Maharashtra Gramin Bank",MAHG0005632,400014259,GHANSOLI,"AT GHANSOLI TQ DIST THANE",606580,GHANSOLI,THANE,MAHARASHTRA
"Maharashtra Gramin Bank",MAHG0005631,400014260,PALGHAR,"AT PALGHAR TQ DIST PALGHAR",250422,PALGHAR,PALGHAR,MAHARASHTRA
"Maharashtra Gramin Bank",MAHG0005630,400014258,"KHADAKPADA CHOWK KALYAN W","AT KHADAKPADA CHOWK KALYAN W TQ DIST THANE",230284,"KHADAKPADA CHOWK KALYAN W",THANE,MAHARASHTRA
"Maharashtra Gramin Bank",MAHG0005629,400570510,VIKRAMGHAD,"AT VIKRAMGHAD TQ DIST PALGHAR",240376,VIKRAMGHAD,PALGHAR,MAHARASHTRA
"Maharashtra Gramin Bank",MAHG0005628,400014265,GOTHEGHAR,"AT GOTHEGHAR TQ DIST THANE",270835,GOTHEGHAR,THANE,MAHARASHTRA
"Maharashtra Gramin Bank",MAHG0005625,400570507,TALASARI,"AT TALASARI TQ DIST PALGHAR",220375,TALASARI,PALGHAR,MAHARASHTRA
"Maharashtra Gramin Bank",MAHG0005623,400570501,MOKHADA,"AT MOKHADA TQ DIST PALGHAR",256684,MOKHADA,PALGHAR,MAHARASHTRA
"Maharashtra Gramin Bank",MAHG0005622,400014262,GOVELI,"AT GOVELI TQ DIST THANE",390017,GOVELI,THANE,MAHARASHTRA
"Maharashtra Gramin Bank",MAHG0005620,400014263,KHADAVALI,"AT KHADAVALI TQ DIST THANE",370021,KHADAVALI,THANE,MAHARASHTRA
"Maharashtra Gramin Bank",MAHG0005619,400570502,MHASA,"AT MHASA TQ DIST THANE",249195,MHASA,THANE,MAHARASHTRA
"Maharashtra Gramin Bank",MAHG0005615,400570504,MURBE,"AT MURBE TQ DIST PALGHAR",289032,MURBE,PALGHAR,MAHARASHTRA
"Maharashtra Gramin Bank",MAHG0005614,400570506,"GIRGAON T","AT GIRGAON T TQ DIST PALGHAR",992690,"GIRGAON T",PALGHAR,MAHARASHTRA
"Maharashtra Gramin Bank",MAHG0005612,400014267,WADA,"AT WADA TQ DIST PALGHAR",271115,WADA,PALGHAR,MAHARASHTRA
"Maharashtra Gramin Bank",MAHG0005609,400014264,KELWA,"AT KELWA TQ DIST PALGHAR",222120,KELWA,PALGHAR,MAHARASHTRA
"Maharashtra Gramin Bank",MAHG0005608,400570508,UDHAWA,"AT UDHAWA TQ DIST PALGHAR",232109,UDHAWA,PALGHAR,MAHARASHTRA
"Maharashtra Gramin Bank",MAHG0005606,400570505,DOLKHAMB,"AT DOLKHAMB TQ DIST THANE",234144,DOLKHAMB,THANE,MAHARASHTRA
"Maharashtra Gramin Bank",MAHG0005605,400570509,ALONDE,"AT ALONDE TQ DIST PALGHAR",231023,ALONDE,PALGHAR,MAHARASHTRA
"Maharashtra Gramin Bank",MAHG0005604,400014266,KUDUS,"AT KUDUS TQ DIST PALGHAR",221111,KUDUS,PALGHAR,MAHARASHTRA
"Maharashtra Gramin Bank",MAHG0005603,400570503,TOKAWADE,"AT TOKAWADE TQ DIST THANE",242041,TOKAWADE,THANE,MAHARASHTRA
"Maharashtra Gramin Bank",MAHG0005602,400014254,BELAVALI,"AT BELAVALI TQ DIST THANE",673523,BELAVALI,THANE,MAHARASHTRA
"Maharashtra Gramin Bank",MAHG0005601,400014252,"VRINDAVAN THANEW","AT VRINDAVAN THANEW TQ DIST THANE",437653,"VRINDAVAN THANEW",THANE,MAHARASHTRA
"Maharashtra Gramin Bank",MAHG0005600,422570308,"REGIONAL OFFICE THANE","REGIONAL OFFICE THANE 3RD FLOOR MTNL CHARAI BHAVAN INFRONT OF GANESH TALKIES MAULI MANDAL CHARAI TQ DIST THANE",25344059,THANE,THANE,MAHARASHTRA
"Maharashtra Gramin Bank",MAHG0005514,NA,KAJGAON,"MAHARASHTRA GRAMIN BANK KAMALSHANTI VYAPARI BIGAR SHETI SAHAKARI PATASANSTHA PREMISES NEAR BUS STAND KAJGAON DIST JALGAON 424103",0,BHADGAON,JALGAON,MAHARASHTRA
"Maharashtra Gramin Bank",MAHG0005513,425570252,RAVER,"AT RAVER TQ DIST JALGAON",250140,RAVER,JALGAON,MAHARASHTRA
"Maharashtra Gramin Bank",MAHG0005512,425570512,PAROLA,"AT PAROLA TQ DIST JALGAON",294666,PAROLA,JALGAON,MAHARASHTRA
"Maharashtra Gramin Bank",MAHG0005511,425570511,MHASAWAD,"AT MHASAWAD TQ DIST JALGAON",355855,MHASAWAD,JALGAON,MAHARASHTRA
"Maharashtra Gramin Bank",MAHG0005510,425570510,"SHIRSOLI P B","AT SHIRSOLI P B TQ DIST JALGAON",359221,"SHIRSOLI P B",JALGAON,MAHARASHTRA
"Maharashtra Gramin Bank",MAHG0005509,424570503,MEHUNBARE,"AT MEHUNBARE TQ DIST JALGAON",244190,MEHUNBARE,JALGAON,MAHARASHTRA
"Maharashtra Gramin Bank",MAHG0005508,425570505,YAWAL,"AT YAWAL TQ DIST JALGAON",260044,YAWAL,JALGAON,MAHARASHTRA
"Maharashtra Gramin Bank",MAHG0005507,425570503,VARANGAON,"AT VARANGAON TQ DIST JALGAON",262258,VARANGAON,JALGAON,MAHARASHTRA
"Maharashtra Gramin Bank",MAHG0005506,424570502,SATGAON,"AT SATGAON TQ DIST JALGAON",281555,SATGAON,JALGAON,MAHARASHTRA
"Maharashtra Gramin Bank",MAHG0005505,425570502,KEKATNIMBHORA,"AT KEKATNIMBHORA TQ DIST JALGAON",256255,KEKATNIMBHORA,JALGAON,MAHARASHTRA
"Maharashtra Gramin Bank",MAHG0005504,424570501,AMADADE,"AT AMADADE TQ DIST JALGAON",231269,AMADADE,JALGAON,MAHARASHTRA
"Maharashtra Gramin Bank",MAHG0005503,425570501,MUKTAINAGAR,"AT MUKTAINAGAR TQ DIST JALGAON",235300,MUKTAINAGAR,JALGAON,MAHARASHTRA
"Maharashtra Gramin Bank",MAHG0005502,424570102,PACHORA,"AT PACHORA TQ DIST JALGAON",244544,PACHORA,JALGAON,MAHARASHTRA
"Maharashtra Gramin Bank",MAHG0005501,425570002,JALGAON,"AT JALGAON TQ DIST JALGAON",254400,JALGAON,JALGAON,MAHARASHTRA
"Maharashtra Gramin Bank",MAHG0005407,414570504,RASHIN,"AT RASHIN TQ DIST AHMEDNAGAR",258699,RASHIN,AHMEDNAGAR,MAHARASHTRA
"Maharashtra Gramin Bank",MAHG0005406,414570502,"MUKINDPUR NEWASA PHATA","AT MUKINDPUR NEWASA PHATA TQ DIST AHMEDNAGAR",244080,"MUKINDPUR NEWASA PHATA",AHMEDNAGAR,MAHARASHTRA
"Maharashtra Gramin Bank",MAHG0005405,414570503,"SAROLA KASAR","AT SAROLA KASAR TQ DIST AHMEDNAGAR",537005,"SAROLA KASAR",AHMEDNAGAR,MAHARASHTRA
"Maharashtra Gramin Bank",MAHG0005404,414570501,MADHI,"AT MADHI TQ DIST AHMEDNAGAR",244007,MADHI,AHMEDNAGAR,MAHARASHTRA
"Maharashtra Gramin Bank",MAHG0005403,423570001,KOPARGAON,"AT KOPARGAON TQ DIST AHMEDNAGAR",225300,KOPARGAON,AHMEDNAGAR,MAHARASHTRA
"Maharashtra Gramin Bank",MAHG0005402,422570201,SANGAMNER,"AT SANGAMNER TQ DIST AHMEDNAGAR",227272,SANGAMNER,AHMEDNAGAR,MAHARASHTRA
"Maharashtra Gramin Bank",MAHG0005401,414570001,"GULMOHAR COLONEY AHMEDNAGAR","AT GULMOHAR COLONEY AHMEDNAGAR TQ DIST AHMEDNAGAR",428912,"GULMOHAR COLONEY AHMEDNAGAR",AHMEDNAGAR,MAHARASHTRA
"Maharashtra Gramin Bank",MAHG0005227,431570053,"NEW JALNA","AT NEW JALNA TQ DIST JALNA",243393,"NEW JALNA",JALNA,MAHARASHTRA
"Maharashtra Gramin Bank",MAHG0005226,431570527,AMBAD,"AT AMBAD TQ DIST JALNA",220579,AMBAD,JALNA,MAHARASHTRA
"Maharashtra Gramin Bank",MAHG0005224,431570541,JAFRABAD,"AT JAFRABAD TQ DIST JALNA",222773,JAFRABAD,JALNA,MAHARASHTRA
"Maharashtra Gramin Bank",MAHG0005223,431570532,"PIMPALGAON RENUKAI","AT PIMPALGAON RENUKAI TQ DIST JALNA",245206,"PIMPALGAON RENUKAI",JALNA,MAHARASHTRA
"Maharashtra Gramin Bank",MAHG0005222,431570547,"PARTUR CITY","AT PARTUR CITY TQ DIST JALNA",221086,"PARTUR CITY",JALNA,MAHARASHTRA
"Maharashtra Gramin Bank",MAHG0005221,431570533,"RAJUR GANPATI","AT RAJUR GANPATI TQ DIST JALNA",252417,"RAJUR GANPATI",JALNA,MAHARASHTRA
"Maharashtra Gramin Bank",MAHG0005220,431570539,"KUMBHAR PIMPALGAON","AT KUMBHAR PIMPALGAON TQ DIST JALNA",228385,"KUMBHAR PIMPALGAON",JALNA,MAHARASHTRA
"Maharashtra Gramin Bank",MAHG0005219,431570543,GOLAPANGRI,"AT GOLAPANGRI TQ DIST JALNA",204231,GOLAPANGRI,JALNA,MAHARASHTRA
"Maharashtra Gramin Bank",MAHG0005218,431570546,"WAGHRUL JAHANGIR","AT WAGHRUL JAHANGIR TQ DIST JALNA",255240,"WAGHRUL JAHANGIR",JALNA,MAHARASHTRA
"Maharashtra Gramin Bank",MAHG0005217,431570550,WATURPHATA,"AT WATURPHATA TQ DIST JALNA",224540,WATURPHATA,JALNA,MAHARASHTRA
"Maharashtra Gramin Bank",MAHG0005216,431570544,RAMNAGAR,"AT RAMNAGAR TQ DIST JALNA",256239,RAMNAGAR,JALNA,MAHARASHTRA
"Maharashtra Gramin Bank",MAHG0005215,431570545,SEVALI,"AT SEVALI TQ DIST JALNA",253253,SEVALI,JALNA,MAHARASHTRA
"Maharashtra Gramin Bank",MAHG0005214,431570534,BADNAPUR,"AT BADNAPUR TQ DIST JALNA",261140,BADNAPUR,JALNA,MAHARASHTRA
"Maharashtra Gramin Bank",MAHG0005213,431570528,GONDI,"AT GONDI TQ DIST JALNA",232018,GONDI,JALNA,MAHARASHTRA
"Maharashtra Gramin Bank",MAHG0005212,431570538,"TALNI J","AT TALNI J TQ DIST JALNA",275907,"TALNI J",JALNA,MAHARASHTRA
"Maharashtra Gramin Bank",MAHG0005211,431570529,VADIGODRI,"AT VADIGODRI TQ DIST JALNA",227293,VADIGODRI,JALNA,MAHARASHTRA
"Maharashtra Gramin Bank",MAHG0005210,431570536,SHELGAON,"AT SHELGAON TQ DIST JALNA",262052,SHELGAON,JALNA,MAHARASHTRA
"Maharashtra Gramin Bank",MAHG0005209,431570535,DABHADI,"AT DABHADI TQ DIST JALNA",264014,DABHADI,JALNA,MAHARASHTRA
"Maharashtra Gramin Bank",MAHG0005208,431570540,TIRTHPURI,"AT TIRTHPURI TQ DIST JALNA",226596,TIRTHPURI,JALNA,MAHARASHTRA
"Maharashtra Gramin Bank",MAHG0005207,431570531,ANWA,"AT ANWA TQ DIST JALNA",242243,ANWA,JALNA,MAHARASHTRA
"Maharashtra Gramin Bank",MAHG0005206,431570530,BHOKARDAN,"AT BHOKARDAN TQ DIST JALNA",240172,BHOKARDAN,JALNA,MAHARASHTRA
"Maharashtra Gramin Bank",MAHG0005205,431570542,MAHORA,"AT MAHORA TQ DIST JALNA",225208,MAHORA,JALNA,MAHARASHTRA
"Maharashtra Gramin Bank",MAHG0005204,431570548,"PARTUR MONDHA","AT PARTUR MONDHA TQ DIST JALNA",221278,"PARTUR MONDHA",JALNA,MAHARASHTRA
"Maharashtra Gramin Bank",MAHG0005203,431570537,MANTHA,"AT MANTHA TQ DIST JALNA",270282,MANTHA,JALNA,MAHARASHTRA
"Maharashtra Gramin Bank",MAHG0005202,431570549,SATONA,"AT SATONA TQ DIST JALNA",226218,SATONA,JALNA,MAHARASHTRA
"Maharashtra Gramin Bank",MAHG0005201,431570052,"JALNA MAIN","AT JALNA MAIN TQ DIST JALNA",232529,"JALNA MAIN",JALNA,MAHARASHTRA
"Maharashtra Gramin Bank",MAHG0005138,431570705,RANJANGAON,"AT RANJANGAON TQ DIST AURANGABAD",2553309,RANJANGAON,AURANGABAD,MAHARASHTRA
"Maharashtra Gramin Bank",MAHG0005137,431570701,ALAND,"AT ALAND TQ DIST AURANGABAD",284667,ALAND,AURANGABAD,MAHARASHTRA
"Maharashtra Gramin Bank",MAHG0005136,431570699,BIDKIN,"AT BIDKIN TQ DIST AURANGABAD",241017,BIDKIN,AURANGABAD,MAHARASHTRA
"Maharashtra Gramin Bank",MAHG0005135,431570700,SATARA,"AT SATARA TQ DIST AURANGABAD",2653100,SATARA,AURANGABAD,MAHARASHTRA
"Maharashtra Gramin Bank",MAHG0005134,431570511,PAITHAN,"AT PAITHAN TQ DIST AURANGABAD",223366,PAITHAN,AURANGABAD,MAHARASHTRA
"Maharashtra Gramin Bank",MAHG0005133,431570508,KANNAD,"AT KANNAD TQ DIST AURANGABAD",222229,KANNAD,AURANGABAD,MAHARASHTRA
"Maharashtra Gramin Bank",MAHG0005132,431570006,"SHIVAJINAGAR SATARAPARISAR AURANGABAD","AT SHIVAJINAGAR SATARAPARISAR AURANGABAD TQ DIST AURANGABAD",2451232,"SHIVAJINAGAR SATARAPARISAR AURANGABAD",AURANGABAD,MAHARASHTRA
"Maharashtra Gramin Bank",MAHG0005131,431570004,"MUKUNDWADI AURANGABAD","AT MUKUNDWADI AURANGABAD TQ DIST AURANGABAD",2487785,"MUKUNDWADI AURANGABAD",AURANGABAD,MAHARASHTRA
"Maharashtra Gramin Bank",MAHG0005130,431570515,SILLOD,"AT SILLOD TQ DIST AURANGABAD",2343606,SILLOD,AURANGABAD,MAHARASHTRA
"Maharashtra Gramin Bank",MAHG0005129,431570002,"SAMARTHNAGAR AURANGABAD","AT SAMARTHNAGAR AURANGABAD TQ DIST AURANGABAD",223952,"SAMARTHNAGAR AURANGABAD",AURANGABAD,MAHARASHTRA
"Maharashtra Gramin Bank",MAHG0005128,431570521,SAWALATBARA,"AT SAWALATBARA TQ DIST AURANGABAD",245130,SAWALATBARA,AURANGABAD,MAHARASHTRA
"Maharashtra Gramin Bank",MAHG0005127,431570522,VAIJAPUR,"AT VAIJAPUR TQ DIST AURANGABAD",222512,VAIJAPUR,AURANGABAD,MAHARASHTRA
"Maharashtra Gramin Bank",MAHG0005126,431570520,JARANDI,"AT JARANDI TQ DIST AURANGABAD",264965,JARANDI,AURANGABAD,MAHARASHTRA
"Maharashtra Gramin Bank",MAHG0005125,431570505,GANGAPUR,"AT GANGAPUR TQ DIST AURANGABAD",220597,GANGAPUR,AURANGABAD,MAHARASHTRA
"Maharashtra Gramin Bank",MAHG0005124,431570525,MAHALGAON,"AT MAHALGAON TQ DIST AURANGABAD",282327,MAHALGAON,AURANGABAD,MAHARASHTRA
"Maharashtra Gramin Bank",MAHG0005123,431570516,AMBHAI,"AT AMBHAI TQ DIST AURANGABAD",286342,AMBHAI,AURANGABAD,MAHARASHTRA
"Maharashtra Gramin Bank",MAHG0005122,431570514,BABRA,"AT BABRA TQ DIST AURANGABAD",285342,BABRA,AURANGABAD,MAHARASHTRA
"Maharashtra Gramin Bank",MAHG0005121,431570504,SHEKTA,"AT SHEKTA TQ DIST AURANGABAD",624454,SHEKTA,AURANGABAD,MAHARASHTRA
"Maharashtra Gramin Bank",MAHG0005120,431570506,"LASUR STATION","AT LASUR STATION TQ DIST AURANGABAD",241548,"LASUR STATION",AURANGABAD,MAHARASHTRA
"Maharashtra Gramin Bank",MAHG0005118,431570501,CHITTEPIMPALGAON,"AT CHITTEPIMPALGAON TQ DIST AURANGABAD",643622,CHITTEPIMPALGAON,AURANGABAD,MAHARASHTRA
"Maharashtra Gramin Bank",MAHG0005116,431570507,SHENDURWADA,"AT SHENDURWADA TQ DIST AURANGABAD",235854,SHENDURWADA,AURANGABAD,MAHARASHTRA
"Maharashtra Gramin Bank",MAHG0005115,431570513,PHULAMBRI,"AT PHULAMBRI TQ DIST AURANGABAD",634091,PHULAMBRI,AURANGABAD,MAHARASHTRA
"Maharashtra Gramin Bank",MAHG0005114,431570509,NACHANVEL,"AT NACHANVEL TQ DIST AURANGABAD",239452,NACHANVEL,AURANGABAD,MAHARASHTRA
"Maharashtra Gramin Bank",MAHG0005113,431570517,GHATNANDRA,"AT GHATNANDRA TQ DIST AURANGABAD",287456,GHATNANDRA,AURANGABAD,MAHARASHTRA
"Maharashtra Gramin Bank",MAHG0005112,431570518,PANVADOD,"AT PANVADOD TQ DIST AURANGABAD",287317,PANVADOD,AURANGABAD,MAHARASHTRA
"Maharashtra Gramin Bank",MAHG0005111,431570502,KARMAD,"AT KARMAD TQ DIST AURANGABAD",623339,KARMAD,AURANGABAD,MAHARASHTRA
"Maharashtra Gramin Bank",MAHG0005110,431570519,SHIVNA,"AT SHIVNA TQ DIST AURANGABAD",289408,SHIVNA,AURANGABAD,MAHARASHTRA
"Maharashtra Gramin Bank",MAHG0005109,431570503,LADSAVANGI,"AT LADSAVANGI TQ DIST AURANGABAD",626645,LADSAVANGI,AURANGABAD,MAHARASHTRA
"Maharashtra Gramin Bank",MAHG0005107,431570524,"LONI KH","AT LONI KH TQ DIST AURANGABAD",288329,"LONI KH",AURANGABAD,MAHARASHTRA
"Maharashtra Gramin Bank",MAHG0005106,431570526,PARSODA,"AT PARSODA TQ DIST AURANGABAD",283373,PARSODA,AURANGABAD,MAHARASHTRA
"Maharashtra Gramin Bank",MAHG0005105,431570523,KHANDALA,"AT KHANDALA TQ DIST AURANGABAD",281325,KHANDALA,AURANGABAD,MAHARASHTRA
"Maharashtra Gramin Bank",MAHG0005104,431570510,GALLEBORGAON,"AT GALLEBORGAON TQ DIST AURANGABAD",243513,GALLEBORGAON,AURANGABAD,MAHARASHTRA
"Maharashtra Gramin Bank",MAHG0005103,431570512,BALANAGAR,"AT BALANAGAR TQ DIST AURANGABAD",261053,BALANAGAR,AURANGABAD,MAHARASHTRA
"Maharashtra Gramin Bank",MAHG0005102,431570005,WALUJ,"AT WALUJ TQ DIST AURANGABAD",2564523,WALUJ,AURANGABAD,MAHARASHTRA
"Maharashtra Gramin Bank",MAHG0005101,431570003,"GARKHEDA ROAD AURANGABAD","AT GARKHEDA ROAD AURANGABAD TQ DIST AURANGABAD",2338252,"GARKHEDA ROAD AURANGABAD",AURANGABAD,MAHARASHTRA
"Maharashtra Gramin Bank",MAHG0005100,422570251,"REGIONAL OFFICE AURANGABAD","REGIONAL OFFICE AURANGABAD SAMARTHNAGAR 108 JIVANGANGA SAMARTHANAGAR AURANGABAD",2476139,AURANGABAD,AURANGABAD,MAHARASHTRA
"Maharashtra Gramin Bank",MAHG0004620,NA,BHUGAON,"HOUSE NO 862 PUNE PAUD ROAD BHUGAON PO BHUGAON TALUKA MULSHI",25344059,PUNE,PUNE,MAHARASHTRA
"Maharashtra Gramin Bank",MAHG0004619,NA,INDAPUR,"INDYAYANI PLAZA MIDDLE AKLUJ ROAD VYANKETESHNAGAR INDAPUR TALUKA INDAPUR",25344059,PUNE,PUNE,MAHARASHTRA
"Maharashtra Gramin Bank",MAHG0004618,NA,NARHE,"SHOP NO 101 VARAD VINAYAK COMPLEX SURVEY NO 26 1 NARHE DHAYRI ROAD NARHE TQ HAVILI DIST PUNE",25435154,NARHE,PUNE,MAHARASHTRA
"Maharashtra Gramin Bank",MAHG0004617,411570510,KOYALI,"AT KOYALI TQ DIST PUNE",25344059,KOYALI,PUNE,MAHARASHTRA
"Maharashtra Gramin Bank",MAHG0004616,411570511,MEDANKARWADI,"AT MEDANKARWADI TQ DIST PUNE",204202,MEDANKARWADI,PUNE,MAHARASHTRA
"Maharashtra Gramin Bank",MAHG0004615,411570507,SHIRASWADI,"AT SHIRASWADI TQ HAVELI DIST PUNE",25344059,SHIRASWADI,PUNE,MAHARASHTRA
"Maharashtra Gramin Bank",MAHG0004614,411570509,KESHAVNAGAR,"AT KESHAVNAGAR TQ HAVELI DIST PUNE",20263111,KESHAVNAGAR,PUNE,MAHARASHTRA
"Maharashtra Gramin Bank",MAHG0004612,411570506,KARANDI,"AT KARANDI TQ SHIRUR DIST PUNE",25344059,KARANDI,PUNE,MAHARASHTRA
"Maharashtra Gramin Bank",MAHG0004611,411570508,"KONDWE DHAWADE","AT KONDWE DHAWADE TQ HAVELI DIST PUNE",292535,"KONDWE DHAWADE",PUNE,MAHARASHTRA
"Maharashtra Gramin Bank",MAHG0004610,411570505,BAHUL,"AT BAHUL TQ KHED DIST PUNE",25344059,BAHUL,PUNE,MAHARASHTRA
"Maharashtra Gramin Bank",MAHG0004609,411570504,"LOHAGAON PUNE","AT LOHAGAON PUNE TQ HAVELI DIST PUNE",261333,"LOHAGAON PUNE",PUNE,MAHARASHTRA
"Maharashtra Gramin Bank",MAHG0004608,411570503,KUNJARWADI,"AT KUNJARWADI TQ HAVELI DIST PUNE",913956,KUNJARWADI,PUNE,MAHARASHTRA
"Maharashtra Gramin Bank",MAHG0004607,411014257,"URALI DEVACHI","AT URALI DEVACHI TQ HAVELI DIST PUNE",266277,"URALI DEVACHI",PUNE,MAHARASHTRA
"Maharashtra Gramin Bank",MAHG0004606,411014253,PERNE,"AT PERNE TQ HAVELI DIST PUNE",287116,PERNE,PUNE,MAHARASHTRA
"Maharashtra Gramin Bank",MAHG0004605,411014254,KANHE,"AT KANHE TQ WADGAONMAVAL DIST PUNE",255014,KANHE,PUNE,MAHARASHTRA
"Maharashtra Gramin Bank",MAHG0004604,411014256,"BORI PARDHI","AT BORI PARDHI TQ DAUND DIST PUNE",223022,"BORI PARDHI",PUNE,MAHARASHTRA
"Maharashtra Gramin Bank",MAHG0004603,411014255,KADAMWAKWASTI,"AT KADAMWAKWASTI TQ HAVELI DIST PUNE",912025,KADAMWAKWASTI,PUNE,MAHARASHTRA
"Maharashtra Gramin Bank",MAHG0004602,411014251,SANASWADI,"AT SANASWADI TQ SHIRUR DIST PUNE",253570,SANASWADI,PUNE,MAHARASHTRA
"Maharashtra Gramin Bank",MAHG0004601,411014252,"WAGHOLI P","AT WAGHOLI P TQ HAVELI DIST PUNE",52550,"WAGHOLI P",PUNE,MAHARASHTRA
"Maharashtra Gramin Bank",MAHG0004554,431570702,KHALAPURI,"AT KHALAPURI TQ SHIRUR KASAR DIST BEED",268265,KHALAPURI,BEED,MAHARASHTRA
"Maharashtra Gramin Bank",MAHG0004553,431570696,MOREWADI,"AT MOREWADI TQ AMBAJOGAI DIST BEED",246088,MOREWADI,BEED,MAHARASHTRA
"Maharashtra Gramin Bank",MAHG0004552,431570303,"DHANORA ROAD BEED","AT DHANORA ROAD BEED TQ BEED DIST BEED",236693,"DHANORA ROAD BEED",BEED,MAHARASHTRA
"Maharashtra Gramin Bank",MAHG0004551,431570555,ASHTI,"AT ASHTI TQ ASHTI DIST BEED",282173,ASHTI,BEED,MAHARASHTRA
"Maharashtra Gramin Bank",MAHG0004550,431570580,DHARUR,"AT DHARUR TQ DHARUR DIST BEED",274040,DHARUR,BEED,MAHARASHTRA
"Maharashtra Gramin Bank",MAHG0004549,431570574,PATODA,"AT PATODA TQ PATODA DIST BEED",242406,PATODA,BEED,MAHARASHTRA
"Maharashtra Gramin Bank",MAHG0004548,431570352,PARALI,"AT PARALI TQ PARALI DIST BEED",223408,PARALI,BEED,MAHARASHTRA
"Maharashtra Gramin Bank",MAHG0004547,431570152,AMBAJOGAI,"AT AMBAJOGAI TQ AMBAJOGAI DIST BEED",248172,AMBAJOGAI,BEED,MAHARASHTRA
"Maharashtra Gramin Bank",MAHG0004546,431570587,"YUSUF WADGAON","AT YUSUF WADGAON TQ KAIJ DIST BEED",232756,"YUSUF WADGAON",BEED,MAHARASHTRA
"Maharashtra Gramin Bank",MAHG0004545,431570563,NEKNOOR,"AT NEKNOOR TQ BEED DIST BEED",250585,NEKNOOR,BEED,MAHARASHTRA
"Maharashtra Gramin Bank",MAHG0004544,431570559,"WADGAON DAULA","AT WADGAON DAULA TQ ASHTI DIST BEED",202316,"WADGAON DAULA",BEED,MAHARASHTRA
"Maharashtra Gramin Bank",MAHG0004542,431570570,TALWADA,"AT TALWADA TQ GEORAI DIST BEED",252022,TALWADA,BEED,MAHARASHTRA
"Maharashtra Gramin Bank",MAHG0004541,431570590,TAKARWAN,"AT TAKARWAN TQ MAJALGAON DIST BEED",245386,TAKARWAN,BEED,MAHARASHTRA
"Maharashtra Gramin Bank",MAHG0004540,431570594,SIRSALA,"AT SIRSALA TQ PARALI DIST BEED",262457,SIRSALA,BEED,MAHARASHTRA
"Maharashtra Gramin Bank",MAHG0004539,431570567,GEORAI,"AT GEORAI TQ GEORAI DIST BEED",262791,GEORAI,BEED,MAHARASHTRA
"Maharashtra Gramin Bank",MAHG0004538,431570560,SHIRAL,"AT SHIRAL TQ ASHTI DIST BEED",234643,SHIRAL,BEED,MAHARASHTRA
"Maharashtra Gramin Bank",MAHG0004537,431570565,"RAJURI BK","AT RAJURI BK TQ BEED DIST BEED",255558,"RAJURI BK",BEED,MAHARASHTRA
"Maharashtra Gramin Bank",MAHG0004536,431570575,RAIMOHA,"AT RAIMOHA TQ SHIRUR DIST BEED",258581,RAIMOHA,BEED,MAHARASHTRA
"Maharashtra Gramin Bank",MAHG0004535,431570593,POHNER,"AT POHNER TQ PARALI DIST BEED",203170,POHNER,BEED,MAHARASHTRA
"Maharashtra Gramin Bank",MAHG0004534,431570558,PIMPLA,"AT PIMPLA TQ ASHTI DIST BEED",254513,PIMPLA,BEED,MAHARASHTRA
"Maharashtra Gramin Bank",MAHG0004533,431570576,"SHIRUR KASAR","AT SHIRUR KASAR TQ SHIRUR KASAR DIST BEED",259514,"SHIRUR KASAR",BEED,MAHARASHTRA
"Maharashtra Gramin Bank",MAHG0004532,431570564,"PIMPALNER B","AT PIMPALNER B TQ BEED DIST BEED",203160,"PIMPALNER B",BEED,MAHARASHTRA
"Maharashtra Gramin Bank",MAHG0004531,431570554,"PATODA AMBA","AT PATODA AMBA TQ AMBAJOGAI DIST BEED",255563,"PATODA AMBA",BEED,MAHARASHTRA
"Maharashtra Gramin Bank",MAHG0004530,431570569,PADALSINGI,"AT PADALSINGI TQ GEORAI DIST BEED",256621,PADALSINGI,BEED,MAHARASHTRA
"Maharashtra Gramin Bank",MAHG0004529,431570578,TELGAON,"AT TELGAON TQ WADWANI DIST BEED",241537,TELGAON,BEED,MAHARASHTRA
"Maharashtra Gramin Bank",MAHG0004527,431570586,NANDURGHAT,"AT NANDURGHAT TQ KAIJ DIST BEED",231506,NANDURGHAT,BEED,MAHARASHTRA
"Maharashtra Gramin Bank",MAHG0004526,431570592,"MOHA M","AT MOHA M TQ PARALI DIST BEED",267459,"MOHA M",BEED,MAHARASHTRA
"Maharashtra Gramin Bank",MAHG0004525,431570562,LIMBAGANESH,"AT LIMBAGANESH TQ BEED DIST BEED",251853,LIMBAGANESH,BEED,MAHARASHTRA
"Maharashtra Gramin Bank",MAHG0004524,431570573,KUSLAMB,"AT KUSLAMB TQ PATODA DIST BEED",244169,KUSLAMB,BEED,MAHARASHTRA
"Maharashtra Gramin Bank",MAHG0004523,431570561,KOLGAON,"AT KOLGAON TQ GEORAI DIST BEED",203510,KOLGAON,BEED,MAHARASHTRA
"Maharashtra Gramin Bank",MAHG0004522,431570589,"KITTI ADGAON","AT KITTI ADGAON TQ MAJALGAON DIST BEED",247646,"KITTI ADGAON",BEED,MAHARASHTRA
"Maharashtra Gramin Bank",MAHG0004521,431570571,UMAPUR,"AT UMAPUR TQ GEORAI DIST BEED",267056,UMAPUR,BEED,MAHARASHTRA
"Maharashtra Gramin Bank",MAHG0004520,431570579,WADWANI,"AT WADWANI TQ WADWANI DIST BEED",257642,WADWANI,BEED,MAHARASHTRA
"Maharashtra Gramin Bank",MAHG0004519,431570585,KAIJ,"AT KAIJ TQ KAIJ DIST BEED",252336,KAIJ,BEED,MAHARASHTRA
"Maharashtra Gramin Bank",MAHG0004518,431570568,JATEGAON,"AT JATEGAON TQ GEORAI DIST BEED",255510,JATEGAON,BEED,MAHARASHTRA
"Maharashtra Gramin Bank",MAHG0004517,431570584,HOAL,"AT HOAL TQ KAIJ DIST BEED",237601,HOAL,BEED,MAHARASHTRA
"Maharashtra Gramin Bank",MAHG0004516,431570553,GHATNANDUR,"AT GHATNANDUR TQ AMBAJOGAI DIST BEED",242580,GHATNANDUR,BEED,MAHARASHTRA
"Maharashtra Gramin Bank",MAHG0004515,431570252,MAJALGAON,"AT MAJALGAON TQ MAJALGAON DIST BEED",234723,MAJALGAON,BEED,MAHARASHTRA
"Maharashtra Gramin Bank",MAHG0004514,431570583,EDDA,"AT EDDA TQ KAIJ DIST BEED",234609,EDDA,BEED,MAHARASHTRA
"Maharashtra Gramin Bank",MAHG0004513,431570572,DONGARKINI,"AT DONGARKINI TQ PATODA DIST BEED",248481,DONGARKINI,BEED,MAHARASHTRA
"Maharashtra Gramin Bank",MAHG0004512,431570588,DINDRUD,"AT DINDRUD TQ MAJALGAON DIST BEED",244558,DINDRUD,BEED,MAHARASHTRA
"Maharashtra Gramin Bank",MAHG0004511,431570591,DHARMAPURI,"AT DHARMAPURI TQ PARALI DIST BEED",254073,DHARMAPURI,BEED,MAHARASHTRA
"Maharashtra Gramin Bank",MAHG0004510,431570556,DHAMANGAON,"AT DHAMANGAON TQ ASHTI DIST BEED",224696,DHAMANGAON,BEED,MAHARASHTRA
"Maharashtra Gramin Bank",MAHG0004509,431570577,DEOLA,"AT DEOLA TQ WADWANI DIST BEED",271617,DEOLA,BEED,MAHARASHTRA
"Maharashtra Gramin Bank",MAHG0004508,431570582,"CHINCHOLI MALI","AT CHINCHOLI MALI TQ KAIJ DIST BEED",235501,"CHINCHOLI MALI",BEED,MAHARASHTRA
"Maharashtra Gramin Bank",MAHG0004507,431570566,CHAKLAMBA,"AT CHAKLAMBA TQ GEORAI DIST BEED",258163,CHAKLAMBA,BEED,MAHARASHTRA
"Maharashtra Gramin Bank",MAHG0004506,431570557,KADA,"AT KADA TQ ASHTI DIST BEED",239790,KADA,BEED,MAHARASHTRA
"Maharashtra Gramin Bank",MAHG0004504,431570302,BEED,"AT BEED TQ BEED DIST BEED",222698,BEED,BEED,MAHARASHTRA
"Maharashtra Gramin Bank",MAHG0004503,431570552,BARDAPUR,"AT BARDAPUR TQ AMBAJOGAI DIST BEED",271330,BARDAPUR,BEED,MAHARASHTRA
"Maharashtra Gramin Bank",MAHG0004502,431570551,APEGAON,"AT APEGAON TQ AMBAJOGAI DIST BEED",253503,APEGAON,BEED,MAHARASHTRA
"Maharashtra Gramin Bank",MAHG0004501,431570581,ADAS,"AT ADAS TQ KAIJ DIST BEED",275537,ADAS,BEED,MAHARASHTRA
"Maharashtra Gramin Bank",MAHG0004500,422570198,"REGIONAL OFFICE BEED","REGIONAL OFFICE BEED SUBHASH ROAD BEED TQ DIST BEED",228938,BEED,BEED,MAHARASHTRA
"Maharashtra Gramin Bank",MAHG0004438,413570671,SANJA,"AT SANJA TQ OSMANABAD DIST OSMANABAD",223416,SANJA,OSMANABAD,MAHARASHTRA
"Maharashtra Gramin Bank",MAHG0004437,413570670,NALDURG,"AT NALDURG TQ TULJAPUR DIST OSMANABAD",246600,NALDURG,OSMANABAD,MAHARASHTRA
"Maharashtra Gramin Bank",MAHG0004436,413570652,OMERGA,"AT OMERGA TQ OMERGA DIST OSMANABAD",252723,OMERGA,OSMANABAD,MAHARASHTRA
"Maharashtra Gramin Bank",MAHG0004435,413570128,"ANANDNAGAR OSMANABAD","AT ANANDNAGAR OSMANABAD TQ OSMANABAD DIST OSMANABAD",224730,"ANANDNAGAR OSMANABAD",OSMANABAD,MAHARASHTRA
"Maharashtra Gramin Bank",MAHG0004434,413570668,WASHI,"AT WASHI TQ WASHI DIST OSMANABAD",276189,WASHI,OSMANABAD,MAHARASHTRA
"Maharashtra Gramin Bank",MAHG0004433,413570637,BHOOM,"AT BHOOM TQ BHOOM DIST OSMANABAD",272229,BHOOM,OSMANABAD,MAHARASHTRA
"Maharashtra Gramin Bank",MAHG0004432,413570659,WAGHOLI,"AT WAGHOLI TQ OSMANABAD DIST OSMANABAD",244500,WAGHOLI,OSMANABAD,MAHARASHTRA
"Maharashtra Gramin Bank",MAHG0004431,413570654,TURORI,"AT TURORI TQ OMERGA DIST OSMANABAD",254277,TURORI,OSMANABAD,MAHARASHTRA
"Maharashtra Gramin Bank",MAHG0004430,413570658,TER,"AT TER TQ OSMANABAD DIST OSMANABAD",233348,TER,OSMANABAD,MAHARASHTRA
"Maharashtra Gramin Bank",MAHG0004429,413570644,SHIRADHON,"AT SHIRADHON TQ KALAMB DIST OSMANABAD",261150,SHIRADHON,OSMANABAD,MAHARASHTRA
"Maharashtra Gramin Bank",MAHG0004428,413570662,"SHELGAON P","AT SHELGAON P TQ PARANDA DIST OSMANABAD",234653,"SHELGAON P",OSMANABAD,MAHARASHTRA
"Maharashtra Gramin Bank",MAHG0004426,413570653,SASTUR,"AT SASTUR TQ OMERGA DIST OSMANABAD",259550,SASTUR,OSMANABAD,MAHARASHTRA
"Maharashtra Gramin Bank",MAHG0004425,413570657,SAMUDRAWANI,"AT SAMUDRAWANI TQ OSMANABAD DIST OSMANABAD",234081,SAMUDRAWANI,OSMANABAD,MAHARASHTRA
"Maharashtra Gramin Bank",MAHG0004424,413570665,SALGARA,"AT SALGARA TQ TULJAPUR DIST OSMANABAD",263285,SALGARA,OSMANABAD,MAHARASHTRA
"Maharashtra Gramin Bank",MAHG0004423,413570639,PATHRUD,"AT PATHRUD TQ BHOOM DIST OSMANABAD",274508,PATHRUD,OSMANABAD,MAHARASHTRA
"Maharashtra Gramin Bank",MAHG0004422,413570661,PARANDA,"AT PARANDA TQ PARANDA DIST OSMANABAD",232169,PARANDA,OSMANABAD,MAHARASHTRA
"Maharashtra Gramin Bank",MAHG0004421,413570667,PARA,"AT PARA TQ WASHI DIST OSMANABAD",271524,PARA,OSMANABAD,MAHARASHTRA
"Maharashtra Gramin Bank",MAHG0004420,413570127,OSMANABAD,"AT OSMANABAD TQ OSMANABAD DIST OSMANABAD",223418,OSMANABAD,OSMANABAD,MAHARASHTRA
"Maharashtra Gramin Bank",MAHG0004419,413570651,NAICHAKUR,"AT NAICHAKUR TQ OMERGA DIST OSMANABAD",288001,NAICHAKUR,OSMANABAD,MAHARASHTRA
"Maharashtra Gramin Bank",MAHG0004418,413570643,"MOHA K","AT MOHA K TQ KALAMB DIST OSMANABAD",260390,"MOHA K",OSMANABAD,MAHARASHTRA
"Maharashtra Gramin Bank",MAHG0004417,413570642,MASSA,"AT MASSA TQ KALAMB DIST OSMANABAD",269550,MASSA,OSMANABAD,MAHARASHTRA
"Maharashtra Gramin Bank",MAHG0004416,413570638,MANKESHWAR,"AT MANKESHWAR TQ BHOOM DIST OSMANABAD",278855,MANKESHWAR,OSMANABAD,MAHARASHTRA
"Maharashtra Gramin Bank",MAHG0004415,413570666,TULJAPUR,"AT TULJAPUR TQ TULJAPUR DIST OSMANABAD",242760,TULJAPUR,OSMANABAD,MAHARASHTRA
"Maharashtra Gramin Bank",MAHG0004414,413570647,MAKNI,"AT MAKNI TQ LOHARA DIST OSMANABAD",260047,MAKNI,OSMANABAD,MAHARASHTRA
"Maharashtra Gramin Bank",MAHG0004413,413570646,LOHARA,"AT LOHARA TQ LOHARA DIST OSMANABAD",266591,LOHARA,OSMANABAD,MAHARASHTRA
"Maharashtra Gramin Bank",MAHG0004412,413570656,KOND,"AT KOND TQ OSMANABAD DIST OSMANABAD",243187,KOND,OSMANABAD,MAHARASHTRA
"Maharashtra Gramin Bank",MAHG0004411,413570641,KHAMASWADI,"AT KHAMASWADI TQ KALAMB DIST OSMANABAD",285631,KHAMASWADI,OSMANABAD,MAHARASHTRA
"Maharashtra Gramin Bank",MAHG0004410,413570664,KATI,"AT KATI TQ TULJAPUR DIST OSMANABAD",260532,KATI,OSMANABAD,MAHARASHTRA
"Maharashtra Gramin Bank",MAHG0004409,413570645,JEVLI,"AT JEVLI TQ LOHARA DIST OSMANABAD",263439,JEVLI,OSMANABAD,MAHARASHTRA
"Maharashtra Gramin Bank",MAHG0004407,413570663,"JALKOT T","AT JALKOT T TQ TULJAPUR DIST OSMANABAD",250509,"JALKOT T",OSMANABAD,MAHARASHTRA
"Maharashtra Gramin Bank",MAHG0004406,413570640,KALAMB,"AT KALAMB TQ KALAMB DIST OSMANABAD",262582,KALAMB,OSMANABAD,MAHARASHTRA
"Maharashtra Gramin Bank",MAHG0004405,413570650,GUNJOTI,"AT GUNJOTI TQ OMERGA DIST OSMANABAD",253937,GUNJOTI,OSMANABAD,MAHARASHTRA
"Maharashtra Gramin Bank",MAHG0004404,413570655,BEMBLI,"AT BEMBLI TQ OSMANABAD DIST OSMANABAD",235188,BEMBLI,OSMANABAD,MAHARASHTRA
"Maharashtra Gramin Bank",MAHG0004403,413570649,"ASHTA KASAR","AT ASHTA KASAR TQ OMERGA DIST OSMANABAD",259046,"ASHTA KASAR",OSMANABAD,MAHARASHTRA
"Maharashtra Gramin Bank",MAHG0004402,413570660,ANALA,"AT ANALA TQ PARANDA DIST OSMANABAD",234051,ANALA,OSMANABAD,MAHARASHTRA
"Maharashtra Gramin Bank",MAHG0004401,413570648,ALOOR,"AT ALOOR TQ OMERGA DIST OSMANABAD",264049,ALOOR,OSMANABAD,MAHARASHTRA
"Maharashtra Gramin Bank",MAHG0004344,413570055,"VASANTRAO NAIK CHOWK LATUR","AT VASANTRAO NAIK CHOWK LATUR TQ LATUR DIST LATUR",256708,"VASANTRAO NAIK CHOWK LATUR",LATUR,MAHARASHTRA
"Maharashtra Gramin Bank",MAHG0004343,413570669,PANGAON,"AT PANGAON TQ RENAPUR DIST LATUR",236136,PANGAON,LATUR,MAHARASHTRA
"Maharashtra Gramin Bank",MAHG0004342,413570630,RENAPUR,"AT RENAPUR TQ RENAPUR DIST LATUR",233076,RENAPUR,LATUR,MAHARASHTRA
"Maharashtra Gramin Bank",MAHG0004341,413570631,"SHIRUR ANANTPAL","AT SHIRUR ANANTPAL TQ SHIRUR ANANTPA DIST LATUR",250500,"SHIRUR ANANTPAL",LATUR,MAHARASHTRA
"Maharashtra Gramin Bank",MAHG0004340,413570053,"GANJGOLAI LATUR","AT GANJGOLAI LATUR TQ LATUR DIST LATUR",259743,"GANJGOLAI LATUR",LATUR,MAHARASHTRA
"Maharashtra Gramin Bank",MAHG0004339,413570605,DEVANI,"AT DEVANI TQ DEVANI DIST LATUR",269918,DEVANI,LATUR,MAHARASHTRA
"Maharashtra Gramin Bank",MAHG0004338,413570622,NALEGAON,"AT NALEGAON TQ CHAKUR DIST LATUR",256709,NALEGAON,LATUR,MAHARASHTRA
"Maharashtra Gramin Bank",MAHG0004337,413570327,NILANGA,"AT NILANGA TQ NILANGA DIST LATUR",242538,NILANGA,LATUR,MAHARASHTRA
"Maharashtra Gramin Bank",MAHG0004336,413570624,BHUISAMUDRA,"AT BHUISAMUDRA TQ LATUR DIST LATUR",204200,BHUISAMUDRA,LATUR,MAHARASHTRA
"Maharashtra Gramin Bank",MAHG0004335,413570609,WANJARWADA,"AT WANJARWADA TQ JALKOT DIST LATUR",272732,WANJARWADA,LATUR,MAHARASHTRA
"Maharashtra Gramin Bank",MAHG0004334,413570606,WALANDI,"AT WALANDI TQ DEVANI DIST LATUR",266179,WALANDI,LATUR,MAHARASHTRA
"Maharashtra Gramin Bank",MAHG0004333,413570623,"WADWAL NAGNATH","AT WADWAL NAGNATH TQ CHAKUR DIST LATUR",255673,"WADWAL NAGNATH",LATUR,MAHARASHTRA
"Maharashtra Gramin Bank",MAHG0004332,413570615,WADHONA,"AT WADHONA TQ UDGIR DIST LATUR",268273,WADHONA,LATUR,MAHARASHTRA
"Maharashtra Gramin Bank",MAHG0004331,413570627,TANDULJA,"AT TANDULJA TQ LATUR DIST LATUR",273659,TANDULJA,LATUR,MAHARASHTRA
"Maharashtra Gramin Bank",MAHG0004330,413570604,"SHIRUR TAJBAND","AT SHIRUR TAJBAND TQ AHMADPUR DIST LATUR",220176,"SHIRUR TAJBAND",LATUR,MAHARASHTRA
"Maharashtra Gramin Bank",MAHG0004329,413570614,NALGIR,"AT NALGIR TQ UDGIR DIST LATUR",263017,NALGIR,LATUR,MAHARASHTRA
"Maharashtra Gramin Bank",MAHG0004328,413570613,NAGALGAON,"AT NAGALGAON TQ UDGIR DIST LATUR",234550,NAGALGAON,LATUR,MAHARASHTRA
"Maharashtra Gramin Bank",MAHG0004327,413570603,KINGAON,"AT KINGAON TQ AHMADPUR DIST LATUR",268504,KINGAON,LATUR,MAHARASHTRA
"Maharashtra Gramin Bank",MAHG0004326,413570619,KHAROSA,"AT KHAROSA TQ AUSA DIST LATUR",239535,KHAROSA,LATUR,MAHARASHTRA
"Maharashtra Gramin Bank",MAHG0004325,413570629,KHAROLA,"AT KHAROLA TQ RENAPUR DIST LATUR",235876,KHAROLA,LATUR,MAHARASHTRA
"Maharashtra Gramin Bank",MAHG0004324,413570601,AHAMADPUR,"AT AHAMADPUR TQ AHMADPUR DIST LATUR",262396,AHAMADPUR,LATUR,MAHARASHTRA
"Maharashtra Gramin Bank",MAHG0004323,413570054,KHADGAON,"AT KHADGAON TQ LATUR DIST LATUR",245415,KHADGAON,LATUR,MAHARASHTRA
"Maharashtra Gramin Bank",MAHG0004322,413570636,"KASAR SHIRSHI","AT KASAR SHIRSHI TQ NILANGA DIST LATUR",262657,"KASAR SHIRSHI",LATUR,MAHARASHTRA
"Maharashtra Gramin Bank",MAHG0004321,413570635,"KASAR BALKUNDA","AT KASAR BALKUNDA TQ NILANGA DIST LATUR",266751,"KASAR BALKUNDA",LATUR,MAHARASHTRA
"Maharashtra Gramin Bank",MAHG0004320,413570628,KADEPUR,"AT KADEPUR TQ RENAPUR DIST LATUR",207208,KADEPUR,LATUR,MAHARASHTRA
"Maharashtra Gramin Bank",MAHG0004319,413570626,"JAWLA BK","AT JAWLA BK TQ LATUR DIST LATUR",275622,"JAWLA BK",LATUR,MAHARASHTRA
"Maharashtra Gramin Bank",MAHG0004318,413570608,"JALKOT U","AT JALKOT U TQ JALKOT DIST LATUR",276176,"JALKOT U",LATUR,MAHARASHTRA
"Maharashtra Gramin Bank",MAHG0004317,413570052,"SHIVAJI CHOWK LATUR","AT SHIVAJI CHOWK LATUR TQ LATUR DIST LATUR",224696,"SHIVAJI CHOWK LATUR",LATUR,MAHARASHTRA
"Maharashtra Gramin Bank",MAHG0004316,413570227,UDGIR,"AT UDGIR TQ UDGIR DIST LATUR",257590,UDGIR,LATUR,MAHARASHTRA
"Maharashtra Gramin Bank",MAHG0004315,413570611,HALI,"AT HALI TQ UDGIR DIST LATUR",264037,HALI,LATUR,MAHARASHTRA
"Maharashtra Gramin Bank",MAHG0004314,413570633,AURADSHAHJANI,"AT AURADSHAHJANI TQ NILANGA DIST LATUR",245981,AURADSHAHJANI,LATUR,MAHARASHTRA
"Maharashtra Gramin Bank",MAHG0004313,413570620,CHAKUR,"AT CHAKUR TQ CHAKUR DIST LATUR",252088,CHAKUR,LATUR,MAHARASHTRA
"Maharashtra Gramin Bank",MAHG0004312,413570610,DEVARJAN,"AT DEVARJAN TQ UDGIR DIST LATUR",265077,DEVARJAN,LATUR,MAHARASHTRA
"Maharashtra Gramin Bank",MAHG0004311,413570634,"CHINCHOLI PAN","AT CHINCHOLI PAN TQ NILANGA DIST LATUR",263522,"CHINCHOLI PAN",LATUR,MAHARASHTRA
"Maharashtra Gramin Bank",MAHG0004310,413570621,CHAPOLI,"AT CHAPOLI TQ CHAKUR DIST LATUR",257567,CHAPOLI,LATUR,MAHARASHTRA
"Maharashtra Gramin Bank",MAHG0004309,413570612,BORUL,"AT BORUL TQ DEVANI DIST LATUR",262340,BORUL,LATUR,MAHARASHTRA
"Maharashtra Gramin Bank",MAHG0004308,413570625,"BORI L","AT BORI L TQ LATUR DIST LATUR",260688,"BORI L",LATUR,MAHARASHTRA
"Maharashtra Gramin Bank",MAHG0004307,413570617,AUSA,"AT AUSA TQ AUSA DIST LATUR",222364,AUSA,LATUR,MAHARASHTRA
"Maharashtra Gramin Bank",MAHG0004306,413570618,BELKUND,"AT BELKUND TQ AUSA DIST LATUR",221444,BELKUND,LATUR,MAHARASHTRA
"Maharashtra Gramin Bank",MAHG0004305,413570607,ATNUR,"AT ATNUR TQ JALKOT DIST LATUR",271333,ATNUR,LATUR,MAHARASHTRA
"Maharashtra Gramin Bank",MAHG0004303,413570616,ASHIV,"AT ASHIV TQ AUSA DIST LATUR",234574,ASHIV,LATUR,MAHARASHTRA
"Maharashtra Gramin Bank",MAHG0004302,413570602,ANDHORI,"AT ANDHORI TQ AHMADPUR DIST LATUR",278342,ANDHORI,LATUR,MAHARASHTRA
"Maharashtra Gramin Bank",MAHG0004301,413570632,AMBULGA,"AT AMBULGA TQ NILANGA DIST LATUR",267233,AMBULGA,LATUR,MAHARASHTRA
"Maharashtra Gramin Bank",MAHG0004300,461570122,"REGIONAL OFFICE LATUR","REGIONAL OFFICE LATUR SHIVAJI CHOWAK SAMBHAJI COMPLEX TQ DIST LATUR",256708,LATUR,LATUR,MAHARASHTRA
"Maharashtra Gramin Bank",MAHG0004265,431570703,DONGARKADA,"AT DONGARKADA TQ KALAMNURI DIST HINGOLI",232042,DONGARKADA,HINGOLI,MAHARASHTRA
"Maharashtra Gramin Bank",MAHG0004264,431570704,PANKANERGAON,"AT PANKANERGAON TQ SENGAON DIST HINGOLI",244122,PANKANERGAON,HINGOLI,MAHARASHTRA
"Maharashtra Gramin Bank",MAHG0004263,431570203,"SHIVRAMNAGAR PARBHANI","AT SHIVRAMNAGAR PARBHANI TQ PARBHANI DIST PARBHANI",234542,"SHIVRAMNAGAR PARBHANI",PARBHANI,MAHARASHTRA
"Maharashtra Gramin Bank",MAHG0004262,431570403,"AKOLA ROAD HINGOLI","AT AKOLA ROAD HINGOLI TQ HINGOLI DIST HINGOLI",224583,"AKOLA ROAD HINGOLI",HINGOLI,MAHARASHTRA
"Maharashtra Gramin Bank",MAHG0004261,431570204,"JINTUR ROAD PARBHANI","AT JINTUR ROAD PARBHANI TQ PARBHANI DIST PARBHANI",241263,"JINTUR ROAD PARBHANI",PARBHANI,MAHARASHTRA
"Maharashtra Gramin Bank",MAHG0004260,431570692,SONPETH,"AT SONPETH TQ SONPETH DIST PARBHANI",240306,SONPETH,PARBHANI,MAHARASHTRA
"Maharashtra Gramin Bank",MAHG0004259,431570205,"VIVEKNAGAR PARBHANI","AT VIVEKNAGAR PARBHANI TQ PARBHANI DIST PARBHANI",249010,"VIVEKNAGAR PARBHANI",PARBHANI,MAHARASHTRA
"Maharashtra Gramin Bank",MAHG0004258,431570695,BANWAS,"AT BANWAS TQ PALAM DIST PARBHANI",278094,BANWAS,PARBHANI,MAHARASHTRA
"Maharashtra Gramin Bank",MAHG0004257,431570664,PIMPALDARI,"AT PIMPALDARI TQ GANGAKHED DIST PARBHANI",265187,PIMPALDARI,PARBHANI,MAHARASHTRA
"Maharashtra Gramin Bank",MAHG0004255,431570650,"YEHLEGAON TUKARAM","AT YEHLEGAON TUKARAM TQ KALAMNURI DIST HINGOLI",245068,"YEHLEGAON TUKARAM",HINGOLI,MAHARASHTRA
"Maharashtra Gramin Bank",MAHG0004254,431570672,"YELDARI CAMP","AT YELDARI CAMP TQ JINTUR DIST PARBHANI",260255,"YELDARI CAMP",PARBHANI,MAHARASHTRA
"Maharashtra Gramin Bank",MAHG0004252,431570690,WALOOR,"AT WALOOR TQ SAILU DIST PARBHANI",267089,WALOOR,PARBHANI,MAHARASHTRA
"Maharashtra Gramin Bank",MAHG0004251,431570694,WADGAONG,"AT WADGAONG TQ SONPETH DIST PARBHANI",268182,WADGAONG,PARBHANI,MAHARASHTRA
"Maharashtra Gramin Bank",MAHG0004249,431570644,AUNDHANAGNATH,"AT AUNDHANAGNATH TQ AUNDHAN DIST HINGOLI",260091,AUNDHANAGNATH,HINGOLI,MAHARASHTRA
"Maharashtra Gramin Bank",MAHG0004248,431570649,WARANGA,"AT WARANGA TQ KALAMNURI DIST HINGOLI",248208,WARANGA,HINGOLI,MAHARASHTRA
"Maharashtra Gramin Bank",MAHG0004246,431570693,UKHALI,"AT UKHALI TQ SONPETH DIST PARBHANI",280805,UKHALI,PARBHANI,MAHARASHTRA
"Maharashtra Gramin Bank",MAHG0004245,431570688,TADKALAS,"AT TADKALAS TQ PURNA DIST PARBHANI",256289,TADKALAS,PARBHANI,MAHARASHTRA
"Maharashtra Gramin Bank",MAHG0004244,431570654,SIRSAM,"AT SIRSAM TQ HINGOLI DIST HINGOLI",232037,SIRSAM,HINGOLI,MAHARASHTRA
"Maharashtra Gramin Bank",MAHG0004243,431570679,SINGNAPUR,"AT SINGNAPUR TQ PARBHANI DIST PARBHANI",264063,SINGNAPUR,PARBHANI,MAHARASHTRA
"Maharashtra Gramin Bank",MAHG0004242,431570657,SENGAON,"AT SENGAON TQ SENGAON DIST HINGOLI",250306,SENGAON,HINGOLI,MAHARASHTRA
"Maharashtra Gramin Bank",MAHG0004241,431570646,"SHIRAD SHAHAPUR","AT SHIRAD SHAHAPUR TQ AUNDHAN DIST HINGOLI",248260,"SHIRAD SHAHAPUR",HINGOLI,MAHARASHTRA
"Maharashtra Gramin Bank",MAHG0004240,431570691,SHELGAONG,"AT SHELGAONG TQ SONPETH DIST PARBHANI",263242,SHELGAONG,PARBHANI,MAHARASHTRA
"Maharashtra Gramin Bank",MAHG0004239,431570674,MANWAT,"AT MANWAT TQ MANWAT DIST PARBHANI",240001,MANWAT,PARBHANI,MAHARASHTRA
"Maharashtra Gramin Bank",MAHG0004238,431570689,SAILU,"AT SAILU TQ SAILU DIST PARBHANI",222598,SAILU,PARBHANI,MAHARASHTRA
"Maharashtra Gramin Bank",MAHG0004237,431570687,PURNA,"AT PURNA TQ PURNA DIST PARBHANI",255415,PURNA,PARBHANI,MAHARASHTRA
"Maharashtra Gramin Bank",MAHG0004236,431570665,RANISAWARGAON,"AT RANISAWARGAON TQ GANGAKHED DIST PARBHANI",266290,RANISAWARGAON,PARBHANI,MAHARASHTRA
"Maharashtra Gramin Bank",MAHG0004235,431570678,POKHARNI,"AT POKHARNI TQ PARBHANI DIST PARBHANI",267382,POKHARNI,PARBHANI,MAHARASHTRA
"Maharashtra Gramin Bank",MAHG0004234,431570681,PALAM,"AT PALAM TQ PALAM DIST PARBHANI",270243,PALAM,PARBHANI,MAHARASHTRA
"Maharashtra Gramin Bank",MAHG0004233,431570676,PEDGAON,"AT PEDGAON TQ PARBHANI DIST PARBHANI",269252,PEDGAON,PARBHANI,MAHARASHTRA
"Maharashtra Gramin Bank",MAHG0004232,431570656,PUSEGAON,"AT PUSEGAON TQ SENGAON DIST HINGOLI",246171,PUSEGAON,HINGOLI,MAHARASHTRA
"Maharashtra Gramin Bank",MAHG0004231,431570647,"AKHADA BALAPUR","AT AKHADA BALAPUR TQ KALAMNURI DIST HINGOLI",242513,"AKHADA BALAPUR",HINGOLI,MAHARASHTRA
"Maharashtra Gramin Bank",MAHG0004230,431570677,PINGLI,"AT PINGLI TQ PARBHANI DIST PARBHANI",266798,PINGLI,PARBHANI,MAHARASHTRA
"Maharashtra Gramin Bank",MAHG0004229,431570202,PARBHANI,"AT PARBHANI TQ PARBHANI DIST PARBHANI",223487,PARBHANI,PARBHANI,MAHARASHTRA
"Maharashtra Gramin Bank",MAHG0004228,431570653,NARSI,"AT NARSI TQ HINGOLI DIST HINGOLI",268080,NARSI,HINGOLI,MAHARASHTRA
"Maharashtra Gramin Bank",MAHG0004227,431570648,KALAMNURI,"AT KALAMNURI TQ KALAMNURI DIST HINGOLI",220157,KALAMNURI,HINGOLI,MAHARASHTRA
"Maharashtra Gramin Bank",MAHG0004226,431570402,HINGOLI,"AT HINGOLI TQ HINGOLI DIST HINGOLI",221138,HINGOLI,HINGOLI,MAHARASHTRA
"Maharashtra Gramin Bank",MAHG0004225,431570645,"JAWALA BAZAR","AT JAWALA BAZAR TQ AUNDHAN DIST HINGOLI",240027,"JAWALA BAZAR",HINGOLI,MAHARASHTRA
"Maharashtra Gramin Bank",MAHG0004224,431570682,KEKARJAWALA,"AT KEKARJAWALA TQ PATHRI DIST PARBHANI",262234,KEKARJAWALA,PARBHANI,MAHARASHTRA
"Maharashtra Gramin Bank",MAHG0004223,431570686,KAWALGAON,"AT KAWALGAON TQ PURNA DIST PARBHANI",257176,KAWALGAON,PARBHANI,MAHARASHTRA
"Maharashtra Gramin Bank",MAHG0004222,431570662,KURUNDA,"AT KURUNDA TQ BASMAT DIST HINGOLI",246068,KURUNDA,HINGOLI,MAHARASHTRA
"Maharashtra Gramin Bank",MAHG0004221,431570668,"BORI P","AT BORI P TQ JINTUR DIST PARBHANI",242530,"BORI P",PARBHANI,MAHARASHTRA
"Maharashtra Gramin Bank",MAHG0004220,431570652,KANERGAON,"AT KANERGAON TQ HINGOLI DIST HINGOLI",266003,KANERGAON,HINGOLI,MAHARASHTRA
"Maharashtra Gramin Bank",MAHG0004219,431570673,KOLHA,"AT KOLHA TQ MANWAT DIST PARBHANI",264131,KOLHA,PARBHANI,MAHARASHTRA
"Maharashtra Gramin Bank",MAHG0004218,431570685,KATNESHWAR,"AT KATNESHWAR TQ PURNA DIST PARBHANI",251161,KATNESHWAR,PARBHANI,MAHARASHTRA
"Maharashtra Gramin Bank",MAHG0004217,431570659,BASMAT,"AT BASMAT TQ BASMAT DIST HINGOLI",220817,BASMAT,HINGOLI,MAHARASHTRA
"Maharashtra Gramin Bank",MAHG0004216,431570683,PATHRI,"AT PATHRI TQ PATHRI DIST PARBHANI",255288,PATHRI,PARBHANI,MAHARASHTRA
"Maharashtra Gramin Bank",MAHG0004215,431570661,HATTA,"AT HATTA TQ BASMAT DIST HINGOLI",244212,HATTA,HINGOLI,MAHARASHTRA
"Maharashtra Gramin Bank",MAHG0004214,431570660,GIRGAON,"AT GIRGAON TQ BASMAT DIST HINGOLI",243018,GIRGAON,HINGOLI,MAHARASHTRA
"Maharashtra Gramin Bank",MAHG0004213,431570663,GANGAKHED,"AT GANGAKHED TQ GANGAKHED DIST PARBHANI",222207,GANGAKHED,PARBHANI,MAHARASHTRA
"Maharashtra Gramin Bank",MAHG0004211,431570670,DUDHGAON,"AT DUDHGAON TQ JINTUR DIST PARBHANI",262057,DUDHGAON,PARBHANI,MAHARASHTRA
"Maharashtra Gramin Bank",MAHG0004210,431570651,"DIGRAS H","AT DIGRAS H TQ HINGOLI DIST HINGOLI",249124,"DIGRAS H",HINGOLI,MAHARASHTRA
"Maharashtra Gramin Bank",MAHG0004209,431570684,CHUDAWA,"AT CHUDAWA TQ PURNA DIST PARBHANI",258220,CHUDAWA,PARBHANI,MAHARASHTRA
"Maharashtra Gramin Bank",MAHG0004208,431570680,CHATORI,"AT CHATORI TQ PALAM DIST PARBHANI",272041,CHATORI,PARBHANI,MAHARASHTRA
"Maharashtra Gramin Bank",MAHG0004207,431570669,CHARTHANA,"AT CHARTHANA TQ JINTUR DIST PARBHANI",265010,CHARTHANA,PARBHANI,MAHARASHTRA
"Maharashtra Gramin Bank",MAHG0004206,431570667,BHOGAON,"AT BHOGAON TQ JINTUR DIST PARBHANI",267057,BHOGAON,PARBHANI,MAHARASHTRA
"Maharashtra Gramin Bank",MAHG0004205,431570671,JINTUR,"AT JINTUR TQ JINTUR DIST PARBHANI",220470,JINTUR,PARBHANI,MAHARASHTRA
"Maharashtra Gramin Bank",MAHG0004204,431570666,ADGAON,"AT ADGAON TQ JINTUR DIST PARBHANI",266200,ADGAON,PARBHANI,MAHARASHTRA
"Maharashtra Gramin Bank",MAHG0004203,431570675,ASOLA,"AT ASOLA TQ PARBHANI DIST PARBHANI",265165,ASOLA,PARBHANI,MAHARASHTRA
"Maharashtra Gramin Bank",MAHG0004202,431570658,AMBACHONDI,"AT AMBACHONDI TQ BASMAT DIST HINGOLI",242215,AMBACHONDI,HINGOLI,MAHARASHTRA
"Maharashtra Gramin Bank",MAHG0004201,431570655,AJEGAON,"AT AJEGAON TQ SENGAON DIST HINGOLI",241084,AJEGAON,HINGOLI,MAHARASHTRA
"Maharashtra Gramin Bank",MAHG0004200,431570062,"REGIONAL OFFICE PARBHANI","REGIONAL OFFICE PARBHANI SANT GURUKRUPA SHIVAJINAGAR TQ DIST PARBHANI",232042,PARBHANI,PARBHANI,MAHARASHTRA
"Maharashtra Gramin Bank",MAHG0004168,431570706,SHIVANI,"AT SHIVANI TQ KINWAT DIST NANDED",245050,SHIVANI,NANDED,MAHARASHTRA
"Maharashtra Gramin Bank",MAHG0004167,431570698,NARSI,"AT NARSI TQ NAIGAON DIST NANDED",266366,NARSI,NANDED,MAHARASHTRA
"Maharashtra Gramin Bank",MAHG0004166,431570697,BARHALI,"AT BARHALI TQ MUKHED DIST NANDED",246124,BARHALI,NANDED,MAHARASHTRA
"Maharashtra Gramin Bank",MAHG0004165,431570109,"VISHNUPURI SRTMU NANDED","AT VISHNUPURI SRTMU NANDED TQ NANDED DIST NANDED",229500,"VISHNUPURI SRTMU NANDED",NANDED,MAHARASHTRA
"Maharashtra Gramin Bank",MAHG0004164,431570613,HIMAYATNAGAR,"AT HIMAYATNAGAR TQ HIMAYATNAGAR DIST NANDED",244083,HIMAYATNAGAR,NANDED,MAHARASHTRA
"Maharashtra Gramin Bank",MAHG0004163,431570104,"CHAITANYA NAGAR NANDED","AT CHAITANYA NAGAR NANDED TQ NANDED DIST NANDED",267531,"CHAITANYA NAGAR NANDED",NANDED,MAHARASHTRA
"Maharashtra Gramin Bank",MAHG0004162,431570103,"BHAVSAR CHOWK NANDED","AT BHAVSAR CHOWK NANDED TQ NANDED DIST NANDED",266472,"BHAVSAR CHOWK NANDED",NANDED,MAHARASHTRA
"Maharashtra Gramin Bank",MAHG0004161,431570105,"PAWADEWADI NAKA NANDED","AT PAWADEWADI NAKA NANDED TQ NANDED DIST NANDED",255932,"PAWADEWADI NAKA NANDED",NANDED,MAHARASHTRA
"Maharashtra Gramin Bank",MAHG0004160,431570107,"VAZIRABAD NANDED","AT VAZIRABAD NANDED TQ NANDED DIST NANDED",239853,"VAZIRABAD NANDED",NANDED,MAHARASHTRA
"Maharashtra Gramin Bank",MAHG0004159,431570641,NAIGAON,"AT NAIGAON TQ NAIGAON DIST NANDED",262116,NAIGAON,NANDED,MAHARASHTRA
"Maharashtra Gramin Bank",MAHG0004158,431570106,TARODA,"AT TARODA TQ NANDED DIST NANDED",262510,TARODA,NANDED,MAHARASHTRA
"Maharashtra Gramin Bank",MAHG0004157,431570101,"SHIVAJINAGAR NANDED","AT SHIVAJINAGAR NANDED TQ NANDED DIST NANDED",242845,"SHIVAJINAGAR NANDED",NANDED,MAHARASHTRA
"Maharashtra Gramin Bank",MAHG0004155,431570110,WAGHALA,"AT WAGHALA TQ NANDED DIST NANDED",227463,WAGHALA,NANDED,MAHARASHTRA
"Maharashtra Gramin Bank",MAHG0004154,431570621,KINWAT,"AT KINWAT TQ KINWAT DIST NANDED",223016,KINWAT,NANDED,MAHARASHTRA
"Maharashtra Gramin Bank",MAHG0004153,431570611,TAMSA,"AT TAMSA TQ HADGAON DIST NANDED",266614,TAMSA,NANDED,MAHARASHTRA
"Maharashtra Gramin Bank",MAHG0004152,431570636,"WAI BAZAR","AT WAI BAZAR TQ MAHUR DIST NANDED",264836,"WAI BAZAR",NANDED,MAHARASHTRA
"Maharashtra Gramin Bank",MAHG0004151,431570108,VISHNUPURI,"AT VISHNUPURI TQ NANDED DIST NANDED",229334,VISHNUPURI,NANDED,MAHARASHTRA
"Maharashtra Gramin Bank",MAHG0004150,431570627,WADEPURI,"AT WADEPURI TQ LOHA DIST NANDED",245048,WADEPURI,NANDED,MAHARASHTRA
"Maharashtra Gramin Bank",MAHG0004149,431570622,"UMRI BAZAR","AT UMRI BAZAR TQ KINWAT DIST NANDED",263170,"UMRI BAZAR",NANDED,MAHARASHTRA
"Maharashtra Gramin Bank",MAHG0004148,431570597,TAMLOOR,"AT TAMLOOR TQ DEGLOOR DIST NANDED",269019,TAMLOOR,NANDED,MAHARASHTRA
"Maharashtra Gramin Bank",MAHG0004147,431570612,TALNI,"AT TALNI TQ HADGAON DIST NANDED",273369,TALNI,NANDED,MAHARASHTRA
"Maharashtra Gramin Bank",MAHG0004145,431570643,"UMARI PETH","AT UMARI PETH TQ UMARI PETH DIST NANDED",244088,"UMARI PETH",NANDED,MAHARASHTRA
"Maharashtra Gramin Bank",MAHG0004144,431570624,LOHA,"AT LOHA TQ LOHA DIST NANDED",242211,LOHA,NANDED,MAHARASHTRA
"Maharashtra Gramin Bank",MAHG0004143,431570633,MUKHED,"AT MUKHED TQ MUKHED DIST NANDED",222075,MUKHED,NANDED,MAHARASHTRA
"Maharashtra Gramin Bank",MAHG0004142,431570609,HADGAON,"AT HADGAON TQ HADGAON DIST NANDED",222552,HADGAON,NANDED,MAHARASHTRA
"Maharashtra Gramin Bank",MAHG0004141,431570618,PETHWADAJ,"AT PETHWADAJ TQ KANDHAR DIST NANDED",261386,PETHWADAJ,NANDED,MAHARASHTRA
"Maharashtra Gramin Bank",MAHG0004139,431570607,BHOKAR,"AT BHOKAR TQ BHOKAR DIST NANDED",222790,BHOKAR,NANDED,MAHARASHTRA
"Maharashtra Gramin Bank",MAHG0004138,431570626,OSMANNAGAR,"AT OSMANNAGAR TQ LOHA DIST NANDED",262637,OSMANNAGAR,NANDED,MAHARASHTRA
"Maharashtra Gramin Bank",MAHG0004136,431570102,"BHAGYANAGAR NANDED","AT BHAGYANAGAR NANDED TQ NANDED DIST NANDED",251075,"BHAGYANAGAR NANDED",NANDED,MAHARASHTRA
"Maharashtra Gramin Bank",MAHG0004135,431570634,MUKRAMABAD,"AT MUKRAMABAD TQ MUKHED DIST NANDED",267160,MUKRAMABAD,NANDED,MAHARASHTRA
"Maharashtra Gramin Bank",MAHG0004134,431570628,MUDKHED,"AT MUDKHED TQ MUDKHED DIST NANDED",275403,MUDKHED,NANDED,MAHARASHTRA
"Maharashtra Gramin Bank",MAHG0004133,431570610,MANATHA,"AT MANATHA TQ HADGAON DIST NANDED",274277,MANATHA,NANDED,MAHARASHTRA
"Maharashtra Gramin Bank",MAHG0004132,431570601,MALEGAON,"AT MALEGAON TQ ARDHAPUR DIST NANDED",273354,MALEGAON,NANDED,MAHARASHTRA
"Maharashtra Gramin Bank",MAHG0004131,431570625,MALAKOLI,"AT MALAKOLI TQ LOHA DIST NANDED",246204,MALAKOLI,NANDED,MAHARASHTRA
"Maharashtra Gramin Bank",MAHG0004130,431570635,MAHUR,"AT MAHUR TQ MAHUR DIST NANDED",268432,MAHUR,NANDED,MAHARASHTRA
"Maharashtra Gramin Bank",MAHG0004129,431570606,LOHGAON,"AT LOHGAON TQ BILOLI DIST NANDED",202757,LOHGAON,NANDED,MAHARASHTRA
"Maharashtra Gramin Bank",MAHG0004128,431570642,LIMBGAON,"AT LIMBGAON TQ NANDED DIST NANDED",270483,LIMBGAON,NANDED,MAHARASHTRA
"Maharashtra Gramin Bank",MAHG0004127,431570600,LAHAN,"AT LAHAN TQ ARDHAPUR DIST NANDED",277589,LAHAN,NANDED,MAHARASHTRA
"Maharashtra Gramin Bank",MAHG0004126,431570640,KUNTUR,"AT KUNTUR TQ NAIGAON DIST NANDED",258604,KUNTUR,NANDED,MAHARASHTRA
"Maharashtra Gramin Bank",MAHG0004125,431570639,KRUSHNUR,"AT KRUSHNUR TQ NAIGAON DIST NANDED",279998,KRUSHNUR,NANDED,MAHARASHTRA
"Maharashtra Gramin Bank",MAHG0004124,431570605,KHATGAON,"AT KHATGAON TQ BILOLI DIST NANDED",264317,KHATGAON,NANDED,MAHARASHTRA
"Maharashtra Gramin Bank",MAHG0004123,431570596,KARADKHED,"AT KARADKHED TQ DEGLOOR DIST NANDED",264258,KARADKHED,NANDED,MAHARASHTRA
"Maharashtra Gramin Bank",MAHG0004122,431570623,KAPSI,"AT KAPSI TQ LOHA DIST NANDED",252138,KAPSI,NANDED,MAHARASHTRA
"Maharashtra Gramin Bank",MAHG0004121,431570617,KANDHAR,"AT KANDHAR TQ KANDHAR DIST NANDED",223603,KANDHAR,NANDED,MAHARASHTRA
"Maharashtra Gramin Bank",MAHG0004120,431570614,KAMARI,"AT KAMARI TQ HIMAYTNAGR DIST NANDED",202270,KAMARI,NANDED,MAHARASHTRA
"Maharashtra Gramin Bank",MAHG0004119,431570608,DHARMABAD,"AT DHARMABAD TQ DHARMABAD DIST NANDED",244512,DHARMABAD,NANDED,MAHARASHTRA
"Maharashtra Gramin Bank",MAHG0004118,431570632,JAMB,"AT JAMB TQ MUKHED DIST NANDED",242172,JAMB,NANDED,MAHARASHTRA
"Maharashtra Gramin Bank",MAHG0004116,431570631,JAHOOR,"AT JAHOOR TQ MUKHED DIST NANDED",244713,JAHOOR,NANDED,MAHARASHTRA
"Maharashtra Gramin Bank",MAHG0004115,431570595,HANEGAON,"AT HANEGAON TQ DEGLOOR DIST NANDED",263291,HANEGAON,NANDED,MAHARASHTRA
"Maharashtra Gramin Bank",MAHG0004114,431570638,GADGA,"AT GADGA TQ NAIGAON DIST NANDED",254204,GADGA,NANDED,MAHARASHTRA
"Maharashtra Gramin Bank",MAHG0004113,431570616,"DIGRAS N","AT DIGRAS N TQ KANDHAR DIST NANDED",260152,"DIGRAS N",NANDED,MAHARASHTRA
"Maharashtra Gramin Bank",MAHG0004112,431570452,DEGLOOR,"AT DEGLOOR TQ DEGLOOR DIST NANDED",255064,DEGLOOR,NANDED,MAHARASHTRA
"Maharashtra Gramin Bank",MAHG0004111,431570630,CHANDOLA,"AT CHANDOLA TQ MUKHED DIST NANDED",202044,CHANDOLA,NANDED,MAHARASHTRA
"Maharashtra Gramin Bank",MAHG0004110,431570619,BODHADI,"AT BODHADI TQ KINWAT DIST NANDED",234673,BODHADI,NANDED,MAHARASHTRA
"Maharashtra Gramin Bank",MAHG0004109,431570604,KASRALI,"AT KASRALI TQ BILOLI DIST NANDED",226707,KASRALI,NANDED,MAHARASHTRA
"Maharashtra Gramin Bank",MAHG0004108,431570629,BETMOGRA,"AT BETMOGRA TQ MUKHED DIST NANDED",240057,BETMOGRA,NANDED,MAHARASHTRA
"Maharashtra Gramin Bank",MAHG0004107,431570615,BARUL,"AT BARUL TQ KANDHAR DIST NANDED",269574,BARUL,NANDED,MAHARASHTRA
"Maharashtra Gramin Bank",MAHG0004106,431570637,BARBADA,"AT BARBADA TQ NAIGAON DIST NANDED",268397,BARBADA,NANDED,MAHARASHTRA
"Maharashtra Gramin Bank",MAHG0004105,431570599,BARAD,"AT BARAD TQ MUDKHED DIST NANDED",276537,BARAD,NANDED,MAHARASHTRA
"Maharashtra Gramin Bank",MAHG0004104,431570603,BILOLI,"AT BILOLI TQ BILOLI DIST NANDED",223688,BILOLI,NANDED,MAHARASHTRA
"Maharashtra Gramin Bank",MAHG0004103,431570602,ARJAPUR,"AT ARJAPUR TQ BILOLI DIST NANDED",202209,ARJAPUR,NANDED,MAHARASHTRA
"Maharashtra Gramin Bank",MAHG0004102,431570598,ARDHAPUR,"AT ARDHAPUR TQ ARDHAPUR DIST NANDED",272483,ARDHAPUR,NANDED,MAHARASHTRA
"Maharashtra Gramin Bank",MAHG0004101,431570620,ISLAPUR,"AT ISALAPUR TQ KINWAT DIST NANDED",244040,ISLAPUR,NANDED,MAHARASHTRA
"Maharashtra Gramin Bank",MAHG0004100,431570100,"REGIONAL OFFICE NANDED","REGIONAL OFFICE NANDED DR KESRALE BUILDING YASHWANT NAGAR PAWDEWADINAKA NANDED",250695,NANDED,NANDED,MAHARASHTRA
"Maharashtra Gramin Bank",MAHG0004000,NA,"HEAD OFFICE","AT JIVANSHREE PLOT NO 35 SECTOR G TOWN CENTRE CIDCO AURANGABAD 431005",2476139,AURANGABAD,AURANGABAD,MAHARASHTRA
"Maharashtra Gramin Bank",MAHG00000SC,NA,"SERVICE CENTER","AT JIVANSHREE PLOT NO 35 SECTOR G TOWN CENTRE CIDCO AURANGABAD 431005",2476140,AURANGABAD,AURANGABAD,MAHARASHTRA
