BANK,IFSC,MICR,BRANCH,ADDRESS,CONTACT,CITY,DISTRICT,STATE
"SOUTH INDIAN BANK",SIBL0008263,NA,"RTGS CELL","EMCA HOUSE, 289 GROUND FLOOR, S B SINGH ROAD, FORT, MUMBAI",22611209,MUMBAI,"GREATER BOMBAY",MAHARASHTRA
"SOUTH INDIAN BANK",SIBL0008096,NA,"CPSMS CELL","PLANNING & DEVELOPEMENT DEPT, HEAD OFFICE, THRISSUR-680001",2365657,THICHUR,THRISSUR,KERALA
"SOUTH INDIAN BANK",SIBL0008018,NA,"TREASURY DEPARTMENT","PARINEE CRESCENZO,804,8TH FLOOR,B WING,G BLOCK,BANDRA KURLA COMPLEX,BANDRA(E),MUMBAI-400051",2365657,MUMBAI,"GREATER BOMBAY",MAHARASHTRA
"SOUTH INDIAN BANK",SIBL0000969,NA,KADAMBAR,"KA COMMERCIAL COMPLEX, NEAR KADAMBAR GUP SCHOOL,KADAMBAR, MANJESHWAR 671323,KASARAGOD. KERALA",2365657,KASARAGOD,KASARAGOD,KERALA
"SOUTH INDIAN BANK",SIBL0000968,NA,KEEKAN,"SOLAR ARCADE, POOCHAKKAD, OPP. POOCHAKKAD JUMA MASJID, KEEKAN,KEEKKAN P.O,PINCODE 671316,KASARAGOD. KERALA",2365657,KASARAGOD,KASARAGOD,KERALA
"SOUTH INDIAN BANK",SIBL0000964,NA,"ST JOSEPHS COLLEGE","NO 74,SUMERU TOWERS,BRIGADE ROAD STREET,RICHMOND ROAD,PINCODE 560025,BENGALURU, KARNATAKA",2365657,BENGALURU,BENGAGURU,KARNATAKA
"SOUTH INDIAN BANK",SIBL0000963,NA,"UNION CHRISTIAN COLLEGE, ALUVA","WARD NO 13, UNION CHRISTIAN COLLEGE, UC COLLEGE ROAD,UC COLLEGE POST,ALUVA,PINCODE 683102, ERNAKULAM KERALA",2365657,ERNAKULAM,ERNAKULAM,KERALA
"SOUTH INDIAN BANK",SIBL0000962,689059253,"RANNI NILAKKAL DIOCESAN CENTRE","MAR THOMA DIOCES BUILDING, MANDIRAM RANNI,PINCODE 689672,PATHANAMTHITTA KERALA",2365657,PATHANAMTHITTA,KOLLAM,KERALA
"SOUTH INDIAN BANK",SIBL0000961,NA,"ST MARTHAS HOSPITAL","NO 5, ST MARTHAS HOSPITAL,NRUPATHUNGA ROAD, BANGALORE 560001, KARNATAKA",2365657,BANGALORE,BANGALORE,KARNATAKA
"SOUTH INDIAN BANK",SIBL0000960,NA,"NAGPUR SADAR","PLOT NO 186,RED CROSS ROAD,SADAR,NAGPUR,440001,MAHARASHTRA",2365657,NAGPUR,NAGPUR,MAHARASHTRA
"SOUTH INDIAN BANK",SIBL0000957,NA,HARIPAD,"DOOR NO 732,WARD NO 9, ARAVIND BUILDING,EZHIKKAKATHU JUNCTION, HARIPAD, PIN CODE 690514 ALAPPUZHA DISTRICT, KERALA.",2365657,ALAPPUZHA,ALAPPUZHA,KERALA
"SOUTH INDIAN BANK",SIBL0000956,NA,"KANNUR MELE CHOVVA","DOOR NO ELP 13,468,A, MELECHOVVA, MELECHOVVA POST,PINCODE 670006,KANNUR,KERALA",2365657,KANNUR,KANNUR,KERALA
"SOUTH INDIAN BANK",SIBL0000955,NA,"KANNUR CHALAD","DOOR NO P P II 6A,GK COMPLEX,ALAVIL POST,PINCODE 670008,KANNUR,KERALA",2365657,KANNUR,KANNUR,KERALA
"SOUTH INDIAN BANK",SIBL0000953,NA,TIRUPATI,"DOOR NO 25, GROUND FLOOR, K R PRIDE BUILDING, K T ROAD, TIRUPATI. PIN CODE 517507 ANDRA PRADESH",2365657,CHITTOOR,CHITTOOR,"ANDHRA PRADESH"
"SOUTH INDIAN BANK",SIBL0000952,670059809,"DEVAMATHA EDUCATIONAL INSTITUTIONS","PP VI 52,WARD NO VI, DEVAMATHA EDUCATIONAL INSTITUTIONS, DEVAMATHA COLLEGE, PAISAKARY, PIN CODE 670633, KANNUR DISTRICT, KERALA.",2365657,KANNUR,ALAPPUZHA,KERALA
"SOUTH INDIAN BANK",SIBL0000951,680059069,"ST JOSEPH UP SCHOOL","DOOR NO 168B,WARD NO 14, KUNDANNUR, KUNDANNUR POST,PINCODE 680590,THRISSUR,KERALA",2365657,THRISSUR,TRISSUR,KERALA
"SOUTH INDIAN BANK",SIBL0000950,680059029,"SANTHI NURSING ROOM, PUNNAYURKULAM","DOOR NO 12, 247,248,249, SANTHI NURSING HOME BUILDING,PUNNAYURKULAM POST, PUNNAYURKULAM,PINCODE 679561,THRISSUR,KERALA",2365657,THRISSUR,TRISSUR,KERALA
"SOUTH INDIAN BANK",SIBL0000949,686059812,"KURIAKOSE ELIAS SCHOOL MANNANAM","DOOR NO 132,WARD NO 17,KURIAKOSE ELIAS SCHOOL BUILDING,MANNANAM AMMENCHERRY ROAD,MANNANAM 686561,KOTTAYAM,KERALA.",2365657,KOTTAYAM,KOTTAYAM,KERALA
"SOUTH INDIAN BANK",SIBL0000948,NA,"DCSMAT GROUP OF INSTITUTIONS EC","DOOR NO 35, WARD NO 1, DCSMAT, DC COUNTY, PULLIKKANAM,VAGAMAN. PIN CODE 685503 KERALA",2365657,IDUKKI,IDUKKI,KERALA
"SOUTH INDIAN BANK",SIBL0000947,NA,"PALLITHURA HIGHER SECONDARY SCHOOL EC","TC 1/1396, WARD NO.100, ST LOYALA COMMUNITY HALL BUILDING, PALLITHURA, TRIVANDRUM. PIN CODE-695586",2365657,TRIVANDRUM,TRIVANDRUM,KERALA
"SOUTH INDIAN BANK",SIBL0000946,NA,SEETHANGOLI,"MAIN ROAD, SEETHAGOLI, BELA POST, PIN 671321, MANJESHWARAM TQ, KASARAGOD DIST",2365657,KASARAGOD,KASARAGUD,KERALA
"SOUTH INDIAN BANK",SIBL0000945,NA,KODIBAIL,"GULF PLAZA, NH17 UPPALA, KAIKAMBA JUNCTION, KADIBAIL,UPPALA POST. PIN 671322, MANJESHWARAM TQ, KASARAGOD DIST",2365657,KASARAGOD,KASARAGUD,KERALA
"SOUTH INDIAN BANK",SIBL0000942,NA,PALLIMUKKU,"WARD NO 6,NNS BUILDING,KAYYALAKKAL,PALLIMUKKU,VADAKKEVILA POST,PINCODE 691010,KOLLAM KERALA",2365657,KOLLAM,KOLLAM,KERALA
"SOUTH INDIAN BANK",SIBL0000941,NA,NEDUMANGAD,"NMC 13,VADAKKATHIL TOWER,AMMAN KOVIL JUNCTION,NEDUMANGAD.TRIVANDRUM,KERALA.",2365657,TRIVANDRUM,TRIVANDRUM,KERALA
"SOUTH INDIAN BANK",SIBL0000940,NA,"PALAKKAD - MELAMURI","512/7,WARD NO 27,MERCY COLLEGE MELAMURI ROAD, MELAMURI, PALLIPURAM POST, PALAKKAD, KERALA. PIN CODE-678006",2365657,PALAKKAD,PALAKKAD,KERALA
"SOUTH INDIAN BANK",SIBL0000939,NA,"SOUTH VAZHAKULAM","WARD NO 20,THADIYITTAPARAMBU JUNCTION,SOUTH VAZHAKULAM P O,ERNAKULAM",2365657,VAZHAKULAM,ERNAKULAM,KERALA
"SOUTH INDIAN BANK",SIBL0000938,NA,VALAYANCHIRANGARA,"WARD NO 14,PARACKAL SQUARE,MANNOOR- PONJASSERY ROAD,VALAYANCHIRANGARA",2365657,ARAKKAPADY,ERNAKULAM,KERALA
"SOUTH INDIAN BANK",SIBL0000937,NA,"MEENAKSHI MISSION HOSPITAL AND RESEARCH CENTRE","DOOR NO 1,WARD 28,MMHRC,MELUR ROAD,MATTUTHAVANI POST OFFICE,MADURAI",2365657,MADURAI,MADURAI,"TAMIL NADU"
"SOUTH INDIAN BANK",SIBL0000935,NA,"MARY MATHA ENGLISH MEDIUM SCHOOL,THULLUR","DOOR NO 2-18,MARY MATHA ENGLISH MEDIUM HIGH SCHOOL,THULLUR MAIN ROAD,THULLUR,GUNTUR",2365657,THULLUR,GUNTUR,"ANDHRA PRADESH"
"SOUTH INDIAN BANK",SIBL0000934,NA,PERUMPADAVU,"DOOR NO 11,10-ERAMAM KUTOOR PANCHAYATH,PERUMPADAVU,KARIPPAL,KANNUR",2365657,CANNUR,CANNUR,KERALA
"SOUTH INDIAN BANK",SIBL0000932,NA,ALAMBADI,"BUILDING NO 121,CHRIST COLLEGE OF SCIENCES & MANAGEMENT CAMPUS,CHRIST NAGAR,ALAMBADI,KOLAR",2365657,KOLAR,KOLAR,KARNATAKA
"SOUTH INDIAN BANK",SIBL0000931,NA,"KATTAKADA CHRISTIAN COLLEGE","DOOR NO 275,CHRISTIAN COLLEGE, KATTAKADA,THIRUVANANTHAPURAM",2556003,KATTAKADA,THIRUVANANTHAPURAM,KERALA
"SOUTH INDIAN BANK",SIBL0000930,NA,"KOTTAYAM MEDICAL COLLEGE","WARD 52,KARIMATTATHIL BUILDING NO XIII/5733,GANDHINAGAR,KOTTAYAM",2556003,KOTTAYAM,KOTTAYAM,KERALA
"SOUTH INDIAN BANK",SIBL0000928,NA,"ST.GREGORIUS SENIOR SECONDARY SCHOOL","WARD NO 2,OLD HOSPITAL BLOCK, ST. GREGORIUS SENIOR SECONDARY SCHOOL,KAIPATTOOR",2365657,PATHANAMTHITTA,PATHANAMTHITTA,KERALA
"SOUTH INDIAN BANK",SIBL0000927,NA,"KODUMON HIGH SCHOOL","DOOR NO15,16,ARADHANA BUILDING,KODUMON,PATHANAMTHITTA",2365657,KODUMON,PATHANAMTHITTA,KERALA
"SOUTH INDIAN BANK",SIBL0000926,NA,"ST JOSEPHS HOSPITAL MARIAM NAGAR","ST JOSEPHS HOSPITAL,MARIAM NAGAR,NANDGRAM,MEERUT ROAD,GHAZIABAD",2365657,GHAZIABAD,GHAZIABAD,"UTTAR PRADESH"
"SOUTH INDIAN BANK",SIBL0000925,NA,"LOBELIA HSS,NAYARAMBALAM","DOOR NO 534 A,WARD NO 7,VYPIN-PALLIPURAM ROAD,KUDUNGASSERY,NAYARAMBALAM,ERNAKULAM",2365657,NAYARAMBALAM,ERNAKULAM,KERALA
"SOUTH INDIAN BANK",SIBL0000924,NA,"ST MARYS UPS ,CHERANALLOOR","WARD NO 2,ST. MARYS UPS SCHOOL,W. CHERANALLOOR,CHERANALLOOR,ERNAKULAM",2365657,CHERANALLUR,ERNAKULAM,KERALA
"SOUTH INDIAN BANK",SIBL0000922,NA,"ST THOMAS HOSPITAL","ST THOMAS HOSPITAL,CHETHIPUZHA,KURISUMMOODU,KOTTAYAM",2365657,KOTTAYAM,KOTTAYAM,KERALA
"SOUTH INDIAN BANK",SIBL0000921,NA,"ST JOSEPHS INDUSTRIAL TRAINING CENTRE","ST JOSEPHS INDUSTRIAL TRAINING CENTRE,DOOR NO 45-1-41,WARD NO 5,ELURU ROAD,GUNADALA",2365657,GUNADALA,KRISHNA,"ANDHRA PRADESH"
"SOUTH INDIAN BANK",SIBL0000920,NA,"SARASWATI VISHWA VIDYALAYA","SHOP NO14,GAT NO164 A,SONIGARA HEIGHTS BUILDING COMMERICIAL,TRIVENI NAGAR,TALAWADE",2365657,PUNE,PUNE,MAHARASHTRA
"SOUTH INDIAN BANK",SIBL0000919,NA,"CHRIST INSTITUTE OF MANAGEMENT","CHRIST INSTITUTE OF MANAGEMENT,30, VALOR COURT, DASVE, POCKET P3,DASVE LAVASA",2365657,PUNE,PUNE,MAHARASHTRA
"SOUTH INDIAN BANK",SIBL0000918,NA,"LOYOLA HIGH SCHOOL","WARD NO 3,4 AND 5,LOYOLA INDUSTRIAL TRAINING INSTITUTE,KURJI,PATNA",2365657,KURJI,PATNA,BIHAR
"SOUTH INDIAN BANK",SIBL0000916,NA,"ST.SEBASTIANS PUBLIC SCHOOL UDAYAMPERUR","WARD NO 7,ST SEBASTIANS PUBLIC SCHOOL PREMISES,NADAKKAVU,UDAYAMPERUR",2365657,NADAKKAVU,ERNAKULAM,KERALA
"SOUTH INDIAN BANK",SIBL0000915,NA,"ST MICHELS HIGH SCHOOL THATHAMPALLY","ST MICHEALS BUILDING,ST MICHEALS CHRCH ROAD,ST MICHEALS SCHOOL THATHAMPALLY,ALAPPUZHA",2365657,ALAPPUZHA,ALAPPUZHA,KERALA
"SOUTH INDIAN BANK",SIBL0000914,NA,"ST. TERESAS SENIOR SECONDARY SCHOOL","ST. TERESAS SR. SEC. SCHOOL, PUSPAGIRI,BOHRA GANESH JI ROAD,SHASTRI CIRCLE, SUB OFFICE, UDAIPUR,RAJASTHAN",2365657,UDAIPUR,UDAIPUR,RAJASTHAN
"SOUTH INDIAN BANK",SIBL0000913,NA,VELANKANNI,"65-22,WARD NO 9,ARCH MAIN ROAD,OPPOSITE TO VELANKANNI ARCH,VELANKANNI,NAGAPATTINAM,TAMIL NADU",2365657,VELANGANNI,NAGAPATTINAM,"TAMIL NADU"
"SOUTH INDIAN BANK",SIBL0000912,NA,AMBATTUR,"PMR TOWERS,MENAMBEDU MAIN ROAD,COROMANDEL TOWN, AMBATTUR INDUSTRIAL ESTATE,PADI",2365657,PADI,TIRUVALLUR,"TAMIL NADU"
"SOUTH INDIAN BANK",SIBL0000911,NA,"PEENYA INDUSTRIAL AREA","138-B, UDAYAGIRI COMPLEX, PEENYA 3RD PHASE INDUSTRIAL AREA,PEENYA,BANGALORE NORTH,KARNATAKA",2365657,PEENYA,"BANGALORE URBAN",KARNATAKA
"SOUTH INDIAN BANK",SIBL0000909,NA,"ST JOHN LP SCHOOL EC THEVARA","ST JOHN LP SCHOOL, FATHER MULAVARICKAL ROAD, KONTHURUTHY, THEVARA, ERNAKULAM 682013",2365657,KOCHI,ERNAKULAM,KERALA
"SOUTH INDIAN BANK",SIBL0000908,NA,THIRUVATHUR,"PANEERSELVAM COMPLEX,PAVUNJUR MAIN ROAD,THIRUVATHUR,PAVUNJUR,KANCHEEPURAM 603 312",2365657,PAVINJUR,KANCHEEPURAM,"TAMIL NADU"
"SOUTH INDIAN BANK",SIBL0000907,NA,"GURGAON SECTOR TWENTY THREE","SECTOR 23, PALAM VIHAR, GURGAON, HARYANA 122017",2365657,GURGAON,GURGAON,HARYANA
"SOUTH INDIAN BANK",SIBL0000906,NA,ELURU,"KAVYA SRI NILAYAM, GUBBALAVARI STREET, R R PETA, CHANAKYAPURI COLONY, WEST GODAVARI 534002",2365657,ELURU,"WEST GODAVARI","ANDHRA PRADESH"
"SOUTH INDIAN BANK",SIBL0000905,NA,KARIMUGHAL,"EBENEZER BUILDING, ALUVA THRIPUNITHURA ROAD,KARIMUGHAL,ERNAKULAM, KERALA 682 303",2365657,KARIMUGAL,ERNAKULAM,KERALA
"SOUTH INDIAN BANK",SIBL0000904,NA,KARIMKUNNAM,"ST.AUGUSTINES CHURCH BUILDING,KARIMKUNNAM -PURAPUZHA ROAD,KARIMKUNNAM,IDUKKI 685586",2365657,KARIMKUNNAM,IDUKKI,KERALA
"SOUTH INDIAN BANK",SIBL0000902,NA,MUHAMMA,"K E CARMEL SCHOOL BUILDING, MUHAMMA, ALAPUZHA, KERALA 688 525",2365657,"THANNEERMUKKAM SOUTH",ALAPUZHA,KERALA
"SOUTH INDIAN BANK",SIBL0000901,NA,"AL AZHAR MEDICAL COLLEGE EC THODUPUZHA","AL AZHAR MEDICAL COLLEGE,EZHALLOOR ROAD,PERUMBILLICHIRA,EZHALLOOR PO,THODUPUZHA 685 605",2365657,KUMARAMANGALAM,IDUKKI,KERALA
"SOUTH INDIAN BANK",SIBL0000900,NA,"ST JOSEPHS CELLEGE EC ABIDS","ST JOSEPH DEGREE AND PG COLLEGE,KING KOTI ROAD,GUN FOUNDARY ,ABIDS, HYDERABAD 500 001",2365657,HYDERABAD,HYDERABAD,TELANGANA
"SOUTH INDIAN BANK",SIBL0000899,NA,"KOTAK SALESIAN SCHOOL EC CHINNA WALTAIR","GROUND FLOOR,KOTAK SALESIAN SCHOOL,CHINNA WALTAIR,VISAKHAPATNAM 530 003",2365657,VISAKHAPATNAM,VISHAKHAPATNAM,"ANDHRA PRADESH"
"SOUTH INDIAN BANK",SIBL0000898,NA,"SFS SCHOOL EC SEETHAMMADHARA","GROUD FLOOR,SFS SCHOOL,OPP. RYTHU BAZAR, SEETHAMMADHARA,VISAKHAPATNAM 530 013",2365657,VISAKHAPATNAM,VISHAKHAPATNAM,"ANDHRA PRADESH"
"SOUTH INDIAN BANK",SIBL0000897,NA,"MALANKARA SYRIAN ORTHODOX THEOLOGICAL SEMINARY EC","MSOT BOOK STALL BUILDING,MAMALAKAVALA,PIROVAM ROAD,UDAYAGIRI,VETTICKAL P O,ERNAKULAM 682314",2365657,THIRUVANIYOOR,ERNAKULAM,KERALA
"SOUTH INDIAN BANK",SIBL0000896,NA,"ST PAULS COLLEGE EC KALAMASSERY","HMT SEAPORT AIRPORT ROAD, INSIDE ST PAULS COLLEGE,HMT COLONY PO, ERNAKULAM 683 503",2365657,KALAMASSERY,ERNAKULAM,KERALA
"SOUTH INDIAN BANK",SIBL0000894,NA,SAVURIYUR,"5/473C-D, AADAIYUR MAIN ROAD, SAVURIYUR BUS STOP, JALAKANDAPURAM, SALEM 636501",2365657,JALAKANTAPURAM,SALEM,"TAMIL NADU"
"SOUTH INDIAN BANK",SIBL0000893,NA,PULIYANMALA,"GREEN HOUSE, KUMILY KATTAPPANA ROAD, PULIYANMALA, IDUKKI 685515",2365657,VANDANMETTU,IDUKKI,KERALA
"SOUTH INDIAN BANK",SIBL0000892,NA,"ST FRANCIS XAVIER CHURCH UPS EC","II/119,WARD NO II,CHURCH UP SCHOOL,CHERANALLOOR-KOOVAPADY ROAD, EAST CHERANALLOOR,KOOVAPADY, ERNAKULAM-683 544,KERALA",2365657,KOOVAPADY,ERNAKULAM,KERALA
"SOUTH INDIAN BANK",SIBL0000890,NA,"VESU SURAT","MONEY ARCADE, G D GOYANKA SCHOOL CANAL ROAD, VESU BHARATHANA, VESU, SURAT, GUJARAT 395007",2365657,VESU,SURAT,GUJARAT
"SOUTH INDIAN BANK",SIBL0000889,NA,"KOLKATA PARK STREET","20B,63, NEAR KFC, PARK STREET, KOLKATA, WEST BENGAL 700 016",2365657,KOLKATA,KOLKATA,"WEST BENGAL"
"SOUTH INDIAN BANK",SIBL0000888,NA,PULLIPADAM,"7F, RAHMATH TOWER, CNG MAIN ROAD, MAMPAD, MALAPPURAM, KERALA",2365657,MAMPAD,MALAPPURAM,KERALA
"SOUTH INDIAN BANK",SIBL0000887,NA,UJJAIN,"ARIHANT AVENUE, NANA KHEDA,DUSSEHRA MAIDAN M L NAGAR, UJJAIN 456006",2365657,UJJAIN,UJJAIN,"MADHYA PRADESH"
"SOUTH INDIAN BANK",SIBL0000886,NA,PADHUVANCHERRY,"NEW NO 54, AGARAMTHEN MAIN ROAD, SECRETAIRAT COLONY, PADHUVANCHERRY 600126",2365657,TAMBARAM,KANCHEEPURAM,"TAMIL NADU"
"SOUTH INDIAN BANK",SIBL0000885,NA,ABHISHEGAPAKKAM,"NO 19, MADUKARAI ROAD, ABHISHEGAPAKKAM, PONDICHERRY 605 007",2365657,ARIYAMKUPPAM,PONDICHERRY,PUDUCHERRY
"SOUTH INDIAN BANK",SIBL0000884,NA,TANALUR,"PSM BUILDING, TANALUR, MALAPPURAM",2365657,TANALUR,MALAPPURAM,KERALA
"SOUTH INDIAN BANK",SIBL0000883,NA,"CARMELRAM ROSARIAN TRAINING INSTITUTE","WARD NO 150, BELLANDUR,ROSARIAN TRAINING CENTRE,GUNJUR ROAD,CARMELRAM",2365657,BANGALORE,"BANGALORE URBAN",KARNATAKA
"SOUTH INDIAN BANK",SIBL0000882,NA,"ST FRANSCILIAN SOCIETY H S S EC","SFS SCHOOL BUILDING,SHANTI NAGAR, NORTH LALAGUDA,LALAPET,RANGA REDDY,TELANGANA",2365657,MALKAJGIRI,RANGAREDDY,TELANGANA
"SOUTH INDIAN BANK",SIBL0000881,NA,"LISIE HOSPITAL EC KALOOR","36/1000A, CITY CENTRE, LISIE JUNCTION, KALOOR,ERNAKULAM-682018",2365657,KALOOR,ERNAKULAM,KERALA
"SOUTH INDIAN BANK",SIBL0000880,NA,"ST MARYS COLLEGE EC TUTICORIN","6,18, A BLOCK, ST MARYS COLLEGE (AUTONOMOUS), 104 NORTH BEACH ROAD, TUTICORIN, TAMIL NADU 628001",2365657,TUTICORIN,TOOTHUKUDI,"TAMIL NADU"
"SOUTH INDIAN BANK",SIBL0000879,NA,"BRILLIANT STUDENT CENTRE EC","BRILLIANT, MUTHOLY-KODUNGOOR ROAD, MUTHOLY, PULIYANNOOR, KOTTAYAM 686573",2365657,PALAI,KOTTAYAM,KERALA
"SOUTH INDIAN BANK",SIBL0000877,NA,"SACRED HEART MISSION HOSPITAL EC PULLUR","SACRED HEART MISSION HOSPITAL BUILDING RAILWAY STATION RAOD IRINJALAKUDA",2365657,MURIYAD,THRISSUR,KERALA
"SOUTH INDIAN BANK",SIBL0000875,NA,TUMKUR,"740/2/1355 BH ROAD, GUBBI GATE CIRCLE, TUMKUR, KARNATAKA",2365657,TUMKUR,TUMKUR,KARNATAKA
"SOUTH INDIAN BANK",SIBL0000874,NA,"JUBILEE MISSION MEDICAL COLLEGE EC","JUBILEE MISSION MEDICAL COLLEGE, THRISSUR EAST P O, THRISSUR,KERALA 680005",2365657,THRISSUR,THRISSUR,KERALA
"SOUTH INDIAN BANK",SIBL0000873,NA,VADAPERUMBAKKAM,"BALAJI NAGAR, VADAPERUMBAKKAM P O, THIRUVALLUR",2365657,MADHAVARAM,THIRUVALLUR,"TAMIL NADU"
"SOUTH INDIAN BANK",SIBL0000872,NA,MARANGATTUPILLY,"CHURCH BUILDING, MARANGATTUPILLY P O,KOTTAYAM 686635,KERALA",2365657,MARANGATTUPALLY,KOTTAYAM,KERALA
"SOUTH INDIAN BANK",SIBL0000871,NA,GANGTOK,"HUNGRY JACK PLAZA, 31 A NATIONAL HIGHWAY, GANGTOK, EAST SIKKIM 737101, SIKKIM",2365657,GANGTOK,"EAST SIKKIM",SIKKIM
"SOUTH INDIAN BANK",SIBL0000870,NA,HATIBAGAN,"64,SRI ARABINDA SARANI, HATIBAGAN, HATKHOLA P O,KOLKATA 700005, WEST BANGAL",2365657,KOLKATA,KOLKATA,"WEST BENGAL"
"SOUTH INDIAN BANK",SIBL0000869,NA,UNJAVELAMPATTI,"2/288,FRANCIS BUILDING, UDUMAL ROAD, UNJAVELAMPATTI, COIMBATORE 642003",2365657,POLLACHI,COIMBATORE,"TAMIL NADU"
"SOUTH INDIAN BANK",SIBL0000868,WAITING,NALLANUR,"DHARMAPURI PENNAGARAM HIGHWAY, OPP JAYAM COLLEGE, BILIYANUR P O, DHARMAPURI 636813, TAMILNADU",2365657,PENNAGARAM,DHARMAPURI,"TAMIL NADU"
"SOUTH INDIAN BANK",SIBL0000867,NA,MANCHERIAL,"H NO 11 ,252 TO 11 ,254,CHENNUR MANCHERIAL HIGHWAY, I B CHOWRASTA, ADILABAD, TELANGANA",2365657,MANCHERIYAL,ADILABAD,TELANGANA
"SOUTH INDIAN BANK",SIBL0000866,NA,KONGALNAGARAM,"POLLACHI DHARAPURAM MAIN ROAD KONGALNAGARAM P O TIRUPUR TAMILNADU",2365657,UDUMALPET,COIMBATORE,"TAMIL NADU"
"SOUTH INDIAN BANK",SIBL0000865,NA,"PUNE BHOSARI","INDRAYANI NAGAR, PLOT NO 9S, PCNTDA,SHIV APARTMENT BUILDING, BHOSARI, PUNE 411035",2365657,PUNE,PUNE,MAHARASHTRA
"SOUTH INDIAN BANK",SIBL0000864,NA,WAKAD,"OFFICE NO 1, GANGA OSIAN SQUARE, A BUILDING, WAKAD, PUNE 411057",2365657,PUNE,PUNE,MAHARASHTRA
"SOUTH INDIAN BANK",SIBL0000863,NA,"MARIAS DAY SCHOOL EC HOWRAH","11 6,G T ROAD S , 2, GOPAL GOVIND BOSE LANE, HOWRAH P O, HOWRAH 711101, WEST BENGAL",2365657,HOWRAH,HAORA,"WEST BENGAL"
"SOUTH INDIAN BANK",SIBL0000862,NA,"CSI MEDICAL COLLEGE EC KARAKONAM","ALBANY BLOCK, CSI MEDICAL COLLEGE,KARAKONAM,NEYYATTINKARA",2365657,KUNNATHUKKAL,THIRUVANANTHAPURAM,KERALA
"SOUTH INDIAN BANK",SIBL0000858,NA,"NEWMAN COLLEGE EXTN COUNTER","LIBRARY BUILDING, NEWMAN COLLEGE CAMPUS, THODUPUZHA EAST, IDUKKI, KERALA",2365657,THODUPUZHA,IDUKKI,KERALA
"SOUTH INDIAN BANK",SIBL0000857,NA,"ST. ANTONYS  H S S EC MOORKANAD","CHURCH ROAD,ST.ANTONYS CHURCH, PORATHISSERI,THRISSUR 680711",2365657,PORATHISSERI,THRISSUR,KERALA
"SOUTH INDIAN BANK",SIBL0000855,NA,"BISHOP BERETTA HIGH SCHOOL EC WARANGAL","24-7-34, ARUNODAYA YOUTH CENTRE, FATHIMA NAGAR, KAZIPET, WARANGAL, TELANGANA",2365657,KAZIPET,WARANGAL,TELANGANA
"SOUTH INDIAN BANK",SIBL0000853,NA,"RAJAGIRI MEDICITY EC CHUNANGAMVELIY","4/565 SANTINILAYAM, CMI HOUSE, CHUNANGAMVELY, ERUMATHALA P O, ERNAKULAM 683112",2365657,ALUVA,ERNAKULAM,KERALA
"SOUTH INDIAN BANK",SIBL0000852,NA,"XAVIER UNIVERSITY EC BHUBANESWAR","XAVIER CITY CAMPUS,NIJIGADA KURKI,HARIRAJPUR P O,PURI 752050,ORISSA",2365657,BHUBANESWAR,KHURDA,ODISHA
"SOUTH INDIAN BANK",SIBL0000851,NA,"MAMBARAM SENIOR SECONDARY SCHOOL EC","MAMBARAM ENGLISH MEDIUM SENIOR SECONDARY SCHOOL, MAMBARAM, KANNUR 670741",2365657,THALASSERY,CANNUR,KERALA
"SOUTH INDIAN BANK",SIBL0000848,NA,"ST. GITS COLLEGE EC PATHAMUTTAM","WARD NO.XIII, PATHAMUTTOM P O, KOTTAYAM 686532, KERRALA",2365657,KOTTAYAM,KOTTAYAM,KERALA
"SOUTH INDIAN BANK",SIBL0000845,NA,"NIRMALA COLLEGE EXTN COUNTER","NIRMALA COLLEGE CAMPUS NIRMALA COLLEGE P O MUVATTUPUZHA ERNAKULAM 686661",2365657,MUVATTUPUZHA,ERNAKULAM,KERALA
"SOUTH INDIAN BANK",SIBL0000844,NA,"AMAL JYOTHI ENGINEERING COLLEGE EC KOOVAPPALLY","DOOR NO.XIII 242, KOTTAYAM ERUMELY ROAD, KOOVAPPALLY, KOTTAYAM 686518,KERALA",2365657,KOOVAPALLY,KOTTAYAM,KERALA
"SOUTH INDIAN BANK",SIBL0000842,NA,"ST. JOSEPHS COLLEGE DEVAGIRI EC","DOOR NO.83/1,MSW BLOCK,DEVAGIRI COLLEGE P O,KOZHIKODE-673008,KERALA",2365657,CALICUT,KOZHIKODE,KERALA
"SOUTH INDIAN BANK",SIBL0000841,NA,"CHRIST ACADEMY SCHOOL,BANGALORE","CHRIST ACADEMY,BEGUR-KOPPA ROAD,HULLAHALLI,SAKKALWARA POST,BANGALORE",2365657,HULLAHALLI,BANGALORE,KARNATAKA
"SOUTH INDIAN BANK",SIBL0000840,NA,"GREGORIAN PUBLIC SCHOOL EC","GREGORIAN DALE MARADU ERNAKULAM KERALA 682034",2365657,MARADU,ERNAKULAM,KERALA
"SOUTH INDIAN BANK",SIBL0000838,NA,NARODA,"GROUND FLOOR,HILONI BUSINESS CENTRE,NEAR HARIVALLABH SOCIETY,NARODA,AHMEDABAD",2365657,AHMEDABAD,AHMADABAD,GUJARAT
"SOUTH INDIAN BANK",SIBL0000836,NA,TENKASI,"TEMPLE TOWER 135 MUDUKKU VINAYAGA KOVIL STREET NEAR OLD BUS STAND TANKASI 627811",2365657,TENKASI,TIRUNELVALI,"TAMIL NADU"
"SOUTH INDIAN BANK",SIBL0000835,NA,SANAND,"AAKAR ARCADE AND RESIDENCY, NR.LUHANA WADI,SHOP NO.6&7SANAND, PINCODE: 382110 GUJARAT, AHMEDABAD",9904266200,SANAND,AHMEDABAD,GUJARAT
"SOUTH INDIAN BANK",SIBL0000834,NA,CHEMBUKAVU,"LATHIKA STUDIO BUILDING, MUSEUM, CHEMBUKAVU, THRISSUR, KERALA 680 020",2365657,THRISSUR,THRISSUR,KERALA
"SOUTH INDIAN BANK",SIBL0000833,NA,ARANATTUKARA,"17 BY 136 8 BY 2,ABHCON COMMERCIAL COMPLEX,ARANATTUKARA,THRISSUR",2365657,THRISSUR,THRISSUR,KERALA
"SOUTH INDIAN BANK",SIBL0000832,NA,KOOTTILANGADI,"HAMSA HAJI BUILDING, IST FLOOR , KOOTTILANGADI. P.O, MALAPPURAM",2365657,MALAPPURAM,MALAPPURAM,KERALA
"SOUTH INDIAN BANK",SIBL0000831,680059082,KAVILKADAVU,"CEEVEE'S COMPLEX, KAVILKADAVU, KODUNGALLUR.P.O, THRISSUR-680664",2365657,KODUNGALLUR,THRISSUR,KERALA
"SOUTH INDIAN BANK",SIBL0000830,NA,SANGLI,"UPPER GROUND FLOOR OF HOTEL GANRAJ,OPP.SHIVAJI STADIUM,NORTH SHIVAJI NAGAR,AMRAI ROAD,SANGLI 416416",0,SANGLI,SANGLI,MAHARASHTRA
"SOUTH INDIAN BANK",SIBL0000829,NA,"VIMAN NAGAR","SHOP NO 69 TO 74,GROUND FLOOR,ASHOKA PLAZE,PUNE NAGAR ROAD,VIMAN NAGAR,PUNE 411016",2365657,PUNE,PUNE,MAHARASHTRA
"SOUTH INDIAN BANK",SIBL0000828,NA,SILIGURI,"UPPER GROUND FLOOR, WARD-13,MOTI SADAN, SEVOKE ROAD SILIGURI, PINCODE: 734001 MADURAI TAMILNADU",2465527,SILIGURI,MADURAI,"TAMIL NADU"
"SOUTH INDIAN BANK",SIBL0000827,NA,GARIA,"SANJEEVANI BUILDING,DO.NO.3151,WARD 29, GARIA MAIN ROAD SONARPUR, PINCODE: 700084 KOLKATA, RAJPUR-SONARPUR WEST BENGAL, KOLKATA",9903306033,GARIA,KOLKATA,"WEST BENGAL"
"SOUTH INDIAN BANK",SIBL0000826,NA,BEHALA,"FLOOR 1, WARD NO.123, 18 DIAMOND HARBOUR ROAD ,BEHALA, PINCODE: 700008 BARISHA JANAKALYAN, KOLKATA",9007866977,BEHALA,KOLKATA,"WEST BENGAL"
"SOUTH INDIAN BANK",SIBL0000825,NA,KUDASAN,"RADHE CUYRSTAL, OFF. SARGASAN ROAD,KUDASAN, PINCODE: 382421 OPP. SHUKAN ROYAL, KUDASAN ,DO.NO.33 TO 36, GROUND FLOOR ,GUJARAT, GANDHINAGAR",9913370712,KUDASAN,"GANDHI NAGAR",GUJARAT
"SOUTH INDIAN BANK",SIBL0000824,NA,CHANGODAR,"SATYAM MARKET,DO.NO.32-36, SARKEJ-BAVLA ROAD ,CHANGODHAR, PINCODE: 382213 ,MORAIYA, CHANGODHAR, MORAIYA SANAND,GUJARAT, AHMEDABAD",8155001951,CHANGODAR,AHMEDABAD,GUJARAT
"SOUTH INDIAN BANK",SIBL0000823,NA,NEYYASSERY,"ST.SEBASTIAN`S CHURCH BUILDINGS,NEYYASSERY, PINCODE: 685581  ,NEAR ST.SEBASTIAN`S CHURCH, NEYYASSERI ,KERALA, IDUKKI",261888,NEYYASSERY,IDUKKI,KERALA
"SOUTH INDIAN BANK",SIBL0000822,NA,MUTTOM,"MARTH MARIYAM SHOPPIING COMPLEX, MUTTOM ,P.B.#: MUTTOM, , PINCODE: 685587 THODUPUZHA,KERALA, IDUKKI",256344,MUTTOM,IDUKKI,KERALA
"SOUTH INDIAN BANK",SIBL0000821,NA,NEELAMPEROOR,"THIRUTHITHARA BUILDING,DOOR NO.III/16,, NEELAMPEROOR P.O.EARA NORTH, PINCODE: 686534,NEELAPEROOR, WARD NO.IV,, NEELAMPEROOR ,KERALA, ALAPUZHA",2710006,NEELAMPEROOR,ALAPUZA,KERALA
"SOUTH INDIAN BANK",SIBL0000820,NA,ARIKKADY,"RIFA CITY SHOPPING COMPLEX,DOOR-471,, NH-17,WARD NO.II,P.O.KUMBALA, PINCODE: 671321  ARIKKADY JUNCTION,, ARIKADY KERALA, KASARAGOD",213766,ARIKKADY,KASARGOD,KERALA
"SOUTH INDIAN BANK",SIBL0000819,NA,MOGRAL,"BISMILLAH SHOPPING COMPLEX, DO.NO.IX/216,MOGRAL, PINCODE: 671321 ,KERALA, KASARAGOD",213166,MOGRAL,KASARGOD,KERALA
"SOUTH INDIAN BANK",SIBL0000818,NA,ARAYANKAVU,"DOOR NO 11 483A BB ARCADE KULAYATTIKARA P O KANJIRAMATTOM VIA ARAYANKAVU ERNAKULAM 682315",2365657,KANJIRAMATTOM,ERNAKULAM,KERALA
"SOUTH INDIAN BANK",SIBL0000817,NA,ERUVELI,"DOOR NO.152, WARD NO.VIII,CHOTTANIKARA, PINCODE: 682312",2711660,ERUVELI,ERNAKULAM,KERALA
"SOUTH INDIAN BANK",SIBL0000816,NA,VELLARAKKAD,"KOTHOOR BUILDINGS, DO.NO.1,WARD NO.8,VELLARAKKAD, PINCODE: 680584 KERALA, THRISSUR",266665,VELLARAKKAD,THRISSUR,KERALA
"SOUTH INDIAN BANK",SIBL0000815,NA,KARWAR,"GROUND FLOOR, DOOR NO.1081, WARD NO.13, KAIKINI ROAD ,KARWAR, PINCODE: 581301",227707,KARWAR,"UTTAR KANNADA",KARNATAKA
"SOUTH INDIAN BANK",SIBL0000814,NA,PUTTUR,"PRABHU BUILDING, DO.NO.IV/572,WARD NO.IV, MAIN ROAD,PUTTUR, PINCODE: 574201",235900,PUTTUR,"DAKSHIN KANNAD",KARNATAKA
"SOUTH INDIAN BANK",SIBL0000813,NA,BELTHANGADY,"RAKSHA ARCADE, WARD NO.6,, MAIN ROAD BELTHANGADY, PINCODE: 574214 KARNATAKA, DAKSHIN KANNAD",233131,BELTHANGADY,"DAKSHIN KANNAD",KARNATAKA
"SOUTH INDIAN BANK",SIBL0000812,NA,RATNAGIRI,"INFINTY PLAZA, SHOP NO.1,2,3, SIDDHIVINAYAL NAGAR,RATNAGIRI, PINCODE: 415612 MAHARASHTRA, RATNAGIRI",220801,RATNAGIRI,RATNAGIRI,MAHARASHTRA
"SOUTH INDIAN BANK",SIBL0000811,NA,BOPAL,"1 TO 4,SHILP SARAL ARTS, BOPAL-GHUMA ROAD BOPAL, PINCODE: 380058 GUJARAT, AHMEDABAD",233282,BOPAL,AHMEDABAD,GUJARAT
"SOUTH INDIAN BANK",SIBL0000810,NA,PAMPAKUDA,"DO.NO.382 B,WARD.IV,KUZHIPPILLIL COPMLEX, PIRAVOM ROAD,PAMPAKUDA, PINCODE: 686667 MUVATTUPUZHA",2274715,PAMPAKUDA,MUVATTUPUZHA,KERALA
"SOUTH INDIAN BANK",SIBL0000809,NA,KURUPPAMPADY,"LEMONGRASS OIL & GENERAL MARKETING SOCIE, AM ROAD ,PO KURUPPAMPADY, PINCODE: 684535 ,KURUPPAMPADY, PERUMBAVOOR,KERALA, ERNAKULAM",2592006,KURUPPAMPADY,ERNAKULAM,KERALA
"SOUTH INDIAN BANK",SIBL0000808,NA,PUTHENCRUZ,"PALACHUVATTIL ARCADE, OPP. H P PETROL PUMP, PUTHENCRUZ P.O, ERNAKULAM-682308",2730321,PUTHENCRUEZ,ERNAKULAM,KERALA
"SOUTH INDIAN BANK",SIBL0000807,NA,KARIMANNOOR,"J. J SQUARE, KARIMANNOOR ┬û THOMMAKUTH ROAD, KARIMANNOOR P.O, IDUKKI ┬û 685581",261777,KARIMANNOOR,IDUKKI,KERALA
"SOUTH INDIAN BANK",SIBL0000806,NA,"THODUPUZHA TOWN","SREEVALSAM BUILDING, GROUND FLOOR, TEMPLE BYEPASS ROAD, THODUPUZHA-685584",2365657,THODUPUZHA,IDUKKI,KERALA
"SOUTH INDIAN BANK",SIBL0000805,NA,KUMILY,"KANIYAMPARAMBIL BUILDING, NEAR KSRTC BUS STATION, K K ROAD , KUMILY, IDUKKI -685509",223160,KUMILY,IDUKKI,KERALA
"SOUTH INDIAN BANK",SIBL0000804,680059083,MOONNUPEEDIKA,"TELEPHONE EXCHANGE ROAD,NEAR MOONNUPEEDIKA BUS STOP,PERINJANAM 680686",2365657,PERINGANAM,THRISSUR,KERALA
"SOUTH INDIAN BANK",SIBL0000803,NA,KODALY,"NEAR L P SCHOOL, KODALY PADY P O, MATTATHUR PANCHAYATH, THRISSUR- 680699",2365657,MATTATHUR,THRISSUR,KERALA
"SOUTH INDIAN BANK",SIBL0000802,NA,THALAYOLAPARAMBU,"THALAYOLAPARAMBU, KOTTAYAM DIST, PIN-686 605, KERALA",236665,THALAYOLAPARAMBU,KOTTAYAM,KERALA
"SOUTH INDIAN BANK",SIBL0000801,689059452,MANNAR,"468A,PUTHENPURAYIL COMPLEX,NEAR PARUMALAKKADAVU,MANNAR,ALAPUZHA",2365657,MANNAR,ALAPUZHA,KERALA
"SOUTH INDIAN BANK",SIBL0000800,NA,PERAMBALUR,"DOOR NO.172B, GROUND FLOOR, SENTHIL RAJA COMPLEX, MADHANAGOPALAPURAM, TRICHY MAIN ROAD, PERAMBALUR-621212",276666,PERAMBALUR,PERAMBALUR,"TAMIL NADU"
"SOUTH INDIAN BANK",SIBL0000799,NA,PATTUKOTTAI,"21, ARANTHANGI ROAD, PATTUKOTTAI - 614601",2365657,PATTUKOTTAI,THANJAVUR,"TAMIL NADU"
"SOUTH INDIAN BANK",SIBL0000798,NA,RAMANATHAPURAM,"102/14, SURYA TOWERS, DEVIPATTINAM ROAD, RAMANATHAPURAM - 623501",2365657,RAMANATHAPURAM,TIRUNELVALI,"TAMIL NADU"
"SOUTH INDIAN BANK",SIBL0000797,630059002,KARAIKUDI,"CHONA BUILDING, OLD N0-17, NEW NO-14,SUBRAMANIAPURAM, 2ND STREET, KARAIKUDI- 630002",225111,KARAIKUDI,SIVAGANGA,"TAMIL NADU"
"SOUTH INDIAN BANK",SIBL0000796,NA,MAYILADUTHURAI,"8/B, STATE BANK ROAD, AVAIYAMBALPURAM, MAYILADUTHURAI 609001",220796,MAYURAM(MAYILADUTHURAI),NAGAPATTINAM,"TAMIL NADU"
"SOUTH INDIAN BANK",SIBL0000795,NA,MANNARGUDI,"D.NO 75B,EAST VADAMPOKKI STREET, MANNARGUDI-614001",226611,MANNARGUDI,THIRUVARUR,"TAMIL NADU"
"SOUTH INDIAN BANK",SIBL0000794,NA,GOTA,"VANDEMATRAM ARCADE,, NEW SG ROAD,PO GOTA, PINCODE: 382481 ,NEAR VANDEMATRAM CITY, GOTA ,DASCROI, FIRST FLOOR, SHOP NO.1,GUJARAT, AHMEDABAD",65255525,GOTA,AHMEDABAD,GUJARAT
"SOUTH INDIAN BANK",SIBL0000793,NA,KANYAKUMARI,"SUTHA COMPLEX,DOOR NO.5/67D, WARD NO.15,, KANNIYAKUMARI MAIN ROAD ,KANNIYAKUMARI, PINCODE: 629702",248322,KANYAKUMARI,KANYAKUMARI,"TAMIL NADU"
"SOUTH INDIAN BANK",SIBL0000792,680059075,NADAVARAMBU,"X111/56A, NADAVARAMBU JN. , VAIKARA ROAD, THRISSUR-680661",2365657,IRINJALAKUDA,THRISSUR,KERALA
"SOUTH INDIAN BANK",SIBL0000791,680059071,PAZHOOKARA,"ST.JOSEPH'S CHURCH BUILDING, PAZHOOKARA.P O - 680 731",2785255,ASHTAMICHIRA,THRISSUR,KERALA
"SOUTH INDIAN BANK",SIBL0000790,680059072,ALOOR,"KAINADATHU SHOPPING COMPLEX, ALOOR CENTRE, ALOOR-680 683",2727666,ALOOR,THRISSUR,KERALA
"SOUTH INDIAN BANK",SIBL0000789,680059073,"S N PURAM","535/DEFG, MINERVA COMPLEX, PANANGAD P O, S N PURAM-680 665",2850789,SREENARAYANAPURAM,THRISSUR,KERALA
"SOUTH INDIAN BANK",SIBL0000787,680059084,CHENTRAPPINNI,"HASHMI BUILDING,NH 17,CHENTRAPPINNI 680687",2365657,CHENDRAPPINNI,THRISSUR,KERALA
"SOUTH INDIAN BANK",SIBL0000786,NA,VALIYAPARAMBU,"GROUND FLOOR ,A R PLAZA, VALUYAPARAMBU, KURUVILASSERY P O, THRISSUR-680732",2365657,MELADOOR,THRISSUR,KERALA
"SOUTH INDIAN BANK",SIBL0000785,680059074,ANANDAPURAM,"370/1, ANANDAPURAM KURIES BUILDING, ANANDAPURAM P.O-680 305",2880150,MURIYAD,THRISSUR,KERALA
"SOUTH INDIAN BANK",SIBL0000784,NA,KAINOOR,"WARD NO.II,VAIKKATTIL TRADE CENTRE,, POUND ROAD JUNCTION,PUTHUR, PINCODE: 680014 KERALA, THRISSUR",2409099,KAINOOR,THRISSUR,KERALA
"SOUTH INDIAN BANK",SIBL0000783,NA,ATHIKAYAM,"VALLIPURAYIDATHIL BUILDING, NARANAMOOZHY P O, ATHIKKAYAM,RANNI ┬û PERUNAD 689711, PATHANAMTHITTA",270004,PERUNAD,PATHANAMTHITTA,KERALA
"SOUTH INDIAN BANK",SIBL0000782,NA,MATTANUR,"FIRST FLOOR, MATTANNUR MUNICIPAL COMPLEX, MATTANNUR-MANNUR ROAD ,P.B.#: 670702, MATTANNUR P.O., PINCODE: 670702 ,NEAR BSNL OFFICE, MATTANNUR, MATTANNUR ,THALASSERY TALUK, MATTANNUR,KERALA, KANNUR",2471722,MATTANUR,KANNUR,KERALA
"SOUTH INDIAN BANK",SIBL0000780,NA,WAGHOLI,"F M REALTY,9 KRISHNA KUNJ GUT NO.648 BY 2,PUNE NAGAR ROAD,WAGHOLI,PUNE 412207",2365657,WAGHOLI,PUNE,MAHARASHTRA
"SOUTH INDIAN BANK",SIBL0000779,NA,CHAKAN,"HOTEL SAVERA BUILDING, PUNE NASHIK ROAD ,CHAKAN, PINCODE: 410501,MAHARASHTRA, MUMBAI",249077,CHAKAN,MUMBAI,MAHARASHTRA
"SOUTH INDIAN BANK",SIBL0000778,NA,TONDPALLE,"H NO:3-55, NH-44 ,P.B.#: PALAMAKOLE, , PINCODE: 509325 ,OPP. Z.P. HIGH SCHOOL, PALMAKOLE SHAMSHABAD, TONDUPALLY GRAM PANCHAYAT ANDHRA PRADESH, RANGAREDDY",7702571182,TONDPALLE,RANGAREDDY,"ANDHRA PRADESH"
"SOUTH INDIAN BANK",SIBL0000777,NA,MANINAGAR,"GROUND FLOOR, SHIVDEEP,NEAR BRTS, OPP MANI NAGAR RAILWAY STATION",25461790,MANINAGAR,AHMEDABAD,GUJARAT
"SOUTH INDIAN BANK",SIBL0000776,NA,"KOLKATA KANKURGACH","P-22/1, VIP ROAD,KANKURGACHI, PINCODE: 700054,CIT SCHEME,VII M KANKURGACHI, KOLKATA",23550176,"KOLKATA KANKURGACH",KOLKATA,"WEST BENGAL"
"SOUTH INDIAN BANK",SIBL0000775,NA,DURGAPUR,"AXES POINT, NAZRUL SARANI,P.B.#: DURGAPUR, DURGAPUR, PINCODE: 713216 ,CITY CENTRE, DURGAPUR  , NAZRUL SARANI ,WEST BENGAL, KOLKATA",2546009,DURGAPUR,KOLKATA,"WEST BENGAL"
"SOUTH INDIAN BANK",SIBL0000774,NA,BURDWAN,"ARIHANT ENCLAVE, GRAND TRUNK ROAD,PINCODE: 713103 MUCHIPARA, BARDDHAMAN  ,  WEST BENGAL, KOLKATA",2645800,BURDWAN,KOLKATA,"WEST BENGAL"
"SOUTH INDIAN BANK",SIBL0000773,NA,KUMARAPURAM,"TC 1/1979,GOKULAM,NEAR KUMARAPURAM JN.",2444403,KUMARAPURAM,THIRUVANANTHAPURAM,KERALA
"SOUTH INDIAN BANK",SIBL0000772,NA,"AVINASHI ROAD,COIMBATORE","725/A,S R COMPLEX , AVINASHI ROAD",2222499,AVANASHI,COIMBATORE,"TAMIL NADU"
"SOUTH INDIAN BANK",SIBL0000771,NA,VISHRANTWADI,"SARISHYAM HEIGHTS,NEAR POLICE STATION, ALANDI ROAD",26680491,VISHRANTWADI,PUNE,MAHARASHTRA
"SOUTH INDIAN BANK",SIBL0000770,NA,SHORNUR,"DR NO.VIII/187-A,CHEMMARIKKAT BLDG,SHORNUR P.O.,, PINCODE: 679121,OPP.MUNICIPAL OFFICE, SHORANUR  OTTAPALAM,  KERALA, PALAKKAD",2222282,SHORNUR,PALAKKAD,KERALA
"SOUTH INDIAN BANK",SIBL0000769,NA,MANNAMARUTHI,"DOOR NO.84, WARD NO.17, CHENGOTTAYIL,MAKKAPUZHA P.O., MANNAMARUTHI, PINCODE: 689676 RANNI  KERALA, PATHANAMTHITTA",262040,MANNAMARUTHI,PATHANAMTHITTA,KERALA
"SOUTH INDIAN BANK",SIBL0000768,NA,THURAVOOR,"DOOR NO.86 A,WARD NO.5, ABN BUILDING,THURAVOOR P.O.,, PINCODE: 688532 ,CHERTHALA TALUK,KERALA,ALAPUZHA",2562485,THURAVOOR,ALAPUZHA,KERALA
"SOUTH INDIAN BANK",SIBL0000767,NA,ANJARAKANDY,"DOOR NO.493,WARD NO.XXI,T.K.COMPLEX,ANCHARAKKANDY P.O., PINCODE: 670612,THALASSERY, KOOTHUPARAMBU,KANNUR",2856055,ANJARAKANDY,KANNUR,KERALA
"SOUTH INDIAN BANK",SIBL0000766,NA,NILESHWARAM,"DOOR NO.437/2 G, PANDIKODE UILDING, MAIN BAZAR ,NILESHWARAM P.O., PINCODE: 671314",2285123,NILESHWARAM,KASARAGOD,KERALA
"SOUTH INDIAN BANK",SIBL0000765,NA,MEENANGADI,"DOOR NO.12/1083, SILVEROAK,PANAMARAM ROAD,MEENANGADI P.O, PINCODE: 673591,SULTHAN BATHERY ,WAYANAD",246566,MEENANGADI,WAYANAD,KERALA
"SOUTH INDIAN BANK",SIBL0000764,NA,CHINGAVANAM,"WARD NO.II/134 C, KUNNUTHARAYIL ARCADE,, M.C.ROAD ,CHINGAVANAM, PINCODE: 686531 NATTAKOM",2430363,CHINGAVANAM,KOTTAYAM,KERALA
"SOUTH INDIAN BANK",SIBL0000763,NA,PUTHUPPALLY,"WARD NO.17, C & C COMPLEX, PUTHUPALLY CHURCH ROAD ,PUTHUPALLY, PINCODE: 686011 KOTTAYAM ,PALLOM",2351171,PUTHUPPALLY,KOTTAYAM,KERALA
"SOUTH INDIAN BANK",SIBL0000762,NA,MONIPALLY,"DOOR NO.210A,310B,310C, URALIL BUILDING,MONIPALLY P.O.,, PINCODE: 686636 ,KERALA, KOTTAYAM",243355,MONIPALLY,KOTTAYAM,KERALA
"SOUTH INDIAN BANK",SIBL0000761,NA,PANACHIPARA,"DOOR NO.II/108 (B),KARTHIKA COMPLEX,P.B.#: POONJAR NADUBHAGAM, PANACHIPARA P.O.,, PINCODE: 686581",277737,PANACHIPARA,KOTTAYAM,KERALA
"SOUTH INDIAN BANK",SIBL0000760,NA,POTHANICAD,"DOOR NO.402, ELLICKAL BUILDING,, POTHANICAD - KALIYAR ROAD,POTHANICAD P.O.,, PINCODE: 686671 MUVATTUPUZHA, KOTHAMANGALAM",2562600,POTHANICAD,MUVATTUPUZHA,KERALA
"SOUTH INDIAN BANK",SIBL0000759,NA,PALLIKKARA,"OPP.ST.MARYS CATHEDRAL, PALLIKKARA,KUMARAPURAM, PINCODE: 683565 ,KERALA, ERNAKULAM",2680822,PALLIKKARA,ERNAKULAM,KERALA
"SOUTH INDIAN BANK",SIBL0000758,NA,PUNNEKKAD,"DR NO.282,283,298,299,PULICHAMAKKAL BLDG, K.P.ROAD ,KEERAMPARA P.O., PUNNEKKAD, PINCODE: 686681 ,KERALA, ERNAKULAM",2570123,PUNNEKKAD,MUVATTUPUZHA,KERALA
"SOUTH INDIAN BANK",SIBL0000757,NA,KOYILANDY,"NO.26/54 QTOX,CITY BAZAR SHOPPING MALL, KANNUR ROAD,KOYILANDY P.O., PINCODE: 673305 ,KERALA, KOZHIKODE",2620315,KOYILANDY,KOZHIKODE,KERALA
"SOUTH INDIAN BANK",SIBL0000756,NA,KUNDARA,"KAKKANAT BUILDING, OPP. KUNDALIYUR POST OFFICE MAIN ROAD KUNDALIYUR, PINCODE: 680616 KERALA, THRISSUR",2290223,KUNDARA,THRISSUR,KERALA
"SOUTH INDIAN BANK",SIBL0000755,NA,UDHAGAMANDALAM,"D.30A,WARD NO.09, PREETHI CLASSIC TOWER, COONOOR ROAD, CHARING CROSS, PINCODE: 643001  COONOOR ROAD, UDHAGAMANDALAM NILGIRI",2449555,UDHAGAMANDALAM,NILGIRI,"TAMIL NADU"
"SOUTH INDIAN BANK",SIBL0000754,NA,GUDALUR,"DOOR NO.11/367,WARD NO.13,SENSATION BUI, GUDALUR ,P.B.#: PO GUDALUR BAZAR POST,, , PINCODE: 643212,GUDALUR  TAMIL NADU, NILGIRI",263822,GUDALUR,NILGIRI,"TAMIL NADU"
"SOUTH INDIAN BANK",SIBL0000753,NA,KUNIAMUTHUR,"PALAKAD MAIN ROAD, KUNIAMUTHUR,COIMBATORE-641008",2252939,KUNIAMUTHUR,COIMBATORE,"TAMIL NADU"
"SOUTH INDIAN BANK",SIBL0000752,NA,NAMAKKAL,"337/114 B-1,KKP COMPLEX, OPP. LMR THEATRE, SALEM ROAD, NAMAKKAL-637001",276752,NAMAKKAL,NAMAKKAL,"TAMIL NADU"
"SOUTH INDIAN BANK",SIBL0000751,NA,THALTEJ-AHMEDABAD,"GF,SHOP NO. 35,36 &37,ORCHID SHOPPING MALL,THALTEJ-SHILAJ ROAD,THALTEJ,AHMEDABAD",26880505,THALTAJ,AHMADABAD,GUJARAT
"SOUTH INDIAN BANK",SIBL0000745,NA,AIZAWL,"F.KAPSANGA BUILDING,GROUND FLOOR,OPP.ASSAM RIFLE GATE, DAWRPUI,AIZAWL-796001, MIZORAM",2316327,AIZAWL,AIZAWL,MIZORAM
"SOUTH INDIAN BANK",SIBL0000744,NA,"NEW DELHI CORPORATE","A-301, III FLOOR, STATESMAN HOUSE, 148,BARAKHAMBA ROAD, NEW DELHI",23736140,DELHI,DELHI,DELHI
"SOUTH INDIAN BANK",SIBL0000743,NA,MEDIPALLI,"PLOT NO.8,P&T COLONY,MEDIPPALLI GRAM PANCHAYAT,GHATKESAR MANDAL, RANGAREDDY DIST.",27208743,MEDIPALLI,RANGAREDDY,"ANDHRA PRADESH"
"SOUTH INDIAN BANK",SIBL0000742,NA,EDULABAD,"D.NO.10-132/2, MARRIPALLY GUDA VILLAGE,EDULABAD GRAMA PANCHAYAT,GHATKESAR MANDAL,RANGAREDDY DIST",222748,GHATKESAR,RANGAREDDY,"ANDHRA PRADESH"
"SOUTH INDIAN BANK",SIBL0000741,NA,KURUVAMBALAM,"GROUND FLOOR,BUILDING NO.VI/152, ONAPPUDA, KOLATHUR VIA, KURUVAMBALAM, MALAPPURAM",202300,PULAMANTHOLE,MALAPPURAM,KERALA
"SOUTH INDIAN BANK",SIBL0000739,NA,ENKAKKAD,"BUILDING NO.10/1052,OTTUPARA,VAZHANI ROAD,WADAKKENCHERY, ENKAKKAD,PALAKKAD-680582",4234750,WADAKANCHERRY,THRISSUR,KERALA
"SOUTH INDIAN BANK",SIBL0000738,NA,PERUMATTY,"TKD BUILDING,BUILDING NO.275,NANNIODE JN., NANNIODE P O, PALAKKAD-678534",232100,VANDITHAVALAM,PALAKKAD,KERALA
"SOUTH INDIAN BANK",SIBL0000737,NA,PUTHUPARIYARAM,"SOWPARNIKA,BUILDING NO.19/6,VALLIKODE,PUTHUPARIYARAM, PALAKKAD-678594",2555508,PUTHUPPARIYARAM,PALAKKAD,KERALA
"SOUTH INDIAN BANK",SIBL0000736,NA,PALAKKAYAM,"T. JAYS COMPLEX,BUILDING NO 704/A,PALAKKAYAM P O, PALAKKAD- 678591",256066,POTTASSERY,PALAKKAD,KERALA
"SOUTH INDIAN BANK",SIBL0000735,NA,KOTTAYI,"KOTTAYI  P.O, PALAKKAD DISTRICTDOOR NO.8/609,""SHIFA ARCADE"",, KOTTAYI,PALAKKAD -678572",285040,KOTTAYI,PALAKKAD,KERALA
"SOUTH INDIAN BANK",SIBL0000734,NA,THETHIPALAYAM,"SHOP NO:103,WARD NSMK COMPLEX SIRUVANI MAIN ROAD,KALAMPALAYAM,THETHIPALAYAM, COIMBATORE-641010",2609734,KALAMPALAYAM,COIMBATORE,"TAMIL NADU"
"SOUTH INDIAN BANK",SIBL0000733,NA,SAKKIMANGALAM,"1/135, SOURASTRA COLONY, MEENATCHI NAGAR, SAKKIMANGALAM, MADURAI NORTH- 625201",22611209,MADURAI,MADURAI,"TAMIL NADU"
"SOUTH INDIAN BANK",SIBL0000732,NA,ENATHI,"NO.2/731,THIRUMANJOLAI,ENATHI, SIVAGANGAI DIST- 630561",22611209,SIVAGANGA,SIVAGANGA,"TAMIL NADU"
"SOUTH INDIAN BANK",SIBL0000731,NA,BALLUR,"345,SIPCOT ROAD,BALLUR,ANEKKAL THALUK,KARNATAKA",314014,ANEKAL,"BANGALORE URBAN",KARNATAKA
"SOUTH INDIAN BANK",SIBL0000730,NA,PERUMTHURUTHY,"PUSHPAGIRI DENTAL┬á COLLEGE,PERUMTHURUTHY,THIRUVALLA,PIN 689107",2645733,THIRUVALLA,PATHANAMTHITTA,KERALA
"SOUTH INDIAN BANK",SIBL0000729,NA,VADAKKANKULAM,"S A RAJA POLYTECHNIC COLLEGE┬á,┬áVADAKKANKULAM.P.O,TIRUNELVELI DISTRICT, PIN 627116",232482,VALLIOOR,TIRUNELVALI,"TAMIL NADU"
"SOUTH INDIAN BANK",SIBL0000728,NA,"KOLKATA CORPORATE","2,CHURCH LANE,KOLKATA-700001",22611209,KOLKATA,KOLKATA,"WEST BENGAL"
"SOUTH INDIAN BANK",SIBL0000727,380059003,"AHMEDABAD SATELLITE ROAD","SHOP NO. 5 7 6, ISCON PLAZA, SATELLITE ROAD, OPP. STAR INDIA BAZAR, NEAR SUNDAVAN, AHMEDABAD ┬û 380015",26925501,AHMEDABAD,AHMEDABAD,GUJARAT
"SOUTH INDIAN BANK",SIBL0000726,NA,"HI TEC CITY","1ST FLOOR, H NO:2-38/A, P NO:8, GUTTALA BEGUMPET VILLAGE, MADHAPUR MAIN RD, HYDERABAD",23110726,BEGUMPET,KARIMNAGAR,"ANDHRA PRADESH"
"SOUTH INDIAN BANK",SIBL0000725,110059029,"DELHI SHALIMAR BAGH","BT-1, SHALIMAR BAGH RESIDENTIAL SCHEME,OPP DT CINEMAS, DELHI 110088",27486296,DELHI,DELHI,DELHI
"SOUTH INDIAN BANK",SIBL0000724,110059031,"DELHI MODEL TOWN","PLOT NO. 22, BLOCK C- 5,MODEL TOWN PHASE 3,OPP POST OFFICE, DELHI- 110009",27232161,DELHI,DELHI,DELHI
"SOUTH INDIAN BANK",SIBL0000723,NA,"NEW DELHI - TILAK NAGAR","WZ-116, PLOT NO. 61-H, MEENAKSHI GARDEN, NAZAFGARH ROAD, TILAK NAGAR, NEW DELHI 110018",28124195,DELHI,DELHI,DELHI
"SOUTH INDIAN BANK",SIBL0000722,NA,SOMAJIGUDA,"GROUND FLOOR, D NO 6-3-1085/D/G1, DEGA TOWERS, RAJ BHAVAN ROAD, SOMAJIGUDA, HYDERABAD-500082",23412722,HYDERABAD,HYDERABAD,"ANDHRA PRADESH"
"SOUTH INDIAN BANK",SIBL0000721,NA,THAMPANOOR,"HOTEL SAFA INTERNATIONAL BUILDING , TC┬á25/1075, NEAR ARISTO JUNCTION, EAST THAMPANOOR, TRIVANDRUM┬á,695014.",2329585,THIRUVANANTHAPURAM,THIRUVANANTHAPURAM,KERALA
"SOUTH INDIAN BANK",SIBL0000720,NA,VIRUDHUNAGAR,"128/21, RAMAMOORTHY ROAD, VIRUDHUNAGAR-626001",242720,VIRUDHUNAGAR,VIRUDHUNAGAR,"TAMIL NADU"
"SOUTH INDIAN BANK",SIBL0000719,NA,VASUNDHARA,"COMMERICIAL PLOT NO13 /C-9, SEC-13 , VASUNDHARA,GHAZIABAD (DIST) U.P-201 012",4166227,VASUNDHARA,ETAH,"UTTAR PRADESH"
"SOUTH INDIAN BANK",SIBL0000718,NA,NATTAKOM,"┬áOPP:MALAYALA MANORAMA,NATTAKOM P.O, M.C ROAD,KOTTAYAM,┬áPIN-686013",2307307,NATTAKAM,KOTTAYAM,KERALA
"SOUTH INDIAN BANK",SIBL0000717,NA,MUNNAR,"BUILDING NO.3454A, WARD NO.9,NADAYAR ROAD, MUNNAR,IDUKKI -685612",230675,MUNNAR,IDUKKI,KERALA
"SOUTH INDIAN BANK",SIBL0000716,NA,HUBLI,"CTS 2971, ELEVEETY BUILDING,OPP. HUBLI-DHARWAD MUNCIPAL OFFICE,SRI SIDDAPA KAMBLI ROAD ,HUBLI-580020,DHARWAD DISTRICT,KARNATAKA",2362770,HUBLI-DHARWAD,DHARWAD,KARNATAKA
"SOUTH INDIAN BANK",SIBL0000715,NA,"BANGALORE CORPORATE","23/1,II FLOOR BABA CHAMBERS,RICHMOND ROAD BANGALORE 560025 ,KARNATAKA STATE",22221040,BANGALORE,"BANGALORE URBAN",KARNATAKA
"SOUTH INDIAN BANK",SIBL0000714,NA,ANAND,"R.S. PLATINUM, G1-G2, NEAR BUS DEPOT, BHALEJ ROAD, ANAND",255676,ANAND,ANAND,GUJARAT
"SOUTH INDIAN BANK",SIBL0000713,NA,JAMNAGAR,"YOGI MOTORS NEAR HOTEL ARAM, OPP. DKV CIRCLE, P.N. MARG, JAMNAGAR ┬û 361 008",2550049,JAMNAGAR,JAMNAGAR,GUJARAT
"SOUTH INDIAN BANK",SIBL0000712,370059051,BHUJ,"B A BHAGAT COMPLEX, OPP. DENA BANK, LAL TEKRY, BHUJ-370001,KUTCH,GUJARAT",220712,BHUJ,KACHCHH,GUJARAT
"SOUTH INDIAN BANK",SIBL0000711,NA,THENI,"DOOR NO:OLD:407/NEW:343,PERIYAKULAM ROAD, (NEHRUJI ROAD),OPP. CONVENT HOSPITAL,THENI 625 531.",262055,THENI,THENI,"TAMIL NADU"
"SOUTH INDIAN BANK",SIBL0000710,NA,RAJAPALAYAM,"454 C-D, THENKASI ROAD, OPP CHITRA HOSPITAL, RAJAPALAYAM, VIRUDHUNAGAR",232526,RAJAPALAIYAM,VIRUDHUNAGAR,"TAMIL NADU"
"SOUTH INDIAN BANK",SIBL0000709,NA,SIVAKASI,"940 C, P.K.N ROAD, BYE PASS ROAD, SIVAKASI (EAST) ┬û 626 189",275567,SIVAKASI,VIRUDHUNAGAR,"TAMIL NADU"
"SOUTH INDIAN BANK",SIBL0000708,NA,CHOONDACHERRY,"SJCET BUILDING,COONDANCHERRY P O,ST JOSEPHS COLLEGE OF ENGG CAMPUS,CHOONDACHE",239409,BHARANANGANAM,KOTTAYAM,KERALA
"SOUTH INDIAN BANK",SIBL0000707,NA,"AMRITHAPURI (VALLIKAVU)","SB/WARD NO.1, THIRUMUTTATHU, CLAPPANA PO, VALLIKAVU, PIN CODE┬á 690525",2899797,OACHIRA,KOLLAM,KERALA
"SOUTH INDIAN BANK",SIBL0000706,680059068,PALUVAI,"MEHSAJ COMPLEX, PALUVAI, THAIKKAD VILLAGE, CHAVAKKAD,THRISSUR-680522",2553545,GURUVAYUR,THRISSUR,KERALA
"SOUTH INDIAN BANK",SIBL0000705,NA,CHERUVALLY,"DOOR NO.499/CP/XI, PAZHAYIDOM, CHERUVALLY - 686543, KOTTAYAM",263250,MANIMALA,KOTTAYAM,KERALA
"SOUTH INDIAN BANK",SIBL0000704,NA,ACHOORANAM,"KMS BLDG,6TH MILE, ACHOORANAM  P O,673 575,VITHIRI,WAYANAD DT, KERALA STATE",6251300,ACHOORANAM,WAYANAD,KERALA
"SOUTH INDIAN BANK",SIBL0000703,NA,PADUPPU,"D.NO.KP IX 102A,B, PADUPPU 671 541 , KUTTIKOLE PANCHAYATH ,KASARAGOD DT.,KERALA STATE",200111,BANDADKA,KASARAGOD,KERALA
"SOUTH INDIAN BANK",SIBL0000702,NA,KANKOLE,"NEAR 110 KV SUBSTATION,KANKOLE PO,670 207,KANNUR DT.,KERALA STATE",267666,PAYYANNUR,CANNUR,KERALA
"SOUTH INDIAN BANK",SIBL0000701,NA,"NEYYAR DAM","KALLIKKAD JUNCTION, MYLAKARA P.O, THIRUVANATHAPURAM - 695571",2271221,KALLIKKAD,THIRUVANANTHAPURAM,KERALA
"SOUTH INDIAN BANK",SIBL0000700,NA,KODUVAZHANNUR,"PP 17/955, ANGANA, KODUVAZHANNUR-695612, THIRUVANANTHAPURAM",2678339,KARETTE,THIRUVANANTHAPURAM,KERALA
"SOUTH INDIAN BANK",SIBL0000699,500059028,VATTINAGULAPALLI,"D.NO.1/41/5, VATTINAGULAPALLI VILLAGE,RAJENDRA NAGAR MANDAL,HYDERABAD-500075 R.R.DIST., ANDHRA PRADESH",3234283,HYDERABAD,HYDERABAD,"ANDHRA PRADESH"
"SOUTH INDIAN BANK",SIBL0000698,500059027,KHANAPUR,"D.NO. 4-1, KHANAPUR VILLAGE,RAJENDRA NAGAR MANDAL,HYDERABAD-500075 R.R,.DIST., ANDHRA PRADESH",234282,KHANAPUR,ADILABAD,"ANDHRA PRADESH"
"SOUTH INDIAN BANK",SIBL0000697,500059026,KANDLAKOI,"SURVEY NO.188,KANDLAKOI VILLAGE,MEDCHEL MANDAL,HYDERABAD ┬û 501401 R.R.DIST., ANDHRA PRADESH",200097,MEDCHAL,RANGAREDDY,"ANDHRA PRADESH"
"SOUTH INDIAN BANK",SIBL0000696,500059025,MEDBOWLI,"SURVEY NO.8, TKR EDUCATIONAL SOCIETY,MEDBOWLI VILLAGE,SAROOR NAGAR MANDAL,HYDERABAD -500097 R.R.DIST., ANDHRA PRADESH",24094696,HYDERABAD,HYDERABAD,"ANDHRA PRADESH"
"SOUTH INDIAN BANK",SIBL0000695,500059024,CHINTALKUNTA,"D.NO.5-5-724/1 & 5-5-724/1/A,CHINTALKUNTA,L.B.NAGAR MUNCIPALITY,HYDERABAD ┬û 500 024 R.R. DIST., ANDHRA PRADESH",24127888,CHINTAKUNTA,RANGAREDDY,"ANDHRA PRADESH"
"SOUTH INDIAN BANK",SIBL0000694,500059023,PALMAKUL,"H.NO.7-73/A, SURVEY NO.106 (NEW),PALMAKUL VILLAGE,SHAMSHABAD MANDAL,HYDERABAD-509325 R.R.DIST., ANDHRA PRADESH",257333,PALMAKUL,MEDAK,"ANDHRA PRADESH"
"SOUTH INDIAN BANK",SIBL0000693,500059022,ANNOJIGUDA,"PLOT NO.4, 5 & 6,ANNOJIGUDA VILLAGE,POCHARAM PANCHAYAT,GHATKESAR MANDAL,HYDERABAD, R.R. DIST-501301. ANDHRA PRADESH",200266,HYDERABAD,HYDERABAD,"ANDHRA PRADESH"
"SOUTH INDIAN BANK",SIBL0000692,500059021,BADANGPET,"PLOT NO.14, BADANGPET VILLAGE,SAROOR NAGAR MANDAL,HYDERABAD-500058 R.R.DIST., ANDHRA PRADESH",245692,HYDERABAD,HYDERABAD,"ANDHRA PRADESH"
"SOUTH INDIAN BANK",SIBL0000691,500059020,BAHADURPALLI,"PLOT NO.5, 6 AND 7,BAHADURPALLI VILLAGE,QUTBULLAPUR MANDAL,HYDERABAD-500043 R.R.DIST., ANDHRA PRADESH",7382602850,HYDERABAD,HYDERABAD,"ANDHRA PRADESH"
"SOUTH INDIAN BANK",SIBL0000690,500059019,MANCHIREVULA,"PLOT NO.4, MANCHIREVULA VILLAGE,RAJENDRA NAGAR MANDAL,HYDERABAD-500089 R.R.DIST., ANDHRA PRADESH",3233282,HYDERABAD,HYDERABAD,"ANDHRA PRADESH"
"SOUTH INDIAN BANK",SIBL0000689,500059030,ALMASGUDA,"H.NO.1-34, ALMASGUDA VILLAGE,SAROOR NAGAR MANDAL,HYDERABAD-500058 R.R.DIST., ANDHRA PRADESH",244117,HYDERABAD,HYDERABAD,"ANDHRA PRADESH"
"SOUTH INDIAN BANK",SIBL0000688,500059029,BACHUPALLI,"SURVEY NOS. 8, 10 & 11,BESIDE SILVER OAKS SCHOOL,BACHUPALLI PANCHAYAT,QUTBULLAPUR MANDAL,HYDERABAD ┬û 500090 R.R.DIST., ANDHRA PRADESH",9179322120,HYDERABAD,HYDERABAD,"ANDHRA PRADESH"
"SOUTH INDIAN BANK",SIBL0000687,600059035,MEDAVAKKAM,"PLOT B. TAMBARAM-VELACHERRY MAIN┬á,┬á MEDAVAKKAM,CHENNAI -600100, KANCHEEPURAM,TAMILNAD",22771045,TAMBARAM,KANCHEEPURAM,"TAMIL NADU"
"SOUTH INDIAN BANK",SIBL0000686,NA,DIMAPUR,"195, CIRCULAR ROAD, BISHOP'S HOUSE BUILDING, DIMAPUR-797112, NAGALAND",224917,DIMAPUR,DIMAPUR,NAGALAND
"SOUTH INDIAN BANK",SIBL0000684,NA,VALASARAVAKKAM,"DOOR NO. 1, GROUND FLOOR,KAMARAJ SALAI,┬áRAMAKRISHNA NAGAR, VALASARAVAKKAM, CHENNAI 600 098.",24861101,VALASARAVAKKAM,THIRUVALLUR,"TAMIL NADU"
"SOUTH INDIAN BANK",SIBL0000683,NA,SHOLINGANALLUR,"DOOR NO. 187, OLD MAHABALIPURAM ROAD┬á ( OMR┬á),┬áSHOLINGANALLUR, CHENNAI┬á 600 119.┬á",24502069,SHOLINGANALLUR,KANCHEEPURAM,"TAMIL NADU"
"SOUTH INDIAN BANK",SIBL0000682,NA,NEELANKARAI,"GRND FLR,DOOR NO:2/630A ,SULTAN AHMED STRT,NEELANKARAI,EAST COAST RD,CHENNAI 41",24495730,SHOLINGANALLUR,KANCHEEPURAM,"TAMIL NADU"
"SOUTH INDIAN BANK",SIBL0000681,500059032,IBRAHIMPATNAM,"PLOT NO.54, MANCHAL ROAD, IBRAHIMPATNAM VILLAGE & MANDAL, HYDERABAD-501506 R.R.DIST.,, ANDHRA PRADESH",222225,IBRAHIMPATNAM,KARIMNAGAR,"ANDHRA PRADESH"
"SOUTH INDIAN BANK",SIBL0000680,500059031,GHATKESAR,"D.NO.8-102, BLOCK  8,GHATKESAR PANCHAYAT,HYDERABAD ┬û 501 301,R.R.DIST, ANDHRA PRADESH",224333,GHATKESAR,RANGAREDDY,"ANDHRA PRADESH"
"SOUTH INDIAN BANK",SIBL0000679,400059018,"VASAI (EAST)","VASAI (EAST) BRANCH, HOUSE NO. 1688, GROUND FLOOR, GOKHIWARE NAKA VASAI (EAST)",2464991,VASAI,THANE,MAHARASHTRA
"SOUTH INDIAN BANK",SIBL0000678,NA,NEDUMKANDAM,"BUILDING NO:9/33/E, CENTRE POINT, OPP.CHELLAM RESIDENCY, NEDUMKANDAM,IDUKKI",234990,NEDUMKANDAM,IDUKKI,KERALA
"SOUTH INDIAN BANK",SIBL0000677,NA,MARADU,"BUILDING NO. 1, KALATHARA JUNCTION,WARD NO.14,NEAR ABAD NUCLEUS,MARADU P.O., 682304",2706550,MARADU,ERNAKULAM,KERALA
"SOUTH INDIAN BANK",SIBL0000676,NA,PIRAVOM,"AMMAVAN CHAMBERS, PIRAVOM MUVATTUPUZHA ROAD,OPPOSITE OLD PETROL PUMP, PIRAVOM 686664",2241440,PIRAVOM,ERNAKULAM,KERALA
"SOUTH INDIAN BANK",SIBL0000675,NA,KANJOOR,"CHAKKARAKKADAN BUILDING, NEAR POST OFFICE, KANJOOR, ERNAKULAM",2467009,KANJOOR,ERNAKULAM,KERALA
"SOUTH INDIAN BANK",SIBL0000674,NA,MANJAPRA,"VII / 193, ST. GEORGE JACOBITE CHURCH BUILDING,  MANJPARA P.O ERNAKULAM DIST. 683 581",2691700,MANJAPRA,ERNAKULAM,KERALA
"SOUTH INDIAN BANK",SIBL0000673,NA,KARUVANCHAL,"1ST FLOOR, HARITHAM COMPLEX, OPP. ST.JOSEPH'S HOSPITAL, KARUVANCHAL-670571, KANNUR",2247447,ALAKODE,CANNUR,KERALA
"SOUTH INDIAN BANK",SIBL0000672,NA,SREEKANDAPURAM,"NEAR GOVT. HIGHER SECONDARY SCHOOL, SREEKANDAPURAM,KANNUR",2231277,SREEKANDAPURAM,CANNUR,KERALA
"SOUTH INDIAN BANK",SIBL0000671,NA,CHERKALA,"BUILDING NO.C.P.XV/464, AJMAL SHOPPING ARCADE, CHENGALA P.O, CHERKALA, KASARAGOD, KERALA-671541",4284800,CHEGALA,KASARAGOD,KERALA
"SOUTH INDIAN BANK",SIBL0000670,NA,BALARAMAPURAM,"III/1361, ARS COMPLEX, KATTAKADA ROAD, BALARAMAPURAM-695501, THIRUVANANTHAPURAM",2400309,BALARAMAPURAM,THIRUVANANTHAPURAM,KERALA
"SOUTH INDIAN BANK",SIBL0000669,NA,PUNALUR,"M GEORGE BUILDING, POLSON JUNCTION, CHEMANTHOOR, PUNALUR-691305, KOLLAM",2222343,PUNALUR,KOLLAM,KERALA
"SOUTH INDIAN BANK",SIBL0000668,NA,AYUR,"KEEZHOOTTU BUILDING,M C ROAD, AYUR P.O,DOOR NO.EP590,WARD NO EP XIII/590,AYUR",2292138,AYOOR,KOLLAM,KERALA
"SOUTH INDIAN BANK",SIBL0000667,NA,VENJARAMOOD,"NP XI/65, VAYYATE JUNCTION,VENJARAMOOD-695607, THIRUVANANTHAPURAM",2870069,VEMBAYAM,THIRUVANANTHAPURAM,KERALA
"SOUTH INDIAN BANK",SIBL0000666,NA,KILIMANOOR,"PP IX 1507, M C ROAD, PAPALA, KILIMANOOR-695601, THIRUVANANTHAPURAM",2670009,KILIMANOOR,THIRUVANANTHAPURAM,KERALA
"SOUTH INDIAN BANK",SIBL0000665,NA,PONKUNNAM,"APHIYALIL PLAZA, OPP. VAIDHUDHI BHAVAN, K K ROAD,PONKUNNAM,KOTTAYAM",224404,PONKUNNAM,KOTTAYAM,KERALA
"SOUTH INDIAN BANK",SIBL0000664,560059025,ANEKAL,"PARIHAR COMPLEX, OPP. IOC PETROL PUMB, CHANDAPURA ROAD, ANEKAL, BANGLORE, KARNATAKA- 652 106",27841877,ANEKAL,"BANGALORE URBAN",KARNATAKA
"SOUTH INDIAN BANK",SIBL0000663,NA,SARAVANAMPATTY,"NO.11266, THUDIYALUR ROAD, SARAVANAMPATTY, COIMBATORE,TAMILNADU",2668660,THUDIYALOOR,COIMBATORE,"TAMIL NADU"
"SOUTH INDIAN BANK",SIBL0000662,NA,PALLADAM,"NO.30A, TRICHY ROAD ,PALLADAM,TIRUPUR DIST, TAMILNADU",252488,PALLADAM,COIMBATORE,"TAMIL NADU"
"SOUTH INDIAN BANK",SIBL0000661,NA,PONDA,"SHOP NO-6,7,8,9,88&89, GROUND FLOOR ,PONDA COMMERCE CENTRE, GOMANT NAGAR,PONDA, NORTH GOA-403401",2311272,PONDA,"NORTH GOA",GOA
"SOUTH INDIAN BANK",SIBL0000660,NA,PATTAMBI,"1ST FLOOR, SUDARSAN BUILDING, MELE PATTAMI, PALAKKAD",2211900,PATTAMBI,PALAKKAD,KERALA
"SOUTH INDIAN BANK",SIBL0000658,695059001,"TRIVANDRUM SERVICE BRANCH","HOTEL SAFA INTERNATIONAL BUILDING, 25/1075, NEAR ARISTO JUNCTION, EAST THAMPANOOR TRIVANDRUM 695 014",2329581,THIRUVANANTHAPURAM,THIRUVANANTHAPURAM,KERALA
"SOUTH INDIAN BANK",SIBL0000657,670059003,"SOUTH BAZAR KANNUR","SB 5/1-2,NEAR MAKKANI , SOUTH BAZAR, KANNUR KERALA-670 002",2767645,CANNUR,CANNUR,KERALA
"SOUTH INDIAN BANK",SIBL0000656,NA,"KOLKATA BIDHAN NAGAR","PLOT NO 7, BLOCK-EN,  SECTOR 5, SALT LAKE  BIDHAN NAGAR - KOLKATA 700091",23576547,BIDHANNAGAR,DARJILING,"WEST BENGAL"
"SOUTH INDIAN BANK",SIBL0000655,NA,"BANGALORE COX TOWN","┬á 61,WHEELER ROAD , BANGALORE KARNATAKA 560005",25476463,BANGALORE,"BANGALORE URBAN",KARNATAKA
"SOUTH INDIAN BANK",SIBL0000654,NA,"CHENNAI-ASHOK NAGAR","59/107, 4TH AVENUE, ASHOK NAGAR CHENNAI TAMIL NADU - 600 083",24711288,CHENNAI,CHENNAI,"TAMIL NADU"
"SOUTH INDIAN BANK",SIBL0000653,NA,THEVARA,"DOOR NO. 1570 A/1570 D, KANJIRAPARAMBIL BUILDINGS THEVARA ERNAKULAM.-682015",2665850,KOCHI,ERNAKULAM,KERALA
"SOUTH INDIAN BANK",SIBL0000652,500059017,"BANJARA HILLS","PLOT NO.13, N.N.R ARCADE, 1ST FLOOR, ROAD NO.10, BANJARA HILLS,HYDERABAD",23320668,HYDERABAD,HYDERABAD,"ANDHRA PRADESH"
"SOUTH INDIAN BANK",SIBL0000651,110059027,"NARAINA VIHAR","E 20,GIRDHARI LAL GOSWAMI MARG, OPPOSITE BIKANERVALA, NARAINA VIHAR",25895186,DELHI,DELHI,DELHI
"SOUTH INDIAN BANK",SIBL0000650,NA,"SURAT UDHNA","GROUND FLOOR, SNS HOUSE, OOP. SILICON SHOPPER COMPLEX, UDHNA TEEN RASTA, UDHNA SURAT GUJARAT-394 210",2270072,SURAT,SURAT,GUJARAT
"SOUTH INDIAN BANK",SIBL0000649,NA,OLARIKKARA,"TC VIII/4/10, 1ST FLOOR, THATTIL ARCADE, P.O.PULLAZHI, OLARIKKARA, THRISSUR-680012, KERALA",2365220,OLARIKKRA,THRISSUR,KERALA
"SOUTH INDIAN BANK",SIBL0000648,679059252,CHERPULASSERY,"9/17, PATTAMBI ROAD CHERPULASSERY , PALAKKAD DT-679503",2280648,CHERPALACHERRY,PALAKKAD,KERALA
"SOUTH INDIAN BANK",SIBL0000647,NA,MALA,"XV/773, NEAR ANUPAMA RESTAURANT MAIN ROAD, MALA THRISSUR DISTRICT, KERALA",2895040,MALA,THRISSUR,KERALA
"SOUTH INDIAN BANK",SIBL0000646,NA,KORATTY,"468/C, WARD XIV,OPP.GOVT OF INDIA PRESS NH-47, KORATTY-  THRISSUR, KERALA680308",2733051,KORATTY,THRISSUR,KERALA
"SOUTH INDIAN BANK",SIBL0000644,NA,KALLAMBALAM,"SHINE ARCADE KALLAMBALAM- 69560,",2691144,KALLAMBALAM,THIRUVANANTHAPURAM,KERALA
"SOUTH INDIAN BANK",SIBL0000643,NA,OACHIRA,"S.D BUILDING, 463/A, ┬áMARKET ROAD,(OLD HIGHWAY),OACHIRA, KOLLAM DISTRICT,PIN-690526, KERALA",2690088,OACHIRA,KOLLAM,KERALA
"SOUTH INDIAN BANK",SIBL0000642,NA,PARIPALLY,"KP/XIII/322 A, ┬á D&D TOWER,┬á┬áMAIN ROAD, PARIPALLY- 695574",2572223,PARIPALLY,KOLLAM,KERALA
"SOUTH INDIAN BANK",SIBL0000641,NA,MANARCAUD,"VELIANKUNNATH BUILDING KIDANGOOR ROAD MANARCAUD KOTTAYAM-686019┬á",2373351,MANARCAUD,KOTTAYAM,KERALA
"SOUTH INDIAN BANK",SIBL0000640,NA,MUNDAKKAYAM,"KUTTENCHIRAYIL BUILDINGS,┬á┬á NH 220, MUNDAKKAYAM KOTTAYAM - PIN 686513",272880,MUNDAKAYAM,KOTTAYAM,KERALA
"SOUTH INDIAN BANK",SIBL0000639,NA,KOTHANALLOORE,"THAYIL BUILDING KOTHANALLOOR, KOTTAYAM DIST - 686632",245614,ETTUMANOOR,KOTTAYAM,KERALA
"SOUTH INDIAN BANK",SIBL0000637,NA,KARUKUTTY,"KOORANS BUILDING 12/594&595 RAILWAY STATION JN. KARUKUTTY ERNAKULAM  683576",2613121,KARUKUTTY,ERNAKULAM,KERALA
"SOUTH INDIAN BANK",SIBL0000636,NA,PATTIMATTOM,"CEEPEES COMPLEX,  PATTIMATTOM,  ERNAKULAM - 683562",2687132,KOLENCHERRY,ERNAKULAM,KERALA
"SOUTH INDIAN BANK",SIBL0000635,NA,KOOTHATTUKULAM,"EDINJUKUZHIYIL BUILDING, CENTRAL JUNCTION, KOOTHATTUKULAM - 686 662",2252192,KOOTHATTUKULAM,ERNAKULAM,KERALA
"SOUTH INDIAN BANK",SIBL0000634,NA,VARAPUZHA,"THALIYATH BUILDING, PUTHENPALLY VARAPUZHA - 683517",2516332,VARAPUZHA,ERNAKULAM,KERALA
"SOUTH INDIAN BANK",SIBL0000633,403059005,"VASCO-DA-GAMA (MORMUGAO)","GROUND FLOOR,MELQUIDES BUILDING,FR.JOSEPH VAZ ROAD,SOUTH GOA,GOA-403802",2500880,MORMUGAO,"SOUTH GOA",GOA
"SOUTH INDIAN BANK",SIBL0000632,671059052,KANHANGAD,"ALFLAH COMPLEX, T.B.ROAD JUNCTION, MAIN ROAD, KANHANGAD KASARAGOD-671315",2205866,KANHANGAD,KASARAGOD,KERALA
"SOUTH INDIAN BANK",SIBL0000631,NA,GANDHIDHAM,"PLOT NO. 274, WARD NO. 12/B MAIN MARKET, HINDUJA CHAMBERS, GANDHIDHAM - 370 201",229030,GANDHIDHAM,KACHCHH,GUJARAT
"SOUTH INDIAN BANK",SIBL0000630,576059002,UDUPI,"GUJJADI TOWERS, M G ROAD, KALSANKA / KADIYALI SECTOR,UDUPI-576102",2531947,UDUPI,UDIPI,KARNATAKA
"SOUTH INDIAN BANK",SIBL0000629,NA,PALLAVARAM,"NO. 9, PAMMAL MAIN ROAD PALLAVARAM CHENNAI TAMILNADU - 600  043",22641109,PALLAVARAM,KANCHEEPURAM,"TAMIL NADU"
"SOUTH INDIAN BANK",SIBL0000628,505059002,KARIMNAGAR,"#2-6-299,GROUND FLOOR, A K ESTATES, OPP.AXIS BANK, NEAR MANAIR HOTEL, MUKARAMPURA,KARIMNAGAR DISTRICT, ANDHRAPRADESH-505 001",6450628,KARIMNAGAR,KARIMNAGAR,"ANDHRA PRADESH"
"SOUTH INDIAN BANK",SIBL0000627,211059002,ALLAHABAD,"53/4, CIVIL STATION B NO.37, UPPER GROUND FLOOR, COLVIN ROAD, CIVIL LINES, ALLAHABAD-211001",2103886,ALLAHABAD,ALLAHABAD,"UTTAR PRADESH"
"SOUTH INDIAN BANK",SIBL0000626,NA,DISPUR,"KAY M PLAZA, G.S ROAD  GUWAHATI, KAMRUP,ASSAM - 781 006",2232518,GUWAHATI,KAMRUP,ASSAM
"SOUTH INDIAN BANK",SIBL0000625,NA,"MADURAI- ANNA NAGAR","NO. 37 -A, GROUND FLOOR, NEW LIC BUILDING, 80 FEET ROAD, ANNA NAGAR , MADURAI - 625020",2527444,MADURAI,MADURAI,"TAMIL NADU"
"SOUTH INDIAN BANK",SIBL0000624,695059013,"TECHNOPARK TRIVANDRUM","TECHNOMALL TECHNOPARK KAZHAKKUTTAM THIRUVANANTHAPURAM 695 581",2527576,KAZHAKUTTAM,THIRUVANANTHAPURAM,KERALA
"SOUTH INDIAN BANK",SIBL0000623,679059809,PANDIKKAD,"HIBA ASIA TOURIST HOME NEAR MAIN JUNCTIONPERINTHALMANNA ROAD PANDIKKAD PO MALAPPURAM 679 322",2785500,PANDIKKAD,MALAPPURAM,KERALA
"SOUTH INDIAN BANK",SIBL0000622,NA,POOKOTTUPADAM,"SHAIJ BUILDINGS, KALIKAVU ROAD, POOKOTTUPADAM 679332 MALAPPURAM",260020,NILAMBUR,MALAPPURAM,KERALA
"SOUTH INDIAN BANK",SIBL0000621,676059810,KUTTIPPURAM,"K T TOWERS BYE PASS JUNCTION KUTTIPPURAM MALAPPURAM 679 571",2607450,KUTTIPURAM,MALAPPURAM,KERALA
"SOUTH INDIAN BANK",SIBL0000620,676059807,KIZHISSERY,"KOTTA TOWER NEAR TELEPHONE EXCHANGE KIZHISSERY 673 641 MALAPPURAM",2757550,MALAPPURAM,MALAPURAM,KERALA
"SOUTH INDIAN BANK",SIBL0000619,676059808,MONGAM,"446/20 BLAST K T BUILDING MORAYUR VILLAGE MALAPPURAM DT 676519",2771666,MALAPPURAM,MALAPURAM,KERALA
"SOUTH INDIAN BANK",SIBL0000618,NA,MEDCHAL,"NO. 122 MAIN ROAD MEDCHAL VILLAGE RENGAREDDY DIST.  ANDHRAPRADESH",220124,MEDCHAL,RANGAREDDY,"ANDHRA PRADESH"
"SOUTH INDIAN BANK",SIBL0000617,617059802,UDUMA,"WARD NO. XI ROOM NO 496 YEMPEES COMPLEX MAIN ROAD PALAKUNNU BEKAL KASARGOD DT",2239000,UDMA,KASARAGOD,KERALA
"SOUTH INDIAN BANK",SIBL0000616,670059805,THRIKKARIPUR,"ROYAL COMPLEX, MAIN ROAD THRIKKARIPUR KASARGOD 671 310",2213640,KASARAGOD,KASARAGOD,KERALA
"SOUTH INDIAN BANK",SIBL0000615,NA,IRIKKUR,"FIBNA COMPLEX, MAIN ROAD IRIKKUR TOWN KANNUR, 670 593",2297100,IRIKKUR,CANNUR,KERALA
"SOUTH INDIAN BANK",SIBL0000614,670059807,PERAVOOR,"WARD NO. II B.P/6/416 /D VELLARVALLY VILLAGE NEAR PERAVOOR POLICE STATION PERAVOOR POST KANNUR 670673",2446330,PERAVOOR,CANNUR,KERALA
"SOUTH INDIAN BANK",SIBL0000613,670059803,CHERUPUZHA,"SANILAS COMPLEX MAIN ROAD CHERUPUZHA KANNUR 670 511",240505,CHERUPUZHA,CANNUR,KERALA
"SOUTH INDIAN BANK",SIBL0000612,670059804,PILATHARA,"SILKY FASHION BUILDINGS OPP. KAIRALI AUDITORIUM PILATHARA 670 703",2802400,PAYYANNUR,CANNUR,KERALA
"SOUTH INDIAN BANK",SIBL0000611,670059806,IRITTY,"MOIDEEN'S BIULDINGS PERAVOOR ROAD PAYANCHERY JUNCTION IRITTY TOWN KANNUR 670 703",2493322,"KIZHOOR IRITTY",CANNUR,KERALA
"SOUTH INDIAN BANK",SIBL0000610,NA,ADIMALI,"XII / 337 B, SIVARAM S BUILDING , BUS STAND JUNCTION NH-49 ADIMALI IDUKKI 685561",223383,IDIKKI,IDUKKI,KERALA
"SOUTH INDIAN BANK",SIBL0000609,682059036,"VYPIN( MURIKKUMPADAM )","99C, ASWATHY BUILDINGS NEAR SEAFOOD BUS STOP AZHEEKKKAL P O MURIKKUMPADAM KOCHI 682508",2502700,KOCHI,ERNAKULAM,KERALA
"SOUTH INDIAN BANK",SIBL0000608,NA,VADASSERIKKARA,"VIII/520 A, MUNDAPLAKKAL BUILDING , VADASSERIKKARA SABARIMALA ROAD 689662",252480,VADASSERIKARA,PATHANAMTHITTA,KERALA
"SOUTH INDIAN BANK",SIBL0000607,NA,ETTUMANOOR,"VETTOOR SHOPINGG COMPLEX NEAR  KSRTCBUS STAND  MC ROAD ETTUMANOOR .P.O  KOTTAYAM (DIST)686 631",2534343,ETTUMANOOR,KOTTAYAM,KERALA
"SOUTH INDIAN BANK",SIBL0000606,NA,AROOR,"K K BUILDING NANDANAM AROOR, ALAPUZHA ┬û 689 534",2876040,AROOR,ALAPUZZHA,KERALA
"SOUTH INDIAN BANK",SIBL0000605,NA,MANANTHAVADY,"MP VI /801, D,D1,D2,D3,D4, & D5 SANJOS SHOPPING COMLEX ST. JOSEPH HOSPITAL ROAD MANANTHAVADI WAYANAD 670645",242260,MANANTHAVADY,WAYANAD,KERALA
"SOUTH INDIAN BANK",SIBL0000604,NA,"SULTHAN BATHERY","P K RESIDENCY, MAIN ROAD SULTHAN BATTERY WAYANAD DT. 673 592",265696,SULTHANBATHERY,WAYANAD,KERALA
"SOUTH INDIAN BANK",SIBL0000603,NA,KATTAPPANA,"KGEES BUILDING ERATTAYAR ROAD KATTAPPANA IDUKI 685508",274457,KATTAPPANA,IDUKKI,KERALA
"SOUTH INDIAN BANK",SIBL0000602,682059035,NEDUMBASSERI,"V/1051, VIP PANORAMA ARCADE MAIN  ROAD ATHANI ERNAKULAM 683585",2477575,ALUVA,ERNAKULAM,KERALA
"SOUTH INDIAN BANK",SIBL0000601,636059502,OMALUR,"SY. NO 239/11. OPP TO SALEM DISTRICT CENTRAL COOPERATIVE BANK, DHARMAPURI ROAD OMALLUR, SALEM DIST. TAMILNADU 636012",220378,OMALUR,SALEM,"TAMIL NADU"
"SOUTH INDIAN BANK",SIBL0000600,NA,ELAMPILLAI,"10/74 SMR BUILDING OPP. BUSSTAND ELAMPILLAI SALEM DIST. 637502",2493600,ELAMPILLAI,SALEM,"TAMIL NADU"
"SOUTH INDIAN BANK",SIBL0000599,600059026,CHENNAI-PORUR,"NO.133, M S R COMPLEX,KUNDRATHUR HIGH ROAD,┬áPORUR, ┬á THIRUVALLUR┬á (┬áDT┬á),CHENNAI.600 116",24825990,PORUR,THIRUVALLUR,"TAMIL NADU"
"SOUTH INDIAN BANK",SIBL0000598,NA,"GANDI MAISAMMA","GROUND FLOOR, BGR ARCADE 3-93/4 D, GANDI MAISAMMA X ROAD DOMMARA POCHAMPALLY GRAM PANCHAYATH R.R.DIST, HYDERABAD",255121,BOWRAMPET,RANGAREDDY,"ANDHRA PRADESH"
"SOUTH INDIAN BANK",SIBL0000597,500059015,NIZAMPET,"H. NO. 3-147/35, MAIN ROAD, NIZAMPET, QUTBULLAPUR, MANDAL, RANGAREDDY DIST, ANDHRA PRADESH500 090",23894234,KUKATPALLY,RANGAREDDY,"ANDHRA PRADESH"
"SOUTH INDIAN BANK",SIBL0000596,676059809,VAILATHUR,"SHALIMAR COMPLEX PONMUNDAM P O VAILATHUR MALAPPURAM DT 676 106",2587060,VAILATHUR,MALAPPURAM,KERALA
"SOUTH INDIAN BANK",SIBL0000595,679059808,PULAMANTHOLE,"P T S COMPLEX MAIN ROAD OPP. BUS STAND  PULAMANTHOLE MALAPPURAM 679 323",269444,PULAMANTHOLE,MALAPPURAM,KERALA
"SOUTH INDIAN BANK",SIBL0000594,NA,MARANCHERY,"M A SQUARE BUILDING PONNANI GURUVAYUR ROAD MARANCHERY MALAPPURAM 679 581",2672200,MARANCHERI,MALAPPURAM,KERALA
"SOUTH INDIAN BANK",SIBL0000593,560059012,"BANGALORE ST. PHILOMINA'S HOSPITAL","NEELASANDRA ROAD  BANGALORE",25300033,BANGALORE,"BANGALORE URBAN",KARNATAKA
"SOUTH INDIAN BANK",SIBL0000592,700059009,AMTALA,"AMT K E CARMEL SCHOOL BLDG BARUIPUR ROAD, CHANDI 743503",24809762,AMTALA,MURSHIDABAD,"WEST BENGAL"
"SOUTH INDIAN BANK",SIBL0000591,500059014,"MANIKONDA (JAGIR)","MKD PLOT NO3,LALLAMMA GARDEN STREET NO 4,  MAIN ROAD MANIKONDA 500089",233005,SERI-LINGAMPALLY,RANGAREDDY,"ANDHRA PRADESH"
"SOUTH INDIAN BANK",SIBL0000590,678059817,VADAKKENCHERRY,"VDK IV/1415-1418,SARA CPLX OPP. BUS STAND,VADAKKENCHERRY 678683",257170,WADAKANCHERRY,THRISSUR,KERALA
"SOUTH INDIAN BANK",SIBL0000589,680059081,PARAVATTANI,"MAR ADDAI SLEEHA CHURCH COMPLEX PARVATTANI THRISSUR 680005",2371070,THRISSUR,THRISSUR,KERALA
"SOUTH INDIAN BANK",SIBL0000588,NA,"TIRUVALLA PUSHPAGIRI","PUSHPAGIRI BUILDONG PUSHPAGIRI ROAD TIRUVALLA 689101",2604214,THIRUVALLA,PATHANAMTHITTA,KERALA
"SOUTH INDIAN BANK",SIBL0000587,NA,"RAJAGIRI VALLEY KAKKANAD","RAJAGIRI VALLEY POST KAKKAND COCHIN-682039",2771357,KAKKANAD,ERNAKULAM,KERALA
"SOUTH INDIAN BANK",SIBL0000586,NA,MOOKKANNUR,"BUILDING NO. VII/204-207, MOOKKANNUR PO, VIA ANGAMALY 683577",2615815,MOOKKANNOR,ERNAKULAM,KERALA
"SOUTH INDIAN BANK",SIBL0000585,NA,"KAL0OR VIA KALLORKKAD","KOCHUKUDIYIL BUILDING, NO.691/A  NO. IV, KALOORKAD PANCHAYATH VIA KALOOR 686668",2678888,KALLOOR,ERNAKULAM,KERALA
"SOUTH INDIAN BANK",SIBL0000584,NA,MANESAR,"ANAND RAJ TECH PARK, CP-1, SECTOR 8, IMT, MANESAR",2290077,MANESAR,GURGAON,HARYANA
"SOUTH INDIAN BANK",SIBL0000583,NA,"KENGERI SATELLITE TOWN","SITE NO.1895,1895A, MAIN ROAD(RING ROAD) SECOND CROSS, KENGERI",28482933,KENGERI,"BANGALORE URBAN",KARNATAKA
"SOUTH INDIAN BANK",SIBL0000582,NA,PODUKOTTAI,"2633, MUTHU MEENA COMPLEX, EAST MAIN STREET, PUDUKKOTTAI",220833,PUDUKKOTTAI,PUDUKKOTTAI,"TAMIL NADU"
"SOUTH INDIAN BANK",SIBL0000581,NA,ALWAL,"H NO:6-44/90, PLOT NO:29A, TEMPLE ALWAL, VALLABH NAGAR, SECUNDERABAD",27970067,ALWAL,RANGAREDDY,"ANDHRA PRADESH"
"SOUTH INDIAN BANK",SIBL0000580,NA,AGRA,"D-520, GROUND FLOOR, KAMALA NAGAR, AGRA",2881220,AGRA,AGRA,"UTTAR PRADESH"
"SOUTH INDIAN BANK",SIBL0000579,NA,SHIMLA,"GMHR BUILDING, PHASE-3, SECTOR 5, BELOW BCS, NEW SHIMLA",2673619,SIMLA,SIMLA,"HIMACHAL PRADESH"
"SOUTH INDIAN BANK",SIBL0000578,NA,SHILLONG,"26 A , CANTONMENT, G S ROAD, BARA BAZAR,  SHILLONG",2545042,SHILLONG,"EAST KHASI HILLS",MEGHALAYA
"SOUTH INDIAN BANK",SIBL0000577,NA,KANPUR,"110/19, NEHRU NAGAR, 80 FEET ROAD KANPUR",2543312,KANPUR,"KANPUR CITY","UTTAR PRADESH"
"SOUTH INDIAN BANK",SIBL0000576,NA,MEERUT,"SRI RAM PALACE, NEAR NEW SABAJI MANDI,DELHI ROAD, MEERUT",2402425,MEERUT,MEERUT,"UTTAR PRADESH"
"SOUTH INDIAN BANK",SIBL0000575,NA,PHAGWARA,"GORAYA MANSION, SINGLA MARKET, G T ROAD PHAGWARA",24221484,PHAGWARA,KAPURTHALA,PUNJAB
"SOUTH INDIAN BANK",SIBL0000574,680059030,EDAKAZHIYUR,"DOOR NO. 16/251M, K K CENTER- GROUND FLOOR, EDAKAZHIYUR 680515",2616100,EDAKAZHIYUR,THRISSUR,KERALA
"SOUTH INDIAN BANK",SIBL0000573,NA,NEDUMKUNNAM,"PUTHIYAPARAMBIL BUILDING KAVUNADA KARUKACHAL-MANIMALA ROAD NEDUMKUNNAM 686542",2417570,NEDUMKUNNAM,KOTTAYAM,KERALA
"SOUTH INDIAN BANK",SIBL0000572,NA,"ERNAKULAM PANAMPILLY NAGAR","49/491UA, ANDHRA KALANILAYAM PANAMPILLY NAGAR KOCHI",2311150,KOCHI,ERNAKULAM,KERALA
"SOUTH INDIAN BANK",SIBL0000571,NA,HOSUR,"TPS TOWERS, H-2, RAILWAY STATION ROAD, NEAR TALUK OFFICE, HOSUR",226512,HOSUR,KRISHNAGIRI,"TAMIL NADU"
"SOUTH INDIAN BANK",SIBL0000570,NA,JAMSHEDPUR,"NO.341, KUNTI TOWER, KALIMATI ROAD, SAKCHI, JAMSHEDPUR",2443087,JAMSHEDPUR,"PURBI SINGHBHUM",JHARKHAND
"SOUTH INDIAN BANK",SIBL0000569,NA,CUTTACK,"OSL TOWER, GROUND FLOOR,┬á┬á┬áLINK ROAD",2367373,CUTTACK,CUTTACK,ODISHA
"SOUTH INDIAN BANK",SIBL0000568,NA,BILASPUR,"INDRAJITH COMPLEX, B2, GROUND FLOOR,┬áOPPOSITE HIGH COURT, HIGH COURT MAIN ROAD",220833,BILASPUR,BILASPUR,CHANDIGARH
"SOUTH INDIAN BANK",SIBL0000567,NA,PERUNGUDI,"DOOR NO 112, OMR ROAD,┬á┬á RAJIV GANDHI SALAI, PERUNGUDI",24963544,PERUNGUDI,KANCHEEPURAM,"TAMIL NADU"
"SOUTH INDIAN BANK",SIBL0000566,NA,THUCKALAY,"SEVALAYAM,MAIN ROAD,THUCKALAI P.O,SIB LTD,DOOR NO.18/32 F,WARD NO.13,THUCKALAY",252066,THUCKALAI,KANYAKUMARI,"TAMIL NADU"
"SOUTH INDIAN BANK",SIBL0000565,NA,"COIMBATORE VADAVALLI","1C, THIRUMURUGAN NAGAR, MARUTHAMALAI MAIN ROAD",2424834,VADAVALLI,COIMBATORE,"TAMIL NADU"
"SOUTH INDIAN BANK",SIBL0000564,NA,AVADI,"NO:226, NEW MILITARY ROAD AVADI CHENNAI -54",26553944,AVADI,THIRUVALLUR,"TAMIL NADU"
"SOUTH INDIAN BANK",SIBL0000563,NA,KAYAMKULAM,"KADEESA CATHEDRAL COMPLEX,K.P.ROAD,KAYAMKULAM,SIB LTD,DOOR NO.KMC XVII/100A,WARD NO.17,KAYAMKULAM",2449941,KAYAMKULAM,ALAPUZHA,KERALA
"SOUTH INDIAN BANK",SIBL0000562,695059010,"TRIVANDRUM PEROORKADA","MAYUR PLAZA, OPP. LUTHERAN CHURCH, PEROORKADA",2438375,THIRUVANANTHAPURAM,THIRUVANANTHAPURAM,KERALA
"SOUTH INDIAN BANK",SIBL0000561,NA,NIGDI,"RIDDHE CAPITAL, S-11, SECTOR NO.26, ADC PCNTDA, NEAR SAMBAHJI CHOWK, NIGDI PRADHI KARAN",27641177,NIGDI,PUNE,MAHARASHTRA
"SOUTH INDIAN BANK",SIBL0000560,NA,"NEW DELHI-PUNJABI BAGH","NORTH AVENUE WEST PUNJABI BAGH NEW DELHI -42",25229293,DELHI,DELHI,DELHI
"SOUTH INDIAN BANK",SIBL0000559,NA,"NEW DELHI-MALVIYA NAGAR","C-46, SHIVALIK MALVIYA NAGAR NEW DELHI",26684346,DELHI,DELHI,DELHI
"SOUTH INDIAN BANK",SIBL0000558,NA,"PALAKKAD CHANDRA NAGAR","DOOR NO.9/1484,KAV,CENTRAL COMPLEX, CHANDRA NAGAR",2570700,CHANDRANAGAR,PALAKKAD,KERALA
"SOUTH INDIAN BANK",SIBL0000557,NA,"BHILAI NAGAR","GRACE PLAZA, SHOP 107/108, BLOCK B, NEHRU NAGAR SQUARE, BHILAI NAGAR",2293667,BHILAINAGAR,DURG,CHANDIGARH
"SOUTH INDIAN BANK",SIBL0000556,110059023,INDIRAPURAM,"C-5,NYAY KHAND-1,GROUD FLOOR, INDIRAPURAM,GAZIABAD",4252785,GHAZIABAD,GHAZIABAD,"UTTAR PRADESH"
"SOUTH INDIAN BANK",SIBL0000555,110059022,FARIDABAD,"SHOP NO-60,CLM MALL,I P COLONY,SECTOR30-33,FARIDABAD",2252316,FARIDABAD,FARIDABAD,HARYANA
"SOUTH INDIAN BANK",SIBL0000554,110059021,"DELHI NAJAFGARH","RZ 14/5 LAKSHMI GARDEN, NAJAFGARH,DELHI",25321065,DELHI,DELHI,DELHI
"SOUTH INDIAN BANK",SIBL0000553,NA,MAPUSA-GOA,"DULER, MAPUSA, BARDEZ  GOA,NORTH GOA,GOA",2262250,MAPUSA,"NORTH GOA",GOA
"SOUTH INDIAN BANK",SIBL0000552,NA,"CHALAKUDY NORTH","ST.JAMES HOSPITAL, CHALAKUDY,THRISSUR,KERALA",2706799,CHALAKUDY,THRISSUR,KERALA
"SOUTH INDIAN BANK",SIBL0000551,NA,KARTHIKAPALLY,"ST.THOMAS HIGH SCHOOL, KARTHIKAPALLY,ALAPUZHA,KERALA",2487711,KORTHIKAPPALLY,ALAPUZHA,KERALA
"SOUTH INDIAN BANK",SIBL0000550,NA,KIDANGOOR,"LITTLE LOURDES MISSION HOSPITAL COMPOUND, KIDANGOOR,KOTTAYAM,KERALA",257669,KIDANGOOR,KOTTAYAM,KERALA
"SOUTH INDIAN BANK",SIBL0000549,NA,"UPPAL KALAN","1-7-9/3,HARIHARA ESTATE,STREET NO.8,OPP. ISI,HABSIGUDA,GHMC",27156035,UPPAL,RANGAREDDY,"ANDHRA PRADESH"
"SOUTH INDIAN BANK",SIBL0000548,NA,SERILINGAMPALLY,"MADINAGUDA,7-1/1&7-1/2,MUMBAI NH,GHMC",230402,SERI-LINGAMPALLY,RANGAREDDY,"ANDHRA PRADESH"
"SOUTH INDIAN BANK",SIBL0000547,NA,QUTABULLAPUR,"SHOP NO.4,5,6 PLOT NO-7/17, SUCHTRA JUNCTION,VENKATESHWARA ENCLAVE",27230008,QUTHBULLAPUR,RANGAREDDY,"ANDHRA PRADESH"
"SOUTH INDIAN BANK",SIBL0000546,NA,"L B NAGAR","1-2-84/1,PRASHANTI ARCADE,KOTHAPET,L B NAGAR,HYDERABAD",24140433,L.B.NAGAR,HYDERABAD,"ANDHRA PRADESH"
"SOUTH INDIAN BANK",SIBL0000545,680059203,KONATHUKUNNU,"S N SHOPPING COMPLEX, BUILDING NO-18A, KODUNGALLUR ROAD,THRISSUR,KERALA",2867210,IRINJALAKUDA,THRISSUR,KERALA
"SOUTH INDIAN BANK",SIBL0000544,680059014,PUNKUNNAM,"DOOR NO-32/198, SITHARAM MILL ROAD, PUNKUNNAM,THRISSUR,KERALA",2389941,THRISSUR,THRISSUR,KERALA
"SOUTH INDIAN BANK",SIBL0000543,NA,DEVANAHALLI,"SURVEY NO 331/1,NARAYANACHAR LAYOUT,SHANTI NAGAR,DEVANAHALLI",27683855,DEVANAHALLI,"BANGALORE RURAL",KARNATAKA
"SOUTH INDIAN BANK",SIBL0000542,NA,THIPPASANDRA,"31/39,MANITHA MANSION,VYGNANA NAGAR,THIPPASANDRA-560037",25222640,THIPPASANDRA,"BANGALORE RURAL",KARNATAKA
"SOUTH INDIAN BANK",SIBL0000541,NA,AGARTALA,"AMULLYA MARKET,MANTRIBARI ROAD,NEAR WEST AGARTHALA POLICE STATION",2316875,AGARTALA,"WEST TRIPURA",TRIPURA
"SOUTH INDIAN BANK",SIBL0000540,NA,"ST. THOMAS MOUNT, CHENNAI","NO.68,BUTT RAOD,ST.THOMAS MOUNT,CHENNAI-600016",22332977,CHENNAI,CHENNAI,"TAMIL NADU"
"SOUTH INDIAN BANK",SIBL0000539,NA,MALKAJGIRI,"NO-25-21/7/3/1, EAST ANANDBAGH,MALKAJGIRI,HYDERABAD-500047",27243921,MALKAJGIRI,HYDERABAD,"ANDHRA PRADESH"
"SOUTH INDIAN BANK",SIBL0000538,NA,WARRANGAL,"HNO-1-7-1079, NAKKALAGUTTA,HANAMKONDA,WARANGAL-506001",2544993,WARANGAL,WARANGAL,"ANDHRA PRADESH"
"SOUTH INDIAN BANK",SIBL0000537,NA,ANGADIPURAM,"AD VIII/432/ABCD, OPP.KVR BAJAJ, KOZHIKODE ROAD,ANGADIPURAM-679321",253330,ANGADIPURAM,MALAPURAM,KERALA
"SOUTH INDIAN BANK",SIBL0000536,NA,KALPATTA,"KM 18/6 ,OPP. DE PAUL SCHOOL, KOZHIKODE ROAD,KALPETTA-673121",207224,KALPETTA,WAYANAD,KERALA
"SOUTH INDIAN BANK",SIBL0000535,NA,KUTTANELLUR,"DOOR NO 27/890, KUTTANELLUR, THRISSUR-680014",2350557,KUTTANALLUR,TRISSUR,KERALA
"SOUTH INDIAN BANK",SIBL0000534,NA,PATHIRIPPALA,"MAIN ROAD, PATHIRIPALA PERUR POST, PINCODE: 679302 ,PATHIRIPALA, LAKKIDI PERUR PALAKKAD, KERALA",2874949,OTTAPALAM,PALAKKAD,KERALA
"SOUTH INDIAN BANK",SIBL0000533,680059026,"HOLY ANGELS ROAD OLLUR","DOOR NO.465, WARD NO 30, HOLY ANGELS SCHOOL BUILDING, HOLY ANGELS ROAD, PINCODE: 680306 OLLUR, THRISSUR",2350360,OLLUR,THRISSUR,KERALA
"SOUTH INDIAN BANK",SIBL0000532,682059030,"ELAMAKKARA ERNAKULAM","44/1781-A,LFC ROAD,NEAR LF CHURCH,POTTAKUZHY,NORTH KALOOR,KOCHI 682017",2536521,ELAMAKARA,ERNAKULAM,KERALA
"SOUTH INDIAN BANK",SIBL0000531,NA,EDATHUA,"ST. GEORGE BUILDING, EDATHUA, ALAPUZHA-689573",2210390,EDATHUA,ALAPUZZHA,KERALA
"SOUTH INDIAN BANK",SIBL0000530,NA,KODENCHERRY,"ST. JOSEPSHS HSS, KODENCHERRY P O,KOZHIKODE-673580",2236844,KODENCHERRY,KOZHIKODE,KERALA
"SOUTH INDIAN BANK",SIBL0000529,NA,RAMAPURAM,"MAR AUGUSTHINOS COLLEGE BUILDING, RAMAPURAM BAZAR P O",262766,RAMAPURAM,KOTTAYAM,KERALA
"SOUTH INDIAN BANK",SIBL0000528,NA,KAIPUZHA,"ST.GEORGE FORANE CHURCH BUILDING, KAIPUZHA KOTTAYAM ,KAIPUZHA P.O, PINCODE: 686602,KAIPUZHA, KAIPUZHA VILLAGE OFFICE",2712570,KAIPUZHA,KOTTAYAM,KERALA
"SOUTH INDIAN BANK",SIBL0000527,NA,"SOUTH KALLARA","KALLARA SOUTH, KOTTAYAM",269161,KALLARA,KOTTAYAM,KERALA
"SOUTH INDIAN BANK",SIBL0000526,560059015,"BANGALORE BANNERGHATA ROAD","S O S POST, NEAR MEENAKSHI TEMPLE, BANNERGHATTA ROAD",26482638,BANNERGHATTA,"BANGALORE URBAN",KARNATAKA
"SOUTH INDIAN BANK",SIBL0000525,682059031,"KALOOR ERNAKULAM","GROUND FLOOR ,FINANCE TOWERS, KALOOR KOCHI-17",2400478,KALOOR,ERNAKULAM,KERALA
"SOUTH INDIAN BANK",SIBL0000524,NA,"MYSORE BANNIMANTAP","DOOR NO 176/2, BANNIMANTAP B LAYOUT, BANGALORE MYSORE ROAD",2493724,MYSORE,MYSORE,KARNATAKA
"SOUTH INDIAN BANK",SIBL0000523,560059020,BANGALORE-R.T.NAGAR,"NO.551, GROUND FLOOR,2ND BLOCK,  2ND CROSS,, RAHMATHNAGAR,R.T.NAGAR",23439810,BANGALORE,"BANGALORE URBAN",KARNATAKA
"SOUTH INDIAN BANK",SIBL0000522,682059028,THRIKKAKKARA,"WARD NO. 3, GROUND FLOOR, KAITHAPADATHU MOIDEEN HAJI MEMORIAL BLDG. ,PIPELUNE JUNCTION, PINCODE: 682021,THRIKKAKKARA, KOCHI",2576877,THRIKKAKARA,ERNAKULAM,KERALA
"SOUTH INDIAN BANK",SIBL0000520,416059002,KOLAHPUR,"1426/A,C WARD,G-1,LAXMI TOWERS,KOLHAPUR",2641144,KOLAHPUR,KOLHAPUR,MAHARASHTRA
"SOUTH INDIAN BANK",SIBL0000519,431059003,AURANGABAD,"PLOT NO.7-10,TOWN CENTRE,SECTOR-N1 CIDCO,201-203,AKSHAYDEEP PLAZA,NEAR CIDCO BUS STAND,AURANGABAD",2481128,AURANGABAD,AURANGABAD,MAHARASHTRA
"SOUTH INDIAN BANK",SIBL0000518,560059019,"BANGALORE-SARJAPUR ROAD","65/2,KAILKONDRAHALLI, SARJAPUR ROAD, BANGLORE",25741205,BANGALORE,"BANGALORE URBAN",KARNATAKA
"SOUTH INDIAN BANK",SIBL0000517,560059018,BANASHANKARI,"569, C.R COMPLEX, 80 FT.ROAD ,30TH MAIN, BANASHANKARI, BANGALORE METRO 80 FT ROAD,  BANGALORE",26797634,BANGALORE,"BANGALORE URBAN",KARNATAKA
"SOUTH INDIAN BANK",SIBL0000516,600059022,CHENNAI-TAMBARAM,"10 A, DUARI SAMI PILLAI STREET ,WEST TAMBARAM",22265861,TAMBARAM,CHENNAI,"TAMIL NADU"
"SOUTH INDIAN BANK",SIBL0000515,NA,WANDOOR,"M.A.R. VENTURE BUILDINGS,PANDIKKAD ROAD,WANDOOR",245949,WANDOOR,MALAPURAM,KERALA
"SOUTH INDIAN BANK",SIBL0000514,NA,KUKATPALLY,"6TH PHASE, KPHB COLONY,KUKATPALLY,PLOT NO. 541 AND 542, UNIT NO.  G2 AND G3,KUKATPALLY",23051174,KUKATPALLY,HYDERABAD,"ANDHRA PRADESH"
"SOUTH INDIAN BANK",SIBL0000513,680059023,"WEST FORT THRISSUR","M.G ROAD,CHETTUPUZHA TOWERS, SANKARA IYYER ROAD JUNCTION,WESTFORT,THRISSUR",2389293,THRISSUR,TRISSUR,KERALA
"SOUTH INDIAN BANK",SIBL0000512,605059102,VILLUPURAM,"41/1 B, KK ROAD , VILLUPURAM",226656,VILLUPURAM,VILLUPURAM,"TAMIL NADU"
"SOUTH INDIAN BANK",SIBL0000511,636059102,DHARMAPURI,"DRV ANNEXE, 64, NETHAJI BY-PASS ROAD",2269444,DHARMAPURI,DHARMAPURI,"TAMIL NADU"
"SOUTH INDIAN BANK",SIBL0000510,600059020,VADAPALANI,"DOOR NO.278, GRACE ARK,, ARCOT ROAD ,VADAPALANI P.O. PINCODE:600026,OPP.RAM THEATRE, CHENNAI ,EGMORE-NUNGAMBAKKAM,TAMIL NADU",22165020,CHENNAI,CHENNAI,"TAMIL NADU"
"SOUTH INDIAN BANK",SIBL0000509,600059019,ADAYAR,"G-1, SRUTI APARTMENT, NO.11,II MAIN ROAD, GANDHI NAGAR, ADYAR",24455131,CHENNAI,CHENNAI,"TAMIL NADU"
"SOUTH INDIAN BANK",SIBL0000508,NA,"HYDERABAD - A S RAO NAGAR","H NO.1-12/107, LIGB3, A S RAO NAGAR,KAPRA, HYDERABAD",27140062,HYDERABAD,"HYDERABAD URBAN","ANDHRA PRADESH"
"SOUTH INDIAN BANK",SIBL0000507,NA,AMEERPET,"8-3-24/22/S GROUND FLOOR,SAI SURYA TATA TOWER ,SREENIVASA COLONY(WEST), AMEERPET",23754064,HYDERABAD,"HYDERABAD URBAN","ANDHRA PRADESH"
"SOUTH INDIAN BANK",SIBL0000506,422059002,NASIK,"PLOT NO. 47, ANAND RUPA APARTMENT,MAHATMA NAGAR ROAD, PARIJAT NAGAR",2351198,NASIK,NASHIK,MAHARASHTRA
"SOUTH INDIAN BANK",SIBL0000505,110059020,"NEW DELHI-VIVEK VIHAR","DOOR NO. D-215 , VIVEK VIHAR  , DELHI",22165020,DELHI,"NEW DELHI",DELHI
"SOUTH INDIAN BANK",SIBL0000504,313059002,UDAIPUR,"NO 1, I-ROAD, SHIKARPUR COLONY,BEHIND COLLECTOR BUNGLOW, BHUPALPURA",2416175,UDAIPUR,UDAIPUR,RAJASTHAN
"SOUTH INDIAN BANK",SIBL0000503,695059009,SASTHAMANGALAM,"9/2555, VELLAYAMBALAM,SASTHAMANGALAM MAIN ROAD, SASTHAMANGALAM",2311606,THIRUVANANTHAPURAM,TRIVANDRUM,KERALA
"SOUTH INDIAN BANK",SIBL0000502,NA,KARUVARAKUNDU,"HOLY FAMILY CHURCH BUILDING, NILUMBUR,PEURMBILAB, STATE HIGHWAY, KARUVARAKUNDU",282282,MALAPPURAM,MALAPURAM,KERALA
"SOUTH INDIAN BANK",SIBL0000501,NA,VENGARA,"VALAPPIL TOWER, MAIN ROAD, THAZHE ANGADI,VEGARA P.O",2459666,MALAPPURAM,MALAPURAM,KERALA
"SOUTH INDIAN BANK",SIBL0000500,NA,EDAVANNA,"PARARI COMPLEX,CENTRAL BAZAR,EDAVANNA",2703300,MALAPPURAM,MALAPURAM,KERALA
"SOUTH INDIAN BANK",SIBL0000499,NA,BIBWEWADI,"GROUND FLOOR, TODKAR GARDEN,BIBWEWADI-KONDHWA ROAD, BIBWEWADI",24268082,PUNE,PUNE,MAHARASHTRA
"SOUTH INDIAN BANK",SIBL0000498,NA,NAGAMPADAM,"DOOR NO.408/C-1, WARD NO. XVI,, KIZHAKETHIL ARCADE, M.C ROAD, NEAR NAGAMPADAM BRIDGE PINCODE:686001,NAGAMPADAM, KOTTAYAM,KERALA",2582266,KOTTAYAM,KOTTAYAM,KERALA
"SOUTH INDIAN BANK",SIBL0000497,695059008,SREEKARYAM,"BROTHERS TOWER, KALLAMPALLY JUNCTION , SREEKARYAM",2446931,THIRUVANANTHAPURAM,TRIVANDRUM,KERALA
"SOUTH INDIAN BANK",SIBL0000496,NA,EDAKKARA,"EP/952, JHI GROUND FLOOR,ROYAL ARCADE ,EDAKKARA",276600,MALAPPURAM,MALAPURAM,KERALA
"SOUTH INDIAN BANK",SIBL0000495,600059017,KOYAMBEDU,"DOOR NO.1, WARD 65, M.M.TOWERS ,V.V.KOIL STREET PINCODE:600044,KOYAMBEDU, CHINMAYA NAGAR STAGE I, CHINMAYA NAGAR(P.O.),TAMIL NADU, CHENNAI",24796486,CHENNAI,CHENNAI,"TAMIL NADU"
"SOUTH INDIAN BANK",SIBL0000494,NA,"MANGALORE-LADY HILL","1ST FLOOR, KRISHNA TOWERS,KULUR FERRY ROAD, LADY HILL,CHILIMBI, MANGALORE 575006.",2645733,"DAKSHIN KANNAD","DAKSHINA KANNADA",KARNATAKA
"SOUTH INDIAN BANK",SIBL0000493,NA,"MYSORE JAYALAKHSHMIPURAM","ST JOSEPHS INSTITUTION,CMPLX,JAYALAKSHMIPURAM,MYSORE,KARNATAKA",2510284,MYSORE,MYSORE,KARNATAKA
"SOUTH INDIAN BANK",SIBL0000492,560059014,"BANGALORE-ELECTRONIC CITY","S.F.S SCHOOL CAMPUS, HUSKUR GATE ,ELECTRONIC CITY PINCODE:560100,BANGALORE, BANGALORE METROHEBBAGODI,KARNATAKA",27834600,BANGALORE,"BANGALORE URBAN",KARNATAKA
"SOUTH INDIAN BANK",SIBL0000491,560059017,BANGALORE-MARTHAHALLY,"NO.9, 2ND CROSS ROAD, LAKSHMI LAYOUT, MUNNEKOLALA MAIN ROAD VIJAYA PARVATHI COMPLEX PINCODE:560037,BANGALORE, BANGALORE METRO,MARATHAHALLY",25228687,BANGALORE,"BANGALORE URBAN",KARNATAKA
"SOUTH INDIAN BANK",SIBL0000490,NA,CHENGALOOR,"DOOR NO.2/588/B, MOUNT CARMEL CHURCH BULDG. PUDUKKAD-MUPLIYAM ROAD PINCODE:680312,CHENGALOOR, KERALA, THRISSUR",2760989,THRISSUR,TRISSUR,KERALA
"SOUTH INDIAN BANK",SIBL0000489,NA,ODDANCHATHRAM,"MAIN ROAD,ODDANCHATRAM,DINDIGUL,TAMIL NADU",243867,DINDIGUL,DINDIGUL,"TAMIL NADU"
"SOUTH INDIAN BANK",SIBL0000488,680059017,KOORKENCHERY,"I FLOOR, LATHEEF,BUILDING,KOORKENCHERY,THRISSUR,KERALA",2429432,THRISSUR,TRISSUR,KERALA
"SOUTH INDIAN BANK",SIBL0000487,560059003,BIDADI,"IKON COLLEGE PREMISES, B M ROAD,BIDADI, BANGALORE, KARNATAKA",27204296,BIDADI,"BANGALORE RURAL",KARNATAKA
"SOUTH INDIAN BANK",SIBL0000486,560059016,BANGALORE-KOTHANUR,"DOOR NO.4-41/3, HENNUR MAIN ROAD ,GEDDALAHALLY PINCODE:560077,BANGALORE, BANGALORE METRO,KOTHANNUR P.O.,KARNATAKA",28465884,BANGALORE,"BANGALORE URBAN",KARNATAKA
"SOUTH INDIAN BANK",SIBL0000485,682059026,"ERNAKULAM NORTH","DOOR NO.41/3611A, OLD RAILWAY STATION ROAD ERNAKULAM NORTH PINCODE:682018ERNAKULAM NORTH, COCHIN- CORPORATION,KERALA",2395357,KOCHI,ERNAKULAM,KERALA
"SOUTH INDIAN BANK",SIBL0000484,682059025,EDAPALLY,"MAJ HOSPITAL EXTN CTR,EDAPPALLY,ERNAKULAM,KERALA",2334633,ERNAKULAM,ERNAKULAM,KERALA
"SOUTH INDIAN BANK",SIBL0000483,695059007,NALANCHIRA,"MAR IVANIOS COLLEGE CAMPUS,NALANCHIRA,THIRUVANANTHAPURAM,KERALA",2544524,THIRUVANANTHAPURAM,TRIVANDRUM,KERALA
"SOUTH INDIAN BANK",SIBL0000482,NA,ANCHAL,"NEAR ST:JOHNS SCHOOL COLLEGE JUNCTION, ANCHAL, KOLLAM DIST; KERALA PINCODE:691306 , COLLEGE JUNCTION ,KERALA",2270330,KOLLAM,KOLLAM,KERALA
"SOUTH INDIAN BANK",SIBL0000481,NA,PATHANAPURAM,"MOUNT TABOR COMPLEX, PATHANAPURAM, KOLLAM, KERALA",2352131,PATHANAPURAM,KOLLAM,KERALA
"SOUTH INDIAN BANK",SIBL0000480,629059102,MARTHANDAM,"OPP. GOVT. GIRLS HSS, VETTUVENNI ,VII/32, MAIN ROAD (NH-47) PINCODE:629165 ,MARTHANDAM, VILAVANCODE,TAMIL NADU, KANYAKUMARI",205424,KANYAKUMARI,KANNIYAKUMARI,"TAMIL NADU"
"SOUTH INDIAN BANK",SIBL0000479,NA,AREACODE,"AP/111/333A,CK BLDG, MUKKAM RD,AREACODE, MALAPPURAM, KERALA",2853322,AREACODE,MALAPURAM,KERALA
"SOUTH INDIAN BANK",SIBL0000478,NA,CHELARI,"1ST FLOOR,KAITHON CMPX, CHELARI,THENHIPALAM, MALAPPURAM, KERALA",2402333,TENJIPALAM,MALAPURAM,KERALA
"SOUTH INDIAN BANK",SIBL0000477,NA,PARAPPANANGADI,"PP/XI/1493-H,KADALUNDI RD,PARAPPANANGADI, MALAPPURAM, KERALA",2415488,PARAPPANANGADI,MALAPURAM,KERALA
"SOUTH INDIAN BANK",SIBL0000476,673059402,KONDOTTY,"KP/3/1093-B,BYPASS ROAD, KONDOTTY, MALAPPURAM, KERALA",2710150,KUNDOTTY,MALAPURAM,KERALA
"SOUTH INDIAN BANK",SIBL0000475,NA,"MADURAI - WEST","ST JOSEPHS SHP CPLX,AA RD,GNANAVOLIVAPURAM, MADURAI, TAMILNADU",2362858,MADURAI,MADURAI,"TAMIL NADU"
"SOUTH INDIAN BANK",SIBL0000474,834059002,RANCHI,"SRIRAM GARDENS,KANKE ROAD,RANCHI,JHARKHAND",2232893,RANCHI,RANCHI,JHARKHAND
"SOUTH INDIAN BANK",SIBL0000473,781059002,GUWAHATI,"SANTHI BUSINESS PARK,OPP. AGP OFFICE,AMBARI,KAMRUP,ASSAM",2733191,KAMRUP,KAMRUP,ASSAM
"SOUTH INDIAN BANK",SIBL0000472,700059008,"KOLKATA-SALT LAKE","AD-54,SECTOR 1,SALT LAKE,KOLKATA,WEST BENGAL",23345159,KOLKATA,KOLKATA,"WEST BENGAL"
"SOUTH INDIAN BANK",SIBL0000471,NA,DEHRADUN,"DEHRADUN BRANCH, 105,LAXMI CHAMBERS,OPP HOTEL MEDOW, 69,RAJPUR ROAD, DEHRA DUN, UTTARAKHAND, 248001",2741122,DEHRADUN,DEHRADUN,UTTARAKHAND
"SOUTH INDIAN BANK",SIBL0000470,NA,JAMMU,"JAMMU BRANCH, HOUSE NO 91 A, GOLE MARKET GANDHI NAGAR, JAMMU, JAMMU & KASHMIR, 180004",2432867,JAMMU,JAMMU,"JAMMU AND KASHMIR"
"SOUTH INDIAN BANK",SIBL0000469,NA,VAKATHANAM,"PARAYIL BUILDING NJALIAKUZHI JUNCTION, NJALIAKUZHY-THENGANAL ROAD P.O. VAKATHANAM PINCODE:686538,VAKATHANAM,KOTTAYAM DIST,",2465242,VAKATHANAM,KOTTAYAM,KERALA
"SOUTH INDIAN BANK",SIBL0000467,400059016,KALYAN,"KALYAN BRANCH, 5, 6, 7 & 8, 'VIJAYANT', SAWANT COMPLEX,KARNIK ROAD, OPP. ELITE CLASSES, KALYAN (W),THANE, MAHARASHTRA, 421034",2314824,KALYAN,THANE,MAHARASHTRA
"SOUTH INDIAN BANK",SIBL0000466,360059002,RAJKOT,"G4/A,SOLITAIRE BLDG, NEAR NAVJOT PARK, RAJKOT, GUJARAT",2573243,RAJKOT,RAJKOT,GUJARAT
"SOUTH INDIAN BANK",SIBL0000465,400059017,NERUL,"PLOT NO 31,SECT 25, NERUL,NAVI-MUMBAI, MAHARASHTRA, 400706",27723070,MUMBAI,"GREATER BOMBAY",MAHARASHTRA
"SOUTH INDIAN BANK",SIBL0000464,NA,KURAVILANGAD,"KURAVILANGAD, MARUTHANAL BLDGS,OPP PRIVATE BUS STAND, M C ROAD,KURAVILANGAD P.O, KOTTAYAM, KERALA",2233033,KURAVILANGAD,KOTTAYAM,KERALA
"SOUTH INDIAN BANK",SIBL0000463,680059204,"IRINJALAKUDA CHRIST NAGAR","VI/950-B, CHRIST NAGAR, AKP JN ,IRINJALAKUDA NORTH PINCODE:680125 ,IRINJALAKUDA CHRIST NAGAR, IRINJALAKUDA MUNICIPALITY,TRICHUR DIST: KERALA",2822236,IRINJALAKUDA,TRISSUR,KERALA
"SOUTH INDIAN BANK",SIBL0000462,680059016,"AMALA NAGAR (THRISSUR)","TRICHUR-KUNNAMKULAM ROAD, AMALA NAGAR (P.O) TRICHUR TRICHUR DIST: KERALA PINCODE:680555, PUZHAKKAL VILLAGE OFFICE",2307030,THRISSUR,TRISSUR,KERALA
"SOUTH INDIAN BANK",SIBL0000461,NA,THIRUVAMPADY,"THIRUVAMPADY BRANCH, HIGH SCHOOL ROAD, NEAR BUS STAND, THIRUVAMPADY, KOZHIKODE, 673603",2254321,THIRUVAMBADY,KOZHIKODE,KERALA
"SOUTH INDIAN BANK",SIBL0000460,NA,BHUBANESWAR,"BHUBANESWAR BRANCH, PLOT A/1, NEAR SATHYA NAGAR FLY OVER, CUTTACK ROAD, BHUBANESWAR, KHURDA, ORISSA, PIN - 751006",2571710,BHUBANESWAR,KHURDA,ODISHA
"SOUTH INDIAN BANK",SIBL0000459,700059007,LILUAH-HOWRAH,"LILUAH-HOWRAH BRANCH, 136/136A, GIRISH GHOSH ROAD, DON BOSCO, LILUAH, HOWRAH, WEST BENGAL, PIN - 711204",26553953,HOWRAH,HOWRAH,"WEST BENGAL"
"SOUTH INDIAN BANK",SIBL0000458,638059003,PERUNDURAI,"NO.104/1, J.PTOWERS ,OLD BUS STAND ROAD PINCODE:638052 ,PERUNDURAI, PERUNGUDI VILLAGE,ERODE DIST, OLD BUS STAND ROAD ,TAMIL NADU, ERODE",224933,PERUNDURAI,ERODE,"TAMIL NADU"
"SOUTH INDIAN BANK",SIBL0000457,600059018,CHENGALPATTU,"DOOR NO. 1, WARD NO 1, TB ROAD, KRISHNA COMPLEX- GROUND FLOOR ,OPP. TO ST:JOSEPHS CATHEDRAL PINCODE:603002,CHENGALPATTU,",27424970,CHENGALPATTU,KANCHEEPURAM,"TAMIL NADU"
"SOUTH INDIAN BANK",SIBL0000456,NA,MUTHOOR,"MUTHOOR BRANCH, MGM ENGLISH MEDIUM U.P. SCHOOL, MUTHOOR, THIRUVALLA, PATHANAMTHITTA, KERALA",2601566,THIRUVALLA,PATHANAMTHITTA,KERALA
"SOUTH INDIAN BANK",SIBL0000455,NA,NEDUNGADAPPALLY,"KOCHIKUZHIYIL BUILDINGS NEDUNGADAPPALLY, KOTTAYAM DIST: KERALA PINCODE:686545,NEDUNGADAPALLY,KERALA, PATHANAMTHITTA",2487038,PATHANAMTHITTA,PATHANAMTHITTA,KERALA
"SOUTH INDIAN BANK",SIBL0000454,NA,MALLASSERY,"POOMKAVU JUNCTION, MALLASSERY ,PATHANAMTHITTA DIST PINCODE:689646 ,MALLASSERY, PRAMADOM ,KERALA  KERALA, PATHANAMTHITTA",2335774,PATHANAMTHITTA,PATHANAMTHITTA,KERALA
"SOUTH INDIAN BANK",SIBL0000453,NA,ARUNAPURAM,"268/1, 268/2 ,PALA-KOTTAYAM HIGHWAY PINCODE:686574 ,ARUNAPURAM, PULIYANNOOR VILLAGE,KERALA,",2212545,PALAI,KOTTAYAM,KERALA
"SOUTH INDIAN BANK",SIBL0000452,NA,CHETHIPUZHA,"CHETHIPUZHA BRANCH, ST THOMAS HOSPITAL, CHETHIPUZHA, CHANGANACHERRY, KOTTAYAM, KERALA",2723798,CHANGANASSERY,KOTTAYAM,KERALA
"SOUTH INDIAN BANK",SIBL0000451,NA,KOTTIYAM,"KOTTIYAM BRANCH, HOLY CROSS HOSPITAL, KOTTIYAM,  KOLLAM, KERALA",2532531,KOTTIYAM,KOLLAM,KERALA
"SOUTH INDIAN BANK",SIBL0000450,692001001,MUNDAKKAL-KOLLAM,"MC.VIII/1571/569C, NOORJI COMMERCIAL COMPLEX, S.N.COLLEGE JUNCTION ,PATTATHANAM PINCODE:691001 , KOLLOM MUNCIPALITY, KOLLAM,KERALA",2740874,KOLLAM,KOLLAM,KERALA
"SOUTH INDIAN BANK",SIBL0000449,NA,KOOTHUPARAMBA,"KOOTHUPARAMBA BRANCH, NIRMALAGIRI COLLEGE, NIRMALAGIRI, KOOTHAPARAMBA, KANNUR, KERALA",2365327,KUTHUPARAMBA,KANNUR,KERALA
"SOUTH INDIAN BANK",SIBL0000448,682059023,VELI-COCHIN,"VELI-COCHIN BRANCH, COCHIN SOCIAL SERVICES SOCIETY, VELI, FORT COCHIN, ERNAKULAM, KERALA",2228242,KOCHI,ERNAKULAM,KERALA
"SOUTH INDIAN BANK",SIBL0000447,682059024,THAMMANAM,"DOOR NO32/260 A4 WARD NO 43 BAVA COMPLEX, MAHAKAVI VYLOPPILLY ROAD , THAMMANAM, PINCODE:682032,ERNAKULAM, EDAPALLY SOUTH,KERALA",2338071,KOCHI,ERNAKULAM,KERALA
"SOUTH INDIAN BANK",SIBL0000446,NA,AYROOR,"AYROOR BRANCH, ST.THOMAS HIGH SCHOOL, AYIROOR, ERNAKULAM, KERALA,",2478318,AIROOR,ERNAKULAM,KERALA
"SOUTH INDIAN BANK",SIBL0000445,NA,"CONVENT SQUARE ALAPPUZHA","CONVENT SQUARE ALAPPUZHA BRANCH, CONVENT SQUARE, ALAPUZHA, KERALA, PIN - 688001",2245214,ALAPPUZHA,ALAPUZZHA,KERALA
"SOUTH INDIAN BANK",SIBL0000444,226059002,LUCKNOW,"LUCKNOW BRANCH, GROUND FLOOR, HOUSE NO 70,KAPURTHALA R, SECTOR E, ALIGUNJ, LUCKNOW, UTTAR PRADESH, PIN - 462012",2327332,LUCKNOW,LUCKNOW,"UTTAR PRADESH"
"SOUTH INDIAN BANK",SIBL0000443,462059002,BHOPAL,"BHOPAL BRANCH, ASHTBHUJ BHAVAN, 17 B, INDRAPURI, OPP: JUBILEE GATE, RAISEN ROAD, BHOPAL, MADHYA PRADESH, PIN-462012",2751006,BHOPAL,BHOPAL,"MADHYA PRADESH"
"SOUTH INDIAN BANK",SIBL0000442,452059002,INDORE,"INDORE BRANCH, FF 27,28,OPP MANGAL MARILAND GARDENS, SCHEME NO:54,VIJAYANAGAR, INDORE, MADHYA PRADESH, PIN - 143001",2552724,INDORE,INDORE,"MADHYA PRADESH"
"SOUTH INDIAN BANK",SIBL0000441,143059002,AMIRITSAR,"AMRITSAR BRANCH, PLOT NO:26, KENNEDY AVENUE , COURT ROAD , PUNJAB , PUNJAB, PIN-143001",2221770,AMRITSAR,AMRITSAR,PUNJAB
"SOUTH INDIAN BANK",SIBL0000440,641059012,"COIMBATORE BIG BAZAR STREET","COIMBATORE BIG BAZAR STREET BRANCH, BIG BAZAR STREET , COIMBATORE , TAMIL NADU , TAMIL NADU, PIN-641001",2398081,COIMBATORE,COIMBOTORE,"TAMIL NADU"
"SOUTH INDIAN BANK",SIBL0000439,682059022,KADAVANTRA,"KADAVANTHRA BRANCH, ST:JOSEPHS U.P.SCHOOL COMPLEX, KADAVANTHARA , KOCHI, KERALA, PIN-682020",2323566,KOCHI,ERNAKULAM,KERALA
"SOUTH INDIAN BANK",SIBL0000438,NA,PALLIKUNNU,"PALLIKUNNU BRANCH, ASSUMTION HIGH SCHOOL COMPLEX, PALLIKUNNU , VARANDARAPILLY , KERALA, PIN-680303",2760324,VARANDRAPALLY,TRISSUR,KERALA
"SOUTH INDIAN BANK",SIBL0000437,680059020,ERAVU,"DOOR NO.XV/275 A, PANDENS PLAZA,, THRISSUR - KANJANY ROAD ,ERAVU P.O., PINCODE:680620,NEAR SHIP CHURCH, PARAKKAD,THRISSUR,KERALA",2311968,THRISSUR,TRISSUR,KERALA
"SOUTH INDIAN BANK",SIBL0000436,NA,PUTHENPEEDIKA,"PUTHENPEEDIKA BRANCH, ST: ANTONYS SHOPPING COMPLEX , PUTHENPEEDIKA, TRICHUR DIST:, KERALA,",2272312,PUTHENPEEDIKA,TRISSUR,KERALA
"SOUTH INDIAN BANK",SIBL0000435,680059015,CHEROOR,"CHEROOR BRANCH, CHEROOR, ENGINEERING COLLEGE P.O. , TRICHUR, KERALA, PIN-680009",2320324,CHERUR,TRISSUR,KERALA
"SOUTH INDIAN BANK",SIBL0000434,110059019,"NEWDELHI MAYUR VIHAR","DELHI MAYUR VIHAR BRANCH, GROUND FLOOR, PANKAJ GRAND PLAZA, CSC,MAYUR VIHAR PHASE 1, NEW DELHI, DELHI , PIN-110091",22753982,DELHI,"NEW DELHI",DELHI
"SOUTH INDIAN BANK",SIBL0000433,492059002,RAIPUR,"RAIPUR BRANCH, AJIT TOWERS, RAMSAGARPARA , NEAR SINDHI SCHOOL,, CHHATTISGARH, PIN-492001",2293171,RAIPUR,RAIPUR,CHANDIGARH
"SOUTH INDIAN BANK",SIBL0000432,440059251,NAGPUR,"NAGPUR BRANCH, JAI BHARAT TOWERS, OLD PARADI NAKO, BHANDARAM ROAD , MAHARASHTRA , PIN-440008",2682072,NAGPUR,NAGPUR,MAHARASHTRA
"SOUTH INDIAN BANK",SIBL0000431,110059001,"NEWDELHI SERVICE BRANCH","DELHI SERVICE BRANCH, 22,REGAL BUILDING, CONNAUGHT PLACE, NEW DELHI, DELHI , PIN-110001",65662692,DELHI,"NEW DELHI",DELHI
"SOUTH INDIAN BANK",SIBL0000430,110059018,NOIDA,"NOIDA BRANCH, G-75B,GROUND FLOOR , , PARSVNATH PLAZA, SECTOR-27 , NOIDA,GOUTHAM BUDDH NAGAR DIST:, UTTAR PRADESH , PIN-201301",2440440,NOIDA,"GAUTAM BODDA NAGAR","UTTAR PRADESH"
"SOUTH INDIAN BANK",SIBL0000429,302059251,JAIPUR,"JAIPUR BRANCH, SHOP NO:103&106, APEX MALL, LAL KOTHI ,TONK ROAD , RAJASTHAN, RAJASTHAN , PIN-",2740732,JAIPUR,JAIPUR,RAJASTHAN
"SOUTH INDIAN BANK",SIBL0000428,673059452,THAMARASSERY,"THAMARASSERY BRANCH, DOOR NO:T.P.7/396 K, , MATHA TOWERS , KOZHIKODE-WAYNAD ROAD, , KOZHIKODE DIST: KERALA , KERALA, PIN-673573",2222550,TAMARASSERY,KOZHIKODE,KERALA
"SOUTH INDIAN BANK",SIBL0000427,NA,PAYANGADI,"PAYANGADI BRANCH, DOOR NO: XI/585 A, , BUS STAND ROAD, PAYANGADI, KERALA STATE , KERALA, PIN-670358",2875890,CANNUR,KANNUR,KERALA
"SOUTH INDIAN BANK",SIBL0000426,676059003,"TIRUR- MALAPURAM","TIRUR BRANCH, DOOR NO:7/612, CEEPEES TOWER , NEAR BUS STAND , KERALA , KERALA, PIN-676101",2430439,TIRUR,MALAPURAM,KERALA
"SOUTH INDIAN BANK",SIBL0000425,144059002,JALANDHAR,"JALANDHAR BRANCH, PLOT NO:28,PRIME TOWER , OPP ;NARINDER CINEMA , G.T.ROAD, JALANDHAR DIST:, JALANDHAR, PUNJAB, PIN-141001",2240072,JALANDHAR,JALANDHAR,PUNJAB
"SOUTH INDIAN BANK",SIBL0000424,110059017,"DELHI RAJOURI GARDEN","DELHI RAJOURI GARDEN BRANCH, E-6,RAJOURI GARDEN ,NEW DELHI ,, DELHI , PIN-110027",25115562,DELHI,"NEW DELHI",DELHI
"SOUTH INDIAN BANK",SIBL0000423,682059021,"ERNAKULAM VENNALA","ERNAKULAM VENNALA BRANCH, DOOR NO. 33/2171 A1,BYE-PASS JUNCTION ,KAKKANAD ROAD , KERALA, PIN-682028",2806756,KOCHI,ERNAKULAM,KERALA
"SOUTH INDIAN BANK",SIBL0000422,NA,MANDIRAM,"MANDIRAM BRANCH, MAR THOMA DIOCES BUILDING, MANDIRAM , RANNI, KERALA, PIN-689672",2227015,PATHANAMTHITTA,PATHANAMTHITTA,KERALA
"SOUTH INDIAN BANK",SIBL0000421,110059015,"NEWDELHI SAINIK VIHAR","DELHI SAINIK VIHAR BRANCH, ANAND PLAZA,1ST FLOOR,PLOT NO. 2,LSC,SAINIK VIHAR, PITAMPURA , DELHI , PIN-110034",27028669,DELHI,"NEW DELHI",DELHI
"SOUTH INDIAN BANK",SIBL0000420,110059016,"NEWDELHI NIRMAN VIHAR","DELHI NIRMAN VIHAR BRANCH, PARMESH COMPLEX,1ST FLOOR ,PLOT NO.1 , DELHI , PIN-110092",22464816,DELHI,"NEW DELHI",DELHI
"SOUTH INDIAN BANK",SIBL0000419,110059014,GURGAON,"GURGAON BRANCH, SCO NO.97,SECTOR - 31 ,GURGAON , HARYANA , PIN-122001",2382173,GURGAON,GURGAON,HARYANA
"SOUTH INDIAN BANK",SIBL0000418,682059018,"ERNAKULAM LOURDES HOSPITAL","ERNAKULAM LOURDES HOSPITAL BRANCH, 45/447 ,VADUTHALA ROAD,PACHALAM, ERNAKULAM, KERALA, PIN-682012",2393184,KOCHI,ERNAKULAM,KERALA
"SOUTH INDIAN BANK",SIBL0000417,682059019,"TOCH ERNAKULAM","ERNAKULAM TOC-H SCHOOL ROAD BRANCH, 29/166A,TOC-H SCHOOL ROAD ,VYTTILA , ERNAKULAM, KERALA, PIN-682019",2303126,KOCHI,ERNAKULAM,KERALA
"SOUTH INDIAN BANK",SIBL0000416,560059013,"BANGALORE KORMANGLA","BANGALORE KORMANGLA BRANCH, SEVASADAN TRAINING INSTITUTE ,3RD BLOCK ,8TH MAIN ROAD , BANGALORE, KARNATAKA , PIN-560034",25535396,BANGALORE,"BANGALORE URBAN",KARNATAKA
"SOUTH INDIAN BANK",SIBL0000415,NA,"MYSORE N.R. MOHALLA","MYSORE N.R. MOHALLA BRANCH, CARMEL ARCADE,SHIVAJI ROAD,MYSORE, MYSORE , KARNATAKA , PIN-570007",2456344,MYSORE,MYSORE,KARNATAKA
"SOUTH INDIAN BANK",SIBL0000414,NA,"VIJAYAWADA NIRMALA CONVENT ROAD","NEAR JAMMICHETTU CENTRE,KRISHN P.B.#:., PO MOGALRAJAPURAM, PINCODE:520010,VIJAYAWADA NIRMALA CONVENT RD., ANDHRA PRADESH, KRISHNA",2493045,VIJAYAWADA,KRISHNA,"ANDHRA PRADESH"
"SOUTH INDIAN BANK",SIBL0000413,500059004,"SECUNDERABAD DIAMOND POINT","GROUND FLOOR, 157/6, CHAI COMPLEX STAFF ROAD, SIKH VILLAGE PINCODE:500009 SECONDERABAD DIAMOND POINT,RANGA REDDY ,ANDHRA PRADESH",27897747,HYDERABAD,"HYDERABAD URBAN","ANDHRA PRADESH"
"SOUTH INDIAN BANK",SIBL0000412,673059006,"KOZHIKODE S.M STREET","KOZHIKODE S.M STREET BRANCH, 10/658 ,1ST FLOOR ,PARSI ANJUMAN COMPLEX , KOZHIKODE, KERALA, PIN-673001",2722247,CALICUT,KOZHIKODE,KERALA
"SOUTH INDIAN BANK",SIBL0000411,141059002,LUDHIANA,"218,OM SHANTI COMPLEX,INDUSTRIAL AREA A,CHEEMA CHOWK, LUDHIANA 141003",2406032,LUDHIANA,LUDHIANA,PUNJAB
"SOUTH INDIAN BANK",SIBL0000410,110059013,"NEW DELHI PATPARGANJ","NEW DELHI PATPARGANJ BRANCH, SHOP NO. 19&20 ,CSC NO.1,ZONE E-13 , DELHI-110 092, DELHI , PIN-110092",22012329,DELHI,"NEW DELHI",DELHI
"SOUTH INDIAN BANK",SIBL0000409,400059015,"MUMBAI VASHI","MUMBAI VASHI BRANCH, DR. BABASAHEB AMBEDKAR SANKUL,PLOT NO. 62 A ,SECTOR - 29 , NAVI MUMBAI, MAHARASHTRA , PIN-400703",27881082,MUMBAI,"GREATER BOMBAY",MAHARASHTRA
"SOUTH INDIAN BANK",SIBL0000408,680059052,GURUVAYUR,"GURUVAYUR BRANCH, GROUND FLOOR , R.V TRADE CENTRE , EAST NADA, THRISSUR , KERALA, PIN-680101",3290750,GURUVAYUR,TRISSUR,KERALA
"SOUTH INDIAN BANK",SIBL0000407,600059014,POONAMALLEE,"POONAMALLEE BRANCH, 70, IDAYAM COMPLEX ,TRUNK ROAD,KARAYAN CHAVADI , CHENNAI, TAMIL NADU, PIN-600056",26494165,CHENNAI,CHENNAI,"TAMIL NADU"
"SOUTH INDIAN BANK",SIBL0000406,676059102,KOTTAKKAL,"KOTTAKKAL BRANCH, D.NO.2/645/D ,ADATTIL TOWERS,MAIN ROAD , MALAPPURAM , KERALA, PIN-676503",2102810,KOTTAKKAL,MALAPURAM,KERALA
"SOUTH INDIAN BANK",SIBL0000405,110059012,"PASCHIM VIHAR","NEW DELHI PASCHIM VIHAR BRANCH, 14/476 ,SUNDER VIHAR,PASCHIM VIHAR , DELHI-110 087, DELHI , PIN-110087",25257251,DELHI,"NEW DELHI",DELHI
"SOUTH INDIAN BANK",SIBL0000404,160059001,CHANDIGARH,"CHANDIGARH BRANCH, SCO-2475-76,GROUND FLOOR,SECTOR - 22 C , CHANDIGARH , CHANDIGARH, PIN-160022",2727728,CHANDIGARH,CHANDIGARH,CHANDIGARH
"SOUTH INDIAN BANK",SIBL0000403,160059002,PANCHKULA,"PANCHKULA BRANCH, SCO - 284,SECTOR - 20 ,PANCHKULA , PANCHKULA, HARYANA , PIN-134112",2551443,PANCHKULA,PANCHKULA,HARYANA
"SOUTH INDIAN BANK",SIBL0000402,670059002,PAYYANNUR,"PAYYANNUR BRANCH, 1ST FLOOR,D.NO. XXI/687A 27 TO 29 ,SEASON COMPLEX, KANNUR , KERALA, PIN-670307",203526,PAYYANNUR,KANNUR,KERALA
"SOUTH INDIAN BANK",SIBL0000401,110059011,"NEW DELHI VIKAS PURI","NEW DELHI VIKAS PURI BRANCH, SHOP NO. 101- 103,RAKSHA VIKAS,VIKAS PURI, DELHI, DELHI , PIN-110018",28533489,DELHI,"NEW DELHI",DELHI
"SOUTH INDIAN BANK",SIBL0000400,670059052,THALIPARAMBA,"THALIPARAMBA BRANCH, DOOR NO. 9 -12 ,GROUND FLOOR,KUTTUKKAN COMPLEX , KANNUR , KERALA, PIN-670141",2200411,TALIPARAMBA,KANNUR,KERALA
"SOUTH INDIAN BANK",SIBL0000399,560059011,"BANGALORE INDIRA NAGAR","1084, 12TH MAIN ROAD, INDIRANAGAR ,HAL 2ND STAGE PO PINCODE:560038,BANGALORE, BANGALORE METRO,KARNATAKA",25204284,BANGALORE,"BANGALORE URBAN",KARNATAKA
"SOUTH INDIAN BANK",SIBL0000398,110059009,"NEW DELHI DWARKA","NEW DELHI DWARKA BRANCH, PLOT NO. 9 ,1ST FLOOR ,PANKAJ ARCADE , DELHI, DELHI , PIN-110045",25088244,DELHI,"NEW DELHI",DELHI
"SOUTH INDIAN BANK",SIBL0000397,110059010,"NEW DELHI VASANT KUNJ","NEW DELHI VASANT KUNJ BRANCH, SHOP NO. 4 ,POCKET 8/9,SECTOR B, NEW DELHI DT , DELHI , PIN-110070",26138999,DELHI,"NEW DELHI",DELHI
"SOUTH INDIAN BANK",SIBL0000396,560059010,"BANGALORE CHRIST COLLEGE","CHRIST UNIVERSITY CAMPUS, HOSUR ROAD,DHARMARAM COLLEGE P.O PINCODE:560029,BANGALORE, BANGALORE METRO, HOSUR ROAD ,KARNATAKA",41116164,BANGALORE,"BANGALORE URBAN",KARNATAKA
"SOUTH INDIAN BANK",SIBL0000395,689059098,THADIYOOR,"THADIYOOR BRANCH, PLACKATHARAYIL COMPLEX ,BANK JUNCTION ,TIRUVALLA - RANNI ROAD, PATHANAMTHITTA , KERALA, PIN-689545",2655511,PATHANAMTHITTA,PATHANAMTHITTA,KERALA
"SOUTH INDIAN BANK",SIBL0000394,689059099,THEKKEMALA,"DOOR NO.341 C,THEKKEMALAYIL BLDG.,THEKKEMALA P.O., PINCODE:689654,KOZHENCHERRY, ELANTHUR,KERALA, PATHANAMTHITTA",2314037,KOZHENCHERRY,PATHANAMTHITTA,KERALA
"SOUTH INDIAN BANK",SIBL0000393,676059025,CHEMMAD-TIRURANGADI,"CHEMMAD-TIRURANGADI BRANCH, D NO. C3A,ACM TOWERS,CHEMMAD - TIRURANGADI , MALAPPURAM , KERALA, PIN-676306",2466180,MALAPPURAM,MALAPURAM,KERALA
"SOUTH INDIAN BANK",SIBL0000391,673059039,EDAPPAL,"EDAPPAL BRANCH, D NO. 684/C-2,WARD NO. VIII ,CRESCENT PLAZA, MALAPPURAM , KERALA, PIN-679576",2684280,EDAPPAL,MALAPURAM,KERALA
"SOUTH INDIAN BANK",SIBL0000390,673059040,PUTHANATHANI,"1ST FLOOR, AYAPILLY COMMERCIAL COMPLEX VALANCHERRY ROAD PUTHANATHANI PINCODE:676552,AYAPILLY COMMERCIAL COMPLEX,KERALA",2105162,MALAPPURAM,MALAPURAM,KERALA
"SOUTH INDIAN BANK",SIBL0000389,400059014,"MUMBAI HILL ROAD","MUMBAI HILL ROAD BRANCH, SAGAR ELEGANCE BUILDING,107/D ,HILL ROAD , GREATER MUMBAI , MAHARASHTRA , PIN-400050",26417057,MUMBAI,"GREATER BOMBAY",MAHARASHTRA
"SOUTH INDIAN BANK",SIBL0000388,620059003,"TRICHY CANTONMENT","NO.1,1ST FLOOR, PAVALAM BLOCK,ST. PAUL'S SEMINARY COMPLEX , OPP.HPO,TRICHY CANTONMENT, TIRUCHIRAPALLI , TAMIL NADU, PIN-620001",2464669,TIRUCHIRAPPALLI,TIRUCHIORAPPALLI,"TAMIL NADU"
"SOUTH INDIAN BANK",SIBL0000387,NA,OMALLOOR,"OMALLOOR BRANCH, D. NO. VI/34A,FIRST FLOOR ,PATHANAMTHITTA - ADOOR MAIN ROAD, PATHANAMTHITTA , KERALA, PIN-689647",2231177,OMALLOOR,PATHANAMTHITTA,KERALA
"SOUTH INDIAN BANK",SIBL0000386,NA,THUMPAMON,"THUMPAMON BRANCH, D NO. 171,CHURCH VIEW BUILDING,THUMPAMON JUNCTION, PATHANAMTHITTA , KERALA, PIN-689502",267400,PATHANAMTHITTA,PATHANAMTHITTA,KERALA
"SOUTH INDIAN BANK",SIBL0000385,641059010,"COIMBATORE TRICHY","COIMBATORE TRICHY ROAD BRANCH, D NO. 1084 ,TRICHY ROAD ,SUNGAM, COIMBATORE , TAMIL NADU, PIN-641018",2300242,COIMBATORE,COIMBOTORE,"TAMIL NADU"
"SOUTH INDIAN BANK",SIBL0000384,NA,KUMBANAD,"KUMBANAD BRANCH, PG ALEXANDER MEMORIAL,NURSING SCHOOL,KUMBANAD, PATHANAMTHITTA , KERALA, PIN-689547",2665178,PATHANAMTHITTA,PATHANAMTHITTA,KERALA
"SOUTH INDIAN BANK",SIBL0000383,NA,ARANMULA,"ARANMULA BRANCH, SRI KRISHNA LODGE BUILDINGS,IKKARA JUNCTION ,ARANMULA, PATHANAMTHITTA , KERALA, PIN-689533",2317485,ARANMULA,PATHANAMTHITTA,KERALA
"SOUTH INDIAN BANK",SIBL0000382,NA,EZHAMKULAM,"EZHAMKULAM BRANCH, EMSON COMPLEX,MP ROAD ,P.O PARAKODE, PATHANAMTHITTA , KERALA, PIN-691554",444699,EZHAMKULAM,PATHANAMTHITTA,KERALA
"SOUTH INDIAN BANK",SIBL0000381,524059002,NELLORE,"NELLORE BRANCH,15-186,RR STREET ,OPP. MADHAVA THEATRE, NELLORE, ANDHRA PRADESH, PIN-524001",2333553,NELLORE,NELLORE,"ANDHRA PRADESH"
"SOUTH INDIAN BANK",SIBL0000380,NA,ELANTHUR,"ELANTHUR BRANCH, ST. PATRICK CATHOLIC CHURCH BLDG.,GOVT. HOSPITAL ROAD , ELANTHUR , PATHANAMTHITTA , KERALA, PIN-689643",2362210,ELANTHUR,PATHANAMTHITTA,KERALA
"SOUTH INDIAN BANK",SIBL0000379,695059006,"THIRUVANANTHAPURAM KESAVADASAPURAM","THIRUVANANTHAPURAM KESAVADASAPURAM BRANCH, BYBISA ,T.C 13/1805(7),KESAVADASAPURAM , THIRUVANANTHAPURAM , KERALA, PIN-695004",2551003,THIRUVANANTHAPURAM,TRIVANDRUM,KERALA
"SOUTH INDIAN BANK",SIBL0000378,520059102,GUNTUR,"GUNTUR BRANCH,DOOR NO. 6-19/40-43 ,11TH LANE , MAIN ROAD, GUNTUR , ANDHRA PRADESH, PIN-522002",2245655,GUNTUR,GUNTUR,"ANDHRA PRADESH"
"SOUTH INDIAN BANK",SIBL0000377,NA,KONNI,"KONNI BRANCH, PANACHAKKAL TOWERS ,MAIN ROAD ,KONNI , PATHANAMTHITTA , KERALA, PIN-689691",2345909,KONNI,PATHANAMTHITTA,KERALA
"SOUTH INDIAN BANK",SIBL0000376,680059007,"THRISSUR ROUND NORTH","THRISSUR ROUND NORTH BRANCH, ROUND NORTH BRANCH ,ALKA BUILDING ,FIRST FLOOR , THRISSUR , KERALA, PIN-680001",2320032,THRISSUR,TRISSUR,KERALA
"SOUTH INDIAN BANK",SIBL0000375,680059205,MAPRANAM,"MAPRANAM BRANCH, OPP. LAL MEMORIAL HOSPITAL ,MAIN ROAD ,MAPRANAM, THRISSUR , KERALA, PIN-680712",2821138,THRISSUR,TRISSUR,KERALA
"SOUTH INDIAN BANK",SIBL0000374,682059015,VYTILLA,"VYTILLA BRANCH, THARAYIL COMPLEX ,TRIPUNITHARA ROAD ,VYTTILA , ERNAKULAM, KERALA, PIN-682019",2301531,KOCHI,ERNAKULAM,KERALA
"SOUTH INDIAN BANK",SIBL0000373,373059003,VENNIKULAM,"VI/274, VENNIKULAM P.B.#: NIL, VENNIKULAM, PINCODE:689544, PURAMATTOM,MALLAPPALLY, KOODATHINGAL BLDG.,KERALA, PATHANAMTHITTA",2650395,PATHANAMTHITTA,PATHANAMTHITTA,KERALA
"SOUTH INDIAN BANK",SIBL0000372,400059013,"MUMBAI ANDHERI WEST","MUMBAI ANDHERI WEST BRANCH, ASHIRWAD NO.1,DADABHAI ROAD , OFF.JP RD, NR NAVRANG, GREATER MUMBAI , MAHARASHTRA , PIN-400058",26235202,MUMBAI,"GREATER BOMBAY",MAHARASHTRA
"SOUTH INDIAN BANK",SIBL0000371,NA,CHENGAROOR,"ST. GEORGE ORTHODOX CHURCH BUILDING,THIRUVALLA - MALLAPALLY ROAD,CHENGAROOR, PATHANAMTHITTA , KERALA, PIN-689594",2688797,KOTTAYAM,KOTTAYAM,KERALA
"SOUTH INDIAN BANK",SIBL0000370,641059009,"COIMBATORE GANAPATHY","COIMBATORE GANAPATHY BRANCH, CMS MATRICULATION HSS COMPOUND ,SATHY ROAD,GANAPATHY , COIMBATORE , TAMIL NADU, PIN-641006",2530228,COIMBATORE,COIMBOTORE,"TAMIL NADU"
"SOUTH INDIAN BANK",SIBL0000368,680059013,"THRISSUR EAST FORT","THRISSUR EAST FORT BRANCH, ST. JOHN'S ARCADE, EASTERN ENDOF, IKKANDA WARRIERROAD EAST FORT, THRISSUR , KERALA, PIN-680005",2420398,THRISSUR,TRISSUR,KERALA
"SOUTH INDIAN BANK",SIBL0000367,689059111,KUTTAPUZHA,"KUTTAPUZHA BRANCH, POOTHAKUZHY BUILDING , TIRUVALLA-MALLAPALLY ROAD, KUTTAPUZHA , PATHANAMTHITTA , KERALA, PIN-689111",2605780,THIRUVALLA,PATHANAMTHITTA,KERALA
"SOUTH INDIAN BANK",SIBL0000366,400059012,"MUMBAI POWAI","MUMBAI POWAI BRANCH, PLOT NO. 148 ,GROUND FLOOR,MUKALADIYIL , GREATER MUMBAI , MAHARASHTRA , PIN-400076",25778069,MUMBAI,"GREATER BOMBAY",MAHARASHTRA
"SOUTH INDIAN BANK",SIBL0000365,400059011,"MUMBAI GHATKOPAR","MUMBAI GHATKOPAR BRANCH, FLAT NO. 101 & 102 (1ST FLOOR) ,KANTA SMRUTI APTS ,KHARWADI, GREATER MUMBAI , MAHARASHTRA , PIN-400086",25136849,MUMBAI,"GREATER BOMBAY",MAHARASHTRA
"SOUTH INDIAN BANK",SIBL0000364,403059003,MARGAO,"MARGAO BRANCH,CASA DOS ALIADOS,NEXT TO GOMANT VIDYA NIKETAN,ABADE FARIA ROAD, SOUTH-GOA, GOA , PIN-403601",2704303,MARGAO,"SOUTH GOA",GOA
"SOUTH INDIAN BANK",SIBL0000363,NA,THELLAKOM,"THELLAKOM BRANCH, IX/62,CARITHAS HOSPITAL COMPLEX ,THELLAKOM , KOTTAYAM , KERALA, PIN-686016",2791587,KOTTAYAM,KOTTAYAM,KERALA
"SOUTH INDIAN BANK",SIBL0000361,400059010,"MUMBAI BORIVLI WEST","MUMBAI BORIVLI BRANCH, TULASI BAUG,SVP ROAD,BORIVLI (WEST), GREATER MUMBAI , MAHARASHTRA , PIN-400103",28956908,MUMBAI,"GREATER BOMBAY",MAHARASHTRA
"SOUTH INDIAN BANK",SIBL0000360,400059009,"MUMBAI MALAD","MUMBAI MALAD BRANCH, EDELWEISS,UNIT NOS 101 & 102,PLOT NO. 25 , GREATER MUMBAI , MAHARASHTRA , PIN-400064",28014482,MUMBAI,"GREATER BOMBAY",MAHARASHTRA
"SOUTH INDIAN BANK",SIBL0000359,110059006,"DELHI JANAKPURI","PLOT NO. B- 6 GROUND FLOOR ,BLOCK NO. A- 1,LOCAL COMMERCIAL SHOPPING CENTRE, JANAKPURI 110 058, DELHI , PIN-110058",25557592,DELHI,"NEW DELHI",DELHI
"SOUTH INDIAN BANK",SIBL0000358,110059007,"NEW DELHI CHITTARANJAN PARK","NEW DELHI GREATER KAILASH BRANCH, M- 66-M,BLOCK MARKET,GREATER KAILASH - II, DELHI, DELHI , PIN-110048",28533489,DELHI,"NEW DELHI",DELHI
"SOUTH INDIAN BANK",SIBL0000357,600059013,"CHENNAI T. NAGAR","CHENNAI T. NAGAR BRANCH, KENCEEY'S TOWERS ,NO. 1 ,RAMAKRISHNA ROAD, CHENNAI, TAMIL NADU, PIN-600017",28143589,CHENNAI,CHENNAI,"TAMIL NADU"
"SOUTH INDIAN BANK",SIBL0000355,110059008,GHAZIABAD,"GHAZIABAD BRANCH,40-41 ,ADDL. SIHANI GATE SCHEME,AMBEDKAR ROAD , GHAZIABAD, UTTAR PRADESH , PIN-201001",2792781,GHAZIABAD,GHAZIABAD,"UTTAR PRADESH"
"SOUTH INDIAN BANK",SIBL0000354,400059008,"MUMBAI ANDHERI EAST","SHOP NO.9, AMBIKA TOWERS, AGADI NAGAR,PUMP HOUSE,ANDHERI EAST,MUMBAI-400093",28257418,MUMBAI,"GREATER BOMBAY",MAHARASHTRA
"SOUTH INDIAN BANK",SIBL0000353,NA,"MYLAPRA BRANCH","MYLAPRA BRANCH, VALIAPARABIL BUILDING,KUMBAZHA NORTH,PALLIPADI JUNCTION, PATHANAMTHITTA , KERALA, PIN-689671",2223976,MYLAPRA,PATHANAMTHITTA,KERALA
"SOUTH INDIAN BANK",SIBL0000352,400059007,"MUMBAI GOREGAON","1-2-3, MILIND BHAVAN P.B.#: 8224, M.G.ROAD, PINCODE:400062 MUMBAI GOREGAON, GOREGAON WEST, M.G.ROAD,MAHARASHTRA, GREATER MUMBAI",28759595,MUMBAI,"GREATER BOMBAY",MAHARASHTRA
"SOUTH INDIAN BANK",SIBL0000351,676059152,MALAPPURAM,"MALAPPURAM BRANCH,1ST FLOOR ,NEW MUNICIPAL SHOPPING COMPLEX,DOWN HILL , MALAPPURAM , KERALA, PIN-676519",2737312,MALAPPURAM,MALAPURAM,KERALA
"SOUTH INDIAN BANK",SIBL0000349,642059102,UDUMALPET,"UDUMALPET BRANCH, SREE TOWERS, , 168/4,PALANI ROAD, ,P.O.GANDHI NAGAR, , COIMBATORE , TAMIL NADU, PIN-642154",231602,COIMBATORE,COIMBOTORE,"TAMIL NADU"
"SOUTH INDIAN BANK",SIBL0000348,682059201,KOLENCHERRY,"KOLENCHERRY BRANCH,ELOOR BUILDINGS ,(1ST FLOOR) KOLENCHERRY , ERNAKULAM, KERALA, PIN-682311",2761190,KOLENCHERRY,ERNAKULAM,KERALA
"SOUTH INDIAN BANK",SIBL0000347,673059003,"KOZHIKODE MAVOOR ROAD","5/3410 H4, GALLERIA TRADE CENTRE NEAR MARKAZ COMPLEX,MAVOOR ROAD, KOZHIKODE ,PINCODE: 673004",2720588,CALICUT,KOZHIKODE,KERALA
"SOUTH INDIAN BANK",SIBL0000346,680059014,"THRISSUR (NRI)","THRISSUR (NRI) BRANCH,ALKA BUILDING (1ST FLOOR) ,ROUND NORTH ,THRISSUR, THRISSUR , KERALA, PIN-680001",2335940,THRISSUR,TRISSUR,KERALA
"SOUTH INDIAN BANK",SIBL0000345,NA,"KOZHENCHERRY (NRI)","KOZHENCHERRY (NRI) BRANCH,CHURCH ROAD ,KOZHENCHERRY, PATHANAMTHITTA , KERALA, PIN-689641",2213349,KOZHENCHERRY,PATHANAMTHITTA,KERALA
"SOUTH INDIAN BANK",SIBL0000344,NA,"KOTTAYAM COLLECTORATE JN","AMBALLOOR BUILDING,, K K ROAD COLLECTORATE P.O., KOTTAYAM PINCODE:686002 KOTTAYAM COLLECTORATE JN., KOTTAYAM MUNICIPALITY",2569603,KOTTAYAM,KOTTAYAM,KERALA
"SOUTH INDIAN BANK",SIBL0000343,400059001,"MUMBAI SERVICE BRANCH","MUMBAI SERVICE BRANCH,EMCA BUILDING , 289, SB SINGH ROAD ,FORT, GREATER MUMBAI , MAHARASHTRA , PIN-400038",22611837,MUMBAI,"GREATER BOMBAY",MAHARASHTRA
"SOUTH INDIAN BANK",SIBL0000342,NA,"MUVATTUPUZHA (NRI)","MUVATTUPUZHA (NRI) BRANCH,MADEPARAMBIL CHAMBERS ,(GROUND FLOOR),TB JUNCTION , ERNAKULAM, KERALA, PIN-686661",2835063,MUVATTUPUZHA,ERNAKULAM,KERALA
"SOUTH INDIAN BANK",SIBL0000341,NA,"CHENGANNUR (NRI)","KIZHAKKETHALAKKAL BUILDING,OPP. ST. THOMAS CATHOLIC CHURCH ,CHENGANNUR, ALAPUZHA , KERALA, PIN-689121",2453998,CHENGANNUR,ALAPUZZHA,KERALA
"SOUTH INDIAN BANK",SIBL0000340,NA,"M C ROAD CHANGANACHERRY","474/XXXI, PB 30, KATTOOR BUILDING,S B COLLEGE JUNCTION,CHANGANACHERRY M.C.ROAD, CHANGANACHERRY,PINCODE: 686101",2410688,CHANGANASSERY,KOTTAYAM,KERALA
"SOUTH INDIAN BANK",SIBL0000338,641059103,"TIRUPUR OVERSEAS BRANCH","TIRUPUR OVERSEAS BRANCH, KMA BUILDINGS,1-A ,EASWARAN KOIL STREET NORTH, COIMBATORE , TAMIL NADU, PIN-641604",2242434,COIMBATORE,COIMBOTORE,"TAMIL NADU"
"SOUTH INDIAN BANK",SIBL0000337,NA,PANDALAM,"PANDALAM BRANCH,DOOR NO. X/785,M C ROAD,PANDALAM, PATHANAMTHITTA , KERALA, PIN-689501",253301,KOTTAYAM,KOTTAYAM,KERALA
"SOUTH INDIAN BANK",SIBL0000336,695059005,"THIRUVANANTHAPURAM (NRI)","THIRUVANANTHAPURAM (NRI) BRANCH, NRI BRANCH ,MAR BASELIOUS BUILDING,(GROUND FLOOR), THIRUVANANTHAPURAM , KERALA, PIN-695039",2337635,THIRUVANANTHAPURAM,TRIVANDRUM,KERALA
"SOUTH INDIAN BANK",SIBL0000335,NA,VAZHAKULAM,"VAZHAKULAM BRANCH, PULPARAMBIL SHOPPING COMPLEX ,VAZHAKULAM, ERNAKULAM, KERALA, PIN-686670",2260499,VAZHAKULAM,ERNAKULAM,KERALA
"SOUTH INDIAN BANK",SIBL0000334,680059334,"THRISSUR ROAD BRANCH KUNNAMKULAM","DOOR NO.510 A3, WARD NO.XIX, M.C.TOWERS , THRISSUR ROAD , KUNNAMKULAM",224912,KUNNAMKULAM,TRISSUR,KERALA
"SOUTH INDIAN BANK",SIBL0000333,680059203,"IRINJALAKUDA (NRI)","IRINJALAKUDA (NRI) BRANCH,XVIII/343 ,BLAZE COURT ,MAIN ROAD , THRISSUR , KERALA, PIN-680121",2821760,IRINJALAKUDA,TRISSUR,KERALA
"SOUTH INDIAN BANK",SIBL0000332,NA,"CHAVAKAD (NRI)","CHAVAKAD (NRI) BRANCH,22/546-C(I) ,MUNICIPAL SHOPPING COMPLEX,MAIN ROAD , THRISSUR , KERALA, PIN-680506",2509127,CHAVAKKAD,TRISSUR,KERALA
"SOUTH INDIAN BANK",SIBL0000331,NA,"ANGAMALY NORTH","VARKEYS COMPLEX,NEAR KSRTC BUS STAND, ANGAMALY ,PINCODE: 683572",2454462,ANGAMALY,ERNAKULAM,KERALA
"SOUTH INDIAN BANK",SIBL0000330,691059001,ADOOR,"ADOOR BRANCH,NUASS BUILDING,CENTRAL TOLL JUNCTION ,ADOOR , PATHANAMTHITTA , KERALA, PIN-691523",228670,ADOOR,PATHANAMTHITTA,KERALA
"SOUTH INDIAN BANK",SIBL0000329,679059101,PERINTHALMANNA,"PERINTHALMANNA BRANCH,ST. JOSEPH'S PRESS BUILDING ,KOZHIKODE ROAD,PERINTHALMANNA, MALAPPURAM , KERALA, PIN-679322",226645,CALICUT,KOZHIKODE,KERALA
"SOUTH INDIAN BANK",SIBL0000328,679059099,"CHANGARAMKULAM (NRI)","CHANGARAMKULAM (NRI) BRANCH, NRI BRANCH ,MAS SHOPPING COMPLEX,NARINIPUZHA ROAD, MALAPPURAM , KERALA, PIN-679575",2650869,MALAPPURAM,MALAPURAM,KERALA
"SOUTH INDIAN BANK",SIBL0000327,639059002,KARUR,"DOOR NO.9,, 80 FEET ROAD, P.B.#: 254, SENGUNTHAPURAM (PO), PINCODE:639002,KARUR, KARUR MUNICIPALITY,TAMIL NADU",238542,KARUR,KARUR,"TAMIL NADU"
"SOUTH INDIAN BANK",SIBL0000326,680059452,TRIPRAYAR,"TRIPRAYAR BRANCH,SALMATH SHOPPING COMPLEX,IV/459,TEMPLE ROAD , THRISSUR , KERALA, PIN-680566",2392903,TRIPRAYAR,TRISSUR,KERALA
"SOUTH INDIAN BANK",SIBL0000325,685059002,THODUPUZHA,"DOOR NO. 409/8, PALA ROAD PINCODE:685584,THODUPUZHA, THODUPUZHA MUNICIPALITY,KERALA, IDUKKI",226902,KOCHI,ERNAKULAM,KERALA
"SOUTH INDIAN BANK",SIBL0000324,NA,KARUKACHAL,"KARUKACHAL BRANCH, 1ST FLOOR V/627 -B ,ST. JOHN BAPTIST'S, FORANE CHURCH BUILDING , KOTTAYAM , KERALA, PIN-686540",2487028,KARUKACHAL,KOTTAYAM,KERALA
"SOUTH INDIAN BANK",SIBL0000323,NA,UZHAVOOR,"UZHAVOOR BRANCH, VATTAKULATHIL BUILDING ,PALA- KOOTHATTUKULAM ROAD , UZHAVOOR , KOTTAYAM , KERALA, PIN-686634",240577,KOTTAYAM,KOTTAYAM,KERALA
"SOUTH INDIAN BANK",SIBL0000322,689059002,RANNI,"RANNI BRANCH, 11/391 ,PUTHENVEETIL BUILDING ,PAZHAVANGADI PO , PATHANAMTHITTA , KERALA, PIN-689673",229544,KOTTAYAM,KOTTAYAM,KERALA
"SOUTH INDIAN BANK",SIBL0000321,671059002,KASARGOD,"KMC/III/183-B-62, GOLDEN ARCADE COMPLEXP.B.#: 44, NEAR NEW MUNICIPAL BUS STAND, PINCODE:671121,KASARGOD",220999,KASARAGOD,KASARAGOD,KERALA
"SOUTH INDIAN BANK",SIBL0000320,680059019,KECHERI,"KECHERI BRANCH, REGENT SHOPPING COMPLEX,(1ST FLOOR) ,MAIN ROAD , THRISSUR , KERALA, PIN-680501",242494,KECHERY,TRISSUR,KERALA
"SOUTH INDIAN BANK",SIBL0000318,390059002,"VADODARA (BARODA)","VADODARA (BARODA) BRANCH,1ST FLOOR ,ORIENT BUSINESS CENTRE,OPP. SURAJ PLAZA, VADODARA , GUJARAT , PIN-390005",2361084,VADODARA,VADODARA,GUJARAT
"SOUTH INDIAN BANK",SIBL0000317,680059103,VATANAPALLY,"814A,WARD NO.12,, EMINANT MALL,NH 17,  VATANAPALLY PINCODE:680614 ,VATANAPILLY CENTRE, THALIKULAM KERALA, THRISSUR",2607465,VADANAPPALLY,TRISSUR,KERALA
"SOUTH INDIAN BANK",SIBL0000316,689059003,PATHANAMTHITTA,"PATHANAMTHITTA BRANCH, XII/632,INDU INTERNATIONAL BUILDING ,PATHANAMTHITTA, PATHANAMTHITTA , KERALA, PIN-689645",2225107,PATHANAMTHITTA,PATHANAMTHITTA,KERALA
"SOUTH INDIAN BANK",SIBL0000315,NA,KANJIKUZHY,"KANJIKUZHY BRANCH, VI/29-G,JUNCTION,KANJIKUZHY, KOTTAYAM , KERALA, PIN-686004",2572902,KOTTAYAM,KOTTAYAM,KERALA
"SOUTH INDIAN BANK",SIBL0000314,NA,"MALLAPALLY BRANCH","MALLAPALLY BRANCH, 13/1 ,KARAKKAL BUILDING ,CENTRAL JUNCTION, PATHANAMTHITTA , KERALA, PIN-689585",2681981,MALLAPPALLY,PATHANAMTHITTA,KERALA
"SOUTH INDIAN BANK",SIBL0000313,682059008,KAKKANAD,"D.NO-426/B, TRANS AVENUE, MAVELIPURAM, KAKKANAD, KOCHI-682030",2421883,KAKKANAD,ERNAKULAM,KERALA
"SOUTH INDIAN BANK",SIBL0000312,600059010,"CHENNAI INDUSTRIAL FINANCE BRANCH","CHENNAI INDUSTRIAL FINANCE BRANCH, 110, RAHEJA TOWERS , 177,ANNA SALAI, CHENNAI, TAMIL NADU, PIN-600002",28603965,CHENNAI,CHENNAI,"TAMIL NADU"
"SOUTH INDIAN BANK",SIBL0000311,682059006,"ERNAKULAM OVERSEAS BRANCH,","ERNAKULAM OVERSEAS BRANCH, OVERSEAS BRANCH,DOOR NO. 33/2171.A1 ,BYE PASS JUNCTION , ERNAKULAM, KERALA, PIN-682028",2805740,KOCHI,ERNAKULAM,KERALA
"SOUTH INDIAN BANK",SIBL0000310,641059003,"COIMBATORE R S PURAM","COIMBATORE INDUSTRIAL FINANCE BRANCH,D NO. 1084,TRICHY ROAD ,SUNGAM, COIMBATORE , TAMIL NADU, PIN-641018",2552722,COIMBATORE,COIMBOTORE,"TAMIL NADU"
"SOUTH INDIAN BANK",SIBL0000309,400059006,"MUMBRA BRANCH","MUMBRA BRANCH, GROUND FLOOR ,RAVI CO-OP. HOUSING SOCIETY LTD ,AMRUT NAGAR , MUMBRA-400 612 , MAHARASHTRA , PIN-400612",25469200,THANE,THANE,MAHARASHTRA
"SOUTH INDIAN BANK",SIBL0000308,800059002,PATNA,"PATNA BRANCH, 1ST FLOOR,SARYUG COMPLEX,NEHRU NAGAR , PATNA, BIHAR , PIN-800013",2264343,PATNA,PATNA,BIHAR
"SOUTH INDIAN BANK",SIBL0000307,682059005,"ERNAKULAM (NRI)","ERNAKULAM (NRI) BRANCH, NRI BRANCH ,GCDA COMMERCIAL COMPLEX ,MARINE DRIVE, ERNAKULAM, KERALA, PIN-682031",2380580,KOCHI,ERNAKULAM,KERALA
"SOUTH INDIAN BANK",SIBL0000306,395059002,SURAT,"SURAT BRANCH, ASHA HOUSE GROUND FLOOR, , 21ST CENTURY BUSINESS CENTRE , C- BUILDING, BESIDE WORLD, SURAT, GUJARAT , PIN-395002",2321946,SURAT,SURAT,GUJARAT
"SOUTH INDIAN BANK",SIBL0000305,600059001,"CHENNAI SERVICE","CHENNAI SERVICE BRANCH, 19 ,GROUND FLOOR , ,MOUNT ROAD,OPP: ANNASALAI HPO , CHENNAI, TAMIL NADU, PIN-600002",28544080,CHENNAI,CHENNAI,"TAMIL NADU"
"SOUTH INDIAN BANK",SIBL0000304,NA,BELLADI,"BELLADI BRANCH, 2/285-G,CHINNATHOTTIPALAYAM ,BELLADI , COIMBATORE , TAMIL NADU, PIN-641104",272530,BELLADI,COIMBOTORE,"TAMIL NADU"
"SOUTH INDIAN BANK",SIBL0000303,110059005,"DELHI ROHINI","DELHI ROHINI BRANCH,VIKAS PLAZA PLOT NO. 2,SPACE NO. 103 ,COMMUNITY CENTRE, DELHI, DELHI , PIN-110085",27942185,DELHI,"NEW DELHI",DELHI
"SOUTH INDIAN BANK",SIBL0000302,636059003,"SALEM LEIGH BAZAR","SALEM LEIGH BAZAR BRANCH, SREE LAKSHMI COMPLEX ,4/33,OMALUR MAIN ROAD, SALEM, TAMIL NADU, PIN-636004",2431007,SALEM,SALEM,"TAMIL NADU"
"SOUTH INDIAN BANK",SIBL0000301,NA,"T. SUBBULAPURAM","T. SUBBULAPURAM BRANCH, 2/214,MAIN ROAD ,T. SUBBULAPURAM , T SUBBULAPURAM - 626 536 , TAMIL NADU, PIN-626536",242221,T.SUBBULAPURAM,THENI,"TAMIL NADU"
"SOUTH INDIAN BANK",SIBL0000300,NA,ANANDAVADI,"ANANDAVADI BRANCH, 7/41-2 ,POST OFFICE ROAD,ANANDAVADI, ARIYALUR , TAMIL NADU, PIN-621718",291444,ANANDAVADI,PERAMBALUR,"TAMIL NADU"
"SOUTH INDIAN BANK",SIBL0000299,680059006,"THRISSUR MISSION QUARTERS","THRISSUR MISSION QUARTERS BRANCH, OPP. ALL SAINTS CHURCH ,MAIN ROAD ,MISSION QUARTERS, THRISSUR , KERALA, PIN-680001",2428090,THRISSUR,TRISSUR,KERALA
"SOUTH INDIAN BANK",SIBL0000297,NA,ELAMBULASSERY,"DOOR NO.392, WARD NO.9, ELAMBULASSERY P.O., PINCODE:678595,KERALA, PALAKKAD",22658977,SRIKRISHNAPURAM,PALAKKAD,KERALA
"SOUTH INDIAN BANK",SIBL0000296,NA,POGALUR,"POGALUR BRANCH, 6/70 ,POGALUR , COIMBATORE , TAMIL NADU, PIN-641697",262494,POGALUR,COIMBOTORE,"TAMIL NADU"
"SOUTH INDIAN BANK",SIBL0000295,NA,JAVADUPATTY,"JAVADUPATTY BRANCH, 108-A,WARD NO. 3,JAVADUPATTY , DINDIGUL , TAMIL NADU, PIN-624704",220292,JAVADUPATTY,DINDIGUL,"TAMIL NADU"
"SOUTH INDIAN BANK",SIBL0000294,641059006,PALLAPALAYAM,"PALLAPALAYAM BRANCH, 155, TRICHY ROAD ,GANDHI NAGAR,PALLAPALAYAM, COIMBATORE , TAMIL NADU, PIN-641016",2273420,COIMBATORE,COIMBOTORE,"TAMIL NADU"
"SOUTH INDIAN BANK",SIBL0000293,638059005,INGUR,"INGUR BRANCH, SAKTHI COMPLEX ,14/14 ,1ST FLOOR , ERODE, TAMIL NADU, PIN-638058",230236,INGUR,ERODE,"TAMIL NADU"
"SOUTH INDIAN BANK",SIBL0000291,NA,NELVOY,"NELVOY BRANCH, NELVOY ,(VIA) SALAVAKKAM, KANCHEEPURAM , TAMIL NADU, PIN-603107",27293219,NELVOY,KANCHEEPURAM,"TAMIL NADU"
"SOUTH INDIAN BANK",SIBL0000290,600059016,SRIPERUMBUDUR,"SRIPERUMBUDUR BRANCH, NO. 119 A,GANDHI ROAD ,SRIPERUMBUDUR , KANCHEEPURAM , TAMIL NADU, PIN-602105",27162177,SRIPERUMBUDUR,KANCHEEPURAM,"TAMIL NADU"
"SOUTH INDIAN BANK",SIBL0000288,NA,DHEEVANUR,"R K G BUILDING, MAIN ROAD ,DHEEVANUR PINCODE:604206 , TAMIL NADU, VILLUPURAM-RAMASAMY",235223,DHEEVANUR,VILLUPURAM,"TAMIL NADU"
"SOUTH INDIAN BANK",SIBL0000287,NA,GOOLIKADAVU,"GOOLIKADAVU BRANCH, FATHIMA MATHA COMPLEX,GOOLIKADAVU ,ATTAPADY, PALAKKAD , KERALA, PIN-678581",254405,PALAKKAD,PALAKKAD,KERALA
"SOUTH INDIAN BANK",SIBL0000286,NA,PACHAMBALA,"PACHAMBALA BRANCH, SIDDIQUE COMPLEX ,PACHAMBLA ,PO ICHILANGODE, KASARAGOD, KERALA, PIN-671324",63156,PACHAAMBALA,KASARAGOD,KERALA
"SOUTH INDIAN BANK",SIBL0000285,NA,P.METTUPALAYAM,"82/1,MAIN ROAD,P.METTUPALAYAMA,ERODE-638 315, TAMILNADU",240434,GOBICHETTIPALAYAM,ERODE,"TAMIL NADU"
"SOUTH INDIAN BANK",SIBL0000284,NA,PADUR,"PADUR BRANCH, GST ROAD ,PARI NAGAR,(NH 45) , VILLUPURAM , TAMIL NADU, PIN-606115",209749,PADUR,VILLUPURAM,"TAMIL NADU"
"SOUTH INDIAN BANK",SIBL0000282,600059009,"CHENNAI ANNA NAGAR","CHENNAI ANNA NAGAR BRANCH, 995 E,2ND AVENUE ANNA NAGAR ,CHENNAI , CHENNAI, TAMIL NADU, PIN-600040",26161760,CHENNAI,CHENNAI,"TAMIL NADU"
"SOUTH INDIAN BANK",SIBL0000281,NA,AKALAKUNNAM,"AKALAKUNNAM BRANCH, AKALAKUNNAM,P.O KANJIRAMATTAM ,(VIA) CHENGALAM , KOTTAYAM , KERALA, PIN-686585",2704242,AKALAKUNNAM,KOTTAYAM,KERALA
"SOUTH INDIAN BANK",SIBL0000280,607059002,CUDDALORE,"NO. 33-B, SIVA COMPLEX IMPERIAL ROAD PINCODE:607002 CUDDALORE, CUDDALORE MUNICIPALITY,TAMIL NADU",236374,CUDDALORE,CUDDALORE,"TAMIL NADU"
"SOUTH INDIAN BANK",SIBL0000279,560059009,"BANGALORE MALLESWARAM","BANGALORE MALLESWARAM BRANCH, 230, 1ST FLOOR ,15TH CROSS,MALLESWARAM , BANGALORE, KARNATAKA , PIN-560003",23368321,BANGALORE,"BANGALORE URBAN",KARNATAKA
"SOUTH INDIAN BANK",SIBL0000278,NA,KADAVALLUR,"KADAVALLUR BRANCH, 1/517,1ST FLOOR ,HIGH WAY, THRISSUR , KERALA, PIN-680543",282341,KADAVALLUR,TRISSUR,KERALA
"SOUTH INDIAN BANK",SIBL0000277,641059005,"COIMBATORE SAIBABA COLONY","COIMBATORE SAIBABA COLONY BRANCH, 62/431-435, NSR ROAD , SAIBABA COLONY , COIMBATORE , TAMIL NADU, PIN-641011",2430985,COIMBATORE,COIMBOTORE,"TAMIL NADU"
"SOUTH INDIAN BANK",SIBL0000275,NA,CHINNAKANAL,"DOOR NO.2/127/D, WARD II, OTTAYIL HOUSE ,MAIN ROAD, CHINNAKANAL P.O PINCODE:685618 (VIA) MUNNAR,KERALA, IDUKKI",249310,CHINNAKANAL,IDUKKI,KERALA
"SOUTH INDIAN BANK",SIBL0000274,NA,KANIYALAMPATTI,"KANIYALAMPATTI BRANCH, 4/36,A-3 ,MAIN ROAD ,KANIYALAMPATTI, KANIYALAMPATTI - 621 301 , TAMIL NADU, PIN-621301",255336,KANIYALAMPATTY,KARUR,"TAMIL NADU"
"SOUTH INDIAN BANK",SIBL0000273,NA,AYIROOPARA,"MELULIYAZHATHARA BRANCH, X/388,MELULIYAZHATHARA,PO AYIROOPARA , THIRUVANANTHAPURAM , KERALA, PIN-695584",2419325,POTHENCODE,TRIVANDRUM,KERALA
"SOUTH INDIAN BANK",SIBL0000272,NA,PERUMPUZHA,"PERUMPUZHA BRANCH, IX/743 ,SAI MANDIRAM,KUNDARA - KOTTIYAM ROAD , KOLLAM , KERALA, PIN-691504",2522573,KOLLAM,KOLLAM,KERALA
"SOUTH INDIAN BANK",SIBL0000271,690059101,MAVELIKARA,"MAVELIKARA BRANCH, 6/168B ,FIRST FLOOR, , SAMUEL BUILDINGS , NADAKAVU , ALAPUZHA , KERALA, PIN-690101",2307855,MAVELIKKARA,ALAPUZZHA,KERALA
"SOUTH INDIAN BANK",SIBL0000269,673059004,"KOZHIKODE WEST HILL","KOZHIKODE WEST HILL BRANCH, RAJARAM BUILDING (1ST FLOOR) ,CANNANORE ROAD, KOZHIKODE, KERALA, PIN-673006",2368021,CALICUT,KOZHIKODE,KERALA
"SOUTH INDIAN BANK",SIBL0000268,638059008,ENNAMANGALAM,"ENNAMANGALAM BRANCH, IV - 3/54-B,AMMANKOIL STREET,ENNAMANGALAM, ERODE, TAMIL NADU, PIN-638501",251143,ENNAMANGALAM,ERODE,"TAMIL NADU"
"SOUTH INDIAN BANK",SIBL0000267,700059006,"KOLKATA BALLYGUNGE","48,LEELA ROY SARANI GARIAHAT RD,MAYURA CENTRE BALLYGUNGE,KOLKATA , CALCUTTA , WEST BENGAL , PIN-700019",24617624,KOLKATA,KOLKATA,"WEST BENGAL"
"SOUTH INDIAN BANK",SIBL0000266,400059004,"MUMBAI GIRGAUM","MUMBAI GIRGAUM BRANCH,163-165 ,ANAND BHAVAN,V.P ROAD, GREATER MUMBAI , MAHARASHTRA , PIN-400004",23826504,MUMBAI,"GREATER BOMBAY",MAHARASHTRA
"SOUTH INDIAN BANK",SIBL0000265,NA,KATHIKUDAM,"KATHIKUDAM BRANCH, KATHIKUDAM ,(VIA) KORATTY , THRISSUR , KERALA, PIN-680308",2718112,KATHIKUDAM,TRISSUR,KERALA
"SOUTH INDIAN BANK",SIBL0000264,NA,"INTERNATIONAL BANKING DIVISION ERNAKULAM","MARKET ROAD,ERANAKULAM, KERALA, 682031",2355499,KOCHI,ERNAKULAM,KERALA
"SOUTH INDIAN BANK",SIBL0000263,400059003,"MUMBAI FORT BRANCH","MUMBAI FORT BRANCH,EMCA HOUSE (GROUND FLOOR) , 289,SB SINGH ROAD , GREATER MUMBAI , MAHARASHTRA , PIN-400038",22658974,MUMBAI,"GREATER BOMBAY",MAHARASHTRA
"SOUTH INDIAN BANK",SIBL0000262,700059004,"KOLKATA BRABOURNE ROAD","KOLKATA BRABOURNE ROAD (P.C STR) BRANCH,VAISHNO CHAMBERS,6 ,BRABOURNE ROAD , CALCUTTA , WEST BENGAL , PIN-700001",22343559,KOLKATA,KOLKATA,"WEST BENGAL"
"SOUTH INDIAN BANK",SIBL0000261,689059052,CHENGANNUR,"DOOR NO.12, WARD NO.XI, AMBATTU BUILDING, COURT ROAD CHENGANNUR P.O., PINCODE:689121",2455002,CHENGANNUR,ALAPUZZHA,KERALA
"SOUTH INDIAN BANK",SIBL0000260,NA,PULPALLY,"MADATHIL BUILDING, MAIN ROAD P.B.#: WYNAD DIST , PULPALLY, PINCODE:673579,SULTHAN BATHERY, KERALA, WAYANAD",240275,PULPALLY,WAYANAD,KERALA
"SOUTH INDIAN BANK",SIBL0000259,695059801,KARETTE,"KARETTE BRANCH, VI/31A ,PADMANABHA BUILDING ,KARETTE -PO VAMANAPURAM , THIRUVANANTHAPURAM , KERALA, PIN-695606",2836336,THIRUVANANTHAPURAM,TRIVANDRUM,KERALA
"SOUTH INDIAN BANK",SIBL0000258,570059002,MYSORE,"MYSORE BRANCH,50 & 51 ,1ST FLOOR ,DEVRAJ URS ROAD , MYSORE , KARNATAKA , PIN-570001",2424979,MYSORE,MYSORE,KARNATAKA
"SOUTH INDIAN BANK",SIBL0000257,NA,CHEMBANODA,"CHEMBANODA BRANCH, MAIN ROAD,CHEMBANODA,(VIA) PERUVANNAMUZHI, KOZHIKODE, KERALA, PIN-673528",2666277,CHEMBANODA,KOZHIKODE,KERALA
"SOUTH INDIAN BANK",SIBL0000256,NA,UPPATTI,"UPPATTI BRANCH, ST. GEORGE BUILDING,MAIN ROAD ,UPPATTI , NILGIRI, TAMIL NADU, PIN-643241",220256,UDHAGAMANDALAM,NILGIRIS,"TAMIL NADU"
"SOUTH INDIAN BANK",SIBL0000255,637059002,MARAPPARAI,"MARAPPARAI BRANCH, 2/28, KVR BUILDINGS,MARAPPARAI,PO VIAPPAMALAI, TAMIL NADU, PIN-637410",233262,SALEM,SALEM,"TAMIL NADU"
"SOUTH INDIAN BANK",SIBL0000254,627059002,TIRUNELVELI,"TIRUNELVELI BRANCH,HOTEL BLUESTAR COMPLEX, 32 ,MADURAI ROAD, TIRUNELVELI, TAMIL NADU, PIN-627001",2321744,MADURAI,MADURAI,"TAMIL NADU"
"SOUTH INDIAN BANK",SIBL0000253,612059002,KUMBAKONAM,"KUMBAKONAM BRANCH,40-43 ,SARANGAPANI SOUTH STREET,KUMBAKONAM, THANJAVUR, TAMIL NADU, PIN-612001",2421619,KUMBAKONAM,THANJAVUR,"TAMIL NADU"
"SOUTH INDIAN BANK",SIBL0000252,NA,KOTIPALLI,"KOTIPALLI BRANCH, 4/09,PANCHAYATH ROAD ,KOTTIPALLI, EAST GODAVARI, ANDHRA PRADESH, PIN-533306",2365657,KOTIPALLY,"EAST GODAVARI","ANDHRA PRADESH"
"SOUTH INDIAN BANK",SIBL0000251,NA,PAKALKURI,"DOOR NO M P 9-292, RAMA NILAYAM ,PAKALKURI , THIRUVANANTHAPURAM , KERALA, PIN-695604",2682046,PAKALKURI,TRIVANDRUM,KERALA
"SOUTH INDIAN BANK",SIBL0000250,NA,ERIYAD,"ARAFA BLDGS., MARKET, ERIYAD ,, THRISSUR , KERALA, PIN-680666",2819796,ERIYAD,TRISSUR,KERALA
"SOUTH INDIAN BANK",SIBL0000249,NA,KAJULURU,"DOOR NO:2/21 ,NEAR KAJULURU BUS STOP,KAJULURU ,EAST GODAVARI DT. ANDHRA PRADESH, PIN-533263",2330434,KAJULURU,"EAST GODAVARI","ANDHRA PRADESH"
"SOUTH INDIAN BANK",SIBL0000248,533059102,RAJAHMUNDRY,"DNO-6-3-13,CHALLAPALLIVARI,T-NAGAR,RAJAHMUNDRY, ANDHRA PRADESH, PIN-533101",2442643,RAJAHMUNDRY,"EAST GODAVARI","ANDHRA PRADESH"
"SOUTH INDIAN BANK",SIBL0000247,NA,PANANGAD,",DOOR NO: 10/574A,KINALOOR VILLAGE ,UNNIKULAM, THALAYAD P O, EKAROOL KAKKAYAM ROAD,PANANGAD, KERALA, PIN-673574",2270262,UNNIKULAM,KOZHIKODE,KERALA
"SOUTH INDIAN BANK",SIBL0000246,500059003,SECUNDERABAD,"SECUNDERABA0D BRANCH, 1-7-395, GROUND FLOOR, SAROJINI DEVI ROAD , SECUNDERABAD , HYDERABAD, ANDHRA PRADESH, PIN-500003",27845170,HYDERABAD,"HYDERABAD URBAN","ANDHRA PRADESH"
"SOUTH INDIAN BANK",SIBL0000245,NA,PASUMATHUR,"NO.1/90-A CHAVADY ROAD ,VIA GUDIYATTAM R S,PASUMATHUR , VELLORE, TAMIL NADU, PIN-635803",244229,PASUMATHUR,VELLORE,"TAMIL NADU"
"SOUTH INDIAN BANK",SIBL0000243,NA,KALIYAR,"KALIYAR BRANCH, X/340,D-10,VANNAPPURAM P.O., (VIA)THODUPUZHA, MUNDACKAL TOWER,KALIYAR, IDUKKI , KERALA, PIN-685582",245342,KALIYAR,IDUKKI,KERALA
"SOUTH INDIAN BANK",SIBL0000242,NA,UDIYANKULANGARA,"UDIYANKULANGARA BRANCH, X/1330 ,NOHA COMPLEX,MAIN ROAD , THIRUVANANTHAPURAM , KERALA, PIN-695122",2233308,THIRUVANANTHAPURAM,TRIVANDRUM,KERALA
"SOUTH INDIAN BANK",SIBL0000241,NA,KARIAMANICKAM,"KARIAMANICKAM BRANCH, 202/1,PILLAYAR KOVIL STREET ,KARIAMANICKAM , TIRUCHIRAPALLI , TAMIL NADU, PIN-621005",2655221,MANACHANALLUR,TIRUCHIORAPPALLI,"TAMIL NADU"
"SOUTH INDIAN BANK",SIBL0000240,686059001,KAPPAD,"GROUND FLOOR,JOHN PAUL II PILGRIM CENTRE, K.E. ROAD, KAPPAD, KOTTAYAM , KOTTAYAM , KERALA, PIN-686508",236933,KOTTAYAM,KOTTAYAM,KERALA
"SOUTH INDIAN BANK",SIBL0000239,NA,MURIKKASSERY,"MURIKKASSERY BRANCH, PATHICATT BUILDING ,KARIMPANA ROAD,IDUKKI COLONY , IDUKKI , KERALA, PIN-685602",263244,MURIKKASSERY,IDUKKI,KERALA
"SOUTH INDIAN BANK",SIBL0000238,NA,ANJOOR,"DOOR NO.289,WARD NO.VIII,, NILA COMPLEX,ANJOOR, THOZHIYOOR P.O, PINCODE: 680520",2681039,ANJOOR,TRISSUR,KERALA
"SOUTH INDIAN BANK",SIBL0000237,NA,KANNANALLOOR,"KANNANALLOOR BRANCH, TP - VI/170,KOLLAM ROAD ,KANNANALLOOR, KOLLAM , KERALA, PIN-691576",2501012,KOLLAM,KOLLAM,KERALA
"SOUTH INDIAN BANK",SIBL0000236,695059004,"TRIVANDRUM CHACKAI","T.C.NO. 31/1398 (3), N.H BYEPASS ROAD , CHAKKAI JUNCTION, P.O. PETTAH, THIRUVANANTHAPURAM , KERALA, PIN-695024",2505205,THIRUVANANTHAPURAM,TRIVANDRUM,KERALA
"SOUTH INDIAN BANK",SIBL0000235,577059002,DAVENGERE,"NO. 659/1, GROUND FLOOR, MANDIPET, DAVENGERE, KARNATAKA , PIN-577001",257654,DAVANGERE,DAVANAGARE,KARNATAKA
"SOUTH INDIAN BANK",SIBL0000234,NA,POOCHAKULAM,"POOCHAKULAM BRANCH, VII/342,POOCHAKULAM ,(CHELOOR) , THRISSUR , KERALA, PIN-680121",2821826,POOCHAKULAM(CHELOOR),TRISSUR,KERALA
"SOUTH INDIAN BANK",SIBL0000233,NA,MUPLIYAM,"DOOR NO.496 A,WARD NO.XV,MAIN ROAD,OPP.ASSUMPTION CHURCH,MUPLIYAM P O,MUPLIYAM, THRISSUR , KERALA, PIN-680312",2780227,MUPLIYAM,TRISSUR,KERALA
"SOUTH INDIAN BANK",SIBL0000232,632059302,GUDIYATTAM,"GUDIYATTAM BRANCH, 277, SANTHAPET ,GUDIYATTAM, VELLORE, TAMIL NADU, PIN-632602",220456,GUDIYATTAM,VELLORE,"TAMIL NADU"
"SOUTH INDIAN BANK",SIBL0000231,560059006,"BANGALORE MARUTHISEVANAGAR","DOOR NO.10/3-1,WARD NO.86,BANASWADI MAIN ROAD,MARUTHI SEVA NAGAR P.O,ASHWA ARCAD, BANGALORE, KARNATAKA , PIN-560033",5461331,BANGALORE,"BANGALORE URBAN",KARNATAKA
"SOUTH INDIAN BANK",SIBL0000230,NA,MEPPADI,"MEPPADI BRANCH,DOOR NO MP IX/960 F ,MEBURACK BUILDING ,MEPPADI , WAYANAD, KERALA, PIN-673577",282484,MEPPADI,WAYANAD,KERALA
"SOUTH INDIAN BANK",SIBL0000229,600059004,"CHENNAI WOODS ROAD","CHENNAI WOODS ROAD BRANCH, 20, WOODS ROAD , CHENNAI, CHENNAI, TAMIL NADU, PIN-600002",28460544,CHENNAI,CHENNAI,"TAMIL NADU"
"SOUTH INDIAN BANK",SIBL0000228,682059004,PALARIVATTOM,"POST BOX NO2284,JANATHA JUNCTION,PALARIVATTOM, ERNAKULAM, KERALA, PIN-682025",2344940,KOCHI,ERNAKULAM,KERALA
"SOUTH INDIAN BANK",SIBL0000227,NA,DAMAL,"DOOR NO.229/3 ,MAIN ROAD ,DAMAL , KANCHEEPURAM , TAMIL NADU, PIN-631602",27246528,DAMAL,KANCHEEPURAM,"TAMIL NADU"
"SOUTH INDIAN BANK",SIBL0000226,NA,ARUMUGHAPETTAI,"DOOR NO.92, WARD NO. 5, RAJA STREET ,ARUMUGHAPETTAI, PINCODE: 631605",256062,KANCHIPURAM,KANCHEEPURAM,"TAMIL NADU"
"SOUTH INDIAN BANK",SIBL0000225,NA,ERAVIPEROOR,"P.B.NO:  3,  ERAVIPEROOR JUNCTION,ERAVIPERUR, KERALA, PIN-689542",2664474,ERAVIPEROOR,PATHANAMTHITTA,KERALA
"SOUTH INDIAN BANK",SIBL0000224,682059013,KALAMASSERY,"POST BOX NO 20,PREMIER JUNCTION,KALAMASSERY , ERNAKULAM, KERALA, PIN-683104",2555003,KALAMASSERY,ERNAKULAM,KERALA
"SOUTH INDIAN BANK",SIBL0000223,700059003,"KOLKATA BURRA BAZAR","KOLKATA BURRA BAZAR BRANCH, SRINIKETAN HOUSE , 25 ,KALIKRISHNA TAGORE STREET , CALCUTTA , WEST BENGAL , PIN-700007",22749433,KOLKATA,KOLKATA,"WEST BENGAL"
"SOUTH INDIAN BANK",SIBL0000222,689059001,KOZHENCHERRY,"POST BO NO 3,11/698,POYANIL BUILDING,1ST FLOOR , PATHANAMTHITTA , KERALA, PIN-689641",2210443,KOZHENCHERRY,PATHANAMTHITTA,KERALA
"SOUTH INDIAN BANK",SIBL0000221,110059004,"DELHI CHANDNI CHOWK","DELHI CHANDNI CHOWK BRANCH, 4946-4948,PAL MARKET,CHANDNI CHOWK , DELHI, DELHI , PIN-110006",23955010,DELHI,"NEW DELHI",DELHI
"SOUTH INDIAN BANK",SIBL0000220,NA,KODUVAYUR,"DOOR NO.946,WARD NO.3,MAIN ROAD ,KODUVAYUR P O , PALAKKAD , KERALA, PIN-678501.",252206,KODUVAYUR,PALAKKAD,KERALA
"SOUTH INDIAN BANK",SIBL0000219,683059002,ANGAMALY,"P.B.NO: 29, CHENNAKADAN BUILDING,BANK JN ,ALUVA ROAD, ERNAKULAM, KERALA, PIN-683572",2457010,ANGAMALY,ERNAKULAM,KERALA
"SOUTH INDIAN BANK",SIBL0000218,571059502,MANDYA,"#1119 / A, OPPOSITE RAILWAY STATION, M C ROAD ,MANDYA , KARNATAKA , PIN-571401",220813,MANDYA,MANDYA,KARNATAKA
"SOUTH INDIAN BANK",SIBL0000217,NA,SILAIMAN,"1/166 ,SUDARSANA NIWAS COMPLEX ,MAIN ROAD , MADURAI, TAMIL NADU, PIN-625201",2465527,SILAIMAN,MADURAI,"TAMIL NADU"
"SOUTH INDIAN BANK",SIBL0000216,NA,ODAYAMKULAM,"ODAYAMKULAM BRANCH,DOOR NO. 8/3-1,SETHUMADAI ROAD,ODAYAMKULAM ,VETTAIKARANPUDUR, COIMBATORE , TAMIL NADU, PIN-642129",282210,ODAYAKULAM,COIMBOTORE,"TAMIL NADU"
"SOUTH INDIAN BANK",SIBL0000215,682059016,KUMBALAM,"N.H.BYE-PASS ROAD,KUMBALAM JN,KUMBALAM,R.G.BLDGS, ERNAKULAM, KERALA, PIN-682506",2700393,KUMBALAM,ERNAKULAM,KERALA
"SOUTH INDIAN BANK",SIBL0000214,NA,KATTANAM,"KATTANAM BRANCH, GALAXY ,BP XII - 339 B 2,KATTANAM JN KATTANAM, ALAPUZHA , KERALA, PIN-690503",2332036,ALAPPUZHA,ALAPUZZHA,KERALA
"SOUTH INDIAN BANK",SIBL0000213,NA,CHELLANAM,"CHELLANAM BRANCH, AMJ COMPLEX,(1ST FLOOR) ,CHELLANAM , ERNAKULAM, KERALA, PIN-682008",2249895,CHELLANAM,ERNAKULAM,KERALA
"SOUTH INDIAN BANK",SIBL0000212,NA,PAMPADY,"71D/VII, RHEMA CENTER ,PAMPADY , KOTTAYAM , KERALA, PIN-686502",2505494,PAMPADY,KOTTAYAM,KERALA
"SOUTH INDIAN BANK",SIBL0000211,NA,BANAVARAM,"BANAVARAM BRANCH, 322/1,GROUND FLOOR,GANDHI ROAD , VELLORE, TAMIL NADU, PIN-632505",249240,BANAVARAM,VELLORE,"TAMIL NADU"
"SOUTH INDIAN BANK",SIBL0000210,NA,KALLARA,"KALLARA BRANCH, ST. MARY'S CHURCH BUILDING ,KALLARA (NORTH) , KOTTAYAM , KERALA, PIN-686611",267302,KALLARA,KOTTAYAM,KERALA
"SOUTH INDIAN BANK",SIBL0000209,NA,NOCHIAM,"NOCHIAM BRANCH, 4/81 B ,TRICHY-SALEM MAIN ROAD,NOCHIAM , TIRUCHIRAPALLI , TAMIL NADU, PIN-621216",2560411,NOCHIAM,TIRUCHIORAPPALLI,"TAMIL NADU"
"SOUTH INDIAN BANK",SIBL0000208,NA,MUTHARASANALLUR,"DOOR NO.3/1,GANGA TOWERS,BAZAR STREET,MUTHARASANALLUR,TIRUCHIRAPALLI, TAMIL NADU, PIN-620101",2685233,MUTHARASSANELLOOR,TIRUCHIORAPPALLI,"TAMIL NADU"
"SOUTH INDIAN BANK",SIBL0000207,680059125,KUNDALIYUR,"KUNDALIYUR BRANCH, KAKKANAT BUILDING,OPP. KUNDALIYUR POST OFFICE ,MAIN ROAD , THRISSUR , KERALA, PIN-680616",2290223,KUNDALIYUR,TRISSUR,KERALA
"SOUTH INDIAN BANK",SIBL0000206,641059007,"COIMBATORE NGGO COLONY","COIMBATORE NGGO COLONY BRANCH, NGGO COLONY, KURUDAMPALAYAM ,COIMBATORE, COIMBATORE , TAMIL NADU, PIN-641022",2642327,COIMBATORE,COIMBOTORE,"TAMIL NADU"
"SOUTH INDIAN BANK",SIBL0000204,NA,AYYAMPETTAI,"AYYAMPETTAI BRANCH, 64/4,MELA STREET ,AYYAMPETTAI , KANCHEEPURAM , TAMIL NADU, PIN-631601",27253216,AIYAMPET,KANCHEEPURAM,"TAMIL NADU"
"SOUTH INDIAN BANK",SIBL0000203,600059015,PADAPPAI,"PADAPPAI BRANCH, 2/410,BAZAR STREET,PADAPPAI, KANCHEEPURAM , TAMIL NADU, PIN-601301",27174248,PADAPPAI,KANCHEEPURAM,"TAMIL NADU"
"SOUTH INDIAN BANK",SIBL0000202,NA,KANJAR,"KANJAR BRANCH, PURAYIDATHIL BUILDING,KANJAR,(VIA) THODUPUZHA, IDUKKI , KERALA, PIN-685592",252072,KANJAR,IDUKKI,KERALA
"SOUTH INDIAN BANK",SIBL0000201,641059011,OTHAKALMANDAPAM,"12/1 POLLACHI MAIN ROAD , OTHAKALMANDAPAM,KANDHASWAMY GOUNDER DR SIVASWAMY TOWERS, COIMBATORE , TAMIL NADU, PIN-641032",2610664,OTHAKALMANDAPAM,COIMBOTORE,"TAMIL NADU"
"SOUTH INDIAN BANK",SIBL0000200,600059099,BODINAYAKANUR,"6/79 KAMARAJ BAZAR ,BODINAYAKANNUR, MADURAI-DIST  ,TAMIL NADU, PIN-625513",280344,BODINAYAKANUR,THENI,"TAMIL NADU"
"SOUTH INDIAN BANK",SIBL0000199,NA,PUDUKODE,"PUDUKODE BRANCH, 8/256,ANCHUMURRY,PUDUKODE, PALAKKAD , KERALA, PIN-678687",266241,PUDUKODE,PALAKKAD,KERALA
"SOUTH INDIAN BANK",SIBL0000198,NA,THOLANUR,"THOLANUR BRANCH, 1/376,DENHOLM BUILDING,MAIN ROAD , PALAKKAD , KERALA, PIN-678722",287223,THOLANUR,PALAKKAD,KERALA
"SOUTH INDIAN BANK",SIBL0000197,NA,CHERPUNKAL,"CHERPUNKAL BRANCH, 33 ,KOICKAL BUILDING,MAIN ROAD , KOTTAYAM , KERALA, PIN-686584",255969,KOTTAYAM,KOTTAYAM,KERALA
"SOUTH INDIAN BANK",SIBL0000196,NA,ORATHI,"ORATHI BRANCH, 143-A,MAIN ROAD ,ORATHI, KANCHEEPURAM , TAMIL NADU, PIN-603307",27549922,ORATHI,KANCHEEPURAM,"TAMIL NADU"
"SOUTH INDIAN BANK",SIBL0000195,NA,ELAPAKAM,"ELAPAKAM BRANCH, MAIN ROAD,PINNAPOONDI ,ELAPAKKAM , KANCHEEPURAM , TAMIL NADU, PIN-603201",27524533,ELAPAKAM,KANCHIPURAM,"TAMIL NADU"
"SOUTH INDIAN BANK",SIBL0000194,400059005,"MUMBAI NARIMAN POINT","MUMBAI NARIMAN POINT BRANCH, 207, EMBASSY CENTRE, 8,GROUND FLOOR, GREATER MUMBAI , MAHARASHTRA , PIN-400021",22844133,MUMBAI,"GREATER BOMBAY",MAHARASHTRA
"SOUTH INDIAN BANK",SIBL0000193,641059008,PAPPAMPATI,"PAPPAMPATI BRANCH, 6/86 ,KALLAPALAYAM ROAD ,PAPPAMPATTI , COIMBATORE , TAMIL NADU, PIN-641016",2634626,COIMBATORE,COIMBOTORE,"TAMIL NADU"
"SOUTH INDIAN BANK",SIBL0000192,NA,YEROOR,"VIA. ANCHAL,YEROOR,ARAVIND ANJALI COMPLEX, KOLLAM , KERALA, PIN-691312",2273336,YEROOR,KOLLAM,KERALA
"SOUTH INDIAN BANK",SIBL0000191,NA,KADAKKAVUR,"ANCHUTENGU BRANCH, DOOR NO.2/251 A , CHEKALAVILAKAM , P .O .KADAKKAVUR , THIRUVANANTHAPURAM , KERALA, PIN-695306",2656634,KADAKKAVOOR,TRIVANDRUM,KERALA
"SOUTH INDIAN BANK",SIBL0000190,NA,PULLOORAMPARA,"PULLOORAMPARA BRANCH, VIII/163 ,PUTHIAKUNNEL BUILDINGS,MAIN ROAD , KOZHIKODE, KERALA, PIN-673603",2276232,PULLOORAMPARA,KOZHIKODE,KERALA
"SOUTH INDIAN BANK",SIBL0000189,NA,NADUVANNUR,"NADUVANNUR BRANCH, 2/635,1ST FLOOR ,ULLERI - PERAMBRA ROAD, KOZHIKODE, KERALA, PIN-673614",2652249,NADUVANNUR,KOZHIKODE,KERALA
"SOUTH INDIAN BANK",SIBL0000188,NA,PUDUPADI,"PUDUPADI BRANCH, PP 2/383 A ,PUDUPADI,PO KAITHAPOIL , KOZHIKODE, KERALA, PIN-673023",2235235,PUDUPADI,KOZHIKODE,KERALA
"SOUTH INDIAN BANK",SIBL0000187,NA,KOTHUR,"KOTHUR BRANCH, 1/27, SWAPNANJANA COMPLEX,KOTHUR, MAHBUBNAGAR, ANDHRA PRADESH, PIN-509228",257130,KOTHUR,MEHBOOBNAGAR,"ANDHRA PRADESH"
"SOUTH INDIAN BANK",SIBL0000186,NA,POTTASSERI,"POTTASSERI BRANCH, MANGALY BUILDINGS,KANHIRAM,POTTASSERI, PALAKKAD , KERALA, PIN-678598",238272,POTTASSERY,PALAKKAD,KERALA
"SOUTH INDIAN BANK",SIBL0000185,680059018,THIROOR-THRISSUR,"GRESHMAM,SHORNUR ROAD, PO M.G KAVU THIROOR ,THRISSUR , KERALA, PIN-680581",2200245,TIROOR,TRISSUR,KERALA
"SOUTH INDIAN BANK",SIBL0000184,680059011,"NEHRU NAGAR (THRISSUR)","NEHRU NAGAR (THRISSUR) BRANCH, 1ST FLOOR,SHOPPING CENTRE COMPLEX ,NEHRU NAGAR , THRISSUR , KERALA, PIN-680006",2252019,THRISSUR,TRISSUR,KERALA
"SOUTH INDIAN BANK",SIBL0000183,NA,PRAVITHANAM,"PRAVITHANAM BRANCH, DOOR NO 4/74K ,CHOORANOLICKAL ARCADE, PRAVITHANAM, KOTTAYAM , KERALA, PIN-686651",248864,PRAVITHANAM,KOTTAYAM,KERALA
"SOUTH INDIAN BANK",SIBL0000182,605059002,PONDICHERRY,"PONDICHERRY BRANCH,113-127 ,MISSION STREET(UPSTAIRS),PONDICHERRY , PONDICHERRY, PONDICHERRY , PIN-605001",2336734,PONDICHERRY,PONDICHERRY,PUDUCHERRY
"SOUTH INDIAN BANK",SIBL0000181,NA,GOPANURPUDUR,"5/21-X,NEGAMAM GOPANURPUDUR RD ,NEAR SUB - REGISTRY OFFICE,KVK NAGAR , COIMBATORE , TAMIL NADU, PIN-642120",244257,"GOPANUR PUDUR",COIMBOTORE,"TAMIL NADU"
"SOUTH INDIAN BANK",SIBL0000180,NA,VYLATHUR,"VYLATHUR BRANCH, IX/394 ,NAYARANGADI ,VYLATHUR, THRISSUR , KERALA, PIN-679563",2681273,VYLATHUR,TRISSUR,KERALA
"SOUTH INDIAN BANK",SIBL0000179,380059002,AHMEDABAD,"AHMEDABAD BRANCH,B J HOUSE (1ST FLOOR) ,ASHRAM ROAD ,NAVRANGPURA , AHMEDABAD, GUJARAT , PIN-380009",26580858,AHMEDABAD,AHMEDABAD,GUJARAT
"SOUTH INDIAN BANK",SIBL0000178,NA,MELADUR,"MELADUR BRANCH, VIII/506 ,INFANT JESUS CHURCH BUILDING ,MELADUR , THRISSUR , KERALA, PIN-680741",2770072,MELADOOR,TRISSUR,KERALA
"SOUTH INDIAN BANK",SIBL0000177,638059009,KURUMANDUR,"KURUMANDUR BRANCH, NEAR POST OFFICE ,MAIN ROAD,KURUMANDUR, ERODE, TAMIL NADU, PIN-638457",254151,KURUMANDUR,ERODE,"TAMIL NADU"
"SOUTH INDIAN BANK",SIBL0000176,NA,MAYANNUR,"MAYANNUR BRANCH, MAYANNUR ,THRISSUR DT.,KERALA, THRISSUR , KERALA, PIN-678705",286233,MAYANNUR,TRISSUR,KERALA
"SOUTH INDIAN BANK",SIBL0000175,590059002,BELGAUM,"PLOT NO:8,HIGH STREET, HAVELOCK ROAD , CAMP BELGAUM,BELGAUM, KARNATAKA , PIN-590001",2460591,BELGAUM,BELGAUM,KARNATAKA
"SOUTH INDIAN BANK",SIBL0000174,680059039,AZHIKODE,"OPP. I M U P SCHOOL ,VIA ERIYAD , P.O AZHIKODE JETTY , THRISSUR , KERALA, PIN-680666",2819553,AZHICODE,TRISSUR,KERALA
"SOUTH INDIAN BANK",SIBL0000173,NA,PIRAVANTHUR,"PIRAVANTHUR BRANCH, 7/438,ALIMUKKU,VETTITHITTA PO, KOLLAM , KERALA, PIN-689696",2222264,PIRAVANTHUR,KOLLAM,KERALA
"SOUTH INDIAN BANK",SIBL0000172,NA,THEVALAKARA,"THEVALAKARA BRANCH,MARKET JUNCTION ,THEVALAKARA , KOLLAM , KERALA, PIN-690524",2872050,THEVALAKKARA,KOLLAM,KERALA
"SOUTH INDIAN BANK",SIBL0000171,NA,THIRUNNAVAYA,"THIRUNNAVAYA BRANCH, V/21-G ,CVMH BUILDING ,EDAKULAM, MALAPPURAM , KERALA, PIN-676301",2602023,THIRUNAVAYA,MALAPURAM,KERALA
"SOUTH INDIAN BANK",SIBL0000170,NA,MUTHALAKODAM,"DOOR NO.228/J1,WARD NO.XVII,NJARAKULAM ARCADE,UDUMBANNOOR RD,THODUPUZHA ,MUTHALAKODAM POST, IDUKKI , KERALA, PIN-685605",222383,MUTHALAKODAM,IDUKKI,KERALA
"SOUTH INDIAN BANK",SIBL0000169,604059001,MARUDADU,"MARUDADU BRANCH, 2/121,BAZAR STREET,MARUDADU, TIRUVANNAMALAI , TAMIL NADU, PIN-604405",242025,MARUDADU,TIRUVANNAMALAI,"TAMIL NADU"
"SOUTH INDIAN BANK",SIBL0000168,NA,ORUMANAYUR,"ORUMANAYUR BRANCH,RM MOIDU MEMORIAL BUILDING,MUTHENMAVU,ORUMANAYUR, THRISSUR , KERALA, PIN-680512",2507603,ORUMANAYOOR,TRISSUR,KERALA
"SOUTH INDIAN BANK",SIBL0000167,NA,MUDAPPALLUR,"MUDAPPALLUR BRANCH,XI/298,SALINA COMPLEX,MUDAPPALUR, PALAKKAD , KERALA, PIN-678705",255219,MUDAPPALLUR,PALAKKAD,KERALA
"SOUTH INDIAN BANK",SIBL0000166,638059007,THAVITTUPALAYAM,"THAVITTUPALAYAM BRANCH,277-H ,SPP OMPLEX,ANNA SALAI, THAVITTUPALAYAM - 638 501, TAMIL NADU, PIN-638501",260274,THAVITTUPALAYAM,ERODE,"TAMIL NADU"
"SOUTH INDIAN BANK",SIBL0000165,NA,VELIYANCODE,"VELIYANCODE BRANCH, 173/3,AMBALAYIL BUILDING,CHAVAKAD - PUDUPONANI ROAD, MALAPPURAM , KERALA, PIN-679579",2677339,VELIYANCODE,MALAPURAM,KERALA
"SOUTH INDIAN BANK",SIBL0000164,683059051,PERUMBAVOOR,"PB NO.7,DREAM TOWER THOMBRA,OPP:GOVT HOSPITAL,A M ROAD, PERUMBAVOOR,PERMBAVOOR, ERNAKULAM, KERALA, PIN-683542",2523118,PERUMBAVOOR,ERNAKULAM,KERALA
"SOUTH INDIAN BANK",SIBL0000163,530059001,VISAKHAPATNAM,"VISAKHAPATNAM BRANCH,APSARA ROAD ,D.NO. 13-1-1C , CATHOLIC CENTRE BLDG 1ST FLR , VISAKHAPATNAM, ANDHRA PRADESH, PIN-530002",2706727,VISAKHAPATNAM,VISHAKAPATNAM,"ANDHRA PRADESH"
"SOUTH INDIAN BANK",SIBL0000162,NA,PUVATHUR,"DOOR NO.270 E,WARD NO.XIV,KOORIYAL BUILDINGS,PUVATHUR P.O,THRISSUR DIST, KERALA, PIN-680508",2642241,THRISSUR,TRISSUR,KERALA
"SOUTH INDIAN BANK",SIBL0000161,680059010,VIYYUR,"VIYYUR BRANCH, ST. JOSEPH'SI.S PRESS BUILDING ,SHORNUR ROAD, PATTURAIKKAL , THRISSUR , KERALA, PIN-680001",2334533,VIYYOOR,TRISSUR,KERALA
"SOUTH INDIAN BANK",SIBL0000160,NA,CHEMANCHERRY,"CP 2/136 1ST FLOOR ,NEAR SUB REGISTRY OFFICE,CALICUT CANNANORE ROAD , , KOZHIKODE, KERALA, PIN-673304",2687132,CHEMANCHERY,KOZHIKODE,KERALA
"SOUTH INDIAN BANK",SIBL0000159,NA,AVITTATHUR,"K A KUNJIVAROO MEMORIAL BLDGS,AVITTATHUR, THRISSUR , KERALA, PIN-680683",2821632,AVITTATHUR,TRISSUR,KERALA
"SOUTH INDIAN BANK",SIBL0000158,680059104,VENKITANGU,"VENKITANGU BRANCH, ST. MARY'S CHURCH BUILDING ,ENAMAVU CENTRE,VENKITANGU, THRISSUR , KERALA, PIN-680510",2260489,VENKITANGU,TRISSUR,KERALA
"SOUTH INDIAN BANK",SIBL0000157,400059002,"MUMBAI BANDRA","MUMBAI BANDRA BRANCH, 266, LINKING ROAD,BANDRA (WEST) ,MUMBAI, GREATER MUMBAI , MAHARASHTRA , PIN-400050",26423850,MUMBAI,"GREATER BOMBAY",MAHARASHTRA
"SOUTH INDIAN BANK",SIBL0000156,700059005,KOLKATA-HOWRAH,"HOWRAH (KOLKATA) BRANCH, 2, HAZARIMULL SHAH ROAD,BANDAGHAT ,HOWRAH, HOWRAH , WEST BENGAL , PIN-711106",26555805,KOLKATA,KOLKATA,"WEST BENGAL"
"SOUTH INDIAN BANK",SIBL0000155,NA,POONOOR,"POONOOR BRANCH, 2/137,RP AHAMEDKUTTY BUILDING ,THAMARASSERY -BALUSSERY ROAD, KOZHIKODE, KERALA, PIN-673574",2646281,POONOOR,KOZHIKODE,KERALA
"SOUTH INDIAN BANK",SIBL0000154,577059302,BHADRAVATHY,"P B NO:11,5TH CROSS ROAD,BH ROAD ,BHADRAVATHY , SHIMOGA, KARNATAKA , PIN-577301",266579,BHADRAVATI,SHIMOGA,KARNATAKA
"SOUTH INDIAN BANK",SIBL0000153,110059002,"NEW DELHI CONNAUGHT PLACE","P B NO:323, 22, REGAL BUILDING ,CONNAUGHT PLACE ,NEW DELHI , DELHI , PIN-110001",23361585,DELHI,"NEW DELHI",DELHI
"SOUTH INDIAN BANK",SIBL0000152,NA,KALADY,"KALADY BRANCH,ALIKKAL SHOPPING OMPLEX ,M C ROAD,KALADY, ERNAKULAM, KERALA, PIN-683574",2462416,KALADY,ERNAKULAM,KERALA
"SOUTH INDIAN BANK",SIBL0000151,560059008,"BANGALORE JAYANAGAR","BANGALORE JAYANAGAR BRANCH,28TH CROSS,10TH MAIN ,4TH BLOCK , BANGALORE, KARNATAKA , PIN-560011",6530214,BANGALORE,"BANGALORE URBAN",KARNATAKA
"SOUTH INDIAN BANK",SIBL0000150,680059153,PERAMBRA,"DOOR NO.2,WARD NO.X,ST.ANTONYS CHURCH BUILDIN,PERAMBRA, THRISSUR , KERALA, PIN-680689",2723674,THRISSUR,TRISSUR,KERALA
"SOUTH INDIAN BANK",SIBL0000149,600059005,"CHENNAI MYLAPORE","CHENNAI MYLAPORE BRANCH, 1ST FLOOR,OMS LAKSHANA, 146, ROYPETTAH HIGH ROAD , CHENNAI, TAMIL NADU, PIN-600004",24982116,CHENNAI,CHENNAI,"TAMIL NADU"
"SOUTH INDIAN BANK",SIBL0000148,682059009,"FORT KOCHI","FORT KOCHI BRANCH,SANTA CRUZ BASILICA BUILDING,FORT KOCHI, ERNAKULAM, KERALA, PIN-682001",2216824,KOCHI,ERNAKULAM,KERALA
"SOUTH INDIAN BANK",SIBL0000147,411059002,PUNE,"PUNE BRANCH,GROUND FLOOR,AURORA TOWERS ( EAST WING), 9,MOLEDINA ROAD, PUNE , MAHARASHTRA , PIN-411001",6138461,PUNE,PUNE,MAHARASHTRA
"SOUTH INDIAN BANK",SIBL0000146,NA,ERUMELY,"ERUMELY BRANCH, PARAPALLIL BUILDING,RANNI ROAD,ERUMELY , KOTTAYAM , KERALA, PIN-686509",210376,ERUMELY,KOTTAYAM,KERALA
"SOUTH INDIAN BANK",SIBL0000145,NA,AMBALAPUZHA,"AMBALAPUZHA BRANCH, KATCHERRY JUNCTION ,KOMANA,AMBALAPUZHA , ALAPUZHA , KERALA, PIN-688561",2272092,AMBALAPUZHA,ALAPUZZHA,KERALA
"SOUTH INDIAN BANK",SIBL0000144,NA,PEERMADE,"PEERMADE BRANCH,3/244 , , K K ROAD ,PEERMADE, IDUKKI , KERALA, PIN-685531",232093,PEERMADE,IDUKKI,KERALA
"SOUTH INDIAN BANK",SIBL0000143,NA,SASTHAMCOTTA,"P.B.NO:  2,  111/714-B, KANNIMELAZHIKAM BULDG, KOLLAM , KERALA, PIN-690521",2830343,SASTHAMCOTTA,KOLLAM,KERALA
"SOUTH INDIAN BANK",SIBL0000142,520059001,VIJAYWADA,"VIJAYWADA BRANCH,9-61-16,B.R.P.ROAD,ISLAMPET ,VIJAYAWAD , KRISHNA, ANDHRA PRADESH, PIN-520001",2569094,VIJAYAWADA,KRISHNA,"ANDHRA PRADESH"
"SOUTH INDIAN BANK",SIBL0000141,NA,PARASSALA,"P.B.NO:2,POST OFFICE JUNCTION,PARASSALA , THIRUVANANTHAPURAM , KERALA, PIN-695502",2202062,PARASSALA,TRIVANDRUM,KERALA
"SOUTH INDIAN BANK",SIBL0000140,NA,KARUNAGAPALLY,"P.B.NO :06,CHAITHANYA SHOPPING COMPLEX ,NH. ,DOOR NO. KP 374A, KOLLAM , KERALA, PIN-690518",2620267,KARUNAGAPALLY,KOLLAM,KERALA
"SOUTH INDIAN BANK",SIBL0000139,NA,VARKALA,"P B NO:1424,NO:11/439,MAIDANAM,VARKALA , THIRUVANANTHAPURAM , KERALA, PIN-695141",2602357,VARKALA,TRIVANDRUM,KERALA
"SOUTH INDIAN BANK",SIBL0000138,600059006,"CHENNAI KELLYS","CHENNAI KELLYS BRANCH, PRINCE TOWERS,94, PURUSAWLKAM HIGH ROAD ,KELLYS, CHENNAI, TAMIL NADU, PIN-600010",26421646,CHENNAI,CHENNAI,"TAMIL NADU"
"SOUTH INDIAN BANK",SIBL0000137,403059002,"PANAJI - GOA","PANAJI - GOA BRANCH, 23-25,NEW MNCPAL OFF BLDG,DR. PISSURLENKAR ROAD ,PANAJI - GOA, NORTH-GOA, GOA , PIN-403001",2229610,PANAJI,"NORTH GOA",GOA
"SOUTH INDIAN BANK",SIBL0000136,682059051,KOTHAMANGALAM,"KOTHAMANGALAM BRANCH,OLIAPURAM SHOPPING COMPLEX,(1ST FLOOR) ,KOTHAMANGALAM , ERNAKULAM, KERALA, PIN-686691",2822360,KOTHAMANGALAM,ERNAKULAM,KERALA
"SOUTH INDIAN BANK",SIBL0000135,NA,KADUTHURUTHY,"KADUTHURUTHY BRANCH, 511/IX ,K.P ,AVE MARIA , KOTTAYAM , KERALA, PIN-686604",282361,KADUTHURUTHY,KOTTAYAM,KERALA
"SOUTH INDIAN BANK",SIBL0000134,673059005,FEROKE,"FEROKE BRANCH,SINDHU BUILDING ,MARKET ROAD ,FEROKE, KOZHIKODE, KERALA, PIN-673631",2482520,FEROKE,KOZHIKODE,KERALA
"SOUTH INDIAN BANK",SIBL0000133,NA,KANNUR,"KANNUR BRANCH,1ST FLOOR ,SWADESHI SHOPPING COMPLEX ,BANK ROAD , KANNUR , KERALA, PIN-670001",2700322,CANNUR,KANNUR,KERALA
"SOUTH INDIAN BANK",SIBL0000132,686059051,MUVATTUPUZHA,"DOOR NO.125 B,9TH WARD,PULINATTU PROPERTIES,ELLOORKUNNAM,MARKET PO, MUVATTUPUZHA , ERNAKULAM, KERALA, PIN-686661",2832619,MUVATTUPUZHA,ERNAKULAM,KERALA
"SOUTH INDIAN BANK",SIBL0000131,632059002,VELLORE,"VELLORE BRANCH, JAYALAKHMI COMPLEX , , FIRST FLOOR , 50 ,KATPADIROAD, VELLORE, TAMIL NADU, PIN-632004",2221957,VELLORE,VELLORE,"TAMIL NADU"
"SOUTH INDIAN BANK",SIBL0000130,NA,TRIPALLUR,"TRIPALLUR BRANCH,CAV BUILDING,KODUVAYUR ROAD,TRIPPALUR , PALAKKAD , KERALA, PIN-678546",210266,TRIPPALUR,PALAKKAD,KERALA
"SOUTH INDIAN BANK",SIBL0000129,700059002,"KOLKATA G.C AVENUE","KOLKATA G.C AVENUEBRANCH, 38, JAYSREE HOUSE,GANESH CHANDRA AVENUE ,1ST FLOOR , CALCUTTA , WEST BENGAL , PIN-700013",22150366,KOLKATA,KOLKATA,"WEST BENGAL"
"SOUTH INDIAN BANK",SIBL0000128,500059002,HYDERABAD,"HYDERABAD BRANCH,4-1-938 ,VIJAY MANSION (1ST FLOOR) ,TILAK ROAD, HYDERABAD, ANDHRA PRADESH, PIN-500001",24753925,HYDERABAD,"HYDERABAD URBAN","ANDHRA PRADESH"
"SOUTH INDIAN BANK",SIBL0000127,560059007,"BANGALORE YESWANTHPUR","GROUND FLOOR,K N NAIR COMPLEX,NO33/1,1ST CROSS,GOKULA 1 STAGE,2ND PHASE, HMT MAIN ROAD, YESHWANTHPUR , BANGALORE, KARNATAKA , PIN-560022",3473889,BANGALORE,"BANGALORE URBAN",KARNATAKA
"SOUTH INDIAN BANK",SIBL0000126,533059002,KAKINADA,"DOOR NO.12-1-28,JAWAHAR STREET,SURYARAOPETA,KAKINADA P.O,EAST GODAVARI DIST, ANDHRA PRADESH, PIN-533001",2373656,KAKINADA,"EAST GODAVARI","ANDHRA PRADESH"
"SOUTH INDIAN BANK",SIBL0000125,577059202,SHIMOGA,"PB NO:87,1ST FLOOR ,KARNATAKA SANGHA COMPLEX,B H ROAD, SHIMOGA, KARNATAKA , PIN-577201",278179,SHIMOGA,SHIMOGA,KARNATAKA
"SOUTH INDIAN BANK",SIBL0000124,571059099,MERCARA,"P B NO:26,1ST FLOOR ,SREE KRISHNA PLAZA COLLEGE ROAD ,MERCARA , KODAGU , KARNATAKA , PIN-571201",229601,MADIKERI,MADIKERI,KARNATAKA
"SOUTH INDIAN BANK",SIBL0000123,NA,IDUKKI,"IDUKKI BRANCH, ST. GEORGE'S CHURCH BUILDING ,NAYARUPARA P.O,IDUKKI, IDUKKI , KERALA, PIN-685602",235257,IDIKKI,IDUKKI,KERALA
"SOUTH INDIAN BANK",SIBL0000122,NA,KOVILPALAYAM,"KOVILPALAYAM BRANCH, THEVAR BUILDING,COIMBATORE - POLLACHI MAIN ROAD ,KOVILPALAYAM, COIMBATORE , TAMIL NADU, PIN-642110",259242,KOVILPALAYAM,COIMBOTORE,"TAMIL NADU"
"SOUTH INDIAN BANK",SIBL0000121,643059102,COONOOR,"P B NO:10,NEW PHARMACY BUILDING ,(1ST FLOOR) ,15/7, NILGIRI, TAMIL NADU, PIN-643102",2234500,COIMBATORE,COIMBOTORE,"TAMIL NADU"
"SOUTH INDIAN BANK",SIBL0000120,688059051,CHERTHALA,"P B NO:26,NSS BUILDING,NEAR KSRTC BUS STAND,AS ROAD , ALAPUZHA , KERALA, PIN-688524",2818204,CHERTHALA,ALAPUZZHA,KERALA
"SOUTH INDIAN BANK",SIBL0000119,695059002,"THIRUVANANTHAPURAM MAIN","THIRUVANANTHAPURAM MAIN BRANCH,MAIN BRANCH ,SPENCER JUNCTION,THIRUVANANTHAPURAM, THIRUVANANTHAPURAM , KERALA, PIN-695039",2331747,THIRUVANANTHAPURAM,TRIVANDRUM,KERALA
"SOUTH INDIAN BANK",SIBL0000118,682059010,THOPPUMPADY,"DOOR NO.2487 C,WARD NO.18,KEJEES BUILDING ,OPPOSITE ST.SEBASTIANS HIGH SCHOOL,THOPPUMPAD, ERNAKULAM, KERALA, PIN-682005",2234274,KOCHI,ERNAKULAM,KERALA
"SOUTH INDIAN BANK",SIBL0000117,110059003,"NEW DELHI KAROL BAGH","NEW DELHI KAROL BAGH BRANCH,16A-17,AJMALKHAN ROAD,KAROL BAGH, DELHI, DELHI , PIN-110005",25724009,DELHI,"NEW DELHI",DELHI
"SOUTH INDIAN BANK",SIBL0000116,NA,ATHIRAMPUZHA,"ATHIRAMPUZHA BRANCH, MANAKOTTIL BUILDING (1ST FLOOR),CENTRAL JUNCTION,ATHIRAMPUZHA, KOTTAYAM , KERALA, PIN-686562",2730585,KOTTAYAM,KOTTAYAM,KERALA
"SOUTH INDIAN BANK",SIBL0000115,NA,THEODICAL,"THEODICAL BRANCH, 2/349,KUTTIKANDATHIL BUILDING JUNCTION, THEODICAL, PATHANAMTHITTA , KERALA, PIN-689613",2774236,PATHANAMTHITTA,PATHANAMTHITTA,KERALA
"SOUTH INDIAN BANK",SIBL0000114,695059052,ATTINGAL,"P B NO:10,OPP. MUNICIPAL BUS STAND,(NH-47) MAIN ROAD ,ATTINGAL, THIRUVANANTHAPURAM , KERALA, PIN-695101",2622377,ATTINGAL,TRIVANDRUM,KERALA
"SOUTH INDIAN BANK",SIBL0000113,NA,KANJIRAPALLY,"PB NO:17,KOLLAMKULAM BUILDINGS ,KURISINKAL,KANJIRAPALLY, KOTTAYAM , KERALA, PIN-686507",204104,KANJIRAPPALLY,KOTTAYAM,KERALA
"SOUTH INDIAN BANK",SIBL0000112,600059007,"CHENNAI TRIPLICANE","CHENNAI TRIPLICANE BRANCH, 150, TRIPLICANE HIGH ROAD,TRIPLICANE, CHENNAI, TAMIL NADU, PIN-600005",28443300,CHENNAI,CHENNAI,"TAMIL NADU"
"SOUTH INDIAN BANK",SIBL0000111,641059004,"COIMBATORE GANDHIPURAM","P B NO:2933, DOOR NO:41/1, CKN BUILDING , NEAR KARPAKAM BUILDING ,100 FEET ROAD,GANDHIPURAM , COIMBATORE , TAMIL NADU, PIN-641012",2492631,COIMBATORE,COIMBOTORE,"TAMIL NADU"
"SOUTH INDIAN BANK",SIBL0000110,600059008,"CHENNAI NUNGAMBAKKAM","CHENNAI NUNGAMBAKKAM BRANCH, NO.1,STERLING ROAD , NIAGARA APARTMENTS ,NUNGAMBAKKAM, CHENNAI, TAMIL NADU, PIN-600034",28272722,CHENNAI,CHENNAI,"TAMIL NADU"
"SOUTH INDIAN BANK",SIBL0000109,689059006,PULLAD,"PULLAD BRANCH, 8/160,HIGH SCHOOL JUNCTION,PULLAD, PATHANAMTHITTA , KERALA, PIN-689548",2660221,PULLAD,PATHANAMTHITTA,KERALA
"SOUTH INDIAN BANK",SIBL0000108,560059005,"BANGALORE BRIGADE ROAD","BANGALORE BRIGADE ROAD BRANCH, 74,BRIGADE ROAD, NR ST.JOSEPH'S CLG OF COMM ,BANGALORE , BANGALORE, KARNATAKA , PIN-560025",25570542,BANGALORE,"BANGALORE URBAN",KARNATAKA
"SOUTH INDIAN BANK",SIBL0000107,NA,KUMARAKOM,"KUMARAKOM BRANCH,DUBAI HOTEL BUILDING,MAIN ROAD ,KUMARAKOM , KOTTAYAM , KERALA, PIN-686563",2524454,KUMARAKOM,KOTTAYAM,KERALA
"SOUTH INDIAN BANK",SIBL0000106,NA,VATAKARA,"VATAKARA BRANCH, ARKAY BUILDING, NEAR HPO ,EDODI ,VATAKARA, KOZHIKODE, KERALA, PIN-673101",2524760,VADAKARA,KOZHIKODE,KERALA
"SOUTH INDIAN BANK",SIBL0000105,NA,KOTTARAKARA,"KOTTARAKARA BRANCH,X/1234/1,QS ROAD ,CITY TOWER BUILDING , KOLLAM , KERALA, PIN-691506",2452319,KOTTARAKKARA,KOLLAM,KERALA
"SOUTH INDIAN BANK",SIBL0000104,NA,CHENNAMANGALAM,"CHENNAMANGALAM BRANCH, NAIR SAMAJAM  BUILDING ,MAIN ROAD ,CHENNAMANGALAM, ERNAKULAM, KERALA, PIN-683512",2518641,CHENNAMANGALAM,ERNAKULAM,KERALA
"SOUTH INDIAN BANK",SIBL0000103,NA,PATHANAD,"PATHANAD BRANCH, KRISHNA BUILDING ,(1ST FLOOR) ,PATHANAD, KOTTAYAM , KERALA, PIN-686541",2494325,KOTTAYAM,KOTTAYAM,KERALA
"SOUTH INDIAN BANK",SIBL0000102,NA,KARANCHIRA,"KARANCHIRA BRANCH, 1/200,KARANCHIRA, TRICHUR DIST:, THRISSUR , KERALA, PIN-680702",2877346,THRISSUR,TRISSUR,KERALA
"SOUTH INDIAN BANK",SIBL0000101,NA,KARUVATTA,"KARUVATTA BRANCH, MARTHOMAS CH CENTNARY COMM HALL, GRD FLR KARUVATTA, ALAPUZHA , KERALA, PIN-690517",2492226,KARUVATTA,ALAPUZZHA,KERALA
"SOUTH INDIAN BANK",SIBL0000100,NA,MUTHALAMADA,"MUTHALAMADA BRANCH,V/411 ,KOLLENGODE - POLLACHI MAIN ROAD ,KAMBRATHCHALLA, PALAKKAD , KERALA, PIN-678507",275242,MUTHALAMADA,PALAKKAD,KERALA
"SOUTH INDIAN BANK",SIBL0000099,NA,KODUVAI,"KODUVAI BRANCH, RAJALAKSHMI COMPLEX (1ST FLOOR), 7/131,MAIN ROAD , COIMBATORE , TAMIL NADU, PIN-638660",2312240,COIMBATORE,COIMBOTORE,"TAMIL NADU"
"SOUTH INDIAN BANK",SIBL0000098,682059007,"ERNAKULAM BANERJI ROAD","ERNAKULAM BANERJI ROAD BRANCH,ELIAS CHAMBERS,BANERJI ROAD,ERNAKULAM , ERNAKULAM, KERALA, PIN-682018",2352699,KOCHI,ERNAKULAM,KERALA
"SOUTH INDIAN BANK",SIBL0000097,638059010,ATHANI,"ALAGIRI ILLAM , MAIN ROAD, ERODE, TAMIL NADU, PIN-638502",250230,ATHANI,ERODE,"TAMIL NADU"
"SOUTH INDIAN BANK",SIBL0000096,NA,"ALAPAD BRANCH","ALAPAD BRANCH, DOOR NO. XI-77-K, KODAPULLY COMPLEX,MAIN ROAD ,ALAPAD, KERALA, PIN-680641",2272048,ALAPAD,TRISSUR,KERALA
"SOUTH INDIAN BANK",SIBL0000095,680059402,WADAKKANCHERRY,"PO NO:7,,3/230 ,NSS UNION BUILDING,MAIN ROAD , THRISSUR , KERALA, PIN-680582",234548,WADAKANCHERRY,TRISSUR,KERALA
"SOUTH INDIAN BANK",SIBL0000094,NA,"VELUR -THRISSUR","VELUR BRANCH, PRIYADARSHINI COMPLEX, 1ST FLOOR ,POST OFFICE CENTRE,VELUR , THRISSUR , KERALA, PIN-680601",285430,VELOOR,TRISSUR,KERALA
"SOUTH INDIAN BANK",SIBL0000093,NA,VANDITHAVALAM,"VANDITHAVALAM BRANCH, 6/132, MAIN ROAD ,VANDITHAVALAM , PALAKKAD , KERALA, PIN-678534",232237,VANDITHAVALAM,PALAKKAD,KERALA
"SOUTH INDIAN BANK",SIBL0000092,676059001,VALANCHERRY,"2194-WARD NO-1X,MAYYERI COMPLEX,KOZHIKODE ROAD, MALAPPURAM , KERALA, PIN-676552",2645430,VALANCHERRY,MALAPURAM,KERALA
"SOUTH INDIAN BANK",SIBL0000091,NA,VAIKOM,"VAIKOM BRANCH,7/329 ,WEST GATE ,VAIKOM, KOTTAYAM , KERALA, PIN-686141",221247,VAIKOM,KOTTAYAM,KERALA
"SOUTH INDIAN BANK",SIBL0000090,628059002,TUTICORIN,"PO NO:102,,40-41 ,PEREIRA STREET,TUTICORIN , TOOTHUKUDI , TAMIL NADU, PIN-628001",2330158,TUTICORIN,THOOTHKUDI,"TAMIL NADU"
"SOUTH INDIAN BANK",SIBL0000089,695059003,"THIRUVANANTHAPURAM CHALAI","P.B.NO: 5136,PAZHAVANGADI ,SIVAKAMI BUILDINGS,POWER HOUSE ROAD ,TRIVANDRUM CHALAI, THIRUVANANTHAPURAM , KERALA, PIN-695023",2471003,THIRUVANANTHAPURAM,TRIVANDRUM,KERALA
"SOUTH INDIAN BANK",SIBL0000088,682059014,TRIPUNITHARA,"PO NO:17,VAIKOM ROAD,ST. MARY'S FORANE CHURCH BUILDING ,EAST FORT , ERNAKULAM, KERALA, PIN-682301",2777362,TRIPPUNITHURA,ERNAKULAM,KERALA
"SOUTH INDIAN BANK",SIBL0000087,680059004,"THRISSUR - M G ROAD","THRISSUR WEST BRANCH,AMBIKA ARCADE ,M.G ROAD,THRISSUR, THRISSUR , KERALA, PIN-680001",2320819,THRISSUR,TRISSUR,KERALA
"SOUTH INDIAN BANK",SIBL0000086,680059005,"THRISSUR HIGH ROAD","DOOR NO:X/1749/1/2 CORDIAL COURT,HIGH ROAD , THRISSUR , KERALA, PIN-680001",2420387,THRISSUR,TRISSUR,KERALA
"SOUTH INDIAN BANK",SIBL0000085,680059003,"THRISSUR BAZAR","THRISSUR BAZAR BRANCH,MUNICIPAL OFFICE ROAD , THRISSUR , THRISSUR , KERALA, PIN-680001",2424765,THRISSUR,TRISSUR,KERALA
"SOUTH INDIAN BANK",SIBL0000084,680059002,"THRISSUR MAIN","THRISSUR MAIN BRANCH,XXV/2149,ROUND SOUTH ,THRISSUR, THRISSUR , KERALA, PIN-680001",2424215,THRISSUR,TRISSUR,KERALA
"SOUTH INDIAN BANK",SIBL0000083,641059102,TIRUPUR,"TIRUPUR BRANCH,ARUKKANIAMMAL TOWERS (1ST FLOOR),DOOR NO 29-30 ,1ST STREET, COIMBATORE , TAMIL NADU, PIN-641604",2232722,COIMBATORE,COIMBOTORE,"TAMIL NADU"
"SOUTH INDIAN BANK",SIBL0000082,620059002,TIRUCHIRAPALLI,"TIRUCHIRAPALLI BRANCH,19/20 ,MADURAI ROAD,THEODORE COMPLEX, TIRUCHIRAPALLI , TAMIL NADU, PIN-620008",2715507,MADURAI,MADURAI,"TAMIL NADU"
"SOUTH INDIAN BANK",SIBL0000081,NA,THIRUVILWAMALA,"PO NO:03,SREE KRISHNA BUILDINGS,CHUNGAM ,THRUVILWAMALA , THRISSUR , KERALA, PIN-680588",282021,THIRUVILWAMALA,TRISSUR,KERALA
"SOUTH INDIAN BANK",SIBL0000080,682059017,THIRUVAMKULAM,"THIRUVAMKULAM BRANCH, D.NO.VII/591-1 , NJALIYATH TRADE CENTRE , THIRUVANKULAM, ERNAKULAM, KERALA, PIN-682305",2787236,THIRUVANKULAM,ERNAKULAM,KERALA
"SOUTH INDIAN BANK",SIBL0000079,NA,TIRUVALLA,"TIRUVALLA BRANCH,MT COMMERCIAL CENTRE,TK ROAD ,NEAR SCS JUNCTION , PATHANAMTHITTA , KERALA, PIN-689101",2602153,THIRUVALLA,PATHANAMTHITTA,KERALA
"SOUTH INDIAN BANK",SIBL0000078,670059102,THALASSERY,"P.B.NO: 12, GUNDERT ROAD,THALASSERY, KANNUR DIST , KERALA, PIN-670101",2320220,THALASSERY,KANNUR,KERALA
"SOUTH INDIAN BANK",SIBL0000077,NA,TATTAMANGALAM,"TATTAMANGALAM BRANCH,18/123,BAZAR ST. ,TATTAMANGALAM , PALAKKAD , KERALA, PIN-678102",227278,TATTAMANGALAM,PALAKKAD,KERALA
"SOUTH INDIAN BANK",SIBL0000076,613059002,THANJAVUR,"THANJAVUR BRANCH, KALYANI COMPLEX, I FLOOR ,NO. 1143,EAST MAIN STREET, THANJAVUR, TAMIL NADU, PIN-613009",230422,THANJAVUR,THANJAVUR,"TAMIL NADU"
"SOUTH INDIAN BANK",SIBL0000075,636059002,"SALEM MAIN","SALEM MAIN BRANCH, DOOR NO. 13-16, LIGHT HOUSE COMPLEX,OMALUR MAIN ROAD,SALEM , TAMIL NADU, PIN-636009",2353940,SALEM,SALEM,"TAMIL NADU"
"SOUTH INDIAN BANK",SIBL0000074,691001001,KOLLAM,"KOLLAM BRANCH, BISHOP JEROME NGR COMM CMPLX ,CHINNAKADA,KOLLAM, KOLLAM , KERALA, PIN-691001",2742027,KOLLAM,KOLLAM,KERALA
"SOUTH INDIAN BANK",SIBL0000073,NA,PULINCUNNOO,"PULINCUNNOO BRANCH,FATHIMA ROAD,PULINCUNNOO , ALAPUZHA , KERALA, PIN-688504",2702223,PULINCUNNOO,ALAPUZZHA,KERALA
"SOUTH INDIAN BANK",SIBL0000072,680059352,PUDUKAD,"D.NO.IX/145, MANGALAN BUILDING,GROUND FLOOR,PUDUKAD,PINCODE: 680301",2751384,PUDUCAD,TRISSUR,KERALA
"SOUTH INDIAN BANK",SIBL0000071,679059202,PONNANI,"PONNANI BRANCH,FAJAR COMPLEX ,KUTTIKAD JUNCTION ,CHANDAPADI, MALAPPURAM , KERALA, PIN-679577",2666018,PONNANI,MALAPURAM,KERALA
"SOUTH INDIAN BANK",SIBL0000070,642059002,POLLACHI,"POLLACHI BRANCH, 4, MKG COMPLEX ,NEW SCHEME ROAD ,POLLACHI, COIMBATORE , TAMIL NADU, PIN-642001",224587,COIMBATORE,COIMBOTORE,"TAMIL NADU"
"SOUTH INDIAN BANK",SIBL0000069,NA,PERUVEMBA,"9/496, KRISHNA BUILDING, NEAR PANCHAYAT OFFICE,PERUVEMBA, PINCODE: 678531",252311,PERUVEMBA,PALAKKAD,KERALA
"SOUTH INDIAN BANK",SIBL0000068,680059453,PERINGOTTUKARA,"DOOR NO.25 B & 25 C, ALIYA COMPLEX, THRISSUR - TRIPRAYAR ROAD,PERINGOTTUKARA, PINCODE: 680565",2392747,TRIPRAYAR,TRISSUR,KERALA
"SOUTH INDIAN BANK",SIBL0000067,NA,PAZHAYANNUR,"PAZHAYANNUR BRANCH,V/648- A,AKBAR BUILDINGS ,THRISSUR ROAD , THRISSUR , KERALA, PIN-680587",225024,PAZHAYANNUR,TRISSUR,KERALA
"SOUTH INDIAN BANK",SIBL0000066,NA,PATTANCHERRY,"PATTANCHERRY BRANCH, 4/562, VIMALDAS MEMORIAL BUILDING,PATTANCHERRY, PALAKKAD , KERALA, PIN-678532",232227,PATTANCHERRY,PALAKKAD,KERALA
"SOUTH INDIAN BANK",SIBL0000065,NA,PARIYARAM,"PARIYARAM BRANCH, D NO.III/57-D,CHURCH RD JUNCTION ,MAIN ROAD ,PARIYARAM , THRISSUR , KERALA, PIN-680721",2746830,PARIYARAM,TRISSUR,KERALA
"SOUTH INDIAN BANK",SIBL0000064,NA,PALLASANA,"PALLASANA BRANCH, CHIRAKODE, PALLASSANA , PALAKKAD , KERALA, PIN-678505",268316,PALLASSENA,PALAKKAD,KERALA
"SOUTH INDIAN BANK",SIBL0000063,NA,PALAKKAD,"DOOR NO.12/858 (10), WARD NO.XVIII,JOBYS MALL,PALAKKAD,PINCODE: 678001",2522655,PALAKKAD,PALAKKAD,KERALA
"SOUTH INDIAN BANK",SIBL0000062,686059002,PALAI,"VADAYATTU BUILDINGS, PETTA ROAD ,LALAM JUNCTION, PALA,PINCODE: 686575",212424,PALAI,KOTTAYAM,KERALA
"SOUTH INDIAN BANK",SIBL0000061,679059002,OTTAPALAM,"OTTAPALAM BRANCH,JRJ COMPLEX (1ST FLOOR) ,MAIN ROAD ,OTTAPALAM , PALAKKAD , KERALA, PIN-679101",2244328,OTTAPALAM,PALAKKAD,KERALA
"SOUTH INDIAN BANK",SIBL0000060,680059012,OLLUR,"DOOR NO.XI/758,RAMUS SHOPPING MALL,, MAIN ROAD ,OLLUR, THRISSUR , KERALA, PIN-680306",2352363,OLLUR,TRISSUR,KERALA
"SOUTH INDIAN BANK",SIBL0000059,680059009,OLLURKARA,"OLLUKARA BRANCH,ALAPPAT BUILDING,NH 47 ,NADATHARA ROAD JUNCTION , THRISSUR , KERALA, PIN-680651",2370545,OLLUKARA,TRISSUR,KERALA
"SOUTH INDIAN BANK",SIBL0000058,682059020,"NORTH PARUR","NORTH PARUR BRANCH,VII/3 ,MAIN ROAD ,NORTH PARUR , ERNAKULAM, KERALA, PIN-683513",2442381,PARAVUR,ERNAKULAM,KERALA
"SOUTH INDIAN BANK",SIBL0000057,679059051,NILAMBUR,"NILAMBUR BRANCH,PEEVEE'S ARCADE ,NILAMBUR JN ,NILAMBUR, MALAPPURAM , KERALA, PIN-679329",220233,NILAMBUR,MALAPURAM,KERALA
"SOUTH INDIAN BANK",SIBL0000056,NA,NEMMARA,"NEMMARA BRANCH,VII/472 ,MAIN ROAD ,NEMMARA , PALAKKAD , KERALA, PIN-678508",244251,NEMMARA,PALAKKAD,KERALA
"SOUTH INDIAN BANK",SIBL0000055,690059002,NANGIARKULANGARA,"NANGIARKULANGARA BRANCH, GOKULAM, 1/271-A ,NH 47 ,NANGIARKULANGARA, ALAPUZHA , KERALA, PIN-690513",2412705,ALAPPUZHA,ALAPUZZHA,KERALA
"SOUTH INDIAN BANK",SIBL0000054,NA,NALEPILLY,"NALEPILLY BRANCH, D NO. VIII/173 A, GROUND FLOOR ,AMERICAN PLAZA,MAIN ROAD , PALAKKAD , KERALA, PIN-678553",282251,NALLEPPILLEY,PALAKKAD,KERALA
"SOUTH INDIAN BANK",SIBL0000053,629059002,NAGERCOIL,"NAGERCOIL BRANCH,1ST FLOOR ,XAVIER BUILDING ,ASSISSI CAMPUS, KANYAKUMARI, TAMIL NADU, PIN-629001",227380,NAGERCOIL,KANNIYAKUMARI,"TAMIL NADU"
"SOUTH INDIAN BANK",SIBL0000052,611059002,NAGAPATTINAM,"NAGAPATTINAM BRANCH,DOOR NO.41, WARD NO.3,NEELA SOUTH STREET, NAGAPATTINAM , TAMIL NADU, PIN-611001",242419,NAGAPATTINAM,NAGAPATTINAM,"TAMIL NADU"
"SOUTH INDIAN BANK",SIBL0000051,680059105,MULLASSERY,"MULLASSERY BRANCH, III/478, MAIN ROAD ,MULLASSERY, THRISSUR , KERALA, PIN-680509",2260377,MULLASSERY,TRISSUR,KERALA
"SOUTH INDIAN BANK",SIBL0000050,682059027,MULANTHURUTHY,"MULANTHURUTHY BRANCH, PURAPPADATHIL ARCADE ,MAIN ROAD ,MULANTHURUTHY , ERNAKULAM, KERALA, PIN-682314",2740267,MULAMTHURUTHY,ERNAKULAM,KERALA
"SOUTH INDIAN BANK",SIBL0000049,NA,MATHILAKAM,"MATHILAKAM BRANCH, 5/422 A , ST:JOSEPHS LATIN CHURCH BLDG:, PALLIVALAVU , THRISSUR , KERALA, PIN-680685",2848326,THRISSUR,TRISSUR,KERALA
"SOUTH INDIAN BANK",SIBL0000048,NA,MANNARKAD,"MANNARKAD BRANCH,KCK SQUARE,1ST FLOOR ,OPP. PUNCHAYAT BUS STAND, PALAKKAD , KERALA, PIN-678582",222340,MANNARKAD,PALAKKAD,KERALA
"SOUTH INDIAN BANK",SIBL0000047,676059002,MANJERI,"MANJERI BRANCH,XX/240,RAM BUILDING,(1ST FLOOR) , MALAPPURAM , KERALA, PIN-676121",2766124,MANJERI,MALAPURAM,KERALA
"SOUTH INDIAN BANK",SIBL0000046,575059002,MANGALORE,"PLAZA CHAMBERS, BALMATTA ROAD,HAMPANKATTA, PINCODE: 575001",2422069,MANGALORE,"DAKSHINA KANNADA",KARNATAKA
"SOUTH INDIAN BANK",SIBL0000045,673059052,MAHE,"MAHE BRANCH,ARISTO SHOPPING COMPLEX ,MAIN ROAD ,MAHE DT., MAHE , PONDICHERRY , PIN-673310",2332226,MAHE,MAHE,PUDUCHERRY
"SOUTH INDIAN BANK",SIBL0000044,625059000,MADURAI,"MADURAI BRANCH, 24, NAICKER NEWSTREET,MADURAI ,MADURAI DT. , MADURAI, TAMIL NADU, PIN-625001",2623967,MADURAI,MADURAI,"TAMIL NADU"
"SOUTH INDIAN BANK",SIBL0000043,600059003,"CHENNAI MOUNT ROAD","CHENNAI MOUNT ROAD BRANCH, 19 ,GROUND FLOOR , ,MOUNT ROAD, OPP: ANNASALAIHPO, CHENNAI, TAMIL NADU, PIN-600002",28549050,CHENNAI,CHENNAI,"TAMIL NADU"
"SOUTH INDIAN BANK",SIBL0000042,600059002,"CHENNAI  G T","CHENNAI G.T BRANCH, 64, ARMENIAN STREET,CATHOLIC CENTRE ,CHENNAI GT, CHENNAI, TAMIL NADU, PIN-600001",25360592,CHENNAI,CHENNAI,"TAMIL NADU"
"SOUTH INDIAN BANK",SIBL0000041,680059302,KUNNAMKULAM,"KUNNAMKULAM BRANCH,1ST FLOOR ,HALL NO. 3 & 4,MUNICIPAL C SHAPE BUILDING, THRISSUR , KERALA, PIN-680503",222217,KUNNAMKULAM,TRISSUR,KERALA
"SOUTH INDIAN BANK",SIBL0000040,NA,KOZHUVANAL,"KOZHUVANAL BRANCH, 8/174, PANTHALANICKAL BUILDING ,KOZHUVANAL, KOTTAYAM , KERALA, PIN-686523",267031,KOZHUVANAL,KOTTAYAM,KERALA
"SOUTH INDIAN BANK",SIBL0000039,NA,KOZHINJAMPARA,"KOZHINJAMPARA BRANCH, 111/403, CHITTUR ROAD,KOZHINJAMPARA , PALAKKAD , KERALA, PIN-678555",272242,KOZHINJAMPARA,PALAKKAD,KERALA
"SOUTH INDIAN BANK",SIBL0000038,673059002,"KOZHIKODE MAIN","KOZHIKODE (MAIN) BRANCH, D. NO. 18/1175B, 1ST FLOOR, TEE TEE COMPLEX , JAIL ROAD, KOZHIKODE, KERALA, PIN-673004",2701880,CALICUT,KOZHIKODE,KERALA
"SOUTH INDIAN BANK",SIBL0000037,NA,KOTTAYAM,"KOTTAYAM BRANCH,275/ IX ,CATHOLIC CENTRE ,CENTRAL JUNCTION, KOTTAYAM , KERALA, PIN-686001",2566801,KOTTAYAM,KOTTAYAM,KERALA
"SOUTH INDIAN BANK",SIBL0000036,NA,KOLLENGODE,"KOLLENGODE BRANCH,D NO. VI/208/L,FIRST FLOOR ,AISWARYAM COMPLEX , PALAKKAD , KERALA, PIN-678506",262328,"KOLLENGODE I",PALAKKAD,KERALA
"SOUTH INDIAN BANK",SIBL0000035,680059353,KODAKARA,"KODAKARA BRANCH,MAIN ROAD ,KODAKARA, THRISSUR , KERALA, PIN-680684",2720249,KODAKARA,TRISSUR,KERALA
"SOUTH INDIAN BANK",SIBL0000034,NA,KINATTUKADAVU,"KINATTUKADAVU BRANCH, 62, MAIN ROAD,KINATTUKADAVU , COIMBATORE , TAMIL NADU, PIN-642109",242023,COIMBATORE,COIMBOTORE,"TAMIL NADU"
"SOUTH INDIAN BANK",SIBL0000033,NA,KATTOOR,"DOOR NO:IX/347-A, ANNA KARIYA BUILDING OPP:BUS STAND ,KATTOOR, PINCODE: 680702",2877230,KATTUR,TRISSUR,KERALA
"SOUTH INDIAN BANK",SIBL0000032,NA,KANJIRAMATTOM,"DOOR NO.III/513, CHETTIYAKUNNEL BLDG,MILLINGAL JUNCTION, MAIN STREET, PINCODE: 682315",2746285,KANJIRAMATTOM,ERNAKULAM,KERALA
"SOUTH INDIAN BANK",SIBL0000031,680059021,KANJANY,"KANJANY BRANCH,MAIN ROAD ,KANJANY , THRISSUR , KERALA, PIN-680612",2632368,THRISSUR,TRISSUR,KERALA
"SOUTH INDIAN BANK",SIBL0000030,680059022,KANDASSANKADAVU,"DOOR NO.XV/684 D, VALLOOKKARAN`S BLDG.,, MAIN ROAD ,KANDASSANKADAVU, PINCODE: 680613",2630394,THRISSUR,TRISSUR,KERALA
"SOUTH INDIAN BANK",SIBL0000029,600059021,KANCHEEPURAM,"NO.68, KAMARAJAR ROAD, KANCHEEPURAM, PINCODE: 631501",27222662,KANCHIPURAM,KANCHEEPURAM,"TAMIL NADU"
"SOUTH INDIAN BANK",SIBL0000028,680059202,IRINJALAKUDA,"IRINJALAKUDA BRANCH,XVIII/343 ,BLAZE COURT ,MAIN ROAD , THRISSUR , KERALA, PIN-680121",2826282,IRINJALAKUDA,TRISSUR,KERALA
"SOUTH INDIAN BANK",SIBL0000027,638059004,GOBICHETTIPALAYAM,"GOBICHETTIPALAYAM BRANCH,D NO. 101 ,MILL ROAD ,GOBICHETTIPALAYAM , ERODE, TAMIL NADU, PIN-638476",222016,GOBICHETTIPALAYAM,ERODE,"TAMIL NADU"
"SOUTH INDIAN BANK",SIBL0000026,NA,ERUMAPETTY,"ERUMAPETTY BRANCH, DOOR NO. 1/374, NEW CHURCH BUILDING,MAIN ROAD ,ERUMAPETTY, THRISSUR , KERALA, PIN-680584",262234,ERUMAPPETTY,TRISSUR,KERALA
"SOUTH INDIAN BANK",SIBL0000025,682059003,"ERNAKULAM M G ROAD","ERNAKULAM M.G. ROAD BRANCH,XXXIX/2018 & 2019 ,MG ROAD ,ERNAKULAM , ERNAKULAM, KERALA, PIN-682016",23606622,KOCHI,ERNAKULAM,KERALA
"SOUTH INDIAN BANK",SIBL0000024,682059002,"ERNAKULAM MARKET ROAD","ERNAKULAM MARKET ROAD BRANCH,MARKET ROAD ,ERNAKULAM ,KOCHI , ERNAKULAM, KERALA, PIN-682035",2360227,KOCHI,ERNAKULAM,KERALA
"SOUTH INDIAN BANK",SIBL0000023,638059002,ERODE,"ERODE BRANCH, 363, NETAJI ROAD ,ERODE ,ERODE DT. , ERODE, TAMIL NADU, PIN-638001",2257547,ERODE,ERODE,"TAMIL NADU"
"SOUTH INDIAN BANK",SIBL0000022,NA,ELAPULLY,"ALSAFA COMPLEX, DOOR NO. 9/1177 ,MAIN ROAD PARA, PINCODE: 678622 ELAPULLY",2583234,ELAPPULLY,PALAKKAD,KERALA
"SOUTH INDIAN BANK",SIBL0000021,624059002,DINDIGUL,"DINDIGUL BRANCH, 3, MAIN ROAD ,DINDIGUL,DINDIGUL DT., DINDIGUL , TAMIL NADU, PIN-624001",2422234,MADURAI,MADURAI,"TAMIL NADU"
"SOUTH INDIAN BANK",SIBL0000020,680059252,KODUNGALLUR,"KODUNGALLUR BRANCH,PADIYAN'S COMPLEX ,NORTH NADA,KODUNGALLUR , THRISSUR , KERALA, PIN-680664",2802256,KODUNGALLUR,TRISSUR,KERALA
"SOUTH INDIAN BANK",SIBL0000019,641059002,"COIMBATORE RAJA STREET","COIMBATORE RAJA STREET BRANCH, 838-839,SIB BUILDING,RAJA STREET , COIMBATORE , TAMIL NADU, PIN-641001",2302099,COIMBATORE,COIMBOTORE,"TAMIL NADU"
"SOUTH INDIAN BANK",SIBL0000018,682059011,MATTANCHERRY,"INFANT JESUS CHURCH BLDG:, SANTO GOPALAN ROAD,KOOVAPADAM KOCHI, PINCODE: 682002 COCHIN MATTANCHERRY",2221601,KOCHI,ERNAKULAM,KERALA
"SOUTH INDIAN BANK",SIBL0000017,680059102,CHAVAKKAD,"CHAVAKAD BRANCH,22/546-C(I) ,MUNICIPAL SHOPPING COMPLEX,MAIN ROAD , THRISSUR , KERALA, PIN-680506",2507347,CHAVAKKAD,TRISSUR,KERALA
"SOUTH INDIAN BANK",SIBL0000016,NA,CHITTUR,"CHITTUR BRANCH,11/223,MAIN ROAD ,CHITTUR , PALAKKAD , KERALA, PIN-678101",222350,CHITTUR,PALAKKAD,KERALA
"SOUTH INDIAN BANK",SIBL0000015,NA,CHELAKKARA,"CHELAKKARA BRANCH, EDAYANAL SHOPPING CENTRE, NEAR GHS ,MAIN ROAD ,CHELAKKARA, THRISSUR , KERALA, PIN-680586",252030,CHELAKKARA,TRISSUR,KERALA
"SOUTH INDIAN BANK",SIBL0000014,NA,CHANGARAMKULAM,"CHANGARAMKULAM BRANCH, MAS SHPPING CMPLX,NARINIPUZHA RD ,CHANGARAMKULAM,PO NANNAMUKKU , MALAPPURAM , KERALA, PIN-679575",2650389,MALAPPURAM,MALAPURAM,KERALA
"SOUTH INDIAN BANK",SIBL0000013,NA,CHANGANACHERRY,"PB 23, PARACKEL BUILDINGS, NEAR BISHOPS HOUSE,VAZHOOR ROAD, PINCODE: 686101",2420386,CHANGANASSERY,KOTTAYAM,KERALA
"SOUTH INDIAN BANK",SIBL0000012,680059152,CHALAKUDY,"CHALAKUDY BRANCH,MANJALY ACHANDY TRADE CENTRE,NEAR CHURCH STOP,TRUNK ROAD, THRISSUR , KERALA, PIN-680307",2702387,CHALAKUDY,TRISSUR,KERALA
"SOUTH INDIAN BANK",SIBL0000011,638059006,BHAVANI,"BHAVANI BRANCH, 701 ,MURUGAN TRANSPORT BLDG: ,METTUR ROAD , BHAVANI, BHAVANI - 638 302, TAMIL NADU, PIN-638302",230409,BHAVANI,ERODE,"TAMIL NADU"
"SOUTH INDIAN BANK",SIBL0000010,NA,BHARANANGANAM,"BHARANANGANAM BRANCH, MAIN STREET,BHARANANGANAM , KOTTAYAM , KERALA, PIN-686578",236391,KOTTAYAM,KOTTAYAM,KERALA
"SOUTH INDIAN BANK",SIBL0000009,560059004,"BANGALORE CANTONMENT","DOOR NO 10, INFANTRY ROAD CROSS ,P.B.#: 5011, BM COMPLEX, PINCODE: 560001, SHIVAJI NAGAR, BANGALORE METRO",25580649,BANGALORE,"BANGALORE URBAN",KARNATAKA
"SOUTH INDIAN BANK",SIBL0000008,560059002,"BANGALORE CITY","KEMPEGOWDA MAHARAJA COMPLEX, K.G.ROAD BANGALORE DIST; KARNATAKA, PINCODE: 560009",22256668,BANGALORE,"BANGALORE URBAN",KARNATAKA
"SOUTH INDIAN BANK",SIBL0000007,680059008,AYYANTHOLE,"WARD NO.50, PLATINUM JUBILEE BUILDING ,P.B.#: 603, CIVIL LINE ROAD,AYYANTHOLE, PINCODE: 680003",2388009,AYYANTHOLE,TRISSUR,KERALA
"SOUTH INDIAN BANK",SIBL0000006,NA,AYARKUNNAM,"AYARKUNNAM BRANCH, KUNNAPPALLIL BUILDING, , AYARKUNNAM , KOTTAYAM , KERALA, PIN-686564",2542439,AYARKUNNAM,KOTTAYAM,KERALA
"SOUTH INDIAN BANK",SIBL0000005,626059202,ARUPPUKOTTAI,"ARUPPUKOTTAI BRANCH,ANUT COMPLEX,(1ST FLOOR) , 23, PANDALGUDI ROAD JN , VIRUDHUNAGAR , TAMIL NADU, PIN-626101",222422,ARUPPUKOTTAI,VIRUDHUNAGAR,"TAMIL NADU"
"SOUTH INDIAN BANK",SIBL0000004,NA,ARKONAM,"ARKONAM BRANCH, 198, GANDHI ROAD ,ARKONAM , VELLORE, TAMIL NADU, PIN-631001",232201,ARKONAM,VELLORE,"TAMIL NADU"
"SOUTH INDIAN BANK",SIBL0000003,NA,AMMADAM,"AMMADAM BRANCH, VIII/164, ST.ANTONY'S CHCH BLDG,MAIN ROAD ,AMMADAM , THRISSUR , KERALA, PIN-680563",2278383,AMMADAM,TRISSUR,KERALA
"SOUTH INDIAN BANK",SIBL0000002,682059012,ALUVA,"ALUVA BRANCH,RAILWAY STATION SQUARE,ALUVA , ERNAKULAM, KERALA, PIN-683101",2625160,ALUVA,ERNAKULAM,KERALA
"SOUTH INDIAN BANK",SIBL0000001,688059002,ALAPPUZHA,"DOOR NO.324 A,WARD NO.XXV,SIB BUILDING,CCSB R NEAR MUNICIPAL OFFICE,ALAPPUZHA P.O.",2260420,ALAPPUZHA,ALAPUZZHA,KERALA
