BANK,IFSC,MICR,BRANCH,ADDRESS,CONTACT,CITY,DISTRICT,STATE
"JAMMU AND KASHMIR BANK LIMITED",JAKA0ZOUDAM,NA,"ZONAL OFFICE JAMMU NORTH DODA","KHAN PLAZA DAG BUG DODA JAMMU AND KASHMIR 182202",233589,DODA,DODA,"JAMMU AND KASHMIR"
"JAMMU AND KASHMIR BANK LIMITED",JAKA0ZORAJO,NA,"ZONAL OFFICE JAMMU WEST RAJOURI","MAIN BAZAR RAJOURI OPPOSITE THESIL OFFICE RAJOURI JAMMU AND KASHMIR 185131",262454,RAJOURI,RAJOURI,"JAMMU AND KASHMIR"
"JAMMU AND KASHMIR BANK LIMITED",JAKA0ZOPULL,NA,"ZONAL OFFICE SOUTH PULWAMA","NEAR SSP OFFICE PULWAMA JAMMU AND KASHMIR 192301",242226,PULWAMA,PULWAMA,"JAMMU AND KASHMIR"
"JAMMU AND KASHMIR BANK LIMITED",JAKA0ZOONIE,190051074,"ZOONIMAR SRINAGAR","SAIDAPORA ZOONIMAR",2424556,ZOONIMAR,SRINAGAR,"JAMMU AND KASHMIR"
"JAMMU AND KASHMIR BANK LIMITED",JAKA0ZOKTWO,NA,"ZONAL OFFICE KASHMIR CENTRAL TWO","NH-1A BEMINA SRINAGAR (NEAR SKIMS MEDICAL COLLEGE) 190018",7298004300,SRINAGAR,SRINAGAR,"JAMMU AND KASHMIR"
"JAMMU AND KASHMIR BANK LIMITED",JAKA0ZOKSOU,NA,"ZONAL OFFICE KASHMIR SOUTH TWO","INDUSTRIAL AREA BAKSHIABAD BEHIND GPO ANANTNAG 192101",227340,ANANTNAG,ANANTNAG,"JAMMU AND KASHMIR"
"JAMMU AND KASHMIR BANK LIMITED",JAKA0ZOJTWO,NA,"ZONAL OFFICE JAMMU CENTRAL TWO","NEAR FOREST PROTECTION FORCE OFFICE NATIONAL HIGHWAY HATLI MORH KATHUA 184102",9858241992,KATHUA,KATHUA,"JAMMU AND KASHMIR"
"JAMMU AND KASHMIR BANK LIMITED",JAKA0ZOJNOR,NA,"ZONAL OFFICE JAMMU NORTH TWO","ADASRH COLONY UDHAMPUR 182101",7298004751,UDHAMPUR,UDHAMPUR,"JAMMU AND KASHMIR"
"JAMMU AND KASHMIR BANK LIMITED",JAKA0ZOBARA,NA,"ZONAL OFFICE BARAMULLA","AMARGARH SOPORE NEAR RAILWAY BRIDGE BARAMULLA JAMMU AND KASHMIR 193201",7298004421,SOPORE,BARAMULLA,"JAMMU AND KASHMIR"
"JAMMU AND KASHMIR BANK LIMITED",JAKA0ZOBANG,NA,"ZONAL OFFICE (SOUTH) BANGALORE","4TH FLOOR, PRESTIGE TERRACES, 5/1 UNION STREET, OFF INFANTRY ROAD",22860016,BANGLORE,BANGALORE,"JAMMU AND KASHMIR"
"JAMMU AND KASHMIR BANK LIMITED",JAKA0ZEERAK,160051004,ZIRAKPUR,"JKBANK, SCF 4-5 , TULIP PLAZA, GF , ADJOINING SAVITRY TOWERS , VIP ROAD , LOHGARH , ZIRAKPUR , PUNJAB-140603.",9814799191,"SAHIBZADA AJIT SINGH NAGAR","SAHIBZADA AJIT SINGH NAGAR",PUNJAB
"JAMMU AND KASHMIR BANK LIMITED",JAKA0ZANPUR,192051116,ZAINPURA,"ZAINAPORA SHOPIAN",264338,ZAINAPORA,SHOPIAN,"JAMMU AND KASHMIR"
"JAMMU AND KASHMIR BANK LIMITED",JAKA0ZANKOT,190051071,"ZAINAKOTE SRINAGAR","NEAR HMT WATCH FACTORY",2496239,ZAINAKOT,SRINAGAR,"JAMMU AND KASHMIR"
"JAMMU AND KASHMIR BANK LIMITED",JAKA0ZAMPAA,194051004,ZAMPA,"ZAMPAA LEH",265526,"ZAMPAA LEH",LEH,"JAMMU AND KASHMIR"
"JAMMU AND KASHMIR BANK LIMITED",JAKA0ZALDAG,190051073,"ZALDAGAR SRINAGAR",ZALDAGAR,2504442,ZALDAGAR,SRINAGAR,"JAMMU AND KASHMIR"
"JAMMU AND KASHMIR BANK LIMITED",JAKA0ZAKURA,190051072,ZAKURA,ZAKURA,2427461,ZAKURA,SRINAGAR,"JAMMU AND KASHMIR"
"JAMMU AND KASHMIR BANK LIMITED",JAKA0ZACHAL,193051222,ZACHALDARA,HANDWARA,9906801321,ZACHALDARA,KUPWARA,"JAMMU AND KASHMIR"
"JAMMU AND KASHMIR BANK LIMITED",JAKA0ZABLIP,192051028,ZABLIPORA,"BIJBEHARA DISTRICT ANANTNAG",234280,"ZABLIPORA, BIJBEHARA",ANANTNAG,"JAMMU AND KASHMIR"
"JAMMU AND KASHMIR BANK LIMITED",JAKA0ZAAKIR,110051032,"ZAKIR NAGAR","OPP. MCD SCHOOL, ZAKIR NAGAR",9871096315,"A-29, BATLA HOUSE",DELHI,DELHI
"JAMMU AND KASHMIR BANK LIMITED",JAKA0YOUNUS,193051225,"YOUNUS WAHIPORA",TEHSIL-HANDWARA,9596396682,"YOUNUS WOHIPORA",KUPWARA,"JAMMU AND KASHMIR"
"JAMMU AND KASHMIR BANK LIMITED",JAKA0YARPUR,192051031,YARIPORA,"YARIPORA,KULGAM ANANTNAG J AND K",9697883131,YARIPORA,KULGAM,"JAMMU AND KASHMIR"
"JAMMU AND KASHMIR BANK LIMITED",JAKA0YAMUNA,NA,"YAMUNA NAGAR","38-39, SHIVAJI PARK, NEHRU PARK ROAD, NEAR MELA SINGH CHOWK, MODEL TOWN, YAMUNA NAGAR, HARYANA-135001",260198,YAMUNANAGAR,"YAMUNA NAGAR",HARYANA
"JAMMU AND KASHMIR BANK LIMITED",JAKA0WUYANN,NA,WUYAN,"WUYAN BLOCK TEHSIL - PAMPORE , DISTRICT - PULWAMA , PIN - 191102",9086027404,PAMPORE,PULWAMA,"JAMMU AND KASHMIR"
"JAMMU AND KASHMIR BANK LIMITED",JAKA0WULLAR,193051501,BANDIPORA,"BANDIPORA MAIN",7298004506,"BANDIPORA MAIN",BANDIPORA,"JAMMU AND KASHMIR"
"JAMMU AND KASHMIR BANK LIMITED",JAKA0WTRGAM,193051029,WATERGAM,ROHAMA,7298004497,"WATERGAM, ROHAMA BARAM",BARAMULLA,"JAMMU AND KASHMIR"
"JAMMU AND KASHMIR BANK LIMITED",JAKA0WOORLI,400051008,"BKC BRANCH","1ST FLOOR, BANDRA KURLA COMPLEX, BANDRA (EAST)",26384220,"NATIONAL BUSINESS CENTRE","GREATER BOMBAY",MAHARASHTRA
"JAMMU AND KASHMIR BANK LIMITED",JAKA0WAWOOR,193051216,WAVOORA,"BLOCK WAWOORA TEHSIL KUPWARA",7298004497,"WAWOORA KUPWARA",KUPWARA,"JAMMU AND KASHMIR"
"JAMMU AND KASHMIR BANK LIMITED",JAKA0WATLAR,191051108,LAAR,"MAIN MARKET",2419700,"LAR , GANDERBAL",GANDERBAL,"JAMMU AND KASHMIR"
"JAMMU AND KASHMIR BANK LIMITED",JAKA0WATHAR,191051039,WATHOORA,"MAIN CHOWK WATHOORA,DISTRICT BUDGAM,J AND K PIN 191113",9419061844,"MAIN CHOWK WATHOORA",BUDGAM,"JAMMU AND KASHMIR"
"JAMMU AND KASHMIR BANK LIMITED",JAKA0WATHAL,191051021,WATERHAL,"OPP. JAMIA MASJID WATERHAL",9419009459,"MAIN MARKET",BUDGAM,"JAMMU AND KASHMIR"
"JAMMU AND KASHMIR BANK LIMITED",JAKA0WANPOH,192051026,WANPOH,"WANPOH, ANANTNAG",222965,WANPOH,ANANTNAG,"JAMMU AND KASHMIR"
"JAMMU AND KASHMIR BANK LIMITED",JAKA0WANGAT,WAITING,WANGAT,TEHSIL-KANGAN,9906609593,WANGAT,GANDERBAL,"JAMMU AND KASHMIR"
"JAMMU AND KASHMIR BANK LIMITED",JAKA0WANDAL,192051063,WANDEVELGAM,"Wandevelgam,Distrcit Anantnag,J AND K Pin code 192202",9906616669,WANDEVALGAM,ANANTNAG,"JAMMU AND KASHMIR"
"JAMMU AND KASHMIR BANK LIMITED",JAKA0WALWAR,191051114,WALIWAR,"WALIWAR,DISTRICT GANDERBAL,J AND K",9906805000,WALIWAR,GANDERBAL,"JAMMU AND KASHMIR"
"JAMMU AND KASHMIR BANK LIMITED",JAKA0WAGORA,193051019,WAGOORA,"NEAR MAIN MARKET",257187,WAGOORA,BARAMULLA,"JAMMU AND KASHMIR"
"JAMMU AND KASHMIR BANK LIMITED",JAKA0WADWAN,182051408,WADWAN(INSHAN),"WADWANINSHAN0 DISTRICT KISHTWAR,J AND K",0,KISHTWAR,KISHTWAR,"JAMMU AND KASHMIR"
"JAMMU AND KASHMIR BANK LIMITED",JAKA0WACHII,192051212,WACHI,"NEAR ZIYARAT SHAH HAMDAN WACHI,DISTRICT SHOPIAN,J AND K PIN 192305",9419051994,"NEAR ZIYARAT SHAREEF SHAHI-HAMDAN WACHI",SHOPIAN,"JAMMU AND KASHMIR"
"JAMMU AND KASHMIR BANK LIMITED",JAKA0VILGAM,193051211,VILGAM,"VILGAM, TEHSIL HANDWAR",7298004456,"VILGAM KUPWARA",KUPWARA,"JAMMU AND KASHMIR"
"JAMMU AND KASHMIR BANK LIMITED",JAKA0VIKAAS,110051025,"VIKAS MARG DELHI","36-DEFENCE ENCLAVE",22467499,"VIKAS MARG",DELHI,DELHI
"JAMMU AND KASHMIR BANK LIMITED",JAKA0VIJJAY,180051035,VIJAYPUR,"RAILWAY ROAD VIJAYPUR",231029,VIJAYPUR,SAMBA,"JAMMU AND KASHMIR"
"JAMMU AND KASHMIR BANK LIMITED",JAKA0VIJAYP,180051099,"VIJAYPUR KOTHEY","POST OFFICE-VIJAYPUR",9419142952,"VIJAYPUR KOTHEI, RAMGARH ROAD",SAMBA,"JAMMU AND KASHMIR"
"JAMMU AND KASHMIR BANK LIMITED",JAKA0VESSOO,192051060,VESSU,VESSU,9419573553,"JAMMU-SRINAGAR HIGHWAY",ANANTNAG,"JAMMU AND KASHMIR"
"JAMMU AND KASHMIR BANK LIMITED",JAKA0VERNAG,192051027,VERINAG,"VERINAG, ANANTNAG",213020,"VERINAG, ANANTNAG",ANANTNAG,"JAMMU AND KASHMIR"
"JAMMU AND KASHMIR BANK LIMITED",JAKA0VEHEEL,192051209,VEHIL,VEHIL,9797903334,"MAIN CHOWK",SHOPIAN,"JAMMU AND KASHMIR"
"JAMMU AND KASHMIR BANK LIMITED",JAKA0VEERII,NA,VEERI,"BLOCK &TEHSIL - BIJBEHARA, DISTRICT- ANANTNAG, J&K PIN-192124",9469125020,ANANTNAG,ANANTNAG,"JAMMU AND KASHMIR"
"JAMMU AND KASHMIR BANK LIMITED",JAKA0VASHNO,182051203,"VAISHNO DEVI",KATTRA,282228,"B.U.VAISHNO DEVI",REASI,"JAMMU AND KASHMIR"
"JAMMU AND KASHMIR BANK LIMITED",JAKA0VASHEE,400051007,"VASHI  MUMBAI","A1/1 GROMA BUILDING, PLOT NO 140,SECTOR 19, VASHI, NAI MUMBAI THANA",27354517,VASHI,"GREATER BOMBAY",MAHARASHTRA
"JAMMU AND KASHMIR BANK LIMITED",JAKA0VASANT,110051015,"VASANT VIHAR DELHI","63-D,BASANT LOK",26154058,"VASANT VIHAR, NEW DELHI",DELHI,DELHI
"JAMMU AND KASHMIR BANK LIMITED",JAKA0VARSUA,400051009,"VERSOVA MUMBAI","15/24, SAMARTH VAIBHAV, NEW LINK ROAD,ANDHERI WEST",66931093,VERSUA,MUMBAI,MAHARASHTRA
"JAMMU AND KASHMIR BANK LIMITED",JAKA0VARNAS,221051002,VARANASI,"D 427-49, NEAR MEHMOOD MARKET",2451552,VARANASI,VARANASI,"UTTAR PRADESH"
"JAMMU AND KASHMIR BANK LIMITED",JAKA0VAILOO,192051061,VAILOO,"VAILOO,DISTRICT ANANTNAG,JANDK",9906593049,VAILOO,ANANTNAG,"JAMMU AND KASHMIR"
"JAMMU AND KASHMIR BANK LIMITED",JAKA0USHKAR,193051039,USHKARA,"USHKURA,DISTRICT BARAMULLA,J AND K PIN CODE 193103",9906600605,USHKURA,BARAMULLA,"JAMMU AND KASHMIR"
"JAMMU AND KASHMIR BANK LIMITED",JAKA0UNITED,NA,"ZONAL OFFICE KASHMIR CENTRAL","M A ROAD SRINAGAR JAMMU AND KASHMIR 190001",2471402,SRINAGAR,SRINAGAR,"JAMMU AND KASHMIR"
"JAMMU AND KASHMIR BANK LIMITED",JAKA0UKHRAL,182051305,"PANCHAL UKHRAL","BLOCK RAMSOO TEHSIL BANIHAL",7298004743,"PANCHAL UKHRAL",RAMBAN,"JAMMU AND KASHMIR"
"JAMMU AND KASHMIR BANK LIMITED",JAKA0UDRANA,182051122,UDRANA,"TEHSIL BADERWAH",9419831993,UDRANA,DODA,"JAMMU AND KASHMIR"
"JAMMU AND KASHMIR BANK LIMITED",JAKA0UDMPUR,182051001,"UDHAMPUR (MAIN)","MAIN BRANCH, COURT PREMISES",7298004703,"UDHAMPUR MAIN",UDHAMPUR,"JAMMU AND KASHMIR"
"JAMMU AND KASHMIR BANK LIMITED",JAKA0UDHWAL,180051081,UDHEYWALA,"UDHEYWALA DISTRICT JAMMU PIN CODE 180018",2555766,UDHEYWALA,JAMMU,"JAMMU AND KASHMIR"
"JAMMU AND KASHMIR BANK LIMITED",JAKA0UCIVIL,193051018,"URI CIVIL","GINGLE POST OFFICE MOHURA",9419052228,"URI CIVIL",BARAMULLA,"JAMMU AND KASHMIR"
"JAMMU AND KASHMIR BANK LIMITED",JAKA0TURTUK,194051027,TURTUK,BLOCK-DISTIK,949300747,VILLAGE-TURTUK,LEH,"JAMMU AND KASHMIR"
"JAMMU AND KASHMIR BANK LIMITED",JAKA0TURKWN,192051207,TURKWANGAN,"NEAR NEW SUMO STAND",9797505666,"TURKWANGAN , SHOPIAN",SHOPIAN,"JAMMU AND KASHMIR"
"JAMMU AND KASHMIR BANK LIMITED",JAKA0TUNNEL,182051304,BANIHAL,"DIST, RAMBAN",255044,BANIHAL,RAMBAN,"JAMMU AND KASHMIR"
"JAMMU AND KASHMIR BANK LIMITED",JAKA0TULAIL,193051406,"BADUGAM TULAIL","TEHSIL GUREZ",9469785996,"BADUGAM TULAIL",BANDIPORA,"JAMMU AND KASHMIR"
"JAMMU AND KASHMIR BANK LIMITED",JAKA0TUJJAR,193051032,"TUJJAR SHARIEF",SOPORE,9419003586,"TUJJAR SHARIEF",BARAMULLA,"JAMMU AND KASHMIR"
"JAMMU AND KASHMIR BANK LIMITED",JAKA0TTILOO,NA,"TALAB TILLO","JAMMU AND KASHMIR BANK LTD  TALAB TILLO JAMMU 180002",0,JAMMU,JAMMU,"JAMMU AND KASHMIR"
"JAMMU AND KASHMIR BANK LIMITED",JAKA0TTALOO,180051024,"TALAB TILLO JAMMU","TALAB TILLOO",2505294,"TALAB TILLO",JAMMU,"JAMMU AND KASHMIR"
"JAMMU AND KASHMIR BANK LIMITED",JAKA0TTALAB,180051050,"TIRATH NAGAR JAMMU","OPPOSITE TREASURY,TALAB TILLO",2554984,"TIRATH NAGAR JAMMU",JAMMU,"JAMMU AND KASHMIR"
"JAMMU AND KASHMIR BANK LIMITED",JAKA0TSUROO,194051014,TAI-SURU,"TSURU KARGIL,J AND K",259075,"TSURU KARGIL",KARGIL,"JAMMU AND KASHMIR"
"JAMMU AND KASHMIR BANK LIMITED",JAKA0TRUSTE,193051106,"T P SOPORE","NEAR POLICE STATION",7298004450,T.P.SOPORE,BARAMULLA,"JAMMU AND KASHMIR"
"JAMMU AND KASHMIR BANK LIMITED",JAKA0TRSPON,194051020,TRESPONE,"TRESPONE KARGIL",9469221477,"TRESPONE KARGIL",KARGIL,"JAMMU AND KASHMIR"
"JAMMU AND KASHMIR BANK LIMITED",JAKA0TRINAG,NA,"MARBLE MARKET","MARBLE MARKET, TRIKURA NAGAR, JAMMU, JK, PIN 180020",9469370050,JAMMU,JAMMU,"JAMMU AND KASHMIR"
"JAMMU AND KASHMIR BANK LIMITED",JAKA0TRIKOT,180051026,"TRIKUTA NAGAR JAMMU","KRISHNA COMPLEX,SECTOR 3-EXT.",2472718,"TRIKUTA NAGAR JAMMU",JAMMU,"JAMMU AND KASHMIR"
"JAMMU AND KASHMIR BANK LIMITED",JAKA0TRHGAM,193051210,TREHGAM,KUPWARA,244644,TREHGAM,KUPWARA,"JAMMU AND KASHMIR"
"JAMMU AND KASHMIR BANK LIMITED",JAKA0TRENZZ,192051129,TRENZ,"OPPOSITE JAMIA MASJID",0,TRENZ,SHOPIAN,"JAMMU AND KASHMIR"
"JAMMU AND KASHMIR BANK LIMITED",JAKA0TRCSGR,190051067,"TRC SRINAGR","TRC, EXTENSION, OPPOSITE SBI BANK,RAJBAGH",2450012,"TRC SRINAGAR",SRINAGAR,"JAMMU AND KASHMIR"
"JAMMU AND KASHMIR BANK LIMITED",JAKA0TPURAM,695051002,THIRUVANANTHAPURAM,"T.C NO.28/2222(4),M.G ROAD",2468337,THIRUVANANTHAPURAM,THIRUVANANTHAPURAM,KERALA
"JAMMU AND KASHMIR BANK LIMITED",JAKA0TPKGAM,192051049,"T P KULGAM","CENTRAL MARKET KULGAM",0,"KULGAM CENTRAL",KULGAM,"JAMMU AND KASHMIR"
"JAMMU AND KASHMIR BANK LIMITED",JAKA0TPBAND,193051402,"T P BANDIPUR","OPP SPORTS STADIUM TEHSIL PREMISES",226319,"TP BANDIOORA",BANDIPORA,"JAMMU AND KASHMIR"
"JAMMU AND KASHMIR BANK LIMITED",JAKA0TOPSHR,180051058,"TOP SHERKHANIAN JAMMU","TOPH SHERKHANIA,SUBHASH NAGAR",2580578,"TOPH SHERKHANIA JAMMU",JAMMU,"JAMMU AND KASHMIR"
"JAMMU AND KASHMIR BANK LIMITED",JAKA0TOOTAN,180051054,"TOTAN DI KHUI JAMMU","TOTAN DI KHUI,P.O BAIN BAJALTA",2130088,"TOTAN DI KHUI,JAMMU",JAMMU,"JAMMU AND KASHMIR"
"JAMMU AND KASHMIR BANK LIMITED",JAKA0TOLMAR,180051033,"OLD JANIPUR TALIMOR JAMMU","OLD JANIPUR,TALIMOR",2532327,JANIPUR,JAMMU,"JAMMU AND KASHMIR"
"JAMMU AND KASHMIR BANK LIMITED",JAKA0TNHALL,180051025,"TOWN HALL JAMMU","TOWN HALL",2546609,"TOWN HALL",JAMMU,"JAMMU AND KASHMIR"
"JAMMU AND KASHMIR BANK LIMITED",JAKA0TNGDAR,193051207,TANGDAR,KUPWARA,245230,TANGDAR,KUPWARA,"JAMMU AND KASHMIR"
"JAMMU AND KASHMIR BANK LIMITED",JAKA0TIKRIE,182051011,TIKRI,"J&K BANK  B/U TIKRI UDHAMPUR",7298004699,TIKRIE,UDHAMPUR,"JAMMU AND KASHMIR"
"JAMMU AND KASHMIR BANK LIMITED",JAKA0THATRI,182051109,THATRI,"THATRI, DODA, JAMMU",7298004632,"THATRI, DODA",DODA,"JAMMU AND KASHMIR"
"JAMMU AND KASHMIR BANK LIMITED",JAKA0THANAM,185051005,"THANA MANDI","MAIN BAZAR THANA MANDI",251038,"THANA MANDI RAJOURI",RAJOURI,"JAMMU AND KASHMIR"
"JAMMU AND KASHMIR BANK LIMITED",JAKA0TETHAR,182051307,TETHAR,"NATIONAL HIGHWAY",9419175655,"IDDGAH ROAD",RAMBAN,"JAMMU AND KASHMIR"
"JAMMU AND KASHMIR BANK LIMITED",JAKA0TENGAL,182051113,SARTINGAL,"VIILAGE SARTINGAL,TEHSIL BADERWAH",7298004744,"SARTINGAL, TEHSIL BHAD",DODA,"JAMMU AND KASHMIR"
"JAMMU AND KASHMIR BANK LIMITED",JAKA0TEMPLE,143051003,"MAJITH MANDI AMRITSAR","NEAR TUNDA TALAB",2556925,M.M.AMRITSAR,AMRITSAR,PUNJAB
"JAMMU AND KASHMIR BANK LIMITED",JAKA0TEMGAM,194051028,TEMISGAM,BLOCK-KHALTSI,9419814477,VILLAGE-TEMISGAM,LEH,"JAMMU AND KASHMIR"
"JAMMU AND KASHMIR BANK LIMITED",JAKA0TEHSIL,193051001,"T P BARAMULLA","TASHKANT CHOWK, BARAMULLA",7298004559,"T P BARAMULLA",BARAMULLA,"JAMMU AND KASHMIR"
"JAMMU AND KASHMIR BANK LIMITED",JAKA0TEELWA,192051066,TEELWANI,"NEAR JAMIA MASJID",9596140100,TEELWANI,ANANTNAG,"JAMMU AND KASHMIR"
"JAMMU AND KASHMIR BANK LIMITED",JAKA0TCHNAI,600051004,"T NAGAR CHENNAI","60-RAINBOW ARCHAD,FIRTHEAGARAYA ROAD,PONDY BAZAR",24313851,"T-NAGAR CHENNAI",CHENNAI,"TAMIL NADU"
"JAMMU AND KASHMIR BANK LIMITED",JAKA0TARZUA,193051109,TARZUA,"J&K BANK, TARZUA SOPORE",7298004593,"TARZUA SOPORE",BARAMULLA,"JAMMU AND KASHMIR"
"JAMMU AND KASHMIR BANK LIMITED",JAKA0TARIGA,NA,TARIGAM,"BLOCK QAIMOH, DISTRICT KULGAM, KASHMIR, PIN- 192232",9906645399,KULGAM,KULGAM,"JAMMU AND KASHMIR"
"JAMMU AND KASHMIR BANK LIMITED",JAKA0TARGET,180051005,"CHANDNAGAR JAMMU","SANT MARKET, JEWEL CHOWK",2579583,"CHAND NAGAR",JAMMU,"JAMMU AND KASHMIR"
"JAMMU AND KASHMIR BANK LIMITED",JAKA0TARATH,NA,TARATHPORA,"TARATHPORA,DISTRICT KUPWARA,BLOCK RAMHAL,KASHMIR,J AND K PIN 193224",0,"TARAT PORA",KUPWARA,"JAMMU AND KASHMIR"
"JAMMU AND KASHMIR BANK LIMITED",JAKA0TANKEE,190051068,"TANKIPORA SRINAGAR","DC OFFICE COMPLEX",2472294,TANKIPORA,SRINAGAR,"JAMMU AND KASHMIR"
"JAMMU AND KASHMIR BANK LIMITED",JAKA0TANGAN,193051033,KHAITANGAN,"KHAITANGAN,DISTRICT BARAMULLA,PIN CODE 193101",9906460177,KHAITANGAN,BARAMULLA,"JAMMU AND KASHMIR"
"JAMMU AND KASHMIR BANK LIMITED",JAKA0TANDWA,NA,TANDWAL,"POST OFFICE-TANDWAL TEHSIL & DISTRICT - RAJOURI , PIN - 185131",9906171639,RAJOURI,RAJOURI,"JAMMU AND KASHMIR"
"JAMMU AND KASHMIR BANK LIMITED",JAKA0TAHAAB,192051125,TAHAB,TAHAB,9797772851,"MAIN MARKET",PULWAMA,"JAMMU AND KASHMIR"
"JAMMU AND KASHMIR BANK LIMITED",JAKA0SWITCH,NA,"ATM SWITCH DEPARTMENT CHQ","HRD, CORPORATE HEADQUARTERS, M A ROAD",2481958,SRINAGAR,SRINAGAR,"JAMMU AND KASHMIR"
"JAMMU AND KASHMIR BANK LIMITED",JAKA0SURRAN,185051102,SURANKOTE,"TEH. SURANKOTE",230040,"SURAN KOTE POONCH",POONCH,"JAMMU AND KASHMIR"
"JAMMU AND KASHMIR BANK LIMITED",JAKA0SURARA,180051079,SURARA,"VPO SURARA,DIST SAMBA PIN CODE 184141",9906268998,"VPO SURARA",SAMBA,"JAMMU AND KASHMIR"
"JAMMU AND KASHMIR BANK LIMITED",JAKA0SURAAS,191051030,SURASYAR,CHADORA,9858948028,SURASYAR,BUDGAM,"JAMMU AND KASHMIR"
"JAMMU AND KASHMIR BANK LIMITED",JAKA0SUNDER,185051007,"SUNDER BANI","MAIN MARKET ,SUNDERBANI",234435,SUNDERBANI,RAJOURI,"JAMMU AND KASHMIR"
"JAMMU AND KASHMIR BANK LIMITED",JAKA0SUMERB,NA,SUMERBUGH,"SUMERBUGH LASJAN, BUDGAM, KASHMIR, JK PIN 191101",9858449537,LASJAN,BADGAM,"JAMMU AND KASHMIR"
"JAMMU AND KASHMIR BANK LIMITED",JAKA0SUMBAL,193051008,SUMBAL,"TEHSIL SUMBAL SONAWARI",230224,"SUMBAL SONAWARI",BANDIPORA,"JAMMU AND KASHMIR"
"JAMMU AND KASHMIR BANK LIMITED",JAKA0STREET,190051024,"HARI SINGH  HIGH STREET SRINAGAR","HARI SINGH HIGH STREET",2474760,"HARI SINGH HIGH STREET",SRINAGAR,"JAMMU AND KASHMIR"
"JAMMU AND KASHMIR BANK LIMITED",JAKA0SSISGR,190051059,"SSI LAL CHOWK SRINAGR","NEAR GANTA GHAR",2459279,"SSI LALCHOWK",SRINAGAR,"JAMMU AND KASHMIR"
"JAMMU AND KASHMIR BANK LIMITED",JAKA0SRIGUP,192051024,SRIGUPHWARA,"TEHSIL BIJBEHARA SRIGUPWARA",979779946,"SRIGUPWARA ANANTNAG",ANANTNAG,"JAMMU AND KASHMIR"
"JAMMU AND KASHMIR BANK LIMITED",JAKA0SQUARE,190051003,"AMIRA KADAL SRINAGAR","NEAR KMD BUS STAND, AMIRA KADAL",2481701,"AMIRA KADAL",SRINAGAR,"JAMMU AND KASHMIR"
"JAMMU AND KASHMIR BANK LIMITED",JAKA0SPRING,193051004,TANGMARG,"NEAR JAMIA MASJID TANGMARG",7298004580,"TANGMARG BARAMULLA",BARAMULLA,"JAMMU AND KASHMIR"
"JAMMU AND KASHMIR BANK LIMITED",JAKA0SOPORE,193051111,"SOPORE TOWN","SOPORE,DISTRICT BARAMULLA,PIN CODE 193201",9906609881,SOPORE,BARAMULLA,"JAMMU AND KASHMIR"
"JAMMU AND KASHMIR BANK LIMITED",JAKA0SOOURA,190051066,"SOURA SRINAGAR","OPP BUS STOP, SOURA",2406626,SOURA,SRINAGAR,"JAMMU AND KASHMIR"
"JAMMU AND KASHMIR BANK LIMITED",JAKA0SOORAT,395051002,SURAT,"SUPETEX TOWER, NEAR KINNERY CINEMA,RING ROAD, SURAT",2325657,SURAT,SURAT,GUJARAT
"JAMMU AND KASHMIR BANK LIMITED",JAKA0SONWAR,190051082,"SONWAR SRINAGAR","OPP. AMAR SINGH CLUB",2501348,SONWAR,SRINAGAR,"JAMMU AND KASHMIR"
"JAMMU AND KASHMIR BANK LIMITED",JAKA0SONIUM,NA,SONIUM,"SONIUM,DISTRICT BARAMULLA,BLOCK KUNZER,KASHMIR,PIN 193404",9697421012,SONIM,BARAMULLA,"JAMMU AND KASHMIR"
"JAMMU AND KASHMIR BANK LIMITED",JAKA0SOLINA,190051065,SOLINA,"SILK FACTORY ROAD",2433251,SOLINA,SRINAGAR,"JAMMU AND KASHMIR"
"JAMMU AND KASHMIR BANK LIMITED",JAKA0SOIBUG,191051019,SOIBUGH,"SOIBUGH,DISTRICT,BUDGAM,JANDK PIN 191111",7298004366,"SOIBUGH, BUDGAM",BUDGAM,"JAMMU AND KASHMIR"
"JAMMU AND KASHMIR BANK LIMITED",JAKA0SOHAAL,180051063,SOHAL,"SOHAL, AKHNOOR",241057,SOHAL,JAMMU,"JAMMU AND KASHMIR"
"JAMMU AND KASHMIR BANK LIMITED",JAKA0SOGAAM,193051209,SOGAM,"SOGAAM LOLAB KUPWARA",233224,"SOGAM KUPWARA",KUPWARA,"JAMMU AND KASHMIR"
"JAMMU AND KASHMIR BANK LIMITED",JAKA0SNMLEH,194051026,"SNM HOSPITAL LEH","OPPOSITE SNM HOSPITAL LEH,DISTRICT LEH,J AND K PIN 194101",9419218657,"OPPOSITE SNM HOSPITAL",LEH,"JAMMU AND KASHMIR"
"JAMMU AND KASHMIR BANK LIMITED",JAKA0SMVDUN,182051202,"MATA VAISHNO DEVI UNIVERSITY KAKRIYAL","KAKARYAL PANTHAL ROAD",285730,"MATA VAISHNU DEVI UNIVERSITY",REASI,"JAMMU AND KASHMIR"
"JAMMU AND KASHMIR BANK LIMITED",JAKA0SMOOTH,193051303,"MAGAM  HANDWARA","MAIN CHOWK MAGAM",7298004574,"MAGAM, HANDWARA",KUPWARA,"JAMMU AND KASHMIR"
"JAMMU AND KASHMIR BANK LIMITED",JAKA0SMBAGH,110051027,"SHALIMAR BAGH DELHI","U&V, DDA MARKET, IST FLOOR, BLOCK-B,OPP.RBI STAFF COLONY, SHALIMAR BAGH",27488364,"SHALIMAR BAGH",DELHI,DELHI
"JAMMU AND KASHMIR BANK LIMITED",JAKA0SKUAST,190051064,"SKUAST SRINAGAR","SKUAST SHALIMAR",2462078,SKUAST,SRINAGAR,"JAMMU AND KASHMIR"
"JAMMU AND KASHMIR BANK LIMITED",JAKA0SKIMSS,190051058,"SKIMSS SRINAGAR","SKIMS, SOURA",2403548,SKIMS,SRINAGAR,"JAMMU AND KASHMIR"
"JAMMU AND KASHMIR BANK LIMITED",JAKA0SKETCH,NA,"ZONAL OFFICE MUMBAI","NATIONAL BUSINESS CENTRE BANDRA KURLA COMPLEX BANDRA EAST MUMBAI MAHARASHTRA 400051",26384126,MUMBAI,MUMBAI,MAHARASHTRA
"JAMMU AND KASHMIR BANK LIMITED",JAKA0SKBRIG,185051111,"SHERI-KASHMIR BRIDGE","SHERI KASHMIR BRIDGE,DISTRICT POONCH,PIN CODE 185101",9797005799,"SHER-I-KASHMIR BRIDGE",POONCH,"JAMMU AND KASHMIR"
"JAMMU AND KASHMIR BANK LIMITED",JAKA0SKANIL,192051030,"SEER HAMDAN",ANANTNAG,9797284849,"SEER HAMDAN",ANANTNAG,"JAMMU AND KASHMIR"
"JAMMU AND KASHMIR BANK LIMITED",JAKA0SKALZA,194051002,SKALZANGLING,"AIRPORT ROAD SKALZANGING",253118,"SKALZANGING LEH",LEH,"JAMMU AND KASHMIR"
"JAMMU AND KASHMIR BANK LIMITED",JAKA0SKADAL,NA,"SAIDA KADAL","SAIDA KADAL MAIN CHOWK, SRINAGAR, KASHMIR JK PIN 190003",9018779779,SRINAGAR,SRINAGAR,"JAMMU AND KASHMIR"
"JAMMU AND KASHMIR BANK LIMITED",JAKA0SIRHAM,192051058,SIRHAMA,"SIRHAMA DISTRICT ANANTNAG,J AND K PIN CODE 192401",9858408215,SIRHAMA,ANANTNAG,"JAMMU AND KASHMIR"
"JAMMU AND KASHMIR BANK LIMITED",JAKA0SINGPO,193051016,"SINGHPORA PATTAN","SINGHPORA PATTAN BARAM",7298004603,"SINGHPORA,BARAMULLA",BARAMULLA,"JAMMU AND KASHMIR"
"JAMMU AND KASHMIR BANK LIMITED",JAKA0SIMTRA,192051130,"SOIMOH TRAL","NEAR SINGH SABHA GURDWARA",9419022251,"SOIMOH TRAL",PULWAMA,"JAMMU AND KASHMIR"
"JAMMU AND KASHMIR BANK LIMITED",JAKA0SIMPLE,184051012,"HIRA NAGAR MORH","HIRANAGAR MORH",1922,"HIRANAGAR MORH KATHUA",KATHUA,"JAMMU AND KASHMIR"
"JAMMU AND KASHMIR BANK LIMITED",JAKA0SILVER,110051003,"CHANDNI CHOWK DELHI","384-390, LOK NATH BUILDING",23923936,"CHANDNI CHOWK",DELHI,DELHI
"JAMMU AND KASHMIR BANK LIMITED",JAKA0SILIGM,192051068,SILIGAM,"PAHALGAM ROAD",9797942786,"MAIN MARKET SILIGAM",ANANTNAG,"JAMMU AND KASHMIR"
"JAMMU AND KASHMIR BANK LIMITED",JAKA0SIDHRA,180051036,"SIDHRA JAMMU","BYPASS SIDHRA JAMMU",2662254,SIDHRA,JAMMU,"JAMMU AND KASHMIR"
"JAMMU AND KASHMIR BANK LIMITED",JAKA0SHUHAM,NA,"SHUHAMA ALUSTENG","SHUHAMA ALUSTENG, SRINAGAR, JK PIN 190006",2262012,SRINAGAR,SRINAGAR,"JAMMU AND KASHMIR"
"JAMMU AND KASHMIR BANK LIMITED",JAKA0SHSTRI,180051044,"SHASTRI NAGAR JAMMU","371-372 TREASURY PREMISES,",2435691,"E/C SHASTRI NAGAR",JAMMU,"JAMMU AND KASHMIR"
"JAMMU AND KASHMIR BANK LIMITED",JAKA0SHRINE,191051107,TULMULLAH,"TULMULLA GANDERBAL",2416523,TULMULLA,GANDERBAL,"JAMMU AND KASHMIR"
"JAMMU AND KASHMIR BANK LIMITED",JAKA0SHOPAN,192051201,"SHOPIAN (MAIN)","NEAR TAK MASJID",260008,"SHOPIAN MAIN",SHOPIAN,"JAMMU AND KASHMIR"
"JAMMU AND KASHMIR BANK LIMITED",JAKA0SHOOLI,191051022,SHOOLIPORA,"SHOOLIPORA,DISTRICT BUDGAM PIN 191111",9419007245,SHOOLIPORA,BUDGAM,"JAMMU AND KASHMIR"
"JAMMU AND KASHMIR BANK LIMITED",JAKA0SHIVJI,182051016,"SHIV NAGAR UDHAMPUR","SHIVNAGAR,NATIONAL HIGHWAY 1A,",7298004689,"SHIVNAGAR,UDHAMPUR",UDHAMPUR,"JAMMU AND KASHMIR"
"JAMMU AND KASHMIR BANK LIMITED",JAKA0SHIRAZ,190051033,"KHANYAR SRINAGAR","NEAR SHIRAZ CINEMA",2458969,KHANYAR,SRINAGAR,"JAMMU AND KASHMIR"
"JAMMU AND KASHMIR BANK LIMITED",JAKA0SHIMLA,171051002,SHIMLA,"15 THE MALL",2657790,SHIMLA,SHIMLA,"HIMACHAL PRADESH"
"JAMMU AND KASHMIR BANK LIMITED",JAKA0SHERRA,193051017,SHERABAD,"SHERABAD PATTAN",7298004086,"SHERABAD,PATTAN",BARAMULLA,"JAMMU AND KASHMIR"
"JAMMU AND KASHMIR BANK LIMITED",JAKA0SHELEH,NA,SHEY,"BLOCK CHUCHOT├╜JK PIN 194104",9906991898,LEH,LEH,"JAMMU AND KASHMIR"
"JAMMU AND KASHMIR BANK LIMITED",JAKA0SHEERI,193051028,SHEERI,"MAIN BAZAAR SHEERI SHEERINABAD",9906602729,"SHEERI BARAMULLA",BARAMULLA,"JAMMU AND KASHMIR"
"JAMMU AND KASHMIR BANK LIMITED",JAKA0SHARIF,800051002,PATNA,"HAROON NAGAR PHULWARI SHARIEF",2555450,PATNA,PATNA,BIHAR
"JAMMU AND KASHMIR BANK LIMITED",JAKA0SHARAN,247051002,SAHARANPUR,"UNIT 1 PARNEVOT PLAZA COURT ROAD",2711517,SAHARANPUR,SAHARANPUR,"UTTAR PRADESH"
"JAMMU AND KASHMIR BANK LIMITED",JAKA0SHANKE,NA,SHANKERPORA,"SHANKERPORA , PO DIALGAM, ANANTNAG , JK PIN 192213",9906910286,DIALGAM,ANANTNAG,"JAMMU AND KASHMIR"
"JAMMU AND KASHMIR BANK LIMITED",JAKA0SHAKTI,182051002,"SHAKTI NAGAR UDHAMPUR","SHAKTI NAGAR UDAMPHUR",7298004625,"SHAKTI NAGAR",UDHAMPUR,"JAMMU AND KASHMIR"
"JAMMU AND KASHMIR BANK LIMITED",JAKA0SHADRA,110051010,"NAVIN SHADRA DELHI","BABARPUR ROAD, ROHTAS NAGAR",22321305,"NAVNEEN SHADRA",DELHI,DELHI
"JAMMU AND KASHMIR BANK LIMITED",JAKA0SHADPR,NA,SHADIPORA,"VILLAGE-SHADIPORA, DISRICT-BANDIPORA, JK, PIN-193502",9469035436,BANDIPORA,BANDIPORA,"JAMMU AND KASHMIR"
"JAMMU AND KASHMIR BANK LIMITED",JAKA0SHADIM,192051110,SHADIMARG,PULWAMA,278288,"SHADIMARG, PULWAMA",PULWAMA,"JAMMU AND KASHMIR"
"JAMMU AND KASHMIR BANK LIMITED",JAKA0SEXTEN,110051014,"SOUTH EXTENSION DELHI","E-9, SOUTH EXTENSION II",26262332,"SOUTH EX",DELHI,DELHI
"JAMMU AND KASHMIR BANK LIMITED",JAKA0SEERIE,185051006,SERI,NOWSHERA,230244,NOWSHERA,RAJOURI,"JAMMU AND KASHMIR"
"JAMMU AND KASHMIR BANK LIMITED",JAKA0SEELOO,193051110,SEELO,SELOO,9906965488,"SELOO, SOPORE KASHMIR",BARAMULLA,"JAMMU AND KASHMIR"
"JAMMU AND KASHMIR BANK LIMITED",JAKA0SEDODA,182051124,"SERI DODA",TEHSIL-BADERWAH,9419214320,SERI,DODA,"JAMMU AND KASHMIR"
"JAMMU AND KASHMIR BANK LIMITED",JAKA0SECTOR,160051001,CHANDIGARH,"THE JAMMU AND KASHMIR BANK LTD, SCO 803-804, SECTOR 22A,CHANDIGARH,PIN CODE 160022",2776394,CHANDIGARH,CHANDIGARH,CHANDIGARH
"JAMMU AND KASHMIR BANK LIMITED",JAKA0SECBAN,NA,"MINI SECRETARIAT BANDIPORA","D.C OFFICE COMPLEX, DISTRICT-BANDIPORA, KASHMIR, PIN-193502",9906712434,BANDIPORA,BANDIPORA,"JAMMU AND KASHMIR"
"JAMMU AND KASHMIR BANK LIMITED",JAKA0SEABAD,500051004,SECUNDERABAD,"LPF HOUSE, R.P ROAD, SECUNDERABAD",9908847260,"RANIGUNJ. 5-3-338/3",HYDERABAD,"ANDHRA PRADESH"
"JAMMU AND KASHMIR BANK LIMITED",JAKA0SBOARD,190051036,"LAL MANDI SRINAGAR","NEAR AGRICULTURAL COMPLEX",2310238,"LAL MANDI",SRINAGAR,"JAMMU AND KASHMIR"
"JAMMU AND KASHMIR BANK LIMITED",JAKA0SATWAR,NA,"RAIPUR SATWARI","RAIPUR SATWARI, NEAR GURUDWARA SAHIB, PO SATWARI,TEHSIL JAMMU, JAMMU AND KASHMIR PIN 180003",2227946,JAMMU,JAMMU,"JAMMU AND KASHMIR"
"JAMMU AND KASHMIR BANK LIMITED",JAKA0SATLIT,380051003,"SATELLITE AHMEDABAD","SHOP NO.108-113, SAMAAN COMPLEX,OPP.NALANDA, PREM CHAND NAGAR ROAD",26742573,"SATTELLITE AHMADABAD",AHMADABAD,GUJARAT
"JAMMU AND KASHMIR BANK LIMITED",JAKA0SATHRA,NA,SATHRA,"VILLAGE & POST OFFICE- SATHRA, TEHSIL-MANDI, DISTRICT-POONCH, J&K, PIN-185102",9697241403,MANDI,POONCH,"JAMMU AND KASHMIR"
"JAMMU AND KASHMIR BANK LIMITED",JAKA0SATHOO,190051069,"UPPER SATHOO SRINAGAR","UPPER SATHU, BARBARSHAH",2478019,"UPPER SATHU",SRINAGAR,"JAMMU AND KASHMIR"
"JAMMU AND KASHMIR BANK LIMITED",JAKA0SARWAL,180051084,SARWAL,SARWAL,9419237229,"MAIN CHOWK",JAMMU,"JAMMU AND KASHMIR"
"JAMMU AND KASHMIR BANK LIMITED",JAKA0SARTAL,182051413,SARTHAL(AGRAL),"BPO SARTHAL MANDIR,DISTRICT KISHTWAR JANDK",9419155350,"BPO SARTHAL MANDIR",KISHTWAR,"JAMMU AND KASHMIR"
"JAMMU AND KASHMIR BANK LIMITED",JAKA0SARITA,110051018,"SARITA VIHAR DELHI","8-LSC, H-BLOCK MARKET",26971966,"SARITA VIHAR",DELHI,DELHI
"JAMMU AND KASHMIR BANK LIMITED",JAKA0SANTAC,400051012,"SANTA CRUZ WEST","SHOP NO 6 GROUND FLOOR KAMLA SPACES SV ROAD KHIRA NAGAR SANTA CRUZ W MUMBAI MAHARASHTRA 400054",26602820,MUMBAI,"GREATER MUMBAI",MAHARASHTRA
"JAMMU AND KASHMIR BANK LIMITED",JAKA0SANKOO,194051009,SANKOO,"MAIN BAZAAR SANKOO",258014,"SANKOO, KARGIL",KARGIL,"JAMMU AND KASHMIR"
"JAMMU AND KASHMIR BANK LIMITED",JAKA0SANGUS,192051019,SHANGUS,"SHANGUS, NOWGAM",292299,"SHANGUS, NOWGAM, ANANTNAG",ANANTNAG,"JAMMU AND KASHMIR"
"JAMMU AND KASHMIR BANK LIMITED",JAKA0SANGLA,NA,"SANGLA CHOWK","POST OFFICE-MENDHAR, TEHSIL-MENDHAR, DISTRICT-POONCH, , PIN-185211",9596627746,MENDHAR,POONCH,"JAMMU AND KASHMIR"
"JAMMU AND KASHMIR BANK LIMITED",JAKA0SANGAM,192051055,SANGAM,SANGAM,9419026397,"MAIN CHOWK NATIONAL HIGHWAY",ANANTNAG,"JAMMU AND KASHMIR"
"JAMMU AND KASHMIR BANK LIMITED",JAKA0SANGAL,182051019,SANGALDAN,SANGALDAN,7298004763,SANGALDAN,RAMBAN,"JAMMU AND KASHMIR"
"JAMMU AND KASHMIR BANK LIMITED",JAKA0SAMOTE,NA,SAMOTE,"POST OFFICE-SURANKOTE , TEHSIL - SURANKOTE , DISTRICT - POONCH , PIN -185121",8803160164,SURANKOTE,POONCH,"JAMMU AND KASHMIR"
"JAMMU AND KASHMIR BANK LIMITED",JAKA0SAMOOR,194051010,SAMOOR,"SUMOOR NOBRA LEH",223575,"SAMOOR, LEH",LEH,"JAMMU AND KASHMIR"
"JAMMU AND KASHMIR BANK LIMITED",JAKA0SAMBHA,180051039,"SAMBA (MAIN)","BUS STAND",243211,SAMBA,SAMBA,"JAMMU AND KASHMIR"
"JAMMU AND KASHMIR BANK LIMITED",JAKA0SALMAR,190051063,SHALIMAR,"NEAR SAKOON RESTURANT,MERAK ABAD",2463542,SHALIMAR,SRINAGAR,"JAMMU AND KASHMIR"
"JAMMU AND KASHMIR BANK LIMITED",JAKA0SALHER,180051062,SALHER,"BUS ADDA SALHER VILLAGE,POST OFFICE SALHER,",247104,"SALHER JAMMU",JAMMU,"JAMMU AND KASHMIR"
"JAMMU AND KASHMIR BANK LIMITED",JAKA0SALAMA,193051041,"SALAMABAD URI",TEHISL-URI,9797903842,SALAMABAD,BARAMULLA,"JAMMU AND KASHMIR"
"JAMMU AND KASHMIR BANK LIMITED",JAKA0SAKHII,NA,SAKHIMAIDAN,"TEHSIL-MENDHAR, DISTRICT-POONCH, J&K, PIN-185211",9697156900,MENDHAR,POONCH,"JAMMU AND KASHMIR"
"JAMMU AND KASHMIR BANK LIMITED",JAKA0SAKHIE,192051011,ASHMUQAM,"J & K BANK, AUQAF BUILDING AISHMUQAM",242272,ASHMUQAM,ANANTNAG,"JAMMU AND KASHMIR"
"JAMMU AND KASHMIR BANK LIMITED",JAKA0SAJWAL,180051098,SAJWAL,"POST OFFICE-PARGWAL, TEHSIL-AKHNOOR",9469679760,VILLAGE-SAJWAL,JAMMU,"JAMMU AND KASHMIR"
"JAMMU AND KASHMIR BANK LIMITED",JAKA0SAJRAJ,185051022,"SAJ RAJOURI",TEHSIL-RAJOURI,9419130677,SAJ,RAJOURI,"JAMMU AND KASHMIR"
"JAMMU AND KASHMIR BANK LIMITED",JAKA0SAINIK,NA,"SAINIK COLONY","SAINIK COLONY PLOT NO 335 SECTOR E JAMMU JK PIN 180011",9419204895,JAMMU,JAMMU,"JAMMU AND KASHMIR"
"JAMMU AND KASHMIR BANK LIMITED",JAKA0SAFRON,190051047,PAMPORE,"DRANGBAL, PAMPORE",222202,"PAMPORE, PULWAMA",PULWAMA,"JAMMU AND KASHMIR"
"JAMMU AND KASHMIR BANK LIMITED",JAKA0SAFAPO,191051106,SAFAPORA,"MAIN MARKET SAFAPORA",215222,"SAFAPORA GANDERBAL",GANDERBAL,"JAMMU AND KASHMIR"
"JAMMU AND KASHMIR BANK LIMITED",JAKA0SADERK,NA,"SADERKOTE BALA","BLOCK-HAJIN, TEHSIL-SUMBAL, DISTRICT-BANDIPORA, KASHMIR, PIN-193502",9622805067,BANDIPORA,BANDIPORA,"JAMMU AND KASHMIR"
"JAMMU AND KASHMIR BANK LIMITED",JAKA0SADDAR,110051005,"SADDAR BAZAR DELHI","2121/2122 BHADURGARH ROAD",23683603,"SADDAR BAZAR",DELHI,DELHI
"JAMMU AND KASHMIR BANK LIMITED",JAKA0SACRED,190051070,"ZAINA KADAL SRINAGAR","ZAINA KADAL",2484414,"ZAINA KADAL",SRINAGAR,"JAMMU AND KASHMIR"
"JAMMU AND KASHMIR BANK LIMITED",JAKA0SAALIA,192051054,SALIA,SAALIA,9906609881,"NEAR MASJID SHARIEF",ANANTNAG,"JAMMU AND KASHMIR"
"JAMMU AND KASHMIR BANK LIMITED",JAKA0SAADIQ,192051005,SADIQABAD,"NEAR G.P.O SAADIQABAD,K.P.ROAD",223625,SAADIQABAD,ANANTNAG,"JAMMU AND KASHMIR"
"JAMMU AND KASHMIR BANK LIMITED",JAKA0RTOSGR,190051057,"OLD SECRETARIAT SRINAGAR","OLD SECRETRAIT R.T.O",2478658,"OLD SECRETRAIT",SRINAGAR,"JAMMU AND KASHMIR"
"JAMMU AND KASHMIR BANK LIMITED",JAKA0RSPORA,180051022,"R S PURA","NEAR MAIN GATE, SKUAST",250236,R.S.PORA,JAMMU,"JAMMU AND KASHMIR"
"JAMMU AND KASHMIR BANK LIMITED",JAKA0ROOPNA,NA,"ROOP NAGAR","1A, SECTOR 2, LOWER ROOP NAGAR, NEAR GREEN LAND PALACE, PO ROOP NAGAR, JAMMU, JK PIN 180013",9697244824,JAMMU,JAMMU,"JAMMU AND KASHMIR"
"JAMMU AND KASHMIR BANK LIMITED",JAKA0ROHTAK,124051002,ROHTAK,"BHIWANI STAND",269212,ROHTAK,ROHTAK,HARYANA
"JAMMU AND KASHMIR BANK LIMITED",JAKA0ROHMOO,192051121,ROHMOO,"MAIN CHOWK PULWAMA",215636,ROHMOO,PULWAMA,"JAMMU AND KASHMIR"
"JAMMU AND KASHMIR BANK LIMITED",JAKA0ROHINI,110051019,"ROHINI DELHI","BN PLAZA, A-103/2, SECTOR 3",27511170,ROHINI,DELHI,DELHI
"JAMMU AND KASHMIR BANK LIMITED",JAKA0ROHAMA,193051023,ROHAMA,"ROHAMA RAFIABD",7298004556,"ROHAMA BARAMULLA",BARAMULLA,"JAMMU AND KASHMIR"
"JAMMU AND KASHMIR BANK LIMITED",JAKA0RHMBAL,182051005,REHAMBAL,"NEAR FILLING STATION CHOPRA SHOP",7298004667,"REHAMBAL UDHAMPUR",UDHAMPUR,"JAMMU AND KASHMIR"
"JAMMU AND KASHMIR BANK LIMITED",JAKA0REVENU,184051003,"PATEL NAGAR  KATHUA","PATEL NAGAR, KALI BARI",1922,"PATEL NAGAR, KATHUA",KATHUA,"JAMMU AND KASHMIR"
"JAMMU AND KASHMIR BANK LIMITED",JAKA0REHARI,180051021,"REHARI JAMMU",REHARI,2573764,REHARI,JAMMU,"JAMMU AND KASHMIR"
"JAMMU AND KASHMIR BANK LIMITED",JAKA0REHAAL,NA,"REHAL DHAMALIAN","REHAL DHAMALIAN, TEHSIL-BISHNAH, DISTRICT-JAMMU, J&K, PIN-181132",248210,"RIHAL DHAMALIAN",JAMMU,"JAMMU AND KASHMIR"
"JAMMU AND KASHMIR BANK LIMITED",JAKA0REGPUR,193051227,REGIPORA,"COLLEGE ROAD REGIPORA,DISTRICT KUPWARA,J AND K PIN 193222",9796527773,"COLLEGE ROAD REGIPORA",KUPWARA,"JAMMU AND KASHMIR"
"JAMMU AND KASHMIR BANK LIMITED",JAKA0REGION,180051002,"RCC JAMMU","REGIONAL COLLECTION CR,SMGS HOSPITAL COMPLEX",2546786,JAMMU,JAMMU,"JAMMU AND KASHMIR"
"JAMMU AND KASHMIR BANK LIMITED",JAKA0RECSGR,190051054,"REC SRINAGAR","NIT PREMISES",2415770,"REC, SRINAGAR",SRINAGAR,"JAMMU AND KASHMIR"
"JAMMU AND KASHMIR BANK LIMITED",JAKA0REASSI,182051251,REASI,"BUS STAND, REASI",244136,REASI,REASI,"JAMMU AND KASHMIR"
"JAMMU AND KASHMIR BANK LIMITED",JAKA0RCHNAI,NA,"RCC CHENNAI","60 RAINBOW ARCADE, SIR THEAGARAYAR ROAD, T NAGAR, PONDY BAZAR, CHENNAI , TAMIL NADU, PIN 600017",9940074651,CHENNAI,CHENNAI,"TAMIL NADU"
"JAMMU AND KASHMIR BANK LIMITED",JAKA0RCCSOP,193051101,"RCC SOPORE","TEHSIL PREMISES SOPORE",220008,SOPORE,BARAMULLA,"JAMMU AND KASHMIR"
"JAMMU AND KASHMIR BANK LIMITED",JAKA0RCCANG,192051001,"RCC ANANTNAG","RCC ANANTNAG OPP. NEW MARKET BR",210862,ANANTNAG,ANANTNAG,"JAMMU AND KASHMIR"
"JAMMU AND KASHMIR BANK LIMITED",JAKA0RAWWAL,190051053,"RAWALPORA SRINAGAR",RAWALPORA,2434297,RAWALPORA,SRINAGAR,"JAMMU AND KASHMIR"
"JAMMU AND KASHMIR BANK LIMITED",JAKA0RAWKHA,NA,"RAWALPORA KHANSAHIB","RAWALPORA KHANSAHIB,DISTRICT BUDGAM,BLOCK AND TEHSIL KHANSAHIB,KASHMIR,J AND K PIN 193411",9797892394,"RAALPORA BERUA",BUDGAM,"JAMMU AND KASHMIR"
"JAMMU AND KASHMIR BANK LIMITED",JAKA0RATSUN,191051040,RATSUN,"RATSUN,DISTRICT BUDGAM,J AND K PIN 193401",9906478843,RATSUN,BUDGAM,"JAMMU AND KASHMIR"
"JAMMU AND KASHMIR BANK LIMITED",JAKA0RATSHP,192051211,"RATNIPORA SHOPIAN","RATNIPORA,DISTRICT SHOPIAN,J AND K PIN CODE 192303",9697957675,RATNIPORA,SHOPIAN,"JAMMU AND KASHMIR"
"JAMMU AND KASHMIR BANK LIMITED",JAKA0RATNIE,192051109,RATNIPORA,RATNIPORA,265083,RATNIPORA,PULWAMA,"JAMMU AND KASHMIR"
"JAMMU AND KASHMIR BANK LIMITED",JAKA0RANRSI,182051259,RANSOO,"RANSOO SHIV KHORI DISTRICT REASI,PIN CODE 185203",9797327311,RANSOO,REASI,"JAMMU AND KASHMIR"
"JAMMU AND KASHMIR BANK LIMITED",JAKA0RANITA,NA,"RANI TALAB","RANI TALAB,DIGIANA,DISTRICT JAMMU,J AND K PIN 180010",8492094553,JAMMU,JAMMU,"JAMMU AND KASHMIR"
"JAMMU AND KASHMIR BANK LIMITED",JAKA0RANIPR,192051039,RANIPORA,"P.O BRAH RANIPORA TEHSIL SHANGUS",9906963957,"RANIPORA , ANANTNAG",ANANTNAG,"JAMMU AND KASHMIR"
"JAMMU AND KASHMIR BANK LIMITED",JAKA0RANGRE,190051055,"RANGRETH SRINAGAR","RANGRETH BUDGAM",2300279,"RANGRETH BUDGAM KASHMIR",SRINAGAR,"JAMMU AND KASHMIR"
"JAMMU AND KASHMIR BANK LIMITED",JAKA0RANGER,191051023,RANGER,"TEHSIL CHADURA",9086511175,RANGER,BUDGAM,"JAMMU AND KASHMIR"
"JAMMU AND KASHMIR BANK LIMITED",JAKA0RANCHI,834051002,RANCHI,"DR. FETEH-ULLAH ROAD,LOWER BAZAR",2202865,RANCHI,RANCHI,JHARKHAND
"JAMMU AND KASHMIR BANK LIMITED",JAKA0RAMNAM,182051026,"SMM RAMNAGAR","KULWANT ROAD, TEHSIL-RAMNAGAR",9858144331,"NEAR SHEETLA MATA MANDIR",UDHAMPUR,"JAMMU AND KASHMIR"
"JAMMU AND KASHMIR BANK LIMITED",JAKA0RAMNAG,182051010,RAMNAGAR,"THE JAMMU & KASHMIR BANK LTD",270008,RAMNAGAR,UDHAMPUR,"JAMMU AND KASHMIR"
"JAMMU AND KASHMIR BANK LIMITED",JAKA0RAMKOT,184051023,RAMKOT,"POSTOFFICE RAMKOT TEHSIL BILAWAR",206064,"RAMKOT, BILLAWAR,",KATHUA,"JAMMU AND KASHMIR"
"JAMMU AND KASHMIR BANK LIMITED",JAKA0RAMGAR,180051057,RAMGARH,"RAMGARH SAMBA",234965,"RAMGARH, SAMBA",SAMBA,"JAMMU AND KASHMIR"
"JAMMU AND KASHMIR BANK LIMITED",JAKA0RAMBAN,182051301,RAMBAN,"RAMBAN MAIN BRANCH",266631,"RAMBAN MAIN BRANCH",RAMBAN,"JAMMU AND KASHMIR"
"JAMMU AND KASHMIR BANK LIMITED",JAKA0RAJPUR,192051105,RAJPORA,"RAJPORA, PULWAMA",278271,"RAJPORA, PULWAMA",PULWAMA,"JAMMU AND KASHMIR"
"JAMMU AND KASHMIR BANK LIMITED",JAKA0RAJPJM,180051065,RAJPURA,"VILLAGE & P.O.RAJPORA TEHSIL SAMBHA",248017,"RAJPURA, SAMBA",SAMBA,"JAMMU AND KASHMIR"
"JAMMU AND KASHMIR BANK LIMITED",JAKA0RAJBAG,184051026,RAJBAGH,"RAJBAGH,DISTRICT KATHUA",9419618857,"VPO RAJBAGH",KATHUA,"JAMMU AND KASHMIR"
"JAMMU AND KASHMIR BANK LIMITED",JAKA0RAITHN,191051026,RAITHAN,"RAITHAN,DISTRICT BUDGAM,J AND K",9797022687,"RAITHAN KHANSAHIB",BUDGAM,"JAMMU AND KASHMIR"
"JAMMU AND KASHMIR BANK LIMITED",JAKA0RAIPUR,492051002,RAIPUR,"LAL GANGA SHOPPING MALL,G.E ROAD",2236467,RAIPUR,RAIPUR,CHANDIGARH
"JAMMU AND KASHMIR BANK LIMITED",JAKA0RAIKAB,185051012,RAKIBAN,"RAKIBAN RAJOURI",242005,"RAKIBAN, RAJOURI",RAJOURI,"JAMMU AND KASHMIR"
"JAMMU AND KASHMIR BANK LIMITED",JAKA0RAHYAA,NA,RAHYA,"RAHYA, TEHSILVIJAYPUR, DISTRICT-SAMBA, PIN-181143",249988,SAMBA,SAMBA,"JAMMU AND KASHMIR"
"JAMMU AND KASHMIR BANK LIMITED",JAKA0RADIUS,400051001,"RCC MUMBAI","5TH FLOOR, MERCHANT CHAMBERS, 41 NEW MARINE LINES",261559200,MUMBAI,MUMBAI,MAHARASHTRA
"JAMMU AND KASHMIR BANK LIMITED",JAKA0RADISH,185051001,"RAJOURI (MAIN)","MAIN BAZAR",262237,"RAJOURI MAIN",RAJOURI,"JAMMU AND KASHMIR"
"JAMMU AND KASHMIR BANK LIMITED",JAKA0QLMCHK,193051305,"QALAM CHAKLA","TEHSIL, HANDWARA",9697011395,"QALAMCHAKLA, QALAMABAD",KUPWARA,"JAMMU AND KASHMIR"
"JAMMU AND KASHMIR BANK LIMITED",JAKA0QAZIGD,192051015,QAZIGUND,"QAZIGUND, ANANTNAG",235188,QAZIGUND,ANANTNAG,"JAMMU AND KASHMIR"
"JAMMU AND KASHMIR BANK LIMITED",JAKA0QAMMAR,190051049,"PARIMPORA SRINAGAR","QAMMAWARI CHOWK,",2491599,PARIMPORA,SRINAGAR,"JAMMU AND KASHMIR"
"JAMMU AND KASHMIR BANK LIMITED",JAKA0QADEEM,193051103,"JAMIA QADEEM SOPORE","NEAR KHAN KHAHI MOHALLA,JAMIA QADEEM SOPORE",7298004572,"JAMIA QADEEM",BARAMULLA,"JAMMU AND KASHMIR"
"JAMMU AND KASHMIR BANK LIMITED",JAKA0PRROAD,110051035,"PRITHVIRAJ ROAD","5-PRITHVIRAJ ROAD",24644744,"PRITHVIRAJ ROAD",DELHI,DELHI
"JAMMU AND KASHMIR BANK LIMITED",JAKA0PROMPT,190051044,"NEW SECTT ROAD SRINAGAR","NEAR NEELAM CINEMA, NEW SECTT. ROAD",2485762,"NEW SECRETRAIT ROAD",SRINAGAR,"JAMMU AND KASHMIR"
"JAMMU AND KASHMIR BANK LIMITED",JAKA0PRMNGR,182051114,"PREM NAGAR","MAIN ROAD PREM NAGAR THATRI DODA",9622126943,"PREM NAGAR THATRI DODA",DODA,"JAMMU AND KASHMIR"
"JAMMU AND KASHMIR BANK LIMITED",JAKA0PRITAM,110051026,"PITAMPURA DELHI","B-161, LOK VIHAR, ROAD NO 44",27352353,"PRITAM PURA",DELHI,DELHI
"JAMMU AND KASHMIR BANK LIMITED",JAKA0PRIEST,194051001,LEH,"MAIN BRANCH LEH",252087,"LEH MAIN",LEH,"JAMMU AND KASHMIR"
"JAMMU AND KASHMIR BANK LIMITED",JAKA0PRANOO,NA,PRANOO,"PRANO, BLOCK-GHAT, TEHSIL & DISTRICT-DODA, PIN-182201",9419895175,DODA,DODA,"JAMMU AND KASHMIR"
"JAMMU AND KASHMIR BANK LIMITED",JAKA0POWERG,NA,"POWER HOUSE ROAD, GANDERBAL","POWER HOUSE ROAD , GANDERBAL TEHSIL & DISTRICT - GANDERBAL , PIN - 191201",9906962309,GUND,GANDERBAL,"JAMMU AND KASHMIR"
"JAMMU AND KASHMIR BANK LIMITED",JAKA0POUNIE,182051252,POUNIE,"POUNIE,DISTIRCT REASI",256779,POUNIE,REASI,"JAMMU AND KASHMIR"
"JAMMU AND KASHMIR BANK LIMITED",JAKA0POSHKR,191051033,POSHKAR,TEHSIL-KHAG,9697732223,POSHKAR,BUDGAM,"JAMMU AND KASHMIR"
"JAMMU AND KASHMIR BANK LIMITED",JAKA0POONAH,411051001,PUNE,"RADIANT RAHEJA MILLINIUM COMPLEX,IST FLOOR, 284 MG ROAD, PUNE",26341952,PUNE,PUNE,MAHARASHTRA
"JAMMU AND KASHMIR BANK LIMITED",JAKA0PONGAL,182051306,"POGAL PARISTAN(NEEL)","POGAL PARISTAN TEHSIL BANIHAL,",7298004734,"NEEL POGAL PARISTAN ,",RAMBAN,"JAMMU AND KASHMIR"
"JAMMU AND KASHMIR BANK LIMITED",JAKA0POLOVW,190051050,"POLO VIEW SRINAGAR","THE BUND, M A ROAD",2470594,POLOVIEW,SRINAGAR,"JAMMU AND KASHMIR"
"JAMMU AND KASHMIR BANK LIMITED",JAKA0POLICE,180051030,"CHANNI HIMMAT JAMMU","SEC-5, OPP MONICA SUPER MARKET",2466558,"CHANNI HIMAT",JAMMU,"JAMMU AND KASHMIR"
"JAMMU AND KASHMIR BANK LIMITED",JAKA0PNTHAL,182051008,PANTHAL,"PANTHAL UDHAMPUR",285503,"PANTHAL, UDHAMPUR",REASI,"JAMMU AND KASHMIR"
"JAMMU AND KASHMIR BANK LIMITED",JAKA0PLOURA,180051048,"PALOURA JAMMU","NEAR B.S.F CAMP PLOURA TOP",2591171,"PLOURA JAMMU",JAMMU,"JAMMU AND KASHMIR"
"JAMMU AND KASHMIR BANK LIMITED",JAKA0PKATRA,182051261,NIHARIKA,KATRA,9906025325,"NIHARIKA KATRA",REASI,"JAMMU AND KASHMIR"
"JAMMU AND KASHMIR BANK LIMITED",JAKA0PIRPUR,191051113,"PEERPUR CHOWK","PEERPORA CHOWK,DISTRICT GANDERBAL,PIN CODE 191131",956441477,"PEERPUR CHOWK",GANDERBAL,"JAMMU AND KASHMIR"
"JAMMU AND KASHMIR BANK LIMITED",JAKA0PIRCHO,192051128,"FRUIT MANDI PRICHOO","Fruit Mandi Prichoo,District Pulwama,J AND K Pin code 192301",0,"FRUIT MANDI PRICHO",PULWAMA,"JAMMU AND KASHMIR"
"JAMMU AND KASHMIR BANK LIMITED",JAKA0PINJOR,192051203,PINJOORA,"PINJORA SHOPIAN",260784,"PINJORA SHOPIAN",SHOPIAN,"JAMMU AND KASHMIR"
"JAMMU AND KASHMIR BANK LIMITED",JAKA0PINGLE,192051124,PINGLIN,PINGLENA,9697384219,"NEAR PLYWOOD FACTORY",PULWAMA,"JAMMU AND KASHMIR"
"JAMMU AND KASHMIR BANK LIMITED",JAKA0PHNTER,184051015,PHINTER,"PHINTER KATHUA",266662,"PHINTER, KATHUA",KATHUA,"JAMMU AND KASHMIR"
"JAMMU AND KASHMIR BANK LIMITED",JAKA0PHLGAM,192051010,PAHALGAM,"MAIN MARKET, PAHALGAM",243248,PAHALGAM,ANANTNAG,"JAMMU AND KASHMIR"
"JAMMU AND KASHMIR BANK LIMITED",JAKA0PHALIA,NA,PHALIANA,"POST OFFICE MURADPUR, RAJOURI, JK PIN 185131",9419111105,RAJOURI,RAJOURI,"JAMMU AND KASHMIR"
"JAMMU AND KASHMIR BANK LIMITED",JAKA0PEHLOO,192051042,PEHLOO,"PEHLOO KULGAM",9797728999,"PEHLOO, KULGAM",KULGAM,"JAMMU AND KASHMIR"
"JAMMU AND KASHMIR BANK LIMITED",JAKA0PEERII,185051019,PEERI,TEHSIL-KOTRANKA,9622079986,PEERI,RAJOURI,"JAMMU AND KASHMIR"
"JAMMU AND KASHMIR BANK LIMITED",JAKA0PCKSTW,182051416,"TP KISHTWAR","D.C. OFFICE COMPLEX",9419154736,"OPPOSITE SBI OLD",KISHTWAR,"JAMMU AND KASHMIR"
"JAMMU AND KASHMIR BANK LIMITED",JAKA0PCKATU,184051028,"KATHUA CITY",TEHSIL-KATHUA,234160,"I. T. I. ROAD",KATHUA,"JAMMU AND KASHMIR"
"JAMMU AND KASHMIR BANK LIMITED",JAKA0PCDEPO,NA,"PC DEPOT SRINAGAR","P C DEPOT (SHALTENG), TEHSIL & DISTRICT-SRINAGAR, PIN-190010",9419014934,SRINAGAR,SRINAGAR,"JAMMU AND KASHMIR"
"JAMMU AND KASHMIR BANK LIMITED",JAKA0PAZAAL,193051405,PAZALPORA,"PAZALPORA,DISTRICT BANDIPORA,PIN CODE 193502",7298684129,PAZALPORA,BANDIPORA,"JAMMU AND KASHMIR"
"JAMMU AND KASHMIR BANK LIMITED",JAKA0PATTEL,180051019,"PATEL NAGAR JAMMU","AKHNOOR ROAD, NEAR PETROL PUMP",2501090,"PATEL NAGAR",JAMMU,"JAMMU AND KASHMIR"
"JAMMU AND KASHMIR BANK LIMITED",JAKA0PATTAN,193051005,PATTAN,"MAIN BAZAR PATTAN",231221,PATTAN,BARAMULLA,"JAMMU AND KASHMIR"
"JAMMU AND KASHMIR BANK LIMITED",JAKA0PATLIM,180051053,"PATLI MORH SAMBA","POST OFFICE ROAD PARORE",210149,"PATLIMORH SAMBA",SAMBA,"JAMMU AND KASHMIR"
"JAMMU AND KASHMIR BANK LIMITED",JAKA0PATHWA,184051029,PATHWAL,"POST OFFICE-DAYALACHAK, TEHSIL-HIRANAGAR",9697510501,VILLAGE-PATHWAL,KATHUA,"JAMMU AND KASHMIR"
"JAMMU AND KASHMIR BANK LIMITED",JAKA0PATHER,190051010,"BP BATMALOO",BATMALOO,2476045,BATMALOO,SRINAGAR,"JAMMU AND KASHMIR"
"JAMMU AND KASHMIR BANK LIMITED",JAKA0PATHAN,145051002,PATHANKOTE,"GURDASPUR ROAD",2220917,"PATHANKOT,PUNJAB",GURDASPUR,PUNJAB
"JAMMU AND KASHMIR BANK LIMITED",JAKA0PARRYS,600051003,"PARRYS CHENNAI","52, ARMENIAN STREET",25330478,"PARRYS CHENNAI",CHENNAI,"TAMIL NADU"
"JAMMU AND KASHMIR BANK LIMITED",JAKA0PAROLE,184051014,PAROLE,"PAROLE KATHUA",281032,"PAROLE KATHUA",KATHUA,"JAMMU AND KASHMIR"
"JAMMU AND KASHMIR BANK LIMITED",JAKA0PARNEW,NA,PARNEWA,"PARNEWA, BUDGAM, JK PIN 191111",9419406024,BADGAM,BUDGAM,"JAMMU AND KASHMIR"
"JAMMU AND KASHMIR BANK LIMITED",JAKA0PARLDP,180051097,PARLADHPUR,"POST OFFICE-MANDAL, (JAMMU CANTT)",9419129833,VILLAGE-PARLADHPUR,JAMMU,"JAMMU AND KASHMIR"
"JAMMU AND KASHMIR BANK LIMITED",JAKA0PARGAM,NA,PARIGAM,"VILLAGE-PARIGAM, BLOCK- KAKPORA, DISTRICT-PULWAMA, JK, PIN-192301",9796907868,KAKAPORA,PULWAMA,"JAMMU AND KASHMIR"
"JAMMU AND KASHMIR BANK LIMITED",JAKA0PANZOO,191051025,"HARD PANZOO",KHANSAHIB,9419007715,"HARD PANZOO",BUDGAM,"JAMMU AND KASHMIR"
"JAMMU AND KASHMIR BANK LIMITED",JAKA0PANZAT,192051059,PANZATH,"PANZATH WANPORA,DISTRICT ANANTNAG,J AND K PIN CODE 192221",9419412739,"PANZATH WANPORA",ANANTNAG,"JAMMU AND KASHMIR"
"JAMMU AND KASHMIR BANK LIMITED",JAKA0PANZAN,191051031,PANZAN,CHADORA,9858984376,PANZAN,BUDGAM,"JAMMU AND KASHMIR"
"JAMMU AND KASHMIR BANK LIMITED",JAKA0PANTHA,190051048,"PANTHA CHOWK SRINAGAR","BEHIND PETROL PUMP",222164,"PANTHA CHOWK",SRINAGAR,"JAMMU AND KASHMIR"
"JAMMU AND KASHMIR BANK LIMITED",JAKA0PANPAT,132051002,PANIPAT,G.T.ROAD,2664997,"G.T.ROAD PANIPAT",PANIPAT,HARYANA
"JAMMU AND KASHMIR BANK LIMITED",JAKA0PANCHK,160051003,PANCHKULA,"SCO 240, SECTOR 20",2538121,PANCKULA,PANCHKULA,HARYANA
"JAMMU AND KASHMIR BANK LIMITED",JAKA0PANAJI,403051002,"PANAJI GOA","ATMA RAM COMERICAL COMPLEX,DR. A.B. ROAD, OPP HOTEL NAWA GOA",2435215,PANAJI,"NORTH GOA",GOA
"JAMMU AND KASHMIR BANK LIMITED",JAKA0PALPOR,NA,PALPORA,"PALPORA,( NEAR BSNL TOWER) , TEHSIL & DISTRICT-SRINAGAR, PIN-190017",9906941224,PALAPORA,SRINAGAR,"JAMMU AND KASHMIR"
"JAMMU AND KASHMIR BANK LIMITED",JAKA0PALMOR,NA,"PALLI MORH","PALLI MORH, PO PALLI , BISHNAH , JAMMU , JK PIN 181132",9419139447,BISHNA,JAMMU,"JAMMU AND KASHMIR"
"JAMMU AND KASHMIR BANK LIMITED",JAKA0PALMAR,182051415,PALMAR,PALMAR,9858576415,KUNDGWARI,KISHTWAR,"JAMMU AND KASHMIR"
"JAMMU AND KASHMIR BANK LIMITED",JAKA0PALMAA,NA,PALMA,"POST OFFICE - PALMA , TEHSIL & DISTRICT - RAJOURI , PIN-185131",9419197166,PALAM,RAJOURI,"JAMMU AND KASHMIR"
"JAMMU AND KASHMIR BANK LIMITED",JAKA0PALHAL,193051031,PALHALAN,PATTAN,9419059670,"KHIPORA PALHALLAN",BARAMULLA,"JAMMU AND KASHMIR"
"JAMMU AND KASHMIR BANK LIMITED",JAKA0PALACE,110051008,"RAJINDRA PLACE DELHI","26/34, PAL MOHAN MANSION,EAST PATEL NAGAR, RAJINDERA PLACE",25710667,"RAJINDERA PLACE",DELHI,DELHI
"JAMMU AND KASHMIR BANK LIMITED",JAKA0PAKHER,191051012,PAKHERPORA,"PAKHERPORA, BUDGAM",247175,"PAKHERPORA, BUDGAM",BUDGAM,"JAMMU AND KASHMIR"
"JAMMU AND KASHMIR BANK LIMITED",JAKA0PAHROO,NA,PAHROO,"VILLAGE-PAHROO, TEHSIL & BLOCK-B K PORA, DISRICT-BUDGAM, JK, PIN-192121",9906803334,"BAGATI KANIPORA",BUDGAM,"JAMMU AND KASHMIR"
"JAMMU AND KASHMIR BANK LIMITED",JAKA0PAGWAR,144051712,PHAGWARA,"OPP. HANUMAN GARHI,",264648,PHAGWARA,KAPURTHALA,PUNJAB
"JAMMU AND KASHMIR BANK LIMITED",JAKA0PADDAR,182051402,PADDAR,PADDAR,257344,KISHTWAR,KISHTWAR,"JAMMU AND KASHMIR"
"JAMMU AND KASHMIR BANK LIMITED",JAKA0PADDAM,194051018,"PADAM ZANASKAR","PADUM, ZANGSKAR, KARGIL",245014,"PADUM, ZANGSKAR,",KARGIL,"JAMMU AND KASHMIR"
"JAMMU AND KASHMIR BANK LIMITED",JAKA0OTLIGA,NA,OTLIGAM,"PO-OTLIGAM, TEHSIL-BEERWAH, DISTRICT-BUDGAM, PIN-193411",9697456420,BADGAM,BUDGAM,"JAMMU AND KASHMIR"
"JAMMU AND KASHMIR BANK LIMITED",JAKA0OTCBNG,560051003,"OTC BANGALORE","OTC ROAD",41143120,"OTC ROAD,BANGALORE","BANGALORE URBAN",KARNATAKA
"JAMMU AND KASHMIR BANK LIMITED",JAKA0OMPORA,191051002,OMPORA,"OMPORA BUDGAM",255863,"OMPORA BUDGAM",BUDGAM,"JAMMU AND KASHMIR"
"JAMMU AND KASHMIR BANK LIMITED",JAKA0OLDCHK,193051202,"OLD CHOWK  KUPWARA","OLD CHOWK KUPWARA",253142,"OLD CHOWK KUPWARA",KUPWARA,"JAMMU AND KASHMIR"
"JAMMU AND KASHMIR BANK LIMITED",JAKA0OLDBUS,184051002,"OLD BUS STAND PARLIWAND","NEAR OLD BUS STAND",237189,"PARLIWAND, KATHUA",KATHUA,"JAMMU AND KASHMIR"
"JAMMU AND KASHMIR BANK LIMITED",JAKA0OKHLAA,110051017,"OKHLA DELHI","1-LOCAL SHOPPING COMPLEX, INDUSTRIAL AREA,PHASE II, OKHLA",27352353,OKHLA,DELHI,DELHI
"JAMMU AND KASHMIR BANK LIMITED",JAKA0OCTROI,184051005,LAKHANPUR,"LAKHANPUR, KATHUA",285027,"LAKHANPUR, KATHUA",KATHUA,"JAMMU AND KASHMIR"
"JAMMU AND KASHMIR BANK LIMITED",JAKA0NYOOMA,194051012,NYOMA,"NYOMA CHANGTHANG",222032,"NYOOMA LEH",LEH,"JAMMU AND KASHMIR"
"JAMMU AND KASHMIR BANK LIMITED",JAKA0NWKLAN,193051113,"NOWPORA KALAN",TEHSIL-SOPORE,9419056666,"NOWPORA KLAN",BARAMULLA,"JAMMU AND KASHMIR"
"JAMMU AND KASHMIR BANK LIMITED",JAKA0NUNNAR,191051105,NUNNER,"NUNNER GANDERBAL",2416858,NUNNER,GANDERBAL,"JAMMU AND KASHMIR"
"JAMMU AND KASHMIR BANK LIMITED",JAKA0NOWGAM,190051045,NOWGAM,"BYE PASS, NOWGAM",2436178,NOWGAM,SRINAGAR,"JAMMU AND KASHMIR"
"JAMMU AND KASHMIR BANK LIMITED",JAKA0NOWBUD,191051027,NOWPORA,CHADORA,9419408989,NOWPORA,BUDGAM,"JAMMU AND KASHMIR"
"JAMMU AND KASHMIR BANK LIMITED",JAKA0NOWBAD,180051075,NOWABAD(SUNJAWAN),"NOWABAD SUNJAWAN",9419642410,"B.N COLLEGE OF EDUCATIUON",JAMMU,"JAMMU AND KASHMIR"
"JAMMU AND KASHMIR BANK LIMITED",JAKA0NOSHER,185051009,NOWSHERA,"NOWSHERA, RAJOURI",230244,"NOWSHERA,RAJOURI",RAJOURI,"JAMMU AND KASHMIR"
"JAMMU AND KASHMIR BANK LIMITED",JAKA0NOORBG,190051081,"NOORBAGH SRINAGAR","NOORBAGH MAIN CHOWK",2412555,"NOORBAGH MAIN CHOWK, SRINAGAR",SRINAGAR,"JAMMU AND KASHMIR"
"JAMMU AND KASHMIR BANK LIMITED",JAKA0NOHATA,190051046,"NOWHATTA SRINAGAR",NOWHATTA,24553147,"NOWHATTA SRINAGAR KASHMIR",SRINAGAR,"JAMMU AND KASHMIR"
"JAMMU AND KASHMIR BANK LIMITED",JAKA0NISHAT,190051012,"BREIN NISHAT","BREIN, NISHAT",2461742,BREIN,SRINAGAR,"JAMMU AND KASHMIR"
"JAMMU AND KASHMIR BANK LIMITED",JAKA0NIPARK,NA,"NISHAT PARK BANDIPORA","NISHAT PARK,DISTRICT BANDIPORA,KASHMIR,J AND K PIN 193502",7298959907,BANDIPORA,BANDIPORA,"JAMMU AND KASHMIR"
"JAMMU AND KASHMIR BANK LIMITED",JAKA0NIMMOO,194051019,NIMMOO,"NIMMOO LEH LADAKH",225225,"NIMMOO LEH LADAKH",LEH,"JAMMU AND KASHMIR"
"JAMMU AND KASHMIR BANK LIMITED",JAKA0NILLOW,NA,NILLOW,"NILLOW,DISTRICT KULGAM,KASHMIR,J AND K,PIN 192231",9906674899,NILWA,KULGAM,"JAMMU AND KASHMIR"
"JAMMU AND KASHMIR BANK LIMITED",JAKA0NIHAMA,192051036,NIHAMA,"NIHAMA, KULGAM TEHSIL: D.H. PORA",212707,"NIHAMA, KULGAM KASHMIR",KULGAM,"JAMMU AND KASHMIR"
"JAMMU AND KASHMIR BANK LIMITED",JAKA0NIDYAR,190051040,NAIDYAR,"NAIDYAR, RAINAWARI",2471009,NAIDYAR,SRINAGAR,"JAMMU AND KASHMIR"
"JAMMU AND KASHMIR BANK LIMITED",JAKA0NGSHAN,192051056,"NOWGAM SHANGUS","NOWGAM SHANGUS",9906916969,"MAIN MARKET",ANANTNAG,"JAMMU AND KASHMIR"
"JAMMU AND KASHMIR BANK LIMITED",JAKA0NEWPLT,180051049,"NEW PLOT JAMMU","DREAM LAND PUBLIC SCHOOL",2563172,"NEW PLOT",JAMMU,"JAMMU AND KASHMIR"
"JAMMU AND KASHMIR BANK LIMITED",JAKA0NEHROO,180051015,"NEHRU MARKET JAMMU","NEHRU MARKET",2435273,"NEHRU MARKET",JAMMU,"JAMMU AND KASHMIR"
"JAMMU AND KASHMIR BANK LIMITED",JAKA0NEHOME,NA,"NEHAMA PULWAMA","BLOCK & TEHSIL-KAKPORA, DISTRICT-PULWAMA, PIN-192121",9018880008,KAKAPORA,PULWAMA,"JAMMU AND KASHMIR"
"JAMMU AND KASHMIR BANK LIMITED",JAKA0NEHAAL,193051040,NEHALPORA,PATTAN,9622440007,NEHALPORA,BARAMULLA,"JAMMU AND KASHMIR"
"JAMMU AND KASHMIR BANK LIMITED",JAKA0NEEWAH,192051111,NEWA,"MAIN CHOWK NEWA",9697086122,"NEWA PULWAMA",PULWAMA,"JAMMU AND KASHMIR"
"JAMMU AND KASHMIR BANK LIMITED",JAKA0NDKHAI,193051013,"NAID KHAI","NAIDKHAI, SONAWARI",7298004479,"NAIDKHAI, SONAWARI, DISTT. BAND",BANDIPORA,"JAMMU AND KASHMIR"
"JAMMU AND KASHMIR BANK LIMITED",JAKA0NATIPR,190051080,"NATIPORA SRINAGAR","NEAR OLD R.T.O OFFICE,BUDSHAH NAGAR, NATIPORA",2133428,NATIPORA,SRINAGAR,"JAMMU AND KASHMIR"
"JAMMU AND KASHMIR BANK LIMITED",JAKA0NASRUL,191051003,NASRULLAHPORA,"NASRULLAH PORA BUDGAM,",256476,"NASRULLAH PORA,BUDGAM",BUDGAM,"JAMMU AND KASHMIR"
"JAMMU AND KASHMIR BANK LIMITED",JAKA0NASEEM,190051042,"UNIVERSITY CAMPUS HAZRATBAL(NANDPORA)","OPP. UNIVERSITY OF KASHMIR",2426557,HAZRATBAL,SRINAGAR,"JAMMU AND KASHMIR"
"JAMMU AND KASHMIR BANK LIMITED",JAKA0NARDAN,NA,"NARDANI RAIPUR","POST OFFICE RAIPUR,TEHSIL AND DISTRICT JAMMU, PIN-181123",9596656880,JAMMU,JAMMU,"JAMMU AND KASHMIR"
"JAMMU AND KASHMIR BANK LIMITED",JAKA0NARBAL,191051011,NARBAL,NARBAL,260232,NARBAL,BUDGAM,"JAMMU AND KASHMIR"
"JAMMU AND KASHMIR BANK LIMITED",JAKA0NARAIN,110051009,"NARAINA DELHI","C-42 COMMUNITY CENTER",25793451,NARIANA,DELHI,DELHI
"JAMMU AND KASHMIR BANK LIMITED",JAKA0NANNAK,180051016,"NANAK NAGAR JAMMU","NANAK NAGAR",2430880,"NANAK NAGAR",JAMMU,"JAMMU AND KASHMIR"
"JAMMU AND KASHMIR BANK LIMITED",JAKA0NANDAN,180051070,"NANDANI HILLS SAMBA","D.C.OFFICE COMPLEX,NANDANI HILLS DIST.SAMBA PIN 184121",9419139387,"NANDANI HILLS , SAMBA",SAMBA,"JAMMU AND KASHMIR"
"JAMMU AND KASHMIR BANK LIMITED",JAKA0NALANG,192051020,NANIL,NANIL,240173,"NANIL, ANANTNAG",ANANTNAG,"JAMMU AND KASHMIR"
"JAMMU AND KASHMIR BANK LIMITED",JAKA0NAGSHO,192051208,NAGABAL,"NAGABAL,DISTRICT SHOPIAN,J AND K PIN CODE 192305",9697031927,NAGBAL,SHOPIAN,"JAMMU AND KASHMIR"
"JAMMU AND KASHMIR BANK LIMITED",JAKA0NAGSEN,182051405,NAGSENI,"B.U.NAGSENI,P.O. GULHAR THE",9419147217,NAGSENI,KISHTWAR,"JAMMU AND KASHMIR"
"JAMMU AND KASHMIR BANK LIMITED",JAKA0NAGROT,180051056,"NAGROTA (TOLL POST)","KANDOLI NAGROTA",2673823,"NAGROTA, JAMMU",JAMMU,"JAMMU AND KASHMIR"
"JAMMU AND KASHMIR BANK LIMITED",JAKA0NAGREE,182051123,NAGRI,"NAGRI,DISTRICT DODA,J AND K PIN CODE 182202",9419291993,NAGRI,DODA,"JAMMU AND KASHMIR"
"JAMMU AND KASHMIR BANK LIMITED",JAKA0NAGPUR,440051002,NAGPUR,"22/30 WARD NO. 38, NEW RESIDENCY ROAD, SADAR, NAGAPUR.",2520148,NAGPUR,NAGPUR,MAHARASHTRA
"JAMMU AND KASHMIR BANK LIMITED",JAKA0NAGGAM,191051016,NAGAM,"TEHSIL CHADURA",9622449832,"NAGGAM, CHADURA",BUDGAM,"JAMMU AND KASHMIR"
"JAMMU AND KASHMIR BANK LIMITED",JAKA0NABERA,190051039,"JEHANGIR CHOWK (NABERA COMPLEX)","JEHANGIR CHOWK ,H.S.H.STREET",2458359,"NABEERA COMPLEX",SRINAGAR,"JAMMU AND KASHMIR"
"JAMMU AND KASHMIR BANK LIMITED",JAKA0NAASIK,422051002,NASIK,"SHOP NO.13-14,VIRAJ CORNER COMPLEX,NEAR TELEPHONE EX.",2316294,NASIK,NASIK,MAHARASHTRA
"JAMMU AND KASHMIR BANK LIMITED",JAKA0NAALLA,190051041,"NALLAMAR ROAD SRINAGAR","NALLAMAR ROAD, BOHRI KADAL",2479308,NALLAMAR,SRINAGAR,"JAMMU AND KASHMIR"
"JAMMU AND KASHMIR BANK LIMITED",JAKA0MYSORE,570051002,MYSORE,"DOOR NO.1137,NARAYAN SHASTRI ROAD,DEVRAJ URS MOHALLAH, MYSORE",2428468,MYSORE,MYSORE,KARNATAKA
"JAMMU AND KASHMIR BANK LIMITED",JAKA0MVIHAR,110051024,"MAYUR VIHAR DELHI","A-6, AACHARYA NIKETAN",22751694,"MAYUR VIHAR",DELHI,DELHI
"JAMMU AND KASHMIR BANK LIMITED",JAKA0MUTHII,180051100,"MUTHI GOAN","POST OFFICE-MUTHI",2598869,"VILLAGE-MUTHI GAON",JAMMU,"JAMMU AND KASHMIR"
"JAMMU AND KASHMIR BANK LIMITED",JAKA0MURRAN,192051102,"MURRAN ADDA","NEAR DISTRICT HOSPITAL,NEWA ROAD MURRAN ADDA",240424,"MURRAN ADDA PULWAMA",PULWAMA,"JAMMU AND KASHMIR"
"JAMMU AND KASHMIR BANK LIMITED",JAKA0MURABD,244051002,MURADABAD,"4F, IST FLOOR, CHADDA COMPLEX,GMD ROAD",2315263,MORADABAD,MORADABAD,"UTTAR PRADESH"
"JAMMU AND KASHMIR BANK LIMITED",JAKA0MUNAND,192051301,"MUNAND GUFFAN","MUNAND GUFFAN",9622601050,"NEAR SUMO STAND",KULGAM,"JAMMU AND KASHMIR"
"JAMMU AND KASHMIR BANK LIMITED",JAKA0MULBIK,194051023,MULBEK,"VILLAGE MULBEK, BLOCK SHARGOLE KARGIL PIN CODE 194109",9419887250,MULBEK,KARGIL,"JAMMU AND KASHMIR"
"JAMMU AND KASHMIR BANK LIMITED",JAKA0MUJGUN,190051094,MUJIGUND,"CHEK MUJIGUND,DISTRICT SRINAGAR,J AND K PIN CODE 190017",9419778506,"CHECK MUJIGUND",SRINAGAR,"JAMMU AND KASHMIR"
"JAMMU AND KASHMIR BANK LIMITED",JAKA0MOVING,190051062,"MOVING SECRETARIAT","CIVIL SECRETRAIT",2455235,"MOVING SECRETRAIT",SRINAGAR,"JAMMU AND KASHMIR"
"JAMMU AND KASHMIR BANK LIMITED",JAKA0MONGER,182051025,MOUNGRI,"MOUNGRI,TEHSIL AND DISTRICT UDHAMPUR,J AND K PIN 182125",9419870650,MOUNGRI,UDHAMPUR,"JAMMU AND KASHMIR"
"JAMMU AND KASHMIR BANK LIMITED",JAKA0MOHALI,160051002,MOHALI,"OPPOSITE BASSI THEATHER, SEC-54,PHASE-II",2228938,"MOHALI PUNJAB",RUPNAGAR,PUNJAB
"JAMMU AND KASHMIR BANK LIMITED",JAKA0MOGHUL,282051002,AGRA,"8/213, HING KI MANDI",2460281,AGRA,AGRA,"UTTAR PRADESH"
"JAMMU AND KASHMIR BANK LIMITED",JAKA0MOGAPB,142051002,MOGA,"COURT ROAD",229155,MOGA,MOGA,PUNJAB
"JAMMU AND KASHMIR BANK LIMITED",JAKA0MNZGAM,192051044,MANZGAM,"OPP JAMIA MASJID MANZGAM,TESHIL DAMHAL HANJI PORA",212915,"MANZGAM KULGAM",KULGAM,"JAMMU AND KASHMIR"
"JAMMU AND KASHMIR BANK LIMITED",JAKA0MMYDAN,182051410,"MUGHAL MAIDAN","MUGHAL MAIDAN,DISTRICT KISHTWAR,PIN CODE 182205",9697586520,"MUGHAL MAIDAN",KISHTWAR,"JAMMU AND KASHMIR"
"JAMMU AND KASHMIR BANK LIMITED",JAKA0MMSUMB,193051407,"MAIN MARKET SUMBAL","MAIN MARKET SUMBAL,DISTRICT BANDIPORA,J AND K PIN 193501",9906631781,"MAIN MARKET SUMBAL",BANDIPORA,"JAMMU AND KASHMIR"
"JAMMU AND KASHMIR BANK LIMITED",JAKA0MJALTA,182051009,MAJALTA,"DISTRICT - UDHAMPUR",221261,MAJALTA,UDHAMPUR,"JAMMU AND KASHMIR"
"JAMMU AND KASHMIR BANK LIMITED",JAKA0MISHRI,180051069,MISHRIWALA,"AKHNOOR ROAD MISHRIWALA",9419731224,"MISHRIWALA JAMMU",JAMMU,"JAMMU AND KASHMIR"
"JAMMU AND KASHMIR BANK LIMITED",JAKA0MIRGUD,193051038,MIRGUND,"MIRGUND,TEHSIL PATTAN,DISTRICT BARAMULLA,J AND K PIN CODE 193121",9419008395,"MIRGUND, TEHSIL-PATTAN",BARAMULLA,"JAMMU AND KASHMIR"
"JAMMU AND KASHMIR BANK LIMITED",JAKA0MIRGNB,NA,"MIRGUND BUDGAM","MIRGUND, BLOCK/TEHSIL & DISTRICT - BUDGAM, PIN- 191111",9419014806,BADGAM,BUDGAM,"JAMMU AND KASHMIR"
"JAMMU AND KASHMIR BANK LIMITED",JAKA0MIRBZR,192051037,"MIR BAZAR ANANTNAG","MIR BAZAR QAZIGUND",231400,"MIR BAZAR",ANANTNAG,"JAMMU AND KASHMIR"
"JAMMU AND KASHMIR BANK LIMITED",JAKA0MIRARD,400051005,"MIRA ROAD MUMBAI","JEHANGIR COMPLEX, MTNL ROAD,NEAR SILVER PARK, MIRA ROAD, MUMBAI",28104499,"MIRA ROAD","GREATER BOMBAY",MAHARASHTRA
"JAMMU AND KASHMIR BANK LIMITED",JAKA0MIRAAN,180051013,"MIRAN SAHIB","R.S.PORA ROAD",263245,"MIRAN SAAHIB",JAMMU,"JAMMU AND KASHMIR"
"JAMMU AND KASHMIR BANK LIMITED",JAKA0MHMDPR,192051040,"MOHAMMAD PORA","MOHAMMAD PORA KULGAM",9906500610,"MOHAMMAD PORA KULGAM",KULGAM,"JAMMU AND KASHMIR"
"JAMMU AND KASHMIR BANK LIMITED",JAKA0MGRANT,182051024,"GOLE MARKET UDHAMPUR","CHABUTRA BAZAR",9419216399,"GOLE MARKET",UDHAMPUR,"JAMMU AND KASHMIR"
"JAMMU AND KASHMIR BANK LIMITED",JAKA0MENDER,185051103,MENDHER,"TEH. MENDHAR POONCH,",226141,"MENDHER POONCH",POONCH,"JAMMU AND KASHMIR"
"JAMMU AND KASHMIR BANK LIMITED",JAKA0MEHTAB,190051083,"BAGH E MEHTAB SRINAGAR",BAGH-E-MEHTAB,2440493,"BAGH-E-MEHTAB, SRINAGAR",SRINAGAR,"JAMMU AND KASHMIR"
"JAMMU AND KASHMIR BANK LIMITED",JAKA0MEHJUR,190051089,"MEHJOOR NAGAR","MEHJOOR NAGAR,DISTRICT SRINAGAR 190010",9419066364,"MEHJOOR NAGAR",SRINAGAR,"JAMMU AND KASHMIR"
"JAMMU AND KASHMIR BANK LIMITED",JAKA0MEHIND,192051053,MEHIND,MEHIND,9622649222,"NEAR MASJID SHARIEF",ANANTNAG,"JAMMU AND KASHMIR"
"JAMMU AND KASHMIR BANK LIMITED",JAKA0MEERUT,250051002,MEERUT,"43-BEGUM BRIDGE",2653657,"MEERUT UP",MEERUT,"UTTAR PRADESH"
"JAMMU AND KASHMIR BANK LIMITED",JAKA0MEDJAM,180051014,"GOVERNMENT MEDICAL COLLEGE  JAMMU","MEDICAL COLLEGE JAMMU,MAHESHPURA CHOWK, JAMMU",2580380,"GMC, JAMMU",JAMMU,"JAMMU AND KASHMIR"
"JAMMU AND KASHMIR BANK LIMITED",JAKA0MASTER,NA,"APEX BRANCH","APEX BRANCH J AND K BANK CHQ MA ROAD SRINAGAR",0,SRINAGAR,SRINAGAR,"JAMMU AND KASHMIR"
"JAMMU AND KASHMIR BANK LIMITED",JAKA0MARWAH,182051406,MARWAH,MARWAH,0,KISHTWAR,KISHTWAR,"JAMMU AND KASHMIR"
"JAMMU AND KASHMIR BANK LIMITED",JAKA0MAROAD,400051006,"MOHD ALI ROAD MUMBAI","55-NOOR MAHAL, CO-OPERATIVE SOCIETY",23464416,"MOHD ALI ROAD","GREATER BOMBAY",MAHARASHTRA
"JAMMU AND KASHMIR BANK LIMITED",JAKA0MARMAT,182051120,"GOHA MARMAT","NEAR BUS STAND,GOHA MARMAT,DISTRICT DODA,PIN CODE 182201",9906028151,"GOHA MARMAT",DODA,"JAMMU AND KASHMIR"
"JAMMU AND KASHMIR BANK LIMITED",JAKA0MARKET,193051105,"MAIN BAZAR SOPORE","MAIN BAZAR SOPORE",222344,"M.B SOPORE",BARAMULLA,"JAMMU AND KASHMIR"
"JAMMU AND KASHMIR BANK LIMITED",JAKA0MARHOT,185051116,MARHOTE,TEHSIL-SURANKOTE,8803270726,MARHOTE,POONCH,"JAMMU AND KASHMIR"
"JAMMU AND KASHMIR BANK LIMITED",JAKA0MARHMA,192051035,MARHAMA,"MARHAMA BIJBEHARA ANAN",233274,"MARHAMA ANANTNAG,KASHMIR",ANANTNAG,"JAMMU AND KASHMIR"
"JAMMU AND KASHMIR BANK LIMITED",JAKA0MARHJM,180051077,MARH,MARH,9796480068,"NEAR G.D GOENKA SCHOOL",JAMMU,"JAMMU AND KASHMIR"
"JAMMU AND KASHMIR BANK LIMITED",JAKA0MARHEN,184051011,MARHEEN,"MARHEEN  KATHUA,",258027,"MARHEEN, KATHUA,",KATHUA,"JAMMU AND KASHMIR"
"JAMMU AND KASHMIR BANK LIMITED",JAKA0MARDAN,190051007,"BAGH ALI MARDAN SRINAGAR","BAGHI ALI MARDAN KHAN",2424751,"BAGHI ALI MARDAN KHAN",SRINAGAR,"JAMMU AND KASHMIR"
"JAMMU AND KASHMIR BANK LIMITED",JAKA0MARBLE,193051208,KRALAPORA,"J&K BANK KRALPORA",246301,"KRALPORA KUPWARA",KUPWARA,"JAMMU AND KASHMIR"
"JAMMU AND KASHMIR BANK LIMITED",JAKA0MANTAL,NA,MANTALIA,"MANTALAI, SUDHMAHADEV, DISTRICT-UDHAMPUR, JK, 182141",9419159327,SUDHMAHADEV,UDHAMPUR,"JAMMU AND KASHMIR"
"JAMMU AND KASHMIR BANK LIMITED",JAKA0MANSSA,151051112,MANSA,"GOSHALLA ROAD",225868,MANSA,MANSA,PUNJAB
"JAMMU AND KASHMIR BANK LIMITED",JAKA0MANSAR,180051090,MANSAR,MANSAR,246231,"MAIN ROAD",SAMBA,"JAMMU AND KASHMIR"
"JAMMU AND KASHMIR BANK LIMITED",JAKA0MANGAM,191051112,MANIGAM,"MANIGAM,DIST.GANDERBAL,JANDK PIN 191201",9906694756,"MANIGAM , GANDERBAL",GANDERBAL,"JAMMU AND KASHMIR"
"JAMMU AND KASHMIR BANK LIMITED",JAKA0MANGAL,575051001,MANGALORE,"HOTEL PUNJA INTERNATIONAL K.S RAO ROAD",2440261,MANGLORE,"DAKSHIN KANNAD",KARNATAKA
"JAMMU AND KASHMIR BANK LIMITED",JAKA0MANDJA,NA,MAND,"NATIONAL HIGHWAY 1A, OPPOSITE BHARAT PETROLEUM PETROL PUMP, UDHAMPUR JAMMU JK PIN 182121",9419278153,UDHAMPUR,UDHAMPUR,"JAMMU AND KASHMIR"
"JAMMU AND KASHMIR BANK LIMITED",JAKA0MANDIE,185051107,MANDI,"MAIN BAZAR MANDI POONCH,",257222,"MANDI,POONCH",POONCH,"JAMMU AND KASHMIR"
"JAMMU AND KASHMIR BANK LIMITED",JAKA0MANALI,175051102,MANALI,"NEAR MAYUR RESTURANT,GOVIND COMPLEX, MANALI",2253778,MANALI,KULU,"HIMACHAL PRADESH"
"JAMMU AND KASHMIR BANK LIMITED",JAKA0MANAJA,185051018,MANJAKOTE,"MANJAKOTE,DISTRICT RAJOURI,PIN CODE 185131",9419660730,MANJAKOTE,RAJOURI,"JAMMU AND KASHMIR"
"JAMMU AND KASHMIR BANK LIMITED",JAKA0MALVIA,110051034,"MALVIYA NAGAR","C 107,SHIVALIK ROAD,MALVIYA NAGAR,NEW DELHI,PIN 110017",8800997845,DELHI,DELHI,DELHI
"JAMMU AND KASHMIR BANK LIMITED",JAKA0MALROO,191051097,MALROO,"MALROO,DISTRICT SRINAGAR,J AND K PIN 190017",0,ZAINAKOTE,SRINAGAR,"JAMMU AND KASHMIR"
"JAMMU AND KASHMIR BANK LIMITED",JAKA0MALPOR,191051038,MALPORA,NAGAM,9906513798,MALPORA,BUDGAM,"JAMMU AND KASHMIR"
"JAMMU AND KASHMIR BANK LIMITED",JAKA0MALBAG,190051091,MALLABAGH,HAZRATBAL,9596425585,MALLABAGH,SRINAGAR,"JAMMU AND KASHMIR"
"JAMMU AND KASHMIR BANK LIMITED",JAKA0MAKHAN,180051096,MAKHANPUR,"POST OFFICE-BISHNA",9419144326,VILLAGE-MAKHANPUR,JAMMU,"JAMMU AND KASHMIR"
"JAMMU AND KASHMIR BANK LIMITED",JAKA0MAJLIS,191051001,BUDGAM,BUDGAM,255228,BUDGAM,BUDGAM,"JAMMU AND KASHMIR"
"JAMMU AND KASHMIR BANK LIMITED",JAKA0MAIDAN,180051061,"KHARA MAIDANA","KHARA MAIDANA SAMBA TEHSIL SAMBHA",249204,"KHARA MAIDANA SAMBA, JAMMU",SAMBA,"JAMMU AND KASHMIR"
"JAMMU AND KASHMIR BANK LIMITED",JAKA0MAHRAJ,190051038,"MAHARAJ GUNJ SRINAGAR","NEAR NALLAMAR ROAD",2472546,"MAHARAJ GUNJ, SRINAGAR",SRINAGAR,"JAMMU AND KASHMIR"
"JAMMU AND KASHMIR BANK LIMITED",JAKA0MAHORE,182051255,MAHORE,"MAHORE,DISTRICT REASI,JANDK,PIN 182315",222286,"MAHORE DISTRICT REASI",REASI,"JAMMU AND KASHMIR"
"JAMMU AND KASHMIR BANK LIMITED",JAKA0MAHIMM,400051011,"MAHIM MUMBAI","124 A/B SYED HOUSE S.V.SAVARKAR MARG",24469978,"MAHIM MUMBAI",MUMBAI,MAHARASHTRA
"JAMMU AND KASHMIR BANK LIMITED",JAKA0MAHDEV,182051012,"SUDH MAHADEV",CHENANI,7298000462,"SUDH MAHDEV UDHAMPUR",UDHAMPUR,"JAMMU AND KASHMIR"
"JAMMU AND KASHMIR BANK LIMITED",JAKA0MAHANP,184051024,MAHANPUR,"MAHANPUR TEHSIL BASOLI",254026,"MAHANPUR BASOLI",KATHUA,"JAMMU AND KASHMIR"
"JAMMU AND KASHMIR BANK LIMITED",JAKA0MAGGAM,191051014,"MAGAM BUDGAM","MAGAM BUDGAM",272226,"MAGAM BUDGAM",BUDGAM,"JAMMU AND KASHMIR"
"JAMMU AND KASHMIR BANK LIMITED",JAKA0MADRAS,600051002,"MOUNT ROAD CHENNAI","787 ANNA SALAI, NEAR ELECTRICITY BOARD",28515260,"MOUNT ROAD",CHENNAI,"TAMIL NADU"
"JAMMU AND KASHMIR BANK LIMITED",JAKA0MACHIL,193051213,MACHIL,MACHIL,0,KUPWARA,KUPWARA,"JAMMU AND KASHMIR"
"JAMMU AND KASHMIR BANK LIMITED",JAKA0MACHAN,184051022,MACHHEDI,"MACHHEDI  TEHSIL BILAWAR",9697231529,"MACHHEDI BILLAWAR,KATHUA",KATHUA,"JAMMU AND KASHMIR"
"JAMMU AND KASHMIR BANK LIMITED",JAKA0LUXURY,180051023,"SHALAMAR ROAD JAMMU","GHULAB BHAWAN, FIRST FLOOR",2579701,"SHALLAMAR ROAD",JAMMU,"JAMMU AND KASHMIR"
"JAMMU AND KASHMIR BANK LIMITED",JAKA0LULPUR,191051032,LOLIPUR,TEHSIL-CHADURA,9797147234,LOLIPUR,BUDGAM,"JAMMU AND KASHMIR"
"JAMMU AND KASHMIR BANK LIMITED",JAKA0LUKNOW,226051002,LUCKNOW,"ABDUL AZIZ ROAD,AKBARI GATE CROSSING ,LUCKNOW",2264320,LUCKNOW,LUCKNOW,"UTTAR PRADESH"
"JAMMU AND KASHMIR BANK LIMITED",JAKA0LUDHIA,141051002,"CHAURA BAZAR LUDHIANA",LUDHIANA,2750213,LUDHIANA,LUDHIANA,PUNJAB
"JAMMU AND KASHMIR BANK LIMITED",JAKA0LORAAN,185051112,LORAN,"LORAN,TEHSIL MANDI,DISTRICT POONCH,J AND K PIN CODE 185102",9697111011,"LORAN, TEHSIL-MANDI",POONCH,"JAMMU AND KASHMIR"
"JAMMU AND KASHMIR BANK LIMITED",JAKA0LITTER,192051119,LITTER,LITTER,264404,LITTER,PULWAMA,"JAMMU AND KASHMIR"
"JAMMU AND KASHMIR BANK LIMITED",JAKA0LINKRO,180051010,"LINK ROAD JAMMU","LINK ROAD",2560129,"LINK ROAD",JAMMU,"JAMMU AND KASHMIR"
"JAMMU AND KASHMIR BANK LIMITED",JAKA0LETPUR,192051114,LETHPORA,"NEAR RICE MILL, FCI INDIA",246294,LETHPORA,PULWAMA,"JAMMU AND KASHMIR"
"JAMMU AND KASHMIR BANK LIMITED",JAKA0LBAZAR,180051011,"LAKHDATTA BAZAR JAMMU","LAKHDATA BAZAR",2565456,"LAKHDATA BAZAR",JAMMU,"JAMMU AND KASHMIR"
"JAMMU AND KASHMIR BANK LIMITED",JAKA0LATTEE,182051013,LATTI,"LATTI UDHAMPUR",283221,"LATTI,UDHAMPUR",UDHAMPUR,"JAMMU AND KASHMIR"
"JAMMU AND KASHMIR BANK LIMITED",JAKA0LASJAN,190051037,"LASJAN SRINAGAR","LASJAN SRINAGAR,",2467165,LASJAN,SRINAGAR,"JAMMU AND KASHMIR"
"JAMMU AND KASHMIR BANK LIMITED",JAKA0LASIPR,192051120,LASSIPORA,"INDUSTRIAL GROWTH",290397,"LASSIPORA, PULWAMA",PULWAMA,"JAMMU AND KASHMIR"
"JAMMU AND KASHMIR BANK LIMITED",JAKA0LASANA,185051108,LASSANA,"TEH SURANKOTE. DISTT POONCH",230843,"LASSANA POONCH",POONCH,"JAMMU AND KASHMIR"
"JAMMU AND KASHMIR BANK LIMITED",JAKA0LARNOO,192051022,LARNOO,"LARNOO CAMP VAILOO,",9906593049,"LARNOO, ANANTNAG",ANANTNAG,"JAMMU AND KASHMIR"
"JAMMU AND KASHMIR BANK LIMITED",JAKA0LARKIP,192051023,LARKIPORA,"LARKIPORA, ANANTNAG",245078,"LARKIPORA, ANANTNAG",ANANTNAG,"JAMMU AND KASHMIR"
"JAMMU AND KASHMIR BANK LIMITED",JAKA0LANUDH,182051022,LANDER,"LANDER,TEHSIL AND DISTRICT UDHAMPUR PIN CODE 182125",9419157025,LANDER,UDHAMPUR,"JAMMU AND KASHMIR"
"JAMMU AND KASHMIR BANK LIMITED",JAKA0LANGAT,193051302,LANGATE,"LANGATE,KUPWARA",216225,"LANGATE,KUPWARA",KUPWARA,"JAMMU AND KASHMIR"
"JAMMU AND KASHMIR BANK LIMITED",JAKA0LANDER,182051014,"LANDHER PANCHARI","LANDHER PANCHERI UDHAMPUR",7298004657,"LANDHER PANCHARI",UDHAMPUR,"JAMMU AND KASHMIR"
"JAMMU AND KASHMIR BANK LIMITED",JAKA0LAMBER,NA,LAMBERI,"POST OFFICE LAMBERI, DISTRICT RAJOURI, TEHSIL NOWSHERA, JAMMU JK PIN 185152",9469540580,RAJOURI,RAJOURI,"JAMMU AND KASHMIR"
"JAMMU AND KASHMIR BANK LIMITED",JAKA0LALPOR,193051214,LALPORA,LALPORA,9419420037,"LALPORA LOLAB KUPWARA",KUPWARA,"JAMMU AND KASHMIR"
"JAMMU AND KASHMIR BANK LIMITED",JAKA0LALDED,190051035,"LD HOSPITAL SRINAGAR","LEL DED HOSPITAL, HAZURI BAGH",2313740,"LD HOSPITAL",SRINAGAR,"JAMMU AND KASHMIR"
"JAMMU AND KASHMIR BANK LIMITED",JAKA0LALANG,192051048,"LAL CHOWK ANANTNAG","LAL CHOWK ANANTNAG",223433,"LAL CHOWK ANANTNAG",ANANTNAG,"JAMMU AND KASHMIR"
"JAMMU AND KASHMIR BANK LIMITED",JAKA0LAJPAT,110051012,"LAJPAT NAGAR DELHI","A-17 SECTOR 4, RING ROAD OPP,HALDIRAM",26442091,"LAJPAT NAGAR",DELHI,DELHI
"JAMMU AND KASHMIR BANK LIMITED",JAKA0LAJORA,192051118,LAJORA,"LAJORA, PULWAMA",212313,"LAJORA, PULWAMA",PULWAMA,"JAMMU AND KASHMIR"
"JAMMU AND KASHMIR BANK LIMITED",JAKA0LADORA,NA,"LADOORA RAFIABAD","LADOORA RAFIABAD,DISTRICT BARAMULLA,BLOCK SOPORE,KASHMIR,J AND K PIN 193201",9906410010,LUDURA,BARAMULLA,"JAMMU AND KASHMIR"
"JAMMU AND KASHMIR BANK LIMITED",JAKA0LADHOO,192051108,LADHOO,"LADHOO PAMPORE",246030,"LADHOO, PULWAMA",PULWAMA,"JAMMU AND KASHMIR"
"JAMMU AND KASHMIR BANK LIMITED",JAKA0KUNZER,193051022,KUNZER,"GULMARG ROAD,",7298004594,KUNZER,BARAMULLA,"JAMMU AND KASHMIR"
"JAMMU AND KASHMIR BANK LIMITED",JAKA0KUMDAL,NA,"KUMDALAN SHOPIAN","KUMDALAN,DISTRICT SHOPIAN,KASHMIR,J AND K PIN 192303",9697384219,KUMDALAN,SHOPIAN,"JAMMU AND KASHMIR"
"JAMMU AND KASHMIR BANK LIMITED",JAKA0KULLOO,175051002,KULLU,"IST FLOOR, HARISON BUILDING",2222227,KULLU,KULU,"HIMACHAL PRADESH"
"JAMMU AND KASHMIR BANK LIMITED",JAKA0KULLAN,193051218,KULANGAM,"KULANGAM,DISTRICT KUPWARA,PIN CODE 193221",9596231117,KULANGAM,KUPWARA,"JAMMU AND KASHMIR"
"JAMMU AND KASHMIR BANK LIMITED",JAKA0KULIGA,NA,KULIGAM,"KULIGAM LOLAB,TEHSIL KUPWARA,JAMMU AND KASHMIR PIN 193222",9419177026,KUPWARA,KUPWARA,"JAMMU AND KASHMIR"
"JAMMU AND KASHMIR BANK LIMITED",JAKA0KULIAN,180051071,KULLIAN,"R.S.PORA ROAD",9622216333,"MIRAN SAHIB",JAMMU,"JAMMU AND KASHMIR"
"JAMMU AND KASHMIR BANK LIMITED",JAKA0KULGAM,192051008,"KULGAM (MAIN)","KULGAM MAIN",260235,"KULGAM MAIN",KULGAM,"JAMMU AND KASHMIR"
"JAMMU AND KASHMIR BANK LIMITED",JAKA0KULEED,182051409,KULEED,KULEED,9858576415,"NEAR DC OFFICE",KISHTWAR,"JAMMU AND KASHMIR"
"JAMMU AND KASHMIR BANK LIMITED",JAKA0KUDJAM,NA,KUD,"JAMMU KASHMIR NATIONAL HIGHWAY 1A, NEAR POLICE STATION, CHENANI, UDHAMPUR, JAMMU, JK PIN 182142",9797011269,KUD,UDHAMPUR,"JAMMU AND KASHMIR"
"JAMMU AND KASHMIR BANK LIMITED",JAKA0KUCHIE,682051002,KOCHI,"ERNAKULAM, M.G ROAD",2381073,KOCHIE,ERNAKULAM,KERALA
"JAMMU AND KASHMIR BANK LIMITED",JAKA0KSTWAR,182051401,KISHTWAR,"SHAHAN COMPLEX NEAR BUS STAND KISTWAR",259310,KISHTWAR,KISHTWAR,"JAMMU AND KASHMIR"
"JAMMU AND KASHMIR BANK LIMITED",JAKA0KSHORE,191051005,KREMSHORE,"KRIMSHORE BUDGAM",265347,"KRIMSHORE,BUDGAM",BUDGAM,"JAMMU AND KASHMIR"
"JAMMU AND KASHMIR BANK LIMITED",JAKA0KSAHIB,191051009,"KHAN SAHIB","KHANSAHIB BUDGAM",277226,"KHANSAHIB ,BUDGAM",BUDGAM,"JAMMU AND KASHMIR"
"JAMMU AND KASHMIR BANK LIMITED",JAKA0KREERI,193051012,KREERI,"MORADABAD KREERI BARAMULLA",7298004428,"KRERI PATTAN",BARAMULLA,"JAMMU AND KASHMIR"
"JAMMU AND KASHMIR BANK LIMITED",JAKA0KRALPR,NA,KRALPORA,"VILLAGE-KRALPORA, TEHSIL & BLOCK-B K PORA, DISRICT-BUDGAM, JK, PIN-190019",9906660407,"GANDOH BHALESA",BUDGAM,"JAMMU AND KASHMIR"
"JAMMU AND KASHMIR BANK LIMITED",JAKA0KOOTTA,184051010,KOOTAH,"TEHSIL HIRANAGAR KOOTAH",249145,"KOOTAH KATHUA",KATHUA,"JAMMU AND KASHMIR"
"JAMMU AND KASHMIR BANK LIMITED",JAKA0KOOKER,192051017,KOKERNAG,"KOKERNAG  ANANTNAG",244046,"KOKERNAG  ANANTNAG",ANANTNAG,"JAMMU AND KASHMIR"
"JAMMU AND KASHMIR BANK LIMITED",JAKA0KONMOH,190051079,KHONMOH,"NEAR JAMIA MASJID",222683,KHONMOH,SRINAGAR,"JAMMU AND KASHMIR"
"JAMMU AND KASHMIR BANK LIMITED",JAKA0KOLPUL,192051127,KOIL,"KOIL,DISTRICT PULWAMA,J AND K PIN CODE 192301",9018908170,KOIL,PULWAMA,"JAMMU AND KASHMIR"
"JAMMU AND KASHMIR BANK LIMITED",JAKA0KLGUND,193051217,KRALGUND,"LANGATE, HANDWARA",9419424193,"KRALGUND, QAZIABAD",KUPWARA,"JAMMU AND KASHMIR"
"JAMMU AND KASHMIR BANK LIMITED",JAKA0KLAROS,193051204,KALAROOS,"QASBA KALAROOCH,",7298004390,KALAROOCH,KUPWARA,"JAMMU AND KASHMIR"
"JAMMU AND KASHMIR BANK LIMITED",JAKA0KISHEN,184051020,KISHENPUR,"VILLAGE -KISHANPUR, TEH-BILLAWER",222044,"KISHENPUR, KATHUA",KATHUA,"JAMMU AND KASHMIR"
"JAMMU AND KASHMIR BANK LIMITED",JAKA0KHUMRI,193051226,KHUMRIYAL,"KHUMRIYAL,DISTRICT KUPWARA,J AND K PIN CODE 193022",9906635345,KHUMRIYAL,KUPWARA,"JAMMU AND KASHMIR"
"JAMMU AND KASHMIR BANK LIMITED",JAKA0KHUDWN,192051041,KHUDWANI,KHUDWANI,238455,"KHUDWANI, KULGAM",KULGAM,"JAMMU AND KASHMIR"
"JAMMU AND KASHMIR BANK LIMITED",JAKA0KHOURR,180051094,"KHOUR SALARIAN","POST OFFICE-NANADPUR",9697858041,"VILLAGE-KHOUR SALARIAN",SAMBA,"JAMMU AND KASHMIR"
"JAMMU AND KASHMIR BANK LIMITED",JAKA0KHOOUR,NA,KHOUR,"NEAR CHAK MALAL FILLING STATION, POST OFFICE CHAKMALAL, JAMMU, JK PIN 181202",9419104194,KHOUR,JAMMU,"JAMMU AND KASHMIR"
"JAMMU AND KASHMIR BANK LIMITED",JAKA0KHOONI,182051004,KHOON,"P.O KHOON TEHSIL MAJALTA",7298004683,"KHOON, UDHAMPUR",UDHAMPUR,"JAMMU AND KASHMIR"
"JAMMU AND KASHMIR BANK LIMITED",JAKA0KHOJBG,193051003,"KHOJ BAGH","MAIN KHAWAJA BAGH",7298004492,"KHAWAJA BAGH MAIN",BARAMULLA,"JAMMU AND KASHMIR"
"JAMMU AND KASHMIR BANK LIMITED",JAKA0KHMENI,190051078,"KHUMANI CHOWK","KHOMENI CHOWK",2495002,"KHOMENI CHOWK BEMINA",BUDGAM,"JAMMU AND KASHMIR"
"JAMMU AND KASHMIR BANK LIMITED",JAKA0KHIRAM,NA,KHIRAM,"KHIRAM,NEAR DARGAH SHARIF, BLOCK-DACHNIPORA, TEHSIL-SRIGUPHWARA, DISTRICT-ANANTNAG, PIN-192401",9906499688,KHIRAM,ANANTNAG,"JAMMU AND KASHMIR"
"JAMMU AND KASHMIR BANK LIMITED",JAKA0KHERRI,182051108,"KHERRI (RAMSOO)","KHERRI RAMSOO",9419216643,"KHERRI RAMSOO",RAMBAN,"JAMMU AND KASHMIR"
"JAMMU AND KASHMIR BANK LIMITED",JAKA0KHERBL,192051038,KHEERIBAL,"KHEERIBAL, ANANTNAG",237892,"KHEERIBAL, ANANTNAG",ANANTNAG,"JAMMU AND KASHMIR"
"JAMMU AND KASHMIR BANK LIMITED",JAKA0KHEORA,185051021,KHEORA,"KHEORA,TEHSIL AND DISTRICT RAJOURI,J AND K PIN 185131",97634286,KHEORA,RAJOURI,"JAMMU AND KASHMIR"
"JAMMU AND KASHMIR BANK LIMITED",JAKA0KHAYAM,190051084,"KHAYAM CHOWK SRINAGAR","OPP. HOTEL BAHAR",2485211,KHAYAM,SRINAGAR,"JAMMU AND KASHMIR"
"JAMMU AND KASHMIR BANK LIMITED",JAKA0KHAWAS,185051017,KHAWAS,"KOTRANKA, BUDHAL",9906170440,KHAWAS,RAJOURI,"JAMMU AND KASHMIR"
"JAMMU AND KASHMIR BANK LIMITED",JAKA0KHANNA,141051102,KHANNA,"OLD SABZI MANDI, G.T.ROAD",225272,KHANNA,LUDHIANA,PUNJAB
"JAMMU AND KASHMIR BANK LIMITED",JAKA0KHANDA,191051013,KHANDA,"KHANDA,BUDGAM,KASHMIRJAMMU AND KASHMIR",237438,KHANDA,BUDGAM,"JAMMU AND KASHMIR"
"JAMMU AND KASHMIR BANK LIMITED",JAKA0KHALSI,194051007,KHALTSI,"KHALSI LEH LADAKH",224025,"KHALSI LEH LADAKH",LEH,"JAMMU AND KASHMIR"
"JAMMU AND KASHMIR BANK LIMITED",JAKA0KHAARI,NA,KHARI,"VPO KHARI, BANIHAL, DISTRICT-RAMBAN, J&K PIN-182145",9906901660,BANIHAL,RAMBAN,"JAMMU AND KASHMIR"
"JAMMU AND KASHMIR BANK LIMITED",JAKA0KHAAGH,191051010,KHAG,"KHAGH, BUDGAM",215357,"KHAGH, BUDGAM",BUDGAM,"JAMMU AND KASHMIR"
"JAMMU AND KASHMIR BANK LIMITED",JAKA0KEYGAM,192051210,KEYGAM,"PULWAMA ROAD",9906919611,SHOPIAN,SHOPIAN,"JAMMU AND KASHMIR"
"JAMMU AND KASHMIR BANK LIMITED",JAKA0KENHAM,191051037,KENIHAMA,NOWGAM,9796171503,KENIHAMA,BUDGAM,"JAMMU AND KASHMIR"
"JAMMU AND KASHMIR BANK LIMITED",JAKA0KELLER,192051205,KELLER,"KELLER SHOPIAN,PULWAMA,J AND K",217600,"KELLER, SHOPIAN",SHOPIAN,"JAMMU AND KASHMIR"
"JAMMU AND KASHMIR BANK LIMITED",JAKA0KEERII,NA,"KERI TERYATH","POST OFFICE KERI TERYATH, TEHSIL KALAKOTE, DISTRICT RAJOURI, JAMMU JK PIN 185203",9419614887,RAJOURI,RAJOURI,"JAMMU AND KASHMIR"
"JAMMU AND KASHMIR BANK LIMITED",JAKA0KEERAN,184051031,KEERIAN,"POST OFFICE-KEERIAN GANDIAL",9697164238,VILLAGE-KEERIAN,KATHUA,"JAMMU AND KASHMIR"
"JAMMU AND KASHMIR BANK LIMITED",JAKA0KEEPER,180051020,"RESIDENCY ROAD JAMMU","RESIDENCY ROAD",2546032,"RESIDENCY ROAD",JAMMU,"JAMMU AND KASHMIR"
"JAMMU AND KASHMIR BANK LIMITED",JAKA0KEELAM,NA,KILLAM,"J&K BANK, KILLAM, NEAR MASJID SHARIEF, DISTRICT KULGAM, PIN- 192231",9797743525,KULGAM,KULGAM,"JAMMU AND KASHMIR"
"JAMMU AND KASHMIR BANK LIMITED",JAKA0KCHJAM,180051034,"KACHI CHAWNI JAMMU","KACHI CHAWNI",2571252,"KACHI CHAWNI",JAMMU,"JAMMU AND KASHMIR"
"JAMMU AND KASHMIR BANK LIMITED",JAKA0KBADDA,193051026,"KB ADDA BARAMULLA","PARK ROAD, AHMAD SHOPPING COMPLEX",9906673820,"K.B.ADDA BARAMULLA",BARAMULLA,"JAMMU AND KASHMIR"
"JAMMU AND KASHMIR BANK LIMITED",JAKA0KAYRAN,193051212,KERAN,KERAN,9906454390,KUPWARA,KUPWARA,"JAMMU AND KASHMIR"
"JAMMU AND KASHMIR BANK LIMITED",JAKA0KATTRA,182051201,KATRA,"NEAR GAGAN SWEETS,MAIN BAZAR, KATRA",232067,KATRA,REASI,"JAMMU AND KASHMIR"
"JAMMU AND KASHMIR BANK LIMITED",JAKA0KATSOO,192051307,KATRASOO,"MAIN CHOWK",9469155222,KATRASOO,KULGAM,"JAMMU AND KASHMIR"
"JAMMU AND KASHMIR BANK LIMITED",JAKA0KATHUA,184051001,"KATHUA (MAIN)","MUKERJEE CHOWK MAIN BAZAR",1922,"KATHUA MAIN",KATHUA,"JAMMU AND KASHMIR"
"JAMMU AND KASHMIR BANK LIMITED",JAKA0KASTIG,182051102,KASTIGARH,"NEAR BUS STAND DODA",7298004694,KASTIGARH,DODA,"JAMMU AND KASHMIR"
"JAMMU AND KASHMIR BANK LIMITED",JAKA0KASKOT,182051309,KASKOOT,TEHSIL-BANIHAL,9906901466,BANIHAL,RAMBAN,"JAMMU AND KASHMIR"
"JAMMU AND KASHMIR BANK LIMITED",JAKA0KARRAN,190051032,"KARAN NAGAR SRINAGAR","GOLE MARKET",2479131,"KARAN NAGAR",SRINAGAR,"JAMMU AND KASHMIR"
"JAMMU AND KASHMIR BANK LIMITED",JAKA0KAROLE,110051006,"KAROL BAGH DELHI","GURDUWARA ROAD, 6/32-33,NEAR JESSA RAM  HOSPITAL, KAROL BAGH",28756066,"KAROL BAGH",DELHI,DELHI
"JAMMU AND KASHMIR BANK LIMITED",JAKA0KARNBG,180051059,"KARAN BAGH JAMMU","R.S.PORA ROAD",2263990,"KARAN BAGH",JAMMU,"JAMMU AND KASHMIR"
"JAMMU AND KASHMIR BANK LIMITED",JAKA0KARNAL,132051102,KARNAL,"OPP BUS STAND, OLD GT ROAD",2262243,KARNAL,KARNAL,HARYANA
"JAMMU AND KASHMIR BANK LIMITED",JAKA0KARLAL,194051021,"LAL CHOWK KARGIL",LALCHOWKKARGILPIN194103,9419899712,"LAL CHOWK KARGIL",KARGIL,"JAMMU AND KASHMIR"
"JAMMU AND KASHMIR BANK LIMITED",JAKA0KARIMA,NA,KAREEMABAD,"VILLAGE-KAREEMABAD, BLOCK-NEWA, DISTRICT-PULWAMA, JK, PIN-192301",9596100633,NEWA,PULWAMA,"JAMMU AND KASHMIR"
"JAMMU AND KASHMIR BANK LIMITED",JAKA0KARGIL,194051008,"KARGIL (MAIN)",LADAKH,233628,"MAIN BRANCH KARGIL",KARGIL,"JAMMU AND KASHMIR"
"JAMMU AND KASHMIR BANK LIMITED",JAKA0KAPRIN,192051051,KAPRIN,"POST OFFICE KAPRIN TEHSIL SHOPIAN",294290,"KAPRIN , SHOPIAN",SHOPIAN,"JAMMU AND KASHMIR"
"JAMMU AND KASHMIR BANK LIMITED",JAKA0KANWAN,192051057,KANELWAN,DACHINPORA,9906694979,KANILWANI,ANANTNAG,"JAMMU AND KASHMIR"
"JAMMU AND KASHMIR BANK LIMITED",JAKA0KANPUR,208051002,KANPUR,"40/116, HOSPITAL ROAD, PARADE",2352392,KANPUR,"KANPUR CITY","UTTAR PRADESH"
"JAMMU AND KASHMIR BANK LIMITED",JAKA0KANISP,NA,KANISPORA,"TEHSIL & DISTRICT BARAMULLA, KASHMIR, PIN- 193101",9797971997,KANISPORA,BARAMULLA,"JAMMU AND KASHMIR"
"JAMMU AND KASHMIR BANK LIMITED",JAKA0KANIHA,191051041,"KANIHAMA NARBAL","KANIHAMA NARBAL,DISTRICT BUDGAM,J AND K PIN 193401",8803453903,"KANIHAMA NARBAL",BUDGAM,"JAMMU AND KASHMIR"
"JAMMU AND KASHMIR BANK LIMITED",JAKA0KANIDA,191051036,KANIDAJAN,"KANIDAJAN,DISTRICT BUDGAM,J AND K PIN 191112",9469249988,KANIDAJAN,BUDGAM,"JAMMU AND KASHMIR"
"JAMMU AND KASHMIR BANK LIMITED",JAKA0KANGAN,191051110,KANGAN,"KANGAN GANDERBAL",2418221,KANGAN,GANDERBAL,"JAMMU AND KASHMIR"
"JAMMU AND KASHMIR BANK LIMITED",JAKA0KANEER,191051024,KANIR,"KANIR,DISTRICT BUDGAM PIN 191113",9697060844,KANIR,BUDGAM,"JAMMU AND KASHMIR"
"JAMMU AND KASHMIR BANK LIMITED",JAKA0KALLAR,NA,KALLAR,"KALLAR, POST OFFICE-DALOGRA, TEHSIL & DISTRICT-RAJOURI, JK, PIN-185134",9796694843,RAJOURI,RAJOURI,"JAMMU AND KASHMIR"
"JAMMU AND KASHMIR BANK LIMITED",JAKA0KALKAT,185051008,KALAKOTE,"KALAKOTE, RAJORI",275027,"KALAKOTE, RAJOURI",RAJOURI,"JAMMU AND KASHMIR"
"JAMMU AND KASHMIR BANK LIMITED",JAKA0KALBAR,184051027,KALIBARI,KALIBARI,9419660835,"NATIONAL HIGHWAY 1A",KATHUA,"JAMMU AND KASHMIR"
"JAMMU AND KASHMIR BANK LIMITED",JAKA0KALBAA,400051003,"KALBADEVI MUMBAI","582/584, JSS ROAD,CHIRA BAZAR",22053224,KALBADEVI,"GREATER BOMBAY",MAHARASHTRA
"JAMMU AND KASHMIR BANK LIMITED",JAKA0KALANT,NA,"KALANTROO PAYEEN","KALANTROO PAYEEN,DISTRICT BARAMULLA,BLOCK WAGOORA,KASHMIR,J AND K PIN 193101",0,"KALANTRA PAIN",BARAMULLA,"JAMMU AND KASHMIR"
"JAMMU AND KASHMIR BANK LIMITED",JAKA0KAKPUR,192051115,KAKAPORA,"PULWAMA, KASHMIR",265244,KAKPORA,PULWAMA,"JAMMU AND KASHMIR"
"JAMMU AND KASHMIR BANK LIMITED",JAKA0KAHARA,182051117,KAHARA,"KAHARA THATRI DODA",7298004632,"KAHARA THATRI DODA",DODA,"JAMMU AND KASHMIR"
"JAMMU AND KASHMIR BANK LIMITED",JAKA0KADDAR,192051045,KADDER,"KADDAR KULGAM,P/O YARIPORA",9906642740,"KADDER , KULGAM",KULGAM,"JAMMU AND KASHMIR"
"JAMMU AND KASHMIR BANK LIMITED",JAKA0KACHDR,192051206,KACHDOORA,"KACHDOORA,SHOPIAN,PULWAMA,J AND K",260803,"KACHDOORA, SHOPIAN",SHOPIAN,"JAMMU AND KASHMIR"
"JAMMU AND KASHMIR BANK LIMITED",JAKA0JYOTIE,182051256,JYOTIPURAM,"MAIN BAZAAR JYOTIPURAM",255020,"JYOTIPURAM, REASI",REASI,"JAMMU AND KASHMIR"
"JAMMU AND KASHMIR BANK LIMITED",JAKA0JULUND,144051001,JALLANDAR,"G.T ROAD, ADDA BASTI",2405306,JULLUNDUR,JALLANDAR,PUNJAB
"JAMMU AND KASHMIR BANK LIMITED",JAKA0JORIAN,180051080,JOURIAN,"INDRI-PATTAN ROAD",9906901012,"NEAR COMMUNITY HEALTH CENTRE",JAMMU,"JAMMU AND KASHMIR"
"JAMMU AND KASHMIR BANK LIMITED",JAKA0JNGRAL,185051014,"MOGHLA (JENGRAL)","TEHSIL KALAKOTE",9419170604,"MOGHLA JARANGAL",RAJOURI,"JAMMU AND KASHMIR"
"JAMMU AND KASHMIR BANK LIMITED",JAKA0JNAGAR,190051031,"JAWAHAR NAGAR SRINAGAR","NEAR BUS STAND",2310939,"JAWAHAR NAGAR",SRINAGAR,"JAMMU AND KASHMIR"
"JAMMU AND KASHMIR BANK LIMITED",JAKA0JKPHQR,WAITING,"J&K POLICE HEADQUARTERS","PIR BAGH",9419059097,SRINAGAR,SRINAGAR,"JAMMU AND KASHMIR"
"JAMMU AND KASHMIR BANK LIMITED",JAKA0JKBCCB,NA,"BARAMULLA CENTRAL CO-OPERATIVE BANK LTD","OPPOSITE POLICE STATION, NATIONAL HIGHWAY , BARAMULLA, JK PIN 193101",234725,BARAMULLA,BARAMULLA,"JAMMU AND KASHMIR"
"JAMMU AND KASHMIR BANK LIMITED",JAKA0JINDHR,NA,JANDRAH,"DREAM CHOWK, BLOCK-DHANSAL, DISTRICT-JAMMU, J&K, PIN-181224",2661679,JANDRAH,JAMMU,"JAMMU AND KASHMIR"
"JAMMU AND KASHMIR BANK LIMITED",JAKA0JEHLUM,193051006,"URI (MAIN)","URI MAIN BARAMULLA",244204,"URI MAIN",BARAMULLA,"JAMMU AND KASHMIR"
"JAMMU AND KASHMIR BANK LIMITED",JAKA0JAWHAR,185051002,"JAWAHAR NAGAR RAJOURI","JAWHAR NAGAR, RAJOURI",263541,"JAWHAR NAGAR, RAJOURI",RAJOURI,"JAMMU AND KASHMIR"
"JAMMU AND KASHMIR BANK LIMITED",JAKA0JATWAL,NA,JATWAL,"JATWAL, TEHSIL- GHAGWAL, DISTRICT- SAMBA, PIN-184141",9906062963,SAMBA,SAMBA,"JAMMU AND KASHMIR"
"JAMMU AND KASHMIR BANK LIMITED",JAKA0JANNAK,110051033,JANAKPURI,"B 1 BY 512  JANALPURI NEW DELHI 110058",9868621285,"B-1/512 JANAKPURI",DELHI,DELHI
"JAMMU AND KASHMIR BANK LIMITED",JAKA0JANKAT,184051032,JANU,"POST OFFICE-BHOOND, TEHSIL-BASOHLI",9622211120,VILLAGE-JANU,KATHUA,"JAMMU AND KASHMIR"
"JAMMU AND KASHMIR BANK LIMITED",JAKA0JANGLA,NA,"JANGLAT MANDI ANANTNAG","JANGLAT MANDI,DISTRICT ANANTNAG,BLOCK ACHABAL,KASHMIR,J AND K PIN 192101",9797284849,ACHABAL,ANANTNAG,"JAMMU AND KASHMIR"
"JAMMU AND KASHMIR BANK LIMITED",JAKA0JAMIAH,NA,"E C JAMIA HAMDARD UNIVERSITY","JAMIA HAMDARD (HAMDARD UNIVERSITY), HAMDARD NAGAR, NEW DELHI, PIN-110062",9899933736,DELHI,DELHI,DELHI
"JAMMU AND KASHMIR BANK LIMITED",JAKA0JAKYAS,182051116,JAKYAS,"P/O THATHRI TEHSIL  GANDOH",9906067056,"JHAKYAS, THATRI",DODA,"JAMMU AND KASHMIR"
"JAMMU AND KASHMIR BANK LIMITED",JAKA0JAIPUR,302051001,JAIPUR,"M.I.ROAD,PANCH BATI",2372522,"M.I.ROAD,JAIPUR",JAIPUR,RAJASTHAN
"JAMMU AND KASHMIR BANK LIMITED",JAKA0JAGTEE,180051072,"JAGTI TOWNSHIP","JAKH TOWNSHIP, NAGROTA",9419117442,"LANE NO. 23",JAMMU,"JAMMU AND KASHMIR"
"JAMMU AND KASHMIR BANK LIMITED",JAKA0JAGMOR,182051027,"JAGANOO MORE","NEAR KV NO. 2, DHAR ROAD",9622020330,"OPPOSITE BASE WORKSHOP",UDHAMPUR,"JAMMU AND KASHMIR"
"JAMMU AND KASHMIR BANK LIMITED",JAKA0JAGANO,182051006,JAGANOO,"JAGANU,UDHAMPUR",7298004679,"JAGANU,UDHAMPUR",UDHAMPUR,"JAMMU AND KASHMIR"
"JAMMU AND KASHMIR BANK LIMITED",JAKA0JADEED,193051030,"JADEED ROAD","JADEED ROAD,DISTRICT BARAMULLA,PIN CODE 193101",9697948031,"JADEED ROAD",BARAMULLA,"JAMMU AND KASHMIR"
"JAMMU AND KASHMIR BANK LIMITED",JAKA0JAAKHH,180051073,JAKH,JAKH,242939,"NATIONAL HIGHWAY",SAMBA,"JAMMU AND KASHMIR"
"JAMMU AND KASHMIR BANK LIMITED",JAKA0INTDIV,190051029,"INTERNATIONAL BANKING DIV SRINAGAR","SHANSHAH PALACE, BOULEVARD ROAD, DALGATE",2500081,"INTERNATIONAL BANKING DIV.",SRINAGAR,"JAMMU AND KASHMIR"
"JAMMU AND KASHMIR BANK LIMITED",JAKA0INDORE,452051002,INDORE,"(U.G.)3-4 DIAMOND,TRADE CENTRE INDORE",2538884,"INDORE DIAMOND COLONY",INDORE,"MADHYA PRADESH"
"JAMMU AND KASHMIR BANK LIMITED",JAKA0INBANG,560051004,"INDRA NAGAR BANGALORE","8TH EDIFICE,CMH ROAD,",25213854,"INDIRA NAGAR",BANGALORE,KARNATAKA
"JAMMU AND KASHMIR BANK LIMITED",JAKA0IMMOHH,NA,IMOH,"ACHABAL ANANTNAG KASHMIR, JAMMU AND KASHMIR PIN 192201",9797970842,ACHABAL,ANANTNAG,"JAMMU AND KASHMIR"
"JAMMU AND KASHMIR BANK LIMITED",JAKA0IMMAMS,192051113,"IMMAM SAHIB",SHOPAIN,268023,"IMAM SAHIB",SHOPIAN,"JAMMU AND KASHMIR"
"JAMMU AND KASHMIR BANK LIMITED",JAKA0IFSMBA,180051060,"INDUSTRIAL FINANCE BRANCH  SAMBA","INDUSTRIAL FINANCE SID",241130,"INDUSTRIAL FINANCE , SAMBA",SAMBA,"JAMMU AND KASHMIR"
"JAMMU AND KASHMIR BANK LIMITED",JAKA0ICHGAM,191051004,ICHGAM,"ICHGAM, BUDGAM",255161,ICHGAM,BUDGAM,"JAMMU AND KASHMIR"
"JAMMU AND KASHMIR BANK LIMITED",JAKA0IALUDH,141051003,"INDUSTRIAL AREA LUDHIANA","PLOT NO.330, INDUSTRIAL AREA-A,NEAR CHEEMA CHOWK",2221296,"INDUSTRIAL AREA LUDHIANA",LUDHIANA,PUNJAB
"JAMMU AND KASHMIR BANK LIMITED",JAKA0HYHAMA,193051205,"QASBA HYHAMA","NEAR GIRLS HIGHER SECONDARY SCHOOL,SALKOTE ROAD HYHAMA KUPWARA",253035,"HYHAMA KUPWARA",KUPWARA,"JAMMU AND KASHMIR"
"JAMMU AND KASHMIR BANK LIMITED",JAKA0HYGAAM,193051114,"HYGAM SOPORE","HYGAM SOPORE,DISTRICT BARAMULLA,J AND K PIN 193201",9797296393,"HYGAM SOPORE",BARAMULLA,"JAMMU AND KASHMIR"
"JAMMU AND KASHMIR BANK LIMITED",JAKA0HUMHAM,190051027,HUMHAMA,"AIRPORT ROAD",2303566,HUMHAMA,BUDGAM,"JAMMU AND KASHMIR"
"JAMMU AND KASHMIR BANK LIMITED",JAKA0HUDPUR,190051028,"HYDERPORA SRINAGAR","AIRPORT ROAD",2441694,HYDERPORA,SRINAGAR,"JAMMU AND KASHMIR"
"JAMMU AND KASHMIR BANK LIMITED",JAKA0HRSHOP,192051202,"H R SHOPIAN","NEAR POLICE STATION,HOSPITAL ROAD",260297,"HOSPITAL ROAD, SHOPIAN",SHOPIAN,"JAMMU AND KASHMIR"
"JAMMU AND KASHMIR BANK LIMITED",JAKA0HRHAND,193051304,"HANDWARA (SOUTH)","HOSPITAL ROAD",262549,"HANDWARA , SOUTH",KUPWARA,"JAMMU AND KASHMIR"
"JAMMU AND KASHMIR BANK LIMITED",JAKA0HRDCHQ,NA,CHQ,"HRD, CORPORATE HEADQUARTERS, M A ROAD",2481922,SRINAGAR,SRINAGAR,"JAMMU AND KASHMIR"
"JAMMU AND KASHMIR BANK LIMITED",JAKA0HRDABR,193051027,"HARDU ABOORA","BLOCK KUNZER TEHSIL TANGMARG",9419018792,"HARDU ABOORA ,",BARAMULLA,"JAMMU AND KASHMIR"
"JAMMU AND KASHMIR BANK LIMITED",JAKA0HRCHAK,184051021,"HARIA CHAK","TEHSIL HIRANAGAR",210250,"HARIA CHAK  HIRANAGAR",KATHUA,"JAMMU AND KASHMIR"
"JAMMU AND KASHMIR BANK LIMITED",JAKA0HOSPUR,NA,HOSHIARPUR,"DHAAMI COMMERCIAL COMPLEX, SUTHERI ROAD, DISTRICT- HOSHIAPUR,PUNJAB, PIN-146001",246046,HOSHIARPUR,HOSHIARPUR,PUNJAB
"JAMMU AND KASHMIR BANK LIMITED",JAKA0HOSERY,NA,"ZONAL OFFICE MOHALI","UPPER NORTH PHASE 2 SECTOR 54 MOHALI PUNJAB 160055",2228938,RUPNAGAR,"SAS NAGAR MOHALI",PUNJAB
"JAMMU AND KASHMIR BANK LIMITED",JAKA0HONOUR,190051060,"SAFA KADAL SRINAGAR",SAFAKADAL,2475043,SAFAKADAL,SRINAGAR,"JAMMU AND KASHMIR"
"JAMMU AND KASHMIR BANK LIMITED",JAKA0HNDWAR,193051301,HANDWARA,"NEAR TEHSIL OFFICE",262245,"HANDWARA MAIN",KUPWARA,"JAMMU AND KASHMIR"
"JAMMU AND KASHMIR BANK LIMITED",JAKA0HNAGAR,184051009,"HIRA NAGAR","MAIN BAZAAR HIRANAGAR,",274238,"HIRANAGAR, MAIN BAZAR",KATHUA,"JAMMU AND KASHMIR"
"JAMMU AND KASHMIR BANK LIMITED",JAKA0HKADAL,190051025,"HABBA KADAL SRINAGAR","HABBA KADAL",2108288,"HABBA KADAL",SRINAGAR,"JAMMU AND KASHMIR"
"JAMMU AND KASHMIR BANK LIMITED",JAKA0HITECH,193051102,"AGRO HI TECH SOPORE","AGRO HITECH CHANKHAN",7298004612,"HITECH SOPORE",BARAMULLA,"JAMMU AND KASHMIR"
"JAMMU AND KASHMIR BANK LIMITED",JAKA0HISSAR,125051102,HISSAR,"SCO 73-74, URBAN ESTATE 1,RED SQUARE MARKET, HISSAR",2231215,HISSAR,HISAR,HARYANA
"JAMMU AND KASHMIR BANK LIMITED",JAKA0HIDYAL,182051411,HIDYAL,"NEAR HIDYAL CHOWK,DISTRICT KISHTWAR,PIN CODE 182204",9419914183,"NEAR HIDYAL CHOWK",KISHTWAR,"JAMMU AND KASHMIR"
"JAMMU AND KASHMIR BANK LIMITED",JAKA0HESPER,194051015,HIMYA,"HIMYA KAIRYLEH,LADAKH,J AND K",9419178288,"HIMYA (KAIRY),LEH",LEH,"JAMMU AND KASHMIR"
"JAMMU AND KASHMIR BANK LIMITED",JAKA0HERMAN,192051204,HERMAN,"HERMAN SHOPIAN",217003,"HERMAIN , SHOPIAN",SHOPIAN,"JAMMU AND KASHMIR"
"JAMMU AND KASHMIR BANK LIMITED",JAKA0HEMMIS,NA,THIKSAY,"THIKSAY LEH,LADAKH REGION",0,THIKSEY,LEH,"JAMMU AND KASHMIR"
"JAMMU AND KASHMIR BANK LIMITED",JAKA0HCCSGR,190051026,"HIGH COURT COMPLEX SRINAGAR","J&K HIGH COURT",2482839,"HIGH COURT",SRINAGAR,"JAMMU AND KASHMIR"
"JAMMU AND KASHMIR BANK LIMITED",JAKA0HCCJAM,180051032,"HIGH COURT COMPLEX JAMMU","HIGH COUT COMPLEX",2530490,"HIGH COURT COMPLEX",JAMMU,"JAMMU AND KASHMIR"
"JAMMU AND KASHMIR BANK LIMITED",JAKA0HBEIGH,193051020,"HAIDER BEIGH","HYDER BEIGH, BARAMULLA",7298004468,"HYDERBEIGH, BARAMULLA",BARAMULLA,"JAMMU AND KASHMIR"
"JAMMU AND KASHMIR BANK LIMITED",JAKA0HASBAT,190051095,"GUND HASSI BHAT","GUND HASSI BHAT,DISTRICT SRINAGAR,J AND K PIN CODE 190017",9419009593,"GUND HASIBHAT",SRINAGAR,"JAMMU AND KASHMIR"
"JAMMU AND KASHMIR BANK LIMITED",JAKA0HARRAI,193051220,HARAI,"HARRAI,DISTRICT KUPWARA,PIN CODE 193224",9906652700,HARRAI,KUPWARA,"JAMMU AND KASHMIR"
"JAMMU AND KASHMIR BANK LIMITED",JAKA0HARNAG,NA,HARNAG,"HARNAG, BLOCK & TEHSIL-ACHABAL,DISTRICT-ANANTNAG, KASHMIR, PIN-192102",9906684618,ACHABAL,ANANTNAG,"JAMMU AND KASHMIR"
"JAMMU AND KASHMIR BANK LIMITED",JAKA0HARDWR,NA,HRIDWAR,"ACHARAYA CHANDRA CHOWK, RANIPUR MORH, OPPOSITE CITY HOSPITAL, HARIDWAR, UTTARAKHAND, PIN-249401",9419263215,HARDWAR,HARIDWAR,UTTARAKHAND
"JAMMU AND KASHMIR BANK LIMITED",JAKA0HALMAT,NA,HALMATPORA,"HALMATPORA,DISTRIC KUPWARA,KASHMIR,J AND K PIN 193222",9419954525,"HALMAT PORA",KUPWARA,"JAMMU AND KASHMIR"
"JAMMU AND KASHMIR BANK LIMITED",JAKA0HAKURA,192051065,"HAKURA BADASGAM","NEAR JAMIA MASJID",9797930483,"HAKURA BADASGAM",ANANTNAG,"JAMMU AND KASHMIR"
"JAMMU AND KASHMIR BANK LIMITED",JAKA0HAJJIN,193051011,HAJIN,HAJIN,265340,"HAJIN, BANDIPORA",BANDIPORA,"JAMMU AND KASHMIR"
"JAMMU AND KASHMIR BANK LIMITED",JAKA0HAIDER,500051002,"J N ROAD HYDERABAD","J.N ROAD HYDERABAD",24615539,"HYDERABAD J.N ROAD",HYDERABAD,"ANDHRA PRADESH"
"JAMMU AND KASHMIR BANK LIMITED",JAKA0HAFROO,191051028,"HAFROO BATPORA",CHADORA,8803009765,"HAFROO BATPORA",BUDGAM,"JAMMU AND KASHMIR"
"JAMMU AND KASHMIR BANK LIMITED",JAKA0HABBAK,NA,"HABBAK CROSSING","HABBAK CROSSING, POST OFFICE-KASHMIR UNIVERSITY, DISTRICT-SRINAGAR, PIN-190006",9419064530,SRINAGAR,SRINAGAR,"JAMMU AND KASHMIR"
"JAMMU AND KASHMIR BANK LIMITED",JAKA0GZABAD,110051029,GHAZIABAD,"204, 1ST FLOOR AMBEDKAR ROAD,OPP NEHRU YUVA KENDRA GHAZIABAD",2796213,GHAZIABAD,GHAZIABAD,"UTTAR PRADESH"
"JAMMU AND KASHMIR BANK LIMITED",JAKA0GURUJI,143051002,"SHASTRI MARKET AMRITSAR",S.M.AMRITSAR,2292778,"SHASTRI MARKET AMRITSAR",AMRITSAR,PUNJAB
"JAMMU AND KASHMIR BANK LIMITED",JAKA0GURSLA,180051092,"GURHA SALATHIA","GURHA SALATHIA,DISTRICT SAMBA,J AND K,PIN 181143",9906170800,"GURHA SALATHIA",SAMBA,"JAMMU AND KASHMIR"
"JAMMU AND KASHMIR BANK LIMITED",JAKA0GURSHA,185051105,GURSAHI,GURSAHI,225319,"GURSAHI, POONCH",POONCH,"JAMMU AND KASHMIR"
"JAMMU AND KASHMIR BANK LIMITED",JAKA0GURSEC,110051031,"GURGOAN SECTOR 44","SECTOR 44",4715800,"PLOT NO. 132-134",GURGAON,HARYANA
"JAMMU AND KASHMIR BANK LIMITED",JAKA0GURKAL,184051030,"GURHA KALYAL",TEHSIL-BILLAWAR,9419128558,"GURHA KALYAL",KATHUA,"JAMMU AND KASHMIR"
"JAMMU AND KASHMIR BANK LIMITED",JAKA0GURGON,110051013,"GURGAON MAIN","OLD JUDICAL COMPLEX, TOWER 47,CIVIL LINES",4118501,"GURGOAN MAIN",GURGAON,HARYANA
"JAMMU AND KASHMIR BANK LIMITED",JAKA0GURAHH,180051095,"GURHA SINGHU","VPO SHAMA CHAK",9419189392,"VILLAGE- GURHA SINGHU",JAMMU,"JAMMU AND KASHMIR"
"JAMMU AND KASHMIR BANK LIMITED",JAKA0GUNDHI,185051106,"DRABA GUNDHI","DRABA GUNDHI,",230418,"DRABA, GUNDHI, POONCH",POONCH,"JAMMU AND KASHMIR"
"JAMMU AND KASHMIR BANK LIMITED",JAKA0GUMPHA,NA,"ZONAL OFFICE LEH","LEH LADAKH JAMMU AND KASHMIR 194101",252130,LEH,LEH,"JAMMU AND KASHMIR"
"JAMMU AND KASHMIR BANK LIMITED",JAKA0GUMMAT,180051028,"UPPER GUMMAT JAMMU","UPPER GUMMAT BAZAAR",2579643,"UPPER GUMMAT",JAMMU,"JAMMU AND KASHMIR"
"JAMMU AND KASHMIR BANK LIMITED",JAKA0GUJRAL,180051078,"CAMP GOLE  GUJRAL","JASWANT PLAZA, GOLE GUJRAL",9419102383,JAMMU,JAMMU,"JAMMU AND KASHMIR"
"JAMMU AND KASHMIR BANK LIMITED",JAKA0GUJJAR,185051003,"GUJJAR MARKET RAJOURI","NEAR L.I.C OF INDIA,GUJJAR MARKET RAJOURI",263578,"GUJJAR MARKET RAJOURI",RAJOURI,"JAMMU AND KASHMIR"
"JAMMU AND KASHMIR BANK LIMITED",JAKA0GUJCCJ,180051055,"GUJJAR CHARITABLE TRUST JAMMU","NEAR JAMKASH VEHCILADES,OPP CHANNI HIMAT, BYE PASS RD",2460641,"GUJJAR CHARITABLE TRUST",JAMMU,"JAMMU AND KASHMIR"
"JAMMU AND KASHMIR BANK LIMITED",JAKA0GSBUNI,185051013,"BABA GHULAM SHAH UNIVERSITY RAJOURI",RAJOURI,241010,"BSGB UNIVERSITY",RAJOURI,"JAMMU AND KASHMIR"
"JAMMU AND KASHMIR BANK LIMITED",JAKA0GRAMEN,NA,"J AND K GRAMEEN BANK","ALL BRANCHES, J AND K GRAMEEN BANK, JAMMU AND KASHMIR",0,JAMMU,JAMMU,"JAMMU AND KASHMIR"
"JAMMU AND KASHMIR BANK LIMITED",JAKA0GOWHAR,190051088,GOWHARPORA,"GOWHARPORA CHADOORA",9906953311,"GOWHARPORA BUDGAM",BUDGAM,"JAMMU AND KASHMIR"
"JAMMU AND KASHMIR BANK LIMITED",JAKA0GOVIND,184051004,GOVINDSAR,"OPP. INDUSTRIAL ESTATES",233165,GOVINDSAR,KATHUA,"JAMMU AND KASHMIR"
"JAMMU AND KASHMIR BANK LIMITED",JAKA0GOUNDH,191051103,GUND,"GUND, KANGAN",2180003,"GUND, KANGAN",GANDERBAL,"JAMMU AND KASHMIR"
"JAMMU AND KASHMIR BANK LIMITED",JAKA0GOOLAB,182051018,GOOL,"GOOL ,RAMBAN",7298004730,"GOOL, RAMBAN",RAMBAN,"JAMMU AND KASHMIR"
"JAMMU AND KASHMIR BANK LIMITED",JAKA0GOLDEN,192051101,PULWAMA,"PULWAMA MAIN",241340,"PULWAMA MAIN",PULWAMA,"JAMMU AND KASHMIR"
"JAMMU AND KASHMIR BANK LIMITED",JAKA0GOBIND,147051102,"MANDI GOBINDGARH","G T ROAD, MANDI GOBIND GARH,DISTRICT FATTEH GARH SAHIB",242224,"MANDI GOBIND GARH","FATEHGARH SAHIB",PUNJAB
"JAMMU AND KASHMIR BANK LIMITED",JAKA0GNOIDA,110051022,"GREATER NOIDA","DADRI ROAD, SURAJPUR, OPP PETROL PUMP",2569074,"GREATER NOIDA","GAUTAM BUDDHA NAGAR","UTTAR PRADESH"
"JAMMU AND KASHMIR BANK LIMITED",JAKA0GNGYAL,180051009,GANGYAL,"OPP. IFCA BOTTELING COMPANY",2480119,GANGYAL,JAMMU,"JAMMU AND KASHMIR"
"JAMMU AND KASHMIR BANK LIMITED",JAKA0GNGJAM,180051031,"GUJJAR NAGAR JAMMU","NEAR SHERI KASHMIR BRIDGE",2564641,"GUJJAR NAGAR",JAMMU,"JAMMU AND KASHMIR"
"JAMMU AND KASHMIR BANK LIMITED",JAKA0GKLASH,110051023,"GREATER KAILASH DELHI","C-10, PART-I",29243035,"GREATER KAILASH",DELHI,DELHI
"JAMMU AND KASHMIR BANK LIMITED",JAKA0GKJAMU,180051047,"GREATER KAILASH JAMMU","FOUNTAIN CHOWK",2480314,"GREATER KAILASH",JAMMU,"JAMMU AND KASHMIR"
"JAMMU AND KASHMIR BANK LIMITED",JAKA0GHOUMA,NA,"GHOU MANHASSAN","GHOU MANHASSAN, NEAR FISHRIES DEPARTMENT, VPO-GHOU MANHASSAN, DISTRICT-JAMMU, J&K, PIN-181206",2644229,"GHO MANHASAN",JAMMU,"JAMMU AND KASHMIR"
"JAMMU AND KASHMIR BANK LIMITED",JAKA0GHORDI,182051023,GHORDI,TEHSIL-RAMNAGAR,9622383037,"BUS STAND GHORDI",UDHAMPUR,"JAMMU AND KASHMIR"
"JAMMU AND KASHMIR BANK LIMITED",JAKA0GHAZIA,110051011,NOIDA,"P-2, J.O.P PLAZA,SECTOR 18, NOIDA",4557791,NOIDA,"GAUTAM BUDDHA NAGAR","UTTAR PRADESH"
"JAMMU AND KASHMIR BANK LIMITED",JAKA0GHAATH,182051119,GHAT,GHAT,9796262760,"NEAR BUS STAND",DODA,"JAMMU AND KASHMIR"
"JAMMU AND KASHMIR BANK LIMITED",JAKA0GENBUS,190051096,"GENERAL BUS STAND BATAMALOO","BARAN PATHER BATAMALOO DISTRCT SRINAGAR J K PIN CODE 190009",9419590525,"BARN PATHER BATAMALOO",SRINAGAR,"JAMMU AND KASHMIR"
"JAMMU AND KASHMIR BANK LIMITED",JAKA0GARDEN,190051008,"BALGARDEN SRINAGAR","SMC COMPLEX, BALGARDEN",2451091,BALGARDEN,SRINAGAR,"JAMMU AND KASHMIR"
"JAMMU AND KASHMIR BANK LIMITED",JAKA0GANPAT,190051022,"GANPATYAR SRINAGAR",GANPATYAR,2471792,GANPATYAR,SRINAGAR,"JAMMU AND KASHMIR"
"JAMMU AND KASHMIR BANK LIMITED",JAKA0GANDHI,180051008,"GANDHINAGR JAMMU","GOLE MARKET, GHANDHI PLAZA",2430192,"GHANDHI NAGAR",JAMMU,"JAMMU AND KASHMIR"
"JAMMU AND KASHMIR BANK LIMITED",JAKA0GANDER,191051101,GANDERBAL,"BEEHAMA GANDERBAL",2416881,GANDERBAL,GANDERBAL,"JAMMU AND KASHMIR"
"JAMMU AND KASHMIR BANK LIMITED",JAKA0GAMUDD,193051408,"GAMUD GADAKHUD",TEHSIL-SUMBAL,9906961440,"GAMUD GADAKHUD",BANDIPORA,"JAMMU AND KASHMIR"
"JAMMU AND KASHMIR BANK LIMITED",JAKA0GALUTA,185051104,GALHUTA,"GALHUTA, POONCH",1965,"GALHUTA, POONCH",POONCH,"JAMMU AND KASHMIR"
"JAMMU AND KASHMIR BANK LIMITED",JAKA0GAJANI,NA,GAJANSOO,"MAIN BUS STAND,VPO GAJANSOO,DISTRICT JAMMU,TEHSIL JAMMU,PIN 181206",0,GAJANSU,JAMMU,"JAMMU AND KASHMIR"
"JAMMU AND KASHMIR BANK LIMITED",JAKA0GAGWAL,180051089,GAGWAL,"NATIONAL HIGHWAY",230241,"GHAGWAL SAMBA",SAMBA,"JAMMU AND KASHMIR"
"JAMMU AND KASHMIR BANK LIMITED",JAKA0FRUITS,190051021,"FRUIT COMPLEX SRINAGAR","FRUIT COMPLEX,",2490323,"FRUIT COMPLEX",SRINAGAR,"JAMMU AND KASHMIR"
"JAMMU AND KASHMIR BANK LIMITED",JAKA0FRISAL,192051308,FRISAL,"MAIN MARKET",9622506615,FRISAL,KULGAM,"JAMMU AND KASHMIR"
"JAMMU AND KASHMIR BANK LIMITED",JAKA0FRAZER,560051005,"FRAZER TOWN","95 MOSQUE ROAD, FRAZER TOWN",7795367396,"GROUND FOOR",BANGALORE,KARNATAKA
"JAMMU AND KASHMIR BANK LIMITED",JAKA0FRABAD,110051021,FARIDABAD,"SHOPPING COMPLEX, 107, SECTOR - 16,BEHIND SAGAR CINEMA",4105871,FARIDABAD,FARIDABAD,HARYANA
"JAMMU AND KASHMIR BANK LIMITED",JAKA0FOREST,193051206,"KUPWARA (MAIN)","BY PASS ROAD KUPWARA",252218,KUPWARA,KUPWARA,"JAMMU AND KASHMIR"
"JAMMU AND KASHMIR BANK LIMITED",JAKA0FMKLGM,192051305,"FRUIT MANDI KULGAM","FRUIT MARKET KULGAM,DISTRICT KULGAM,J AND K PIN CODE 192231",9622828912,"FRIT MARKET KULGAM",KULGAM,"JAMMU AND KASHMIR"
"JAMMU AND KASHMIR BANK LIMITED",JAKA0FLORAL,192051123,TRAL,"MAIN TRAL",250243,TRAL,PULWAMA,"JAMMU AND KASHMIR"
"JAMMU AND KASHMIR BANK LIMITED",JAKA0FEROZE,152051002,FEROZPUR,"MALWAL ROAD OPP, H.M.SCHOOL",220741,"FEROZPUR, PUNJAB",FEROZPUR,PUNJAB
"JAMMU AND KASHMIR BANK LIMITED",JAKA0FCPALO,180051088,"FRIENDS COLONY PALOURA","PATTA PALOURA",2591171,"153-WARD NO. 41",JAMMU,"JAMMU AND KASHMIR"
"JAMMU AND KASHMIR BANK LIMITED",JAKA0FAVOUR,NA,"ZONAL OFFICE DELHI","PLOT NO 132 134 SECTOR 44 GURGAON HARYANA 122002",4715800,GURGAON,GURGAON,HARYANA
"JAMMU AND KASHMIR BANK LIMITED",JAKA0FATTEH,190051020,"FATEH KADAL SRINAGAR","FATEH KADAL",2458012,"FATEH KADAL",SRINAGAR,"JAMMU AND KASHMIR"
"JAMMU AND KASHMIR BANK LIMITED",JAKA0FASBAD,185051114,FASLABAD,TEHSIL-SURANKOTE,8803160164,FASLABAD,POONCH,"JAMMU AND KASHMIR"
"JAMMU AND KASHMIR BANK LIMITED",JAKA0EZIRIP,192051043,ZIRIPORA,BIJBEHARA,234806,ZIRIPORA,ANANTNAG,"JAMMU AND KASHMIR"
"JAMMU AND KASHMIR BANK LIMITED",JAKA0EXPORT,190051034,"LAL BAZAR SRINAGAR","NEAR MOLVI STOP",2425390,"LAL BAZAR",SRINAGAR,"JAMMU AND KASHMIR"
"JAMMU AND KASHMIR BANK LIMITED",JAKA0EXDODA,182051125,"TP DODA","PAY COUNTER,TEHSIL OFFICE,TP DODA,J AND K",9906524251,"TREASURY PREMISES DODA",DODA,"JAMMU AND KASHMIR"
"JAMMU AND KASHMIR BANK LIMITED",JAKA0EXAMBR,190051085,"BOARD OF SCHOOL EDUCATION SRINAGAR",BEMINA,2495249,"STATE BOAARD OF SCHOOL EDUCATION",SRINAGAR,"JAMMU AND KASHMIR"
"JAMMU AND KASHMIR BANK LIMITED",JAKA0EWAKUR,191051111,WAKURA,GANDERBAL,2107882,WAKURA,GANDERBAL,"JAMMU AND KASHMIR"
"JAMMU AND KASHMIR BANK LIMITED",JAKA0ETPPUL,192051101,"T P PULWAMA","NEAR POLICE STATION PULWAMA",241633,"T P PULWAMA , SERVICE COUNTER",PULWAMA,"JAMMU AND KASHMIR"
"JAMMU AND KASHMIR BANK LIMITED",JAKA0ETOOTO,190051011,"TATTOO GROUND SRINAGAR","TOTTO GROUND, SRINAGAR",9419006109,SRINAGAR,SRINAGAR,"JAMMU AND KASHMIR"
"JAMMU AND KASHMIR BANK LIMITED",JAKA0ETHEED,190051086,"NEW THEED","NEW THEED HARWAN",2463313,"NEW THEED",SRINAGAR,"JAMMU AND KASHMIR"
"JAMMU AND KASHMIR BANK LIMITED",JAKA0ESURAN,185051102,"T. P. SURANKOT","SURRANKOTE,POONCH",0,SURANKOTE,POONCH,"JAMMU AND KASHMIR"
"JAMMU AND KASHMIR BANK LIMITED",JAKA0ESTATE,180051038,"IC BARI BRAHAMNA","BARI BRAHMNA (I.C)",220362,"IC BARI BRAHMNA",SAMBA,"JAMMU AND KASHMIR"
"JAMMU AND KASHMIR BANK LIMITED",JAKA0ESINGH,193051036,"SSM ENGG. COLLEGE PATTAN","SSM ENGG. COLLEGE,DEVER, PARIHASPORA, PA",7298004587,"SSM ENGG. COLLEGE, PATTAN",BARAMULLA,"JAMMU AND KASHMIR"
"JAMMU AND KASHMIR BANK LIMITED",JAKA0ESHKTI,182051003,"CAMA HOUSING COLONY","CAMA HOUSING COLONY,NEAR NATIONAL HIGHWAY",7298004624,"CAMA HOUSING COLONY",UDHAMPUR,"JAMMU AND KASHMIR"
"JAMMU AND KASHMIR BANK LIMITED",JAKA0ESEMNA,182051414,"NHPC KISHTWAR","SEMA COLONY",7298004737,"CHENAB NAGAR",KISHTWAR,"JAMMU AND KASHMIR"
"JAMMU AND KASHMIR BANK LIMITED",JAKA0ESANIK,193051404,"SAINIK SCHOOL MANASBAL",BARSOO,8803001802,"SAINIK SCHOOL MANASBAL",GANDERBAL,"JAMMU AND KASHMIR"
"JAMMU AND KASHMIR BANK LIMITED",JAKA0ESAMBA,180051039,"MAIN BAZAR SAMBA","MAIN BAZAR SAMBA",217925,SAMBA,SAMBA,"JAMMU AND KASHMIR"
"JAMMU AND KASHMIR BANK LIMITED",JAKA0ESADER,190051017,"SADAR COURT SRINAGAR","SADDER COURT PERMISES,COURT ROAD",2483607,"SADDER COURT",SRINAGAR,"JAMMU AND KASHMIR"
"JAMMU AND KASHMIR BANK LIMITED",JAKA0ERAMBN,182051308,MAITRA,"MAITRA RAMBAN",9906202040,"MAITRA RAMBAN",RAMBAN,"JAMMU AND KASHMIR"
"JAMMU AND KASHMIR BANK LIMITED",JAKA0ERAILH,180051051,"RAIL HEAD COMPLEX JAMMU","PANAMA CHOWK",2470778,"RAIL HEAD COMPLEX",JAMMU,"JAMMU AND KASHMIR"
"JAMMU AND KASHMIR BANK LIMITED",JAKA0EPONCH,185051115,"POONCH CITY","POLICE CONTROL ROOM,POONCH",9858516016,"MAIN BAZAR POONCH",POONCH,"JAMMU AND KASHMIR"
"JAMMU AND KASHMIR BANK LIMITED",JAKA0EOSJAM,180051045,"OLD SECRETARIAT  JAMMU","OLD SECRETRAIT PANJTRITHI",2579036,"OLD SECRETRAIT JAMMU",JAMMU,"JAMMU AND KASHMIR"
"JAMMU AND KASHMIR BANK LIMITED",JAKA0ENSMCE,180051043,"NSM PATTA BOHRI JAMMU","NSM COLLEGE OF EDUCATION,PATTA BOHRI",2503740,"NSM COLLEGE JAMMU",JAMMU,"JAMMU AND KASHMIR"
"JAMMU AND KASHMIR BANK LIMITED",JAKA0ENPORA,192051126,"NOORPORA (TRAL)","NOORPORA TRAL,TEHSIL AWANTIPORA",8803051659,"NOORPORA, TRAL",PULWAMA,"JAMMU AND KASHMIR"
"JAMMU AND KASHMIR BANK LIMITED",JAKA0ENAMBL,190051075,"NAMBLABAL PAMPORE",NAMLABAL,223930,"E/C NAMLABAL",PULWAMA,"JAMMU AND KASHMIR"
"JAMMU AND KASHMIR BANK LIMITED",JAKA0EMUNDA,192051062,"LOWER MUNDA","TOLL POST LOWER MUNDA",9419568665,"LOWER MUNDA, QAZIGUND",ANANTNAG,"JAMMU AND KASHMIR"
"JAMMU AND KASHMIR BANK LIMITED",JAKA0EMPIRE,192051007,"T P ANANTNAG","TEHSIL ROAD",222282,T.P.ANANTNAG,ANANTNAG,"JAMMU AND KASHMIR"
"JAMMU AND KASHMIR BANK LIMITED",JAKA0EMCJAM,180051041,"SMGS HOSPITAL JAMMU","SMGS HOSPITAL,SHALIMAR ROAD",2566502,"SMGS HOSPITAL",JAMMU,"JAMMU AND KASHMIR"
"JAMMU AND KASHMIR BANK LIMITED",JAKA0ELUXUR,180051042,"J&K BOSE REHARI","RAJ PORA REHARI",2565147,"J&K BOSE ,JAMMU",JAMMU,"JAMMU AND KASHMIR"
"JAMMU AND KASHMIR BANK LIMITED",JAKA0ELINES,180051018,"DISTT POLICE LINES JAMMU","DIST. POLICE LINE JAMMU",2452796,"GHANDHI NAGAR, JAMMU",JAMMU,"JAMMU AND KASHMIR"
"JAMMU AND KASHMIR BANK LIMITED",JAKA0ELAGAM,193051035,"LAGAMA URI","TEHSIL URI,",9906886646,"T.P. LAGAMA",BARAMULLA,"JAMMU AND KASHMIR"
"JAMMU AND KASHMIR BANK LIMITED",JAKA0EKUTAM,184051010,"KUTA MOR","EXTENSION COUNTER: KOOTAH",2249090,KATHUA,KATHUA,"JAMMU AND KASHMIR"
"JAMMU AND KASHMIR BANK LIMITED",JAKA0EKHREW,192051107,"JK CEMENT KHREW","J&KBANK LTD;EXTENSION COUNTER KHREW,CAMP: JK CEMENTS LTD.",245270,PULWAMA,PULWAMA,"JAMMU AND KASHMIR"
"JAMMU AND KASHMIR BANK LIMITED",JAKA0EKCJAM,180051027,"KC PUBLIC SCHOOL JAMMU","KC PUBLIC SCHOOL",2503731,JAMMU,JAMMU,"JAMMU AND KASHMIR"
"JAMMU AND KASHMIR BANK LIMITED",JAKA0EKATRA,182051201,"ADH KUWARI","ADHKWARI, KATRA,  DIST",283332,KATRA,REASI,"JAMMU AND KASHMIR"
"JAMMU AND KASHMIR BANK LIMITED",JAKA0EKARUL,194051005,KAROO,KAROO,249241,"KARU LEH",LEH,"JAMMU AND KASHMIR"
"JAMMU AND KASHMIR BANK LIMITED",JAKA0EJVBEM,190051018,"JVMC SRINAGAR",BEMINA,2491841,"JVC HOSPITAL",SRINAGAR,"JAMMU AND KASHMIR"
"JAMMU AND KASHMIR BANK LIMITED",JAKA0EGROTA,184051013,GUJROO,"TEHSIL BILAWAR",224268,"GUJROO NAGROTA",KATHUA,"JAMMU AND KASHMIR"
"JAMMU AND KASHMIR BANK LIMITED",JAKA0EGOUSH,193051024,GOUSHBUG,"GOSHBUGH, PATTAN",7298004472,"GOSHBUGH, PATTAN",BARAMULLA,"JAMMU AND KASHMIR"
"JAMMU AND KASHMIR BANK LIMITED",JAKA0EGMARG,193051037,GULMARG,GULMARG,7298004545,GULMARG,BARAMULLA,"JAMMU AND KASHMIR"
"JAMMU AND KASHMIR BANK LIMITED",JAKA0EGCENG,180051027,"GOVT. COLLEGE FOR ENGG & TECH JAMMU","E/C GCET,CANAL ROAD",2562927,JAMMU,JAMMU,"JAMMU AND KASHMIR"
"JAMMU AND KASHMIR BANK LIMITED",JAKA0EGANDI,180051044,"TP SHASTRI NAGAR JAMMU","371-372, SHASTRI NAGAR",7298004460,"T.P. SHASTRI",JAMMU,"JAMMU AND KASHMIR"
"JAMMU AND KASHMIR BANK LIMITED",JAKA0EDREAM,182051015,MANWAL,"MANWAL, UDHAMPUR,",7298004651,"MANWAL, UDHAMPUR, JAMMU",UDHAMPUR,"JAMMU AND KASHMIR"
"JAMMU AND KASHMIR BANK LIMITED",JAKA0EDOCOM,193051224,"DC  OFFICE COMPEX KUPWARA","D.C OFFICE COMPLEX KUPWARA",7298004504,"DC COMPEX KUPWARA",KUPWARA,"JAMMU AND KASHMIR"
"JAMMU AND KASHMIR BANK LIMITED",JAKA0EDANGA,182051017,"KAMBAL DANGA","SUNARI ROAD KAMAL DANGA",7298004629,"KAMBAL DANGA, UDHAMPUR",UDHAMPUR,"JAMMU AND KASHMIR"
"JAMMU AND KASHMIR BANK LIMITED",JAKA0ECZEWN,190051092,ZEWAN,"ZEVAN  PANTHA CHOWK",9419070314,ZEWAN,SRINAGAR,"JAMMU AND KASHMIR"
"JAMMU AND KASHMIR BANK LIMITED",JAKA0ECSOPR,193051112,"CHINKIPORA SOPORE","CHINKIPORA , SOPORE",7298004391,"CHINKIPORA , SOPORE",BARAMULLA,"JAMMU AND KASHMIR"
"JAMMU AND KASHMIR BANK LIMITED",JAKA0ECROOM,190051093,"PCR BATAMALOO","POLICE CONTROL ROOM",2450891,"PCR BATMALOO,SRINAGAR",SRINAGAR,"JAMMU AND KASHMIR"
"JAMMU AND KASHMIR BANK LIMITED",JAKA0ECNBAL,191051104,NAGBAL,"NEAR PETROL PUMP NAGBAL",2262605,NAGBAL,GANDERBAL,"JAMMU AND KASHMIR"
"JAMMU AND KASHMIR BANK LIMITED",JAKA0ECIUST,NA,"ISLAMIC UNIVERSITY OF SCIENCE & TECHNOLOGY","ISLAMIC UNIVERSITY OF SCIENCE AND TECHNLOGY",9419022251,AWANTIPORA,PULWAMA,"JAMMU AND KASHMIR"
"JAMMU AND KASHMIR BANK LIMITED",JAKA0ECHEST,190051016,"CHEST DISEASE HOSPITAL SRINAGAR","DALGATE,",2476422,C.D.HOSPITAL,SRINAGAR,"JAMMU AND KASHMIR"
"JAMMU AND KASHMIR BANK LIMITED",JAKA0ECDPAN,192051007,"POLICE LINES KHANABAL","POLICE LINES, KHANNABAL",227804,"POLICE LINES, KHANNABAL",ANANTNAG,"JAMMU AND KASHMIR"
"JAMMU AND KASHMIR BANK LIMITED",JAKA0EBATRA,180051046,"BATRA HOSPITAL JAMMU","ASCOMS HOSPITAL SIDHRA",2662603,"BATRA HOSPITAL",JAMMU,"JAMMU AND KASHMIR"
"JAMMU AND KASHMIR BANK LIMITED",JAKA0EBAROO,194051024,"TP BAROO","BAROO KARGIL",9419819720,"BAROO KARGIL",KARGIL,"JAMMU AND KASHMIR"
"JAMMU AND KASHMIR BANK LIMITED",JAKA0EBARJN,180051038,"BARJANI MEEN CHARKAN, MAHEEN","POST OFFICE SMAILPUR",9419212677,"BARJANI TALAB, MAHEEN",SAMBA,"JAMMU AND KASHMIR"
"JAMMU AND KASHMIR BANK LIMITED",JAKA0EAURSP,180051087,"SKUAST  CHATTA","SKUAST CHATTA",9419205500,"SKUAST CHATTA",JAMMU,"JAMMU AND KASHMIR"
"JAMMU AND KASHMIR BANK LIMITED",JAKA0EARNIA,180051068,ARNIA,"BILLS & POST OFFICE ARNIA NEAR POLICE STATION",2727712,"ARNIA BISHNA",JAMMU,"JAMMU AND KASHMIR"
"JAMMU AND KASHMIR BANK LIMITED",JAKA0EAKNOR,180051064,"T P AKHNOOR","TEHSIL OFFICE  AKHNOOR",253546,T.P.AKHNOOR,JAMMU,"JAMMU AND KASHMIR"
"JAMMU AND KASHMIR BANK LIMITED",JAKA0DWMARG,192051050,"DANEW KANDIMARG","DANEW KANDI MARG TEHSIL DAMHAL HANJIPO",9906638900,"DANEW KANDIMARG",KULGAM,"JAMMU AND KASHMIR"
"JAMMU AND KASHMIR BANK LIMITED",JAKA0DWARKA,110051028,"DWARKA DELHI","ASHISH PLAZA, PLOT NO. 2, POCKET 7,SECTOR 12, DWARKA",11,DWARKA,DELHI,DELHI
"JAMMU AND KASHMIR BANK LIMITED",JAKA0DURBUK,194051013,DURBUK,"DURBUK LEH",9469190202,"DURBUK LEH",LEH,"JAMMU AND KASHMIR"
"JAMMU AND KASHMIR BANK LIMITED",JAKA0DUDWAR,NA,DUDWAR,"GANDOH BHALESA, TEHSIL GANDOH, DODA, JK PIN 182203",9596752080,"GANDOH BHALESA",DODA,"JAMMU AND KASHMIR"
"JAMMU AND KASHMIR BANK LIMITED",JAKA0DUDRHM,191051109,DUDERHAMA,"TAWHEED MARKET NEAR QAMRIA PARK",2416530,"DUDERHAMA GANDERBAL",GANDERBAL,"JAMMU AND KASHMIR"
"JAMMU AND KASHMIR BANK LIMITED",JAKA0DUBGAM,192051117,DRABGAM,"TEHSIL PULWAMA",276103,"DRABGAM PULWAMA,",PULWAMA,"JAMMU AND KASHMIR"
"JAMMU AND KASHMIR BANK LIMITED",JAKA0DSHALA,176051102,DHARAMSHALA,"KOTWALI BAZAR,",2228075,"DHARAM SHALLA",KANGRA,"HIMACHAL PRADESH"
"JAMMU AND KASHMIR BANK LIMITED",JAKA0DRGMUL,193051215,DRAGMULLAH,"NEAR R.T.O OFFICE",9622841778,DRAGMULLAH,KUPWARA,"JAMMU AND KASHMIR"
"JAMMU AND KASHMIR BANK LIMITED",JAKA0DRABLA,182051110,DRABSHALLA,"DRABSHALLA,DODA,J AND K",7298004764,DRABSHALLA,KISHTWAR,"JAMMU AND KASHMIR"
"JAMMU AND KASHMIR BANK LIMITED",JAKA0DORSUM,NA,"DORSUMA MANIGAM","DORSUMA MANIGAM,DISTRICT GANDERBAL,TEHSIL LAR,PIN 191201",9906664830,MANIGAM,GANDERBAL,"JAMMU AND KASHMIR"
"JAMMU AND KASHMIR BANK LIMITED",JAKA0DOOROO,192051016,"DOORU SHAHABAD","DOORU SHAHABAD",230235,"DOORU SHAHABAD,ANANTNAG",ANANTNAG,"JAMMU AND KASHMIR"
"JAMMU AND KASHMIR BANK LIMITED",JAKA0DOMANA,180051083,DOMANA,"POST OFFICE DOMANA",9419112240,"JAMMU-AKHNOOR ROAD",JAMMU,"JAMMU AND KASHMIR"
"JAMMU AND KASHMIR BANK LIMITED",JAKA0DOCTOR,190051023,"GOVT MEDICAL COLLEGE SRINAGAR","GOVERNMENT MEDICAL COLLEGE,KARAN NAGAR",2453479,GMC,SRINAGAR,"JAMMU AND KASHMIR"
"JAMMU AND KASHMIR BANK LIMITED",JAKA0DLFGUR,110051020,"DLF GURGAON","A-6&7, SHOPPING MALL, ARJUN MARG,DLF PHASE I, GURGAON",2563950,"DLF GURGAON",GURGAON,HARYANA
"JAMMU AND KASHMIR BANK LIMITED",JAKA0DISKIT,194051006,"DISKIT NOBRA","DISKIT NOBRA LEH",220044,"DISKIT NOBRA LEH",LEH,"JAMMU AND KASHMIR"
"JAMMU AND KASHMIR BANK LIMITED",JAKA0DIALGM,192051025,DIALGAM,"NEAR HR. SEC.SCHOOL DIALGAM",222928,DIALGAM,ANANTNAG,"JAMMU AND KASHMIR"
"JAMMU AND KASHMIR BANK LIMITED",JAKA0DHAVER,193051403,"DAWER GUREZ","DAVER GUREZ,DISTRICT BANDIPORA,J AND K",9419708754,DAVER,BANDIPORA,"JAMMU AND KASHMIR"
"JAMMU AND KASHMIR BANK LIMITED",JAKA0DHASTI,182051404,DULHASTI,"DULHASTI KISHTWAR",7298004441,"DULHASTI,KISHTWAR",KISHTWAR,"JAMMU AND KASHMIR"
"JAMMU AND KASHMIR BANK LIMITED",JAKA0DHARMA,182051254,DHARMARI,"P.O DHARMARI TAHSIL MAHORE",9419214916,DHARMARI,REASI,"JAMMU AND KASHMIR"
"JAMMU AND KASHMIR BANK LIMITED",JAKA0DHANGI,193051009,DANGIWACHA,"DANGIWACHA  BARAMULLA",7298004560,"DANGIWACHA,BARAMULLA",BARAMULLA,"JAMMU AND KASHMIR"
"JAMMU AND KASHMIR BANK LIMITED",JAKA0DEVSAR,192051032,DEVSAR,KULGAM,212715,"DEVSAR KULGAM",KULGAM,"JAMMU AND KASHMIR"
"JAMMU AND KASHMIR BANK LIMITED",JAKA0DEVAAR,NA,DEVAR,"DEVAR,LOLAB,DISTRICT KUPWARA,BLOCK SOGAM,KASHMIR,J AND K PIN 193223",0,SOGAM,KUPWARA,"JAMMU AND KASHMIR"
"JAMMU AND KASHMIR BANK LIMITED",JAKA0DESIRE,192051021,SAGAM,"MAIN ROAD, SAGAM TEHSIL KOKERNAG",244136,"SAGAM ANANTNAG",ANANTNAG,"JAMMU AND KASHMIR"
"JAMMU AND KASHMIR BANK LIMITED",JAKA0DESERT,192051034,CHATTERGUL,ANANTNAG,210266,"CHATURGUL ANANTNAG",ANANTNAG,"JAMMU AND KASHMIR"
"JAMMU AND KASHMIR BANK LIMITED",JAKA0DERBAB,182051260,"DERA BABA BANDA BAHADUR","DERA BABA BANDA BAHADUR,DISTRICT REASI,JANDK",9419160321,"DEAR BABA BANDA BAHADUR",REASI,"JAMMU AND KASHMIR"
"JAMMU AND KASHMIR BANK LIMITED",JAKA0DEHWAT,NA,DEHWATHU,"DACHNIPORA, PAHALGAM, ANANTNAG, KASHMIR, JAMMU AND KASHMIR PIN 192401",9469493700,DEHTU,ANANTNAG,"JAMMU AND KASHMIR"
"JAMMU AND KASHMIR BANK LIMITED",JAKA0DEESSA,182051104,DESA,"OPPOSITE POST OFFICE DODA",7298004717,"DESSA, DODA",DODA,"JAMMU AND KASHMIR"
"JAMMU AND KASHMIR BANK LIMITED",JAKA0DEDOON,248051002,DEHRADUN,"56-RAJPUR ROAD,",2741027,DEHRADUN,"DEHRA DUN",UTTARAKHAND
"JAMMU AND KASHMIR BANK LIMITED",JAKA0DECODE,182051101,DODA,"DODA MAIN",7298004727,"DODA MAIN",DODA,"JAMMU AND KASHMIR"
"JAMMU AND KASHMIR BANK LIMITED",JAKA0DECENT,192051112,WANPORA,"P/O HUNIPORA WANPORA PAMPORA KASHMIR",237352,"WANPORA PULWAMA",PULWAMA,"JAMMU AND KASHMIR"
"JAMMU AND KASHMIR BANK LIMITED",JAKA0DEALER,400051001,RTGS-HO,"NATIONAL BUSINESS CENTRE, 3RD & 4TH FLOOR, BANDRA KURLA COMPLEX, BANDRA (EAST)",26384105,MUMBAI,MUMBAI,MAHARASHTRA
"JAMMU AND KASHMIR BANK LIMITED",JAKA0DCREAS,NA,"DC OFFICE REASI","DC OFFICE REASI,DISTRICT REASI,TEHSIL REASI,JAMMU,J AND K PIN 182311",0,REASI,REASI,"JAMMU AND KASHMIR"
"JAMMU AND KASHMIR BANK LIMITED",JAKA0DAYAAL,184051025,DAYALACHAK,DAYALACHAK,9419623181,"MAIN ROAD, NATIONAL HIGHWAY",KATHUA,"JAMMU AND KASHMIR"
"JAMMU AND KASHMIR BANK LIMITED",JAKA0DARHAL,185051004,DARHAL,"NEAR BUS STAND DARHAL",240240,DARHAL,RAJOURI,"JAMMU AND KASHMIR"
"JAMMU AND KASHMIR BANK LIMITED",JAKA0DARASS,194051017,DRASS,"QATELGAH, MAIN BAZAR DRASS",274040,"DARASS KARGIL LADAKH",KARGIL,"JAMMU AND KASHMIR"
"JAMMU AND KASHMIR BANK LIMITED",JAKA0DANSAL,180051091,DANSAL,P.O-DANSAL,2669177,"MAIN ROAD DANSAL",JAMMU,"JAMMU AND KASHMIR"
"JAMMU AND KASHMIR BANK LIMITED",JAKA0DANGRI,NA,DHANGRI,"DHANGRI, POST OFFICE-DHANGRI, TEHSIL & DISTRICT-RAJOURI, JK, PIN-185132",9858816891,DHANGRI,RAJOURI,"JAMMU AND KASHMIR"
"JAMMU AND KASHMIR BANK LIMITED",JAKA0DAMHAL,192051018,"DAMHAL HANJIPORA","TEHSIL, DAMHAL HANJIPORA",212404,"DAMHAL, HANJIPORA",KULGAM,"JAMMU AND KASHMIR"
"JAMMU AND KASHMIR BANK LIMITED",JAKA0DALSAR,NA,DALSAR,"VPO DALSAR, DISTRICT UDHAMPUR, TEHSIL RAMNAGAR, JAMMU, JK PIN 182122",9906163038,UDHAMPUR,UDHAMPUR,"JAMMU AND KASHMIR"
"JAMMU AND KASHMIR BANK LIMITED",JAKA0DALORI,185051011,DALHORI,"DALHORI, RAJOURI",9419171016,"DALHORI,RAJOURI",RAJOURI,"JAMMU AND KASHMIR"
"JAMMU AND KASHMIR BANK LIMITED",JAKA0DALINA,193051007,DELINA,"DALINA BARAMULLA",7298004464,DALINA,BARAMULLA,"JAMMU AND KASHMIR"
"JAMMU AND KASHMIR BANK LIMITED",JAKA0DALGAT,190051015,"DALGATE SRINAGAR","BOULEVARD ROAD",2452997,DALGATE,SRINAGAR,"JAMMU AND KASHMIR"
"JAMMU AND KASHMIR BANK LIMITED",JAKA0DADSAR,192051122,DADSAR,"DADSAR TRAL PULWAMA",9419948827,"DADSAR TRAL PULWAMA",PULWAMA,"JAMMU AND KASHMIR"
"JAMMU AND KASHMIR BANK LIMITED",JAKA0DADAOM,191051029,"DADA OMPORA",CHADORA,7298004313,"DADA OMPORA",BUDGAM,"JAMMU AND KASHMIR"
"JAMMU AND KASHMIR BANK LIMITED",JAKA0DACHAN,182051407,DACHAN,DACHAN,0,KISHTWAR,KISHTWAR,"JAMMU AND KASHMIR"
"JAMMU AND KASHMIR BANK LIMITED",JAKA0DABHAR,180051082,DABLEHAR,"MAIN BAZAR, VPO DABLEHAR TEHSIL R. S. PURA",9858281615,JAMMU,JAMMU,"JAMMU AND KASHMIR"
"JAMMU AND KASHMIR BANK LIMITED",JAKA0DABGNB,NA,DAB,"DAB GANDERBAL TEHSIL WAKURA DISTRICT GANDERBAL KASHMIR PINCODE 191131",9419077864,GANDERBAL,GANDERBAL,"JAMMU AND KASHMIR"
"JAMMU AND KASHMIR BANK LIMITED",JAKA0CRSHOP,NA,"COURT ROAD SHOPIAN","COURT ROAD SHOPIAN, TEHSIL & DISTRICT-SHOPIAN, KASHMIR , J&K, PIN-192303",9906685080,SHOPIAN,SHOPIAN,"JAMMU AND KASHMIR"
"JAMMU AND KASHMIR BANK LIMITED",JAKA0CRMAGM,191051018,"COURT ROAD MAGAM","COURT ROAD MAGAM,J AND K",9906414330,"COURT ROAD MAGAM",BUDGAM,"JAMMU AND KASHMIR"
"JAMMU AND KASHMIR BANK LIMITED",JAKA0COUPLE,NA,"ZONAL OFFICE JAMMU CENTRAL","RAIL HEAD COMPLEX JAMMU JAMMU AND KASHMIR 180012",2473917,JAMMU,JAMMU,"JAMMU AND KASHMIR"
"JAMMU AND KASHMIR BANK LIMITED",JAKA0COMTOR,641051002,COIMBATORE,"229 TB SWAMY ROAD,RS PURAM",2542967,COIMBATORE,COIMBATORE,"TAMIL NADU"
"JAMMU AND KASHMIR BANK LIMITED",JAKA0COMTAX,NA,"COMMERCIAL TAXES DEPARTMENT","SILK FACTORY ROAD, SOLINA",9906667425,"COMMERCIAL TAXES DEPTT.",SRINAGAR,"JAMMU AND KASHMIR"
"JAMMU AND KASHMIR BANK LIMITED",JAKA0COLONY,193051104,"NEW COLONY SOPORE","NEW COLONY",222464,"NEW COLONY SOPORE",BARAMULLA,"JAMMU AND KASHMIR"
"JAMMU AND KASHMIR BANK LIMITED",JAKA0COLLEG,190051030,"ISLAMIA COLLEGE SRINAGAR","ISLAMIA COLLEGE ROAD",2422149,"ISLAMIA COLLEGE",SRINAGAR,"JAMMU AND KASHMIR"
"JAMMU AND KASHMIR BANK LIMITED",JAKA0CNDOSA,193051025,CHANDOSA,"CHANDOSA,BARAMULLA,J AND K",7298004388,"CHANDOOSA, BARAMULLA",BARAMULLA,"JAMMU AND KASHMIR"
"JAMMU AND KASHMIR BANK LIMITED",JAKA0CKATRA,182051204,"ARLI KATRA","CHANDI BORH ARLI ROAD KATRA",9086060609,"ARLI KATRA",REASI,"JAMMU AND KASHMIR"
"JAMMU AND KASHMIR BANK LIMITED",JAKA0CIRCUS,110051007,"CANNAUGHT PLACE DELHI","G-40 , IST FLOOR",23352098,"CANNOUGHT PLACE",DELHI,DELHI
"JAMMU AND KASHMIR BANK LIMITED",JAKA0CIRCLE,110051001,"R C C NEW DELHI","1/7,EMPORIA BUILDING,BABA KHARK SINGH MARG",26252361,"NEW DELHI",DELHI,DELHI
"JAMMU AND KASHMIR BANK LIMITED",JAKA0CIDWAL,184051008,NA,"VILLALGE CHIDWAL TEHSIL HIRA NAGAR",255033,"CHIDWAL KATHUA",KATHUA,"JAMMU AND KASHMIR"
"JAMMU AND KASHMIR BANK LIMITED",JAKA0CHTBAL,190051090,CHATTABAL,CHATTABAL,9697018547,BAGHIYAS,SRINAGAR,"JAMMU AND KASHMIR"
"JAMMU AND KASHMIR BANK LIMITED",JAKA0CHQIBR,NA,"IBR DEPARTMENT CHQ","HARI SINGH HIGH STREET",2481941,SRINAGAR,SRINAGAR,"JAMMU AND KASHMIR"
"JAMMU AND KASHMIR BANK LIMITED",JAKA0CHQCSC,NA,"COMMON SERVICE CENTRE DEPTT.","HRD, CORPORATE HEADQUARTERS, M A ROAD",2486423,SRINAGAR,SRINAGAR,"JAMMU AND KASHMIR"
"JAMMU AND KASHMIR BANK LIMITED",JAKA0CHOOSE,180051003,"BARI BRAHMNA","NATIONAL HIGHWAY",220874,"BARI BRAHAMANA",SAMBA,"JAMMU AND KASHMIR"
"JAMMU AND KASHMIR BANK LIMITED",JAKA0CHOORA,193051034,CHOORA,PATTAN,9906664854,CHOORA,BARAMULLA,"JAMMU AND KASHMIR"
"JAMMU AND KASHMIR BANK LIMITED",JAKA0CHOKBL,193051221,CHOWKIBAL,"CHOWKIBAL,DISTRICT KUPWARA,PIN CODE 193224",9906849975,CHOWKIBAL,KUPWARA,"JAMMU AND KASHMIR"
"JAMMU AND KASHMIR BANK LIMITED",JAKA0CHOHAN,NA,"CHOWKI HANDAN","CHOWKI HANDAN, POST OFFICE-CHOWKI, TEHSIL-NOWSHERA, DISTRICT-RAJOURI, JK, PIN-185151",9906104003,NOWSHERA,RAJOURI,"JAMMU AND KASHMIR"
"JAMMU AND KASHMIR BANK LIMITED",JAKA0CHNDAR,182051303,CHANDERKOT,"CHANDERKOTE RAMBAN",7298004728,CHANDERKOTE,RAMBAN,"JAMMU AND KASHMIR"
"JAMMU AND KASHMIR BANK LIMITED",JAKA0CHNANI,182051007,CHENANI,UDHAMPUR,7298000462,CHANANI,UDHAMPUR,"JAMMU AND KASHMIR"
"JAMMU AND KASHMIR BANK LIMITED",JAKA0CHKTAN,194051011,CHIKTAN,"THE JAMMU AND KASHMIR BANK LTD,BLOCK SHAKAR CHIKTAN",1985,CHIKTAN,KARGIL,"JAMMU AND KASHMIR"
"JAMMU AND KASHMIR BANK LIMITED",JAKA0CHKANA,NA,"CHAK KANA","TEHSIL - MARH , DISTRICT - JAMMU , PIN - 181206",9419425046,JAMMU,JAMMU,"JAMMU AND KASHMIR"
"JAMMU AND KASHMIR BANK LIMITED",JAKA0CHITRA,NA,CHITRAGAM,"CHITRAGAM, SHOPIAN, KASHMIR, JK PIN 191201",9858796111,SHOPIAN,PULWAMA,"JAMMU AND KASHMIR"
"JAMMU AND KASHMIR BANK LIMITED",JAKA0CHITER,193051223,CHITRAKOTE,TANGDAR,1958,CHITRAKOTE,KUPWARA,"JAMMU AND KASHMIR"
"JAMMU AND KASHMIR BANK LIMITED",JAKA0CHINTA,NA,CHINTA,"CHHANI CHINTA, BLOCK & TEHSIL- BHADERWAH, DISTRICT-DODA,├╜ PIN-182222",9906333034,BHADERWAH,DODA,"JAMMU AND KASHMIR"
"JAMMU AND KASHMIR BANK LIMITED",JAKA0CHINAR,190051056,"RESIDENCY  ROAD SRINAGAR","LAL CHOWK",2480034,"RESIDENCY ROAD",SRINAGAR,"JAMMU AND KASHMIR"
"JAMMU AND KASHMIR BANK LIMITED",JAKA0CHIGAM,NA,CHINGAM,"CHATRO, KISHTWAR, JAMMU, JAMMU AND KASHMIR PIN 182205",9419188086,CHATROO,DODA,"JAMMU AND KASHMIR"
"JAMMU AND KASHMIR BANK LIMITED",JAKA0CHERSO,NA,CHERSOO,"CHERSOO, BLOCK & TEHSIL-AWANTIPORA, DISTRICT-PULWAMA, J&K, PIN-192122",9906542493,AWANTIPURA,PULWAMA,"JAMMU AND KASHMIR"
"JAMMU AND KASHMIR BANK LIMITED",JAKA0CHERRY,180051007,"FRUIT COMPLEX JAMMU","FRUIT COMPLEX",2476282,"FRUIT COMPLEX",JAMMU,"JAMMU AND KASHMIR"
"JAMMU AND KASHMIR BANK LIMITED",JAKA0CHEENI,192051004,"CHEENI CHOWK ANANTNAG","CHEENI CHOWK ANANTNAG",222552,"CHEENI CHOWK",ANANTNAG,"JAMMU AND KASHMIR"
"JAMMU AND KASHMIR BANK LIMITED",JAKA0CHECKI,NA,CHECKI-CHOLAN,"CHECKI-CHOLAN, BLOCK HERMAN, TEHSIL HERMAN, DISTRICT SHOPIAN, KASHMIR  PIN-192303",9797991258,HARMAN,SHOPIAN,"JAMMU AND KASHMIR"
"JAMMU AND KASHMIR BANK LIMITED",JAKA0CHDUNA,191051102,CHUNDUNA,SHALLABUG,9797034419,CHANDUNA,GANDERBAL,"JAMMU AND KASHMIR"
"JAMMU AND KASHMIR BANK LIMITED",JAKA0CHBTRA,180051006,"CHOWK CHABUTRA JAMMU","CHOWK CHABUTRA",2543457,"CHOWK CHABUTRA",JAMMU,"JAMMU AND KASHMIR"
"JAMMU AND KASHMIR BANK LIMITED",JAKA0CHAWRI,110051004,"CHAWRI BAZAR DELHI","3462-GALI BAJRANG BALI",23272400,"CHAWRI BAZAR",DELHI,DELHI
"JAMMU AND KASHMIR BANK LIMITED",JAKA0CHAWAL,192051306,CHAWALGAM,"Chawalgam,District Kulgam,J AND K Pin code 192231",9858431219,CHAWALGAM,KULGAM,"JAMMU AND KASHMIR"
"JAMMU AND KASHMIR BANK LIMITED",JAKA0CHATRO,182051403,CHATROO,"CHATROO, KISTHWAR",7298004722,"CHATROO, KISTHWAR",KISHTWAR,"JAMMU AND KASHMIR"
"JAMMU AND KASHMIR BANK LIMITED",JAKA0CHATGB,191051115,CHATTERGUL,TEHSIL-KANGAN,9596377275,CHATTERGUL,GANDERBAL,"JAMMU AND KASHMIR"
"JAMMU AND KASHMIR BANK LIMITED",JAKA0CHATER,191051034,CHATTERGAM,TEHSIL-CHADURA,9419018867,CHATTERGAM,BUDGAM,"JAMMU AND KASHMIR"
"JAMMU AND KASHMIR BANK LIMITED",JAKA0CHASAN,182051020,CHASANA,"P/O GOTA TEHSIL MAHORE",9697244824,CHASANA,REASI,"JAMMU AND KASHMIR"
"JAMMU AND KASHMIR BANK LIMITED",JAKA0CHARPR,191051020,CHARRIPORA,"TEHSIL CHARISHARIEF",9906501917,CHARIPORA,BUDGAM,"JAMMU AND KASHMIR"
"JAMMU AND KASHMIR BANK LIMITED",JAKA0CHANPO,190051013,"CHANNAPORA SRINAGAR",CHANAPORA,2441481,CHANAPORA,SRINAGAR,"JAMMU AND KASHMIR"
"JAMMU AND KASHMIR BANK LIMITED",JAKA0CHANGA,182051118,CHANGA,"CHANGA BHALESSA - DODA",2580578,"CHANGA BHALESSA, DODA",DODA,"JAMMU AND KASHMIR"
"JAMMU AND KASHMIR BANK LIMITED",JAKA0CHANDK,185051113,CHANDAK,TEHSIL-HAVELI,9419175212,CHANDAK,POONCH,"JAMMU AND KASHMIR"
"JAMMU AND KASHMIR BANK LIMITED",JAKA0CHANDI,185051109,CHANDIMARH,"CHANDIMARH,TEHSIL SURANKOTE,DISTRICT POONCH,JANDK PIN 185121",9858138430,CHANDIMARH,POONCH,"JAMMU AND KASHMIR"
"JAMMU AND KASHMIR BANK LIMITED",JAKA0CHAKMA,180051067,CHAKMALAL,"CHAK MALAL (KHOUR),",24243118,"CHAK MALAL, JAMMU",JAMMU,"JAMMU AND KASHMIR"
"JAMMU AND KASHMIR BANK LIMITED",JAKA0CHAGAM,WAITING,CHOWGAM,CHOWGAM,9419945351,"NEAR EID GAH",KULGAM,"JAMMU AND KASHMIR"
"JAMMU AND KASHMIR BANK LIMITED",JAKA0CHADUR,191051007,CHADURA,"TEHSIL CHADOORA BUDGAM",230226,"CHADOORA BUDGAM",BUDGAM,"JAMMU AND KASHMIR"
"JAMMU AND KASHMIR BANK LIMITED",JAKA0CHADOO,191051035,"HOSPITAL ROAD CHADOORA",CHADOORA,9906527928,"HOSPITAL ROAD CHADOORA",BUDGAM,"JAMMU AND KASHMIR"
"JAMMU AND KASHMIR BANK LIMITED",JAKA0CENTRE,190051001,"RCC SRINAGAR","RESIDENCY ROAD",2478064,SRINAGAR,SRINAGAR,"JAMMU AND KASHMIR"
"JAMMU AND KASHMIR BANK LIMITED",JAKA0CEMENT,192051107,KHREW,"KHREW PAMPORE",245270,KHREW,PULWAMA,"JAMMU AND KASHMIR"
"JAMMU AND KASHMIR BANK LIMITED",JAKA0CAREER,192051014,MATTAN,"MATTAN ANANTNAG",227223,MATTAN,ANANTNAG,"JAMMU AND KASHMIR"
"JAMMU AND KASHMIR BANK LIMITED",JAKA0CANDLE,190051043,"NAWA KADAL SRINAGAR",NAWAKADAL,2420657,NAWAKADAL,SRINAGAR,"JAMMU AND KASHMIR"
"JAMMU AND KASHMIR BANK LIMITED",JAKA0CANADA,193051015,CHANDANWARI,"TEHSIL BONIYAR",7298004561,"CHANDANWARI, URI",BARAMULLA,"JAMMU AND KASHMIR"
"JAMMU AND KASHMIR BANK LIMITED",JAKA0CANAAL,180051018,"NEW UNIVERSITY CAMPUS JAMMU","UNIVERSITY OF JAMMU,RAILWAY ROAD,",2458663,"NEW UNIVERSITY CAMPUS",JAMMU,"JAMMU AND KASHMIR"
"JAMMU AND KASHMIR BANK LIMITED",JAKA0CAMPUS,180051027,"CANAL ROAD JAMMU","CANNAL ROAD",2565590,"CANNAL ROAD",JAMMU,"JAMMU AND KASHMIR"
"JAMMU AND KASHMIR BANK LIMITED",JAKA0CALCAT,700051002,"KOLKATA MAIN","6 D - R.N.MUKHERJI ROAD,STEPHEN HOUSE, DALHOUSIE SQUARE",22485457,"R.N.MUKHERJI ROAD",KOLKATA,"WEST BENGAL"
"JAMMU AND KASHMIR BANK LIMITED",JAKA0BUSRAJ,185051020,"BUS STAND RAJOURI","NEAR PANJA CHOWK",9419680400,"NEW BUS STAND",RAJOURI,"JAMMU AND KASHMIR"
"JAMMU AND KASHMIR BANK LIMITED",JAKA0BUSANG,192051002,"BUS ADDA ANANTNAG","GENERAL BUS ADDA ANANTNAG",223609,"BUS ADDA ANANTNAG",ANANTNAG,"JAMMU AND KASHMIR"
"JAMMU AND KASHMIR BANK LIMITED",JAKA0BULBUL,190051052,"RAJOURI KADAL SRINAGAR","RAJOURI KADAL",2426353,"RAJOURI KADAL",SRINAGAR,"JAMMU AND KASHMIR"
"JAMMU AND KASHMIR BANK LIMITED",JAKA0BUDRAJ,185051016,BUDHAL,"THE. KOTRANKA",9419155647,"RAJNAGAR, BUDHAL",RAJOURI,"JAMMU AND KASHMIR"
"JAMMU AND KASHMIR BANK LIMITED",JAKA0BUDHAL,185051010,"KOTRANKA BUDHAL","KOTRANKA,RAJOURI",9419138021,"KOTRANKA, RAJOURI",RAJOURI,"JAMMU AND KASHMIR"
"JAMMU AND KASHMIR BANK LIMITED",JAKA0BUBBLE,192051003,"NEW MARKET ANANTNAG","NEW MARKET ,ANANTNAG",224017,ANANTNAG,ANANTNAG,"JAMMU AND KASHMIR"
"JAMMU AND KASHMIR BANK LIMITED",JAKA0BTINDI,180051085,BATHINDI,BATHINDI,2493890,"NEAR MECCA MASJID",JAMMU,"JAMMU AND KASHMIR"
"JAMMU AND KASHMIR BANK LIMITED",JAKA0BSTRAL,192051104,"BUS STAND TRAL","BUS STAND TRAL",251212,"BUS STAND TRAL",PULWAMA,"JAMMU AND KASHMIR"
"JAMMU AND KASHMIR BANK LIMITED",JAKA0BRNOTI,184051016,BARNOTI,"NATIONAL HIGHWAY",231528,BARNOTI,KATHUA,"JAMMU AND KASHMIR"
"JAMMU AND KASHMIR BANK LIMITED",JAKA0BRIDGE,182051105,"DODA PULL","KHELLANI(PULL DODA)",238333,"KHELLANI DODA",DODA,"JAMMU AND KASHMIR"
"JAMMU AND KASHMIR BANK LIMITED",JAKA0BOTSHA,190051061,"BOTSHAH MOHALLA SRINAGAR","NEAR SALFIA MASJID, BOTSHAH MOHALLA,LAL BAZAR",2424906,"BOTSHAH MOHALLA",SRINAGAR,"JAMMU AND KASHMIR"
"JAMMU AND KASHMIR BANK LIMITED",JAKA0BORDER,185051101,POONCH,"NEAR GURDUWARA SINGH SABHA,",220248,"POONCH, JAMMU",POONCH,"JAMMU AND KASHMIR"
"JAMMU AND KASHMIR BANK LIMITED",JAKA0BOOGAM,192051046,BUGAM,"BSINESS UNIT BUGAM,POST OFFICE BUGAM TEHSIL",9906645399,"BUGAM KULGAM",KULGAM,"JAMMU AND KASHMIR"
"JAMMU AND KASHMIR BANK LIMITED",JAKA0BONYAR,193051021,BONIYAR,"BONIYAR, URI BARAMULLA",7298004541,"BONIYAR,URI BARAMULLA",BARAMULLA,"JAMMU AND KASHMIR"
"JAMMU AND KASHMIR BANK LIMITED",JAKA0BONJWA,182051412,BOUNJWAH(BINOON,"VILLAGE BOUNJWAHBINOON,TEHSIL AND DISTRICT KISHTWAR,J AND K PIN 182203",9622150155,"BOUNJWAH (BINOON)",KISHTWAR,"JAMMU AND KASHMIR"
"JAMMU AND KASHMIR BANK LIMITED",JAKA0BONABQ,NA,"BONA BAZAR QAZIGUND","QAZIGUND, BONA BAZAR, BLOCK / TEHSIL-QAZIGUND, DISTRICT-ANANTNAG, KASHMIR, PIN-192102",8713920833,QAZIGUND,ANANTNAG,"JAMMU AND KASHMIR"
"JAMMU AND KASHMIR BANK LIMITED",JAKA0BOMBAY,400051002,"FORT  MUMBAI","79A, MEHTA HOUSE,BOMBAY SAMACHAR MARG, GREATER MUMBAI",22610056,"FORT, MUMBAI","GREATER MUMBAI",MAHARASHTRA
"JAMMU AND KASHMIR BANK LIMITED",JAKA0BNGLOR,560051002,"INFANTRY ROAD BANGALORE","F 6-7, INFANTRY ROAD,GEM PLAZA, BANGLORE",25321979,"BANGLORE MAIN",BANGALORE,KARNATAKA
"JAMMU AND KASHMIR BANK LIMITED",JAKA0BLOOMY,192051047,SALLAR,"SALLAR ANANTNAG",211793,"SALLAR ANANTNAG",ANANTNAG,"JAMMU AND KASHMIR"
"JAMMU AND KASHMIR BANK LIMITED",JAKA0BKPORA,191051017,"BAGATI KANIPORA","BAGATI KANI PORA P/O NATIPORA",8803001930,"BAGATI KANI PORA",BUDGAM,"JAMMU AND KASHMIR"
"JAMMU AND KASHMIR BANK LIMITED",JAKA0BJHOSP,190051005,"BONE & JOINT HOSPITAL SRINAGAR","NEAR BONE & JOINT HOSPITAL",2434761,"BONE & JOINT HOSPITAL",SRINAGAR,"JAMMU AND KASHMIR"
"JAMMU AND KASHMIR BANK LIMITED",JAKA0BISHNA,180051029,BISHNA,"MAIN BAZAR, BISHNAW",236048,BISHNAW,JAMMU,"JAMMU AND KASHMIR"
"JAMMU AND KASHMIR BANK LIMITED",JAKA0BIRPUR,180051052,"NARSINGH DEVJI MANDIR IRPUR","NARSINGH DEV MANDIR,",249168,"BIRPUR ,NARSINGH DEV JI MANDIR",SAMBA,"JAMMU AND KASHMIR"
"JAMMU AND KASHMIR BANK LIMITED",JAKA0BILWAR,184051007,BILLAWAR,"MAIN BAZAR, BILAWAR",222027,"BILAWAR, KATHUA",KATHUA,"JAMMU AND KASHMIR"
"JAMMU AND KASHMIR BANK LIMITED",JAKA0BHOPAL,462051002,BHOPAL,"MIG-I, MLA QUARTERS,TT NAGAR,",2777649,BHOPAL,BHOPAL,"MADHYA PRADESH"
"JAMMU AND KASHMIR BANK LIMITED",JAKA0BHOGAL,110051030,"BHOGAL DELHI","4 BHOGAL ROAD,JANGPURA",43659600,"BHOGAL NEW DELHI",DELHI,DELHI
"JAMMU AND KASHMIR BANK LIMITED",JAKA0BHELLA,182051121,BHELLA,"TEHSIL THATRI",9419155350,BHELLA,DODA,"JAMMU AND KASHMIR"
"JAMMU AND KASHMIR BANK LIMITED",JAKA0BHAWNI,500051003,"PATHERGHATI  HYDERABAD","22-7-110 SYJ SHOPPING MALL",66712111,PATHARGATHI,HYDERABAD,"ANDHRA PRADESH"
"JAMMU AND KASHMIR BANK LIMITED",JAKA0BHATIN,151051002,BHATINDA,"SSD SABHA, THE MALL ROAD",2238986,BATHINDA,BATHINDA,PUNJAB
"JAMMU AND KASHMIR BANK LIMITED",JAKA0BHATAA,NA,"BHATA DHURIA","BHATTA DHURIA, POST OFFICE-BHATA DURIA, TEHSIL-MENDHAR, DISTRICT-POONCH, JK, PIN-185121",9622276613,MENDHAR,POONCH,"JAMMU AND KASHMIR"
"JAMMU AND KASHMIR BANK LIMITED",JAKA0BHARGI,NA,BHARGI,"BHARGI, GANDOH BHALESA, TEHSIL-GANDOH, DISTRICT-DODA, JK, PIN-182203",9596698860,"GANDOH BHALESA",DODA,"JAMMU AND KASHMIR"
"JAMMU AND KASHMIR BANK LIMITED",JAKA0BHALRA,182051111,BHALRA,"NAGNI TEHSIL BADERWAH",7298004623,"BHALRA,",DODA,"JAMMU AND KASHMIR"
"JAMMU AND KASHMIR BANK LIMITED",JAKA0BHALLA,182051107,BHALLA,"BHALLA, DODA, JAMMU",7298004680,"BHALLA, DODA, JAMMU",DODA,"JAMMU AND KASHMIR"
"JAMMU AND KASHMIR BANK LIMITED",JAKA0BHAGWA,182051103,BHAGWA,"BHAGWA DODA",7298004733,"BHAGWA DODA",DODA,"JAMMU AND KASHMIR"
"JAMMU AND KASHMIR BANK LIMITED",JAKA0BHADOO,184051006,BHADOO,"V.P.O BHADOO,BILAWAR",266029,BHADOO,KATHUA,"JAMMU AND KASHMIR"
"JAMMU AND KASHMIR BANK LIMITED",JAKA0BHADAR,182051106,BHADERWAH,"MAIN MARKET, BHADERWAH",244247,"BHADERWAH MAIN",DODA,"JAMMU AND KASHMIR"
"JAMMU AND KASHMIR BANK LIMITED",JAKA0BGDONG,194051022,BOGDANG,DISKIT,9419655143,"BOGDAND NUBRA",LEH,"JAMMU AND KASHMIR"
"JAMMU AND KASHMIR BANK LIMITED",JAKA0BEMINA,190051011,"BEMINA SRINAGAR","NEAR GRID STATION,MAIN MARKET, BEMINA",2491133,BEMINA,SRINAGAR,"JAMMU AND KASHMIR"
"JAMMU AND KASHMIR BANK LIMITED",JAKA0BEERWA,191051006,BEERWAH,"MAIN BAZAR,BEERWAH",275360,BEERWAH,BUDGAM,"JAMMU AND KASHMIR"
"JAMMU AND KASHMIR BANK LIMITED",JAKA0BEBROT,NA,BEBROTA,"BPO RAJGARH, DODA, JAMMU, JK PIN 182148",9796031326,ASSAR,DODA,"JAMMU AND KASHMIR"
"JAMMU AND KASHMIR BANK LIMITED",JAKA0BCROAD,180051086,"B. C. ROAD","REHARI CHUNGI",2520819,"87- B.C ROAD",JAMMU,"JAMMU AND KASHMIR"
"JAMMU AND KASHMIR BANK LIMITED",JAKA0BBNGAM,192051009,"BUL BUL NOWGAM","BULBUL NOWGAM",227636,"BULBUL NOWGAM",ANANTNAG,"JAMMU AND KASHMIR"
"JAMMU AND KASHMIR BANK LIMITED",JAKA0BBHARA,192051013,BIJBEHARA,"NATIONAL HIGHWAY BIJBEHARA",9906645399,BIJBEHARA,ANANTNAG,"JAMMU AND KASHMIR"
"JAMMU AND KASHMIR BANK LIMITED",JAKA0BAZZAR,700051003,"MALIK BAZAR KOLKATTA","6 -EKTA ROAD,MALIK BAZAR KOLKATTA",22874729,"MALIK BAZAR",KOLKATA,"WEST BENGAL"
"JAMMU AND KASHMIR BANK LIMITED",JAKA0BATWIN,NA,"BATWINA GANDERBAL","BATWINA,DISTRICT GANDERBAL,BLOCK WAKURA,TEHSIL LAR PIN 193501",9419778507,BATVENA,GANDERBAL,"JAMMU AND KASHMIR"
"JAMMU AND KASHMIR BANK LIMITED",JAKA0BATPOR,NA,BATAPORA,"BATAPORA NEAR BUS STAND TEHSIL SHOPIAN JK PIN 192303",9797701717,SHOPIAN,SHOPIAN,"JAMMU AND KASHMIR"
"JAMMU AND KASHMIR BANK LIMITED",JAKA0BATOTE,182051302,BATOTE,BATOTE,7298004721,"BATOTE, RAMBAN J&K",RAMBAN,"JAMMU AND KASHMIR"
"JAMMU AND KASHMIR BANK LIMITED",JAKA0BATMOL,190051087,"BAZAR BATMALOO","NEAR AASTAN SHARIEF, BAZAAR BATMALOO",2471808,"BAZAAR BATMALOO",SRINAGAR,"JAMMU AND KASHMIR"
"JAMMU AND KASHMIR BANK LIMITED",JAKA0BATLIK,194051025,BATALIK,"BATALIK,DISTRICT KARGIL,J AND K PIN CODE 194103",281138,BATALIK,KARGIL,"JAMMU AND KASHMIR"
"JAMMU AND KASHMIR BANK LIMITED",JAKA0BATALA,143051102,BATALA,"MAHARAJA JESSA SINGH RAM GARH ROAD",1244322,BATALA,GURDASPUR,PUNJAB
"JAMMU AND KASHMIR BANK LIMITED",JAKA0BASTEE,180051017,"NAI BASTI JAMMU","SATWARI CHOWK",2430034,"NAI BASTI",JAMMU,"JAMMU AND KASHMIR"
"JAMMU AND KASHMIR BANK LIMITED",JAKA0BASOLI,184051018,BASOHLI,"MAIN BAZAR, BASOLI",251227,BASOHLI,KATHUA,"JAMMU AND KASHMIR"
"JAMMU AND KASHMIR BANK LIMITED",JAKA0BASANT,182051021,"DODU BASANTGARH","TEHSIL RAMNAGAR",7298004617,"DUDU BASANTGARH UDHAMPUR",UDHAMPUR,"JAMMU AND KASHMIR"
"JAMMU AND KASHMIR BANK LIMITED",JAKA0BARODA,390051002,BARODA,"CAPRI HOUSE II, SUDHA NAGAR SOCIETY, JETALPUR ROAD,ALKA PURI",2336713,BARODA,VADODARA,GUJARAT
"JAMMU AND KASHMIR BANK LIMITED",JAKA0BANTAL,180051037,"BANTALAB JAMMU","BARNAI ROAD BANTALAB",2596085,BANTALAB,JAMMU,"JAMMU AND KASHMIR"
"JAMMU AND KASHMIR BANK LIMITED",JAKA0BANNIE,184051019,BANI,"BANNI KATHUA",268162,"BANNI  KATHUA",KATHUA,"JAMMU AND KASHMIR"
"JAMMU AND KASHMIR BANK LIMITED",JAKA0BANDRA,400051010,"BANDRA MUMBAI","184 ASHRA, WATER FIELD ROAD,BANDRA WEST",26408630,BANDRA,MUMBAI,MAHARASHTRA
"JAMMU AND KASHMIR BANK LIMITED",JAKA0BAMBLA,182051258,BHAMBLA,"BHAMBLA DISTRICT REASI PIN CODE 185154",9419105691,BHAMBLA,REASI,"JAMMU AND KASHMIR"
"JAMMU AND KASHMIR BANK LIMITED",JAKA0BALSHA,NA,BALSHAMA,"POST OFFICE-BAKHA, TEHSIL- SUNDERBANI, DISTRICT-RAJOURI, J&K, PIN-185152",9469136448,"SUNDER BANI",RAJOURI,"JAMMU AND KASHMIR"
"JAMMU AND KASHMIR BANK LIMITED",JAKA0BALLAH,NA,BALLAHAMA,"BALLAHAMA, SRINAGAR, JK PIN 191201",9419035397,SRINAGAR,SRINAGAR,"JAMMU AND KASHMIR"
"JAMMU AND KASHMIR BANK LIMITED",JAKA0BALETA,180051093,BALETAR(SUMB),"POST OFFICE-SUMB",9622631298,VILLAGE-BALETAR,SAMBA,"JAMMU AND KASHMIR"
"JAMMU AND KASHMIR BANK LIMITED",JAKA0BALESA,182051112,GANDOH(BALESA),"BHALESSA, POST OFFICE GANDOH",7298004633,"GANDOH BALESSA DODA",DODA,"JAMMU AND KASHMIR"
"JAMMU AND KASHMIR BANK LIMITED",JAKA0BALAKO,NA,BALAKOTE,"POST OFFICE DHARGLOON, MENDHAR, POONCH, JAMMU, JK PIN 185211",9469101611,POONCH,POONCH,"JAMMU AND KASHMIR"
"JAMMU AND KASHMIR BANK LIMITED",JAKA0BAKSHI,180051004,"BAKSHI NAGAR JAMMU","BAKSHI NAGAR",2583180,"BAKSHI NAGAR",JAMMU,"JAMMU AND KASHMIR"
"JAMMU AND KASHMIR BANK LIMITED",JAKA0BAHROT,185051015,BEHROTE,"TEHSIL THANAMANDI",9419151337,"BAHROTE THANAMANDI",RAJOURI,"JAMMU AND KASHMIR"
"JAMMU AND KASHMIR BANK LIMITED",JAKA0BAGWAT,180051027,"BHAGWATI NAGAR JAMMU","BHAGWATI NAGAR, JAMMU",2506922,JAMMU,JAMMU,"JAMMU AND KASHMIR"
"JAMMU AND KASHMIR BANK LIMITED",JAKA0BAGGAA,182051257,BHAGGA,"TEHSIL MOHRE",9469175164,"BAGGA , REASI, JAMMU",REASI,"JAMMU AND KASHMIR"
"JAMMU AND KASHMIR BANK LIMITED",JAKA0BAGDAD,192051304,WALTENGO,WALTENGO,9858783832,KULGAM,KULGAM,"JAMMU AND KASHMIR"
"JAMMU AND KASHMIR BANK LIMITED",JAKA0BAGAAT,190051009,"BARZULLA SRINAGAR",BAAGAT,2432777,SRINAGAR,SRINAGAR,"JAMMU AND KASHMIR"
"JAMMU AND KASHMIR BANK LIMITED",JAKA0BADOHI,221051102,BHADOHI,"MAIN ROAD, MARYAB PATTI",228711,BADOHI,"SANT RAVIDAS NAGAR","UTTAR PRADESH"
"JAMMU AND KASHMIR BANK LIMITED",JAKA0BADAMI,190051006,"B B CANTT SRINAGAR","BADAMI BAGH",2465212,"BADAMI BAGH CANTT SRINAGAR",SRINAGAR,"JAMMU AND KASHMIR"
"JAMMU AND KASHMIR BANK LIMITED",JAKA0BACHAN,194051016,SKURBACHAN,"SKURBACHAN,LEH,LADAKH,J AND K",228046,SKURBACHAN,LEH,"JAMMU AND KASHMIR"
"JAMMU AND KASHMIR BANK LIMITED",JAKA0AZGUNJ,193051002,"AZADGUNJ BARAMULLA","AZAD GUNJ BARAMULLA",7298004510,"AZAD GUNJ BARAMULLA",BARAMULLA,"JAMMU AND KASHMIR"
"JAMMU AND KASHMIR BANK LIMITED",JAKA0AZDPUR,110051002,"AZADPUR  DELHI","NEW  SABZI MANDI",11,AZADPUR,DELHI,DELHI
"JAMMU AND KASHMIR BANK LIMITED",JAKA0AWOORA,193051203,AWOORA,"DISTRICT KUPWARA",1955,"AWOORA, KUPWARA",KUPWARA,"JAMMU AND KASHMIR"
"JAMMU AND KASHMIR BANK LIMITED",JAKA0AWANTI,192051106,AWANTIPORA,"NATIONAL HIGHWAY AWANTIPORA",247239,AWANTIPORA,PULWAMA,"JAMMU AND KASHMIR"
"JAMMU AND KASHMIR BANK LIMITED",JAKA0AURANG,431051003,AURANGABAD,"MANAS APARTMENT 5 KUSHAL NAGAR NEAR NATRAJ RESIDENCY JALNA ROAD",2340760,"AURANGABAD,MAHARASHTRA",AURANGABAD,MAHARASHTRA
"JAMMU AND KASHMIR BANK LIMITED",JAKA0ASSARR,182051115,ASSAR,"ASSAR TEHSIL DODA",7298004648,"ASSAR DODA",DODA,"JAMMU AND KASHMIR"
"JAMMU AND KASHMIR BANK LIMITED",JAKA0ASHMUJ,192051303,ASHMUJI,"ASHMUJI,DISTRICT KULGAM,PIN 192231",8803061378,"ASHMUJI KULGAM",KULGAM,"JAMMU AND KASHMIR"
"JAMMU AND KASHMIR BANK LIMITED",JAKA0ASHAJI,192051006,"ASHAJIPORA ANANTNAG","ASHAJIPORA ANANTNAG",222572,ASHAJIPORA,ANANTNAG,"JAMMU AND KASHMIR"
"JAMMU AND KASHMIR BANK LIMITED",JAKA0ARWANI,192051302,ARWANI,"ARWANI DISTRICT KULGAM,J AND K PIN CODE 192124",9697078383,ARWANI,KULGAM,"JAMMU AND KASHMIR"
"JAMMU AND KASHMIR BANK LIMITED",JAKA0ARNASS,182051253,ARNAS,ARNASS,220028,"ARNAS, REASI",REASI,"JAMMU AND KASHMIR"
"JAMMU AND KASHMIR BANK LIMITED",JAKA0ARMYCO,NA,"EC ARMY CANTONMENT BARAMULLA","MILITARY CANTONMENT BARAMULLA, JK, PIN 193101",9797791044,BARAMULLA,BARAMULLA,"JAMMU AND KASHMIR"
"JAMMU AND KASHMIR BANK LIMITED",JAKA0ARMPOR,193051219,ARAMPORA,"ARAMPORA,DISTRICT KUPWARA,PIN CODE 193221",9419005974,ARMPORA,KUPWARA,"JAMMU AND KASHMIR"
"JAMMU AND KASHMIR BANK LIMITED",JAKA0ARIZAL,191051015,ARIZAL,"ARIZAL KHAN SAHIB",9419428864,"ARIZAL, KHAN SAHIB, BUDGAM",BUDGAM,"JAMMU AND KASHMIR"
"JAMMU AND KASHMIR BANK LIMITED",JAKA0ARIPAL,NA,ARIPAL,"ARIPAL TRAL, BLOCK & TEHSIL-ARIPAL, DISTRICT-PULWAMA, KASHMIR,├╜ PIN-192123",9419090206,TRAL,PULWAMA,"JAMMU AND KASHMIR"
"JAMMU AND KASHMIR BANK LIMITED",JAKA0ARIHAL,192051052,ARIHAL,PULWAMA,9858386527,"MAIN CHOWK ARIHAL",PULWAMA,"JAMMU AND KASHMIR"
"JAMMU AND KASHMIR BANK LIMITED",JAKA0ARAKHO,192051067,ARAKHOSHIPORA,ARAKHUSHIPORA,9596053626,"MAIN MARKET",ANANTNAG,"JAMMU AND KASHMIR"
"JAMMU AND KASHMIR BANK LIMITED",JAKA0ARAHAN,192051033,ARRAH,"ARRAH, KULGAM",213382,"ARRAH, KULGAM",KULGAM,"JAMMU AND KASHMIR"
"JAMMU AND KASHMIR BANK LIMITED",JAKA0APPLET,193051108,"FRUIT MANDI SOPORE","FRUIT MANDI SOPORE",223511,"FRUIT MANDI SOPORE",BARAMULLA,"JAMMU AND KASHMIR"
"JAMMU AND KASHMIR BANK LIMITED",JAKA0APEXBR,190051014,"APEX BRANCH CHQ","CORPORATE HEADQUARTER,M.A.ROAD",2472589,"APEX BRANCH",SRINAGAR,"JAMMU AND KASHMIR"
"JAMMU AND KASHMIR BANK LIMITED",JAKA0AORIAN,184051017,"CHAN ARRORIAN","CHAN ARORIAN, NATI",255125,"CHAN ARORIAN KATHUA",KATHUA,"JAMMU AND KASHMIR"
"JAMMU AND KASHMIR BANK LIMITED",JAKA0ANSALL,110051016,"ANSAL PLAZA DELHI","B-207, 2ND FLOOR,ANSAL PLAZA, KHEL GOAN MARG",26264330,"ANSAL PLAZA",DELHI,DELHI
"JAMMU AND KASHMIR BANK LIMITED",JAKA0ANDERI,400051004,"ANDHERI MUMBAI","SUYOG SADAN BLDG, MAHA KALI CAVES ROAD,ANDHERI EAST",28214472,ANDHERI,"GREATER BOMBAY",MAHARASHTRA
"JAMMU AND KASHMIR BANK LIMITED",JAKA0ANCHAR,190051004,ANCHAR,BUCHPORA,2401632,ANCHAR,SRINAGAR,"JAMMU AND KASHMIR"
"JAMMU AND KASHMIR BANK LIMITED",JAKA0AMPHLA,180051040,"AMPHALLA JAMMU","49 MAIN CHOWK NEAR CENTRAL JAIL",2564017,"AMPHALLA BRANCH",JAMMU,"JAMMU AND KASHMIR"
"JAMMU AND KASHMIR BANK LIMITED",JAKA0AMINLK,226051003,"AMINABAD LUCKNOW","NEAR GONGEE PARK AMINABAD",2625885,"AMINABAD LUCKNOW",LUCKNOW,"UTTAR PRADESH"
"JAMMU AND KASHMIR BANK LIMITED",JAKA0AMGROT,180051076,"AMB GROTA",AMBGROTA,9469140950,"OPPOSITE POLICE STATION",JAMMU,"JAMMU AND KASHMIR"
"JAMMU AND KASHMIR BANK LIMITED",JAKA0AMBALA,133051002,"AMBALLA CANTT","5683/1, NICHOLSAN ROAD, AMBALA CANTT. (PUNJAB)",2630009,AMBALA,AMBALA,HARYANA
"JAMMU AND KASHMIR BANK LIMITED",JAKA0ALOOSA,193051010,ALOOSA,ALOOSA,7298559521,ALOOSA,BANDIPORA,"JAMMU AND KASHMIR"
"JAMMU AND KASHMIR BANK LIMITED",JAKA0ALNOOR,191051008,"CHRAR I SHARIEF","TEHSIL CHARISHARIEF",253535,"CHAR I SHARIEF",BUDGAM,"JAMMU AND KASHMIR"
"JAMMU AND KASHMIR BANK LIMITED",JAKA0ALMGRI,190051002,"ALAMGIRI BAZAR SRINAGAR","ALAMGIRI BAZAR CHOWK",2424451,"ALAMGIRI BAZAR",SRINAGAR,"JAMMU AND KASHMIR"
"JAMMU AND KASHMIR BANK LIMITED",JAKA0ALIGAR,202051002,ALIGARH,"ROOP NARANIAN MARKET,G.T ROAD",2405632,ALIGARH,ALIGARH,"UTTAR PRADESH"
"JAMMU AND KASHMIR BANK LIMITED",JAKA0ALABAD,211051002,ALLAHBAD,"24/36 SHIV CHARAN LAL ROAD",2563388,ALLAHABAD,ALLAHABAD,"UTTAR PRADESH"
"JAMMU AND KASHMIR BANK LIMITED",JAKA0AKNGAM,192051029,AKINGAM,"MAIN BAZAR AKHNOOR",241331,"AKHINGAM ANANTNAG",ANANTNAG,"JAMMU AND KASHMIR"
"JAMMU AND KASHMIR BANK LIMITED",JAKA0AKHNOR,180051064,AKHNOOR,"MAIN BAZAR AKHNOOR",0,AKHNOOR,JAMMU,"JAMMU AND KASHMIR"
"JAMMU AND KASHMIR BANK LIMITED",JAKA0AJJOTE,185051110,AJOTE,"AJOTE,DISTRICT POONCH,PIN CODE 185101",9622178426,AJOTE,POONCH,"JAMMU AND KASHMIR"
"JAMMU AND KASHMIR BANK LIMITED",JAKA0AJJASS,193051014,AJAS,"AJAS, BANDIPORA",210068,"AJAS,",BANDIPORA,"JAMMU AND KASHMIR"
"JAMMU AND KASHMIR BANK LIMITED",JAKA0AIRCAR,190051051,"AIR CARGO SRINAGAR","OPP NEW ERA SCHOOL,RAJBAGH",2313490,"AIR CARGO",SRINAGAR,"JAMMU AND KASHMIR"
"JAMMU AND KASHMIR BANK LIMITED",JAKA0AHMSHA,NA,AHAMSHARIEF,"AHAMSHARIEF,DISTRICT BANDIPORA,KASHMIR,J AND K PIN 193502",9796148872,BANDIPORA,BANDIPORA,"JAMMU AND KASHMIR"
"JAMMU AND KASHMIR BANK LIMITED",JAKA0AHMADD,NA,"AHMAD NAGAR","AHMAD NAGAR, MAIN CHOWK (90 FT. ROAD),SRINAGAR, PIN-190020",9419086735,SRINAGAR,SRINAGAR,"JAMMU AND KASHMIR"
"JAMMU AND KASHMIR BANK LIMITED",JAKA0AHAMAD,380051002,"C G ROAD AHMADABAD","PARISEEMA COMPLEX, G.G. ROAD",26562553,AHMADABAD,AHMADABAD,GUJARAT
"JAMMU AND KASHMIR BANK LIMITED",JAKA0AGHARJ,NA,AGHARJITTO,"AGHARJITTO,DISTRICT REASI,TEHSIL REASI,JAMMU,J AND K PIN 182301",0,"AGHAR JITOO",REASI,"JAMMU AND KASHMIR"
"JAMMU AND KASHMIR BANK LIMITED",JAKA0AGADOL,192051064,"AHLAN GADOLE","Ahlan Gadole,District Anantnag,J AND K Pin code 192202",9797863888,"AHLAN GADOLE",ANANTNAG,"JAMMU AND KASHMIR"
"JAMMU AND KASHMIR BANK LIMITED",JAKA0ACHNAG,192051012,"ACHABAL  ANANTNAG","ACHBAL ANANTNAG",241226,ACHBAL,ANANTNAG,"JAMMU AND KASHMIR"
"JAMMU AND KASHMIR BANK LIMITED",JAKA0ACHKAM,NA,AKCHAMAL,"RAKINA, AKCHAMAL, BLOCK / TEHSIL & DISTRICT-KARGIL, PIN-194103",9419895835,KARGIL,KARGIL,"JAMMU AND KASHMIR"
"JAMMU AND KASHMIR BANK LIMITED",JAKA0ACHENN,NA,ACHEN,"PULWAMA KASHMIR JAMMU AND KASHMIR PIN 192305",9596580353,PULWAMA,PULWAMA,"JAMMU AND KASHMIR"
"JAMMU AND KASHMIR BANK LIMITED",JAKA0ACHBAL,193051107,"ACHABAL SOPORE","MAIN MARKET ACHBAL,DOABGH SOPORE",7298004434,"ACHBAL SOPORE",BARAMULLA,"JAMMU AND KASHMIR"
"JAMMU AND KASHMIR BANK LIMITED",JAKA0ABHAMA,NA,ABHAMA,"VILLAGE-ABHAMA, BLOCK- ACHAGOZA, TEHSIL-RAJPORA, DISTRICT-PULWAMA, JK, PIN-192301",9858889888,RAJPURA,PULWAMA,"JAMMU AND KASHMIR"
"JAMMU AND KASHMIR BANK LIMITED",JAKA0AALLAH,NA,"ALLAH BISHNAH","PO-VILLAGE ALLAH, TEHSIL-BISHNAH, DISTRICT-JAMMU, PIN-181131",272952,BISHNA,JAMMU,"JAMMU AND KASHMIR"
