BANK,IFSC,MICR,BRANCH,ADDRESS,CONTACT,CITY,DISTRICT,STATE
"INDUSIND BANK",INDB0VCB012,560261012,"SIR M VISVESVARAYA CO-OPERATIVE BANK LIMITED - KONANAKUNTE BRANCH","# 100, CHUNCHUNGHATTA MAIN ROAD, KC CIRCLE, KONANAKUNTE BANGALORE - 560062",0,BANGALORE,"BANGALORE URBAN",KARNATAKA
"INDUSIND BANK",INDB0VCB011,560261011,"SIR M VISVESVARAYA CO-OPERATIVE BANK LIMITED - RAJARAJESWARINAGAR BRANCH","# 1, BEML III PHASE, BEML LAYOUT, RAJARAJESWARI NAGAR, BANGALORE - 560098",0,BANGALORE,"BANGALORE URBAN",KARNATAKA
"INDUSIND BANK",INDB0VCB009,560261009,"SIR M VISVESVARAYA CO-OPERATIVE BANK LIMITED - BTM LAYOUT BRANCH","# 25, 100 FEET RING ROAD, I PHASE, BANGALORE - 560078",0,BANGALORE,"BANGALORE URBAN",KARNATAKA
"INDUSIND BANK",INDB0VCB008,560261010,"SIR M VISVESVARAYA CO-OPERATIVE BANK LIMITED - MATHIKERE BRANCH","# 173, 13TH B MAIN ROAD, MATHIKERE LAYOUT, BANGALORE  - 560054",0,BANGALORE,"BANGALORE URBAN",KARNATAKA
"INDUSIND BANK",INDB0VCB007,560261008,"SIR M VISVESVARAYA CO-OPERATIVE BANK LIMITED - KENGERI SETELLITE TOWN BRANCH","# 181, BEHIND RAILWAY STATION I MAIN ROAD, KENGERI SETELLITE TOWN BANGALORE - 560060",0,BANGALORE,"BANGALORE URBAN",KARNATAKA
"INDUSIND BANK",INDB0VCB006,560261007,"SIR M VISVESVARAYA CO-OPERATIVE BANK LIMITED - VIJAYANAGAR BRANCH","# 75 / 1, III CROSS, AMARAJYOTHI NAGAR, NAGARABHAVI MAIN ROAD, BANGALORE -",0,BANGALORE,"BANGALORE URBAN",KARNATAKA
"INDUSIND BANK",INDB0VCB005,560261006,"SIR M VISVESVARAYA CO-OPERATIVE BANK LIMITED - BSK III STAGE BRANCH","# 112, 100 FEET RING ROAD,III PHASE, BSK III STAGE, BANGALORE - 560085",0,BANGALORE,"BANGALORE URBAN",KARNATAKA
"INDUSIND BANK",INDB0VCB004,560261005,"SIR M VISVESVARAYA CO-OPERATIVE BANK LIMITED - J P NAGAR BRANCH","# 155 / 49, II MAIN, 43RD CROSS, 8TH BLOCK, JAYANAGAR BANGALORE - 560070",0,BANGALORE,"BANGALORE URBAN",KARNATAKA
"INDUSIND BANK",INDB0VCB003,560261004,"SIR M VISVESVARAYA CO-OPERATIVE BANK LIMITED - RAJAJINGAR BRANCH","# 1203/2, SUBRAMANYAPURA MAIN ROAD, RAJAJINAGAR 2ND STAGE, BANGALORE  - 560010",0,BANGALORE,"BANGALORE URBAN",KARNATAKA
"INDUSIND BANK",INDB0VCB002,560261002,"SIR M VISVESVARAYA CO-OPERATIVE BANK LIMITED - SHANKARMUTT ROAD BRANCH","# 109, SHANKARMUTT ROAD, SHANKARAPURAM, BANGALORE - 560004",0,BANGALORE,"BANGALORE URBAN",KARNATAKA
"INDUSIND BANK",INDB0VCB001,560261003,"SIR M VISVESVARAYA CO-OPERATIVE BANK LIMITED - KUMARAPARK WEST BRANCH","# 32  GIRLS SCHOOL STREET, SESHADRIPURAM, BANGALORE  - 560020",0,BANGALORE,"BANGALORE URBAN",KARNATAKA
"INDUSIND BANK",INDB0UPCO01,387812501,"THE UTTARSANDA PEOPLES CO OP BANK L","THE UTTARSANDA PEOPLES CO OP BANK LTD BANK BLDG BAZAR UTTARSANDA 387370",2587403,UTTARSANDA,KHEDA,GUJARAT
"INDUSIND BANK",INDB0TMCB04,571837052,"THE MUSLIM CO OP BANK HUNSUR","THE MUSLIM CO OPERATIVE BANK LTD OLD JAMIA MASJID COMPLEX J L B ROAD HUNSUR MYSORE 571105",8222253786,MYSORE,MYSORE,KARNATAKA
"INDUSIND BANK",INDB0TMCB03,570837003,"THE MUSLIM CO OP BANK UDAYAGIRI","THE MUSLIM CO OPERATIVE BANK LTD NO 18 M G ROAD 1ST CROSS UDAYAGIRI MYSORE 570019",8212450396,MYSORE,MYSORE,KARNATAKA
"INDUSIND BANK",INDB0TMCB02,570837004,"THE MUSLIM CO OP BANK RAJIVNAGAR","THE MUSLIM CO OPERATIVE BANK LTD HIG 706 MAIN ROAD RAJIVNAGAR 2ND STAGE MYOSRE 570019",8212452255,MYSORE,MYSORE,KARNATAKA
"INDUSIND BANK",INDB0TMCB01,570837002,"THE MUSLIM CO OP BANK NEW SAYYAJI ROAD","THE MUSLIM CO OPERATIVE BANK LTD NEW SAYYAJI RAO RAOD MYSORE 570021",8212442866,MYSORE,MYSORE,KARNATAKA
"INDUSIND BANK",INDB0STCB12,560226369,"SREE THYAGARAJA CO-OPERATIVE URBAN BANK LTD  BANNERGHATTA","NO.97 2 1ST FLOOR GOTTIGERE BANNERAGHATTA MAIN ROAD BANGALORE 560 083",25780617,BANNERGHATTA,"BANGALORE URBAN",KARNATAKA
"INDUSIND BANK",INDB0STCB11,560226368,"SREE THYAGARAJA CO-OPERATIVE URBAN BANK LTD  BEGUR","NO93 HONGASANDRA BEGUR MAIN ROAD BANGALORE 560 068",22958174,BEGUR,"BANGALORE URBAN",KARNATAKA
"INDUSIND BANK",INDB0STCB10,560226367,"SREE THYAGARAJA CO-OPERATIVE URBAN BANK LTD  TAVAREKERE","NO 1 2 OPP PANCHAMUKHI GANAPATHI TEMPLE TAVAREKERE MAGADI MAIN ROAD BANGALORE 562 130",28434428,TAVAREKERE,"BANGALORE URBAN",KARNATAKA
"INDUSIND BANK",INDB0STCB09,560226366,"SREE THYAGARAJA CO-OPERATIVE URBAN BANK LTD  HESARAGHATTA","NO 9 12 MALLASANDRA HESARAGHATTA MAIN ROAD BANGALORE 560 057",22958172,HESARAGHATTA,"BANGALORE URBAN",KARNATAKA
"INDUSIND BANK",INDB0STCB08,560226349,"SREE THYAGARAJA CO-OPERATIVE URBAN BANK LTD  UTTARAHALLI","NO 2 3 4 S K COMPLEX CHANNASANDRA KENGERI MAIN ROAD UTTARAHALLI HOBLI BANGALORE 560 061",22958170,BANGALORE,"BANGALORE URBAN",KARNATAKA
"INDUSIND BANK",INDB0STCB07,560226312,"SREE THYAGARAJA CO-OPERATIVE URBAN BANK LTD  KAMAKSHIPALYA","NO.61 1 GORAVANAHALLI YESHWANTHAPURA HOBLI KAMAKSHIPALYA MAGADI MAIN ROAD BANGALORE 560 079",22958168,BANGALORE,"BANGALORE URBAN",KARNATAKA
"INDUSIND BANK",INDB0STCB06,560226311,"SREE THYAGARAJA CO-OPERATIVE URBAN BANK LTD  MYSORE","NO 19 1 1 ST FLOOR A CROSS ROAD BYATARAYANAPURA MYSORE ROAD BANGALORE 560 026",22958166,MYSORE,MYSORE,KARNATAKA
"INDUSIND BANK",INDB0STCB05,560226274,"SREE THYAGARAJA CO OPERATIVE URBAN BANK LTD  BSK TWO","NO 3346 A 228 K R ROAD BANASHANKARI 2 ND STAGE BANGALORE 560 070",22958164,BANGALORE,"BANGALORE URBAN",KARNATAKA
"INDUSIND BANK",INDB0STCB04,560226273,"SREE THYAGARAJA CO OPERATIVE URBAN BANK LTD  BSK ONE","NO 15 BANASHANKARI 1ST STGE SRINIVASANAGAR BANGALORE 560 050",22958162,BANGALORE,"BANGALORE URBAN",KARNATAKA
"INDUSIND BANK",INDB0STCB03,560226272,"SREE THYAGARAJA CO-OPERATIVE URBAN BANK LTD  JP NAGAR","NO1400 41ST MAIN ROAD KANAKAPURA MAIN ROAD JP NAGAR 1ST PHASE BANGLAORE 560078",22958160,BANGALORE,"BANGALORE URBAN",KARNATAKA
"INDUSIND BANK",INDB0STCB02,560226271,"SREE THYAGARAJA CO OPERATIVE URBAN BANK LTD  BSK THREE","NO 40 KATHRIGUPPE MAIN ROAD BANASHANKARI 3RD STAGE BANGALORE 560 085",22958158,BANGALORE,"BANGALORE URBAN",KARNATAKA
"INDUSIND BANK",INDB0STCB01,560226270,"SREE THYAGARAJA CUB LTD  BASAVANAGUDI","14 1 1ST MAIN NR COLONY BASAVANAGUDI BANGALORE 560040",22958150,BANGALORE,"BANGALORE URBAN",KARNATAKA
"INDUSIND BANK",INDB0SSMB01,NA,"SRI SHARADA MAHILA CO OP BANK LTD J C ROAD","SRISHARADA MAHILA CO OPERATIVE BANK LTD J C ROAD TUMAKURU",2272627,TUMKUR,TUMKUR,KARNATAKA
"INDUSIND BANK",INDB0SSBN03,560225253,"SREENIDHI SOUH BANK  MARATHALLI","NO 23 SERVICE ROAD OUTER RING ROAD ANANDA NAGAR MARATHAHALLI BANGALORE 560037",25401160,BANGALORE,BANGALORE,KARNATAKA
"INDUSIND BANK",INDB0SSBN02,560225252,"SREENIDHI SOUH BANK BOMMANAHALLI","NO 112 2 1ST FLOOR MG PALYA MAIN ROAD HOSUR ROAD BOMMANAHALLI BANGALORE 560 102",25722152,BANGALORE,BANGALORE,KARNATAKA
"INDUSIND BANK",INDB0SSBN01,560225251,"SREENIDHI SOUH SAHAK BANK NI","NO 113,R V ROAD,V V PURAM,BANGALORE 560004",22429151,BANGALORE,"BANGALORE URBAN",KARNATAKA
"INDUSIND BANK",INDB0SMSB01,560261252,"SRIMATHA MAHILA SAHAKARI BANK BANGALORE","403 803 8TH MAIN 10TH CROSS SHASTRINAGAR BSK II STAGE BANGALORE 560028",26762584,BANGALORE,"BANGALORE URBAN",KARNATAKA
"INDUSIND BANK",INDB0SCSC09,560446009,"SREE CHARAN BANK J P NAGAR","NO 12 16TH CROSS 5TH PHASE OPP A V SCHOOL J P NAGAR BANGALORE 560078",8026592551,BANGALORE,"BANGALORE URBAN",KARNATAKA
"INDUSIND BANK",INDB0SCSC08,560446008,"SREE CHARAN BANK BANASWADI","703 4TH CORSS SIR M V ROAD 1ST STAGE 1ST BLOCK KALYANA NAGAR HRBR LAYOUT BANASWADI BANGALORE 560043",25420943,BANGALORE,"BANGALORE URBAN",KARNATAKA
"INDUSIND BANK",INDB0SCSC07,560446007,"SREE CHARAN BANK CHIKKALLASANDRA","NO 211 3RD MAIN BETWEEN 4TH 5TH CROSS RAMANJANEYA NAGAR CHIKKALLASANDRA BENGALURU 560061",26392282,BANGALORE,"BANGALORE URBAN",KARNATAKA
"INDUSIND BANK",INDB0SCSC06,NA,"SREE CHARAN BANK JAYANAGAR","NO 63218 10TH D MAIN ROAD 4TH BLOCK JAYANAGAR BANGALORE 560 011",26548282,BANGALORE,BANGALORE,KARNATAKA
"INDUSIND BANK",INDB0SCSC05,560446005,"SREE CHARAN BANK MALLESHWARAM","NO 961 SAI KRUPA 6TH MAIN ROAD BETWEEN 13TH AND 15TH CROSS MALLESHWARAM BANGALORE 560 003",23561948,BANGALORE,BANGALORE,KARNATAKA
"INDUSIND BANK",INDB0SCSC04,NA,"SREE CHARAN BANK SULTANPET","NO 48 OLD SRINGERI SHANKAR MATHK V TEMPLE STREET SULTANPET BANGALORE 560 053",22389935,BANGALORE,BANGALORE,KARNATAKA
"INDUSIND BANK",INDB0SCSC03,NA,"SREE CHARAN BANK CITYMARKET","SUBBAMMA KRUPA P R SHASTRY LANE NAGARTHPET CROSS BANGALORE 560 002",22229911,BANGALORE,BANGALORE,KARNATAKA
"INDUSIND BANK",INDB0SCSC02,NA,"SREE CHARAN BANK GANDHIBAZAR","NO 871 H B SAMAJA ROAD BASAVANAGUDI BANGALORE 560 004",26601151,BANGALORE,BANGALORE,KARNATAKA
"INDUSIND BANK",INDB0SCSC01,560446001,"SREE CHARAN BANK HEAD OFFICE","NO 871 H B SAMAJA ROAD BASAVANAGUDI BANGALORE 560 004",26676837,BANGALORE,BANGALORE,KARNATAKA
"INDUSIND BANK",INDB0SBMC01,560234253,"SRI BANASHANKAR MAHILA CO OP BANK LTD CUBBONPET","NO 215 K M NAGANNA ROAD CUBBONPET MAIN ROAD BANGALORE 560 002",22290810,BANGALORE,"BANGALORE URBAN",KARNATAKA
"INDUSIND BANK",INDB0SAMC01,577802202,"THE SAMMCO BANK LIMITED APMC YARD","NO 1 10 APMC YARD,SHIMOGA 577204",250155,SHIMOGA,SHIMOGA,KARNATAKA
"INDUSIND BANK",INDB0NSBG07,474470007,"NAGRIK SAHKARI BANK CHHAWANI","SHINDE KI CHHAWANI,LASHKAR,GWALIOR",2446797,GWALIOR,GWALIOR,"MADHYA PRADESH"
"INDUSIND BANK",INDB0NSBG06,474470006,"NAGRIK SAHKARI BANK LOHA MANDI","LOHA MANDI,OLD GWALIOR",2446798,GWALIOR,GWALIOR,"MADHYA PRADESH"
"INDUSIND BANK",INDB0NSBG05,474470005,"NAGRIK SAHKARI BANK GOVINDPURI","73,GOVINDPURI,UNIVERSITY ROAD,GWALIOR",2446793,GWALIOR,GWALIOR,"MADHYA PRADESH"
"INDUSIND BANK",INDB0NSBG04,474470004,"NAGRIK SAHKARI BANK MORAR","C.P COLONY,MORAR,GWALIOR",2446792,GWALIOR,GWALIOR,"MADHYA PRADESH"
"INDUSIND BANK",INDB0NSBG03,474470003,"NAGRIK SAHKARI BANK LASHKAR","LALA KA BAZAR,LASHKAR,GWALIOR",2446791,GWALIOR,GWALIOR,"MADHYA PRADESH"
"INDUSIND BANK",INDB0NSBG02,474470002,"NAGRIK SAHKARI BANK GWL NAYA BAZAR","NAYA BAZA,LASHKAR,GWALIOR",2446794,GWALIOR,GWALIOR,"MADHYA PRADESH"
"INDUSIND BANK",INDB0NSBG01,474470001,"NAGRIK SAHKARI BANK HO GWL","HEAD OFFICE,73,GOVINDPURI,UNIVERSITY ROAD,GWALIOR 474011",2371603,GWALIOR,GWALIOR,"MADHYA PRADESH"
"INDUSIND BANK",INDB0NNCB02,560226370,"THE NEHRUNAGAR CO OP BANK LTD BANGALORE","NO 587 2ND A MAIN ROAD 11TH BLOCK NAGARABAVI 2ND STAGE BANGALORE 560072",9449161326,BANGALORE,"BANGALORE URBAN",KARNATAKA
"INDUSIND BANK",INDB0NNCB01,560226324,"THE NEHRUNAGAR CO OP BANK LTD SESHADRIPURAM","NO 172 1ST MAIN SESHADRIPURAM BANGALORE 560020",9845077552,BANGALORE,"BANGALORE URBAN",KARNATAKA
"INDUSIND BANK",INDB0NCCB07,110094291,"NOIDA COMMERCIAL CO OP BANK LTD SHASTRI NAGAR GHAZIABAD","D BLOCK RATAN PALACE NEAR KARTE CHOWK SHASTRI NAGAR GHAZIABAD",6497095,GHAZIABAD,GHAZIABAD,"UTTAR PRADESH"
"INDUSIND BANK",INDB0NCCB06,110094289,"NOIDA COMMERCIAL CO OP BANK LTD PRATAP VIHAR","1372 MATA COLONY NEAR DAYAL PUBLIC SCHOOL PRATAP VIHAR GHAZIABAD",2840033,GHAZIABAD,GHAZIABAD,"UTTAR PRADESH"
"INDUSIND BANK",INDB0NCCB01,110094290,"NOIDA COMMERCIAL CO OP BANK LTD JEWAR","JHAJHAR ROAD JEWAR G B NAGAR",273844,JEWAR,"GAUTAM BUDDHA NAGAR","UTTAR PRADESH"
"INDUSIND BANK",INDB0NCCB00,110094277,"NOIDA COMMERCIAL CO OP BANK LTD NOIDA","VEERWATI PALACE BHOJA MARKET NEAR VINAYAK HOSPITAL SEC 27 NOIDA G B NAGAR",3144321,ATTA,"GAUTAM BUDDHA NAGAR","UTTAR PRADESH"
"INDUSIND BANK",INDB0GMCB02,370801051,"THE GANDHIDHAM MER CO OP BANK LTD","NIJNIKETAN 144 VIJAY NAGAR HOSPITAL ROAD BHUJ KUTCH 370001",226107,BHUJ,KACHCHH,GUJARAT
"INDUSIND BANK",INDB0GMCB01,370801001,"THE GANDHIDHAM MER CO OP BANK LTD","GMCB BHAVAN,PLOT NO 12,SECTOR NO 9,BANKING CIRCLE,GANDHIDHAM KUTCH 370 201",9879567121,GANDHIDHAM,KACHCHH,GUJARAT
"INDUSIND BANK",INDB0DOHA01,400234252,"DOHA BANK QSC","SAKHAR BHAWAN GRD FLR PLOT NO 230 BLOCK NO THREE BACKBAY RECLAMATION NARIMAN POINT MUMBAI 21",33941102,MUMBAI,"GREATER BOMBAY",MAHARASHTRA
"INDUSIND BANK",INDB0BCCBR1,571225552,"BANGALORE CITY COOP BANKRAM","NO1363 2058 FLOOR OPP RAMANAGAR BUS STAND B M ROAD RAMANAGAR TOWN RAMANAGAR",9060540695,RAMANAGARA,RAMANAGARA,KARNATAKA
"INDUSIND BANK",INDB0BCCBM1,570225002,"BANGALORE CITY COOP BANKMYS","NO 830830 1 830 2SITUATED AT NEW KANTHARAJ URS ROADKUVEMPUNAGAR CHAMARAJA MOHALLAMYSORE 570023",9060540695,MYSORE,MYSORE,KARNATAKA
"INDUSIND BANK",INDB0BCCB21,560225020,"BANGALORE CITY COOP BANKANJ","NO 93 123 NEWGOLLARAPALYA ANJANANAGARA MAGADI MAIN RD YASHAVANTHAPURA HOBLI BANGALORE 560091",26617980,BANGALORE,"BANGALORE URBAN",KARNATAKA
"INDUSIND BANK",INDB0BCCB19,560225019,"BANGALORE CITY COOP BANKYLK","NO 796 MIG 8TH A CROSS A SECTOR 3RD STAGE 3RD PHASE YELAHANKA NEW TOWN BANGALORE 560106",26617980,BANGALORE,"BANGALORE URBAN",KARNATAKA
"INDUSIND BANK",INDB0BCCB18,560225018,"BANGALORE CITY COOP BANKTD","NO 378 1ST FLOOR 8TH MILE CIRCLE OPP IBP PETROL BUNK T DSARAHALLI TUMKUR ROADBANGALORE 560 074",9060540695,BANGALORE,"BANGALORE URBAN",KARNATAKA
"INDUSIND BANK",INDB0BCCB17,560225017,"BANGALORE CITY COOP BANK","81 82 SURVEY 63 NAGANATHAPURA VILLAGE BEGUR HOBLI BANGALORE SOUTH TALUK BANGALORE 560068",9060540695,BANGALORE,"BANGALORE URBAN",KARNATAKA
"INDUSIND BANK",INDB0BCCB16,560225016,"BANGALORE CITY COOP BANK","63 77 I FLR RAJARAJESWARI TEMPLE ROAD DEVASANDRA MAIN RD K R PURAM BANGALORE 560036",9060540695,BANGALORE,"BANGALORE URBAN",KARNATAKA
"INDUSIND BANK",INDB0BCCB15,560225015,"BANGALORE CITY COOP BANKHRB","NO 50 2 I FLOOR POOJA ARCADE KAMMANAHALLI MAIN ROAD ST THOMAS TOWN POST BANGALORE 560 084",9060540695,BANGALORE,"BANGALORE URBAN",KARNATAKA
"INDUSIND BANK",INDB0BCCB14,560225014,"BANGALORE CITY COOP BANKJJN","NO 01 I FLOOR II CROSS ULLAL MAIN ROAD JNANAJYOTHINAGAR BANGALORE 560 056",9060540695,BANGALORE,"BANGALORE URBAN",KARNATAKA
"INDUSIND BANK",INDB0BCCB13,560225013,"BANGALORE CITY COOP BANKRTN","NO 38 II MAIN ROAD MANNARAYANAPALYA BANGALORE 560 032",9060540695,BANGALORE,"BANGALORE URBAN",KARNATAKA
"INDUSIND BANK",INDB0BCCB12,560225012,"BANGALORE CITY COOP BANKAVL","NO 64 47 I FLOOR 14TH MAIN 50 FEET ROAD MUNESHWARA BLOCK BANGALORE 560 026",9060540695,BANGALORE,"BANGALORE URBAN",KARNATAKA
"INDUSIND BANK",INDB0BCCB11,560225011,"BANGALORE CITY COOP BANKKOR","NO 6 OLD NO 5 S N PRIDE I FLOOR I CROSS MADIVALA BANGALORE 560 068",9060540695,BANGALORE,"BANGALORE URBAN",KARNATAKA
"INDUSIND BANK",INDB0BCCB10,560225010,"BANGALORE CITY COOP BANKCWB","NO 68 I FLOOR SIRASI CIRCLE CHAMARAJPET BANGALORE 560 018",9060540695,BANGALORE,"BANGALORE URBAN",KARNATAKA
"INDUSIND BANK",INDB0BCCB09,560225009,"BANGALORE CITY COOP BANKPAD","NO 10 B 1 NEW NO 75 I FLOOR KADIRENAHALLI SUBRAMANYAPURA MAIN ROAD BANGALORE 560 070",9060540695,BANGALORE,"BANGALORE URBAN",KARNATAKA
"INDUSIND BANK",INDB0BCCB08,560225008,"BANGALORE CITY COOP BANK","8 I FLOOR GEDDALAHALLI RAJAMAHAL VILAS II PHASE BANGALORE 560094",9060540695,BANGALORE,"BANGALORE URBAN",KARNATAKA
"INDUSIND BANK",INDB0BCCB07,560225007,"BANGALORE CITY COOP BANKMLP","NO 429 BASAVESWARANAGAR II PHASE WOC ROAD MAHALAKSHMIPURA BANGALAORE 560 086",9060540695,BANGALORE,"BANGALORE URBAN",KARNATAKA
"INDUSIND BANK",INDB0BCCB06,560225006,"BANGALORE CITY COOP BANK","24 SVTOWER H SIDDAIAH ROAD OPP JANATHA HOTEL WILSON GARDEN BANGALORE 560027",9060540695,BANGALORE,"BANGALORE URBAN",KARNATAKA
"INDUSIND BANK",INDB0BCCB05,560225005,"BANGALORE CITY COOP BANK","29A I STAGE BINNAMANGALA INDIRANAGAR BANGALORE560038",9060540695,BANGALORE,"BANGALORE URBAN",KARNATAKA
"INDUSIND BANK",INDB0BCCB04,560225004,"BANGALORE CITY COOP BANK","1812 7 FLOOR CROSS 9TH BLOCK JAYANAGAR BANGALORE 560069",9060540695,BANGALORE,"BANGALORE URBAN",KARNATAKA
"INDUSIND BANK",INDB0BCCB03,560225003,"BANGALORE CITY COOP BANKVIJ","NO 7E 14TH MAIN VIJAYANAGAR EAST BANGALORE 560 040",9060540695,BANGALORE,"BANGALORE URBAN",KARNATAKA
"INDUSIND BANK",INDB0BCCB02,560225002,"BANGALORE CITY COOP BANKHO","NO 3 PAMPA MAHAKAVI ROAD CHAMARAJPET BANGALORE 560 018",9060540695,BANGALORE,"BANGALORE URBAN",KARNATAKA
"INDUSIND BANK",INDB0005018,0,"PORTFOLIO INVESTMENT SCHEME TEAM","INDUSIND BANK LIMITED  BUILDING NO. 9, 6TH FLOOR, SOLITAIRE CORPORATE PARK,167,GURU HARGOVINDJI MARG, ANDHERI ( E),  MUMBAI ┬û 400093",0,MUMBAI,"GREATER BOMBAY",MAHARASHTRA
"INDUSIND BANK",INDB0001333,494234501,KUTRU,"PLOT NO 210 MANGAL BHAWAN VILLAGE KUTURU TEHSIL HAIRAMGARH DISTRICT BIJAPUR CHHATTISGARH 494444",9425590480,KUTRU,BIJAPUR,CHHATTISGARH
"INDUSIND BANK",INDB0001099,534234002,ELURU,"GROUND FLOOR DOOR NO 23 B 5 93 WARD NO 26 EEDAVARI STREET SAVITHRU COMPLEX NEAR PRABHAVATHI HOSPITAL RAMACHANDRA RAO PET ELURU",220160,ELURU,ELURU,"ANDHRA PRADESH"
"INDUSIND BANK",INDB0001091,500234020,"JUBILEE HILLS HYDERABAD","GROUND FLOOR SHOP NOG 2 APURUPA BDR ROAD NO10 JUBILEE HILLS HYDERABAD 500033 TELANGANA",23544191,HYDERABAD,HYDERABAD,TELANGANA
"INDUSIND BANK",INDB0001089,110234097,"SHALIMAR BAGH NEW DELHI","GROUND FLOOR PROPERTY NO 07 BLOCK BT SHALIMAR BAGH NEW DELHI",49128497,"NEW DELHI","NEW DELHI",DELHI
"INDUSIND BANK",INDB0001087,384234081,"PATAN GUJARAT","GROUND FLOOR SHOP NOS G 2G 3G 4G 5 AND G 6 UTSAV PLAZA PLOT NO 44 NANDAN WARE HOUSES VILLAGE GUNGADIPATI PATAN",221190,PATAN,PATAN,GUJARAT
"INDUSIND BANK",INDB0001086,590234002,BELAGAVI,"PLOT CTS NO 435 A1 435 A2 435 B 435 C AND 435 D CONGRESS ROAD TILAK WADI OPPOSITE I RAILWAY GATE BELGAVI BELGAUM",4263021,BELAGAVI,"BELGAVI BELGAUM",KARNATAKA
"INDUSIND BANK",INDB0001083,462234004,MANDIDEEP,"MANDIDEEP BRANCH GROUND FLOOR PLOT NO 5 SECTOR A INDIRA NAGARB D A SCHEME MANDIDEEPDIST RAISEN MP 462046",231811,BHOPAL,BHOPAL,"MADHYA PRADESH"
"INDUSIND BANK",INDB0001082,508234562,RAGADAPA,"OPP BUS STOP RAGADAPA VILLAGE THRIPURARAM MANDAL NALGONDA DIST 508207",7337207230,RAGADAPA,NALGONDA,TELANGANA
"INDUSIND BANK",INDB0001081,342243004,PHALODI,"GROUND FLOOR PLOT NO 60 NAI SARAK NEAR PWD GANGHAT PHALODI JODHPUR RAJASTHAN INDIA 342301",223283,PHALODI,JODHPUR,RAJASTHAN
"INDUSIND BANK",INDB0001080,312234003,NIMBAHERA,"GROUND FLOORA R COMPLEX PLOT NO2 KHASRA NO1671 AHINSA CIRCLE RSEB CHAURAHA UDAIPUR ROAD NIMBAHERA CHITTAURGARH RAJASTHAN INDIA 312601",220152,NIMBAHERA,CHITTAURGARH,RAJASTHAN
"INDUSIND BANK",INDB0001079,313234005,BHINDER,"GROUND FLOOR PLOT NO 04 OUTSIDE RAMPOLE DARWAJA STATION ROAD BHINDER UDAIPUR RAJASTHAN INDIA 313603",250065,BHINDER,UDAIPUR,RAJASTHAN
"INDUSIND BANK",INDB0001078,342234006,BILARA,"GROUND FLOOR KHASRA NO 1440 1 BAAN GANGA ROAD VINAY VISHRAM GRAH NEAR MAIN BUS STAND VILLAGE BILARA JODHPUR RAJASTHAN INDIA 342602",222128,BILARA,JODHPUR,RAJASTHAN
"INDUSIND BANK",INDB0001077,246234602,"DHAMPUR UTTAR PRADESH","GROUND FLOOR CHHABRA COMPLEX OPP SHUBHAM MANDAP KALAGARH ROAD PUNJABI COLONY DHAMPUR",231550,DHAMPUR,BIJNOR,"UTTAR PRADESH"
"INDUSIND BANK",INDB0001076,721234601,BELDA,"DUTTA PAPER HOUSE PLOT NO 399 BELDA MAIN ROAD PO AND PS BELDA MOUZA MOHAMMADPUR",255163,BELDA,MEDINIPUR,"WEST BENGAL"
"INDUSIND BANK",INDB0001073,411234022,"PAUD ROAD PUNE","UPPER GROUND FLOOR BANDAL SPACES S NO 81 1 NEAR PMT DEPOT PAUD ROAD KOTHRUD",25284215,PUNE,PUNE,MAHARASHTRA
"INDUSIND BANK",INDB0001072,783234102,DHUBRI,"ASHOK VATIKA DAG NO 421 AND 428 990 N S ROAD WARD NO 4 VILLAGE DHUBRI TOWN HOLDING NO 137",232060,DHUBRI,DHUBRI,ASSAM
"INDUSIND BANK",INDB0001071,700234027,BEHALA,"76 DIAMOND HARBOUR ROAD BEHALA",24476221├╜,KOLKATA,KOLKATA,"WEST BENGAL"
"INDUSIND BANK",INDB0001070,846234002,DARBHANGA,"GROUND FLOOR VIKRAM CHAMBER MOHALLA MIRZAPUR HOLDING NO 208 WARD NO 18 MIRZAPUR PO PS DARBHANGA",7635091984,DARBHANGA,DARBHANGA,BIHAR
"INDUSIND BANK",INDB0001069,736234051,ALIPOREDUAR,"MAYA TALKIES ROAD MARWARI PATTI PO AND PS ALIPOREDUAR",274021,ALIPOREDUAR,ALIPOREDUAR,"WEST BENGAL"
"INDUSIND BANK",INDB0001068,735234601,BIRPARA,"GROUND FLOOR RENESSA LODGE NEAR BIRPARA BUS STAND P O AND P S BIRPARA",267011,ALIPOREDUAR,JALPAIGURI,"WEST BENGAL"
"INDUSIND BANK",INDB0001067,110234096,"FARIDABAD SECTOR","GROUND FLOOR SCF 59 60SECTOR 15URBAN ESTATEFARIDABAD",4002887,FARIDABAD,FARIDABAD,HARYANA
"INDUSIND BANK",INDB0001066,682234008,EDAPALLI,"GROUND FLOOR NEREVEETIL BUILDING PARUTHELIL PALAM EDAPALLY TOLL ROAD KANAYANNUR TALUK EDAPPALLY",4013825,KOCHI,ERNAKULAM,KERALA
"INDUSIND BANK",INDB0001065,302234020,"PRATAP NAGAR JAIPUR","GROUND AND FIRST FLOOR SHOP NO 8 SP 52 AND SHOP NO 8 SP 53 KUMBHA MARG PRATAP NAGAR SANGANERJAIPUR RAJASTHAN INDIA 302033",250427,SANGANER,JAIPUR,RAJASTHAN
"INDUSIND BANK",INDB0001063,517234002,TIRUPATHI,"FIRST FLOOR PRIYA TOWERS DOOR NO 6 8 1250 NGOS COLONY NEAR ANNA RAO CIRCLE KT ROAD TIRUPATHI",2235236,TIRUPATHI,TIRUPATI,"ANDHRA PRADESH"
"INDUSIND BANK",INDB0001062,306234002,"PALI RAJASTHAN","GROUND FLOOR PLOT NO S 61 62 63 AND 64 SCHEME NO2 KALPVRIKSH GRAH NIRMAN SAHAKAR SAMITI AHINSA NAGAR NEAR AMBEDKAR CIRCLE JODHPUR ROADPALI RAJASTHAN INDIA 306401",2793313,PALI,PALI,RAJASTHAN
"INDUSIND BANK",INDB0001061,221234004,"GAUDAWLIA VARANASI","GROUND FLOOR D 37 37 D NO BADADEV WARD DASHASHVAMEG KANAHAIYA CHITRA MANDIR NEAR GODOWLIYA",2411041,GAUDAWLIA,VARANASI,"UTTAR PRADESH"
"INDUSIND BANK",INDB0001060,133234006,"AMBALA CANTT","GROUND AND FIRST FLOOR 6275 34 35 NICHOLSON ROAD AMBALA CANTONMENT HARYANA PIN 133001",2630303,AMBALA,AMBALA,HARYANA
"INDUSIND BANK",INDB0001059,823234002,"GAYA BIHAR├╜","GROUND FLOOR NAND NIKETAN NAGMATIA ROAD WARD NO 4 PLOT NO 50 15 DHURKI MOHALLA MAKHLAUTGANJ SWARAJPURI ROAD",2220460,GAYA,GAYA,BIHAR
"INDUSIND BANK",INDB0001058,395234007,KATARGAM,"GROUND FLOOR FP 131 AVADH BUILDING KATARGAM AMROLI ROAD MEHTA PETROL PUMP OPP MARUTI SHOWROOM KATARGAM 395004 DIST SURAT GUJARAT",2487600,SURAT,SURAT,GUJARAT
"INDUSIND BANK",INDB0001057,788234102,"KARIMGANJ ASSAM","DAG NO 1082 NEAR PETROL PUMP SILICHAR ROAD BESIDE A S T C BUS STAND WARD NO 25 PARAGANA KUCHIARKUL TOWN PART V BLOCK IV",262277,KARIMGANJ,KARIMGANJ,ASSAM
"INDUSIND BANK",INDB0001056,831234005,"MANGO JHARKHAND","GROUND FLOOR SHOWROOM NO 1A BUILDING CHAUDHARY AAKASH ENCLAVE PLOT NO 1101 A TO F ROAD NO 7 OLD PURULIA ROAD MANGO SINGHBHUM",2364180,JAMSHEDPUR,JAMSHEDPUR,JHARKHAND
"INDUSIND BANK",INDB0001055,110234098,SONIPAT,"SCO208LBUL BUL PALACEMODEL TOWNATLAS ROADSONIPAT131001",2200062,SONIPAT,SONIPAT,HARYANA
"INDUSIND BANK",INDB0001054,271234002,"BEHRAICH UTTAR PRADESH","GROUND FLOOR HOUSE NO 58 1 MOHALLA SATTIKUAN CIVIL LINES ROAD KOTWALI NAGAR",239812,BEHRAICH,BEHRAICH,"UTTAR PRADESH"
"INDUSIND BANK",INDB0001053,600234028,"PH ROAD CHENNAI","GRND FLR DOOR NO 192 879 POONAMALLEE HIGH RD PURASAIWALKAM EGMORE NUNGAMBAKKAM TALUK EGMORE",40721900,EGMORE,CHENNAI,"TAMIL NADU"
"INDUSIND BANK",INDB0001052,500234019,"HIMAYATNAGAR TELANAGANA","GROUND FLOOR DOOR NO 36273 274 APURUPA LNCHAMBER HIMAYATNAGAR",23262580,HIMAYATNAGAR,NANDED,MAHARASHTRA
"INDUSIND BANK",INDB0001051,148234102,MALERKOTLA,"INDUSIND BANK LTD GROUND FLOOR CLUB ROAD ADJOINING PNB MALERKOTLA 148023",250521,MALERKOTLA,SANGRUR,PUNJAB
"INDUSIND BANK",INDB0001050,127234002,BHIWANI,"GROUND FLOOR UNIT NO 177 B C DR D S CHAUDHARY COMPLEX CIRCULAR ROAD NEAR OLD BUS STAND BHIWANI",245105,BHIWANI,BHIWANI,HARYANA
"INDUSIND BANK",INDB0001049,403234009,PONDA,"ANANT LAXMI BUILDING A GROUND FLOOR AG1 AG5 PONDA MARGAO ROAD TISK PONDA 403401 GOA",2319750,PONDA,"NORTH GOA",GOA
"INDUSIND BANK",INDB0001048,609234002,"MAYILADUTHURAI TAMIL NADU","GROUND FLOOR DOOR NO 2 RAHAMATH BUILDING WARD NO 2 T S NO 656 2 PATTAMANGALAM STREET MAYILADUTHURAI",226866,"MAYURAM MAYILADUTHURAI",NAGAPATTINAM,"TAMIL NADU"
"INDUSIND BANK",INDB0001047,243234202,"BADUAN UTTAR PRADESH","GROUNG FLOOR OM COMPLEX REVENUE MUNICIPAL NO 826 750 NEAR INDRA CHOWK STATION ROAD CIVIL LINES BADAUN",220142,BADAUN,BADAUN,"UTTAR PRADESH"
"INDUSIND BANK",INDB0001046,133234005,"AMBALA CITY HARYANA","GROUND FLOOR PLOT NO 98 BLOCK B 8 PREM NAGAR AMBALA CITY",2551034,AMBALA,AMBALA,HARYANA
"INDUSIND BANK",INDB0001045,425234001,JALGAON,"GROUND FLOOR AND BASEMENT PLOT NO10 S NO283 2A 1 2 CTS NO8251GANESH COLONY ROAD JALGAON MAHARASHTRA INDIA 425001",2214475,JALGAON,JALGAON,MAHARASHTRA
"INDUSIND BANK",INDB0001044,143234010,"PUTLIGHAR AMRITSAR","GROUND FLOOR KHASRA NO 2745 2436 452 CHAH RAJWALA GTROAD PUTLIGHAR AMRITSAR PUNJAB 143001",2400424,AMRITSAR,AMRITSAR,PUNJAB
"INDUSIND BANK",INDB0001043,141234006,"DUGRI ROAD MODEL TOWN","PUNJAB MAKS PLAZA NOOR BHAINI 3744 5 DUGRI ROAD MODEL TOWN LUDHIANA",2426021,LUDHIANA,LUDHIANA,PUNJAB
"INDUSIND BANK",INDB0001042,734234003,"SEVOKE ROAD SILIGURI","BALAJI ARCADE OPP P C MITTAL BUS STAND 2ND MILE SEVOKE ROAD SILIGURI 734001 WEST BENGAL",2540869,SILIGURI,SILIGURI,"WEST BENGAL"
"INDUSIND BANK",INDB0001041,110234093,"KOHAT ENCLAVE NEW DELHIPITAMPURA","GROUND FLOORHOUSE NO 499 KOHAT ENCLAVE KOHAT CHBS LTD SOCIETYPITAMPURA",492165550,"NEW DELHI","NEW DELHI",DELHI
"INDUSIND BANK",INDB0001040,110234092,"QUTUB PLAZA DLF GURGAON","GROUND FLOORSHOP NO F1 TO F4 QUTUB PLAZADLF PHASE 1GURGAON",4174200,HARYANA,GURGAON,HARYANA
"INDUSIND BANK",INDB0001039,411234021,"PIMPLE NILAKH","GROUND FLOOR SAI CRYSTAL CTS NO 876 113 PLOT NO 3 PIMPLE NILAKH TALUKA HAVELI",8928073529,PUNE,PUNE,MAHARASHTRA
"INDUSIND BANK",INDB0001038,411234020,"KARVENAGAR PUNE","GROUND FLOOR SOLITAIRE APARTMENT SURVEY NO 35 6 HINGNE BUDRUK KARVE NAGAR TAL HAVELI",7030916431,PUNE,PUNE,MAHARASHTRA
"INDUSIND BANK",INDB0001037,400234053,AMBOLI,"INDUSIND BANK LTD AMBOLI BRANCH├╜SHOP NO2 RITA VILLA CAESAR ROAD├╜PLOT NUMBER 45 OPPOSITE FILMALAYA ├╜STUDIO AMBOLI ANDHERI WEST├╜MUMBAI 400058",8767133533,MUMBAI,MUMBAI,MAHARASHTRA
"INDUSIND BANK",INDB0001036,700234028,TOLLYGUNGE,"ASTOR TOLLY 184 N S C BOSE ROAD KOLKATA 700040",23816344,KOLKATA,KOLKATA,"WEST BENGAL"
"INDUSIND BANK",INDB0001035,110234094,"JOR BAGH NEW DELHI","GROUND FLOORPLOT NO 12 BLOCK NO 172 JORBAGH MARKET",43502520,"NEW DELHI","NEW DELHI",DELHI
"INDUSIND BANK",INDB0001034,783234302,"KOKRAJHAR ASSAM","GROUND AND FIRST FLOOR BUILDING OF MAINA DEVI SARAWGI JD ROAD BTAD KOKRAJHAR",275025,KOKRAJHAR,KAKROJHAR,ASSAM
"INDUSIND BANK",INDB0001033,411234019,BAVDHAN,"SHOP NO 1 2 3 4 SOLITAIRE 6 PLOT NO 3A1 3A2 RAMNAGAR COLONY BAVDHAN PUNE 411021",7030916421,PUNE,PUNE,MAHARASHTRA
"INDUSIND BANK",INDB0001032,110234091,DWARKA,"GROUND FLOOR UNIT NO G1 2 AGGARWAL MALL PLOT NO 03 SECTOR 5 DWARKA",49025000,DELHI,DELHI,DELHI
"INDUSIND BANK",INDB0001031,380234026,KALUPUR,"GROUND FLOOR SHOP NOS 12 TO 14 BBS MARKET PREM DARWAJA SIX ROAD KALUPUR",22174404,KALUPUR,AHMEDABAD,GUJARAT
"INDUSIND BANK",INDB0001030,380234025,VATVA,"GROUND FLOOR SHOP NOS 1 TO 4 SANKESHWAR INDUSTRIAL PARK PLOT NO 22PHASE I GIDC VATVA",29704472,AHMEDABAD,AHMEDABAD,GUJARAT
"INDUSIND BANK",INDB0001029,452234019,"KANADIA ROAD","GROUND FLOOR SHOP NO S1 S2 SHAHNAI RESIDENCY II KANADIA ROAD VILLAGE KHAJARANA",2592705,KANADIA,BHOPAL,"MADHYA PRADESH"
"INDUSIND BANK",INDB0001028,226234019,"VIBHUTI KHAND","GROUND FLOOR G 4 CYBER HEIGHTS VIBHUTI KHAND GOMTI NAGAR LUCKNOW 226010",6712800,LUCKNOW,LUCKNOW,"UTTAR PRADESH"
"INDUSIND BANK",INDB0001027,400234051,GOREGAON,"GROUND FLOOR SHOP NO4 SHATRUNJAY PLAZACTS NO 36 A AND B SV ROAD GOREGAON W MUMBAI 400104",26770660,MUMBAI,MUMBAI,MAHARASHTRA
"INDUSIND BANK",INDB0001026,302234019,"C SCHEME BRANCH","GROUND FLOOR SHOP NO.1AND2 RESIDENCY ROYALE SARDAR PATEL MARG C SCHEME JAIPUR RAJASTHAN 302001",2360357,JAIPUR,JAIPUR,RAJASTHAN
"INDUSIND BANK",INDB0001025,400234052,"KAMOTHE NAVI MUMBAI","GROUND FLOOR SHOP NOS 2 3 4 5 VEERMA PARADISE PLOT NO 68 SECTOR 20 KAMOTHE",27431247,KAMOTHE,RAIGAD,MAHARASHTRA
"INDUSIND BANK",INDB0001024,834234005,KATAMKULI,"GROUND FLOOR PLOT NO 3457 SURVEY KHATA NO 67 THANA 15 MOUZA KATAMKULI UNDER KATAMKULI GRAM PANCHAYAT P S OLD KANKE NEW PITHORIA DIST RANCHI 835222 JHARKHAND",7349991188,RANCHI,RANCHI,JHARKHAND
"INDUSIND BANK",INDB0001023,160234032,"MOHALI PHASE","GROUND FLOOR SCF 63 SCF 64 PHASE 7 SAS NAGAR MOHALI",4935600,"SAS NAGAR MOHALI",RUPNAGAR,PUNJAB
"INDUSIND BANK",INDB0001022,457234051,"JAORA RATLAM","GROUND FLOOR PROPERTY NO 51 STATION ROAD MOAJJAM ROAD JAORA",221822,RATLAM,RATLAM,"MADHYA PRADESH"
"INDUSIND BANK",INDB0001021,764234102,"JEYPORE ODISHA","GROUND AND FIRST FLOOR RCM COMPLEX PLOT NO 1220 1707 1997 M G ROAD NEAR SIRIDI SAI TEMPLE JEYPORE",6854232302,JEYPORE,KORAPUT,ODISHA
"INDUSIND BANK",INDB0001020,403234008,"VASCO DA GAMA GOA","GRD FLR VINOD MENSION MAHARAJA HOTEL CHALTA NO 37 TO 41 P T SHEET NO 104 RUA LEOPOLD VASCO DA GAMA",9028004764,"OLD GOA","NORTH GOA",GOA
"INDUSIND BANK",INDB0001019,415234151,"PHALTAN SATARA","GROUND FLOOR CTS NO 6487 SECTOR 2 PLOT NO 12 13 LAXMINAGAR RING ROAD PHALTAN",220014,PHALTAN,SATARA,MAHARASHTRA
"INDUSIND BANK",INDB0001018,303234003,"CHOMU RAJASTHAN","GROUND MEZZANINE FLOOR ASHOK PLAZA DOOR NO 455 457 459 461 WARD NO 23 NEAR BUS STAND CHOMU",222103,CHOMU,JAIPUR,RAJASTHAN
"INDUSIND BANK",INDB0001017,641234010,"METTUPALLAYAM ROAD COIMBATORE","GROUND FLOOR BASEMENT MAYURA COMPLEX SRI BALAJI GARDENS G N MILLS POST METTUPALLAYAM ROAD",4222642771,METTUPALAYAM,COIMBATORE,"TAMIL NADU"
"INDUSIND BANK",INDB0001016,208234009,"SAKET NAGAR","UPPER GROUND FLOOR 127 784 22 W1BLOCK NEAR SAIDHAM MANDIR SAKET NAGAR KANPUR 208014",2600026,KANPUR,KANPUR,"UTTAR PRADESH"
"INDUSIND BANK",INDB0001015,560234022,"YELAHANKA NEW TOWN  KARNATAKA","DOOR NO 391 1 SECTOR A 2ND STAGE YELAHANKA NEW TOWN",8028561223,YELAHANKA,BANGALORE,KARNATAKA
"INDUSIND BANK",INDB0001014,560234020,"K H ROAD BANGALORE","GRD FLR HAFEEZA CHAMBERS KENGAL HANUMANTHAYAH ROAD K H ROAD BBMP PROPERTY NO 111 WARD NO 48",22247772,BANGALORE,"BANGALORE URBAN",KARNATAKA
"INDUSIND BANK",INDB0001013,560234021,"HSR LAYOUT BANGALORE","GROUND FLOOR ANAND HEIGHTS SECTOR4 17TH CROSS HOSUR SARJAPURA ROAD HSR LAYOUT",9243600605,BANGALORE,"BANGALORE URBAN",KARNATAKA
"INDUSIND BANK",INDB0001012,756234202,"JALESWAR ODISHA","GROUND FLOOR PLOT NO 286 761 UNIT 12 JHADESWARAPUR GARAGE BAZARMAIN ROAD NEAR BUS STAND JALESWAR",9861262001,JALESWAR,BALESHWAR,ODISHA
"INDUSIND BANK",INDB0001011,600234027,"SELAIYUR CHENNAI","GROUND FLOOR OLD NO 231NEW NO 384 MAHA SAKTHI VINAYAGAR COMPLEX VELACHERY MAIN ROADSELAIYUR",4422794500,SELAIYUR,KANCHEEPURAM,"TAMIL NADU"
"INDUSIND BANK",INDB0001010,332234003,"SIKAR RAJASTHAN","GROUND FLOOR HALL NO 4 GHAR ANGAN NEAR SANTOSHI MATA MANDIR RANI SATI ROAD SIKAR",252601,SIKAR,SIKAR,RAJASTHAN
"INDUSIND BANK",INDB0001009,143234302,"TARAN TARAN","GROUND FLOOR B 2 11 AMRITSAR ROAD TARAN TARAN PUNJAB",222831,"TARAN TARAN","TARAN TARAN",PUNJAB
"INDUSIND BANK",INDB0001008,400234050,"COLABA MUMBAI","GROUND FLOOR SHOP NO 3 CECIL COURT MAHAKAVI BHUSHAN MARG COLABA",22027008,MUMBAI,"GREATER BOMBAY",MAHARASHTRA
"INDUSIND BANK",INDB0001007,411234018,"SAHAKAR NAGAR PUNE","PANDURANG NIVAS APARTMENT SHOW ROOM NO 1 2 SURVEY NO 62 B PADMADARSHAN CHS PARVATI SATARA RD PUNE",2024212077,SATARA,SATARA,MAHARASHTRA
"INDUSIND BANK",INDB0001006,110234090,SAKET,"UPPER GROUND FLOOR E 27 SAKET PRIVATE BUNGALOWS NEW DELHI",41066308,DELHI,DELHI,DELHI
"INDUSIND BANK",INDB0001005,626234302,VIRUDHUNAGAR,"DOOR NO 137 3 137 4 AND 137 5 KANDHAPURAM STREET KATCHERY ROAD VIRUDHUNAGAR",265077,VIRUDHUNAGAR,VIRUDHUNAGAR,"TAMIL NADU"
"INDUSIND BANK",INDB0001004,520234742,NUZVID,"GROUND FLOOR D NO 25 205 SY NO 450 1 OPP DWARKA TIRUMALA THEATRE THEATRE ROAD NUZVID",236326,NUZVID,KRISHNA,"ANDHRA PRADESH"
"INDUSIND BANK",INDB0001003,403234007,"MAPUSA GOA","GRD FLR JMB S ├╜CAPITAL MAPUSA CANCA BYPASS ROAD NEAR KAVLEKAR TOWERS KHORLIM MAPUSA BARDEZ MAPUSA",9272202438,MAPUSA,"NORTH GOA",GOA
"INDUSIND BANK",INDB0001002,411234016,"PUNE KHARADI","GROUND FLOOR WTC TOWER I OFFICE NO G1A FOUNTAIN ROAD OPP EON FREE ZONE KHARADI PUNE",9272202432,PUNE,PUNE,MAHARASHTRA
"INDUSIND BANK",INDB0001001,160234031,CHANDIGARH,"GROUND FLOOR SCO 36 SECTOR 26 MADHYA MARG CHANDIGARH",1724905456,CHANDIGARH,CHANDIGARH,CHHATTISGARH
"INDUSIND BANK",INDB0001000,400234049,"NALLASOPARA EAST","GROUND FLOOR SHALIBHADRA CLASSIC VASAI NALLASOPARA LINK ROAD NALLASOPARA E",7620490802,NALLASOPARA,THANE,MAHARASHTRA
"INDUSIND BANK",INDB0000999,411234017,"WAKAD PUNE","STILT FLOOR PREMISES SHOP NO 2 AND 3 SOLITAIRE BUSINESS HUB S N. 208 3 2 KASPATE WASTI WAKAD",9272202416,PUNE,PUNE,MAHARASHTRA
"INDUSIND BANK",INDB0000998,NA,PAKANI,"GROUND FLOOR A T POST PAKANI TAL NORTH SOLAPUR DIST SOLAPUR",2911036,SOLAPUR,SOLAPUR,MAHARASHTRA
"INDUSIND BANK",INDB0000995,143234009,FATTUWAL,"GROUND FLOOR MAIN ROAD VPO FATTUWAL",3221083,RAYYA,AMRITSAR,PUNJAB
"INDUSIND BANK",INDB0000994,NA,NARSINGHPURA,"PLOT NO 511 NARSINGHPURA TEHSIL PADAMPUR DISTRIC SRI GANGA NAGAR",276310,NARSINGHPURA,GANGANAGAR,RAJASTHAN
"INDUSIND BANK",INDB0000993,NA,ARAYAN,"GROUND MEZZANINE FLOOR SHOP NO 55 VILLAGE ARAYAN TEHSIL KARANPUR DISTRICT SHRI GANGANAGAR",286013,ARAYAN,GANGANAGAR,RAJASTHAN
"INDUSIND BANK",INDB0000992,NA,LALEWALA,"GRD FLR 48 45 SQUARE CIL LAYOUT SANJAY NAGAR MAIN RD NUMBER 13 LALEWALA PADAMPURA SHRI GANGANAGAR",241310,GANGANAGAR,GANGANAGAR,RAJASTHAN
"INDUSIND BANK",INDB0000991,685234002,THODUPUZHA,"GROUND FLOOR PULIMOOTTIL HOUSE 7 444D 7 444 D1 KOTHAYIKUNNU BYEPASS IDUKKI DIST THODUPUZHA",229946,THODUPUZHA,IDUKKI,KERALA
"INDUSIND BANK",INDB0000990,462234003,"ARERA COLONY BHOPAL","GROUND FLOOR KRISHNA BHAWAN E2 71 ARERA COLONY",2446013,BHOPAL,BHOPAL,"MADHYA PRADESH"
"INDUSIND BANK",INDB0000989,400234048,"MAJIWADA THANE","GRD FLR ACE BUSINESS CENTRE NEXT TO NAVNEET MOTORS LBS MARG GOKUL NAGAR MAJIWADA THANE W MUMBAI",41849500,THANE,THANE,MAHARASHTRA
"INDUSIND BANK",INDB0000988,415234504,KALVADE,"GROUND FLOOR├╜ HANUMAN WARD NEAR JYOTIRLING MANDIR AT POST KALAVADE TEL KARAD DIST SATARA KALVADE",656514,SATARA,SATARA,MAHARASHTRA
"INDUSIND BANK",INDB0000987,147234003,"TARKHERI KALAN","INDUSIND BANK TARKHERI KALAN INDUSIND BANK LTD TARKHERI KALAN PUNJAB",267052,"TARKHERI KALAN",PATIALA,PUNJAB
"INDUSIND BANK",INDB0000986,147234004,GHALORI,"GROUND FLOOR SUNNY ENCLAVE DEVIGARH ROAD GHILORI├╜ PATIALA 147001",9650911858,GHALORI,PATIALA,PUNJAB
"INDUSIND BANK",INDB0000985,325234003,RELGAON,"GROUND FLOOR├╜├╜GRAM PANCHAYAT OFFICE VPO RELGAON TEH DIGOD DISTT KOTA RELGAON",284501,DIGOD,KOTA,RAJASTHAN
"INDUSIND BANK",INDB0000984,325234004,DAYRA,"GRD FLR MS STAR AGRI WARE HOUSING COLLATERAL MGMNT LTD KHASRA NO 361 VILLAGE DAYRA LADPURA KOTA",9982420222,KOTA,KOTA,RAJASTHAN
"INDUSIND BANK",INDB0000983,325234005,MORPA,"GROUND FLOOR HALL ADJ TO MODERN SCHOOL VPO MORPA TEH DIGOD DISTT KOTA",9982420222,DIGOD,KOTA,RAJASTHAN
"INDUSIND BANK",INDB0000982,335234003,FAKIRWALI,"GROUND FLOOR 511A VILLAGE 32RB FAKIRWALI TEH PADAMPURA DIST SRIGANGA NAGAR",284712,GANGANAGAR,GANGANAGAR,RAJASTHAN
"INDUSIND BANK",INDB0000981,415234503,"RETHARE KHURD","GROUND FLOOR CO KRLEDARLING VIKAS SEVA SOCIETY A P RETHARE KHURD TAL KARAD, DIST SATARA",656512,SATARA,SATARA,MAHARASHTRA
"INDUSIND BANK",INDB0000980,NA,"DARGAN HALLI","GROUND FLOOR A T POST DARGHANALLI TAL SOUTH SOLAPUR DIST SOLAPUR",2226220,SOLAPUR,SOLAPUR,MAHARASHTRA
"INDUSIND BANK",INDB0000979,413234003,HOTGI,"A P HOTAGI TAL SOUTH SOLAPUR DIST SOLAPUR 413215",2911035,SOLAPUR,SOLAPUR,MAHARASHTRA
"INDUSIND BANK",INDB0000978,415234505,"BELEWADI HAVELI","GROUND FLOOR├╜ATPOST BELEWADI HAVELI TAL KARAD DIST SATARA BELEWADI HAVELI",656513,KARAD,SATARA,MAHARASHTRA
"INDUSIND BANK",INDB0000977,413234502,BORAMANI,"GROUND FLOOR A T POST BORAMANI TAL SOUTH SOLAPUR DIST SOLAPUR MAHARASHTRA",2256220,SOLAPUR,SOLAPUR,MAHARASHTRA
"INDUSIND BANK",INDB0000976,415234502,CHAREGAON,"GROUND FLOOR A T.POST CHAREGAONTAL KARAD DIST",656515,KARAD,SATARA,MAHARASHTRA
"INDUSIND BANK",INDB0000975,396234504,"BHADELI JAGALALA","GROUND FLOOR OPP HINGRAJ MATA TEMPLE VILLAGE BHADELI JAGALALA VALSAD 396 031 GUJARAT",656365,"BHADELI JAGALALA",NAVSARI,GUJARAT
"INDUSIND BANK",INDB0000974,143234007,"GUJJA PEER","GROUND FLOOR KHASRA NO 148 VILLAGE GUJJA PEER P O DHARIWAL TEH AJNALA DISTT AMRITSAR",220042,AJNALA,AMRITSAR,PUNJAB
"INDUSIND BANK",INDB0000973,NA,KALER,"GROUND FLOOR KHASRA NO 26 5 VILLAGE KALER ADDA RAM TIRATH TEH AJNALA DISTT AMRITSAR",82801,AJNALA,AMRITSAR,PUNJAB
"INDUSIND BANK",INDB0000972,756234102,BHADRAK,"GROUND FLOOR GUPTA COMPLEX SALANDI BY PASS PO PS",240408,BHADRAK,BHADRAK,ODISHA
"INDUSIND BANK",INDB0000971,305234003,KISHANGARH,"UPPER GRD FLR OKAY PLUS SAMRIDHI CENTRAL SHOW ROOM NO 4 5 6 7 8 17 AJMER ROAD KISHANGARH AJMER",242365,KISHANGARH,AJMER,RAJASTHAN
"INDUSIND BANK",INDB0000970,492234009,"PACHPEDI NAKA RAIPUR","GROUND 1ST FLOOR├╜COLORS MALL NH43 PACHPEDINAKA",4024921,RAIPUR,RAIPUR,CHHATTISGARH
"INDUSIND BANK",INDB0000969,767234002,BALANGIR,"GROUND FLOOR ROYAL GREEN COMPLEX TITLAGARH ROAD KAUSHAL CHOWK BESIDE AIR STATION",9238110041,TITLAGARH,BALANGIR,ODISHA
"INDUSIND BANK",INDB0000968,490234002,"NEHRU NAGAR BHILAI","GROUND FLOOR NEAR KRISHNA PUBLIC SCHOOL MAIN ROAD NEHRU NAGAR DURG DIST",2292570,BHILAINAGAR,DURG,CHHATTISGARH
"INDUSIND BANK",INDB0000967,560234019,"SANJAY NAGAR BENGALURU","GROUND FLOOR, NO 1A BLOCK CIL LAYOUT SANJAY NAGAR MAIN ROAD",23512343,BANGALORE,"BANGALORE URBAN",KARNATAKA
"INDUSIND BANK",INDB0000966,600234026,"ALWARPET CHENNAI","FIRST FLOOR SABA HOUSE DOOR NO 130 A 209A ST MARYS ROAD ALWARPET",46795300,CHENNAI,CHENNAI,"TAMIL NADU"
"INDUSIND BANK",INDB0000965,641234009,"TRICHY ROAD COIMBATORE","GROUND FLOOR J S EMPIRE 1217 1 TRICHY ROAD COIMBATORE",4348134,COIMBATORE,COIMBATORE,"TAMIL NADU"
"INDUSIND BANK",INDB0000964,110234089,"SEC NOIDA","GROUND AND BASEMENT FLOOR UNIT NO CS 8 PRATEEK WALK GH 001 SECTOR 77 DIST GAUTAM BUDH NAGAR 201301",9821952266,NOIDA,"GAUTAM BUDDHA NAGAR","UTTAR PRADESH"
"INDUSIND BANK",INDB0000963,700234025,"G C AVENUE KOLKATA","GRD FLR SHOP NO 5A CHITTARANJAN AVENUE G C AVENUE NEAR CHANDNI CHOWK METRO STN BOW BAZAR KOLKATA WB",40055981,KOLKATA,KOLKATA,"WEST BENGAL"
"INDUSIND BANK",INDB0000962,380234024,"SARKHEJ AHMEDABAD","GRD FLR SHOP NO B 10 SOLITAIRE BUSINESS PARK SG HIGHWAY MAKARBA SARKHEJ AHMEDABAD 380051 GUJARAT",29706214,SARKHEJ,AHMADABAD,GUJARAT
"INDUSIND BANK",INDB0000961,454234001,DHAR,"GROUND FLR PLOT NO 10 10 A DHARESHWAR MARG MANDI├╜ROAD DHAR MADHYA PRADESH",232510,DHAR,DHAR,"MADHYA PRADESH"
"INDUSIND BANK",INDB0000950,383234001,HIMMATNAGAR,"GRD FLR SHOP NO 5 6 7 8 KUMAR HOUSE DURGA MILL COMPOUND HIMMATNAGAR SABARKANTHA GUJARAT 383001",241211,HIMATNAGAR,"SABAR KANTHA",GUJARAT
"INDUSIND BANK",INDB0000949,NA,SADIQ,"GRD FLR SHOP NO KH NO 1972 1 VILLAGE MAIN ROAD FARIDKOT ROAD SADIQ TEHSIL FARIDKOT 151212 PUNJAB",221077,SADIQ,FARIDKOT,PUNJAB
"INDUSIND BANK",INDB0000948,534234402,CHINAAMIRAM,"GRD FLR DOOR NO├╜7 WARD NO 7 VENKATARAJU NAGAR JUVVALAPALEM ROAD CHINAAMIRAM 534204 WEST GODAVARI AP",221606,"CHINA AMIRAM","WEST GODAVARI","ANDHRA PRADESH"
"INDUSIND BANK",INDB0000947,457234001,RATLAM,"GRD FLR SATELLITE PLOT NO 71 NEAR UJJALA HOTEL MG ROAD STATION ROAD RATLAM 457001 MADHYA PRADESH",230112,RATLAM,RATLAM,"MADHYA PRADESH"
"INDUSIND BANK",INDB0000946,NA,WARRING,"GROUND FLOOR KH NO 63 21 TEHSIL DISTRICT SH MUKTSAR SAHIB PUNJAB 52025",275036,MUKTSAR,MUKTSAR,PUNJAB
"INDUSIND BANK",INDB0000945,NA,"SOHAN KALAN","GROUND FLOOR KHASRA NO 91 VILLAGE SOHIAN KALAN P O SOHIAN KALAN TEHSIL DIST AMRITSAR 143601",21520,AMRITSAR,AMRITSAR,PUNJAB
"INDUSIND BANK",INDB0000943,143234005,"MEERANKOT KHURD","GROUND FLOOR VILLAGE MEERANKOT KHURD P O MEERANKOT KALAN TEHSIL DIST AMRITSAR 143101 PUNJAB",9569752239,"MIRAN KOT KALAN",AMRITSAR,PUNJAB
"INDUSIND BANK",INDB0000942,142234054,DANGIAN,"GROUND FLOOR VILLAGE MAIN ROAD DANGIAN TEHSIL JAGRAON DISTRICT LUDHIANA PUNJAB 142035",231455,LUDHIANA,LUDHIANA,PUNJAB
"INDUSIND BANK",INDB0000941,NA,CHHAUDHRIWALA,"GROUND FLOOR BHATTAL ROAD VILLAGE CHAUDHRIWALA PO NAUSHRA PANNU DISTRICT TARAN TARAN 143049 PUNJAB",502410,"TARN TARAN",AMRITSAR,PUNJAB
"INDUSIND BANK",INDB0000940,NA,BANEDIA,"HOUSE NO 113 WARD NO 3 CHOURAHA BANEDIA TEHSIL DEPALPUR DIST INDORE 453551",9111944969,DEPALPUR,INDORE,"MADHYA PRADESH"
"INDUSIND BANK",INDB0000939,136234352,BHUSLA,"GROUND FLOOR VPO BHUSLA TEHSIL &GUHLA DIST KHAITAL HARYANA 136034",278007,KAITHAL,KAITHAL,HARYANA
"INDUSIND BANK",INDB0000938,NA,BAGTHALA,"GROUND FLOOR VPO BAGTHALA TEHSIL THANESAR DIST KURUSHETRA HARYANA 136119",276011,KURUKSHETRA,KURUKSHETRA,HARYANA
"INDUSIND BANK",INDB0000937,396234503,"MAGOD DUNGRI","GRD FLR GODOWN NO 2 MAGOD DUNGRI MATSYODYOG VIVIDH KARYAKARI SAHAKARI MANDLI LTD VALSAD GUJ 396020",656465,MAGOD,VALSAD,GUJARAT
"INDUSIND BANK",INDB0000936,110234088,"ANAND VIHAR NEW DELHI","GROUND FLOOR 181 JAGRITI ENCLAVE ANAND VIHAR ROAD NEW DELHI 110092",42603237,DELHI,DELHI,DELHI
"INDUSIND BANK",INDB0000935,380234023,"PALDI CROSS ROAD AHMEDABAD","GROUND FLOOR SHOP NO 2 3 GANGANDEEP PALDI CROSS ROAD PALDI AHMEDABAD 380007 GUJARAT",26577510,AHMEDABAD,AHMADABAD,GUJARAT
"INDUSIND BANK",INDB0000934,145234002,PATHANKOT,"GROUND 1ST FLOOR SCF 2 IMPROVEMENT TRUST SCHEME PATEL CHOWK PATHANKOT 145 001 PUNJAB",2228200,PATHANKOT,GURDASPUR,PUNJAB
"INDUSIND BANK",INDB0000933,302234018,"AMER ROAD JAIPUR","GRD FIRST FLR PLOT NO 43 44 45 46 CRAFTS PALACE GOLIMAR GARDENS SCHEME AMER ROAD JAIPUR 302002 RAJ",2671125,JAIPUR,JAIPUR,RAJASTHAN
"INDUSIND BANK",INDB0000932,600234025,"PERUNGUDI CHENNAI","GRD 1ST FLR PLOT NO118 OLD MAHABALIPURAM ROAD OMR PERUNGUDI CHENNAI 600096 TAMIL NADU",24962391,CHENNAI,CHENNAI,"TAMIL NADU"
"INDUSIND BANK",INDB0000931,600234024,"K K NAGAR CHENNAI","FIRST AND SECOND FLOOR K KARUNANIDHI BUILDING 877A RAMASAMY SALAI KK NAGAR CHENNAI 600078 TAMILNADU",9840740267,CHENNAI,CHENNAI,"TAMIL NADU"
"INDUSIND BANK",INDB0000930,695234005,"KARAMANA THIRUVANANTHAPURAM","GRD FLR NEDIYUZHATHIL TOWERS C NO 20 15 1 KILLIPALAYAM KARAMANA PO THIRUVANANTHAPURAM 695002 KERALA",4000941,THIRUVANANTHAPURAM,THIRUVANANTHAPURAM,KERALA
"INDUSIND BANK",INDB0000929,306234003,FALNA,"GRD FLR MANOHAR BHAWAN WARD NO 9 FALNA KHUDALA ROAD FALNA 306116 PALI DIST RAJ",235511,"KHUDALA FALNA STN",PALI,RAJASTHAN
"INDUSIND BANK",INDB0000928,800234012,"SAGUNA MORE PATNA","GROUND FLOOR PLOT NO 115 SURYA BP COMMERCIAL CENTRE DANAPUR SAGUNA MORE PATNA 801503 BIHAR",222335,PATNA,PATNA,BIHAR
"INDUSIND BANK",INDB0000921,0,"DELHI HUB","INDUSIND BANK, GREEN PARK OFFICE, GREEN PARK, NEW DELHI - 101000",0,DELHI,DELHI,DELHI
"INDUSIND BANK",INDB0000920,142234002,MOGA,"GRD FLR SCF NO 4 5 IMPROVEMENT TRUST SCHEME NO 3 GT ROAD MOGA 142001 PUNJAB",234240,MOGA,MOGA,PUNJAB
"INDUSIND BANK",INDB0000919,140234052,RAJPURA,"GRD FLR C16 17 CALIBRE MARKET OPP PETROL PUMP PATIALA ROAD RAJPURA 140401 PATIALA PUNJAB",240160,RAJPURA,PATIALA,PUNJAB
"INDUSIND BANK",INDB0000918,422234003,NIPHAD,"GRD FLR GRAM PANCHAYAT PROPERTY NO 878 NEW DAWAKHANA ROAD KOLIWADA NIPHAD 422303 NASHIK MAH",241955,NIPHAD,NASIK,MAHARASHTRA
"INDUSIND BANK",INDB0000915,176234152,KANGRA,"GRD FLR JASWAL COMPLEX KHASRA NOS 1769 OPP RAJPUT SABHA DHARAMSHALA RD KANGRA 176001 HIMACHAL",260026,KANGRA,KANGRA,"HIMACHAL PRADESH"
"INDUSIND BANK",INDB0000914,NA,FAZILKA,"GRD FLR HOUSE NO 545 NEAR KRISHNA GALI GOWSHALLA ROAD ARYA NAGAR FAZILKA 152123 FEROZPUR PUNJAB",263140,FAZILKA,FEROZPUR,PUNJAB
"INDUSIND BANK",INDB0000913,641234008,"VADAVALLI COIMBATORE","GRD FLR JV BUILDING S F NO 350 MULLAI NAGAR MARUTHAMALAI MAIN ROAD VADAVALLI COIMBATORE 641041 TN",2425666,VADAVALLI,COIMBATORE,"TAMIL NADU"
"INDUSIND BANK",INDB0000912,638234003,GOBICHETTIPALAYAM,"UPPER GROUND FLOOR GDS NEST 98 CUTCHERRY ROAD GOBICHETTIPALAYAM 638452 ERODE DIST TAMIL NADU",226451,GOBICHETTIPALAYAM,ERODE,"TAMIL NADU"
"INDUSIND BANK",INDB0000911,791234002,ITANAGAR,"NH 52 A E SECTOR NEAR AP CIVIL SECRETARIAT PO PS ITANAGAR 791111 DIST PAPUM PARE AP",2216028,ITANAGAR,PAPUMPARE,"ARUNACHAL PRADESH"
"INDUSIND BANK",INDB0000910,415234352,KARAD,"GUJAR HOUSE 373 PLOT NO 419 SHANIWAR PETH MARKET YARD ROAD KARAD 415110 SATARA DIST MAHARASHTRA",224941,KARAD,SATARA,MAHARASHTRA
"INDUSIND BANK",INDB0000909,700234024,"LAKE TOWN KOLKATA","GROUND FLOOR P721 LAKETOWN BLOCK A KOLKATA 700089 WEST BENGAL",40053703,KOLKATA,KOLKATA,"WEST BENGAL"
"INDUSIND BANK",INDB0000908,400234047,"KALANAGAR BANDRA","GRD FLR HALLMARK BUSINESS PLAZA SHOP NO 001 B SANT DYANESHWAR MARG KALANAGAR BANDRA E MUM 51 MAH",42209400,MUMBAI,"GREATER BOMBAY",MAHARASHTRA
"INDUSIND BANK",INDB0000907,452234017,"KANKARIYA PAL","GROUND FLOOR VILLAGE KANKARIYA PAL PANCHAYAT SANWER TEH HATOD DIST INDORE 453551 MP",9111944636,INDORE,INDORE,"MADHYA PRADESH"
"INDUSIND BANK",INDB0000906,NA,BAHMANWALA,"GROUND FLOOR 237 4 MAIN CHOWK VILLAGE POST BAHMANWALA TEHSIL RATIA FATEHABAD HARYANA 125051",8295400149,FATEHABAD,FATEHABAD,HARYANA
"INDUSIND BANK",INDB0000905,NA,DHOLU,"GROUND FLOOR NEAR BETA DAIRY MAIN BUS STAND DHOLU THE BHUNA DIST FATEHABAD HARYANA 125111",7244273,FATEHABAD,FATEHABAD,HARYANA
"INDUSIND BANK",INDB0000904,NA,LALI,"GRD FLR KHEWAT NO 260 261 NEAR HIGH SCHOOL RATIA ROAD LALI TEH RATIA DIST FATEHABAD HARYANA 125051",7278400,FATEHABAD,FATEHABAD,HARYANA
"INDUSIND BANK",INDB0000903,NA,JATPURA,"VILLAGE JATPURA PO LAMME TEH RAIKOT DISTT LUDHIANA PUNJAB 142034",260070,LUDHIANA,LUDHIANA,PUNJAB
"INDUSIND BANK",INDB0000899,NA,LALBAI,"GROUND FLOOR MAIN BUS STAND ROAD LALBAI DISTT SH MUKTSAR SAHIB PUNJAB 152101",238411,MUKTSAR,MUKTSAR,PUNJAB
"INDUSIND BANK",INDB0000898,NA,KHEOWLI,"GROUND FLOOR MAIN BUS STAND ROAD KHEOWALI DISTT SH MUKTSAR SAHIB PUNJAB 152113",240018,MUKTSAR,MUKTSAR,PUNJAB
"INDUSIND BANK",INDB0000897,148234003,"BALAD KALAN","SHOP NO 82 KHEWAT NO 169 VILLAGE MAIN ROAD BALAD KALAN TEHSIL BHAWANI GARH DISTRICT SANGRUR",9781070002,"BALAD KALAN",SANGRUR,PUNJAB
"INDUSIND BANK",INDB0000896,NA,KAKKARWAL,"GROUND FLOOR SHOP 1 2 OPP BUS STAND VILLAGE MAIN ROAD KAKKARWAL P O DHURI SANGRUR PUNJAB 152101",225604,SANGRUR,SANGRUR,PUNJAB
"INDUSIND BANK",INDB0000895,NA,ANDLU,"GRD FLR KHEWAT NO 364 371 KHATAUNI 418 KHASRA 412 VPO ANDLU TEHSIL RAIKOT LUDHIANA 141108 PUNJAB",262064,RAIKOT,LUDHIANA,PUNJAB
"INDUSIND BANK",INDB0000894,560234018,"WHITEFIELD BENGALURU","GRD FLR SLN HVP ASTER SY NO 28 OPP BRIGADE METROPOLIS WHITEFIELD MAIN RD BENGALURU 560048 KARNATAKA",28531711,BANGALORE,"BANGALORE URBAN",KARNATAKA
"INDUSIND BANK",INDB0000893,533234302,AMALAPURAM,"GRD FLR DNO 1 4 16 1 KNF ROAD AMALAPURAM 533201 EAST GODAVARI DIST ANDHRA PRADESH",233405,AMALAPURAM,"EAST GODAVARI","ANDHRA PRADESH"
"INDUSIND BANK",INDB0000892,413234151,PANDHARPUR,"GROUND FLOOR CITY SURVEY NO 4075 BHOSALE CHOWK NAVI PETH PANDHARPUR 414300 MAHARASHTRA",224417,PANDHARPUR,SOLAPUR,MAHARASHTRA
"INDUSIND BANK",INDB0000891,413234501,MADHA,"GROUND AND FIRST FLOOR GP NO 1015 SHUKRAWAR PETH MADHA 414209 DIST SOLAPUR MAHARASHTRA",235100,MADHA,SOLAPUR,MAHARASHTRA
"INDUSIND BANK",INDB0000890,173234002,SOLAN,"GRD FIRST FLR SHOP NO 3 4 DANG COMPLEX RAJGARH ROAD SOLAN 173 211 HIMACHAL PRADESH",221495,SOLAN,SOLAN,"HIMACHAL PRADESH"
"INDUSIND BANK",INDB0000889,345234002,JAISALMER,"GRD FLR PLOT NO 1 CENTRE PORTION WARD NO 2 OLD SHIV MARG JAISALMER 345001 RAJ",252012,JAISALMER,JAISALMER,RAJASTHAN
"INDUSIND BANK",INDB0000888,834234004,"RATU ROAD  RANCHI","GRD FLR JAJODIA COMPLEX R S PLOT NO 101 102 RATU ROAD RANCHI 834005 JHARKHAND",2284665,RANCHI,RANCHI,JHARKHAND
"INDUSIND BANK",INDB0000887,492234008,"GE ROAD RAIPUR","GROUND FLOOR DUTTA COMPLEX OPP ANUPAM GARDENS G E ROAD RAIPUR 492001 CHHATTISGARH",2254115,RAIPUR,RAIPUR,CHHATTISGARH
"INDUSIND BANK",INDB0000886,370234052,MADHAPAR,"GRD FLR KERAI ARCADE SHOP NO 1 4 NAVAVAS RD MADHAPAR 370020 BHUJ KUTCH GUJARAT",240887,MADHAPAR,KACHCHH,GUJARAT
"INDUSIND BANK",INDB0000885,682234007,"KADAVANTARA KOCHI","GRD FLR JN CORNER SUBHASH CHANDRA BOSE RD JAWAHAR NAGAR KADAVANTARA ERNAKULAM KOCHI 682020 KERALA",2207414,KOCHI,ERNAKULAM,KERALA
"INDUSIND BANK",INDB0000884,848234002,SAMASTIPUR,"GRD FLR RUBY MANSION NH 103 MOHANPUR ROAD OPP BRB COLLEGE SAMASTIPUR 848101 BIHAR",294169,SAMASTIPUR,SAMASTIPUR,BIHAR
"INDUSIND BANK",INDB0000883,302234017,"BMCH AND RC JAIPUR","GRD FLR BHAGWAN MAHAVEER CANCER HOSP RESEARCH CEN BMCH RC JAWAHARLAL NEHRU MARG JAIPUR 302017 RAJ",2704412,JAIPUR,JAIPUR,RAJASTHAN
"INDUSIND BANK",INDB0000882,333234003,PILANI,"GRD FLR VISHRAM VATIKA WARD NO 11 80FT MAIN ROAD KSHETRA PILANI 333031 JHUNJHUNU RAJ",242002,PILANI,JHUNJHUNU,RAJASTHAN
"INDUSIND BANK",INDB0000881,411234015,"FATIMA NAGAR PUNE","1 BTP TAIN SQUARE B BUILDING KOHINOOR CHS SY NO 15 FATIMA NAGAR WANOWRIE PUNE 411040 MAHARASHTRA",26862100,PUNE,PUNE,MAHARASHTRA
"INDUSIND BANK",INDB0000880,380234022,"SHAHIBAUG AHMEDABAD","GRD FLR SHOP NO 10 ADVANCE BUSINESS PARK BLOCK A SHAHIBAUG AHMEDABAD 380004 GUJARAT",25621058,AHMEDABAD,AHMADABAD,GUJARAT
"INDUSIND BANK",INDB0000879,452234015,"SIYAGANJ INDORE","UPPER GROUND FLOOR PREM TRADE CENTRE SHOP NO 5 8 MAHARANI ROAD SIYAGANJ INDORE 452007 MP",2534231,INDORE,INDORE,"MADHYA PRADESH"
"INDUSIND BANK",INDB0000878,452234014,"VIJAY NAGAR INDORE","GROUND FLOOR DHAN TRIDENT PU 4 BLOCK NO B3 AB ROAD SATYA SAI SQUARE VIJAY NAGAR INDORE 452010 MP",235276,INDORE,INDORE,"MADHYA PRADESH"
"INDUSIND BANK",INDB0000877,125234005,SIRSA,"GROUND FLOOR 17 619 BLOCK 17 JANTA BHAWAN ROAD SIRSA 125055 HARYANA",235276,SIRSA,SIRSA,HARYANA
"INDUSIND BANK",INDB0000876,534234202,TANUKU,"GROUND FLOOR SHOP NO 11121314 15 WESTERN SIDEDNO21147 21148 IN THE BUILDING KNOWN AS RAMALINGESWARA COMPLEX NEXT TO RP ROAD TANUKU 534 211 WEST GODAVARI DIST ANDHRA PRADESH",2438121113,TANUKU,"WEST GODAVARI DIST","ANDHRA PRADESH"
"INDUSIND BANK",INDB0000875,403234006,"CALANGUTE GOA","GRD FLR SOLITUDE CODOLIM MAIN ROAD ANNA VADDO CANDOLIM CALANGUTE NORTH GOA 403515 GOA",6518944,CALANGUTE,"NORTH GOA",GOA
"INDUSIND BANK",INDB0000874,414234002,AHMEDNAGAR,"GRD FLR, H. NO 2440 CTS NO 778 TELIKHUNT NEAR POWER HOUSE AHMEDNAGAR 414001 MAHARASHTRA",2340041,AHMADNAGAR,AHMADNAGAR,MAHARASHTRA
"INDUSIND BANK",INDB0000873,826234003,GOVINDPUR,"GROUND FLOOR UPPER BAZAAR G T ROAD GOVINDPUR 828109 DHANBAD DIST JHARKHAND",262149,GOVINDPUR,DHANBAD,JHARKHAND
"INDUSIND BANK",INDB0000872,700234023,"KASBA KOLKATA","GRD FLR RENE TOWER PLOT NO AA1 1842 RAJDHANGA MAIN ROAD WARD NO 107 KASBA KOLKATA 700107 WB",40056052,KOLKATA,KOLKATA,"WEST BENGAL"
"INDUSIND BANK",INDB0000871,452234013,"ANNAPURNA ROAD INDORE","GROUND FLOOR 5A BHAWANIPUR COLONY ANNAPURNA MAIN ROAD INDORE 452009 MADHYA PRADESH",262149,INDORE,INDORE,"MADHYA PRADESH"
"INDUSIND BANK",INDB0000869,135234006,"YAMUNA NAGAR","GROUND FLOOR B 4 2131 JAGDHARI ROAD OPP DEV MARKET YAMUNA NAGAR 135001 HARYANA",220005,YAMUNANAGAR,YAMUNANAGAR,HARYANA
"INDUSIND BANK",INDB0000868,343234002,JALORE,"GRD FLR PLOT NO 12 BLOCK NO 1 WARD NO 5 KASTURBA COLONY BAGODA RD JALORE 343001 RAJASTHAN",223123,JALORE,JALOR,RAJASTHAN
"INDUSIND BANK",INDB0000867,303234002,DAUSA,"GRD FLR SHOP NO 1 2 PLOT NO 10A OPP PWD OFFICE GANDHI TIRAHA AGRA ROAD DAUSA 303303 RAJASTHAN",223194,DAUSA,DAUSA,RAJASTHAN
"INDUSIND BANK",INDB0000866,226234018,"VIDHANSABHA MARG LUCKNOW","GROUND FLOOR 28A VIDHANSABHA MARG BURLINGTON CHAURAHA LUCKNOW 226001 UTTAR PRADESH",2200894,LUCKNOW,LUCKNOW,"UTTAR PRADESH"
"INDUSIND BANK",INDB0000865,226234053,"CHHINHAT LUCKNOW","GRD FLR CP 6 VIKRANT KHAND FAIZABAD ROAD GOMTI NAGAR CHHINHAT LUCKNOW 226010 UTTAR PRADESH",9235400247,LUCKNOW,LUCKNOW,"UTTAR PRADESH"
"INDUSIND BANK",INDB0000864,500234018,"GACHIBOWLI  HYDERABAD","GRD FLR 188 189 BLOCK UNIT NO 1 2 SURVEY NO JANARDHANA HILLS GACHIBOWLI HYDERABAD 500032 TELANGANA",23281807,HYDERABAD,HYDERABAD,TELANGANA
"INDUSIND BANK",INDB0000863,411234014,"NIGDI PUNE","UPPER GRD FLR ABC TIARA SHOP NO 9 10 11 H17 ADC NEXT TO AKURDI RAILWAY STATION NIGDI PUNE 411044 MAH",27650180,NIGDI,PUNE,MAHARASHTRA
"INDUSIND BANK",INDB0000862,400234046,"DINDOSHI GOREGAON E MUMBAI","GRD FLR D B HOUSE YASHODHAM GEN A K VAIDYA MARG DINDOSHI GOREGAON EAST MUMBAI 400063 MAHARASHTRA",28406015,MUMBAI,"GREATER BOMBAY",MAHARASHTRA
"INDUSIND BANK",INDB0000861,480234101,SEONI,"GROUND AND FIRST FLR SHUBH MANGAL COMPLEX NEAR TIKONA PARK G N ROAD SEONI 480661 MP",225226,SEONI,SEONI,"MADHYA PRADESH"
"INDUSIND BANK",INDB0000860,600234023,"NELSON MANICKAM ROAD CHENNAI","GROUND FLOOR PRIYAN PLAZA 76 NELSON MANICKAM ROAD CHENNAI 600029 TAMIL NADU",23741315,CHENNAI,CHENNAI,"TAMIL NADU"
"INDUSIND BANK",INDB0000859,641234007,"RAMANATHAPURAM COIMBATORE","GRD FLR PPTS TOWERS 1951 G TRICHY ROAD RAMANATHAPURAM COIMBATORE 641045 TAMIL NADU",2312466,COIMBATORE,COIMBATORE,"TAMIL NADU"
"INDUSIND BANK",INDB0000858,110234087,"KALKAJI DELHI","GROUND AND BASEMENT FLOOR 19 5 KALKAJI MAIN CR PARK ROAD NEW DELHI 110 019",49066701,DELHI,DELHI,DELHI
"INDUSIND BANK",INDB0000857,390234013,"AKOTA VADODARA","GRD FIRST FLR SHREEJI BUSINESS HUB 66 A SHREENAGAR SOCIETY BPC ROAD AKOTA VADODARA 390 020 GUJARAT",2335592,VADODARA,VADODARA,GUJARAT
"INDUSIND BANK",INDB0000856,751234006,"IRC VILLAGE BHUBANESWAR","INDUSIND BANK LTD GROUND FLOOR RAGHUNATH COMPLEX N1 17 IRC VILLAGE NAYAPALLI JAYADEV VIHAR BHUBANESWAR 751 015 ODISHA",2550341,ODISHA,ODISHA,ODISHA
"INDUSIND BANK",INDB0000855,335234002,"SRIGANGA NAGAR","GRD FLR ANITA ENCLAVE PLOT NO 2 A 4 SUKHADIA NAGAR SUKHADIA MARG SRIGANGANAGAR 335001 RAJASTHAN",2470083,GANGANAGAR,GANGANAGAR,RAJASTHAN
"INDUSIND BANK",INDB0000854,600234022,"CHINMAYA NAGAR CHENNAI","GRD FLR DR KSV TOWERS NEW NO 30 KALIAMMAN KOIL STREET CHINMAYA NAGAR KOYAMBEDU CHENNAI 600092 TN",24792569,CHENNAI,CHENNAI,"TAMIL NADU"
"INDUSIND BANK",INDB0000853,641234022,"OPPANAKARA STREET COIMBATORE","GROUND FLOOR 651 OPPANAKARA STREET COIMBATORE 641001 TAMIL NADU",2399055,COIMBATORE,COIMBATORE,"TAMIL NADU"
"INDUSIND BANK",INDB0000852,392234001,BHARUCH,"GRD FLR SHOP NO 5 6 SHREE MANGALAM COMPLEX B H ADITYA COMPLEX KASAK BHARUCH 392002 GUJARAT",228201,BHARUCH,BHARUCH,GUJARAT
"INDUSIND BANK",INDB0000851,452234011,"CLOTH MARKET","GR AND 1ST FLOOR PLOT NO 31 SIR HUKUMCHAND MARG ITWARIYA BAZAR NEAR SHISH MAHAL CLOTH MARKET INDORE 452 002 MP",9303227840,INDORE,INDORE,"MADHYA PRADESH"
"INDUSIND BANK",INDB0000850,452234012,"Y N ROAD","GR FLOOR SHIRISH CHAMBERS PLOT NO 25 1 YASHWANT NIWAS ROAD Y N ROAD SHIVSHAKTI NAGAR INDORE 452 003 MP",9993200003,INDORE,INDORE,"MADHYA PRADESH"
"INDUSIND BANK",INDB0000849,110234086,"SECTOR NINE ROHINI DELHI","GRD AND FIRST FLR NORTHEX MALL SHOP NO A 1 2 9 10 101 SECTOR 9 ROHINI NEW DELHI 110085",27553024,DELHI,DELHI,DELHI
"INDUSIND BANK",INDB0000848,247234002,SAHARANPUR,"UPPER GRD FIRST FLR PLOT NO 2 M SQUARE VASANT VIHAR DELHI ROAD SAHARANPUR 247 001 UTTAR PRADESH",2729751,SAHARANPUR,SAHARANPUR,"UTTAR PRADESH"
"INDUSIND BANK",INDB0000847,281234102,"VRINDABAN MATHURA","GRD FLR SHRI BHAGWAN BHAJAN ASHRAM PATHUR ROAD FOGALA ASHRAM RAMAN RETI VRINDABAN 281121 MATHURA UP",2540123,VRINDABAN,MATHURA,"UTTAR PRADESH"
"INDUSIND BANK",INDB0000846,400234045,"VASANT VIHAR THANE","GRD FLR SHOP 1 2 3 WING A VASUNDHARA CHS GLADYS ALWARES RD VASANT VIHAR THANE W 400610 MAHARASHTRA",21715064,THANE,THANE,MAHARASHTRA
"INDUSIND BANK",INDB0000845,520234103,"KOTHAPET GUNTUR","GRD FLR, D NO 5 25 521 NEXT TO VIJAYA TALKIES NR HEAD PO KOTHAPET MAIN RD KOTHAPET GUNTUR 522001 AP",2225142,GUNTUR,GUNTUR,"ANDHRA PRADESH"
"INDUSIND BANK",INDB0000844,395234006,"VESU SURAT","GRD FLR SHOP NO G1 SAI VILLA PLOT NO 9 SAI ENCLAVE SOMESHWARA ROAD VESU SURAT 395007 GUJARAT",2215818,VESU,SURAT,GUJARAT
"INDUSIND BANK",INDB0000843,411234013,"BANER PUNE","1ST FLOOR SHOP NO 103 PLOT B ICON TOWER SURVEY 114 AND 115 PLOT B BANER RD PUNE 411043 MAHARASHTRA",6738600,PUNE,PUNE,MAHARASHTRA
"INDUSIND BANK",INDB0000842,110234085,"NAJAFGARH NEW DELHI","GRD FLR SINGLA TOWER 1643 1643 B PREM NAGAR THANA RD OPP POLICE STATION NAJAFGARH NEW DELHI 110043",28013541,DELHI,DELHI,DELHI
"INDUSIND BANK",INDB0000841,492234007,"MG ROAD RAIPUR","GRD FLR RAHEJA COMPLEX PLOT NO 01 02 NEAR M G ROAD GURUNANAK CHOWK RAIPUR 492001 CHHATISGARH",2229701,RAIPUR,RAIPUR,CHHATTISGARH
"INDUSIND BANK",INDB0000840,641234006,"SAIBABA COLONY COIMBATORE","UPPER GRD FLR SUNDARAM ARCADE BEARING SF NO 399 407 NSR ROAD SAIBABA COLONY COIMBATORE 641011 TN",2435540,COIMBATORE,COIMBATORE,"TAMIL NADU"
"INDUSIND BANK",INDB0000839,500234016,"L B NAGAR HYDERABAD","UPPER GRD FLR B S TOWERS PLOT NO 14 15 SURVEY NO 66 MAIN ROAD L B NAGAR HYDERABAD 500074 TELANGANA",24036169,HYDERABAD,HYDERABAD,TELANGANA
"INDUSIND BANK",INDB0000838,400234044,"KOPARKHAIRANE NAVI MUMBAI","GRD FLR SATYAM TOWER SHOP NO 23 24 25 SECTOR 20 KOPARKHAIRANE THANE NAVI MUMBAI 400709 MAHARASHTRA",27555011,THANE,THANE,MAHARASHTRA
"INDUSIND BANK",INDB0000837,415234051,RATNAGIRI,"GRD FLR GALA NO 5 6 SANKESHWAR HERITAGE A WING SHIVAJINAGAR MAIN RD RATNAGIRI 415612 MAHARASHTRA",224095,RATNAGIRI,RATNAGIRI,MAHARASHTRA
"INDUSIND BANK",INDB0000836,492234006,"PANDRI RAIPUR","GRD FLR NO 12 38 1 GOVIND NAGAR OPP NEW BUS STAND JEEVAN BIMA MARG PANDRI RAIPUR 492004 CHATTISGARH",2439701,"PANDRI TARAI",RAIPUR,CHHATTISGARH
"INDUSIND BANK",INDB0000835,160234030,"SECTOR THIRTY EIGHT CHANDIGARH","GROUND AND BASEMENT FLOOR SCO 301 302 SECTOR 38D CHANDIGARH 160038",4965199,CHANDIGARH,CHANDIGARH,CHANDIGARH
"INDUSIND BANK",INDB0000834,190234003,"BURZULLA SRINAGAR","GROUND FLOOR 322 MIN BURZULLA BAGAAT INDIRA GANDHI AIRPORT ROAD SRINAGAR 190005 JAMMU KASHMIR",2440261,SRINAGAR,SRINAGAR,"JAMMU AND KASHMIR"
"INDUSIND BANK",INDB0000833,208234008,"JAJMAU KANPUR","GROUND FLOOR 337 D BLOCK D SCHEME NO 39 DEFENCE COLONY JAJMAU KANPUR 208010 UP",2400390,KANPUR,"KANPUR CITY","UTTAR PRADESH"
"INDUSIND BANK",INDB0000832,226234017,"VRINDAVAN YOJANA LUCKNOW","UPPER GRD FLR PLOT NO 9A 9B SARASWATI PURAM RAE BARELI ROAD VRINDAVAN YOJANA LUCKNOW 226014 U P",2668915,LUCKNOW,LUCKNOW,"UTTAR PRADESH"
"INDUSIND BANK",INDB0000831,110234084,"KRISHNA NAGAR NEW DELHI","GROUND FLOOR F 2 14 BLOCK F KRISHNA NAGAR NEW DELHI 110051",5271401,DELHI,DELHI,DELHI
"INDUSIND BANK",INDB0000830,412234152,SHIRWAL,"GRD FLR SHIWANKAR COMPLEX PROPERTY NO 2409 GAT NO 525B KHANDALA SHIRWAL 412801 SATARA MAH",244120,SHIRWAL,SATARA,MAHARASHTRA
"INDUSIND BANK",INDB0000829,411234012,CHAKAN,"UNIT NOS G1 G2 G15 G16 SAI CORPORATE GAT NO 1209 PUNE NASHIK ROAD CHAKAN 410501 PUNE MAHARASHTRA",30462050,CHAKAN,PUNE,MAHARASHTRA
"INDUSIND BANK",INDB0000828,484234001,SHAHDOL,"GROUND FIRST FLR KHASRA NO 3 7 PLOT NO 3 WARD NO19 BURHAR ROAD SHAHDOL 484001 MADHYA PRADESH",241241,BURHAR,SHAHDOL,"MADHYA PRADESH"
"INDUSIND BANK",INDB0000827,263234002,HALDWANI,"GRD FLR GURUNANAK TOWER D 1158 DURGA CITY CENTRE BHATIA PARAO HALDWANI 263141 NAINITAL UTTARAKHAND",7579427894,HALDWANI,NAINITAL,UTTARAKHAND
"INDUSIND BANK",INDB0000826,160234029,"SECTOR TWENTY D CHANDIGARH","GROUND FIRST AND SECOND FLOOR SCO NO 1 SECTOR 20 D CHANDIGARH 160020",2546021,CHANDIGARH,CHANDIGARH,CHANDIGARH
"INDUSIND BANK",INDB0000825,332234002,"NEEM KA THANA","GROUND FLOOR HOTEL GANGES GARDEN WARD NO 2 SHAHPURA ROAD NEEM KA THANA 332 713 SIKAR RAJASTHAN",232851,"NEEM KA THANA",SIKAR,RAJASTHAN
"INDUSIND BANK",INDB0000824,301234003,BEHROR,"GRD FLR DEEWAN COMPLEX ALWAR ROAD NEAR DELHI HIGHWAY CROSSING BEHROR 301701 ALWAR RAJASTHAN",222012,BEHROR,ALWAR,RAJASTHAN
"INDUSIND BANK",INDB0000823,520234002,"ONE TOWN VIJAYAWADA","GRD FLR VENKATA SATYA SAI COMPLEX 11 25 37 VINNAKOTAVARI CHOWK ONE TOWN KT RD VIJAYAWADA 520001 AP",2568416,VIJAYAWADA,KRISHNA,"ANDHRA PRADESH"
"INDUSIND BANK",INDB0000822,600234021,"WEST ANNA NAGAR","2067 13TH MAIN ROAD",9176599773,CHENNAI,CHENNAI,"TAMIL NADU"
"INDUSIND BANK",INDB0000821,110234082,"SAFDARJUNG ENCLAVE NEW DELHI","PLOT NO 4 BLOCK 6 7 LOCAL SHOPPING CENTRE SAFDARJUNG ENCLAVE NEW DELHI 110 029",26715311,DELHI,DELHI,DELHI
"INDUSIND BANK",INDB0000820,302234016,"SHYAM NAGAR JAIPUR","GRD FLR OKAY PLUS DP METRO PLOT NO 5 6 DP COLONY NEW SANGANER RD SHYAM NAGAR JAIPUR 302019 RAJASTHAN",2293150,JAIPUR,JAIPUR,RAJASTHAN
"INDUSIND BANK",INDB0000819,224234102,AKBARPUR,"GRD FLR GALAXY TOWER GALA NO 46 ABDULLAPUR SHAHZADPUR VARANASI RD AKBARPUR 224122 AMBEDKAR NAGAR UP",260009,AKBARPUR,"AMBEDKAR NAGAR","UTTAR PRADESH"
"INDUSIND BANK",INDB0000818,230234002,PRATAPGARH,"GRD FLR 650 651 K.N HEIGHTS SHOPPING COMPLEX VRINDAVAN PALACE 237 CIVIL LINES PRATAPGARH 230001 UP",220024,PRATAPGARH,PRATAPGARH,"UTTAR PRADESH"
"INDUSIND BANK",INDB0000817,110234083,"VAISHALI GHAZIABAD","GROUND FLOOR SUPERTECH AVANT GRANDE PLOT NO 1 SEC 5 VAISHALI GHAZIABAD 201010 UTTAR PRADESH",2770451,GHAZIABAD,GHAZIABAD,"UTTAR PRADESH"
"INDUSIND BANK",INDB0000816,142234052,JAGRAON,"GRD FLR H NO 373 B KHASRA NO 590 WARD NO 12 NEAR BUS STAND GT ROAD JAGRAON 142 026 LUDHIANA PUNJAB",220226,JAGRAON,LUDHIANA,PUNJAB
"INDUSIND BANK",INDB0000815,313234004,SUKHER,"GROUND FLOOR HOTEL RADHIKA PALACE MAIN ROAD SUKHER 313004 DIST UDAIPUR RAJASTHAN",2440028,SUKHER,UDAIPUR,RAJASTHAN
"INDUSIND BANK",INDB0000814,455234001,DEWAS,"GRD FLR PANJWANI PLAZA 4 NARAYAN NAGAR JAWAHAR NAGAR CHOWRAHA AB ROAD DEWAS 455001 MP",2259904,DEWAS,DEWAS,"MADHYA PRADESH"
"INDUSIND BANK",INDB0000813,794234002,TURA,"1ST FLOOR DAG NO 1195 TURA DALU ROAD NAKHAM BAZAR TURA 794001 DIST WEST GARO HILLS MEGHALAYA",220095,TURA,"WEST GARO HILLS",MEGHALAYA
"INDUSIND BANK",INDB0000812,831234004,"SAKCHI JAMSHEDPUR","GROUND FLOOR THE BENGAL CLUB 13 SNP AREA SAKCHI HIGHWAY SAKCHI JAMSHEDPUR DIST PURBI SINGBHUM 831001",2222270,JAMSHEDPUR,"PURBI SINGHBHUM",JHARKHAND
"INDUSIND BANK",INDB0000811,396234151,UMBERGAON,"GRD FLR SHOP 1 2 10 RIDDHI SIDDHI CHS R S NO 45 P 2P ST RD UMBERGAON DIST VALSAD GUJARAT 396165",2560052,VALSAD,VALSAD,GUJARAT
"INDUSIND BANK",INDB0000810,500234017,"S R NAGAR HYDERABAD","GRD FLR D NO 7 1 397 111 112 HEMALATHA MANSION MAIN RD S R NAGAR HYDERABAD 500038 TELANGANA",23711512,HYDERABAD,HYDERABAD,TELANGANA
"INDUSIND BANK",INDB0000809,274234302,SALEMPUR,"GRD FLR DEORIA SALEMPUR MAIN RD NEAR BAPU SCHOOL ARAJI MOUJA PIPRA MOHAN SALEMPUR DEORIA 272945 UP",220301,SALEMPUR,DEORIA,"UTTAR PRADESH"
"INDUSIND BANK",INDB0000808,451234101,SENDHWA,"GRD FLR COMMERCIAL PROPERTY NO 20 188 SHYAMADAS COLONY A B ROAD WARD NO 20 SENDHWA BARWANI 451666 MP",222781,SENDHWA,BARWANI,"MADHYA PRADESH"
"INDUSIND BANK",INDB0000807,781234011,"ATHGAON GUWAHATI","1ST FLOOR NIZAMI ARCADE SATI JAYMATI ROAD NEAR MOSQUE ATHGAON GUWAHATI 781001 ASSAM",2735322,GUWAHATI,"KAMRUP METROPOLITAN",ASSAM
"INDUSIND BANK",INDB0000806,733234402,ISLAMPUR,"GRD FLR NEW TOWN BHAWAN NEW TOWN RD DESHBANDHU PARA ISLAMPUR 733 202 UTTAR DINAJPUR WB",255254,ISLAMPUR,"UTTAR DINAJPUR","WEST BENGAL"
"INDUSIND BANK",INDB0000805,466234051,SEHORE,"GRD FLR PLOT NO 16 16 583 BLOCK NO 3 OPP PATEL PETROL PUMP NEW BUS STAND SEHORE 466001 MP",8818883996,SEHORE,SEHORE,"MADHYA PRADESH"
"INDUSIND BANK",INDB0000804,110234081,"VIKASPURI NEW DELHI","GROUND FLOOR NO 6 G BLOCK VIKASPURI NEW DELH 110018",43465792,DELHI,DELHI,DELHI
"INDUSIND BANK",INDB0000803,600234020,"ROYAPETTAH CHENNAI","UPPER GRD FIRST FLR DOOR NO 151 OLD DOOR NO 90 AVVAI SHANMUGAM SALAI ROYAPETTAH CHENNAI 600 014 TN",49527607,CHENNAI,CHENNAI,"TAMIL NADU"
"INDUSIND BANK",INDB0000802,144234253,KAPURTHALA,"GROUND FLOOR 38 MALL ROAD OPP MAIN POST OFFICE KAPURTHALA 144601 DIST KAPURTHALA PUNJAB",236551,KAPURTHALA,KAPURTHALA,PUNJAB
"INDUSIND BANK",INDB0000801,144234006,"TANDA ROAD JALANDHAR","GROUND FLOOR B 1 823 4 RERU TANDA ROAD JALANDHAR 144 004 PUNJAB",2490600,JALANDHAR,JALANDHAR,PUNJAB
"INDUSIND BANK",INDB0000800,229234002,"RAE BARELI","UPPER GRD FLR H NO 274 WARD NO 24 MOHALLA HOSPITAL RD PERGANA RAE BARELI 229001 U P",2210151,"RAE BARELI","RAI BARELI","UTTAR PRADESH"
"INDUSIND BANK",INDB0000799,276234002,AZAMGARH,"GROUND FLOOR 109 CIVIL LINES AARAJI MAUJA PO TEHSIL SADAR AZAMGARH 276001",247400,AZAMGARH,AZAMGARH,"UTTAR PRADESH"
"INDUSIND BANK",INDB0000798,464234001,RAISEN,"GRD FLR WARD NO 10 SAGAR ROAD NEAR RAMLILA MAIDAN KHASRA NO 482 1 RAISEN 464551 MADHYA PRADESH",222901,RAISEN,RAISEN,"MADHYA PRADESH"
"INDUSIND BANK",INDB0000797,272234102,KOPAGANJ,"GRD FLR HOUSE NO 378 WARD NO 1 NH 29 DOSTPURA NEAR ANIMAL HOSPITAL KOPAGANJ DIST MAU 275305 UP",2506001,KOPAGANJ,MAU,"UTTAR PRADESH"
"INDUSIND BANK",INDB0000796,497234101,MANENDRAGARH,"GRD FLR PROPERTY PLOT NO 188 2 MAIN RAOD NEAR PWD OFFICE MANENDRAGARH KORIYA 497442 CHHATTISGARH",243142,MANENDRAGARH,KORIYA,CHHATTISGARH
"INDUSIND BANK",INDB0000795,208234007,"P ROAD KANPUR","GROUND FLOOR 108 18 PLOT NO 19 20 P ROAD KANPUR 208001 UTTAR PRADESH",3365120,KANPUR,"KANPUR CITY","UTTAR PRADESH"
"INDUSIND BANK",INDB0000794,731234302,SURI,"GRD FLR HOUSE NO 141 147 BESIDE MODERN DIAGNOSTIC DANGALPARA N S RD SURI BIRBHUM 731101 WB",255118,SURI,BIRBHUM,"WEST BENGAL"
"INDUSIND BANK",INDB0000793,388234071,BORSAD,"GRD FLR 11 OPP TO SWAMINARAYAN TEMPLE BHADRAN TARAPUR ROAD ANAND CHOKDI BORSAD ANAND 388540 GUJARAT",220360,BORSAD,ANAND,GUJARAT
"INDUSIND BANK",INDB0000792,721234402,CONTAI,"GRD FLR MUNICIPALITY HOLDING NO 577 539 HATAHARI BADSHAH COMPLEX, CONTAI PURVA MIDNAPAR 721401 WB",258971,CONTAI,"PURBA MEDINIPUR","WEST BENGAL"
"INDUSIND BANK",INDB0000791,NA,JAND,"GRD FLR SHOP NO 1 2 KHASARA NO 4 23 2 2 VILLAGE JAND 144 205 DISTT HOSHIARPUR PUNJAB",285132,HOSHIARPUR,HOSHIARPUR,PUNJAB
"INDUSIND BANK",INDB0000790,274234202,KASYA,"GROUND FLOOR H NO 220 WARD NO 09 SAPHA ROAD TULSI NAGAR KASYA 277402 KUSHINAGAR UTTAR PRADESH",271038,KASIA,"KUSHI NAGAR","UTTAR PRADESH"
"INDUSIND BANK",INDB0000789,160243028,"SECTOR TWENTY TWO CHANDIGARH","GROUND FLOOR SCO NO 1100 1101 SECTOR 22 B CHANDIGARH 160022",4008667,CHANDIGARH,CHANDIGARH,CHANDIGARH
"INDUSIND BANK",INDB0000788,NA,MADHOPUR,"GRD FLR KH NO 133 1 02 VILLAGE MAIN ROAD OPP GURUDWARA MADHOPUR NAKODER KAPURTHALA PUNJAB 144623",258152,MADHOPUR,GURDASPUR,PUNJAB
"INDUSIND BANK",INDB0000787,NA,CHAURHA,"GRD FLR CHAURHA PO DAGAM GARHSHANKAR DIST HOSHIARPUR PUNJAB PIN 144527",280149,GARHSHANKAR,HOSHIARPUR,PUNJAB
"INDUSIND BANK",INDB0000786,NA,"CHAK MAI DASS","GRD FLR SHOP NO 1 2 VILLAGE MAIN ROAD CHAK MAI DASS BLOCK BANGA NAVASAHER PUNJAB 144201",7355563820,BANGA,NAWANSHAHR,PUNJAB
"INDUSIND BANK",INDB0000785,NA,BAGHANA,"GRD FLR MAIN ROAD BAGHANA MAIN CHOWK VPO BHAGANA TEH DIST PHAGWARA PUNJAB PIN 144405",242058,PHAGWARA,KAPURTHALA,PUNJAB
"INDUSIND BANK",INDB0000784,NA,SAPRUR,"GRD FLR MAIN ROAD OPP SHAHIDAN PO NANGAL MAJHA VILLAGE SAPRUR DISTT KAPURTHALA PUNJAB PIN 144403",240109,KAPURTHALA,KAPURTHALA,PUNJAB
"INDUSIND BANK",INDB0000783,NA,SHARAKPUR,"GRD FLR SHOP NO 1 2 VILLAGE MAIN ROAD NEAR SARPANCH HOUSE SHARAKPUR NAKODAR JALANDHAR PUNJAB 144042",220285,NAKODAR,JALANDHAR,PUNJAB
"INDUSIND BANK",INDB0000782,303234026,LALSOT,"GRD FLR KHASRA NO 1412 COMMERCIAL SCHEME NEW ANAJ MANDI SAWAI LALSOT 303503 DAUSA RAJASTHAN",260100,LALSOT,DAUSA,RAJASTHAN
"INDUSIND BANK",INDB0000781,208234006,"CIVIL LINES KANPUR","GRD FLR OFFICE NO 2 FIRST FLOOR OFFICE NO 110 KAN CHAMBERS BLDG 14 113 CIVIL LINES KANPUR 208001 UP",3963123,KANPUR,"KANPUR CITY","UTTAR PRADESH"
"INDUSIND BANK",INDB0000780,143234004,"MAJITHMANDI AMRITSAR","GROUND FLOOR 681 82 6 BAGH JHANDHA SINGH MAJITHMANDI AMRITSAR 143006 PUNJAB",5015020,AMRITSAR,AMRITSAR,PUNJAB
"INDUSIND BANK",INDB0000779,NA,KARIHA,"VPO KARIHA TEHSIL NAWASHAHR DISTRICT SHAHEED BHAGAT SINGH NAGAR PUNJAB PIN 144508",278563,NAWANSHAHAR,NAWANSHAHR,PUNJAB
"INDUSIND BANK",INDB0000778,NA,JHINGRAN,"GRD FLR SHOP NO 3 4 VILLAGE MAIN ROAD JHINGRAN BLOCK AND TEH BANGA DISTT NAVASAHER PUNJAB 144507",243917,BANGA,NAWANSHAHR,PUNJAB
"INDUSIND BANK",INDB0000777,NA,"RAJ GOMAL","GROUND FLOOR SHOP NO 1 MAIN CHOWK,RAJ GOMAL MAIN CHOWK TEHSIL RORKA KALAN JALANDHAR PUNJAB 144031",270143,"ROURKA KALAN",JALANDHAR,PUNJAB
"INDUSIND BANK",INDB0000776,NA,"LALIAN KHURD","GROUND FLOOR VILLAGE LALIAN KHURD POST LAMBRA TEH JALLANDHAR WEST JALLANDHAR PUNJAB PIN 144026",2792835,LAMBRA,JALANDHAR,PUNJAB
"INDUSIND BANK",INDB0000775,NA,BHULPUR,"GROUND FLOOR SHOP NO 1 2 3 VILLAGE MAIN ROAD BHULPUR VILLAGE HOSHIARPUR PUNJAB 144202",237184,HOSHIARPUR,HOSHIARPUR,PUNJAB
"INDUSIND BANK",INDB0000774,NA,"RAMPUR KHALIYAN","GRD FLR SHOP NO 1 2 MAIN CHOWK RAMPUR KHALYAN PHAGWARA KAPURTHALA PUNJAB 144405",243182,PHAGWARA,KAPURTHALA,PUNJAB
"INDUSIND BANK",INDB0000773,NA,"KAPUR PIND","GRD FLR SHOP NO 1 2 MAIN CHOWK KAPUR PIND DEFENCE ROAD KAPUR PIND ADAMPUR JALANDHAR PUNJAB 144025",2700068,ADAMPUR,JALANDHAR,PUNJAB
"INDUSIND BANK",INDB0000772,NA,GHORAWAHI,"GRD FLR SHOP NO 1 2 MAIN CHOWK GHORAWAHI VPO GHORAWAHI TEH BHOGPUR DISTT JALANDHAR PUNJAB 144201",2725963,BHOGPUR,JALANDHAR,PUNJAB
"INDUSIND BANK",INDB0000771,530234004,"DWARKA NAGAR VISAKHAPATNAM","GRD FLR 47 10 24 25 SAI TRADE CENTRE DWARKA NAGAR 2ND LANE VISAKHAPATNAM 530 016 ANDHRA PRADESH",3987100,VISAKHAPATNAM,VISHAKHAPATNAM,"ANDHRA PRADESH"
"INDUSIND BANK",INDB0000770,797234102,KOHIMA,"FIRST FLOOR RAZHU POINT PLOT NO 183 D BLOCK MAIN TOWN ROAD KOHIMA 797 001 DIST KOHIMA NAGALAND",2290241,KOHIMA,KOHIMA,NAGALAND
"INDUSIND BANK",INDB0000769,144234987,BEGOWAL,"GRD FLR 1 287 WARD NO 1 ADDA SATGURU RAKHANA CHOWK BEGOWAL 144621 DIST KAPURTHALA PUNJAB",2248815,BEGOWAL,GURDASPUR,PUNJAB
"INDUSIND BANK",INDB0000768,332234051,FATEHPUR,"GRD FLR 3 4 15 TO 19 BHAGWAN PLAZA BAWRI GATE SIKAR FATEHPUR 332301 RAJASTHAN",9261146,FATEHPUR,Sikar,RAJASTHAN
"INDUSIND BANK",INDB0000767,311234051,ASIND,"GRD FLR PLOT NO 72 NEAR PRATAP CIRCLE OPP PANCHAYAT SAMITI ASIND DISTT BHILWARA 311301 RAJASTHAN",1220975,ASIND,BHILWARA,RAJASTHAN
"INDUSIND BANK",INDB0000766,456234002,UJJAIN,"GRD FLR PLOT NO 21 22 BAKHTAWAR MARG MADHAWANAGAR FREEGANJ UJJAIN 456010 TALUKA UJJAIN MP",2525064,UJJAIN,UJJAIN,"MADHYA PRADESH"
"INDUSIND BANK",INDB0000765,247234102,ROORKEE,"GROUND FLOOR NO 1057 CIVIL LINES HARIDWAR ROAD ROORKEE 247667 DIST HARIDWAR UTTARAKHAND",270073,ROORKEE,HARIDWAR,UTTARAKHAND
"INDUSIND BANK",INDB0000764,781234010,"AMBARI  GUWAHATI","GRD FLR AGNI SHANTI BUSINESS PARK GNB ROAD AMBARI WARD NO 33 DIST KAMRUP GUWAHATI 781001 ASSAM",8003301,GUWAHATI,KAMRUP,ASSAM
"INDUSIND BANK",INDB0000763,110234080,"SECTOR FIFTEEN GURGAON","GROUND AND FIRST FLOOR SCO NO 29 SECTOR 15 PART 2 HUDA MARKET GURGAON 122001 HARYANA",4268617,GURGAON,GURGAON,HARYANA
"INDUSIND BANK",INDB0000762,781234009,"MALIGAON GUWAHATI","GRD FLR 397 398 NEW VISHAL HOUSING SOCIETY A T ROAD MALIGAON GUWAHATI 781009 KAMRUP METRO ASSAM",2673001,GUWAHATI,"KAMRUP METROPOLITAN",ASSAM
"INDUSIND BANK",INDB0000761,249234002,HARIDWAR,"GRD FLR HOTEL VIJAY LAKSHMI INN NEAR CHANDRACHARYA C RANIPUR MODE HARIDWAR 249407 UTTARAKHAND",222311,HARDWAR,HARIDWAR,UTTARAKHAND
"INDUSIND BANK",INDB0000760,682234006,"PALARIVATTOM KOCHI","GRD FLR 32 1169 A1 JJ BLDG CIVIL LINES ROAD PALARIVATTOM ERNAKULUM KOCHI 682025 KERALA",2341301,KOCHI,ERNAKULAM,KERALA
"INDUSIND BANK",INDB0000759,125234103,FATEHABAD,"GROUND FLOOR KHASARA NO 713 G T ROAD FATEHABAD DISTT FATEHABAD 125050 HARYANA",220484,FATEHABAD,FATEHABAD,HARYANA
"INDUSIND BANK",INDB0000758,492234004,"SHANKARNAGAR RAIPUR","GRD FLR SHOP NO 1 8 JEEVAN APARTMENTS KHASRA NO 478 SHANKAR NAGAR 492007 RAIPUR CHHATTISGARH",2446426,RAIPUR,RAIPUR,CHHATTISGARH
"INDUSIND BANK",INDB0000757,781234008,"SHILPHUKURI GUWAHATI","GRD FLR 386 NEXT TO ASSAM TRIBUNE MRD RD PO CHANDMARI SHILPHUKURI KAMRUP GUWAHATI 781003 ASSAM",2660030,GUWAHATI,KAMRUP,ASSAM
"INDUSIND BANK",INDB0000756,110234077,"PALAM VIHAR GURGAON","GRD FLR SHOP NO G18 UPPER FLR SHOP NO UG 122 PALAM CORP PLAZA PALAM VIHAR GURGAON 122017 HARYANA",4268648,GURGAON,GURGAON,HARYANA
"INDUSIND BANK",INDB0000755,110234079,"SECTOR ONE HUNDRED AND NINETEEN NOIDA","GROUND FLOOR PLOT NO GH 004 HALL NO 8 SEC 119 NOIDA 201 301 GAUTAM BUDH NAGAR UTTAR PRADESH",6900373,NOIDA,"GAUTAM BUDDHA NAGAR","UTTAR PRADESH"
"INDUSIND BANK",INDB0000754,208234005,"KAKADEO KANPUR","GROUND FLOOR 117 N 60 A1 MARKET KAKADEO KANPUR 208025 UTTAR PRADESH",3356000,KANPUR,"KANPUR CITY","UTTAR PRADESH"
"INDUSIND BANK",INDB0000753,208234004,"KARACHIKHANA KANPUR","GROUND FLOOR PLANET SAGAR 25 39 KARACHIKHANA KANPUR 208001 UTTAR PRADESH",3082866,KANPUR,"KANPUR CITY","UTTAR PRADESH"
"INDUSIND BANK",INDB0000752,380234020,"NARODA AHMEDABAD","GROUND FLOOR SHOP NOS 32 TO 37 NEELKANTH PARADISE PLOT NO 34 NARODA AHMEDABAD 382220 GUJARAT",22811206,AHMEDABAD,AHMADABAD,GUJARAT
"INDUSIND BANK",INDB0000751,313234026,SALUMBER,"GROUND FLOOR KHASRA NO 697 UDAIPUR ROAD SALUMBER 313027 RAJASTHAN",232146,SALUMBAR,UDAIPUR,RAJASTHAN
"INDUSIND BANK",INDB0000750,226234016,"MUNSHIPULIA LUCKNOW","GRD FLR REGAL PLAZA PLOT NO 16 103 RING ROAD INDIRA NAGAR EXTN MUNSHI PULIA LUCKNOW 226016 U P",2719016,LUCKNOW,LUCKNOW,"UTTAR PRADESH"
"INDUSIND BANK",INDB0000749,132234004,PANIPAT,"GRD FLR AMRIT HANDLOOM BLDG SANJAY CHOWK G T KARNAL ROAD KHASRA NO 3675 PANIPAT 132 103 HARYANA",4093903,PANIPAT,PANIPAT,HARYANA
"INDUSIND BANK",INDB0000748,110234078,"SECTOR FIFTY EIGHT BISHANPURA NOIDA","M 1 SHOP NO 1 VILLAGE BISHANPURA SECTOR 58 NOIDA 201301 UTTAR PRADESH",3807500,BISHANPURA,BIJNOR,"UTTAR PRADESH"
"INDUSIND BANK",INDB0000747,110234075,"IFFCO CHOWK GURGAON","SHOP NO 9 GRD FLR ABW TOWER IFFCO CHOWK GURGAON 122001 HARYANA",3817009,GURGAON,GURGAON,HARYANA
"INDUSIND BANK",INDB0000746,411234011,"BHANDARKAR ROAD PUNE","PLOT NO 148A BILWAKUNJ APARTMENT NR BHANDARKAR INSTITUTE BHANDARKAR ROAD PUNE 411004 MAHARASHTRA",25651391,PUNE,PUNE,MAHARASHTRA
"INDUSIND BANK",INDB0000745,700234026,"VIP ROAD KOLKATA","GROUND FLOOR SHOW ROOM NOS GR 8A AND GR 8B P S MAGNUM COMPLEX P S BAGUIHATI VIP ROAD KOIKHALI",40443675,KOLKATA,KOLKATA,"WEST BENGAL"
"INDUSIND BANK",INDB0000744,344234026,BALOTRA,"GRD FLR PLOT NO E 90 A INDUSTRIAL AREA IST PHASE KHER ROAD BALOTRA DIST BARMER 344022 RAJASTHAN",221111,BALOTRA,BARMER,RAJASTHAN
"INDUSIND BANK",INDB0000743,160234027,"SECTOR FOURTY CHANDIGARH","GROUND FLOOR SCO 224 225 BASEMENT OF SCO 224 SEC 40 D CHANDIGARH 160036",4651351,CHANDIGARH,CHANDIGARH,CHANDIGARH
"INDUSIND BANK",INDB0000742,110234074,"SECTOR SEVENTEEN GURGAON","SCF 61 HUDA MARKET SECTOR 17 GURGAON HARYANA 122001",2340443,GURGAON,GURGAON,HARYANA
"INDUSIND BANK",INDB0000741,560234017,"RAJARAJESHWARINAGAR BANGALORE","GRD FLR SANKRANTI ARC NO 285C PHASE I IDEAL HOME SOC RAJARAJESHWARINAGAR BANGALORE 560098",28606671,BANGALORE,"BANGALORE URBAN",KARNATAKA
"INDUSIND BANK",INDB0000740,500234015,"A S RAO NAGAR HYDERABAD","GRD FLR GAYATRI ARCADE NO 5 TYAGARAYANAGAR A S RAO NAGAR KAPRA HYDERABAD 500062 TELANGANA",27135526,HYDERABAD,HYDERABAD,"ANDHRA PRADESH"
"INDUSIND BANK",INDB0000739,207234002,KAIMGANJ,"GRD FLR 989 990 MOHALLA RAILWAY RD CHOURAHA KAMPIL RD KAIMGANJ FARUKHABAD 207502 UTTAR PRADESH",230171,KAIMGANJ,FARRUKHABAD,"UTTAR PRADESH"
"INDUSIND BANK",INDB0000738,209234302,KANNAUJ,"GRD FLR ISMAIL COMPLEX POLICE LINE M G ROAD KANNAUJ 209725 UTTAR PRADESH",234307,KANNAUJ,KANAUJ,"UTTAR PRADESH"
"INDUSIND BANK",INDB0000737,400234043,"MASJID BUNDER MUMBAI","SHOP NO 1 AND 2 SHOP NO 5 6 6A 6B 290 NARSI NATHA STREET MASJID BUNDER MUMBAI 400009 MAHARASHTRA",23402002,MUMBAI,"GREATER BOMBAY",MAHARASHTRA
"INDUSIND BANK",INDB0000736,263234202,RUDRAPUR,"GRD FLR NO 8 AWAS VIKAS COLONY D D CHOWK NANITAL RD RUDRAPUR 263153 UDHAM SINGH NAGAR UTTARAKHAND",240238,RUDRAPUR,"UDHAM SINGH NAGAR",UTTARAKHAND
"INDUSIND BANK",INDB0000735,110234072,"MOHAN CO-OPERATIVE INDL ESTATE DELHI","GROUND FLOOR A17 BLOCK B1 MOHAN CO OP INDUSTRIAL ESTATE MATHURA ROAD DELHI 110016",41324907,DELHI,DELHI,DELHI
"INDUSIND BANK",INDB0000734,243234003,"JANAKPURI BAREILLY","GROUND FLOOR 614 UDAIPUR KHAAS PILLIBHIT ROAD JANAKPURI BAREILLY 243001 UTTAR PRADESH",2300035,BAREILLY,BAREILLY,"UTTAR PRADESH"
"INDUSIND BANK",INDB0000733,110234076,"VASUNDHARA GHAZIABAD","GRD AND FIRST FLR 13C 16 MAIN ROAD VASUNDHARA GHAZIABAD 201 012 UTTAR PRADESH",4209639,GHAZIABAD,GHAZIABAD,"UTTAR PRADESH"
"INDUSIND BANK",INDB0000732,160234026,"SECTOR SEVENTY MOHALI","GROUND AND 1ST FLOOR SCO 675 SECTOR 70 MOHALI 160070 PUNJAB",4605475,"SAS NAGAR MOHALI",RUPNAGAR,PUNJAB
"INDUSIND BANK",INDB0000731,781234007,"PALTAN BAZAAR GUWAHATI","GROUND FLOOR ANAND BHAWAN DAG NO 359 PALTAN BAZAR G S ROAD GUWAHATI 781008 ASSAM",2732230,GUWAHATI,KAMRUP,ASSAM
"INDUSIND BANK",INDB0000730,110234073,"MAYUR VIHAR NEW DELHI","SHOP NO GF G5 ATM FF F1 TO F6 PLOT NO 24 LSC SACHDEVA PLAZA MAYUR VIHAR PHASE 2 NEW DELHI 110096",43016901,DELHI,DELHI,DELHI
"INDUSIND BANK",INDB0000729,396234131,DAMAN,"GRD FLR SAGAAR DMC 14 43 B SURVEY NO 432 1 4 DILIP NAGAR TIN BATTI NANI DAMAN DAMAN 396210 U T",2254042,DAMAN,DAMAN,"DAMAN AND DIU"
"INDUSIND BANK",INDB0000728,736234701,BAROBISHA,"NH31C ASSAM ROAD BAROBISHA DAKSHIN RAMPUR REGULATOR MARKET ALIPURDUAR WEST BENGAL 736207",263499,RAMPUR,"DAKSHIN DINAJPUR","WEST BENGAL"
"INDUSIND BANK",INDB0000727,380234019,"GHODASAR AHMEDABAD","SHOP NO 1 2 3 GRD FLR KANSAS ISANPUR GHODASAR LINK ROAD GHODASAR AHMEDABAD 380050 GUJARAT",25832521,AHMEDABAD,AHMADABAD,GUJARAT
"INDUSIND BANK",INDB0000726,380234016,"CHANDKHEDA AHMEDABAD","GROUND FLOOR SHOP NO 1 2 3 4 AARON ELEGANCE NEW C G ROAD CHANDKHEDA AHMEDABAD 382424",29299052,AHMEDABAD,AHMADABAD,GUJARAT
"INDUSIND BANK",INDB0000725,440234012,"FRIENDS COLONY NAGPUR","GRD FLR NO 546 A7 WARD NO 62 BARDE LAYOUT FRIENDS COLONY KATOL ROAD NAGPUR 440013 MAHARASHTRA",2575555,NAGPUR,NAGPUR,MAHARASHTRA
"INDUSIND BANK",INDB0000724,110234071,"SECTOR 56 GURGAON","GROUND FLOOR SCO 61 DSC HUDA MARKET SECTOR 55 56 GURGAON 122011",2389233,GURGAON,GURGAON,HARYANA
"INDUSIND BANK",INDB0000723,226234015,"AASHIANA LUCKNOW","GROUND FLOOR A1668 SECTOR 1 LDA COLONY KANPUR ROAD AASHIANA LUCKNOW 226012 UTTAR PRADESH",2424912,LUCKNOW,LUCKNOW,"UTTAR PRADESH"
"INDUSIND BANK",INDB0000722,226234014,"JANKIPURAM LUCKNOW","GROUND FLOOR PLOT NO 6 SECTOR F JANKIPURAM LUCKNOW 226091 UTTAR PRADESH",2731540,LUCKNOW,LUCKNOW,"UTTAR PRADESH"
"INDUSIND BANK",INDB0000721,380234014,"SCIENCE CITY ROAD AHMEDABAD","GRD FLR SAPTAK CORPORATE HOUSE GF 1 A SUKUN MALL SCIENCE CITY ROAD AHMEDABAD 380060 GUJARAT",27712791,AHMEDABAD,AHMADABAD,GUJARAT
"INDUSIND BANK",INDB0000720,380234015,"NEHRU NAGAR AHMEDABAD","GRD FLR SHOP NO 4 ABHISHREE AVENUE NANDANVAN CHS LTD NEHRU NAGAR AMBAVADI AHMEDABAD 380006 GUJARAT",26409701,AHMEDABAD,AHMADABAD,GUJARAT
"INDUSIND BANK",INDB0000719,302234015,"PURANI CHUNGI JAIPUR","GRD FLR PLOT NO 7 27 CENTRE POINT BHRIGU NAGAR AJMER ROAD PURANI CHUNGI JAIPUR 302019 RAJASTHAN",2358157,AJMER,AJMER,RAJASTHAN
"INDUSIND BANK",INDB0000718,768234302,BARGARH,"GRD FLR AAKASH MOTOR COMPLEX NH 6 BHATAIL CHOWK BARGARH 768028 ODISHA",2246701,BARGARH,BARGARH,ODISHA
"INDUSIND BANK",INDB0000717,787234002,"NORTH LAKHIMPUR","GRD FLR DAG NO 785 WARD NO 9 OF NORTH LAKHIMPUR MUNICIPALITY MOUZA LAKHIMPUR 787001 ASSAM",24421212,"NORTH LAKHIMPUR",LAKHIMPUR,ASSAM
"INDUSIND BANK",INDB0000716,110234061,"CYBER CITY RAPID METRO STATION","INDUSIND BANK CYBER CITY RAPID METRO STATION DLF CITY II SECTOR 25 GURGAON122002 HARYANA",2560001,GURGAON,GURGAON,HARYANA
"INDUSIND BANK",INDB0000715,NA,"MALLEKAN MANDI","SHOP NO 63 AANAJ MANDI MARKET COMMITTEE MALLEKAN MANDI 125055 HARYANA",285727,MALLEKAN,SIRSA,HARYANA
"INDUSIND BANK",INDB0000714,110234070,"SECTOR 45 GURGAON","SHOP NO GF 17A FF 105 GREENWOOD PLAZA SECTOR 45 GURGAON 122001 HARYANA",2580560,GURGAON,GURGAON,HARYANA
"INDUSIND BANK",INDB0000713,226234013,"VIKAS NAGAR LUCKNOW","UPPER GROUND FLOOR C 2 76 77 MUKUT TOWER VIKAS NAGAR LUCKNOW 226022 UTTAR PRADESH",2738510,LUCKNOW,LUCKNOW,"UTTAR PRADESH"
"INDUSIND BANK",INDB0000712,380234013,"VASTRAPUR MANSI CIRCLE AHMEDABAD","GRD FLR SHOP NO 1 2 SHAKTI 21 SUDARSHAN BUNGALOW MANSI CIRCLE VASTRAPUR AHMEDABAD 380015 GUJARAT",26752611,VASTRAPUR,AHMADABAD,GUJARAT
"INDUSIND BANK",INDB0000711,788234202,HAILAKANDI,"GRD 1ST FLR HOLDING NO 75 59 PO RATANPUR ROAD N S ROAD WARD NO 12 HAILAKANDI 788151 ASSAM",223475,HAILAKANDI,HAILAKANDI,ASSAM
"INDUSIND BANK",INDB0000710,302234014,"JAWAHAR NAGAR","GD FLR HILL TOP PLAZA NEAR SECTOR 7 OPP GOL MARKET JAWAHAR NAGAR JAIPUR 302004 RAJASTHAN",2654011,JAIPUR,JAIPUR,RAJASTHAN
"INDUSIND BANK",INDB0000709,781234005,"FANCY BAZAAR GUWAHATI","GROUND AND FIRST FLOOR OSWAL COMPLEX 156 M G ROAD NEAR JBS RESTAURANT GUWAHATI 781001 ASSAM",2733332,GUWAHATI,KAMRUP,ASSAM
"INDUSIND BANK",INDB0000708,110234068,"SECTOR 4 GURGAON","GROUND AND FIRST FLOOR SCF 31 SECTOR 4 URBAN ESTATE GURGAON PIN 122001 HARYANA",2346066,GURGAON,GURGAON,HARYANA
"INDUSIND BANK",INDB0000707,302234011,"CHAURA RAASTA","GD FLR SHOP NO.1B 2B 3B AJMERI GATE M I ROAD CHAURA RAASTA JAIPUR 302001 RAJASTHAN",2562005,JAIPUR,JAIPUR,RAJASTHAN
"INDUSIND BANK",INDB0000706,380234012,NIKOL,"GRD FLR PALM ARCADE SHOP NO 1TO3 SUKAN BUNGALOW CHAR RAASTA NEW NIKOL AHMEDABAD 382350",29092021,AHMADABAD,AHMADABAD,GUJARAT
"INDUSIND BANK",INDB0000705,440234011,"MEDICAL SQUARE NAGPUR","GRD FLR PLOT NO 196 UNTKHANA ROAD MEDICAL SQUARE NAGPUR 440009 MAHARASHTRA",2755545,NAGPUR,NAGPUR,MAHARASHTRA
"INDUSIND BANK",INDB0000704,302234012,"RIDHI SIDHI","GD FLR SHOP NO 4 5 7 8 JAIPUR ELECTRONICS MARKET MANSAROVAR LINK ROAD JAIPUR 302018 RAJASTHAN",6065557,JAIPUR,JAIPUR,RAJASTHAN
"INDUSIND BANK",INDB0000703,110234065,"SECTOR 50 NOIDA","BASEMENT GRD FIRST FLR PLOT NO 30 BLOCK B1 CENTRAL MKT SEC50 NOIDA DIST GAUTAM BUDHNAGAR UP 201301",2502822,NOIDA,"GAUTAM BUDDHA NAGAR","UTTAR PRADESH"
"INDUSIND BANK",INDB0000702,110234066,"NIT FARIDABAD","GROUND FLOOR 1A 268 NIT NEW TOWNSHIP NEELAM BATA ROAD FARIDABAD 121001 HARYANA",2436618,FARIDABAD,FARIDABAD,HARYANA
"INDUSIND BANK",INDB0000701,NA,DARIYAPUR,"GRD FLR SHOP NO KH 92 120 1 2 2 0 11DARIYAPUR MAIN ROAD DARIYAPUR FATEHABAD 125050 HARYANA",259111,DARYAPUR,FATEHABAD,HARYANA
"INDUSIND BANK",INDB0000700,NA,MUSTAFABAD,"GRD FLR SHOP ON MAIN ROAD INSIDE ABADI OLD ABADI MUSTAFABAD JAGADHARI YAMUNA NAGAR HARYANA 133103",287108,MUSTAFABAD,YAMUNANAGAR,HARYANA
"INDUSIND BANK",INDB0000699,NA,"SANGAR SARISTA","GD FLR SHOP ON KH NO 196 181 KHATAUNI NO 315 VILLAGE SANGAR SARISTA PO BAHAUDIN 125054 HARYANA",7027199754,SIRSA,SIRSA,HARYANA
"INDUSIND BANK",INDB0000698,NA,TUTA,"GROUND FLOOR VILLAGE TUTA BLOCK ABHANPUR DIST RAIPUR CHATTISGARH PIN 492015",8085959068,ABHANPUR,RAIPUR,CHHATTISGARH
"INDUSIND BANK",INDB0000697,NA,PARSADA,"GR FLR PARSADA BAZAR CHOWK VILLAGE PARSADA BLOCK ARANG P S MANDIRA DIST RAIPUR 492106 CHATTISGARH",8085959065,ARANG,RAIPUR,CHHATTISGARH
"INDUSIND BANK",INDB0000696,NA,GUJARA,"GROUND FLOOR VILLAGE GUJRA BLOCK ARANG DIST RAIPUR P S MANDIR HASAUD STATE CHATTISGARH PIN 493441",8085959067,ARANG,RAIPUR,CHHATTISGARH
"INDUSIND BANK",INDB0000695,758234502,BADKALIMATI,"GRD FLR DUBUNA KALIMATI CHOWK VILLAGE BADKALIMATI KEONJHAR DUBUNA PS BAMEBARI PIN 758034 ODISHA",9437483,BAMEBARI,KEONJHAR,ODISHA
"INDUSIND BANK",INDB0000694,NA,KANDALGAON,"GR FLR VILLAGE KANDALGAON TALUKA KARVEER DISTRICT KOLHAPUR PIN 416013 MAHARASHTRA",2638200,KARVIR,KOLHAPUR,MAHARASHTRA
"INDUSIND BANK",INDB0000693,NA,PADWALWADI,"GR FLR VILLAGE PADWALWADI TALUKA WALWA DIST SANGLI MAHARASHTRA PIN 416313",2263063,WALWA,SANGLI,MAHARASHTRA
"INDUSIND BANK",INDB0000692,NA,WASUMBE,"GR FLR VILLAGE WASUMBE TELSIL TASGAON DIST SANGLI MAHARASHTRA 416312",6250049,TASGAON,SANGLI,MAHARASHTRA
"INDUSIND BANK",INDB0000691,NA,BOLWAD,"GR FLR BOLWAD SEVA SAHAKARI SOCIETY LTD VILLAGE BOLWAD TEHSIL MIRAJ DIST SANGLI MAHARASHTRA 416410",2258005,MIRAJ,SANGLI,MAHARASHTRA
"INDUSIND BANK",INDB0000690,NA,BASARGE,"GR FLR SAINIK BHAVAN VILLAGE BASARGE TEHSIL GADHINGALAJ DIST KOLHAPUR PIN CODE 416506 MAHARASHTRA",7265265,GADHINGLAJ,KOLHAPUR,MAHARASHTRA
"INDUSIND BANK",INDB0000689,NA,MALE,"GR FLR VILLAGE MALE TEHSIL PANAHALA DIST KOLHAPUR 416114 MAHARASHTRA",8241477,PANHALA,KOLHAPUR,MAHARASHTRA
"INDUSIND BANK",INDB0000688,NA,DINDNERLI,"GR FLR VILLAGE DINDNERLI TALUKA KARVEER DISTRICT KOLHAPUR 416207 MAHARASHTRA",2396122,KARVIR,KOLHAPUR,MAHARASHTRA
"INDUSIND BANK",INDB0000687,NA,DHANALI,"GD FLR PATEL VAS DHANALI VILLAGE DHANALI TALUKA KADI DIST MEHSANA 382732 GUJARAT",7574818175,KADI,MAHESANA,GUJARAT
"INDUSIND BANK",INDB0000686,NA,CHORDI,"GRD FLR 288 PLOT VISTAR CHORDI OLD GANTAL AREA DIST RAJKOT GUJARAT 360311",7574818174,RAJKOT,RAJKOT,GUJARAT
"INDUSIND BANK",INDB0000685,363234502,RANGPAR,"GRD FLR SHOP NO 3 DHARMAGH COMPLEX OPP ABC CERAMIC RANGPAR DIST MORBI TEHSIL MORBI 363641 GUJARAT",9712967280,RANGPUR,SURENDRANAGAR,GUJARAT
"INDUSIND BANK",INDB0000684,NA,PANELI,"GRD FLR PLOT NO 26 SHOP NO 1 2 JAYDEEP COMPLEX PANELI THE DIST MORBI GUJARAT PIN 363642",7574812698,"PANELI MOTI",RAJKOT,GUJARAT
"INDUSIND BANK",INDB0000683,388234003,"VALLABH VIDHYA NAGAR","SHOP NO GF 1 SIGMA PRIME NEAR SARDAR PATEL STATUS JANTA CHOWKI ROAD V V NAGAR 388120 ANAND GUJARAT",229031,"VALLABH VIDYANAGAR",ANAND,GUJARAT
"INDUSIND BANK",INDB0000682,781234006,"GANESHGURI GUWAHATI","GRD FLR PROTECH CTR DAG NO 192 296 GANESHGURI CHARIALI G S ROAD KAMRUP DISPUR GUWAHATI 781005 ASSAM",2232538,GUWAHATI,"KAMRUP METROPOLITAN",ASSAM
"INDUSIND BANK",INDB0000681,530234003,SEETHAMDHARA,"OPP. EENADU RYTHU BAZAAR, SEETHAMMADHARA, VISAKHAPATNAM ┬û530013",0,VISAKHAPATNAM,VISAKHAPATNAM,"ANDHRA PRADESH"
"INDUSIND BANK",INDB0000680,110234067,"SECTOR 21 FARIDABAD","GROUND AND 1ST FLOOR SCO NO 142 MAIN MARKET SECTOR 21C FARIDABAD 121001 HARYANA",2436620,FARIDABAD,FARIDABAD,HARYANA
"INDUSIND BANK",INDB0000679,160234025,"INDUSTRIAL AREA CHANDIGARH","GROUND FLOOR THE STATEMENT PLOT NO 149 INDUSTRIAL AREA PHASE 1 CHANDIGARH 160002",4605483,CHANDIGARH,CHANDIGARH,CHANDIGARH
"INDUSIND BANK",INDB0000678,380234018,"VIJAY CROSS ROAD","G4 GRD FLR GCP BUSINESS CENTRE NEAR VIJAY CROSS ROAD NAVRANGPURA AHMEDABAD 380009 GUJARAT",26409871,AHMADABAD,AHMADABAD,GUJARAT
"INDUSIND BANK",INDB0000677,390234012,"WAGHODIA ROAD VADODRA","GRD FLR NO 3 G K AVENUE PLOT NO 6 7 8 AMAR PARK SOCIETY CHAR RASTA WAGHODIA VADODRA 390019 GUJARAT",2565450,WAGHODIA,VADODARA,GUJARAT
"INDUSIND BANK",INDB0000676,380234017,"BOPAL AHMEDABAD","SHOP NO 28 36 37 AMRAPALI AXIOM AMBLI CROSS ROAD BOPAL MOUJE AMBLI DASKROI AHMEDABAD 380058 GUJARAT",298511,BOPAL,AHMADABAD,GUJARAT
"INDUSIND BANK",INDB0000675,132234105,NIAWAL,"GD FLR ON KHEWAT NO 246 KHATONI NO 305 RECT NO 53 KILLA NO 15 NAIWAL TEH DIST KARNAL PIN 132023",6990013,KARNAL,KARNAL,HARYANA
"INDUSIND BANK",INDB0000674,NA,"LAKHAN MAJRA","GRD FLR KHEWAT NO 726 KHATONI NO 1262 KHASRA NO 846 8 LAKHAN MAJRA ROHTAK HARYANA 124514",265059,"LAKHAN MANJRA",ROHTAK,HARYANA
"INDUSIND BANK",INDB0000673,110234062,"ARJUN MARG  GURGAON","SHOP NO 15 16 SHOPPING MALL ARJUN MARG DLF PHASE1 GURGAON 122002 HARYANA",2352350,GURGAON,GURGAON,HARYANA
"INDUSIND BANK",INDB0000672,110234064,"SECTOR 12 NOIDA","GRD FLR SHOP NO 5 6 8 9 BLOCK I 25 SECTOR 12 NOIDA 201301 DIST GAUTAM BUDDH NAGAR UTTAR PRADESH",2548493,NOIDA,"GAUTAM BUDDHA NAGAR","UTTAR PRADESH"
"INDUSIND BANK",INDB0000671,390234011,"NEW SAMA ROAD VADODARA","GRD FIRST FLR SHOP NO 1 2 JANKI AVENUE PUNIT NAGAR SOCIETY NEW SAMA ROAD VADODARA 390024 GUJARAT",2710401,VADODARA,VADODARA,GUJARAT
"INDUSIND BANK",INDB0000670,302234013,"KALWAR ROAD","GD FLR SHOP NO.G3 PLOT NO.C1 KRISHNA ENCLAVE1 KHASRA NO 54 1 KALWAR ROAD JAIPUR 302 012 RAJASTHAN",6055567,KALWAR,JAIPUR,RAJASTHAN
"INDUSIND BANK",INDB0000669,160234024,"SECTOR FORTY SEVEN CHANDIGARH","GROUND AND FIRST AND SECOND FLOOR SCO NO 95 SECTOR 47D CHANDIGARH 160047",5015260,CHANDIGARH,CHANDIGARH,CHANDIGARH
"INDUSIND BANK",INDB0000668,160234022,"SECTOR SIXTY SEVEN MOHALI","GROUND 1ST FLOOR SCO32 SECTOR 67 SAS NAGAR MOHALI PUNJAB 160 062",6900148,"SAS NAGAR MOHALI",RUPNAGAR,PUNJAB
"INDUSIND BANK",INDB0000667,380234009,"C G ROAD","GR FLR 5 1 6 SHUKUN BUSINESS CENTRE SWASTIK CHAR RASTA OFF CG RD NARANGPURA AHMADABAD 380009 GUJARAT",26409971,AHMADABAD,AHMADABAD,GUJARAT
"INDUSIND BANK",INDB0000666,380234010,ODHAV,"GR FLR MANGALAM ARCADE SHOP NO 25 26 OPP ODHAV TALAV ODHAV BRTS RD ODHAV AHMEDABAD 382415 GUJARAT",29297019,AHMADABAD,AHMADABAD,GUJARAT
"INDUSIND BANK",INDB0000665,380234008,"SHYAMAL CROSS ROAD","GR FLR SHANGRILA ARCADE SHOP NO1 2 100FT RD SHYAMAL CROSS ROAD SATELLITE AHMEDABAD 380015 GUJARAT",26769961,AHMADABAD,AHMADABAD,GUJARAT
"INDUSIND BANK",INDB0000664,786234302,DHULIAJAN,"GROUND FLOOR TAMULI MANSION STATION ROAD DHULIAJAN DIST DIBRUGARH ASSAM 786602",2803226,DHULIAJAN,DIBRUGARH,ASSAM
"INDUSIND BANK",INDB0000663,785234102,NUMALIGARH,"GR FLOOR NO 1 PONGKA GRANT BISHNUPUR VILLAGE NUMALIGHAR PO KANAIGHAT DIST GOLAGHAT ASSAM 785699",265566,NUMALIGARH,GOLAGHAT,ASSAM
"INDUSIND BANK",INDB0000662,781234004,"BELTOLA GUWAHATI","GROUND FLOOR 60 BASISTHA ROAD BELTOLA GUWAHATI 781 028 ASSAM",2220212,GUWAHATI,KAMRUP,ASSAM
"INDUSIND BANK",INDB0000660,NA,FARIDPUR,"GD FLR MAIN ROAD VILLAGE FARIDPUR PO KABRI TEH DIST PANIPAT HARYANA PIN 132103",7027199752,PANIPAT,PANIPAT,HARYANA
"INDUSIND BANK",INDB0000659,132234152,MACHHROULI,"GRD FLR 123 MAIN ROAD VALMAKI CHOWK CHOPAL GALI MACHHROULI SAMALKHAN PANIPAT HARYANA PIN 132103",7027199751,SAMALKHA,PANIPAT,HARYANA
"INDUSIND BANK",INDB0000658,NA,MANBHARWALA,"GRD FLR SHOP NO 2A3 MAIN ROAD VILLAGE MANBHRWALA DVDHAR CHHACHRAULI YAMUNA NAGAR HARYANA 135021",7027199750,CHHACHHRAULI,YAMUNANAGAR,HARYANA
"INDUSIND BANK",INDB0000657,NA,BARNA,"TERII CAMPUS 9 TH MILESTONE ILLAGE PO BARNA AITHAL ROAD KURUKSHETRA 136119 HARYANA",7027199749,KURUKSHETRA,KURUKSHETRA,HARYANA
"INDUSIND BANK",INDB0000656,125234002,"FARWIN KALAN","GD FLR PLOT NO.694 KHASARA NO 889 K H NO 321 INKAAL NO 3534 FARWAIN KALAN HARYANA 125055",258003,SIRSA,SIRSA,HARYANA
"INDUSIND BANK",INDB0000655,NA,"MAJRA MUTSAL BHALAKI REWARI","GRD FLR KH NO 30 18 2 HASTBAND NO 36 MAJRA VILLAGE TEHSIL REWARI POST KUND HAYRANA 123102",7027199743,REWARI,REWARI,HARYANA
"INDUSIND BANK",INDB0000654,NA,"CHAMMO KALAN","GD FLR SARAWASTI ENCLAVE AMBALA HISSAR RD VILLAGE CHAMMU KALAN PO KURUSHETRA HARYANA 136129",7027199742,KURUKSHETRA,KURUKSHETRA,HARYANA
"INDUSIND BANK",INDB0000653,NA,CHOKAK,"GR FLR VILLAGE CHOKAK TALUKA HATKANGALE DIST KOLHAPUR PIN CODE 416118 MAHARASHTRA",2485122,HATKANANGALE,KOLHAPUR,MAHARASHTRA
"INDUSIND BANK",INDB0000652,NA,GHATNANDRE,"GR FLR VILLAGE GHATNANDRE TALUKA KAVATHEMAHANKAL DIST SANGLI 416405 MAHARASHTRA",1241022,KAWATHEMAHANKAL,SANGLI,MAHARASHTRA
"INDUSIND BANK",INDB0000651,NA,DAHIWADI,"GR FLR VILLAGE DAHIWADI TAL TASGAON DIST SANGLI MAHARASHTRA 416311",6249199,TASGAON,SANGLI,MAHARASHTRA
"INDUSIND BANK",INDB0000650,NA,SANDAGEWADI,"GR FLR VILLAGE SANDAGEWADI TAL PALUS DIST SANGLI MAHARASHTRA 416 310",6226225,PALUS,SANGLI,MAHARASHTRA
"INDUSIND BANK",INDB0000649,NA,RAMAPUR,"GR FLR VILLAGE RAMPUR TAL KHADEGAON DIST SANGLI MAHARASHTRA 415303",7227614,PALUS,SANGLI,MAHARASHTRA
"INDUSIND BANK",INDB0000648,NA,GHOGAON,"GR FLR VILLAGE GHOGAON TAL PALUS DIST SANGLI MAHARASHTRA 416309",6278188,PALUS,SANGLI,MAHARASHTRA
"INDUSIND BANK",INDB0000647,NA,KERLE,"GR FLR VILLAGE AT KERLE TAL KARVEER DIST KOLHAPUR MAHARASHTRA 416 229",2458450,KARVIR,KOLHAPUR,MAHARASHTRA
"INDUSIND BANK",INDB0000646,NA,DHARANGUTTI,"GR FLR VILLAGE AT DHARANGUTTI TAL SHIROL DIST KOLHAPUR MAHARASHTRA 416102",2235988,SHIROL,KOLHAPUR,MAHARASHTRA
"INDUSIND BANK",INDB0000645,NA,ARJUNWADA,"GR FLR VILLAGE ARJUNWADA TALUKA RADHANAGRI ZILLA KOLHAPUR MAHARASHTRA 416208",1253150,RADHANAGRI,KOLHAPUR,MAHARASHTRA
"INDUSIND BANK",INDB0000644,NA,SONALI,"GR FLR VILLAGE SONALI TALUKA KAGAL ZILLA KOLHAPUR MAHARASHTRA 416219",5250150,KAGAL,KOLHAPUR,MAHARASHTRA
"INDUSIND BANK",INDB0000643,NA,MEVAD,"GROUND FLOOR NARAYAN PLAZA SHOP NO 23 AT MEVAD TALUKA DIST MEHSANA 382710 GUJARAT",7574812697,MAHESANA,MAHESANA,GUJARAT
"INDUSIND BANK",INDB0000642,NA,VANAGALA,"OPP GANESH CATTAL FEED VILLAGE VANAGALA TALUKA UNJHA DIST MEHSANA GUJRAT 384170",271465,UNJHA,MAHESANA,GUJARAT
"INDUSIND BANK",INDB0000641,NA,VADU,"GROUND FLOOR PLOT NO 1 AT VADU TALUKA VISANAGAR DISTRICT MEHSANA GUJARAT 384315",7574812694,VADU,MAHESANA,GUJARAT
"INDUSIND BANK",INDB0000640,NA,DHEDHAL,"GROUND FLOOR KRISH ESTATE SHOP NO 10 DHEDAL TALUKA BAVLA DIST AHMEDABAD 382220 GUJARAT",7574812692,"DHEDHAL BAVLA",AHMADABAD,GUJARAT
"INDUSIND BANK",INDB0000639,WAITING,BECHARI,"GR FLRNEAR PARABADI VILLAGE BECHARI TALUKA UMRETH DIST ANAND 388220 GUJARAT",7574812691,UMRETH,ANAND,GUJARAT
"INDUSIND BANK",INDB0000638,WAITING,KHERDA,"GR FLR VILLAGE KHERDA TALUK DIST ANAND GUJARAT 388365",7574812692,ANAND,ANAND,GUJARAT
"INDUSIND BANK",INDB0000637,NA,KHANDOSAN,"GR FLR NEAR DUDIYA KUWA VILLAGE KHANOSAN TALUKA VISHNAGAR DIST MEHSANA 384310 GUJARAT",7574812693,MAHESANA,MAHESANA,GUJARAT
"INDUSIND BANK",INDB0000636,NA,SANTHAL,"GR FLR SANTHAL VILLAGE OPP POLICE STATION TALUKA AND DIST MEHSANA 384430 GUJARAT",265155,MAHESANA,MAHESANA,GUJARAT
"INDUSIND BANK",INDB0000635,NA,GHORA,"GRD FLR OPP GRAM PANCHAYAT OFFICE GHORA TA UMRETH DIST ANAND GUJARAT 388220",7574812690,UMRETH,ANAND,GUJARAT
"INDUSIND BANK",INDB0000634,NA,KACHAI,"GROUND FLOOR OPP IDEA TOWER KACHAI VILAGE TEH MEHAMSAD DISTRICT KHEDA GUJARAT 387130",7574812687,KHEDA,KHEDA,GUJARAT
"INDUSIND BANK",INDB0000633,NA,MANKWA,"GD FLR 223 224 ADJACENT TO RAM MANDIR MANKWA TEH MEHMDABAD DIST KHEDA GUJARAT 387130",7574812686,KHEDA,KHEDA,GUJARAT
"INDUSIND BANK",INDB0000632,WAITING,HERANJ,"GR FLR 198 MASJIDWALO KHANCHO HERANJ TEH MAHUDA DIST KHEDA GUJARAT 387330",7574812685,MAHUDHA,KHEDA,GUJARAT
"INDUSIND BANK",INDB0000631,NA,BHAVANIPURA,"GR FLR BLOCK NO 428 OPP PATELWADI AT POST BHAWANIPURA TA PETLAD DIST ANAND 388450 GUJARAT",7574812689,PETLAD,ANAND,GUJARAT
"INDUSIND BANK",INDB0000630,WAITING,SANAWADIYA,"GR FLR SURVEY 2 1 PAIKI GRAM SANAWADIYA TEHSIL DIST INDORE MADHYA PRADESH 452016",7509333315,INDORE,INDORE,"MADHYA PRADESH"
"INDUSIND BANK",INDB0000629,WAITING,AHIRKHEDI,"GR FLR494 K VIDHUR NAGAR GRAM AHIRKHEDI TEHSIL DIST INDORE 452009 MADHYA PRADESH",7581810166,DEPALPUR,INDORE,"MADHYA PRADESH"
"INDUSIND BANK",INDB0000628,WAITING,BILAWALI,"GR FLR PLOT 63 GANESH NAGAR GRAM BILAWALI TEHSIL DIST INDORE 452020 MADHYA PRADESH",7581810170,INDORE,INDORE,"MADHYA PRADESH"
"INDUSIND BANK",INDB0000627,WAITING,UMRIKHEDA,"GR FLR NEAR 28 K TOLL NAKA GRAM UMRIKHEDA TEHSIL DIST INDORE MADHYA PRADESH 452007",7581810168,INDORE,INDORE,"MADHYA PRADESH"
"INDUSIND BANK",INDB0000626,WAITING,ASRAVADKHURD,"GR FLRPLOT 4 GRAM ASRAVADKHUD TEHSIL DIST INDORE 452020 MADHYA PRADESH",7581810169,INDORE,INDORE,"MADHYA PRADESH"
"INDUSIND BANK",INDB0000624,WAITING,SUTARKHEDI,"GR FLR PLOT 10 SITA NAGAR COLONY GRAM SUTARKHEDI TEH MHOW DIST INDORE MADHYA PRADESH 453441",7581810165,MHOW,INDORE,"MADHYA PRADESH"
"INDUSIND BANK",INDB0000623,WAITING,ASRAWATBUJURAG,"GR FLR ASRAWATBUJURAG NEMAWAL RD POST DHUDIA TEH DISTRICT INDORE MADHYA PRADESH 452 016",7509333360,INDORE,INDORE,"MADHYA PRADESH"
"INDUSIND BANK",INDB0000622,380234011,"ASHRAM ROAD","PLOT NO 122 AMBIKA NIWAS ASHRAM ROAD OPP BATA HOUSE AHMEDABAD 380009 GUJARAT",30618000,AHMADABAD,AHMADABAD,GUJARAT
"INDUSIND BANK",INDB0000621,160234020,"SECTOR 54 PHASE 2 MOHALI","SCO 46 SECTOR 54 PHASE 2 SAS NAGAR MOHALI PUNJAB 160 054",4604738,MOHALI,RUPNAGAR,PUNJAB
"INDUSIND BANK",INDB0000620,160234021,"ZIRAKPUR MOHALI","TULIP PLAZA VIP ROAD NEAR SAVITRI TOWER TEHSIL DERRABASSI SAS NAGAR ZIRAKPUR MOHALI 140603 PUNJAB",2532461,ZIRAKPUR,PATIALA,PUNJAB
"INDUSIND BANK",INDB0000619,110234063,"DLF PHASE 3 GURGAON","SHOP NO GF16 FF 16 JMD REGENT PLAZA DLF PHASE 3 M G ROAD GURGAON 122 001 HARYANA",2358646,GURGAON,GURGAON,HARYANA
"INDUSIND BANK",INDB0000618,160234018,"SECTOR 32 CHANDIGARH","SCO NO 62 GROUND FIRST SECOND FLOOR SEC 32 C CHANDIGARH 160031",4979600,CHANDIGARH,CHANDIGARH,CHANDIGARH
"INDUSIND BANK",INDB0000617,160234019,MANIMAJRA,"GROUND FLOOR SCO NO 46 POCKET 1 MANIMAJRA CHANDIGARH 160101",4604731,"MANI MAJRA",CHANDIGARH,CHANDIGARH
"INDUSIND BANK",INDB0000616,NA,JAGDISHPURA,"BUNGALOW NO 182 MAIN RD VILLAGE JAGDISHPURA PO KULTARAN TEH DIST KURUKSHETRA 136027 HARYANA",7027199746,KAITHAL,KAITHAL,HARYANA
"INDUSIND BANK",INDB0000615,160234023,"RAIPUR RANI","GRD FLR PLOT ON INTKAAL NO 3695 KHAUTAUNI NO 766 720 MAIN ROAD RAIPURRANI PANCHKULA HARYANA 134204",4256634,"RAIPUR RANI",PANCHKULA,HARYANA
"INDUSIND BANK",INDB0000614,NA,BAHADURPUR,"SHOP NO 27 28 BAHADURPUR MAUJA BAHADURPUR PO KHIRZABAD CHHACHHRAULI YAMUNA NAGAR 135021 HARYANA",278014,CHHACHHRAULI,YAMUNANAGAR,HARYANA
"INDUSIND BANK",INDB0000613,180234002,"RESIDENCY ROAD JAMMU","GROUND 1ST FLOOR E807 NEW BLOCK K C PLAZA RESIDENCY ROAD JAMMU 180001 JAMMU KASHMIR",2520507,JAMMU,JAMMU,"JAMMU AND KASHMIR"
"INDUSIND BANK",INDB0000612,NA,MAUJGARH,"GROUND FLOOR KH 47 1 73 1 MAIN ROAD MAUJGARH POST RAJOULI DIST AMBALA 133201 HARYANA",7027199745,BARARA,AMBALA,HARYANA
"INDUSIND BANK",INDB0000611,132234104,"NAGLA MEGHA","GROUND FLOOR KHEWAT 197 KHATONI 227 VILLAGE VPO NAGLA MEGHA TEHSIL DISTRICT KARNAL 132037 HARYANA",2381301,KARNAL,KARNAL,HARYANA
"INDUSIND BANK",INDB0000610,NA,"ROR CHAPPAR","GR FLR KH NO 12 12 MAIN RD ROR CHAPPAR POST AURANGABAD JAGADHRI DIST YAMUNA NAGAR 135003 HARYANA",7027199744,JAGADHRI,YAMUNANAGAR,HARYANA
"INDUSIND BANK",INDB0000609,132234353,JALMANA,"GD FLR VILLAGE PO JALMANA KARNAL ASSANDH ROAD TEH ASSANDH DIST KARNAL 132039 HARYANA",284201,KARNAL,KARNAL,HARYANA
"INDUSIND BANK",INDB0000608,110234059,"SECTOR 23 GURGAON","GROUND BASEMENT SCO 41 SECTOR 23 HUDA MARKET GURGAON 122017 HARYANA",4276794,GURGAON,GURGAON,HARYANA
"INDUSIND BANK",INDB0000607,110234060,"FRIENDS COLONY NEW DELHI","GROUND FLOOR BASEMENT NO 6 DDA MARKET NEW FRIENDS COLONY NEW DELHI 110065",45515712,DELHI,DELHI,DELHI
"INDUSIND BANK",INDB0000606,600234019,VELACHERRY,"GR FLR DEV APARTMENTS 28A 1 VENKATESHWARA NGR 100FT BYE PASS RD VELACHERY CHENNAI 600042 TAMILNADU",22590228,VELACHERRY,CHENNAI,"TAMIL NADU"
"INDUSIND BANK",INDB0000605,400234042,ULHASNAGAR,"GR FLR MAHARAJA HALL SHOP NO 2 KALYAN AMBERNATH RD ULHASNAGAR NO 3 THANE DIST 421003 MAHARASHTRA",2710201,ULHASNAGAR,THANE,MAHARASHTRA
"INDUSIND BANK",INDB0000604,801234002,BIHTA,"GRND FLOOR BIHTA GADH PAR BIHTA GRAM PANCHAYAT P O AND P S BIHTA DIST PATNA 801103 BIHAR",252931,BIHTA,PATNA,BIHAR
"INDUSIND BANK",INDB0000603,781234003,"ZOO ROAD  GUWAHATI","UPPER GROUND FLOOR AND 1ST FLOOR HOTEL PARNIL PALACE, ZOO ROAD TINIALI GUWAHATI 781024 ASSAM",2200012,GUWAHATI,KAMRUP,ASSAM
"INDUSIND BANK",INDB0000602,110234058,"PALMS SPRING PLAZA GURGAON","GRD FLRG015 AND 16 PALMS SPRINGS PLAZA GOLF COURSE ROAD SECTOR 54 GURGAON 122002 HARYANA",2385048,GURGAON,GURGAON,HARYANA
"INDUSIND BANK",INDB0000601,160234015,"PANCHKULA SECTOR 20","GROUND FLOOR SCO 396 SECTOR 20 PANCHKULA 134 116 HARYANA",4623425,PANCHKULA,PANCHKULA,HARYANA
"INDUSIND BANK",INDB0000600,400234041,"MIRA ROAD","GR FLR OSTWAL HOUSE NEW SY NO 71 MIRA BHAYANDER RD MIRA RD THANE DIST 401106 MAHARASHTRA",28122515,THANE,THANE,MAHARASHTRA
"INDUSIND BANK",INDB0000599,400234040,"CBD BELAPUR","UNIT NO 18 19 36 B WING SHREE NAND DHAM PLOT NO 59SEC 11 CBD BELAPUR NAVI MUMBAI 400614 MAHARAHTRA",27571243,"NEW BOMBAY",THANE,MAHARASHTRA
"INDUSIND BANK",INDB0000598,302234009,"VIDHYADHAR NAGAR JAIPUR","GR FLR SHOP NO 1 2 3 6 7 8 GOLDEN TIMES BILDG PLOT 10 CENTRAL SPINE VIDHYADHAR NGR JAIPUR 302023 RAJ",2339092,JAIPUR,JAIPUR,RAJASTHAN
"INDUSIND BANK",INDB0000597,160234016,"CHANDIGARH SECTOR 16 D","GROUND FIRST AND SECOND FLOOR SCO 20 SECTOR 16 D CHANDIGARH 160015",5174001,CHANDIGARH,CHANDIGARH,CHANDIGARH
"INDUSIND BANK",INDB0000596,160234017,"CHANDIGARH SECTOR 27","GROUND FIRST AND SECOND FLOOR SCO 27 SECTOR 27 C CHANDIGARH 160019",4946402,CHANDIGARH,CHANDIGARH,CHANDIGARH
"INDUSIND BANK",INDB0000595,812234002,BHAGALPUR,"GROUND FLOOR TRIVENI APARTMENTS DR RAJENDRA PRASAD ROAD MOHALLA KHALIFA BAGH BHAGALPUR 12002 BIHAR",6412301024,BHAGALPUR,BHAGALPUR,BIHAR
"INDUSIND BANK",INDB0000594,302234010,"BANIPARK JAIPUR","GR FLR PASHUPATI AKSHAT HEIGHTS PLOT NO D 91 MADHO SINGH ROAD BANI PARK JAIPUR 302016 RAJASTHAN",2207896,"BANIPARK JAIPUR",JAIPUR,RAJASTHAN
"INDUSIND BANK",INDB0000593,302234007,"BAPU NAGAR JAIPUR","SHOP NO 001 004 101 104 KRISHNA ENCLAVE PNOSB52 OPP SMS STADIUM BAPU NAGAR TONK RD JAIPUR302005 RAJ",2704564,JAIPUR,JAIPUR,RAJASTHAN
"INDUSIND BANK",INDB0000592,302234008,"MALVIYA NAGAR JAIPUR","34 5 CLASS OF PEARL K NO 48 49 INCOME TAX COLONY MALVIYA NAGAR TONK ROAD JAIPUR 302 018",1412552773,JAIPUR,JAIPUR,RAJASTHAN
"INDUSIND BANK",INDB0000591,490234001,BHILAI,"BLOCK NO.33,DAKSHIN GANGOTRI,WARD NO 3,P.O.AND P.S.BHILAI DURG,DURG,CHHATISGARH 490023",2290610,BHILAINAGAR,DURG,CHANDIGARH
"INDUSIND BANK",INDB0000590,800234011,"PATNA CITY","PLOT NO.764 AND 765,MOHALLA KUCHA GANESH CHOWK,ASHOK RAJ PATH,PATNA CITY 800008",2640084,PATNA,PATNA,BIHAR
"INDUSIND BANK",INDB0000589,444234001,AKOLA,"GANAPATI PLAZA,SITUATED OPP.ASHOK VATIKA,COLLECTOR OFFICE ROAD,AKOLA 444 001,MAHARASHTRA",2420342,AKOLA,AKOLA,MAHARASHTRA
"INDUSIND BANK",INDB0000588,110234056,"NOIDA SECTOR 62","SHOP NO 22 23 AND SHOP NO 21 22 1ST FLR STELLAR IT PARK TOWER 2 SECTOR 62 NOIDA 201301 UP",1204314627,NOIDA,"GAUTAM BUDDHA NAGAR","UTTAR PRADESH"
"INDUSIND BANK",INDB0000587,700234021,"SALT LAKE,  SECTOR-V, KOLKATA","GROUND FLOOR (FRONT SIDE),  ┬ôMERLIN INFINITY┬ö, DN-51, SALT LAKE,  SECTOR-V, KOLKATA- 700 064, WEST BENGAL",0,KOLKATTA,KOLKATA,"WEST BENGAL"
"INDUSIND BANK",INDB0000586,144234352,BANGA,"SWAMI ROOPCHAND JAIN MODEL HIGH SCHOOL, GARSHANKAR ROAD, BANGA ┬û 144 505DIST. NAVA SAHER'",0,BANGA,NAWANSHAHR,PUNJAB
"INDUSIND BANK",INDB0000585,415234001,SATARA,"GR FLR SR NO 283 1 1 PLOT NO 29 AND 3 AT KARANJE TARF SATARA 415001 SATARA DIST MAHARASHTRA",233117,SATARA,SATARA,MAHARASHTRA
"INDUSIND BANK",INDB0000584,444234101,AMRAVATI,"GROUND FLOOR,MCH NO 280 BY 2,PLOT NO.3 BY 1,IRWIN SQUARE,MORSHI ROAD,AMRAVATI 444 601 MAHARASHTRA",2661600,AMRAVATI,AMRAVATI,MAHARASHTRA
"INDUSIND BANK",INDB0000583,413234002,SOLAPUR,"GROUND FLOOR ORCHID COMPLEX 70 RAILWAY LINES OPP MAYOR S BUNGALOW SOLAPUR 413 001 MAHARASHTRA",2621001,SOLAPUR,SOLAPUR,MAHARASHTRA
"INDUSIND BANK",INDB0000582,400234039,BHAYANDAR,"SHREE M.B.TRADE CENTER,NEAR RAILWAY PHATAK,BHAYANDER EAST,THANE 401105,MAHARASHTRA",28040101,"MIRA BHAYANDAR",THANE,MAHARASHTRA
"INDUSIND BANK",INDB0000581,530234001,VISAKHAPATNAM,"CDR HOSPITAL,  A. S. RAJA COMPLEX 'WALTAIR MAIN ROAD, VISAKHAPATNAM 530 002",0,VISAKHAPATNAM,VISAKHAPATNAM,"ANDHRA PRADESH"
"INDUSIND BANK",INDB0000580,641234102,TIRUPUR,"KMA BUILDING,1&32(A) ESWARN KOIL NORTH STREET, TIRUPUR 641 604",0,TIRUPUR,COIMBATORE,"TAMIL NADU"
"INDUSIND BANK",INDB0000579,NA,"HARNYA KHEDI","BULBUL DREAM PALACE,RASALPURA COLONY,VILLAGE HARNYA KHEDI,TEHSIL MHOW,INDORE 453446,MP",7324276081,MHOW,INDORE,"MADHYA PRADESH"
"INDUSIND BANK",INDB0000578,244234102,AJITPUR,"GR FLR KASRA NO 619 CHOURAHA AJITPUR SHABAD ROAD AJITPUR RAMPUR DIST 244 901 UTTAR PRADESH",2330167,AJEETPUR,RAMPUR,"UTTAR PRADESH"
"INDUSIND BANK",INDB0000577,208234003,"GOVIND NAGAR KANPUR","GROUND FLOOR 124 BY 248,BLOCK C,CHAWLA MARKET ROAD,GOVIND NAGAR,KANPUR 208 006,UTTAR PRADESH",2650170,KANPUR,"KANPUR CITY","UTTAR PRADESH"
"INDUSIND BANK",INDB0000576,576234002,UDYAVARA,"LAXMI COMPLEX D NO 3 2 1 2 3 6 SY NO 314 MAIN ROAD UDYAVARA UDUPI DISTRICT 574118 KARNATAKA",8202533737,UDYAVARA,UDIPI,KARNATAKA
"INDUSIND BANK",INDB0000575,560234016,"SAHAKARANAGAR BANGALORE","NO.61,G BLOCK,SAHAKARANAGAR MAIN ROAD,SAHAKARANAGAR,BANGALORE 560 092,KARNATAKA",23622334,BANGALORE,"BANGALORE URBAN",KARNATAKA
"INDUSIND BANK",INDB0000574,110234057,"MALIBU TOWN GURGAON","GROUND FLOOR SHOP NO 3 11 GOOD EARTH CITY CENTRE SOUTH CITY MALIBU TOWN GURGAON 122 002 HARYANA",6521930,GURGAON,GURGAON,HARYANA
"INDUSIND BANK",INDB0000573,395234005,"VARACHHA ROAD SURAT","GROUND FLOOR,G 4,MANGALDEEP COMPLEX,HIRABAGH CIRCLE,VARACHHA ROAD,KAPODADARA,SURAT 395 006,GUJARAT",2574383,SURAT,SURAT,GUJARAT
"INDUSIND BANK",INDB0000572,390234010,"KARELIBAUG, VADODARA","GROUND & 1ST  FLOOR, ┬ô HALDAR TOWER┬ö, # A/2,PLOT NO 59,JYOTI PARK CHS LTD, OPP. AMRAPALI COMPLEX, WATER TANK ROAD, KARELIBAUG, VADODARA- 390 018, GUJARAT",0,VADODARA,VADODARA,GUJARAT
"INDUSIND BANK",INDB0000571,734234202,KALIMPONG,"PLOT NO.5085,DAMBER CHOWK,OPP.D.P.UPASAK,KALIMPONG 734 301,DARJEELING DIST,WEST BENGAL",256513,KALIMPONG,DARJILING,"WEST BENGAL"
"INDUSIND BANK",INDB0000570,500234014,TARNAKA,"GROUND FLOOR, ┬ôAMITY VILLE┬ö, H. NO 12-13-1273, TARNAKA, SECUNDERABAD- 500 017, ANDHRA PRADESH",0,TARNAKA,HYDERABAD,"ANDHRA PRADESH"
"INDUSIND BANK",INDB0000569,500234013,"KUKATPALLY HYDERABAD","BHAGYANAGAR COMPLEX,H.NO 12 6 11 BY 4,SY.NO.581,MAIN ROAD,KUKATPALLY,HYDERABAD 500 072,AP",65080150,HYDERABAD,HYDERABAD,"ANDHRA PRADESH"
"INDUSIND BANK",INDB0000568,226234011,"CHOWK, LUCKNOW","GROUND FLOOR,  LIC BUILDING,  KHUN KHUN JI ROAD, CHOWK,  LUCKNOW- 226 003, U.P",0,LUCKNOW,LUCKNOW,"UTTAR PRADESH"
"INDUSIND BANK",INDB0000567,600234018,"EAST MOGAPPAIR CHENNAI","G 3,BLOCK 1,AMM TOWERS,NO 50,THIRUVALLUR MAIN RD,EAST MOGAPPAIR,CHENNAI 600 037,TN",26568485,CHENNAI,CHENNAI,"TAMIL NADU"
"INDUSIND BANK",INDB0000566,842234002,MUZAFFARPUR,"GROUND FIRST FLOOR,KHARA NO 87 NEW,JAWAHARLAL ROAD,MUZZAFARPUR 842 001,BIHAR",2245264,MUZAFFARPUR,MUZAFFARPUR,BIHAR
"INDUSIND BANK",INDB0000565,110234055,"NOIDA SECTOR 48","C 232 A BY 1,MAIN DADRI ROAD,SECTOR 48,NOIDA 201 304,GAUTAM BUDH NAGAR DIST,UTTAR PRADESH",2571773,NOIDA,"GAUTAM BUDDHA NAGAR","UTTAR PRADESH"
"INDUSIND BANK",INDB0000564,686234052,CHANGANACHERRY,"GROUND FLOOR ┬ûCHAKKITTAMURIYIL BUILDING, NEAR PAREL CHURCH, VAZHAOOR ROAD, CHANGANACHERRY- 686 101, KOTTAYAM DIST, KERALA",0,CHANGANASSERY,KOTTAYAM,KERALA
"INDUSIND BANK",INDB0000563,226234012,"INDIRANAGAR, LUCKNOW","GROUND FLOOR ┬ûPLOT NO 628/10A,  KHASRA NO 594/3, FAIZABAD ROAD,  INDIRANAGAR, LUCKNOW- 226016, UTTAR PRADESH",0,LUCKNOW,LUCKNOW,"UTTAR PRADESH"
"INDUSIND BANK",INDB0000562,302234006,"VAISHALI NAGAR, JAIPUR","PLOT NO. C-212 & 213, ┬ô SOLITAIRE BUILDING┬ö, GAUTAM MARG,  VAISHALI NAGAR, HANUMAN NAGAR, JAIPUR- 302 020, RAJASTHAN",0,JAIPUR,JAIPUR,RAJASTHAN
"INDUSIND BANK",INDB0000561,440234010,"WARDHA ROAD, NAGPUR","┬ô NAV BHARAT BHAWAN┬ö, PLOT NO 3,  CHHATRAPATI SQUARE, SNEH NAGAR, WARDHA ROAD, NAGPUR- 440 015, MAHARASHTRA",0,NAGPUR,NAGPUR,MAHARASHTRA
"INDUSIND BANK",INDB0000560,440234009,"BYRAMJI TOWN","GROUND FLOOR, PLOT NO 5, HOUSE NO 13/A, OPP. ACHRAJ TOWER NO II, CHINDWARA ROAD, CHHAONI, BYRAMJI TOWN, NAGPUR- 440 013, MAHARASHTRA",0,NAGPUR,NAGPUR,MAHARASHTRA
"INDUSIND BANK",INDB0000559,110234054,"DWARKA, NEW DELHI","GROUND  & 1ST FLOORS, ANTRIKSH PLAZA, PLOT NO2, SECTOR-10, MLU, DWARKA, NEW DELHI- 110 075",0,DELHI,DELHI,DELHI
"INDUSIND BANK",INDB0000558,785234202,SIBSAGAR,"1ST FLOOR, ┬ô KRISHNA BHAWAN┬ö, TEMPLE ROAD, WARD NO XII, SIBSAGAR- 785640, ASSAM",0,SIBSAGAR,SIBSAGAR,ASSAM
"INDUSIND BANK",INDB0000557,0,BHAISAMAU,"KHASRA NO.294/0.954,R. R. INSTITUTE OF MODERN TECHNOLOGY, VILLAGE BHAISAMAU, PERGANA MAHONA,  TEHSIL BAKSHI KA TALAB,  DISTRICT LUCKNOW - 227202, UTTAR PRADESH",0,BAKSHI-KA-TALAB,LUCKNOW,"UTTAR PRADESH"
"INDUSIND BANK",INDB0000556,110234052,"SECTOR 57, GURGAON","GROUND FLOOR( SHOP NO G-5) & UPPER GROUND FLOOR( SHOP NO UG-5), BESTECH CENTRAL SQUARE, BLOCK-G, SECTOR-57, SUSHANT LOK-II, GURGAON- 122 002, HARYANA",0,GURGAON,GURGAON,HARYANA
"INDUSIND BANK",INDB0000555,800234010,ANISHABAD-PATNA,"GROUND FLOOR, ┬ô RADHIKA COMPLEX┬ö,  BALLAMBI CHOWK MORE, KHAGUL ROAD,  ANISHABAD, PATNA- 800 002, BIHAR",0,PATNA,PATNA,BIHAR
"INDUSIND BANK",INDB0000554,492234503,ABHANPUR,"GROUND FLOOR, KHASRA NO.779/1, PATWARI HAL NO.131, MOUZA URL, NEAR BUS STAND, BANK STREET, ABHANPUR- 493 661, DIST: RAIPUR, CHHATISGARH",0,ABHANPUR,RAIPUR,CHANDIGARH
"INDUSIND BANK",INDB0000553,110234069,"SECTOR SIXTY SIX GURGAON","GROUND FLOOR UNIVERSAL BUSINESS PARK SECTOR 66 GOLF COURSE EXTENSION ROAD GURGAON 122101 HARYANA",2216554,GURGAON,GURGAON,HARYANA
"INDUSIND BANK",INDB0000552,800234009,"KHAZANCHI ROAD- PATNA","GROUND FLOOR, ┬ô PARAS BHAWAN┬ö, KHAZANCHI ROAD, WARD NO 9, PO: BANKIPUR,PATNA- 800 004, BIHAR",0,PATNA,PATNA,BIHAR
"INDUSIND BANK",INDB0000551,390234008,"SUBHANPURA, VADODARA","GROUND & 1ST FLOOR, #A-46,NUTAN MAHESHWAR NAGAR SOCIETY, NEAR HIGH TENSION ROAD, SUBHANPURA,VADODARA- 390 023, GUJARAT",0,VADODARA,VADODARA,GUJARAT
"INDUSIND BANK",INDB0000550,226234009,"ALIGANJ, LUCKNOW","GROUND FLOOR, B-64, SECTOR-B,  MAIN KAPURTHALA ROAD, ALIGANJ,  LUCKNOW- 226 020, UTTAR PRADESH",0,LUCKNOW,LUCKNOW,"UTTAR PRADESH"
"INDUSIND BANK",INDB0000549,110234051,"BADSHAHPUR, GURGAON","GROUND FLOOR (RIGHT SIDE),┬öMD TOWER┬ö,  KHATOUNI NO 468,  SOHNA ROAD, BADSHAHPUR,  GURGAON-122001, HARYANA",0,GURGAON,GURGAON,HARYANA
"INDUSIND BANK",INDB0000548,110234053,"SECTOR 10 A, GURGAON","GROUND + 1ST FLOORS, SCO-3, SECTOR-10A,  GURGAON- 122 001, HARYANA",0,GURGAON,GURGAON,HARYANA
"INDUSIND BANK",INDB0000547,440234008,"DHANTOLI, NAGPUR-","GROUND FLOOR, SHOP NO 3,4,5 & 11,12,13, ┬ô SHREE GANESH CHAMBERS┬ö, NEAR PANCHSHEEL SQUARE, DHANTOLI, NAGPUR- 440 012, MAHARASHTRA",0,NAGPUR,NAGPUR,MAHARASHTRA
"INDUSIND BANK",INDB0000546,110234050,"ALPHA ┬û GREATER NOIDA","GROUND FLOOR, PLOT NO B-2, ALPHA-1, COMMERCIAL BELT, GREATER NOIDA, UTTAR PRADESH-201 306",0,NOIDA,"GAUTAM BUDDHA NAGAR","UTTAR PRADESH"
"INDUSIND BANK",INDB0000545,440234006,"JARIPATKA, NAGPUR","INDUSIND BANK LTD. GROUND & FIRST FLOOR, PLOT NO 310-B, SHOP NO G-002/A&B, F-101/A & B,F-102 A, ┬ô DEVIKA DEEP COMPLEX┬ö, NEAR CHOUDHARY CHOWK, JARIPATKA, NAGPUR- 440 014, MAHARASHTRA",0,NAGPUR,NAGPUR,MAHARASHTRA
"INDUSIND BANK",INDB0000544,110234046,"INDRAPRASTHA EXTENSION (IP EXTN), NEW DELHI","GROUND & 1ST FLOOR, ┬ô RG SQUARE MALL┬ö,  UNIT NO G-11,12&28 AND F-110 &111, PLOT NO 2,  LSC AT MANDAWALI FAZALPUR,  INDRAPRASTHA EXTENSION( IP EXTN), PATPARGANJ,  NEW DELHI- 110 092",0,DELHI,DELHI,DELHI
"INDUSIND BANK",INDB0000543,226234007,ALAMBAGH,"GROUND FLOOR,PLOT NO. 5(PART) & 7,  RAMNAGAR BILAWAN, KANPUR ROAD,  ALAMBAGH, LUCKNOW- 226005, UTTAR PRADESH",0,LUCKNOW,LUCKNOW,"UTTAR PRADESH"
"INDUSIND BANK",INDB0000542,226234008,"GOMTI NAGAR , LUCKNOW","1/90, GROUND FLOOR, VINAY KHAND,  NEAR PATRAKARPURAM CROSSING,GOMTINAGAR,  LUCKNOW- 226010, UTTAR PRADESH",0,LUCKNOW,LUCKNOW,"UTTAR PRADESH"
"INDUSIND BANK",INDB0000541,0,HARDUAGANJ,"GROUND + BASEMENT FLOOR,  KHASRA NO 184,VILLAGE BAIRAMGARHI MAJRA, RAMGHAT ROAD,HARDUAGANJ-202125, KOAL,DIST: ALIGARH, U.P.",0,HARDUAGANJ,ALIGARH,"UTTAR PRADESH"
"INDUSIND BANK",INDB0000540,110234049,"UDYOG VIHAR, GURGAON","┬ô┬ôVANIJYA KUNJ┬Æ, UNIT NO 1,2,15 & 16 ENKAY TOWER, UDYOG VIHAR, PHASE-V, GURGAON- 122 016, HARYANA",0,GURGAON,GURGAON,HARYANA
"INDUSIND BANK",INDB0000539,440234007,BOKHARA,"GROUND FLOOR, SHOP NO 11, MORYA-1, GANESH NAGARI, PLOT NO R-197, KORADI ROAD, VILLAGE: BHOKARA, THE & DIST NAGPUR, MAHARASHTRA",0,NAGPUR,NAGPUR,MAHARASHTRA
"INDUSIND BANK",INDB0000538,NA,DHOLANKHAPA,"GR FLR 92 BN NO 175 PH NO 03 KHASRA NO 163 VILL DHOLANKAPPA BLOCK PANDURNA DIST CHHINDWARA MP 480334",290015,PANDHURNA,CHHINDWARA,"MADHYA PRADESH"
"INDUSIND BANK",INDB0000537,0,DEONAGAR,"GROUND FLOOR, H NO.172, PH NO 48, VILLAGE: DEONAGAR, POST: HIRIDAYNAGAR, BLOCK:SIHORA, DIST:: JABALPUR, MADHYA PRADESH, PINCODE:  483 222",0,SIHORA,JABALPUR,"MADHYA PRADESH"
"INDUSIND BANK",INDB0000536,0,BHESLAY,"GROUND FLOOR, RAU RITHPUR MAIN ROAD,VILLAGE BHAINSLAY, TEHSIL: MHOW, DIST: INDORE, MADHYA PRADESH, PIN CODE- 453 332",0,MHOW,INDORE,"MADHYA PRADESH"
"INDUSIND BANK",INDB0000535,0,"KALOD KARTAL","GROUND FLOOR, PLOT NO 87, ANURADHA NAGAR,  VILLAGE: KALOD KARTAL,KHANDWA ROAD,  BYPASS CHOURAHA, DIST: INDORE, MADHYA PRADESH PIN CODE-452 020",0,INDORE,INDORE,"MADHYA PRADESH"
"INDUSIND BANK",INDB0000534,800234008,"ASHIANA NAGAR- PATNA","GROUND FLOOR, #10,ABHINAV APARTMENTS, MAIN ASHIANA DIGHA ROAD, NEAR PASSPORT OFFICE, ASHIANA NAGAR, PATNA- 800 014, BIHAR",0,PATNA,PATNA,BIHAR
"INDUSIND BANK",INDB0000533,110234043,"NOIDA SECTOR 110","PLOT NO 14, BLOCK A/3, SECTOR-110,  NOIDA-201 301, DIST: GAUTAM BUDH NAGAR,  UTTAR PRADESH",0,NOIDA,"GAUTAM BUDDHA NAGAR","UTTAR PRADESH"
"INDUSIND BANK",INDB0000532,713234402,KATWA,"GROUND FLOOR, PLOT NO 298/898, CIRCUS MAIDAN ROAD,  OPP. MUNICIPAL MARKET, KATWA- 713 130, BARDDHAMAN DIST, WEST BENGAL",0,KATWA,BARDDHAMAN,"WEST BENGAL"
"INDUSIND BANK",INDB0000531,800234006,"RAJENDRA NAGAR, PATNA","GROUND FLOOR, PLOT NO 158, BLOCK-A,ARYA KUMAR ROAD, RAJENDRA NAGAR, PATNA- 800 016, BIHAR",0,PATNA,PATNA,BIHAR
"INDUSIND BANK",INDB0000530,390234009,"VASNA ROAD, VADODARA","┬ôPANCHAM ICON┬ö, GF-SHOP NO 07 & 08, FF-107 & 108, PLOT NO 165, VASNA ROAD, VADODARA- 390 007, GUJARAT",0,VADODARA,VADODARA,GUJARAT
"INDUSIND BANK",INDB0000529,452234503,"NIHALPUR MUNDI","303A, SILICON CITY, ┬ôMANSEE HEIGHTS┬ö,  VILLAGE:NIHALPUR MUNDI,  DIST INDORE- 452 012, M.P",0,"NIHALPUR MUNDI",INDORE,"MADHYA PRADESH"
"INDUSIND BANK",INDB0000528,226234005,"ANAURA KALA","GROUND FLOOR, KHASRA NO 356, VILLAGE: ANAURA KALA, TEH: PERGANA, LUCKNOW FAIZABAD HIGHWAY, DIST: LUCKNOW- 227 105, UTTAR PRADESH",0,LUCKNOW,LUCKNOW,"UTTAR PRADESH"
"INDUSIND BANK",INDB0000527,440234005,"SADAR, NAGPUR","INDUSIND BANK LTD. GROUND FLOOR -SHOP NO 1 & FIRST FLOOR- SHOP  34, ┬ô SHRIRAM SHYAM TOWERS ┬ôS.V. PATIL ROAD, KINGSWAY, SADAR, NAGPUR  - 440 001, MAHARASHTRA",0,NAGPUR,NAGPUR,MAHARASHTRA
"INDUSIND BANK",INDB0000526,700234020,"SALT LAKE, SECTOR-1- KOLKATA","GROUND FLOOR, BF-20, SALT LAKE, SECTOR-1, TANK NO 4,  CAP CAMP STOPAGE, KOLKATA- 700 064,  WEST BENGAL",0,KOLKATTA,KOLKATA,"WEST BENGAL"
"INDUSIND BANK",INDB0000525,390234006,"DANDIA BAZAAR, VADODARA","GROUND FLOOR, SURVEY NO.62 & 63/1 ┬ôHOTEL RAJDHANI BUILDING┬ö, NEAR FIRE STATION, CHAR RASTA, DANDIA BAZAAR,VADODARA-390001,GUJARAT",0,VADODARA,VADODARA,GUJARAT
"INDUSIND BANK",INDB0000524,390234005,NIZAMPURA,"GROUND FLOOR, SHOP NO 104-106 & FIRST FLOOR 204-206, ┬ôAKSHAR PLAZA┬ö , BESIDES GOVERDHAN NATHJI HAVELI, OPP. GHELANI PETROL PUMP, NIZAMPURA, VADODARA-390001,GUJARAT",0,VADODARA,VADODARA,GUJARAT
"INDUSIND BANK",INDB0000523,390234007,GOTRI,"GROUND FLOOR,SHOP NO 2 & 3,┬ö PURV PRIME┬ö, NEAR NATHUBHAI CIRCLE, GOTRI MAIN ROAD, MOUJE JETAPUR, VADODARA- 390 007, GUJARAT",0,VADODARA,VADODARA,GUJARAT
"INDUSIND BANK",INDB0000522,231234102,ROBERTSGANJ,"GROUND FLOOR, PLOT NO 35 (HOUSE NO 67),WARD NO9, DHARMASHALA ROAD, ROBERTSGANJ- 231 216, DIST: SONBHADRA, UTTAR PRADESH",0,ROBERTSGANJ,SONBHADRA,"UTTAR PRADESH"
"INDUSIND BANK",INDB0000521,641234003,"R S PURAM","1ST FLOOR, 10/152 SHRI PRIYA KUNJ TRUST BUILDING,, EAST PERIASAMY ROAD, R. S. PURAM, COIMBATORE - 641 002, TAMIL NADU",0,COIMBATURE,COIMBATORE,"TAMIL NADU"
"INDUSIND BANK",INDB0000520,141234003,"URBAN ESTATE FOCUL POINT","UPSC JAIN PUBLIC SCHOOL,CHANDIGARH ROAD, URBAN ESTATE II, LUDHIANA ┬û 141010",0,LUDHIANA,LUDHIANA,PUNJAB
"INDUSIND BANK",INDB0000519,226234051,AMINABAD,"GROUND FLOOR, 56/1, MADHUBAN HOTEL BUILDING,HEWETT ROAD (SHIVAJI MARG) LUCKNOW ┬û 226018 (UTTAR PRADESH)",0,LUCKNOW,LUCKNOW,"UTTAR PRADESH"
"INDUSIND BANK",INDB0000518,110234047,"GURGAON, SECTOR 31","SCO-8, SECTOR31/32A MAIN HUDA MARKET, GURGAON- 122 002, HARYANA",0,GURGAON,GURGAON,HARYANA
"INDUSIND BANK",INDB0000517,390234003,WARASIA,"GROUND FLOOR, SWAMI PREMDAS JALARAM HOSPITAL, BEHIND R. T. O.'HARNI WARASIA RING ROAD, WARASIA, VADODARA┬û 390 006",0,VADODARA,BARODA,GUJARAT
"INDUSIND BANK",INDB0000516,800234007,"KANKERBAGH, PATNA","GROUND FLOOR- DS-20, GAYATRI MANDIR ROAD, KANKERBAGH COLONY, PATNA- 800 020, BIHAR",0,PATNA,PATNA,BIHAR
"INDUSIND BANK",INDB0000515,700234004,"STOCK EXCHANGE","MEGACITY CHAMBERS, 1 INDIA EXCHANGE PLACE, GROUND FLOOR, KOLKATA ┬û 700 001",0,KOLKATTA,KOLKATA,"WEST BENGAL"
"INDUSIND BANK",INDB0000514,110234048,"OLD JUDICIARY COMPLEX(SEC-15),GURGAON BR.","SCO-57, OLD JUDICIARY COMPLEX, SECTOR-15, CIVIL LINES, GURGAON- 122 001, HARYANA",0,GURGAON,GURGAON,HARYANA
"INDUSIND BANK",INDB0000513,110234044,OMEGA,"GROUND FLOOR, SHOP NO 2, SECTOR OMEGA O1/P2, GNIDA- 201 306, GAUTHAM BUDH NAGAR DIST, UTTAR PRADESH.",0,NOIDA,"GAUTAM BUDDHA NAGAR","UTTAR PRADESH"
"INDUSIND BANK",INDB0000512,795234002,IMPHAL,"INDUSIND BANK LTD. FIRST FLOOR, THANGAL BAZAAR, KHUYATHON ROAD, NEAR KALIBARI, IMPHAL- 795 001, MANIPUR",0,IMPHAL,IMPHAL,MANIPUR
"INDUSIND BANK",INDB0000511,144234302,NAWANSHAHR,"GROUND FLOOR PREMISES, GILL PLAZA, KHASRA NO. 3914/2489(1-13), BANGA ROAD, NAWANSHAHR-144514",0,NAWANSHAHAR,NAWANSHAHAR,PUNJAB
"INDUSIND BANK",INDB0000509,0,SUKHA,"GROUND FLOOR, KHASRA 284, VILLAGE SUKHA, PO: SUKHA,  TEHSIL- PANAGAR, PATAN ROAD, DIST: JABALPUR, MADHYA PRADESH-482 002.",0,PATAN,JABALPUR,"MADHYA PRADESH"
"INDUSIND BANK",INDB0000508,0,PAIKRAMAU,"UPPER GROUND FLOOR, KURSI ROAD, VILLAGE: PAIKRAMAU,  PO: BEHTA, PS: GUDAMBA, TEH: BAKSHI KA TALAB, DIST: LUCKNOW-226 026, UP",0,BAKSHI-KA-TALAB,LUCKNOW,"UTTAR PRADESH"
"INDUSIND BANK",INDB0000507,221234303,AHIMANPUR,"ARAZI NO. 499, GROUND FLOOR , VILLAGE-AHIMANPUR, POST: KHAMARIA, TALUKA ASNAW, TEHSIL AAURAI, SANT RAVIDAS NAGAR, BHADOHI, UTTAR PRADESH- 221306",0,GYANPUR,"SANT RAVIDAS NAGAR BHADOHI","UTTAR PRADESH"
"INDUSIND BANK",INDB0000506,0,"NAREPAR UPARWAR","GROUND FLOOR,  ARAZI NO.154,186 & 251,  OPP. POLICE STATION, VILLAGE: NAREPAR UPARWAR PARAGNA,  PO: SITAMARI, TEH: GYANPUR- DIST:SANT RAVIDAS NAGAR  BHADOHI- 221 309, UP",0,GYANPUR,"SANT RAVIDAS NAGAR","UTTAR PRADESH"
"INDUSIND BANK",INDB0000505,462234504,KURANA,"GROUND FLOOR, KHASRA NO 70/2/1/1/KA & 5/KA VILLAGE: KURANA, BLOCK: PHANDA PS: PARWADIYA SADAK, TEH: HUZUR, DIST: BHOPAL- 462 036, M.P",0,KURANA,BHOPAL,"MADHYA PRADESH"
"INDUSIND BANK",INDB0000504,500234002,"BANJARA HILLS","H.NO.8-2-277/3 & 3A, LAXMI PLAZA, ROAD NO. 3, BANJARA HILLS, HYDERABAD ┬û 500 034",0,SECUNDERABAD,SECUNDERABAD,"ANDHRA PRADESH"
"INDUSIND BANK",INDB0000503,400234008,MAHIM,"P.D.HINDUJA NATIONAL HOSPITAL , VEER SAVARKAR MARG, MAHIM, MUMBAI 400016",0,MUMBAI,MUMBAI,MAHARASHTRA
"INDUSIND BANK",INDB0000502,462234502,KOLUKHEDI,"GROUND FLOOR, KHASRA NO 200, RAJASYA NIRMAN MA 04, VILLAGE- KOLUKHEDI, BLOCK: PHANDA, DIST: BHOPAL- 462 030, M.P",0,"KOLUKHEDI, BHOPAL",BHOPAL,"MADHYA PRADESH"
"INDUSIND BANK",INDB0000501,452234501,"TALAWALI CHANDA","GROUND FLOOR, SURVEY NO. 141, VILLAGE TALAWALI CHANDA, POST MANGLIA, TEH & DIST. INDORE- 453771, MADHYA PRADESH",0,"TALAWALI CHANDA",INDORE,"MADHYA PRADESH"
"INDUSIND BANK",INDB0000500,452234502,UMARIYA,"┬ô GANV THAN┬ö, VILLAGE:UMARIYA ,  # 41, BALAJI BHAWAN, AB ROAD,TEH-MHOW,  DIST: INDORE- 453 331, MADHYA PRADESH",0,MHOW,INDORE,"MADHYA PRADESH"
"INDUSIND BANK",INDB0000499,491234002,DHANORA,"GROUND FLOOR, KHASRA NO 744, VILLAGE: DHANORA, PO: HANODA, TEH& DIST: DURG- 491 001, CHHATISGARH",0,DHANORA,DURG,CHANDIGARH
"INDUSIND BANK",INDB0000498,492234504,KENDRI,"GROUND FLOOR, KHASRA NO.581/21 VILL. KENDRI TAUHSIL ABHANPUR, PIN-493661 DIST. RAIPUR, CHATTISGARH",0,KENDRI,RAIPUR,CHANDIGARH
"INDUSIND BANK",INDB0000497,400234038,"HIRANANDANI GARDENS, POWAI, MUMBAI","GROUND FLOOR, UNIT NO 1-4,┬Æ GATEWAY PLAZA┬Æ, GATEWAY PLAZA CHS LTD, CENTRAL AVENUE, HIRANANDANI GARDENS, POWAI, MUMBAI- 400 076, MAHARASHTRA",0,MUMBAI,"GREATER BOMBAY",MAHARASHTRA
"INDUSIND BANK",INDB0000496,500234012,CHOUTUPPAL,"GROUND FLOOR, H.NO 5-494/8A, SURVEY NO 217,  BLOCK NO V,  ┬ô GS COMPLEX┬ö, HANDLOOM MARKET ROAD, CHOUTUPPAL- 508252, DIST:NALGONDA,  ANDHRA PRADESH",0,CHOUTUPPAL,NALGONDA,"ANDHRA PRADESH"
"INDUSIND BANK",INDB0000495,282234502,CHITORA,"GROUND FLOOR #409, VILLAGE: CHITAURA, PO: CHITAURA, BLOCK: SHAMSHABAD, TEHSIL- FATEHABAD, DIST: AGRA, UTTAR PRADESH-283125",0,CHITAURA,AGRA,"UTTAR PRADESH"
"INDUSIND BANK",INDB0000494,411234501,KARMOLI,"38, GAT NO. 481, KARMOLI, TALUKA MULSHI, DISTT-PUNE , PIN CODE 412108, MAHARASHTRA",0,MULSI,PUNE,MAHARASHTRA
"INDUSIND BANK",INDB0000493,221234003,KAKKARMATTA,"GROUND FLOOR,  KAKKARMATTA ROAD, NEAR DLW GATE, VILLAGE: KAKKARMATTA , DIST: VARANASI- 221 004",0,KAKKARMATTA,VARANASI,"UTTAR PRADESH"
"INDUSIND BANK",INDB0000492,671234002,KASARAGOD,"GROUND FLOOR, ┬ôSARPANGALA BUILDING┬ö,  NO. 25-155(2&3), BANK ROAD,  KASARGOD- 671 121, DIST: KASARGOD, KERALA",0,KASARAGOD,KASARAGOD,KERALA
"INDUSIND BANK",INDB0000491,0,DHANWA,"GROUND FLOOR, KHASRA NO 339S, 331,VILLAGE DHANWA, DEWA ROAD,  PO & BLOCK- CHINHAT, DIST:  LUCKNOW UTTAR PRADESH - 227 105",0,DHANWA,LUCKNOW,"UTTAR PRADESH"
"INDUSIND BANK",INDB0000490,0,GIJWANE,"GROUND FLOOR, # 520, MILKAT NO 1204, AT & PO: GIZWANE, OPP. KEDAR TALKIES,  TAL: GADAHINGLAJ, DIST: KOLHAPUR, MAHARASHTRA- 412 516",0,GADHINGLAJ,KOLHAPUR,MAHARASHTRA
"INDUSIND BANK",INDB0000489,493234501,SIMGA,"GROUND FLOOR, HOUSE NO 1015/1 & 1017/1, R.B. ROAD, APPU CHOWK, VILLAGE SIMGA, BLOCK: BHATAPARA DIST: RAIPUR, CHHATISGARH ┬û 493101",0,BHATAPARA,RAIPUR,CHANDIGARH
"INDUSIND BANK",INDB0000488,440234004,YERLA,"GROUND FLOOR, GRAMPANCHAYAT,  HOUSE NO 116, WARD NO 1, VILLAGE YERLA, POST: FETRI,  TEH: NAGPUR(GRAMIN) DIST: NAGPUR, MAHARASHTRA- 441 501",0,YERLA,NAGPUR,MAHARASHTRA
"INDUSIND BANK",INDB0000487,474234503,SIROL,"GROUND FLOOR,SURVEY NO 151-1, SIROL GRAM PANCHAYAT LIMITS,  BLOCK- MORAR, DIST: GWALIOR, MADHYA PRADESH, PIN CODE- 474006",0,SIROL,GWALIOR,"MADHYA PRADESH"
"INDUSIND BANK",INDB0000486,474234502,RAIROO,"GROUND FLOOR,SURVEY NO 1622, VILLAGE: RAIROO ,NEAR MATA MANDIRAB ROAD, NEAR MATA MANDIR, BLOCK- BARAI, PS: PURANI CHHAWANI,, DIST: GWALIOR, MADHYA PRADESH, PIN CODE-474010",0,RAIRU,GWALIOR,"MADHYA PRADESH"
"INDUSIND BANK",INDB0000485,474234504,KHURERI,"GROUND FLOOR,SURVEY NO 442, VILLAGE: KHURERI , KHURERI MAIN ROAD,BLOCK- MORAR, DIST: GWALIOR, MADHYA PRADESH, PIN CODE-474 006",0,KHURERI,GWALIOR,"MADHYA PRADESH"
"INDUSIND BANK",INDB0000484,243234501,"TANDA SADAT","GROUND FLOOR, KHASRA NO 560(OLD) 1138 & 1139  ( NEW NO), GRAM: TANDA- SADAT, PO: SETHAL, TEH: NAWABGANJ, BAREILLY DIST, UTTAR PRADESH- 262 407",0,"TANDA SADAT",BAREILLY,"UTTAR PRADESH"
"INDUSIND BANK",INDB0000483,208234501,KHARAMAU,"GROUND FLOOR, LAKMI NARAYAN VIDHYALA,  VILLAGE: KHANDAMAU, PO PIHANI, DIST: KANPUR- 209 202, UTTAR PRADESH",0,KHARAMAU,"KANPUR NAGAR","UTTAR PRADESH"
"INDUSIND BANK",INDB0000482,492234501,BANSANKARA,"HOUSE NO-57, PATWARI HAL NO- 12, TEHSIL- SIMGA, PS & PO- BANSANKARA, DISTRICT- RAIPUR, PIN- 492101, CHHATISGARH",0,BANSANKRA,RAIPUR,CHANDIGARH
"INDUSIND BANK",INDB0000481,492234502,BILADI,"HOUSE NO.467, PATWARI HAL NO.7, VILLAGE: BILADI, TEHSIL TILDA, P.S. TILDA, DIST. RAIPUR, PIN-493114, CHATTISGARH",0,BILADI,RAIPUR,CHANDIGARH
"INDUSIND BANK",INDB0000480,396234502,UDWADA,"GROUND FLOOR, SHOP NOS. 6, 7 & 8, AMBIKA CO-OPERATIVE HOUSING SOCIETY, NEAR UDVADA RAILWAY STATION, POST : UDWADA, TALUKA : PARDI, DIST : VALSAD, PIN CODE : 396185, GUJARAT",0,UDWADA,NAVSARI,GUJARAT
"INDUSIND BANK",INDB0000479,133234003,KALARHERI,"KHASRA NO 7, NARAIANGARH ROAD, DEFENCE COLONY, VILLAGE KALARHERI, AMBALA CANTT ┬û 133001 (HARYANA)",0,KALARHERI,AMBALA,HARYANA
"INDUSIND BANK",INDB0000478,442234501,DARODA,"GROUND FLOOR, GRAMPANCHAYAT- DARODA, VILLAGE: DARODA, PS/PO- HINGANGHAT, DIST: WARDA, MAHARASHTRA- 442 307",0,DARODA,WARDHA,MAHARASHTRA
"INDUSIND BANK",INDB0000477,NA,ARWADE,"LOWER GROUND FLOOR GRAMPANCHAYAT HOUSE NO 889 SHRINATH VKS SOCIETY LIMITED VILLAGE ARWADA TAL TASGAON DIST SANGLI 416312 MAHARASHTRA",255570,"ARWADE SANGLI",SANGLI,MAHARASHTRA
"INDUSIND BANK",INDB0000476,462234501,DIWANGUNJ,"GROUND FLOOR, KHASRA NO 148/3/2, VILLAGE: DEWANGANJ, FACTORY CHAWRAHA, PH NO 4, TEH & DIST: RAISEN,BLOCK- SANCHI, PS: SALAMATPUR, MADHYA PRADESH- 464 651",0,DIWANGANJ,RAISEN,"MADHYA PRADESH"
"INDUSIND BANK",INDB0000475,206234502,KUNDOL,"GROUND FLOOR, VILLAGE, KUNDOL, POST: BACHEDI, TEH: CHAKAR NAGAR, DIST: ETAWAH, UTTAR PRADESH- 206125",0,KUNDOL,ETAWAH,"UTTAR PRADESH"
"INDUSIND BANK",INDB0000474,206234002,"SIRSA- ETAWAH","GROUND FLOOR, PROPERTY NO. 36, KHASRA NO. 378, VILLAGE SIRSA, BLOCK BASREHAR, TEHSIL AND DISTT ETAWAH, UTTAR PRADESH-  206123",0,"SIRSA ETAWAH",ETAWAH,"UTTAR PRADESH"
"INDUSIND BANK",INDB0000473,462234002,BADJHIRI,"GROUND FLOOR, KHASRA NO. 207, VILLAGE: BADJHIRI, MAIN ROAD, POST: JHAGARIYA KHURD, PS: RATIBAD, BLOCK- PHANDA, TEH: HUZUR, DIST: BHOPAL, MADHYA PRADESH- 462 044",0,BADJHIRI,BHOPAL,"MADHYA PRADESH"
"INDUSIND BANK",INDB0000472,282234501,"SIKRI HISSA IV","SIKRI HISSA IV, POST FATEHPUR SIKRI, BLOCK FATEHPUR SIKRI, TEHSIL KIRAWALI ┬û 283110 (UP).",0,"SIKRI HISSA IV",AGRA,"UTTAR PRADESH"
"INDUSIND BANK",INDB0000471,283234102,JAMALPUR,"PROPERTY NO 74, GROUND FLOOR , KHASRA NO 87, VILLAGE JAMALPUR, DISTRICT FIROZABAD, UTTAR PRADESH- 283 203",0,JAMALPUR,FIROZABAD,"UTTAR PRADESH"
"INDUSIND BANK",INDB0000470,400234037,"CRAWFORD MARKET, MUMBAI","GROUND FLOOR, SHOP NO 5 & 6,AHOKA SHOPPING CENTRE, G.T HOSPITAL COMPLEX, L.T. MARG, CRAWFORD MARKET, MUMBAI- 400 001, MAHARASHTRA",0,MUMBAI,"GREATER BOMBAY",MAHARASHTRA
"INDUSIND BANK",INDB0000469,841234701,ANDAR,"FIRST FLOOR, ASAON ROAD, NEAR POLICE STATION, ANDAR- 841 231, SIWAN DIST, BIHAR",0,ANDAR,SIWAN,BIHAR
"INDUSIND BANK",INDB0000468,135234002,CHHACHHRAULI,"GROUND & FIRST FLOOR, DEEP MARKET, CHHACHHRAULI , 135103, DIST: YAMUNA NAGAR, HARYANA",0,CHHACHHRAULI,YAMUNANAGAR,HARYANA
"INDUSIND BANK",INDB0000466,136234002,ISRANA,"GROUND FLOOR, SHOP NO 82 & 83, WAKA MOTI MANDI, ISRANA- 132107, DIST: PANIPAT , HARYANA",0,ISRANA,PANIPAT,HARYANA
"INDUSIND BANK",INDB0000465,133234002,DHAKOLA,"GROUND FLOOR, HOUSE NO 253, SHAHBAD ROAD, VILLAGE & PO: DHAKOLA-  133 104, SAHA, DIST:AMBALA, HARYANA",0,DHAKOLA,AMBALA,HARYANA
"INDUSIND BANK",INDB0000464,132234103,NIGDHU,"GROUND FLOOR, NILOKHERI DHAND ROAD, MAIN CHOWK,NIGDHU-132157, DIST: KARNAL HARYANA",0,NIGDHU,KARNAL,HARYANA
"INDUSIND BANK",INDB0000463,700234019,BHOWANIPORE,"13, ELGIN ROAD,  KOLKATA 700 020, WEST BENGAL",0,KOLKATA,KOLKATA,"WEST BENGAL"
"INDUSIND BANK",INDB0000462,737234152,JORETHANG,"GROUND FLOOR, 1ST STREET, NEAR FOUNTAIN, JORETHANG, SOUTH SIKKIM DIST - 737 121, SIKKIM",0,JORETHANG,"SOUTH SIKKIM",SIKKIM
"INDUSIND BANK",INDB0000461,797234002,DIMAPUR,"1ST FLOOR, N.L. ROAD(CHURCH ROAD),  OPP. PLAZA RESTAURANT,  DIMAPUR- 797 112, NAGALAND",0,DIMAPUR,DIMAPUR,NAGALAND
"INDUSIND BANK",INDB0000460,781234152,"BARPETA ROAD","1ST FLOOR, STATION ROAD, BARPETA ROAD,  DIST- BARPETA- 781 315, ASSAM",0,"BARPETA ROAD",BARPETA,ASSAM
"INDUSIND BANK",INDB0000459,206234501,SAIFAI,"GROUND FLOOR AT KHASRA NO 292, OPP. HOSPITAL, PGI ROAD, SAIFAI- 206130 (DIST: ETAWAH, U.P).",0,SAIFAI,ETAWAH,"UTTAR PRADESH"
"INDUSIND BANK",INDB0000458,470234101,BINA,"GROUND FLOOR,  ┬ôRAJ TRACTORS BUILDING┬ö, STATION ROAD, BINA-470 113, SAGAR DIST, MADHYA PRADESH",0,BINA,SAGAR,"MADHYA PRADESH"
"INDUSIND BANK",INDB0000457,314234501,GOWARI,"GROUND FLOOR, OPP. IRRIGATION OFFICE & G.P.O, NEAR HONDA SHOWROOM, PUNARWAS COLONY, DUNGARPUR ROAD, GOWARI ┬û 314 025 TEH: SAGWARA, DIST: DOONGARPUR, RAJASTHAN",0,GOWARI,DUNGARPUR,RAJASTHAN
"INDUSIND BANK",INDB0000456,313234501,GORDHANVILAS,"SHOP NO. S-7+S-15 ┬ôTRIMURTY APARTMENTS┬ö, 100FT. MAIN ROAD, M ┬û BLOCK, SECTOR ┬û 14, GORDHANVILAS ┬û 313 001, DIST : UDAIPUR, (RAJASTHAN)",0,"GORDHAN VILAS",UDAIPUR,RAJASTHAN
"INDUSIND BANK",INDB0000455,380234007,CHANGODAR,"GROUND FLOOR, ┬ôGAGAN COMPLEX┬ö, NEAR GAGAN HOTEL, SARKHEJ ┬ûBAWLA ROAD, POST: CHANGODAR, TALUKA: SANAND, DIST: AHMEDABAD- 382 213, GUJARAT",0,CHANGODAR,AHMADABAD,GUJARAT
"INDUSIND BANK",INDB0000454,132234352,ASSANDH,"OPP. TO GRAIN MARKET, KARNAL ROAD, ASSANDH, DIST: KARNAL 132039, HARYANA",0,ASSANDH,KARNAL,HARYANA
"INDUSIND BANK",INDB0000453,342234501,BORANADA,"GROUND FLOOR AT SHOP NO. S-9,S - 10, RIICO HOUSING COLONY, BALOTARA ROAD, BORANADA ┬û 342 012, DISTRICT. JODHPUR (RAJASTHAN)",0,BARANADA,JODHPUR,RAJASTHAN
"INDUSIND BANK",INDB0000452,342234502,"SOOR SAGAR","┬ô DURGA VILLA┬ö, MANNA KI BADI, FIDUSAR ROAD, SOOR SAGAR ┬û 342 024, DIST:JODHPUR (RAJASTHAN)",0,SURSAGAR,JODHPUR,RAJASTHAN
"INDUSIND BANK",INDB0000451,396234112,DADRA,"GROUND FLOOR, SHOP NO 4  ┬ô RAS AVENUE┬ö SURVEY NO. 11/2/2/2 & 11/3/1 OPP. LE ROYAL HOTEL, NEAR DADRA GARDEN, VAPI- SILVASSA ROAD, DADRA- 396 193  ( U.T OF DADRA & NAGAR HAVELI)",0,DADRA,"DADRA&NAGAR HAVELI","DADRA AND NAGAR HAVELI"
"INDUSIND BANK",INDB0000450,400234036,DOMBIVALI,"GROUND FLOOR, SHOP NO 1- 5, ┬ô SIMRAN ELEGANCE┬ö, TANDAN ROAD, RAM NAGAR, DOMBIVALI-E- 421 201, THANE DIST, MAHARASHTRA",0,DOMBIVLI,THANE,MAHARASHTRA
"INDUSIND BANK",INDB0000449,461234101,HOSANGABAD,"1ST FLOOR, ┬ô SHREE SAI KRUPA┬ö, SAT RASTA, HOSANGABAD- 461 001, MADHYA PRADESH",0,HOSHANGABAD,HOSHANGABAD,"MADHYA PRADESH"
"INDUSIND BANK",INDB0000448,0,ORCHHA,"GROUND FLOOR, NEAR GANESH DARWAJA,  JHANSI ROAD, ORCHHA- 472 246.  TEEKAMGARH DIST, MADHYA PRADESH",0,ORCHHA,TIKAMGARH,"MADHYA PRADESH"
"INDUSIND BANK",INDB0000447,800234005,BHAGWANPUR,"1ST FLOOR, ┬ô RAJA MARKET, PURBI BAZAAR,  BHAGWANPUR- 844 114, VAISHALI DIST, BIHAR",0,BHAGWANPUR,VAISHALI,BIHAR
"INDUSIND BANK",INDB0000446,343234501,RANIWARA,"GROUND FLOOR 3 SHOPS, NEAR RAILWAY CROSSING, SANCHORE ROAD, RANIWARA-343 040, DIST: JALORE, RAJASTHAN",0,RANIWARA,JALOR,RAJASTHAN
"INDUSIND BANK",INDB0000445,783234501,JOGIGHOPA,"GROUND FLOOR, DAG NO 128,  NEAR BHARAT WAYBRIDGE,VILLAGE & PO JOGIGHOPA- 783 382, DIST: BONGAIGAON, ASSAM",0,JOGIGHOPA,BONGAIGAON,ASSAM
"INDUSIND BANK",INDB0000444,834234003,"LALPUR CHOWK ┬ûRANCHI","GROUND & 1ST FLOOR, HOLDING NO 719/A,  PLOT NO 1358/B, LALPUR CHOWK ,  RANCHI- 834 001, JHARKHAND",0,RANCHI,RANCHI,JHARKHAND
"INDUSIND BANK",INDB0000441,342234003,"PAOTA- JODHPUR","GROUND FLOOR, PLOT NO. 114 & 115, LAXMAN BHAWAN, POLO 1ST, PAOTA, FACING MAIN MANDORE ROAD, JODHPUR ┬û 342 006 (RAJASTHAN)",0,JODHPUR,JODHPUR,RAJASTHAN
"INDUSIND BANK",INDB0000440,148234002,SANGRUR,"GROUND FLOOR, GAUSHALA ROAD, OPP.  NEW GRAIN MARKET, NEAR KHANNA FOUNDATION,  SANGRUR ┬û 148001 (PUNJAB)",0,SANGRUR,SANGRUR,PUNJAB
"INDUSIND BANK",INDB0000439,327234002,BANSWARA,"GROUND FLOOR,  PLOT NO. ┬û 174/A, B, C & D,  MOHAN COLONY, UDAIPUR ROAD,  BANSWARA ┬û 327001 (RAJASTHAN)",0,BANSWARA,BANSWARA,RAJASTHAN
"INDUSIND BANK",INDB0000438,262234421,"PALIA KHALAN","INDIRA NAGAR COLONY, BHIRA ROAD, PALIA KHALAN ┬û 262902, DISTT. LAKHIMPUR KHERI (UTTAR PRADESH)",0,"PALIA KALAN","LAKHIMPUR KHERI","UTTAR PRADESH"
"INDUSIND BANK",INDB0000437,221234302,GOPIGANJ,"GT ROAD (PADAV), GOPI GANJ- 221 303,  S.R.N., UTTAR PRADESH",0,GOPIGANJ,"SANT RAVIDAS NAGAR","UTTAR PRADESH"
"INDUSIND BANK",INDB0000436,302234005,MAHAPURA,"GROUND FLOOR, SHOP NO. 10,11 & 12, SHIVANANDAPURI VISTAR, KALWADA ROAD, MAHAPURA ┬û 302026.  JAIPUR DISTT. RAJASTHAN",0,MAHAPURA,JAIPUR,RAJASTHAN
"INDUSIND BANK",INDB0000435,226234003,OBRI,"UPPER GROUND FLOOR AT MITRA PLAZA, 507-508  OBRI GRAM, OPP. DM NIVAS,  BARABANKI DISTT. ┬û 225001 (UP)",0,OBAREE,"BARA BANKI","UTTAR PRADESH"
"INDUSIND BANK",INDB0000434,136234002,"PIPLI MAJRA","GROUND FLOOR, GITA DWAR, KURUSHETRA ROAD,  PIPLI MAJRA ┬û 132 131 (KURUSHETRA DISTT. HARYANA)",0,PIPLI,KURUKSHETRA,HARYANA
"INDUSIND BANK",INDB0000433,141234005,THREEKAY,"GROUND FLOOR, # 5, BABA FARID NAGAR,  PO BADOWAL, FEROZE GANDHI ROAD,  THREEKAY CHOWK, THREEKAY ┬û 142021  (LUDHIANA DISTT). PUNJAB",0,THREEKE,LUDHIANA,PUNJAB
"INDUSIND BANK",INDB0000432,160234014,"PHASE ┬û XI, MOHALI","BASEMENT & GROUND FLOOR, SCF NO. 36, PHASE ┬û XI, MOHALI ┬û 160062 (PUNJAB)",0,"SAS NAGAR(MOHALI)",RUPNAGAR,PUNJAB
"INDUSIND BANK",INDB0000431,221234102,BHADOHI,"GROUND FLOOR, PLOT NO. 389/10, JALALPUR STATION ROAD, BHADOHI ┬û 221401( DISTRICT RAVIDAS NAGAR ) U.P",0,BHADOHI,"SANT RAVIDAS NAGAR","UTTAR PRADESH"
"INDUSIND BANK",INDB0000430,400234035,"KALBADEVI ROAD, MUMBAI","GROUND FLOOR, SHOP. NO 1,2,3 & 12,13,14,  JEWEL WORLD, COTTON EXCHANGE BUILDING,  175, KALBADEVI ROAD, MUMBAI- 400 002,  MAHARASHTRA",0,MUMBAI,"GREATER BOMBAY",MAHARASHTRA
"INDUSIND BANK",INDB0000429,304234002,DEOLI,"GROUND FLOOR,┬ôGOYAL SALES CORPORATION┬ö, PLOT NO.16 & 17,WARD NO 18, OPP. GOYAL MOTORS, KOTA MAIN ROAD, DEOLI-304 804,TONK DIST, RAJASTHAN",0,DEOLI,TONK,RAJASTHAN
"INDUSIND BANK",INDB0000428,344234002,BARMER,"GROUND FLOOR, ┬ôOMEGA TOWER┬ö, PROPERTY NO 414, ROY COLONY, NEAR COLLECTOR┬ÆS BUNGLOW, BARMER-344 001, RAJASTHAN",0,BARMER,BARMER,RAJASTHAN
"INDUSIND BANK",INDB0000427,144234353,APRA,"GROUND FLOOR AT VPO:PIND APRA,BANGA ROAD,TEH:PHILLAUR, DIST: JALLANDHAR,PUNJAB - 144 416",0,APRA,JALANDHAR,PUNJAB
"INDUSIND BANK",INDB0000426,146234002,HOSHIARPUR,"UGF-S, LOCATED AT UPPER GROUND FLOOR, "" J'S EMINENT MALL, MUNICIPAL NO.8-XVII/81S, SUTHERI ROAD. HOSHIARPUR-146001 PUNJAB",0,HOSHIARPUR,HOSHIARPUR,PUNJAB
"INDUSIND BANK",INDB0000425,767234102,SONAPUR,"GROUND FLOOR,PO- MAJHIPADA, MARKET ROAD,SONAPUR, DIST.SUBRNAPUR ┬û 762 016, ODISHA.",0,SONEPUR,SONEPUR,ODISHA
"INDUSIND BANK",INDB0000424,494234101,KANKER,"GROUND + 1ST FLOOR PREMISES  AT SHOP NO 55, ┬ô AMBEDKAR SHOPPING COMPLEX┬ö, MAJHAPARA, KANKER- 494 334, CHHATISGARH",0,KANKER,KANKER,CHANDIGARH
"INDUSIND BANK",INDB0000423,492234003,BHATAGAON,"PLOT NO B-75, RING ROAD NO1,NEAR SIDDHESHWARI TEMPLE,BHATAGAON, RAIPUR DIST- 492 001, CHHATISGARH",0,BHATGAON,RAIPUR,CHANDIGARH
"INDUSIND BANK",INDB0000422,831234003,KHARSAWAN,"GROUND FLOOR OF THE BUILDING CHANDNI CHOWK,  KUCHAI ROAD.POIPS: KHARSAWAN- 833 216.JHARKHAND",0,KHARSAWAN,SARAIKELA-KHARSAWAN,JHARKHAND
"INDUSIND BANK",INDB0000421,312234002,CHITTORGARH,"GROUND FLOOR AT ┬ôAPSARA COMPLEX┬ö,  SHOP NO. 31,32 & 49, NEAR COLLECTORATE CHAURAHA, OPP. MEERA MARKET, CHITTORGARH ┬û 312 001 (RAJASTHAN)",0,CHITTORGARH,CHITTAURGARH,RAJASTHAN
"INDUSIND BANK",INDB0000420,313234003,RAJSAMAND,"GROUND FLOOR,┬ôGIRIDHAR COMPLEX┬ö, AARAJI NO 41/3, NEAR SURBHI COMPLEX, 100FT ROAD CHOURAHA, NATHWARA ROAD, RAJASAMAND-313 324, RAJASTHAN",0,RAJSAMAND,RAJSAMAND,RAJASTHAN
"INDUSIND BANK",INDB0000419,700234018,"DIAMOND HARBOUR BRANCH","1ST FLOOR, MADHAPUR, NEAR POLICE STATION,WARD NO 13, PO & PS: DIAMOND HARBOUR, DIST: 24 SOUTH PARAGNAS- 743 331, WEST BENGAL",0,"DIAMOND HARBOUR","SOUTH 24 PARGANAS","WEST BENGAL"
"INDUSIND BANK",INDB0000418,758234002,KENDUJHAR,"GROUND FLOOR, PLOT NO 590, PABITRADIHA, KAMARGADIA, KEONJHAR- 758 001, ODISHA",0,KEONJHAR,KEONJHAR,ODISHA
"INDUSIND BANK",INDB0000417,0,DHAMRA,"GROUND FLOOR, PLOT NO 6/664, PRADYUT NAGAR, DUSINGA, PO- DHAMRA- 756 171, BHADRAK DIST, ODISHA",0,DHAMARA,BHADRAK,ODISHA
"INDUSIND BANK",INDB0000416,442234102,CHANDRAPUR,"GROUND FLOOR ┬ôZANZARI COMPLEX┬ö,  SARAF MARKET, ZILA PARISHAD ROAD, CHANDRAPUR-442402, MAHARASTHRA",0,CHANDRAPUR,CHANDRAPUR,MAHARASHTRA
"INDUSIND BANK",INDB0000415,393234051,ANKLESHWAR,"SHOP NO 10 & 11  ┬ô SHREE GANESH BUILDING┬ö  OLD NH-8, ANKLESHWAR- 393 001, GUJARAT",0,ANKLESHWAR,BHARUCH,GUJARAT
"INDUSIND BANK",INDB0000414,370234501,"NARANPAR PASAYALI","GROUND + FIRST FLOOR, NARANPUR, UPLOVAS, NARANPAR PASAYALI- 370 429, KACHCH DIST, GUJARAT",0,NARANPAR,KACHCHH,GUJARAT
"INDUSIND BANK",INDB0000413,680234003,KODUNGALLUR,"GROUND FLOOR, AT ┬ôROYAL SPOT SHOPPING MALL┬ö NORTH NADA, KODUNGALLUR, TRISSUR DIST- 680 664, KERALA",0,KODUNGALLUR,THRISSUR,KERALA
"INDUSIND BANK",INDB0000412,301234202,BHIWADI,"GROUND FLOOR, A-6, BHAGAT SINGH COLONY, ADJ. HERO SHOW ROOM,DELHI-ALWAR HIGHWAY, BHIWADI-301 019, ALWAR DIST, RAJASTHAN",0,BHIWADI,ALWAR,RAJASTHAN
"INDUSIND BANK",INDB0000411,301234002,ALWAR,"GROUND FLOOR  ┬ôDREAMS┬ö, NEAR BIJLI GHAR CIRCLE, GAURAV PATH, ALWAR- 301 001, RAJASTHAN",0,ALWAR,ALWAR,RAJASTHAN
"INDUSIND BANK",INDB0000410,250234002,MEERUT,"GROUND FLOOR ┬ôTYAGI MARKET┬ö, # 22, TEJ GARHI, GARH ROAD,  MEERUT- 250 004, UTTAR PRADESH",0,MEERUT,MEERUT,"UTTAR PRADESH"
"INDUSIND BANK",INDB0000409,0,KHAMANON,"1ST FLOOR, OPP. MANDI, LUDHIANA ┬ûCHANDIGARH HIGHWAY, KHAMMANON-141 801, DIST: FATEHGARH SAHEB, PUNJAB",0,KHAMANON,"FATEHGARH SAHIB",PUNJAB
"INDUSIND BANK",INDB0000408,110234041,"PANCHGAON, GURGAON","GROUND FLOOR , TAURU ROAD, VILLAGE FAJILUAS( PANCHGAON), TEH: MANESAR, DIST GURGAON- 122 005, HARYANA",0,PACHGAON,GURGAON,HARYANA
"INDUSIND BANK",INDB0000407,110234040,"SADAR BAZAAR, GURGAON","GROUND FLOOR, # 646/9, OLD RAILWAY ROAD, KABIR BHAWAN CHOWK, SADAR BAZAAR, GURGAON- 122 001, HARYANA",0,GURGAON,GURGAON,HARYANA
"INDUSIND BANK",INDB0000406,400234034,"SECTOR NO.17, VASHI","GROUND FLOOR, SHOP. NO. 5, MAHATMA PHULE BHAVAN, PLOT NO.66, SECTOR NO.17, VASHI, NAVI MUMBAI- 400 703",0,THANE,THANE,MAHARASHTRA
"INDUSIND BANK",INDB0000405,110234038,REWARI,"BASEMENT & GROUND FLOOR, SCO NO. 2, BRASS MARKET, OPP. LIC BLDG, REWARI ┬û 123401 (HARYANA)",0,REWARI,REWARI,HARYANA
"INDUSIND BANK",INDB0000404,110234042,KUNDLI,"SCO NO. 30, SHOPPING COMPLEX HSIIDC, PHASE-I, KUNDLI-131028 DIST. SONEPAT (HARYANA).",0,KUNDLI,SONIPAT,HARYANA
"INDUSIND BANK",INDB0000403,360234003,"RING ROAD, RAJKOT","GROUND FLOOR,  SHOP NO. 5& 6(PART) ┬ô THE IMPERIAL HEIGHTS┬ö, 150FT RING ROAD, OPP.ISCON PROZONE MALL, KALAWAD ROAD, RAJKOT-360 007, GUJARAT",0,RAJKOT,RAJKOT,GUJARAT
"INDUSIND BANK",INDB0000402,400234033,"THAKUR COMPLEX, KANDIVALI-E, MUMBAI","SHOP. NO 2,3,4,5 & 6, KANAKIA PARK II CHS, THAKUR COMPLEX, KANDIVALI-E, MUMBAI-400 101",0,MUMBAI,"GREATER BOMBAY",MAHARASHTRA
"INDUSIND BANK",INDB0000401,110234037,"GOLF COURSE ROAD,  GURGAON","GROUND FLOOR AT SHOP NO 2, ┬Æ SUNCITY BUSINESS TOWER┬Æ, SECTOR-54,  GOLF COURSE ROAD,  GURGAON- 122 002, HARYANA",0,GURGAON,GURGAON,HARYANA
"INDUSIND BANK",INDB0000400,387234001,NADIAD,"GROUND FLOOR, ┬ôD-CUBE┬ö, NEAR KIDNEY HOSPITAL, PETLAD ROAD, NADIAD-387 001, GUJARAT",0,NADIAD,KHEDA,GUJARAT
"INDUSIND BANK",INDB0000399,411234010,SHIKRAPUR,"GROUND FLOOR, ┬ôSAMBHAJI RAO KARANJE COMPLEX┬ö, NAGAR ROAD, AT& POST SHIKRAPUR- 412 208, TAL SHIRUR, DIST: PUNE, MAHARASHTRA",0,SHIRUR,PUNE,MAHARASHTRA
"INDUSIND BANK",INDB0000398,700234017,BAISNABGHATA-PATULI,"GROUND FLOOR, AT R 1/2 , BAISNABGHATA-PATULI, SOUTH 24PARAGNAS DIST, KOLKATA- 700 094, WEST BENGAL",0,BAISHNABGHATA-PATULI,"SOUTH 24 PARGANAS","WEST BENGAL"
"INDUSIND BANK",INDB0000397,712234002,"TARAKESHWAR, HOOGLY","GROUND FLOOR AT TC ROAD, SARDAPALLY, TARAKESHWAR, HOOGLY DIST- 712 710,WEST BENGAL",0,TARAKESWAR,HUGLI,"WEST BENGAL"
"INDUSIND BANK",INDB0000396,700234016,RAGHUNATHPUR,"1ST FLOOR, # 310, TARAKNATH MUKHERJEE ROAD, PO : RAGHUNATHPUR, NEAR MAKHLA SEVASADAN HOSPITAL, HOOGHLY- 712 247, WEST BENGAL",0,RAGHUNATHPUR,HUGLI,"WEST BENGAL"
"INDUSIND BANK",INDB0000395,713234102,ALAMGANJ,"GROUND FLOOR # 359, NETAJI SARANI,ALAMGUNJ ROAD, NUTANGUNJ PO,  BURDHWAR DIST- 713 102, WB",0,ALAMGANJ,BARDDHAMAN,"WEST BENGAL"
"INDUSIND BANK",INDB0000394,793234002,SHILLONG,"┬ô HOTEL PEGASUS  CROWN┬ö, HOUSE NO 194, WARD NO 10, JAIL ROAD, POLICE BAZAAR, SHILLONG- 793 001, MEGHALAYA",0,SHILLONG,"EAST KHASI HILLS",MEGHALAYA
"INDUSIND BANK",INDB0000393,800234004,"BORING ROAD  ┬û PATNA (II)","GROUND FLOOR, ┬ô VISHWAS AMAWAN HOUSE┬ö, JAMUNA APARTMENTS COMPLEX (FRONT BLOCK), BORING ROAD, PATNA- 800 013. BIHAR",0,PATNA,PATNA,BIHAR
"INDUSIND BANK",INDB0000392,695234004,"KESAVADASAPURAM, THIRUVANANTHAPURAM","GROUND FLOOR, SUN SAPPHIRE APARTMENTS. KESAVADASAPURAM. PATTOM PO., THIRUVANANTHAPURAM 695 004, KERALA",0,THIRUVANANTHAPURAM,THIRUVANANTHAPURAM,KERALA
"INDUSIND BANK",INDB0000391,625234003,DINDIGUL,"GROUND FLOOR, ┬ô VENKATESHWARA LODGE┬ö, # 86,SCHEME ROAD, DINDIGUL-624 001,TN",0,DINDIGUL,DINDIGUL,"TAMIL NADU"
"INDUSIND BANK",INDB0000390,533234402,RAMACHANDRAPURAM,"GROUND FLOOR, ┬ôKRISHNAM RAJU COMPLEX┬ö, 28-1-7/1, MAIN ROAD, RAMACHANDRAPURAM- 533 255,  EAST GODAVARI DIST, AP",0,RAMACHANDRAPURAM,"EAST GODAVARI","ANDHRA PRADESH"
"INDUSIND BANK",INDB0000389,110234039,JASOLA,"SHOP NO.GF-1,2 & 5, GROUND FLOOR, TOI CENTRE, JASOLA, NEW DELHI - 110025",0,DELHI,DELHI,DELHI
"INDUSIND BANK",INDB0000388,600234016,"MEDAVAKKAM, CHENNAI","GROUND FLOOR, G-3, RAGAMAALIKA, PHASE-II, # 150, TAMBARAM VELACHERY MAIN ROAD, MEDAVAKKAM, CHENNAI- 600 042, TN",0,CHENNAI,CHENNAI,"TAMIL NADU"
"INDUSIND BANK",INDB0000387,627234002,TUTICORIN,"GROUND FLOOR, # 148, DEVARPURAM ROAD, V. E. ROAD EXTN, NEAR ALWIN HOTEL, TUTICORIN-628 002, TAMIL NADU",0,TUTICORIN,TOOTHUKUDI,"TAMIL NADU"
"INDUSIND BANK",INDB0000386,403234005,PORVORIM,"SHOP NO 107( GF2), SALSONS TRADE CENTRE, OPP. TATA MOTORS, NEAR O┬ÆCOQUIERO JUNCTION, NH-17,PANAJI-MAPUSA ROAD, PORVORIM, BARDEZ, GOA- 403 512",0,PORVORIM,"NORTH GOA",GOA
"INDUSIND BANK",INDB0000384,411234008,"KOTHRUD, PUNE","GRD. FLOOR & MEZZANINE FLOOR, SHOP NO 13 & 14, ┬ôECSTASY┬ö SANGAM PRESS ROAD, KOTHRUD, PUNE ┬û 411038",0,PUNE,PUNE,MAHARASHTRA
"INDUSIND BANK",INDB0000383,110234036,"INDIRAPURAM, GHAZIABAD","HALL NO. 13,  GAUR GRAVITY MALL , GAUR GREEN CITY, PLOT NO-8, VAIBHAV KHAND, INDIRAPURAM, GHAZIABAD ┬û 201014, U.P",0,GHAZIABAD,GHAZIABAD,"UTTAR PRADESH"
"INDUSIND BANK",INDB0000382,700234015,"RN MUKHERJEE RD- KOLKATA","G-4, BUILDING NO18, RAJENDRA NATH MUKHERJEE ROAD, KOLKATA- 700 001, WEST BENGAL",0,KOLKATA,KOLKATA,"WEST BENGAL"
"INDUSIND BANK",INDB0000381,600234015,"AMINJIKARAI,  CHENNAI","GROUND FLOOR AT NO. 1&3, LAKSHMIAMMAL STREET, AYYAVOO NAIDU COLONY, AMINJIKARAI,  CHENNAI ┬û 600 029, TAMIL NADU",0,CHENNAI,CHENNAI,"TAMIL NADU"
"INDUSIND BANK",INDB0000380,411234009,"VIMAN NAGAR, PUNE","GROUND FLOOR OF SHOP NO. G-1, G-2, G-3 AND 4, NECO NX, NEXT TO NECO GARDENS, SRY NO 209(PART), VIMAN NAGAR, PUNE-411 014, MAHARASHTRA",0,PUNE,PUNE,MAHARASHTRA
"INDUSIND BANK",INDB0000379,110234035,"SUSHANT LOK, GURGAON","LOWER GROUND FLOOR, SHOP NO LG- 7, 8 & 9 AND UG-6,┬ôBESTECH CENTRE POINT┬ö, A- BLOCK, GALERIA MARKET ROAD, SUSHANT LOK-1, GURGAON-122 002",0,GURGAON,GURGAON,HARYANA
"INDUSIND BANK",INDB0000378,452234003,"SAPNA SANGEETA MAIN ROAD,INDORE","GROUND FLOOR, ┬ô SHUBHAM CORPORATE┬ö, NO.27,PATEL NAGAR, SCHEME 31, TRAFFIC ROOT NO.6, 7,SAPNA SANGEETA MAIN ROAD,INDORE, MADHYAPRADESH",0,INDORE,INDORE,"MADHYA PRADESH"
"INDUSIND BANK",INDB0000377,751234004,CHANDRASHEKHARPUR,"GROUND FLOOR  ┬ô ROYAL TOWER┬ö, AT- DAMANA SQUARE, PO- SAILASHREE VIHAR, P.S. CHANDRASEKHARPUR, BHUBANESWAR- 751 023, ODISHA",0,BHUBANESWAR,KHURDA,ODISHA
"INDUSIND BANK",INDB0000376,768234002,SAMBALPUR,"UPPER GROUND FLOOR, AT PLOT NO 2121/2392, UNIT-14,DANIPALI, OPP. LIC BUILDING, PO BUDHARAJA, SAMBALPUR- 768 004, ODISHA",0,SAMBALPUR,SAMBALPUR,ODISHA
"INDUSIND BANK",INDB0000375,0,GHATAL,"1ST FLOOR,┬ö RAJ PALACE┬ö, KONNAGAR, GHATAL, WEST MIDNAPORE DIST- 721212, WEST BENGAL",0,GHATAL,MEDINIPUR,"WEST BENGAL"
"INDUSIND BANK",INDB0000374,751234005,PIPILI,"GROUND FLOOR ┬ôHOSPITAL SQUARE┬ö, PIPLI MAIN ROAD, BELOW SHUBHAM KALYAN MANTAP, AT/PO- PIPILI, PURI DIST, - 752 104, ODISHA",0,PIPILI,PURI,ODISHA
"INDUSIND BANK",INDB0000373,700234014,HOWRAH,"GROUND FLOOR 8/1, HARDUT RAI CHAMARIA ROAD, HOWRAH- 711 101, WEST BENGAL",0,HOWRAH,HAORA,"WEST BENGAL"
"INDUSIND BANK",INDB0000372,110234033,"CHANDNI CHOWK, DELHI","MUNICIPAL NO -43 TO 46, LAXMI NIWAS BUILDING, MAIN ROAD- CHANDNI CHOWK, DELHI ┬û 110006",0,DELHI,DELHI,DELHI
"INDUSIND BANK",INDB0000371,110234032,"PITAMPURA, NEW DELHI","GROUND FLOOR, NO. A-4, LOK VIHAR, PITAMPURA, NEW DELHI-L10034",0,DELHI,DELHI,DELHI
"INDUSIND BANK",INDB0000370,110234034,"NEHRU PLACE, NEW DELHI","SHOP NO- G-5,G-6,G-7 SKIPPER HOUSE, BUILDING NO-62-63, NEHRU PLACE, NEW DELHI ┬û 110019",0,DELHI,DELHI,DELHI
"INDUSIND BANK",INDB0000369,110234031,CHHAPRAULA,"GROUND FLOOR, ""NAGAR SADAN"", NEAR CHHAPRAULA POLICE CHOWKI, OPP. HARLSH CHANDRA KA BAGH, NH-24, CHHAPRAULA-203201, DISTRICT: GAUTAM BUDH NAGAR, U.P.",0,DADRI,"GAUTAM BUDDHA NAGAR","UTTAR PRADESH"
"INDUSIND BANK",INDB0000368,110234029,"OKHLA, NEW DELHI","SHOP NO G-1 BUILDING NO. 5, CAPITAL EXIM CENTRE, LOCAL SHOPPING CENTRE, OKHLA INDUSTRIAL AREA,  NEAR C LAL CHOWK , OKHLA INDL AREA PH-II NEW DELHI-110 020",0,DELHI,DELHI,DELHI
"INDUSIND BANK",INDB0000367,400234032,"KANJURMARG(W), MUMBAI","SHOP NO 4 & 5, A WING, ┬ô GUNDECHA HEIGHTS┬ö, L.B.S. MARG,  KANJURMARG(W), MUMBAI- 400 078, MAHARASHTRA",0,MUMBAI,"GREATER BOMBAY",MAHARASHTRA
"INDUSIND BANK",INDB0000366,751234003,PATRAPARA,"PLOT NO B-32, NH-5, MOUZA-DUMDUMA, TEH- BHUBANESWAR, SRO-KHANDAGIRI,  PATRAPARA- 751 019 DIST :KHURDA, ODISHA",0,BHUBANESWAR,KHURDA,ODISHA
"INDUSIND BANK",INDB0000365,0,JHARSUGUDA,"GROUND FLOOR, PLOT NO. 626/5879, BEHERMAL CHOWK,S.H.10,. JHARSUGUDA-768203,ODISHA",0,JHARSUGUDA,JHARSUGUDA,ODISHA
"INDUSIND BANK",INDB0000364,577234102,CHIKMAGALUR,"GROUND FLOOR AT ┬ôMRS COMPLEX┬ö, MG ROAD, CHIKMAGALUR-577 101, KARNATAKA",0,CHIKMAGALUR,CHIKMAGALUR,KARNATAKA
"INDUSIND BANK",INDB0000363,682234005,TRIPUNITHARA,"PANAIKAL HOUSE"", NEAR TRIPUNITHARA CRICKET CLUB, GOVT HOSPITAL ROAD, TRIPUNITHARA-682301, EMAKULAM DISTRICT, KERALA.",0,TRIPPUNITHURA,ERNAKULAM,KERALA
"INDUSIND BANK",INDB0000362,833234002,CHAIBASA,"┬ôB-WING, AIKATH MARKET, CHAIBASA-833201,  PASCHIM SINGHBUM DIST, JHARKHAND",0,CHAIBASA,"PASCHIMI SINGHBHUM",JHARKHAND
"INDUSIND BANK",INDB0000361,600234017,"KILPAUK, CHENNAI","GROUND FLOOR, NEW NO 9,(OLD NO 5), BELFOUR ROAD, KILPAUK, CHENNAI- 600 010",0,CHENNAI,CHENNAI,"TAMIL NADU"
"INDUSIND BANK",INDB0000360,110234030,"PACHIM VIHAR, NEW DELHI","# 2, STATE BANK NAGAR, PASCHIM VIHAR, NEW DELHI- 110 063",0,DELHI,DELHI,DELHI
"INDUSIND BANK",INDB0000359,533234102,RAJAHMUNDRY,"┬ôLALITHA TOWERS┬Æ,# 76-1-4/1, GANDHIPURAM 2, RAJAHMUNDRY-533 103, EAST GODAVARI  DIST, AP",0,RAJAHMUNDRY,"EAST GODAVARI","ANDHRA PRADESH"
"INDUSIND BANK",INDB0000358,400234030,KHARGHAR,"GROUND & FIRST FLOOR, ┬ôPATEL HERITAGE┬ö, SHOP # 54 & 55, SECTOR-7, PLOT NO. 15 & 17, KHARGHAR, NAVI MUMBAI ┬û 410 210",0,PANVEL,RAIGAD,MAHARASHTRA
"INDUSIND BANK",INDB0000357,400234031,"GHODBUNDER ROAD, THANE","GROUND FLOOR, ┬ôCORAL SQUARE┬ö, VIJAY GARDEN NAKA, OPP. SURAJ WATERPARK, GHODBUNDER ROAD, THANE (W) ┬û 400 607",0,THANE,THANE,MAHARASHTRA
"INDUSIND BANK",INDB0000356,500234011,"TOWLICHOWKI, HYDERABAD","GROUND FLOOR, GOLDEN CHAMBERS, OLD MUMBAI HIGHWAY, OPP.IOC, TOLI CHOWKI, HYDERABAD- 500 008, ANDHRA PRADESH",0,HYDERABAD,HYDERABAD,"ANDHRA PRADESH"
"INDUSIND BANK",INDB0000355,160234008,MANAULI,"GROUND FLOOR, SHOP NO1-5,GURUDWARA SAHIB, PATSHAHI, 6TH V.P O MANAULI, TEHSIL & DISTRICT- MOHALI-140306, PUNJAB",0,MANAULI,RUPNAGAR,PUNJAB
"INDUSIND BANK",INDB0000354,560234015,"J P NAGAR, BANGALORE","┬ôANAND SURYA┬ö, NO.600, 100FT ROAD, 6TH PHASE, JP NAGAR, BANGALORE- 560 078, KARNATAKA",0,BANGALORE,"BANGALORE URBAN",KARNATAKA
"INDUSIND BANK",INDB0000353,400234024,"PEDDAR ROAD, MUMBAI","GROUND FLOOR,┬ôVIKAS┬ö, VAIBHAV CHS,# 31, DR. GOPAL RAO DESHMUKH MARG, PEDDAR  ROAD, MUMBAI- 400 026",0,MUMBAI,"GREATER BOMBAY",MAHARASHTRA
"INDUSIND BANK",INDB0000352,400234029,"KHAR, MUMBAI","GLACIS TOWER, BASEMENT & GROUND FLOOR, PLOT NO. 391, CSTNO. E1271, LINKING ROAD, KHAR (W), MUMBAI - 400 052",0,MUMBAI,"GREATER BOMBAY",MAHARASHTRA
"INDUSIND BANK",INDB0000344,160234009,BARWALA,"SHOP NO.1, GROUND FLOOR, BANSAL COMPLEX, MAIN ROAD, BARWALA-134119, DISTRICT PANCHKULA, HARYANA",0,BARWALA,PANCHKULA,HARYANA
"INDUSIND BANK",INDB0000343,400234028,"BANDRA MEHBOOB STUDIOS, MUMBAI","1ST FLOOR, MUNICIPAL MARKET, NEAR MEHBOOB STUDIOS, #17, HILL ROAD, BANDRA-W, MUMBAI- 400 050",0,MUMBAI,"GREATER BOMBAY",MAHARASHTRA
"INDUSIND BANK",INDB0000342,400234027,"BANDRA KURLA COMPLEX, MUMBAI","NO.C-2, WEST CORE AREA, GROUND FLOOR TOWER NO.3, BHARAT DIAMOND BOURSE COMPLEX, G BLOCK, BANDRA KURLA COMPLEX, BANDRA (EAST),  MUMBAI 400 051",0,MUMBAI,"GREATER BOMBAY",MAHARASHTRA
"INDUSIND BANK",INDB0000341,400234026,"LOWER PAREL (WEST), MUMBAI","GROUND FLOOR, RAGHUVANSHI MILLS COMPOUND, SENAPATI BAPAT MARG, LOWER PAREL (WEST), MUMBAI ┬û 400 013",0,MUMBAI,"GREATER BOMBAY",MAHARASHTRA
"INDUSIND BANK",INDB0000340,144234902,SHAHKOT,"SHOP NOS.1-2-3, OPPOSITE BHARAT PETROLEUM PUMP, MALSIAN ROAD, SHAHKOT, PIN 144702 DISTT JALLANDHAR (PUNJAB)",0,SHAHKOT,JALANDHAR,PUNJAB
"INDUSIND BANK",INDB0000339,600234014,VALASARAVAKKAM,"GROUND FLOOR, VEDACHALAM COMPLEX, NEW NO. 33B, ARCOT ROAD, DIAGONALLY OPP TO NILGIRIS, VALASARAVAKKAM, THIRUVALLUR DISTRICT, CHENNAI - 600087",0,VALASARAVAKKAM,THIRUVALLUR,"TAMIL NADU"
"INDUSIND BANK",INDB0000338,0,BIJOLIA,"GROUND FLOOR, TEJAJI CHOWK, BUNDI ROAD, BIJOLIA - 311602",0,BIJOLIA,BHILWARA,RAJASTHAN
"INDUSIND BANK",INDB0000337,0,"VALLABH NAGAR","NEAR GOVERNMENT HOSPITAL, STATION ROAD, VALLABH NAGAR,UDAIPUR ┬û 313601",0,VALLABHNAGAR,UDAIPUR,RAJASTHAN
"INDUSIND BANK",INDB0000336,461234310,PIPARIYA,"GROUND FLOOR, TILAK WARD, OPP PNB, CEMENT ROAD, PIPARIYA,  DIST: HOSAHANGABAD- 461 775, MADHYA PRADESH",0,PIPARIA,HOSHANGABAD,"MADHYA PRADESH"
"INDUSIND BANK",INDB0000335,0,DHUPGURI,"GROUND FLOOR, SAMPRITI SARANI, WARD NO.4, P.O DHUPGURI, DIST: JALPAIGURI- 735 210, WEST BENGAL",0,DHUPGURI,JALPAIGURI,"WEST BENGAL"
"INDUSIND BANK",INDB0000334,110234027,"NAYA BAZAR DELHI","INDUSIND BANK LTD. NO.4070 - 4075 NAYA BAZAR  DELHI-110006",0,DELHI,DELHI,DELHI
"INDUSIND BANK",INDB0000333,560234013,SADASHIVNAGAR,"GF, NEW NO 15 (OLD NO 13), SANKEY ROAD, NEXT TO SHELL PETROL SERVICE STATION, LOWER PALACE ORCHARD,  SADASHIVNAGAR, BANGLORE 560 080",0,BANGALORE,"BANGALORE URBAN",KARNATAKA
"INDUSIND BANK",INDB0000332,400234025,"PRABHADEVI, MUMBAI","GROUND FLOOR, MARATHE UDYOG BHAVAN, NEXT TO SKODA SHOWROOM, APPASAHEB MARATHE MARG, PRABHADEVI, MUMBAI ┬û 400025",0,MUMBAI,"GREATER BOMBAY",MAHARASHTRA
"INDUSIND BANK",INDB0000331,560234014,NELAMANGALA,"GROUND FLOOR, 1212 BH ROAD,DWARKA PLAZA, NEELAMANGALA, BANGALORE 562123",0,NELAMANGALA,"BANGALORE RURAL",KARNATAKA
"INDUSIND BANK",INDB0000330,380234006,"PRAHLAD NAGAR, AHMEDABAD","GROUND FLOOR; SHOP NO 1 SUMAN ┬ûII, OPP. RELIANCE PETROL PUMP, 100 FT ROAD, PRAHLAD NAGAR ROAD, SATELLITE, AHMEDABAD-380051",0,AHMEDABAD,AHMADABAD,GUJARAT
"INDUSIND BANK",INDB0000329,500234009,KOMPALLY,"GROUND FLOOR, SANA MALLESH YADAV COMPLEX, MAIN ROAD, KOMPALLY- 500 014, RANGA REDDY DIST, ANDHRA PRADESH",0,KOMPALLY,NALGONDA,"ANDHRA PRADESH"
"INDUSIND BANK",INDB0000328,600234013,"T NAGAR, CHENNAI","5/6 OLD NO.3/2 SWETHAMBAR, BAZULLAH ROAD, T NAGAR, CHENNAI 600 017",0,CHENNAI,CHENNAI,"TAMIL NADU"
"INDUSIND BANK",INDB0000327,636234005,OMALUR,"26 METTUR MAIN ROAD, PPS COMPLEX, OMALUR, 636 455, DIST. SALEM",0,OMALUR,SALEM,"TAMIL NADU"
"INDUSIND BANK",INDB0000326,800234003,RUKANPURA,"GROUND FLOOR, ┬ôRAJHANS NIKETAN┬ö, BAILEY ROAD, RUKANPARA (NEAR CANAL), PATNA- 800 014",0,RUKANPURA,PATNA,BIHAR
"INDUSIND BANK",INDB0000325,802234102,"KAEM NAGAR","GROUND FLOOR, SINGH COMPLEX, NH-30,KAEM NAGAR, DISTRICT, BHOJPUR 802 314, BIHAR",0,KAEMNAGAR,BHOJPUR,BIHAR
"INDUSIND BANK",INDB0000324,825234501,BARHI,"GROUND FLOOR, BARHI CHOWK, GAYA ROAD, BARHI, HAZARIBAGH, DISTRICT, JHARKHAND- 825405",0,BARHI,HAZARIBAG,JHARKHAND
"INDUSIND BANK",INDB0000323,0,"PANDHURNA, CHHINDWARA","YAMUNA COMPLEX, ROAD NO.69, NATIONAL HIGHWAY PANDHURNA,480334, DISTRICT CHHINDWARA",0,PANDHURNA,CHHINDWARA,"MADHYA PRADESH"
"INDUSIND BANK",INDB0000322,485234051,MAIHAR,"CHOPRA COMPLEX, NH-7, ROAD, MAIHAR-485771, MADHYA PRADESH",0,MAIHAR,SATNA,"MADHYA PRADESH"
"INDUSIND BANK",INDB0000321,110234028,NARAINA,"B-225, NARAINA INDUSTRIAL AREA, PHASE-1,NEAR BIKANERWALA, NEW DELHI- 110 028",0,DELHI,DELHI,DELHI
"INDUSIND BANK",INDB0000320,500234008,SOMAJIGUDA,"GROUND FLOOR, 6-3-1239/2, ┬ôAMAR┬ö, RAJ-BHAWAN ROAD, SOMAJIGUDA, HYDERABAD - 500 082",0,HYDERABAD,HYDERABAD,"ANDHRA PRADESH"
"INDUSIND BANK",INDB0000319,110234026,"WEST PATEL NAGAR, DELHI","GROUND FLOOR, 2W/3, WEST PATEL NAGAR, OPP. METRO PILLAR NO 195, NEW DELHI- 110 008",0,DELHI,DELHI,DELHI
"INDUSIND BANK",INDB0000318,160234007,"CHANDIGARH SEC. 35","SCO - 359-360, SEC 35-B, CHANDIGARH - 160035",0,CHANDIGARH,CHANDIGARH,CHANDIGARH
"INDUSIND BANK",INDB0000317,466234001,ASHTA,"GROUND FLOOR, GOSWAMI MARKET, KANNOD ROAD DIST-SEHORE, ASHTA - 466116 MADHYA PRADESH.",0,ASHTA,SEHORE,"MADHYA PRADESH"
"INDUSIND BANK",INDB0000316,110234024,"SOHNA ROAD, GURGAON","GROUND FLOOR, SHOP NO. A-12A, A-15, A-19, OMAXE CITY CENTRE, SECTOR-49, SOHNA ROAD, GURGAON, HARYANA",0,GURGAON,GURGAON,HARYANA
"INDUSIND BANK",INDB0000315,600234013,TEYNAMPET,"30, OLD NO.159, ELDAMS ROAD, TEYNAMPET, CHENNAI ┬û 600 018",0,CHENNAI,CHENNAI,"TAMIL NADU"
"INDUSIND BANK",INDB0000314,700234009,"PRINCE ANWAR SHAH, KOLKATA","GROUND FLOOR, ┬ôMERLIN OXFORD┬ö #22, PRINCE ANWAR SHAH ROAD, KOLKATA - 700 033, WEST BENGAL",0,KOLKATA,KOLKATA,"WEST BENGAL"
"INDUSIND BANK",INDB0000313,700234011,BARUIPUR,"SARDAR COMPLEX, KULPI ROAD, P.O. BARUIPUR, BARUIPUR 700144 WEST BENGAL",0,BARUIPUR,"SOUTH 24 PARGANAS","WEST BENGAL"
"INDUSIND BANK",INDB0000312,110234025,MANESAR,"SHOP NO. 2&3, EROS CORPORATE PARK, K-BLOCK, IMT, SEC-02, MANESAR, GURGAON 122 050, HARYANA",0,MANESAR,GURGAON,HARYANA
"INDUSIND BANK",INDB0000310,530234522,NAKKAPALLI,"MAIN ROAD NH-5, OPP POLICE STATION, NAKKAPALLI,  VISAKHAPANTNAM-531081",0,NAKKAPALLE,VISHAKHAPATNAM,"ANDHRA PRADESH"
"INDUSIND BANK",INDB0000309,535234602,KOTHAVALASA,"D. NO. 7-105 & 7-96/5M, OPP. POLICE STATION, VIJAYANAGARAM ROAD, KOTHAVALASA ┬û 535 183 ANDHRA PRADESH",0,KOTHAVALASA,VIZIANAGARAM,"ANDHRA PRADESH"
"INDUSIND BANK",INDB0000308,370234051,BHUJ,"SHOP NO 5 & 6, ┬æSUN PLAZA┬Æ,BHUJ- MIRZAPUR HIGHWAY, OPP. COMMERCE COLLEGE, BHUJ-KUTCH DIST, GUJARAT- 370 001",0,BHUJ,KACHCHH,GUJARAT
"INDUSIND BANK",INDB0000307,411234007,"KALYANI NAGAR, PUNE","132, FORT ELIZA, DIAGONALLY OPP. MARIEPLEX MULTIPLEX, KALYANI NAGAR, PUNE ┬û 411 014",0,PUNE,PUNE,MAHARASHTRA
"INDUSIND BANK",INDB0000306,770234002,SUNDARGARH,"OPP. STADIUM ROAD, NR. PATANJI CHIKITSALAY, SAI VIHAR ROAD, SUNDERGARH 770 001,ORISSA",0,SUNDARGARH,SUNDARGARH,ODISHA
"INDUSIND BANK",INDB0000305,700234008,KANKURGACHI,"P-253, CIT ROAD, SCHEMED VI -M, P. S. PHOOLBAGAN, FIRST FLOOR, KANKURGACHI, KOLKATA ┬û 700 054",0,KOLKATA,KOLKATA,"WEST BENGAL"
"INDUSIND BANK",INDB0000304,700234010,DUNLOP,"H-84, B.T. ROAD, NETAJI COLONY, DUNLOP (NR TOBIN ROAD CROSSING), KOLKATA-700 090",0,KOLKATA,KOLKATA,"WEST BENGAL"
"INDUSIND BANK",INDB0000303,755234102,JAJPUR,"T C PLAZA, FIRST FLOOR, C/O HEMRAJ TARACHAND, CHORDA BYPASS SQUARE, PO. JAJPUR ROAD, DIST-JAJPUR, 755019 ORISSA",0,"JAJPUR ROAD",JAJPUR,ODISHA
"INDUSIND BANK",INDB0000302,721234202,TAMLUK,"GROUND FLOOR, WARD NO. 17, SANKARARA, TAMLUK, PURBA MEDNIPUR, WEST BENGAL 721 636",0,TAMLUK,"PURBA MEDINIPUR","WEST BENGAL"
"INDUSIND BANK",INDB0000301,493234002,"TILDA NEWRA","OPP. MOHAN TRADER, STATION ROAD, NR. VIJAY LOG KA PASS, TILDA - 493 114 RAIPUR DIST,CHHATISGARH",0,TILDA,RAIPUR,CHANDIGARH
"INDUSIND BANK",INDB0000300,477234051,GOHAD,"GROUND FLOOR, NR. HP PETROL PUMP, GOHAD CHOWK, GOHAD, BHIND 477 116",0,GOHAD,BHIND,"MADHYA PRADESH"
"INDUSIND BANK",INDB0000299,700234013,BAGNAN,"GROUND FLOOR ,TRADE CENTRE, NH-6, NR. SUJATA CINEMA, BAGNAN, HOWRAH DIST, W. B. 711 303",0,BAGNAN,HAORA,"WEST BENGAL"
"INDUSIND BANK",INDB0000298,700234012,AMTALA,"GROUND FLOOR BLOCK A1, SANGAM SUPER MARKET, DIAMOND HARBOUR ROAD, SOUTH 24 PARGANAS, AMTALA - 743 503, WEST BENGAL",0,AMTALA,MURSHIDABAD,"WEST BENGAL"
"INDUSIND BANK",INDB0000297,816234002,PAKUR,"GROUND FLOOR,BHAGAT PARA, BELOW SAHARA OFFICE, OPP. PAKUR HEAD POST OFFICE, PAKUR-DUMKA MAIN ROAD, PAKUR, JHARKHAND 816 107",0,PAKAUR,PAKUR,JHARKHAND
"INDUSIND BANK",INDB0000296,609234202,SIRKALI,"GROUND FLOOR, # 35, THADALAN NORTH STREET, CHIDAMBARAM MAIN ROAD, SIRKALI- 609 110, TN",0,SIRKALI,NAGAPATTINAM,"TAMIL NADU"
"INDUSIND BANK",INDB0000295,533234002,SARPAVARAM,"D.NO : 70-1-28/2, NAGAMALLI THOTA JN, NEAR HP PETROL PUMP, PITHAPURAM RD. SARPAVARAM KAKINADA - 533003",0,SARPAWARAM,"EAST GODAVARI","ANDHRA PRADESH"
"INDUSIND BANK",INDB0000294,560234011,"HBR LAYOUT, BANGALORE","NO. 208, B,80 FEET MAIN ROAD, (INTERNATIONAL AIRPORT), HBR LAYOUT, FIRST STAGE, 2ND BLOCK, BANGALORE",0,BANGALORE,"BANGALORE URBAN",KARNATAKA
"INDUSIND BANK",INDB0000293,501234002,VICARABAD,"GROUND FLOOR, H. NO. 4/1/674/A, ALAMPALLY ROAD, VICARABAD ┬û 501 101. DIST RANGAREDDY AP",0,VIKARABAD,RANGAREDDY,"ANDHRA PRADESH"
"INDUSIND BANK",INDB0000292,502234522,SADASIVPET,"GR FLR, 3/7/83/101/2, BADARI COMPLEX,GURUNAGAR COLONY NH9, SADASIVPET (MEDAK DISTRICT), PIN-502291.",0,SADASHIVPET,MEDAK,"ANDHRA PRADESH"
"INDUSIND BANK",INDB0000291,600234010,SRIPERUMBUDUR,"87, GANDHI ROAD, SRIPERUMBUDUR 602 105 DIST ┬û KANCHEEPURAM",0,SRIPERUMBUDUR,KANCHEEPURAM,"TAMIL NADU"
"INDUSIND BANK",INDB0000290,500234007,KARKHANA,"GRD FLR, #3/1/101, MOTI VALLEY,  NEXT TO DEVI SHETTY HOSPITAL, THIRUMALGIRI,  KARKHAANA, SECUNDERABAD ┬û 500 009.",0,HYDERABAD,HYDERABAD,"ANDHRA PRADESH"
"INDUSIND BANK",INDB0000289,500234010,MIYAPUR,"UPPER GROUND FLOOR, H. NO. 1-248, MIYAPUR, BOLLARAM CROSS ROAD, HYDERABAD ┬û 500 052",0,HYDERABAD,HYDERABAD,"ANDHRA PRADESH"
"INDUSIND BANK",INDB0000288,560234012,DEVANAHALLI,"PARVATHESWARA COMPLEX, D B CROSS, BB ROAD, OPPOSITE JAIN TEMPLE, DEVANAHALLI, BANGALORE- 562110",0,DEVANAHALLI,"BANGALORE RURAL",KARNATAKA
"INDUSIND BANK",INDB0000285,143234003,"G. T. ROAD, AMRITSAR","55, CITY CENTRE, NEAR MAIN BUS STAND, G. T. ROAD, OPP. PINGALWARA, AMRITSAR ┬û 143 001 PUNJAB",0,AMRITSAR,AMRITSAR,PUNJAB
"INDUSIND BANK",INDB0000284,144234003,"JALANDHAR (OPP GYMKHANA)","SHOPPER┬ÆS SQUARE, 365-A, OPP. THE GYMKHANA CLUB, MODEL TOWN ROAD, LAJPAT NAGAR MARKET, JALLANDHAR-144 001, PUNJAB",0,JALANDHAR,JALANDHAR,PUNJAB
"INDUSIND BANK",INDB0000283,110234020,FARIDABAD,"SCO NO. 10, SECTOR ┬û 16,  HUDA COMMERCIAL COMPLEX,  FARIDABAD ┬û 121 002, HARYANA",0,FARIDABAD,FARIDABAD,HARYANA
"INDUSIND BANK",INDB0000282,110234019,GUJRANWALA,"B-8 GUJRANWAL TOWN PART-I,OPPOSITE MODEL TOWN-II, NEW DELHI-110009",0,DELHI,DELHI,DELHI
"INDUSIND BANK",INDB0000281,110234022,"DEFENSE COLONY","A -276,BHISHMA PITHAMAHA MARG, DEFENCE COLONY, NEW DELHI ┬û 110 024",0,DELHI,DELHI,DELHI
"INDUSIND BANK",INDB0000280,301234201,"NEEMRANA, ALWAR","NEEMRANA CITY CENTRE., CC-2, RIICO INDUSTRIAL AREA, NEEMRANA- 301705 ALWAR, RAJASTHAN",0,NEEMRANA,ALWAR,RAJASTHAN
"INDUSIND BANK",INDB0000279,302234003,"JOHRI BAZAR, JAIPUR","67-68, IST FLOOR, KHANDAKA DIAMOND TRADE CENTRE,  JOHRI BAZAR, JAIPUR ┬û 302003",0,JAIPUR,JAIPUR,RAJASTHAN
"INDUSIND BANK",INDB0000278,302234004,"RAJA PARK, JAIPUR","ABHINANDAN B-10-I, GOVIND MARG, ADARSH NAGAR, RAJA PARK, JAIPUR ┬û 302 004",0,JAIPUR,JAIPUR,RAJASTHAN
"INDUSIND BANK",INDB0000277,141234004,"SUNDER NAGAR (LUDHIANA)","BXXIV-4569, SUNDER NAGAR, LUDHIANA - 141 007 PUNJAB",0,LUDHIANA,LUDHIANA,PUNJAB
"INDUSIND BANK",INDB0000276,110234021,"NOIDA SECTOR 51","B-1/A, SHOP NO. 21,SEC 51, NOIDA ┬û 201 301,UTTAR PRADESH",0,NOIDA,"GAUTAM BUDDHA NAGAR","UTTAR PRADESH"
"INDUSIND BANK",INDB0000275,110234023,"RAJOURI GARDEN","J2/21, RAJAURI GARDEN, NEW DELHI - 110 027",0,DELHI,DELHI,DELHI
"INDUSIND BANK",INDB0000274,440234003,"C A ROAD, NAGPUR","2, GANDHI GRAIN MARKET,  NR. CHHAPRUNAGAR SQ,  C. A. ROAD,  NAGPUR 440 008  MAHARASHTRA",0,NAGPUR,NAGPUR,MAHARASHTRA
"INDUSIND BANK",INDB0000273,380234005,GANDHINAGAR,"GF, UNIT NO. 14, SUMAN CITY, PLOT NO. 17, SEC ┬û 11, GANDHINAGAR ┬û 382 0110.",0,GANDHINAGAR,GANDHINAGAR,GUJARAT
"INDUSIND BANK",INDB0000272,396234061,NAVSARI,"SHOP NO 2 & 3, PREM RESIDENCY CO. OP. HO. SOC. LTD, LUNSIKUI, NAVSARI- 396 465  GUJARAT",0,NAVSARI,NAVSARI,GUJARAT
"INDUSIND BANK",INDB0000271,411234006,"PIMPRI CHINCHWAD","K-3 TO K-6, EMPIRE ESTATE, MUMBAI-PUNE ROAD, CHINCHWARD, PUNE-411019 MAHARASHTRA",0,PUNE,PUNE,MAHARASHTRA
"INDUSIND BANK",INDB0000269,411234004,AUNDH,"GROUND FLOOR, 163/1, SURMANI SOCIETY, DP RD,AUNDH, PUNE-411004, MAHARASHTRA",0,PUNE,PUNE,MAHARASHTRA
"INDUSIND BANK",INDB0000268,400234023,"VILE PARLE (EAST), MUMBAI","GROUND FLOOR, SHOP NO.1, GEMINI BUILDERS, NEHRU ROAD,  VILE PARLE -E, MUMBAI - 400 057",0,MUMBAI,"GREATER BOMBAY",MAHARASHTRA
"INDUSIND BANK",INDB0000267,400234021,NERUL,"GROUND FLOOR, KRISHNA KAMAL CHS, SHOP # 1&2, PLOT NO. 111/E/1, SECTOR 21, NERUL EAST 400 706, NAVI MUMBAI",0,"NEW BOMBAY",THANE,MAHARASHTRA
"INDUSIND BANK",INDB0000266,416234151,SANGLI,"GROUND FLOOR, SHUBAM PLAZA, C. S. NO. 150 + 151 B1, OPP. BIG BAZAAR, SANGLI ┬û 416 416 MAHARASHTRA",0,SANGLI-MIRAJ-KUPWAD,SANGLI,MAHARASHTRA
"INDUSIND BANK",INDB0000265,395234004,KAMREJ,"UG-49,50, UPPER GROUND FLOOR, DADA BHAGVAN COMPLEX, KAMREJ CHAR RASTA KAMREJ- 394 185 DIST: SURAT GUJARAT",0,KAMREJ,SURAT,GUJARAT
"INDUSIND BANK",INDB0000264,825234102,KODERMA,"SALOJA HOUSE,RANCHI-PATNA ROAD, KODERMA 825409 JHARKHAND",0,KODARMA,KODERMA,JHARKHAND
"INDUSIND BANK",INDB0000263,752234602,NIMAPADA,"PLOT NO -2732, JATSHREE CHOWK,GANESH MARKET, NIMAPADA MAIN ROAD OPP.BHARAT PETROLEUM NIMAPADA, ORISSA 752106",0,NIMAPARA,PURI,ODISHA
"INDUSIND BANK",INDB0000262,700234007,DOMJUR,"FF & GF, SOUMILI BHAVAN, HOWRAH AMTA ROAD, VILL & PO - DOMJUR, HOWRAH - 711405",0,DOMJUR,HAORA,"WEST BENGAL"
"INDUSIND BANK",INDB0000261,500234006,NIZAMPET,"H NO 3-86/A/1, NIZAMPET MAIN ROAD, NIZAMPET VILLAGE ┬û 500090. QUTHBULLAPUR MANDAL, RANGA REDDY DISTRICT",0,QUTHBULLAPUR,RANGAREDDY,"ANDHRA PRADESH"
"INDUSIND BANK",INDB0000260,0,JAIGAON,"1ST FLOOR, ABOVE HOTEL ANAND, MAHATMA GANDHI ROAD, NEXT TO JAYSHREE STORE,  JAIGAON - 736 128, DIST. JALPAIGURI, WEST BENGAL",0,JAYGAON,JALPAIGURI,"WEST BENGAL"
"INDUSIND BANK",INDB0000259,0,GOTAN,"MERTA CITY ROAD, VPO ┬û GOTAN DIST. NAGAUR, RAJASTHAN ┬û 342 902",0,GOTAN,NAGAUR,RAJASTHAN
"INDUSIND BANK",INDB0000258,403234004,SANVORDEM,"INDUSIND BANK LTD. UG 5, 6 & 7,  VINAYAK PLAZA, CURCHOREM, GOA - 403 706",0,CURCHOREM-CACORA,"SOUTH GOA",GOA
"INDUSIND BANK",INDB0000257,691234052,ADOOR,"INDUSIND BANK LTD. CHITTUNDAYIL SHOPPING COMPLEX NR. PARTHSARATHY TEMPLE,  KONNAMANKARA, ADOOR ┬û 691523",0,ADOOR,PATHANAMTHITTA,KERALA
"INDUSIND BANK",INDB0000256,759234202,TALCHER,"PLOT NO 1606/3202, SHARMA CHHAK, PO TALCHER- 759 100, DIST: ANGUL, ORISSA",0,TALCHER,ANGUL,ODISHA
"INDUSIND BANK",INDB0000255,160234012,MULLANPUR,"MAIN ROAD MULLANPUR GARIBDASS TEHSIL KHARAR DIST MOHALI 140901",0,"MULLANPUR GARIBADAS",RUPNAGAR,PUNJAB
"INDUSIND BANK",INDB0000254,160234010,DAON,"SHOP NO.2, GREEN ENCLAVE, KHARAR ROAD, DAON - 140301, TEHSIL & DIST: MOHALI",0,RUPNAGAR,"SAS NAGAR(MOHALI)",PUNJAB
"INDUSIND BANK",INDB0000253,502234502,MEDAK,"SHOP NOS.1-3-80/4/1-5,  VENKATESHWARA COLONY,  OPP.HEAD POST OFFICE,  MEDAK 502110",0,MEDAK,MEDAK,"ANDHRA PRADESH"
"INDUSIND BANK",INDB0000252,759234102,ANGUL,"GRD FLR + FRT FLR, SANKAR CINEMA ROAD, ANGUL-759122, ORISSA",0,ANGUL,ANGUL,ODISHA
"INDUSIND BANK",INDB0000251,124234051,JHAJJAR,"GRD FLR, OLD BURF  KHANNA ROAD, NR. DESWAL FOOD POINT, BEHIND BUS STAND, TEHSIL & DISTT: JHAJJAR 124 103, HARYANA",0,JHAJJAR,JHAJJAR,HARYANA
"INDUSIND BANK",INDB0000250,132234502,PEHOWA,"AMBALA HISSAR ROAD, NEAR BUS STAND, PEHOWA ┬û 136 128",0,PEHOWA,KURUKSHETRA,HARYANA
"INDUSIND BANK",INDB0000249,231234202,ANPARA,"HOTEL SAFARI PLACE, BINA ROAD, AURI MORE, ANPARA ┬û 231 225, UTTAR PRADESH",0,ANAPARA,SONBHADRA,"UTTAR PRADESH"
"INDUSIND BANK",INDB0000248,600234007,TIRUVALLUR,"NO. 95, J. N. ROAD, OPP TALUK OFFICE, THIRUVALLUR ┬û 602 001 TAMIL NADU",0,TIRUVALLUR,THIRUVALLUR,"TAMIL NADU"
"INDUSIND BANK",INDB0000247,614234002,ARANTANGI,"71, K N COMPLEX, PATTUKOTTAI ROAD, ARANTHANGI ┬û 614 616",0,ARANTANGI,PUDUKKOTTAI,"TAMIL NADU"
"INDUSIND BANK",INDB0000246,332234201,LACHHMANGARH,"SETHO KA BAZAR, NEAR OLD NAGAR PALIKA, LAXMANGARH (LACHHMANGARH) ┬û 332 311 RAJASTHAN",0,LACHHMANGARH,SIKAR,RAJASTHAN
"INDUSIND BANK",INDB0000245,0,RAHON,"PHILLAUR ROAD, RAHON, TEH & DISTT. NAWANSHAR (PUNJAB) ┬û PIN ┬û 144 517",0,RAHON,"SHAHID BHAGAT SINGH NAGAR",PUNJAB
"INDUSIND BANK",INDB0000244,147234252,AMLOH,"AMLOH BYE PASS ROAD, BELOW LIC OFFICE, AMLOH - 147203, DIST FATEHGARH SAHIB, PUNJAB.",0,AMLOH,"FATEHGARH SAHIB",PUNJAB
"INDUSIND BANK",INDB0000243,481234001,MANDLA,"SBI SQUARE, CIVIL LINES, MANDLA ┬û 481 661",0,MANDLA,MANDLA,"MADHYA PRADESH"
"INDUSIND BANK",INDB0000242,451234051,BARWANI,"7/1, M. G. ROAD, NEAR SATYANARAYAN MANDIR, BARWANI ┬û 451 551",0,BARWANI,BARWANI,"MADHYA PRADESH"
"INDUSIND BANK",INDB0000241,465234051,SHUJALPUR,"ASHRA PLACE,NEAR CHOUBEY SCHOOL, SHUJALPUR MANDI,  465 333",0,SHUJALPUR,SHAJAPUR,"MADHYA PRADESH"
"INDUSIND BANK",INDB0000240,393234001,RAJPIPLA,"GROUND FLOOR, M/S RAMANLAL H. SHROFF, STATION ROAD, RAJPIPLA ┬û 393 145 GUJARAT",0,RAJPIPLA,NARMADA,GUJARAT
"INDUSIND BANK",INDB0000239,160234011,BAKARPUR,"VILL - BAKARPUR (NEAR GOVT. SCHOOL), PO MANAULI, MOHALI",0,BAKARPUR,"SAHIBZADA AJIT SINGH NAGAR",PUNJAB
"INDUSIND BANK",INDB0000238,160234013,LANDRAN,"VILL ┬û LANDRAN, KHARAR ROAD, TEH & DISTT ┬û MOHALI 140307",0,LANDRAN,"SAHIBZADA AJIT SINGH NAGAR",PUNJAB
"INDUSIND BANK",INDB0000237,400234019,VASAI,"SHOP NO. S-30/31/8, GOPAL CHS, AMBADI MAIN ROAD,  NR BHAJI MARKET, VASAI (W), THANE ┬û 401202.",0,VASAI,THANE,MAHARASHTRA
"INDUSIND BANK",INDB0000236,600234005,MADIPPAKKAM,"NO 23, MEDAVAKKAM MAIN ROAD, MADIPAKKAM, CHENNAI - 600 091",0,MADIPPAKKAM,KANCHEEPURAM,"TAMIL NADU"
"INDUSIND BANK",INDB0000235,227234102,JAGDISHPUR,"ABOVE CENTRAL BANK OF INDIA, LUCKNOW - JUANPUR HIGHWAY,JAGDISPUR - 227 809, SULTANPUR DIST (U.P.)  - 227809",0,JAGDISHPUR,SULTANPUR,"UTTAR PRADESH"
"INDUSIND BANK",INDB0000234,769234002,PANPOSH,"PLOT NO-H-1, PANPOSH ROAD, CIVIL TOWNSHIP, ROURKELA-769004, DIST- SUNDERGARH",0,PANPOSH,SUNDARGARH,ODISHA
"INDUSIND BANK",INDB0000233,411234003,HINJAWADI,"PLOT NO 30, TECH CENTRE, PHASE I, MIDC,HINJEWADI,PUNE 411057",0,HINJAWADI,PUNE,MAHARASHTRA
"INDUSIND BANK",INDB0000232,380234003,BODAKDEV,"ZODIAC SQUARE, SHOW ROOM NO 2, OPP GURUDHWARA, S G ROAD, BODAKDEV, AHMEDABAD ┬û 380 054",0,BODAKDEV,AHMADABAD,GUJARAT
"INDUSIND BANK",INDB0000231,500234004,GADDIANNARAM,"H. NO. 16-11/740/4/A/1/G, NEXT TO NALANDA COLLEGE, GADDIANNARAM, DILSUKH NAGAR, HYDERABAD ┬û 500 006",0,GADDIANNARAM,RANGAREDDY,"ANDHRA PRADESH"
"INDUSIND BANK",INDB0000230,600234006,MOWLIVAKKAM,"PLOT NO:35,SRI RANGA NAGAR, MOWLIVAKKAM, SRIPERUMBUDUR TALUK, KANCHIPURAM DT,CHENNAI-600116",0,MOWLIVAKKAM,KANCHEEPURAM,"TAMIL NADU"
"INDUSIND BANK",INDB0000229,560234008,JAKKASANDRA,"63-88, C M PLAZA, KORAMANGALA !ST BLOCK, SARJAPURA MAIN ROAD, JAKKASANDRABANGALORE ┬û 560 034 KARNATAKA",0,JAKKASANDRA,"BANGALORE RURAL",KARNATAKA
"INDUSIND BANK",INDB0000228,160234005,BADDI,"GTM TOWERS, NEAR SAGAR RATNA, NALAGARH ROAD, BADDI. DIST SOLAN 173205",0,BADDI,SOLAN,"HIMACHAL PRADESH"
"INDUSIND BANK",INDB0000227,682234004,ALUVA,"LAXMANS TOWER, M. NO 7/534, M. O. ROAD, OPP. MUNCIPAL OFFICE, ALUVA ┬û 683101, KERALA.",0,ALUVA,ERNAKULAM,KERALA
"INDUSIND BANK",INDB0000226,500234003,MADHAPUR,"RAGHUMA TOWERS PLOT NO.3, GUTLALA BEGUMPET, SERILINGANPALLY MUNICIPALITY, NEXT GINGER COURT HOTEL, MADHAPUR MAIN ROAD, MADHAPUR ┬û 500 081",0,MADHAPUR,RANGAREDDY,"ANDHRA PRADESH"
"INDUSIND BANK",INDB0000225,755234202,CHANDIKHOL,"ROUT MARKET COMPLEX,  CHANDIKHOLE CHAKKA, OPP. POLICE OUTPOST,  POST - SUNGUDA, DIST JAJPUR, CHANDIKHOL ┬û 754 024",0,CHANDIKHOL,JAJPUR,ODISHA
"INDUSIND BANK",INDB0000224,147234102,"GOBIND GARH","BHAGWAN PARSURAM MARG,  POST OFFICE ROAD,  MANDI GOBINDGARH ┬û 147 301 DIST. FATEHGARH SAHIB, PUNJAB",0,"GOBIND GARH","FATEHGARH SAHIB",PUNJAB
"INDUSIND BANK",INDB0000223,560234007,THIPPASANDRA,"NO. 43, 80 FEET ROAD, HAL 3RD STAGE, JEEVANBHEEMA NAGAR, OPP. TO BSNL OFFICE, THIPPASANDRA, BANGALORE - 560 086 KARNATAKA",0,THIPPASANDRA,"BANGALORE RURAL",KARNATAKA
"INDUSIND BANK",INDB0000222,560234006,BIDADI,"UPPER GROUND FLOOR, COMMERCIAL COMPLEX B C CIRCLE, KENCHNKUPPE GATE, TELESWARI, BIDADI ┬û 562 109",0,BIDADI,"BANGALORE RURAL",KARNATAKA
"INDUSIND BANK",INDB0000221,395234003,HAZIRA,"1ST FLOOR, SIDDHI PLAZA, OPP. KRIBHCO HSG, KAWAS PATIA, HAZIRA ROAD, DIST. SURAT ┬û 394516",0,HAZIRA,SURAT,GUJARAT
"INDUSIND BANK",INDB0000220,560234005,MARATHALLI,"NO 89: KMJ ARENA, ANAND NAGAR, OUTER RING ROAD, MARATHALLI, BANGALORE-37 KARNATAKA",0,MARATHAHALLI,"BANGALORE URBAN",KARNATAKA
"INDUSIND BANK",INDB0000219,0,GUALI,"LOIDAPADA, SREEMETALIKS COMPOUND, AT/PO ┬û GUALI, VIA BARBIL, DIST ┬û KEONJHAR, ORISSA ┬û 758035",0,GUALI,KEONJHAR,ODISHA
"INDUSIND BANK",INDB0000218,758234202,JODA,"AT / PO ┬û JODA, DIST ┬û KEONJHAR, ORISSA ┬û 758043",0,JODA,KEONJHAR,ODISHA
"INDUSIND BANK",INDB0000217,799234102,DHARMANAGAR,"KADAMTALA ROAD, NEAR AUTO STAND, NAYAPARA, DHARMANAGAR, TRIPURA, PIN ┬û 799250",0,DHARMANAGAR,"NORTH TRIPURA",TRIPURA
"INDUSIND BANK",INDB0000216,784234002,TEZPUR,"DUGAR MANSION, GROUND FLOOR, MAIN ROAD, TEZPUR ┬û 784001 (ASSAM)",0,TEZPUR,SONITPUR,ASSAM
"INDUSIND BANK",INDB0000215,785234002,JORHAT,"1ST FLOOR, MADHU MARKET, J. B. ROAD, JORHAT, ASSAM, PIN ┬û 785 001",0,JORHAT,JORHAT,ASSAM
"INDUSIND BANK",INDB0000214,635234402,HOSUR,"#20,STAR BUILDING, 1ST FLOOR, NEAR HOTEL TAMILNADU, KRISHANAGIRI BYE-PASS ROAD, HOSUR, TAMIL NADU - 635109",0,HOSUR,DHARMAPURI,"TAMIL NADU"
"INDUSIND BANK",INDB0000213,560234004,BOMMASSANDRA,"ANNA COMPLEX, #430, HENNAGARA GATE, BOMMASSANDRA INDUSTRIAL, AREA, HOSUR MAIN ROAD, BANGALORE - 560 099",0,BANGALORE,"BANGALORE URBAN",KARNATAKA
"INDUSIND BANK",INDB0000212,494234001,JAGDALPUR,"ASHWINI RAJKUMAR COMPLEX, GEEDAM ROAD, JAGDALPUR ┬û 494 001, CHATTISGARH",0,JAGDALPUR,BASTAR,CHANDIGARH
"INDUSIND BANK",INDB0000211,685234202,KATTAPPANA,"CHAMATHARAYIL BUILDING, NEAR  IDUKKI KAVALA, KUTTIKKANAM ROAD, KATTAPPANA 685508. KERALA",0,KATTAPPANA,IDUKKI,KERALA
"INDUSIND BANK",INDB0000210,679234152,PERINTHALMANNA,"ROYAL PLAZA OPP KSRTC BUS STAND PERINTHALMANNA -679322",0,PERINTHALMANNA,MALAPPURAM,KERALA
"INDUSIND BANK",INDB0000209,341234002,NAGAUR,"NAKASH GATE, NAGAUR ┬û 341001 RAJASTHAN",0,NAGAUR,NAGAUR,RAJASTHAN
"INDUSIND BANK",INDB0000208,305234301,NASIRABAD,"1207/1208 , 1ST FLOOR GCA COMPLEX , SUBASH GANJ NASIRABAD 305601, RAJASTHAN",0,NASIRABAD,AJMER,RAJASTHAN
"INDUSIND BANK",INDB0000207,508234102,MIRYALAGUDA,"19-145/146/147 VSN REDDY COMPLEX SAGAR ROAD MIRYALAGUDA - 508207",0,MIRYALAGUDA,NALGONDA,"ANDHRA PRADESH"
"INDUSIND BANK",INDB0000206,396234001,SILVASSA,"SHOP NO.6,7,8 & 9, ROSHAN AVENUE, SILVASSA ┬û VAPI ROAD, SILVASSA - 396230. DADRA & NAGAR HAVELI (U.T.)",0,SILVASSA,"DADRA & NAGAR HAVELI","DADRA AND NAGAR HAVELI"
"INDUSIND BANK",INDB0000205,396234009,AMALSAD,"SHREE SHANKHESHWAR PLAZA, ZAVERI BAZAR, GANDEVI ROAD,  AMALSAD ┬û 396310. GUJARAT",0,AMALSAD,NAVSARI,GUJARAT
"INDUSIND BANK",INDB0000204,639234002,KARUR,"1ST FLOOR, V.V TOWERS, OPP. LGB PETROL BUNK, KOVAI ROAD, KARUR 639 002, TAMIL NADU",0,KARUR,KARUR,"TAMIL NADU"
"INDUSIND BANK",INDB0000203,637234302,SANKARI,"3-3-27C, BHARATHI NAGAR, SANKARI ┬û SALEM MAIN ROAD (NH47), AKKAMAPET, SANKARI ┬û 637301 TAMIL NADU",0,SALEM,SALEM,"TAMIL NADU"
"INDUSIND BANK",INDB0000202,636234102,DHARMAPURI,"NO.136, NETAJI BYE PASS ROAD, OPP TO HOTEL SRIRAMA, DHARMAPURI 636701, TAMILNADU",0,DHARMAPURI,DHARMAPURI,"TAMIL NADU"
"INDUSIND BANK",INDB0000201,626234002,SIVAKASI,"144, N. R. K. R. ROAD, RATHNA COMPLEX, I FLOOR, SIVAKASI ┬û 626 123, TAMIL NADU",0,SIVAKASI,VIRUDHUNAGAR,"TAMIL NADU"
"INDUSIND BANK",INDB0000200,306234025,SUMERPUR,"OPP. MAIN POST OFFICE, JAWAI BANDH ROAD, SUMERPUR -306902 RAJASTHAN",0,SUMERPUR,PALI,RAJASTHAN
"INDUSIND BANK",INDB0000199,151234112,MANSA,"WARD NO. 13, MANDIR WALI STREET , BARAN HATTAN CHOWK, MANSA ┬û 151 505 PUNJAB",0,MANSA,MANSA,PUNJAB
"INDUSIND BANK",INDB0000198,303234100,SHAHPURA,"DABHAS COMPLEX, NEAR NEW BUS STAND, SHAHPURA (JAIPUR),  PIN- 303103",0,SHAHPURA,JAIPUR,RAJASTHAN
"INDUSIND BANK",INDB0000197,333234002,JHUNJHUNU,"RAMA COMPLEX, NEAR SANGAM HOTEL, B-21, MAN NAGAR, JHUNJHUNU┬ù333001",0,JHUNJHUNU,JHUNJHUNU,RAJASTHAN
"INDUSIND BANK",INDB0000196,384234001,MEHSANA,"RAJENDRA ESTATE, OPP. GAYATRI TEMPLE, STATE HIGHWAY, MEHSANA - 384002, GUJARAT",0,MEHSANA,MEHSANA,GUJARAT
"INDUSIND BANK",INDB0000195,497234001,AMBIKAPUR,"NEAR BANARAS ROAD, MANENDRAGARH ROAD, AMBIKAPUR, DISTT. SURGUJA, CHATTISGARH 497001",0,AMBIKAPUR,SURGUJA,CHANDIGARH
"INDUSIND BANK",INDB0000194,480234001,CHHINDWARA,"POOJA PLUS COMPLEX, PARASIA ROAD, CHHINDWARA - 480001, MADHYA PRADESH",0,CHHINDWARA,CHHINDWARA,"MADHYA PRADESH"
"INDUSIND BANK",INDB0000193,825234002,HAZARIBAGH,"VIDYA MARKET COMPLEX, LEPO ROAD, HAZARIBAGH - 825301, JHARKHAND",0,HAZARIBAGH,HAZARIBAGH,JHARKHAND
"INDUSIND BANK",INDB0000192,689234002,THIRUVALLA,"THEKKIL BUILDING, MAZHUVANGADU, M. C. ROAD, THIRUVALLA ┬û 689 101",0,THIRUVALLA,PATHANAMTHITTA,KERALA
"INDUSIND BANK",INDB0000191,758234102,BARBIL,"ST. MARY┬ÆS SCHOOL ROAD, BARBIL - 758035, DIST. KEONJHAR. ORISSA",0,BARBIL,KEONJHAR,ODISHA
"INDUSIND BANK",INDB0000190,737234002,GANGTOK,"SARDA BUILDING, OPP. SBI,'CONVOY GROUND, TA DONG, GANGTOK, SIKKIM (EAST) 737 102",0,GANGTOK,"EAST SIKKIM",SIKKIM
"INDUSIND BANK",INDB0000189,636234004,NAMAKKAL,"NEW NO. 60, (OLD NO. 29 D), SHRI BHUVANESHWARI SHOPPING COMPLEX, DR. SANKARAN SALAI, NAMAKKAL - 637 001",0,NAMAKKAL,NAMAKKAL,"TAMIL NADU"
"INDUSIND BANK",INDB0000188,676234002,MALAPURAM,"PEEKAY'S ARCADE, OPP PRIVATE BUS STAND, DOWN HILL, MALAPPURAM - 676 519",0,MALAPURAM,MALAPPURAM,KERALA
"INDUSIND BANK",INDB0000187,0,KANNUR,"RAABY TOWERS, RAILWAY STATION ROAD, 'KANNUR - 670001",0,KANNUR,KANNUR,KERALA
"INDUSIND BANK",INDB0000186,686234002,KOTTAYAM,"REGENCY SQUARE, K.K. ROAD,'NEAR KOTTAYAM COLLECTORATE PO, KOTTAYAM - 686002.",0,KOTTAYAM,KOTTAYAM,KERALA
"INDUSIND BANK",INDB0000185,171234002,SHIMLA,"BELL VILLA, THE MALL, SHIMLA",0,SHIMLA,SHIMLA,"HIMACHAL PRADESH"
"INDUSIND BANK",INDB0000184,756234002,BALASORE,"MOTILAL DIDWANI BUILDING, FM CIRCLE, ORISSA TRUNK ROAD'BALASORE 756 001",0,BALASORE,BALESHWAR,ODISHA
"INDUSIND BANK",INDB0000183,508234302,KODAD,"12-104, HUZUR NAGAR ROAD, KODAD 508 206",0,KODAD,NALGONDA,"ANDHRA PRADESH"
"INDUSIND BANK",INDB0000182,643234102,COONOOR,"6, NANJAPPA RAO BUILDING,'BEDFORD, COONOOR - 643101",0,COONOOR,NILGIRIS,"TAMIL NADU"
"INDUSIND BANK",INDB0000181,141234001,KHANNA,"SURYA TOWER, NEAR MAIN BUS STAND, G.T ROAD,  KHANNA-141401",0,KHANNA,LUDHIANA,PUNJAB
"INDUSIND BANK",INDB0000180,680234002,THRISSUR,"GROUND FLOOR, FAIR TRADE CENTRE, T.U.D.A. ROAD,KOVILAKATHUMPADAM, THIRUVAMBADY P.O., THRISSUR ┬û 680 022",0,THRISSUR,THRISSUR,KERALA
"INDUSIND BANK",INDB0000179,400234022,"MALAD, MUMBAI","03/103, ACCORD NIDHI, LINK ROAD, MALAD (W), MUMBAI ┬û 400 101",0,MUMBAI,"GREATER BOMBAY",MAHARASHTRA
"INDUSIND BANK",INDB0000178,560234010,"JAYANAGAR 5TH BLOCK","NO. 310, 9TH MAIN, 39TH CROSS, V-BLOCK, JAYANAGAR BANGLORE 560041 KARNATAKA",0,BANGALORE,"BANGALORE URBAN",KARNATAKA
"INDUSIND BANK",INDB0000177,600234009,"ASHOK NAGAR, CHENNAI","GROUND FLOOR, NO42, 10TH AVENUE, ASHOK NAGAR, CHENNAI - 600083 TAMIL NADU",0,CHENNAI,CHENNAI,"TAMIL NADU"
"INDUSIND BANK",INDB0000176,396234501,SAMROLI,"GROUND FLOOR, SUTHARWAD,  SAMROLI, DIST NAVSARI:396521",0,SAMAROLJ,NAVSARI,GUJARAT
"INDUSIND BANK",INDB0000175,380234004,MANINAGAR,"SHANT PRABHA HEIGHT, OPP. VALLABH WADI, RAMBAGH JAWAHAR CHOWK, MANINAGAR, AHMEDABAD- 380 008",0,AHMEDABAD,AHMADABAD,GUJARAT
"INDUSIND BANK",INDB0000174,641234004,"RAM NAGAR","RAMANI PARAS, 239 VIVEKANANDA ROAD, RAMNAGAR, COIMBATORE - 641008",0,COIMBATORE,COIMBATORE,"TAMIL NADU"
"INDUSIND BANK",INDB0000173,411234005,"KONDHWA KHURD","GROUND FLOOR, S. NO.1-A (PART), ADITYA BUSINESS CENTRE, NIBM ROAD, KONDHWA KHURD, PUNE ┬û 411 048",0,PUNE,PUNE,MAHARASHTRA
"INDUSIND BANK",INDB0000172,390234004,MANJALPUR,"AXAT CENTER, AXI HOSPITAL, GROUND FLOOR, NEAR SHREYAS VIDYALAYA, JANSHAKTI (RELIANCE) CIRCLE, LALBAUG - MANJALPUR ROAD, MANJALPUR, VADODARA - 390004",0,VADODARA,VADODARA,GUJARAT
"INDUSIND BANK",INDB0000171,110234018,GHAZIABAD,"C-76, RAJ NAGAR, MAIN ROAD, DISTRICT: GHAZIABAD 201002",0,GHAZIABAD,GHAZIABAD,"UTTAR PRADESH"
"INDUSIND BANK",INDB0000170,110234015,"SECTOR 14, GURGAON","SCO 7, SECTOR 14,  GURGAON - 122 001,  HARYANA",0,GURGAON,GURGAON,HARYANA
"INDUSIND BANK",INDB0000169,110234017,"KAROL BAGH","18/8, KELTRON CHAMBERS, MAIN, ARYA SAMAJ ROAD, KAROL BAGH, NEW DELHI - 110 005",0,DELHI,DELHI,DELHI
"INDUSIND BANK",INDB0000168,110234014,"GULMOHAR - YUSUF SARAI","S-6, BUILDING NO. 18&19, ORIENTAL HOUSE, GULMOHAR COMMUNITY CENTRE, YUSUF SARAI, NEW DELHI ┬û 110 0016",0,DELHI,DELHI,DELHI
"INDUSIND BANK",INDB0000167,600234008,"RAJAJI SALAI","J C. HOUSE,  GRD FLR, MAIN BUILDING, NO.72, RAJAJI SALAI, OPP. BEACH STATION, CHENNAI - 600 001 TAMIL NADU",0,CHENNAI,CHENNAI,"TAMIL NADU"
"INDUSIND BANK",INDB0000166,560234009,"MALLESWARAM, BANGALOARE","SRI GANESH TOWERS, # 124, 3RD MAIN ROAD, (MARGOSA ROAD), MALLESWARAM, BENGALURU- 560 003, KARNATAKA",0,BANGALORE,"BANGALORE URBAN",KARNATAKA
"INDUSIND BANK",INDB0000165,400234020,"BORIVALI, MUMBAI","GROUND FLOOR, RAM KRUPA CO-OPERATIVE HOUSING SOCIETY LTD., NEAR GOKUL HOTEL, S.V.P. ROAD, BORIVIALI (WEST), MUMBAI 400 092",0,MUMBAI,"GREATER BOMBAY",MAHARASHTRA
"INDUSIND BANK",INDB0000164,160234006,"PANCHKULA SECTOR 9","SCO-P, SECTOR 9,  PANCHKULA -134109 , HARYANA",0,PANCHKULA,PANCHKULA,HARYANA
"INDUSIND BANK",INDB0000163,141234521,"MILLERGANJ, LUDHIANA","LOWER GROUND FLOOR, GANAPATI TOWERS, GILL ROAD, NEAR CYCLE MARKET, MILLERGANJ, LUDHIANA ┬û 141003 PUNJAB",0,LUDHIANA,LUDHIANA,PUNJAB
"INDUSIND BANK",INDB0000162,110234012,"NOIDA SECTOR 63","H-1,A/1, ZYGON SQUARE,  SECTOR 63, NOIDA 201307",0,NOIDA,"GAUTAM BUDDHA NAGAR","UTTAR PRADESH"
"INDUSIND BANK",INDB0000161,110234013,"VASANT KUNJ","COMMON CAUSE HOUSE, 5,INSTITUTIONAL AREA, NELSON MANDELA ROAD,  VASANT KUNJ, NEW DELHI-110070",0,DELHI,DELHI,DELHI
"INDUSIND BANK",INDB0000160,110234014,"KAILASH COLONY","134/4,LALA LAJPAT RAI MARG, KAILASH COLONY NEW DELHI-110048",0,DELHI,DELHI,DELHI
"INDUSIND BANK",INDB0000156,180234001,JAMMU,"GUPTA PLAZA, BAHU PLAZA, JAMMU - 180004",0,JAMMU,JAMMU,"JAMMU AND KASHMIR"
"INDUSIND BANK",INDB0000155,388234002,ANAND,"MARUTI SUNAY BUILDING, GROUND FLOOR, OPP. ARAYNAGAR, AMUL DAIRY ROAD, ANAND- 388 001",0,ANAND,ANAND,GUJARAT
"INDUSIND BANK",INDB0000154,400234018,KALYAN,"PRIYADARSHANI APT., SURVEY NO. 7, HISSA NO. 5/6, CHICKEN GHAR, KHADAKPADA ROAD, KALYAN WEST ┬û 421 301",0,KALYAN,THANE,MAHARASHTRA
"INDUSIND BANK",INDB0000153,400234017,JUHU,"SONBAR, PLOT NO 13, JUHU 10TH ROAD, MUMBAI ┬û 400 049",0,MUMBAI,"GREATER BOMBAY",MAHARASHTRA
"INDUSIND BANK",INDB0000152,400234016,GHATKOPAR,"BUSINESS PARK, TILAK ROAD, GHATKOPAR (EAST), MUMBAI ┬û 400 077",0,MUMBAI,"GREATER BOMBAY",MAHARASHTRA
"INDUSIND BANK",INDB0000151,0,MORADABAD,"SAI TOWER, NEXT TO KOTAK MAHINDRA BANK, EKTA DWAR CIVIL LINES, MORADABAD ┬û 244 001, UP",0,MORADABAD,MORADABAD,"UTTAR PRADESH"
"INDUSIND BANK",INDB0000150,273234002,GORAKHPUR,"6 PARK ROAD, GOLGHAR, GORAKHPUR 273001",0,GORAKHPUR,GORAKHPUR,"UTTAR PRADESH"
"INDUSIND BANK",INDB0000149,147234002,PATIALA,"INDIRA KUMARI SCHEME S.C.F. # 6,7 BHUPINDRA ROAD, PATIALA ┬û 147 001",0,PATIALA,PATIALA,PUNJAB
"INDUSIND BANK",INDB0000148,110234010,"LAJPAT NAGAR","┬ôRAVISSANCE HOUSE┬ö 1ST RING ROAD, LAJPAT NAGAR IV, NEW DELHI ┬û 110 024",0,DELHI,DELHI,DELHI
"INDUSIND BANK",INDB0000147,495234002,BILASPUR,"GROUND FLOOR, OPP. ANIMESH STEEL, DEENDAYAL UPADHYAYA CHOWK, SRIKANT VERMA MARG,NEAR MANGNETO MALL, BILASPUR - 495001",0,BILASPUR,BILASPUR,CHANDIGARH
"INDUSIND BANK",INDB0000146,700234006,MADHYAMGRAM,"BASUNDHARA HOUSING COMPLEX, NO 109, JESSORE ROAD,CHOMOTHE MORE, MADHYAMGRAM NORTH 24 PARGANAS DIST, WEST BENGAL - 700129",0,MADHYAMGRAM,"NORTH 24 PARGANAS","WEST BENGAL"
"INDUSIND BANK",INDB0000145,110234011,"ROHINI, NEW DELHI","AGGARWAL E-MALL, SECTOR ┬û 7, ROHINI, DELHI ┬û 110 005",0,DELHI,DELHI,DELHI
"INDUSIND BANK",INDB0000144,673234002,KOZHIKODE,"GROUND AND FIRST FLOOR, EDAHS TOWERS, YMCA CROSS ROAD, KOZHIKODE ┬û 673 001.KERALA",0,CALICUT,KOZHIKODE,KERALA
"INDUSIND BANK",INDB0000143,110234003,"ASHOK VIHAR","B-1/8, ASHOK VIHAR,  PHASE II, NEW DELHI - 110052.",0,DELHI,DELHI,DELHI
"INDUSIND BANK",INDB0000142,422234002,NASHIK,"THAKKERS NEXUS POINT, GR. FLOOR, COLLEGE ROAD, NEAR BHOSLA MILITARY SCHOOL, NASHIK, MAHARASHTRA",0,NASHIK,NASIK,MAHARASHTRA
"INDUSIND BANK",INDB0000141,796234002,AIZAWL,"C/O PACHUNGA & SONS, CHANMARI, AIZWAL ┬û 796007, MIZORAM",0,AIZAWL,AIZAWL,MIZORAM
"INDUSIND BANK",INDB0000140,799234002,AGARTALA,"1, MANTRI BARI ROAD, AGARTALA, TRIPURA (WEST), PIN ┬û 799001",0,AGARTALA,"WEST TRIPURA",TRIPURA
"INDUSIND BANK",INDB0000139,786234202,TINSUKIA,"ANKIT TOWER, 1ST FLOOR, CHIRWAPATTY ROAD, TINSUKIA ┬û 786125, ASSAM",0,TINSUKIA,TINSUKIA,ASSAM
"INDUSIND BANK",INDB0000138,788234002,SILCHAR,"1ST FLOOR, CACHAR MARKET, RANGIRKHARI, N. S. AVENUE, SILCHAR -788005, ASSAM",0,SILCHAR,CACHAR,ASSAM
"INDUSIND BANK",INDB0000137,786234002,DIBRUGARH,"RHYTHMS COMPLEX, 1ST FLOOR, P. N. ROAD, TINIALI, NEAR NRL PETROL PUMP, CHOWKIDINGHEE (WEST), DIBRUGARH ┬û 786 001, ASSAM.",0,DIBRUGARH,DIBRUGARH,ASSAM
"INDUSIND BANK",INDB0000136,190234002,SRINAGAR,"ZERO MILE STONE, BUDSHAH BRIDGE, SRINAGAR -190001, JAMMU AND KASHMIR",0,SRINAGAR,SRINAGAR,"JAMMU AND KASHMIR"
"INDUSIND BANK",INDB0000135,632234002,VELLORE,"153/3 & 4, NEW KATPADI ROAD, CHENNAI-BANGALORE HIGH WAY CIRCLE, VELLORE  632 004",0,VELLORE,VELLORE,"TAMIL NADU"
"INDUSIND BANK",INDB0000134,506234002,WARANGAL,"6-1-29 & 30, GANAPATHI PLAZA, OPP. MARKAJI SCHOOL, , LASHKAR BAZAAR, HANAMKONDA, WARANGAL 506001, ANDHRA PRADESH",0,WARANGAL,WARANGAL,"ANDHRA PRADESH"
"INDUSIND BANK",INDB0000133,311234002,BHILWARA,"BASANT VIHAR, NEAR HOTEL LANDMARK,  OPP.CIRCUIT HOUSE, BHILWARA ┬û 311 001",0,BHILWARA,BHILWARA,RAJASTHAN
"INDUSIND BANK",INDB0000132,713234202,DURGAPUR,"LAYEK'S, 1ST FLOOR, NEAR PEERLESS INN, CITY CENTRE, KHUDIRAM SARANI, PLOT NO - 843 (P), DURGAPUR ┬û 713216, WEST BENGAL",0,DURGAPUR,BARDHAMAN,"WEST BENGAL"
"INDUSIND BANK",INDB0000131,577234202,SHIMOGA,"BANDIGADI COMPLEX, I FLOOR, 'NEHRU ROAD, SHIMOGA- 577 201",0,SHIMOGA,SHIMOGA,KARNATAKA
"INDUSIND BANK",INDB0000130,124234002,ROHTAK,"SCO 19 & 20 , SUBHASH PARK  , CIVIL LINES, ROHTAK - 124 001",0,ROHTAK,ROHTAK,HARYANA
"INDUSIND BANK",INDB0000129,305234002,AJMER,"RANG VIHAR, 9/86, KUTCHERY ROAD 'M. G. ROAD, AJMER - 305 001",0,AJMER,AJMER,RAJASTHAN
"INDUSIND BANK",INDB0000128,713234002,ASANSOL,"74(192), G T ROAD, P C CHATTERJEE MARKET'RAMBANDAN TALA, ASANSOL -713 303",0,ASANSOL,BARDHAMAN,"WEST BENGAL"
"INDUSIND BANK",INDB0000127,827234002,BOKARO,"A-16, CITY CENTRE, SECTOR 4 'BOKARO STEEL CITY, BOKARO  - 827 004",0,BOKARO,BOKARO,JHARKHAND
"INDUSIND BANK",INDB0000126,516234002,KADAPA,"DNO. 2-787/788/789, 1ST FLOOR, SAI RAM TOWERS,'SRI HARI RAO STREET, NAGARAJUPET, KADAPA 516 001",0,KADAPA,"KADAPA (CUDDAPAH)","ANDHRA PRADESH"
"INDUSIND BANK",INDB0000125,151234002,BHATINDA,"2679 /  C - 1- A, GURU KANSHI MARG' BHATINDA 151 001",0,BHATINDA,BHATINDA,PUNJAB
"INDUSIND BANK",INDB0000124,211234002,ALLAHABAD,"GANPATI TOWERS, 56 SARDAR PATEL MARG CIVIL LINES, ALLAHABAD - 211 001",0,ALLAHABAD,ALLAHABAD,"UTTAR PRADESH"
"INDUSIND BANK",INDB0000123,474234002,GWALIOR,"102/103, NARAYAN KRISHNA, 44 , CITY CENTRE,'MADHAVRAO SCINDIA ROAD, GWALIOR - 474011",0,GWALIOR,GWALIOR,"MADHYA PRADESH"
"INDUSIND BANK",INDB0000122,482234001,JABALPUR,"COMMERCIAL AUTOMOBILES BUILDING, 124 , NAPIER TOWN,'SHASTRI BRIDGE CHOWK, JABALPUR - 482 001",0,JABALPUR,JABALPUR,"MADHYA PRADESH"
"INDUSIND BANK",INDB0000121,732234102,MALDA,"N H 34, SUKANTO MORE, FIRST FLOOR, MALD DIST.,'MALDA 732 101",0,MALDA,MALDA,"WEST BENGAL"
"INDUSIND BANK",INDB0000120,691234002,KOLLAM,"VARINJAM TOWERS, RESIDENCY ROAD,'KOLLAM ┬û 691 001",0,KOLLAM,KOLLAM,KERALA
"INDUSIND BANK",INDB0000119,143234002,AMRITSAR,"PLATINUM PLAZA, 39 MALL ROAD, AMRITSAR 143 001",0,AMRITSAR,AMRITSAR,PUNJAB
"INDUSIND BANK",INDB0000118,605234002,PONDICHERRY,"NEW NO. 105, 107, OLD NO. 55,'CHETTI STREET, PONDICHERRY ┬û 605 001",0,PONDICHERRY,PONDICHERRY,PUDUCHERRY
"INDUSIND BANK",INDB0000117,625234002,MADURAI,"GP BUILDING, NO.30, KAMALA IIND STREET, CHINNA CHOKKIKULAM, MADURAI - 625 002",0,MADURAI,MADURAI,"TAMIL NADU"
"INDUSIND BANK",INDB0000116,636234002,SALEM,"SANTHAM SHOPPING COMPLEX, 137 SARADHA COLLEGE, MAIN ROAD, ALAGAPURAM, SALEM 636 016",0,SALEM,SALEM,"TAMIL NADU"
"INDUSIND BANK",INDB0000115,620234002,TIRUCHIRAPALLI,"PREMIER PLAZA, 122/5, BHARATHIAR SALAI,'CANTONMENT, TIRUCHIRAPALLI 620 001",0,TIRUCHIRAPALLI,TIRUCHIRAPALLI,"TAMIL NADU"
"INDUSIND BANK",INDB0000114,243234002,BAREILLY,"C/O HOTEL MANSAROVAR, 44/45, CIVIL LINES, BAREILLY - 243 001",0,BAREILLY,BAREILLY,"UTTAR PRADESH"
"INDUSIND BANK",INDB0000113,334234002,BIKANER,"JAI SIYARAM COMPLEX, AMBEDKAR CIRCLE, NEAR THAR HOTE, BIKANER ┬û 334 001",0,BIKANER,BIKANER,RAJASTHAN
"INDUSIND BANK",INDB0000112,324234002,KOTA,"412 SHOPPING CENTRE, 'KOTA 324 007",0,KOTA,KOTA,RAJASTHAN
"INDUSIND BANK",INDB0000111,313234002,UDAIPUR,"2-C, CHOWGAAN YOJANA, NEAR LOK KALA MANDAL, 'PANCHAVATI CHORAHA,UDAIPUR - 313 001",0,UDAIPUR,UDAIPUR,RAJASTHAN
"INDUSIND BANK",INDB0000110,688234002,ALAPPUZHA,"CSN BUILDING, DISTRICT COURT WARD 'OPP. SDV SCHOOL, ALAPPUZHA - 688 013",0,ALAPPUZHA,ALAPPUZHA,KERALA
"INDUSIND BANK",INDB0000095,678234002,PALAKKAD,"146/11, LAKSHMI ENCLAVE, NH-47 BYE PASS, CHANDRANAGAR JUNCTION, PALAKKAD - 678 007",0,PALAKKAD,PALAKKAD,KERALA
"INDUSIND BANK",INDB0000094,394234051,BARDOLI,"ROYAL CHEMIST, OPPOSITE FUWAR, NEAR PETROL PUMP, BARDOLI 394602",0,BARDOLI,SURAT,GUJARAT
"INDUSIND BANK",INDB0000093,400234010,PANVEL,"LAKHANI LANDMARK, PLOT NO. 19, SECTOR NO. 19,  SHOP NO. S-01A,'PANVEL MATHERAN ROAD, NEW PANVEL (EAST), NAVI MUMBAI 410 206",0,PANVEL,RAIGAD,MAHARASHTRA
"INDUSIND BANK",INDB0000092,0,VALSAD,"SHOP NO. 7 ┬û10, MEGH RACHANA TOWER, SHEELA PARK, TITHAL ROAD, VALSAD 396 001",0,VALSAD,VALSAD,GUJARAT
"INDUSIND BANK",INDB0000091,682234003,KAKKANAD,"CSEZ ADMINISTRATIVE BUILDING, KAKKANAD, KOCHI 682 037 KERALA",0,KOCHI,ERNAKULAM,KERALA
"INDUSIND BANK",INDB0000090,160234004,PANCHKULA,"SCO 28, SECTOR 11, PANCHKULA,'HARYANA",0,PANCHKULA,PANCHKULA,HARYANA
"INDUSIND BANK",INDB0000089,388234002,DHARMAJ,"DHARMAJ CO-OPERATIVE CONSUMERS STORES LTD, DHARMAJ, DISTRICT ANAND, GUJARAT 388430'",0,DHARMAJ,ANAND,GUJARAT
"INDUSIND BANK",INDB0000088,403234002,PANJIM,"GROUND FLOOR, SMIT VANDAN, NEAR VIVANTA, ST. INEZ JUNCTION, ST. INEZ, PANAJI (PANJIM) GOA ┬û 403 001",0,PANJIM,"NORTH GOA",GOA
"INDUSIND BANK",INDB0000087,695234002,KAZHAKUTTOM,"MODULE 14, NILA BLDG. TECHNOPARK COMPLEX,' KAZHAKUTTOM, THIRUVANANTHAPURAM 695 581",0,THIRUVANANTHAPURAM,THIRUVANANTHAPURAM,KERALA
"INDUSIND BANK",INDB0000086,144234202,PHAGWARA,"OPP. S. T. BUS STAND, G. T. ROAD, 'PHAGWARA 144 401, PUNJAB",0,PHAGWARA,KAPURTHALA,PUNJAB
"INDUSIND BANK",INDB0000085,396234031,VAPI,"PLOT NO. C 6-13, SHRINATHJI CHAMBERS,'VAPI INDUSTRIAL AREA, CHAR RASTA, VAPI 396 195",0,VAPI,VALSAD,GUJARAT
"INDUSIND BANK",INDB0000084,403234003,MADGOAN,"CHAZE ART GALLERYRUA ABADE FARIA ROAD, MARGAO 403 601",0,MADGOAN,"SOUTH GOA",GOA
"INDUSIND BANK",INDB0000083,160234003,MOHALI,"S.C.F. 23-24PHASE III-B-2,'SAS NAGAR, MOHALI, CHANDIGARH 160 059",0,MOHALI,"RUP NAGAR (ROPAR)",CHANDIGARH
"INDUSIND BANK",INDB0000082,362234021,MORBI,"NEAR NILKANTH VIDYALAYA, RAVAPAR MAIN ROAD, MORBI ┬û 363 641 GUJARAT",0,MORBI,RAJKOT,GUJARAT
"INDUSIND BANK",INDB0000081,530234002,GAJUWAKA,"1ST FLOOR, MOHINI COMPLEX MAIN ROAD, GAJUWAKA VISHAKAPATNAM 530 026",0,VISAKHAPATNAM,VISAKHAPATNAM,"ANDHRA PRADESH"
"INDUSIND BANK",INDB0000080,641234103,AVINASHI,"5/132, MAIN ROADTIRUPUR CIRCLE' AVANASHI 641 654",0,TIRUPUR,COIMBATORE,"TAMIL NADU"
"INDUSIND BANK",INDB0000079,360234002,RAJKOT,"GROUND FLOOR, NAKSHATRA IV, DR RADHAKRISHNAN ROAD, OPP. RAJKUMAR COLLEGE, NEAR MARWADI SHAVES, GYMKHANA ROAD, RAJKOT ┬û 360001, GUJARAT",0,RAJKOT,RAJKOT,GUJARAT
"INDUSIND BANK",INDB0000078,364234001,BHAVNAGAR,"SHOP NOS 1 TO 7 AND 13, MADHAV HILLS 'WAGHAWADI ROAD, BHAVNAGAR ┬û 364 002",0,BHAVNAGAR,BHAVNAGAR,GUJARAT
"INDUSIND BANK",INDB0000077,521234002,GUDIVADA,"NO. 15/48, ELURU ROAD, NEAR SOBHANA HOTEL, GUDIVADA 521 301",0,GUDIVADA,KRISHNA,"ANDHRA PRADESH"
"INDUSIND BANK",INDB0000076,524234002,NELLORE,"D.NO.16/1007, SUBBAREDDY SHOPPING COMPLEX, POGATHOTA, TRUNK ROAD, NELLORE ┬û 524 001",0,NELLORE,NELLORE,"ANDHRA PRADESH"
"INDUSIND BANK",INDB0000075,515234002,ANANTHAPUR,"10/373, NAMA TOWERS, SUBHASH ROAD, ANANTAPUR-515001",0,ANANTHAPUR,ANANTAPUR,"ANDHRA PRADESH"
"INDUSIND BANK",INDB0000074,416234002,KOLHAPUR,"VASANT PRABHA CHAMBERS (GROUND FLOOR), 1125, 'E' SYKES EXTENSION AREA,'OPP. PAREKH BRIDGE, NEAR S.T. STAND, KOLHAPUR ┬û 416001",0,KOLHAPUR,KOLHAPUR,MAHARASHTRA
"INDUSIND BANK",INDB0000073,132234002,KARNAL,"SCO 254, SECTOR 12,'PART 1, KARNAL 132 001",0,KARNAL,KARNAL,HARYANA
"INDUSIND BANK",INDB0000072,125234102,HISSAR,"SCO NO. 91 RED SQUARE  MARKET, 'NEAR TELEPHONE EXCHANGE, HISSAR ┬û 125 001",0,HISSAR,HISSAR,HARYANA
"INDUSIND BANK",INDB0000071,517234102,CHITTOOR,"DNO. 20-114, NAIDU BUILDINGS, NAIDU BUILDING ROAD 'CHITTOOR - 517 001",0,CHITTOOR,CHITTOOR,"ANDHRA PRADESH"
"INDUSIND BANK",INDB0000070,751234102,CUTTACK,"PLOT NO. 1320, BAJRAKABATI ROAD, 'CUTTACK 753 001",0,CUTTAK,CUTTACK,ODISHA
"INDUSIND BANK",INDB0000069,721234102,KHARAGPUR,"ATWALS REAL ESTATE PVT LTD, O T ROAD, KHARAGPUR 721 305",0,KHARAGPUR,"PASCHIM MEDINIPUR","WEST BENGAL"
"INDUSIND BANK",INDB0000068,831234002,JAMSHEDPUR,"SWAMY BUILDING, SAKCHI BOULEVARD SHOP AREA,'MAIN ROAD (OPP. RAM MANDIR), BISTUPUR, JAMSHEDPUR 831 001",0,JAMSHEDPUR,"PURBI SINGHBHUM",JHARKHAND
"INDUSIND BANK",INDB0000067,575234002,MANGALORE,"GROUND FLOOR, HOTEL PANCHMAHAL COMPLEX, KODIALBAIL, MANGALORE ┬û 575 003",0,MANAGALORE,"DAKSHINA KANNADA",KARNATAKA
"INDUSIND BANK",INDB0000066,370234001,GANDHIDHAM,"AMAR COMPLEX, PLOT NO. 158, WARD 12 - B,'GANDHIDHAM 370 201",0,GANDHIDHAM,KACHCH,GUJARAT
"INDUSIND BANK",INDB0000065,361234001,JAMNAGAR,"CORPORATE HOUSE, GROUND FLOOR, OPP. ST. ANN┬ÆS HIGH SCHOOL, P.N.MARG, JAMNAGAR ┬û 361 001 ┬û GUJARAT",0,JAMNAGAR,JAMNAGAR,GUJARAT
"INDUSIND BANK",INDB0000064,282234002,AGRA,"BLOCK NO.48/6, GROUND FLOOR, PUNEET VRINDAVAN BUILDING 'SANJAY PLACE, AGRA - 282002",0,AGRA,AGRA,"UTTAR PRADESH"
"INDUSIND BANK",INDB0000063,518234002,KURNOOL,"40/581, S.V.COMPLEX, R. S. ROAD, 'KURNOOL  - 518004",0,KURNOOL,KURNOOL,"ANDHRA PRADESH"
"INDUSIND BANK",INDB0000062,431234003,AURANGABAD,"ETHIBIZ CTS NO. 12996, OPP. JAMMU & KASHMIR BANK 'JALNA ROAD, AURANGABAD - 431001",0,AURANGABAD,AURANGABAD,MAHARASHTRA
"INDUSIND BANK",INDB0000061,520234102,GUNTUR,"D NO 6-9-17, RATNADEEPIKA PLAZA, 9/1 ARUNDELPET, GUNTUR - 522002",0,GUNTUR,GUNTUR,"ANDHRA PRADESH"
"INDUSIND BANK",INDB0000060,570234002,MYSORE,"NO. 28, DEVARAJ URS ROAD, DEVRAJ MOHALLA, 'MYSORE - 570 001",0,MYSORE,MYSORE,KARNATAKA
"INDUSIND BANK",INDB0000059,734234002,SILIGURI,"GOLDEN PLAZA, GROUND FLOOR, 'BURDWAN ROAD, SILIGURI 734 401",0,SILIGURI,DARJEELING,"WEST BENGAL"
"INDUSIND BANK",INDB0000058,580234002,HUBLI,"RR┬ÆS MAHALAXMI MANSION, DESAI CROSS, PINTO ROAD, HUBLI 580 020",0,HUBLI,DHARWAD,KARNATAKA
"INDUSIND BANK",INDB0000057,520234001,VIJAYAWADA,"M. G. ROAD, NEAR BENZ CIRCLE, VIJAYAWADA-520010",0,VIJAYAWADA,KRISHNA,"ANDHRA PRADESH"
"INDUSIND BANK",INDB0000056,400234013,DADAR,"INDUSIND BANK, GROUND FLOOR, MTNL MATUNGA TELEPHONE EXCHANGE BUILDING, DR.B A ROAD, OPP. MATUNGA POLICE STATION, MATUNGA EAST, MUMBAI┬û400 019.",0,MUMBAI,MUMBAI,MAHARASHTRA
"INDUSIND BANK",INDB0000055,800234002,PATNA,"SHOWROOM NO. SR02, RAJENDRA RAM PLAZA,'EXHIBITION ROAD, PATNA",0,PATNA,PATNA,BIHAR
"INDUSIND BANK",INDB0000054,248234002,DEHRADUN,"GROUND FLOOR, 59/4, INTERNATIONAL TRADE CENTER, RAJPUR ROAD, OPPOSITE UTTARANCHAL SECRETARIAT, DEHRADUN 248001",0,DEHRADUN,DEHRADUN,UTTARAKHAND
"INDUSIND BANK",INDB0000053,400234015,CHEMBUR,"GROUND FLOOR, S-2, SILVANTO # 349 ┬û A, CENTRAL AVENUE ROAD,  CHEMBUR, MUMBAI - 400 071",0,MUMBAI,MUMBAI,MAHARASHTRA
"INDUSIND BANK",INDB0000052,700234005,"BURRA BAZAR","DHANDHANIA HOUSE, C R AVENUE,  1ST FLOOR, 203, C R AVENUE,  KOLKATTA ┬û 700 006, WEST BENGAL",0,KOLKATTA,KOLKATA,"WEST BENGAL"
"INDUSIND BANK",INDB0000051,600234004,ADYAR,"SREELA TERRACE, OLD NO. 48, NEW NO. 105, 1ST MAIN ROAD, GANDHI NAGAR, ADYAR,  CHENNAI-600020",0,CHENNAI,CHENNAI,"TAMIL NADU"
"INDUSIND BANK",INDB0000050,695234003,THIRUVANANTHAPURAM,"JANVILLA CITY CENTRE, VELLAYAMBALAM - SASTHAMANGALAM ROAD, SASTHAMANGALAM P.O., THIRUVANANTHAPURAM ┬û 695 010",0,THIRUVANANTHAPURAM,THIRUVANANTHAPURAM,KERALA
"INDUSIND BANK",INDB0000049,245234002,HAPUR,"RAJAN PLAZA, 128, RAILWAY ROAD, 'HAPUR-245101",0,"NEW DELHI",GHAZIABAD,"UTTAR PRADESH"
"INDUSIND BANK",INDB0000048,400234014,"KANDIVALI (WEST)","SHOP NO. 5, BETWEEN A & B WING, KAMALA NAGAR, 'M G ROAD, KANDIVALI (W), MUMBAI - 400 067",0,MUMBAI,MUMBAI,MAHARASHTRA
"INDUSIND BANK",INDB0000047,400234012,MULUND,"MARATHON MAX, SHOP NO. 12-15, MULUND -GOREGAON LINK ROAD, 'MULUND (W), MUMBAI -400080",0,MUMBAI,MUMBAI,MAHARASHTRA
"INDUSIND BANK",INDB0000046,600234003,"ANNA NAGAR","AL COMPLEX, W 115 A,  3RD AVENUE, ANNANAGAR,' CHENNAI 600040",0,CHENNAI,CHENNAI,"TAMIL NADU"
"INDUSIND BANK",INDB0000045,144234002,JALLANDHAR,"#10 R, MODEL TOWN, MALL ROAD, JALLANDHAR, PUNJAB - 144001",0,JALLANDAR,JALANDHAR,PUNJAB
"INDUSIND BANK",INDB0000044,110234008,JANAKPURI,"B 23, COMMUNITY CENTRE, JANAKPURI, NEW DELHI - 110 058",0,"NEW DELHI",DELHI,DELHI
"INDUSIND BANK",INDB0000043,110234007,"PUNJABI BAUG","21 WEST AVENUE, PUNJABI BAGH WEST,NEW DELHI- 110026",0,"NEW DELHI",DELHI,DELHI
"INDUSIND BANK",INDB0000042,462234002,BHOPAL,"KWALITY BUSINESS CENTRE, GROUND FLOOR,PLOT NO.7, ZONE II, M.P. NAGAR (BANK STREET)BHOPAL - 462011",0,BHOPAL,BHOPAL,"MADHYA PRADESH"
"INDUSIND BANK",INDB0000041,208234002,KANPUR,"113/120,  OPPOSITE MOTI JHEEL GATE,'SWAROOP NAGAR, KANPUR 208 002",0,KANPUR,KANPUR,"UTTAR PRADESH"
"INDUSIND BANK",INDB0000040,400234011,THANE,"JINJA SOCIETY, OPP. DHAMANI ESTATE, L. B. S. MARG,'THANE  400 602",0,THANE,THANE,MAHARASHTRA
"INDUSIND BANK",INDB0000039,560234003,BASAVANGUDI,"NO. 87, BULL TEMPLE ROAD, BASAVANAGUDI, BANGALORE 560004",0,BASAVANGUDI,BANGALORE,KARNATAKA
"INDUSIND BANK",INDB0000038,781234002,GUWAHATI,"G. S. ROAD, BHANGAGARH, 'GUWAHATI 781 005",0,GUWAHATI,KAMRUP,ASSAM
"INDUSIND BANK",INDB0000037,221234002,VARANASI,"D-59/105-67, CHANDRIKA NAGAR COLONY, SIGRA, VARANASI ┬û 221 010, UTTAR PRADESH",0,VARANASI,VARANASI,"UTTAR PRADESH"
"INDUSIND BANK",INDB0000036,110234006,NOIDA,"N 10-11, SECTOR 18, NOIDA ┬û 201 301",0,"NEW DELHI","GAUTAM BUDH NAGAR","UTTAR PRADESH"
"INDUSIND BANK",INDB0000035,751234002,BHUBANESHWAR,"NO. 78, JANPATH, KHARAVELA NAGAR, UNIT III, BHUBANESHWAR ┬û 751 001",0,BHUBANESHWAR,KHURDA,ODISHA
"INDUSIND BANK",INDB0000034,638234002,ERODE,"J.B.PLAZA, NO. 1155, METTUR ROAD, ERODE ┬û 638 011",0,ERODE,ERODE,"TAMIL NADU"
"INDUSIND BANK",INDB0000033,400234009,FORT,"PREMISES NO.59 & 61, SONAWALA BUILDING, 57, MUMBAI SAMACHAR MARG, OPP BOMBAY STOCK EXCHANGE, FORT, MUMBAI ┬û 400 001, MAHARASHTRA",0,MUMBAI,MUMBAI,MAHARASHTRA
"INDUSIND BANK",INDB0000032,826234002,DHANBAD,"SHASTRI NAGAR, BESIDE LAXMI PETROL PUMP,'BANK MORE,  DHANBAD ┬û 826 001JHARKHAND",0,DHANBAD,DHANBAD,JHARKHAND
"INDUSIND BANK",INDB0000031,110234005,"PREET VIHAR","C-61, PREET VIHARVIKAS MARG,'NEW DELHI 110 092",0,"NEW DELHI",DELHI,DELHI
"INDUSIND BANK",INDB0000030,834234002,RANCHI,"JAIN ENCLAVE BLDG., 56/B, MAIN ROAD,'NEAR HERO HONDA SHOWROOM, RANCHI 834 001",0,RANCHI,RANCHI,JHARKHAND
"INDUSIND BANK",INDB0000029,700234003,GARIAHAT,"2/1 A, EKDALIA ROAD, KOLKATA-700019",0,GARIAHAT,KOLKATA,"WEST BENGAL"
"INDUSIND BANK",INDB0000028,400234007,LOKHANDWALA,"B-10 GOPI CHAMBERS, NEW LINK ROAD, OPP. CITI MALL, ANDHERI (W), MUMBAI ┬û 400 053",0,MUMBAI,MUMBAI,MAHARASHTRA
"INDUSIND BANK",INDB0000027,492234002,RAIPUR,"KRISHNA COMPLEX, LAL BAHADUR SHASTRI SQUARE,'JAIL ROAD, RAIPUR, CHATTISGARH 492 001",0,RAIPUR,RAIPUR,CHANDIGARH
"INDUSIND BANK",INDB0000026,342234002,JODHPUR,"CITY CENTRE BLDG., GROUND FLOOR,  NEAR SANGHI PETROL PUMP, STATION ROAD,  JODHPUR ┬û 342 001, RAJASTHAN",0,JODHPUR,JODHPUR,RAJASTHAN
"INDUSIND BANK",INDB0000025,440234002,NAGPUR,"SHRI SWAMI PLAZA, 97, EAST HIGH COURT ROAD, RAMDAS PETH, NAGPUR ┬û 440 010",0,NAGPUR,NAGPUR,MAHARASHTRA
"INDUSIND BANK",INDB0000024,400234006,VASHI,"SHOWROOM NOS. 3  5 PLOT NO. 21, SECTOR 24 VASHI  TURBHE 'NAVI MUMBAI 400 705",0,THANE,THANE,MAHARASHTRA
"INDUSIND BANK",INDB0000023,395234002,SURAT,"G-2, EMPIRE STATE BLDG., NEAR UDHANA DARWAJA,'RING ROAD, SURAT 395 002",0,SURAT,SURAT,GUJARAT
"INDUSIND BANK",INDB0000022,110234004,GURGAON,"BLOCK A, SUSHANT LOK, PHASE I, TOWER B, FIRST INDIA PLACE,'GR. FLOOR, MEHRAULI-GURGAON ROAD, GURGAON 122002, HARYANA",0,"NEW DELHI",GURGAON,HARYANA
"INDUSIND BANK",INDB0000021,641234002,COIMBATORE,"652-662, TRISTAR TOWERSAVANASHI ROAD,'COIMBATORE 641 037",0,COIMBATORE,COIMBATORE,"TAMIL NADU"
"INDUSIND BANK",INDB0000020,141234002,LUDHIANA,"SCO 12, 13, CANAL COLONY, NEAR NRI SILK STORE, PAKHOWAL ROAD, LUDHIANA ┬û 141 001",0,LUDHIANA,LUDHIANA,PUNJAB
"INDUSIND BANK",INDB0000019,226234002,LUCKNOW,"K'S TRIDENT, 10 RANA PRATAP MARG, LUCKNOW ┬û 226 001, UTTAR PRADESH",0,LUCKNOW,LUCKNOW,"UTTAR PRADESH"
"INDUSIND BANK",INDB0000018,400234005,ANDHERI,"ACME PLAZA, C.T.S. NO. 32OPP. SANGAM TALKIES, ANDHERI-KURLA ROAD,'ANDHERI (E), MUMBAI 400 059",0,MUMBAI,MUMBAI,MAHARASHTRA
"INDUSIND BANK",INDB0000017,390234002,BARODA,"GROUND FLOOR & 1ST FLOOR, GOLD CROFT, VISHWAS COLONY, JETALPUR ROAD, BARODA ┬û 390 005",0,BARODA,"BARODA (VADODARA)",GUJARAT
"INDUSIND BANK",INDB0000016,302234002,JAIPUR,"SANGAM COMPLEX, GR.FLR.CHURCH ROAD,'JAIPUR 302 001",0,JAIPUR,JAIPUR,RAJASTHAN
"INDUSIND BANK",INDB0000015,700234002,KOLKATA,"SAVITRI TOWERS, 3A, UPPER WOOD STREET, KOLKATA ┬û 700 017",0,KOLKATTA,KOLKATA,"WEST BENGAL"
"INDUSIND BANK",INDB0000014,160234002,CHANDIGARH,"S.C.O. NO.53-54, SECTOR 8-C, 'MADHYA MARG CHANDIGARH - 160 018.",0,CHANDIGARH,CHANDIGARH,CHANDIGARH
"INDUSIND BANK",INDB0000012,110234003,"GREATER KAILASH II","M-56 GREATER KAILASH II (MAIN MARKET) NEW DELHI ┬û 110 048",0,"NEW DELHI",DELHI,DELHI
"INDUSIND BANK",INDB0000011,452234002,INDORE,"INDUSTRY HOUSE 15 AGRA MUMBAI ROAD, OLD PALASIA, INDORE - 452 001",0,INDORE,INDORE,"MADHYA PRADESH"
"INDUSIND BANK",INDB0000010,682234002,KOCHI,"GOWRINARAYAN, (OPP. TO NEW JAYALAKSHMI SILKS), '40/8399, 8400, M. G. ROAD, KOCHI ┬û 682035",0,KOCHI,ERNAKULAM,KERALA
"INDUSIND BANK",INDB0000009,380234002,AHMEDABAD,"WORLD BUSINESS HOUSE, M. G. ROAD 'NR. PARIMAL GARDEN, ELLIS BRIDGE AHMEDABAD - 380015",0,AHMEDABAD,AHMEDABAD,GUJARAT
"INDUSIND BANK",INDB0000008,560234002,BANGALORE,"GROUND FLOOR, CENTENARY BUILDING, NO. 28, M. G. ROAD, BANGALORE ┬û 560 001",0,BANGALORE,BANGALORE,KARNATAKA
"INDUSIND BANK",INDB0000007,600234002,CHENNAI,"NO.3 VILLAGE ROAD NUNGAMBAKKAM, 'CHENNAI - 600 034",0,CHENNAI,CHENNAI,"TAMIL NADU"
"INDUSIND BANK",INDB0000006,400234004,"NARIMAN POINT","SHOP NO 2/3, ATLANTA BUILDING, GROUND FLOOR, NARIMAN POINT, MUMBAI 400 021",0,MUMBAI,MUMBAI,MAHARASHTRA
"INDUSIND BANK",INDB0000005,110234002,BARAKHAMBA,"DR. GOPAL DAS BHAWAN, 28, BARAKHAMBA ROAD, NEW DELHI - 110 001",0,"NEW DELHI",DELHI,DELHI
"INDUSIND BANK",INDB0000004,500234002,SECUNDERABAD,"1-8-448, SARDAR PATEL RD. BEGUMPET, SECUNDERABAD ┬û 500003",0,SECUNDERABAD,SECUNDERABAD,"ANDHRA PRADESH"
"INDUSIND BANK",INDB0000003,400234003,BANDRA,"INDUSIND CENTRE 231, S.V. ROAD, BANDRA (WEST) 'MUMBAI - 400 050.",0,MUMBAI,MUMBAI,MAHARASHTRA
"INDUSIND BANK",INDB0000002,411234002,PUNE,"2401,GEN.THIMMAYYA RD. (CANTONMENT), PUNE - 411 001.",0,PUNE,PUNE,MAHARASHTRA
"INDUSIND BANK",INDB0000001,400234002,"OPERA HOUSE","INDUSIND HOUSE, 425, DADASAHEB BHADKAMKAR MARG MUMBAI - 400 004",0,MUMBAI,MUMBAI,MAHARASHTRA
