BANK,IFSC,MICR,BRANCH,ADDRESS,CONTACT,CITY,DISTRICT,STATE
"FEDERAL BANK",FDRL0WDCB01,NA,"THE WAYANAD DIST CO-OP BANK LT","THE WAYANAD DISTRICT CO-OPERATIVE BANK LTD KALPETTANORTH SUB-MEMBER",0,KALPETTA,WAYANAD,KERALA
"FEDERAL BANK",FDRL0SPCB01,WAITING,"SREENIVASA PADMAVATHI COOPERATIVE BANK","FEDERAL TOWERS, 6TH FLOOR, MARINE DRIVE, KOCHI ERNAKULAM",2201715,ERNAKULAM,ERNAKULAM,KERALA
"FEDERAL BANK",FDRL0SME002,WAITING,"SME BUSINESS DEPARTMENT","SME BUSINESS DEPARTMENT, MARINE DRIVE, ERNAKULAM",2201619,ERNAKULAM,ERNAKULAM,KERALA
"FEDERAL BANK",FDRL0SME001,WAITING,"SME BUSINESS DEPARTMENT","SME BUSINESS DEPARTMENT , FEDERAL TOWERS, MARINE DRIVE, ERNAKULAM",2201619,ERNAKULAM,ERNAKULAM,KERALA
"FEDERAL BANK",FDRL0SAWANT,WAITING,"SAWANTWADI URBAN COPERATIVE BANK","SAWANTWADI URBAN COPERATIVE BANK, HEAD OFFICE, UBHA BAZAR, SAWANTWADI, MAHARASHTRA",2201715,SAWANTWADI,SAWANTWADI,MAHARASHTRA
"FEDERAL BANK",FDRL0PNNCUB,NA,PONNANI,"HEAD OFFICE,K K JUNCTION,PONANI 679577",0,PONNANI,MALAPPURAM,KERALA
"FEDERAL BANK",FDRL0NCUB01,NA,"THE NILAMBUR CO-OPERATIVE URBA","THE NILAMBUR CO-OPERATIVE URBAN  BANK LTD P.B NO 10, NILAMBUR P.O MALAPPURAM DT",0,MALAPPURAM,MALAPPURAM,KERALA
"FEDERAL BANK",FDRL0CCUB01,NA,"THE CALICUT CO-OPERATIVE URBAN","THE CALICUT CO-OPERATIVE URBAN  BANK LTD KALLAI ROAD, KOZHIKODE 673002",0,KOZHIKODE,KOZHIKODE,KERALA
"FEDERAL BANK",FDRL0AUCB07,NA,"AUCB BR ALENGAD","RAMANIKA COMPLEX, THATTAMPADY, KARUMALLOOR ALUVA",0,ALUVA,ERNAKULAM,KERALA
"FEDERAL BANK",FDRL0AUCB06,NA,"AUCB BR CHUNANGAMVELI","MUTTANTHOTTIL BUILDINGS, CHUNANGAMVELI, ERUMA ALUVA",0,ALUVA,ERNAKULAM,KERALA
"FEDERAL BANK",FDRL0AUCB05,NA,"ALWAYE URBAN CO-OP  KALADY","CITY TOWER, MALAYATTOOR ROAD, OPP. SANSCRIT U KALADY",0,KALADY,ERNAKULAM,KERALA
"FEDERAL BANK",FDRL0AUCB04,NA,"ALWAYE URBAN CO-OP CHENGAMANAD","CHENGAMANAD BRANCH, ANK BUILDINGS, CHENGAMANA",0,ALUVA,ERNAKULAM,KERALA
"FEDERAL BANK",FDRL0AUCB03,NA,"ALWAYE URBAN CO-OP  EVENING","EVENING BRANCH HAROON PLAZA M. O. ROAD, ALUVA",0,ALUVA,ERNAKULAM,KERALA
"FEDERAL BANK",FDRL0AUCB02,NA,"ALWAYE URBAN CO-OP MAIN","MAIN BRANCH, HEAD OFFICE BUILDING, MARKET ROAD ALUVA",0,ALUVA,ERNAKULAM,KERALA
"FEDERAL BANK",FDRL01MEUCB,WAITING,"THE MEENACHIL EAST URBAN CO OP BANK","POONJAR,POONJAR,THEKEKARA P O, PIN 686582,KOTTAYAM, KERALA",2304877,POONJAR,KOTTAYAM,KERALA
"FEDERAL BANK",FDRL01BMCOB,WAITING,"BHUJ MERCHANTILE BANK","VYAPAR BHAVAN , MITHAKHALI SIX ROAD,AHMEDABAD",2226300,AHMEDABAD,AHMEDABAD,GUJARAT
"FEDERAL BANK",FDRL012FCUB,NA,"THE FEROKE CO-OPERATIVE URBAN","THE FEROKE CO-OPERATIVE URBAN BANK LTD BUS STAND BUILDING, FEROKE PO,",0,KOZHIKODE,KOZHIKODE,KERALA
"FEDERAL BANK",FDRL0009999,NA,"TREASURY DEPARTMENT","TREASURY DEPARTMENT MUMBAI",2385511,MUMBAI,"MUMBAI SUBURBAN",MAHARASHTRA
"FEDERAL BANK",FDRL0009998,WAITING,"CPC OPERATIONS","THE FEDERAL BANK LTD,CENTRAL PROCESSING CENTER,OPERATIONS DEPARTMENT PARAVURKAVALA ALUVA",2385552,KOCHI,ERNAKULAM,KERALA
"FEDERAL BANK",FDRL0009997,NA,"INTERNATIONAL BANKING DEPT.","INTERNATIONAL BANKING DIVISION, 1ST FLOOR, FEDERAL TOWERS , MARINE DRIVE,",2385511,ERNAKULAM,ERNAKULAM,KERALA
"FEDERAL BANK",FDRL0009996,NA,"INTERNATIONAL BANKING DEPARTMENT","FEDERAL TOWERS MARINE DRIVE ERNAKULAM 682031",0,KOCHI,ERNAKULAM,KERALA
"FEDERAL BANK",FDRL0009995,WAITING,IBD,"INTERNATIONAL BANKING DIVISION, FIRST FLOOR, FEDERAL TOWERS MARINE DRIVE, ERNAKULAM 682031",2201701,ERNAKULAM,ERNAKULAM,KERALA
"FEDERAL BANK",FDRL0002288,WAITING,"TRAVANCORE MEDICITY EXTN COUNTER","NH BY PASS, THATAMMALLA P O , KOLLAM 691020",9526166576,KOLLAM,KOLLAM,KERALA
"FEDERAL BANK",FDRL0002287,WAITING,NIDUMUKKALA,"6-212, BESIDE ANJANEYA TEMPLE, NIDUMUKKALA, TADIKONDA MANDAL, GUNTUR, ANDHRA PRADESH 522016",9849335031,GUNTUR,GUNTUR,"ANDHRA PRADESH"
"FEDERAL BANK",FDRL0002286,WAITING,KRISHNAYAPALEM,"DOOR NO 1-17,OPP SIVALAYAM, KRISHNAYAPALEM, MANGALAGIRI, GUNTUR, ANDHRA 522503",2009239,GUNTUR,GUNTUR,"ANDHRA PRADESH"
"FEDERAL BANK",FDRL0002285,WAITING,KOPPURAVURU,"D NO 2-102,KOPPURAVURU VILLAGE, PEDAKKANI MANDAL, GUNTUR, ANDHRA PRADESH 522505",2293100,GUNTUR,GUNTUR,"ANDHRA PRADESH"
"FEDERAL BANK",FDRL0002284,WAITING,NARUKULLAPADU,"DOOR NO 1-38, BESIDES MEE SEVA COUNTER, OPP KRISHNA TEMPLE, NARUKULLAPADU, AMARAVATI GUNTUR DISTRICT",27896208,GUNTUR,GUNTUR,"ANDHRA PRADESH"
"FEDERAL BANK",FDRL0002283,WAITING,NOORANAD,"KRISHNAS GOWRI NARAYAN BUILDING, NEAR TENTH MILE JUNCTION,PALAMEL NOORANAD P O, ALAPPUZHA KERALA 690504",2387964,ALAPPUZHA,ALAPPUZHA,KERALA
"FEDERAL BANK",FDRL0002282,WAITING,"ALAPUZHA  THATHAMPALLY","SS AVENUE, DC ROAD, THODANKULANGARA, THATHAMPALLY PO ALAPPUZHA 688013",2231344,ALAPPUZHA,ALAPPUZHA,KERALA
"FEDERAL BANK",FDRL0002281,WAITING,KADAPPAKADA,"SAJI ARCADE, PRETHEKSHA NAGAR, OPP XAVIERS RESIDENCY, TOWN LIMIT JUNCTION, KILLIKOLLOR  P O, KOLLAM 691004",2766952,KOLLAM,KOLLAM,KERALA
"FEDERAL BANK",FDRL0002280,WAITING,DAULATPUR,"GROUND FLOOR , PLOT NO 40 , OPP HANUMAN MANDIR, DAULAT PUR PO , SOUTH WEST DELHI DISTRICT, NEW DELHI  110043",5885488,"SOUTH WEST DELHI","SOUTH WEST DELHI",DELHI
"FEDERAL BANK",FDRL0002279,WAITING,BHIMAVARAM,"FIRST FLOOR, D NO 1-1-11, VAMSI KRISHNA NAGAR, JUVALAPALEM ROAD, BHIMAVARAM WEST GODAVARI, ANDHRA PRADESH",42343622,"WEST GODAVARI","WEST GODAVARI","ANDHRA PRADESH"
"FEDERAL BANK",FDRL0002278,WAITING,ANANTHAVARAM,"SIRI TOWERS,ANANTHAVARAM VILLAGE, THULLUR MUNDAL, GUNTUR, ANDHRA PRADESH, 522236",453026,GUNTUR,GUNTUR,"ANDHRA PRADESH"
"FEDERAL BANK",FDRL0002277,WAITING,"KALAVI KATTI","H NO 451 , HATTARAGI ROAD, KALAVI KATE TALUK GADHINGLAJ, KOHLAPUR, MAHARASHTRA, 416506",2437944,KOHLAPUR,KOLHAPUR,MAHARASHTRA
"FEDERAL BANK",FDRL0002276,WAITING,"REWLA KHAM PUR","GROUDN FLOOR , VILLAGE AND PO REWLA KHAMPUR, SOUTH WEST DELHI DISTRICT, NEW DELHI",29216615,DELHI,"SOUTH WEST DELHI",DELHI
"FEDERAL BANK",FDRL0002275,WAITING,KAIR,"GROUDN FLOOR, VILLAGE AND PO  KAIR, GURGAON,NEW DELHI , SOUTH WEST DELHI DISTRICT, NEW DELHI 110043",65419113,GURGAON,GURGAON,DELHI
"FEDERAL BANK",FDRL0002274,WAITING,"KHARKHARI NAHAR","GROUND FLOOR MAIN ROAD BUS STAND, KHAIRA P O , SOUTH WEST DELHI , NEW DELHI, 110043",222853,GURGAON,GURGAON,PUNJAB
"FEDERAL BANK",FDRL0002273,WAITING,"AHMEDABAD SG HIGHWAY","SHOWROOM NO 11,ZODIAC SQUARE, OPP GURUDWARA, S G HIGHWAY, AHMEDABAD 380054GUJARAT",26855939,AHMEDABAD,AHMEDABAD,GUJARAT
"FEDERAL BANK",FDRL0002272,WAITING,RAMNAGAR,"OFFICE NO 1 OPPOSITE KAMNATH TEMPLE, KHMABALIYA PORBANDAR ROAD, RAMNAGAR, TALUKIYA KHAMBALIA, DEVBHUMI DWARAKA",3232945,AHMEDABAD,DWARAKA,GUJARAT
"FEDERAL BANK",FDRL0002271,WAITING,THADANGAM,"DOOR NO 3/107 A,THADANGAM VILLAGE AND PANCHAYAT, NALLAMPALI UNION , DHARMAPURI TAMILNADU 636705",2233388,SALEM,DHARMAPURI,"TAMIL NADU"
"FEDERAL BANK",FDRL0002270,WAITING,TULASIPAL,"AT PO TULASIPAL TS BANARPALA ANGUL ORRISA 759128",4284200,ANGUL,ANGUL,ODISHA
"FEDERAL BANK",FDRL0002269,WAITING,SANKHAPUR,"VIA IPS BANTALA, SANKHAPUR POST, ANGUL BLOCK , ANGUL , ORRISA, 759129",122187,ANGUL,ANGUL,ODISHA
"FEDERAL BANK",FDRL0002267,WAITING,NADIGAON,"NADIGAON, KUDEI POST, SORO , BALASORE, ORISSA, 756045",3043338,BUBANESHWAR,BUBANESHWAR,ODISHA
"FEDERAL BANK",FDRL0002266,WAITING,KULATHUKADU,"SREE SARVAM BUSINESS PARK, DOOR NO 2/322-5, SALEM MAIN ROAD, KULATHUKADU, KOMARAPALAYAM, NAMAKKAL, TAMIL NADU, 638183",261330,NAMAKKAL,NAMAKKAL,"TAMIL NADU"
"FEDERAL BANK",FDRL0002265,WAITING,TAKRARWADI,"SHOP NO 10, GRAMPANCHAYAT BUILDING, TAKRARWADI, INDAPUR TALUK, PUNE DISTRICT, MAHARASHTRA,413130",25236212,PUNE,PUNE,MAHARASHTRA
"FEDERAL BANK",FDRL0002264,WAITING,HABIBPUR,"GROUND FLOOR , SHOP NO 1 AND 2, HABIBPUR VILLAGE, GREATER NOIDA, GAUTHAM BUDHA NAGAR DISTRICT, UTTAR PRADESH, 201306",2411256,"GAUTHAM BUDH NAGAR","GAUTHAM BUDH NAGAR","UTTAR PRADESH"
"FEDERAL BANK",FDRL0002263,WAITING,GOSALA,"DOOR NO 3-31,GROUND FLOOR, OPPOSITE CHANDRA THEATRE, GOSALA, KRISHNA DISTRICT, ANDHRA PRADESH 521151",9985973729,"KRISHNA DISTRICT",KRISHNA,"ANDHRA PRADESH"
"FEDERAL BANK",FDRL0002262,WAITING,THIRUMALASETTYHALLI,"SY NO 84,THIRUMALASETTYHALLI VILLAGE, BANGALORE RURAL DISTRICT, KARNATAKA 560066",39047736,BANGALORE,BANGALORE,KARNATAKA
"FEDERAL BANK",FDRL0002261,WAITING,ARUNDAVAPURAM,"FEDERAL BANK LTD, 4/1336, ARUNDAVAPURAM, THANJAVUR, TAMIL NADU 614401",4233200,THANJAVUR,THANJAVUR,"TAMIL NADU"
"FEDERAL BANK",FDRL0002260,WAITING,ACHHEJA,"GROUND FLOOR , KHASRA NO 334, G T ROAD, VILLAGE ACHHEJA, GAUTHAM BUDH NAGAR DISTRICT , UTTAR PRADESH 203207",2618949,"GAUTHAM BUDH NAGAR","GAUTHAM BUDH NAGAR","UTTAR PRADESH"
"FEDERAL BANK",FDRL0002259,WAITING,KHOKHADAD,"SHOP NO 1 AND 2 , GROUND FLOOR,PRANAMAI NIVAS, KHOKHADAD , RAJKOT DISTRICT, GUJARAT 360022",2231239,RAJKOT,RAJKOUT,GUJARAT
"FEDERAL BANK",FDRL0002258,WAITING,"PATHANAMTHITTA ST PETERS JUNCTION","ST PETERS JUNCITON PATHANAMTHITTA, KERALA 689645",2350263,PATHANAMTHITTA,PATHANAMTHITTA,KERALA
"FEDERAL BANK",FDRL0002257,WAITING,"THIRUVANANTHAPURAM KUMARAPURAM","GROUND FLOOR LOTUS TOWERS, MEDICAL COLLEGE P O , KUMARAPURAM, THRIUVANANTHAPURAM KERALA 695011",2306167,THIRUVANANTHAPURAM,THIRUVANANTHAPURAM,KERALA
"FEDERAL BANK",FDRL0002256,WAITING,"CARMEL EXTENSION COUTER PUNNAPRA","CARMEL POLYTECHNIC COLLEGE,PUNNAPRA POST , ALAPPUZHA DISTRICT,688004",2288511,ALAPPUZHA,ALAPPUZHA,KERALA
"FEDERAL BANK",FDRL0002255,WAITING,"MOHAMMADPUR JHARSA","NARSINGHPUR POST, OLD KHANDSA ROAD, MOHAMMADPUR , GURGAON , HARYANA",2372045,GURGAON,GURGAON,HARYANA
"FEDERAL BANK",FDRL0002254,WAITING,FAZILPUR,"WARD NO 26, FAZILPUR P O ,GURGAON,HARYANA 122001",2222967,"NEW DELHI",GURGAON,HARYANA
"FEDERAL BANK",FDRL0002253,WAITING,NOORPUR,"VILLAGE AND POST NOORPUR, DIS  GURGAON, HARYANA, 122001",2014234,GURGAON,GURGAON,DELHI
"FEDERAL BANK",FDRL0002252,WAITING,BAMUNIA,"MANTESWAR P O , PIPLAN GRAM PANCHAYAT, BARDWAN , WEST BENGAL",2715074,BARDWAN,BARDWAN,"WEST BENGAL"
"FEDERAL BANK",FDRL0002251,WAITING,DHAMAS,"DHAMAS, CHOTDHAMA VILLAGE, DEBIPUR P O , BURDWAN WEST BENGAL , 713146",2263100,BURDWAN,BRDWAN,"WEST BENGAL"
"FEDERAL BANK",FDRL0002250,WAITING,ATMAKUR,"SHOP NO 4, ATMAKUR VILLAGE ROAD, ATMAKUR, MANGALAKIRI MANDAL, GUNTUR DISTRICT ANDHRA PRADESH 522503",2332277,GUNTUR,GUNTUR,"ANDHRA PRADESH"
"FEDERAL BANK",FDRL0002249,WAITING,LINGAYAPALEM,"D NO 7-85,TANNIRU SIVA KOTESWARA RAO BUILDING, LINGAYAPALEM ROAD, LALPURAM VILLAGE AND POST,GUNTUR, ANDRA PRADESH , 522017",23303306,GUNTUR,GUNTUR,"ANDHRA PRADESH"
"FEDERAL BANK",FDRL0002248,WAITING,BUDAMPADU,"DOOR NO 1-98, NEAR LORD GANESHA TEMPLE, BUDAMPADU, GUNTUR RURAL DISTRICT,ANDHRA PRADESH, 522007",2332277,GUNTUR,GUNTUR,"ANDHRA PRADESH"
"FEDERAL BANK",FDRL0002247,WAITING,"KARNAL SANGLI","MANE GALI, POST KARNAL, MIRAJ TALUK, SANGLI , MAHARASHTRA 416416",2454411,SANGLI,SANGLI,MAHARASHTRA
"FEDERAL BANK",FDRL0002246,WAITING,TEN,"SHOP NO 2 and 3, R C COMPLEX, NEAR NAVU TEN FALIYU, TEN ROAD, TEN VILLAGE, BARDOLI TALUKA, DISTRICT SURAT, GUJARAT 394602",2329364,SURAT,SURAT,GUJARAT
"FEDERAL BANK",FDRL0002245,WAITING,ICHGAON,"INCHGAON POST,MOHOL TALUK , SOLAPUR, MAHARASHTRA 413253",89259231,INCHGAON,SOLAPUR,MAHARASHTRA
"FEDERAL BANK",FDRL0002244,WAITING,PIPLA,"431, ADARSHA COLONY, PIPLA MAHARASHTRA 440034",26566715,PIPLA,PIPLA,MAHARASHTRA
"FEDERAL BANK",FDRL0002243,WAITING,BHANEGAON,"NEW BINA WARD NO 2 BAHNEGAON P O , KHAPERKEDA, TALUKA SAONER, NAGPUR MAHARASHTRA 441102",22428751,NAGPUR,NAGPUR,MAHARASHTRA
"FEDERAL BANK",FDRL0002242,WAITING,JOGVAD,"MADAV PALZA, NEAR RELIANCE TOWNSHIP, OPP RELIANCE REFINERY, JAMNAGAR KHAMBALIA HIGHWAY, ,EGHPAR, TAL LALPUR, DIST JAMNAGAR, GUJARAT  361280",2555174,JAMNAGAR,JAMNAGAR,GUJARAT
"FEDERAL BANK",FDRL0002241,WAITING,TANDULWADI,"A/P TANDULWADI, TALUKA WALWA, SANGLI MAHARASHTRA",2223159,SANGLI,SANGLI,MAHARASHTRA
"FEDERAL BANK",FDRL0002240,WAITING,GATACHIWADI,"INDUSTRIAL ESTATE NO 3, GATACHWADI CANCER HOSPITAL ROAD, BARSHI SOLAPUR ROAD, MAHARASHTRA",84220345,SOLAPUR,BARSHI,MAHARASHTRA
"FEDERAL BANK",FDRL0002239,WAITING,"NIDHIPANDA CHAKA","NIDHIPANDA CHAKA, AT/PO NIDHIPANDA CHAKA  BALASORE, BHUBANESWAR ORISSA 756027",222100,BHUBANESWAR,BALASORE,ODISHA
"FEDERAL BANK",FDRL0002238,WAITING,TRILOCHANPUR,"TRILOCHANPUR, DHINKIA P O , JAGATSINGHPUR, ORRISA, 754141",6975465,TRILOCHANPUR,JAGATSINGHPUR,ODISHA
"FEDERAL BANK",FDRL0002237,WAITING,KALIBELE,"KALIBELE BAZRA, KALIBELE , MEMARI, BURDWAN , WEST BENGAL , 713146,",2265111,BURDWAN,BURDWAN,"WEST BENGAL"
"FEDERAL BANK",FDRL0002236,WAITING,PALRA,"SECTOR 70 A,  POST PALRA, GURGAON, HARYANA, 122103",2014349,GURGAON,GURGAON,HARYANA
"FEDERAL BANK",FDRL0002235,WAITING,SHEIKHOPURA,"VPO SHEIKHOPURA, TEHSIL GHARAUNDA, KARNAL  HARYANA 132114",2014349,KARNAL,KARNAL,HARYANA
"FEDERAL BANK",FDRL0002233,WAITING,TIKLI,"GROUND FLOOR, KHASRA NO 463, TEEKLI PO , GUGAON HARYANA",2331681,GURGAON,GURGAON,HARYANA
"FEDERAL BANK",FDRL0002232,WAITING,PUNDRI,"VPO PUNDRI, HARAUNDA TEHSIL,KARNAL , HARYANA, 132114",258300,HARYANA,HARYANA,DELHI
"FEDERAL BANK",FDRL0002231,WAITING,KALRON,"VPO KALRON, GHARAUNDA TEHSIL, KARNAL, HARYANA 132114",25229514,HARYANA,KARNAL,HARYANA
"FEDERAL BANK",FDRL0002230,WAITING,GUDHA,"VPO GUDHA, TEHSIL GHARAUNDA, KARNAL, HARYANA",2648551,KARNAL,HARYANA,DELHI
"FEDERAL BANK",FDRL0002229,WAITING,"KOTTAYAM SANKRANTHI","SANKRANTHI MC ROAD, NEAR NEELIMANGALAM BRIDGE, PERUMBAIKADA P O , KOTTAYAM KERALA, 686016",2272241,KOTTAYAM,KOTTAYAM,KERALA
"FEDERAL BANK",FDRL0002228,WAITING,PALLIPPAD,"KODUKOICKAL TOWERS, YMCA JN, PALLIPPAD P O, ALAPUZHA DIST 690512",2408099,ALAPPUZHA,ALAPPUZHA,KERALA
"FEDERAL BANK",FDRL0002227,WAITING,"KOTTAYAM ASSET RECOVERY","KOTTAYAM ZONAL OFFICE,FEDERAL BANK,KOTTAYAM , KERALA",2569154,KOTTAYAM,KOTTAYAM,KERALA
"FEDERAL BANK",FDRL0002225,WAITING,BADNAGAR,"20, Shivaji Path, Opp Jain Mandir, Badnagar Ujjain 456771,┬áMadhya Pradesh",225101,UJJAIN,UJJAIN,"MADHYA PRADESH"
"FEDERAL BANK",FDRL0002224,WAITING,BAJIDPUR,"GURUKRIPA COMPLEX, VILALGE BAJIDPUR, GAUTAM BUDHA NAGAR, UTAR PRADESH, 201304",2411255,"UTTAR PRADESH",BAJIDPUR,"UTTAR PRADESH"
"FEDERAL BANK",FDRL0002223,WAITING,VRINDAVAN,"SHOP NO 11, UG GLOOR, OPP BAN MAHARAJ COLLEGE,RAMAN RETI, UTTARPRADESH",25885485,VRINDAVAN,VRINDAVAN,"UTTAR PRADESH"
"FEDERAL BANK",FDRL0002222,NA,ITARSI,"GROUND FLOOR,11TH LINE,ITARSI,HOSHANGABAD DT,MADHYA PRADESH.PINCODE 461111",25885485,ITARSI,HOSHANGABAD,"MADHYA PRADESH"
"FEDERAL BANK",FDRL0002221,NA,HOSHANGABAD,"OPP TO P AND T COLONY,SADAR BAZAR,MAIN ROAD,HOSHANGABAD PO,MADHYA PRADESH,461001",2704217,HOSHANGABAD,HOSHANGABAD,"MADHYA PRADESH"
"FEDERAL BANK",FDRL0002220,NA,BARIPADA,"A1 DEULASAHI PO,BARIPADA,W.NO 8,MAYRBHANJ,BARIPADA MAIN PO,ODISHA PINCODE 758001",2532057,BARIPADA,MAYURBHANJ,ODISHA
"FEDERAL BANK",FDRL0002219,NA,PATLUR,"NO 417/6 JEEVA COMPLEX, METTUR MAIN ROAD, PATLUR P O , ANTHIYUR TALUK , ERODE DISTRICT, 638314, TAMIL NADU",28587516,METTUR,SALEM,"TAMIL NADU"
"FEDERAL BANK",FDRL0002218,NA,MANKULAM,"POOVAPPALLY BLD,NO.MP BY 10 BY 29B1 A,B,C PALLICITY,MANKULAM,PO.IDUKKI DISTRICT,KERALA 685565",270258,MUNNAR,IDUKKI,KERALA
"FEDERAL BANK",FDRL0002217,NA,THIPPAMPATTI,"POLLACHI UDUMALPET ROAD,THIPPAMPATTI,POLLACHI TALUK,THIPPAMPATTI PO.TAMIL NADU,PINCODE 642107",28587516,POLLACHI,COIMBATORE,"TAMIL NADU"
"FEDERAL BANK",FDRL0002216,NA,BHUKUM,"SHOP NO.3 AND 4,GROUND FLOOR,O2 PLAZA,BHUKUM PO,PUNE 412115",25512194,WARJE,PUNE,MAHARASHTRA
"FEDERAL BANK",FDRL0002215,NA,"GORHE BUDRUK","SHIVRAM GARDEN MANGAL KARYALAY,HOLDING NO.409,A BY P GORHE BUDRUK PO,HAVELI TALUK,PUNE 412108",25512194,WARJE,PUNE,MAHARASHTRA
"FEDERAL BANK",FDRL0002214,NA,IVELI,"IVELI VILLAGE,SALEM SANKARI MAIN ROAD,AKKAMMAPETTAI POST OFFICE,TAMIL NADU,PINCODE 637301",226336,SANKARI,SALEM,"TAMIL NADU"
"FEDERAL BANK",FDRL0002213,NA,ARAMBAGH,"MOUZA PASCHIMKRISHNAPUR,J L NO.37 WARD NO 3,P S ARAMBAGH HOOGHLY,WEST BENGAL 712601",22830842,ARAMBAGH,HUGLI,"WEST BENGAL"
"FEDERAL BANK",FDRL0002212,NA,TARAKESHWAR,"MATAJEE BHAVAN,T.C.ROAD,TARAKESHWAR,NEAR HDFC BANK,PINCODE 712410",22830842,ARAMBAGH,HUGLI,"WEST BENGAL"
"FEDERAL BANK",FDRL0002211,WAITING,VADDI,"HOUSE NO.315,GAT NO.579 MIRAJ KAGWAD ROAD A BY P VADDI TALUKA MIRAJ PINCODE 416410",2301636,MIRAJ,SANGLI,MAHARASHTRA
"FEDERAL BANK",FDRL0002210,WAITING,SEHORE,"PLOT NO.583,BLOCK NO.3,NEAR BUS STAND,CHOWNI AREA,SEHOE.P.O,SEHORE DISTRICT,M.P,466001",2704217,SEHORE,SEHORE,"MADHYA PRADESH"
"FEDERAL BANK",FDRL0002209,WAITING,VADATHORASALUR,"NO.B 13,THIRUKOVILUR RD,RAJESWARI NAGAR,VADATHORASALUR,THIYAGADURGAM,VILLUPURAM,TN 606206",1222076,THIYAGADURGAM,VILLUPURAM,"TAMIL NADU"
"FEDERAL BANK",FDRL0002208,WAITING,CHINCHWAD,"BUILDING NO.6 BY 1,R.S.NO.383 MUSLIM LANE MAIN ROAD,CHINCHWAD TALUKA KARVEER,PINCODE 416119",227407,GANDHINAGAR,KOLHAPUR,MAHARASHTRA
"FEDERAL BANK",FDRL0002207,WAITING,KASIDHARMAM,"NO 4 BY 64 KADAYANALLUR MAIN ROAD,KASIDHARMAM,TIRUNELVELI DISTRICT,TAMIL NADU,PIN 627 751",3260222,KADAYANALLUR,TIRUNELVALI,"TAMIL NADU"
"FEDERAL BANK",FDRL0002205,WAITING,"THIRUVANANTHAPURAM  SREEKARIYAM","SUMAJ COMPLEX, CHAVADIMUKKU, SREEKARYAM P O , THRUVANANTHAPURAM DIST, 695017",2598859,THIRUVANANTHAPURAM,THIRUVANANTHAPURAM,KERALA
"FEDERAL BANK",FDRL0002204,WAITING,"THIRUVANANTHAPURAM  VATTIYOORKAVU","SWASTHIKA, KANJIRAMPARA P O ,VATTIYOORKAVU, THIRUVANANTHAPURAM, KERALA",2366642,THIRUVANANTHAPURAM,THIRUVANANTHAPURAM,KERALA
"FEDERAL BANK",FDRL0002202,WAITING,"KOTTAYAM NAGAMPADAM","THEKKANAT ARCADE, MC ROAD, SH MOUNT P O, KOTTAYAM 686006",258631,KOTTAYAM,KOTTAYAM,KERALA
"FEDERAL BANK",FDRL0002201,WAITING,BANGALORE,"GARDEN CITY COLLEGE,16TH KM OLD MADRAS ROAD,VIRGONAGAR POST,BANGALORE URBAN DIST,BANGALORE 560049",66487637,BANGALORE,"BANGALORE URBAN",KARNATAKA
"FEDERAL BANK",FDRL0002200,WAITING,BARGARH,"DAMODER BHAVAN,1 BY F OF RTO OFFICE,NH6 ROAD,BARGARH,ODHISHA 768028",2588170,BARGARH,BARGARH,ODISHA
"FEDERAL BANK",FDRL0002199,WAITING,"WIPRO PARK, KORAMANGALA","ANNAPOORNA COMPLEX, OPP WIPRO PARK,NO 6TH 7TH MAIN,80 FEET ROAD 3RD BLOCK,KORAMANGALA PO, BANGALORE",25504450,KORAMANGALA,BANGALORE,KARNATAKA
"FEDERAL BANK",FDRL0002198,WAITING,"BANGALORE SADASHIVANAGAR","NO 88 ,KEERTHI , 2ND MAIN, PALACE GUTTAHALLI P O , BANGALORE , KARNATAKA",9916352599,BANGALORE,BANGALORE,KARNATAKA
"FEDERAL BANK",FDRL0002197,WAITING,BHARWARA,"NEAR RAILWAY CROSSING,BARA BHARWARA,CHINHAT,LUCKNOW,GOMTI NAGAR.S.O.P.O,U.P,226010",2391868,BHARWARA,MAHOBA,"UTTAR PRADESH"
"FEDERAL BANK",FDRL0002196,WAITING,BAGALKOT,"PREMA ARCADE,NERA ENGINEERING COLLEGE VIDYAGIRI P O ,BAGALKOT DISTRICT KARNATAKA,587102",451439,BAGALKOT,BAGALKOT,KARNATAKA
"FEDERAL BANK",FDRL0002195,WAITING,PIPODARA,"SHOP NO 1,2,3,FORTUNE PLAZA,VISHAKARMA NAGAR,PIPODRA GIDC,PIPODRA,DIST SURAT,PINCODE 396002",2355344,KIM,KIM,GUJARAT
"FEDERAL BANK",FDRL0002194,WAITING,"MOTA BORSARA","SHREE LAXMI COMPLEX,NAVAPURA PATIA,MOTA BORSARA,DIST SURAT,GUJARAT,PINCODE 394110",2243214,KIM,KIM,GUJARAT
"FEDERAL BANK",FDRL0002193,NA,SHINGANAPUR,"GR FLOOR BUILDING NO.332, SHRI RAM VIVIDH KARYAKARI SAHAKARI SEVA SANSTHA MARYADIT,SHIN",0,KOLHAPUR,KOLHAPUR,MAHARASHTRA
"FEDERAL BANK",FDRL0002192,NA,BHAWANIPATNA,"JAGANNATH TEMPLE ROAD,BHAWANIPATNA,KALAHANDI,ODISHA,PINCODE 766001",242111,BHAWANIPATNA,KALAHANDI,ODISHA
"FEDERAL BANK",FDRL0002191,WAITING,KANTABANJI,"ROAD NO 3,KANTABANJI,BOLANGIR DIST,ODHISHA 767039",2314445,KANTABANJI,BALANGIR,ODISHA
"FEDERAL BANK",FDRL0002190,WAITING,HOSHIARPUR,"SCO2, CITY CENTRE, ROSHAN ROAD, NEAR BUS STAND, HOSHIARPUR, 146001, PUNJAB",222853,HOSHIARPUR,HOSHIARPUR,PUNJAB
"FEDERAL BANK",FDRL0002189,WAITING,KANKARBAGH,"B 146 KANKARBAHGH HOUSING COLONY,NLOHIYA NAGAR,NEAR PANCH SHIV MANDIR, PATNA 800020",22384800,PATNA,PA,"WEST BENGAL"
"FEDERAL BANK",FDRL0002188,WAITING,"MADURAI ANNA NAGAR","FLAT NO 320, 80 FEET ROAD, ANNANAGAR P O , MADURAI, TAMIL NADU , 625020",2525161,MADURAI,MADURAI,"TAMIL NADU"
"FEDERAL BANK",FDRL0002187,NA,JALESHWAR,"HOUSE NO.174,NEW BUSSTAND ROAD,JHADESWARPUR PO,JALESWAR,BALESWAR,ODISHA 756032",0,JALESWAR,BALESHWAR,ODISHA
"FEDERAL BANK",FDRL0002186,WAITING,BARDHAMAN,"74 BC ROAD KALITALA,BARDHAMAN, WEST BENGAL,713101",422140,BARDHAMAN,BARDHAMAN,"WEST BENGAL"
"FEDERAL BANK",FDRL0002185,NA,KALYANI,"B 9 BY 14 CA,KALYANI P.O,NADIA DISTRICT,PINCODE 741235",0,KALYANI,NADIA,"WEST BENGAL"
"FEDERAL BANK",FDRL0002184,NA,BHAIROPUR,"11TH MILE TIRAHA,VILLAGE BHAIROPUR,BHOPAL DISTRICT,MADHYA PRADESH,462047",0,BHOPAL,BHOPAL,"MADHYA PRADESH"
"FEDERAL BANK",FDRL0002183,NA,"SHAFIPUR RANHOLA","SYNDICATE BANK,ATOHAN,P.O ASAWATA,TEHSIL AND DISTRICT PALWAL,DISTRICT PALWAL,HARYANA,121102",25931866,DELHI,DELHI,DELHI
"FEDERAL BANK",FDRL0002182,NA,MANKOL,"KARMABHUMI PETROLEUM, MANKOL CHOKADI AT POST TALUK SANAND, AHMEDABAD DT, GUJARAT- 3",0,AHMEDABAD,AHMEDABAD,GUJARAT
"FEDERAL BANK",FDRL0002181,NA,VASNA,"UMA INDUSTRIAL ESTATE,NEAR BHAGYODYA HOTEL SANAND PO,  AHMEDABAD DT, GUJARAT-382110",0,AHMEDABAD,AHMEDABAD,GUJARAT
"FEDERAL BANK",FDRL0002180,WAITING,"THRISSUR POONKUNNAM","POTTAKKAL VINCENT TOWER,POONKUNAM P O, THRISSUR 680002",2384700,THRISSUR,THRISSUR,KERALA
"FEDERAL BANK",FDRL0002179,WAITING,"THIRUVANANTHAPURAM KURAVANKON","KURAVANKON FEDERAL BANK , KURAVANKON 695003",2311643,THIRUVANANTHAPURAM,THIRUVANANTHAPURAM,KERALA
"FEDERAL BANK",FDRL0002178,WAITING,"TRIVANDRUM SASTHAMANGALAM","MPG MAPLE NEAR RKD NSS HSS, SASTHAMANGALAM P O , THIRUVANANTHAPURAM 695010",2319191,THIRUVANANTHAPURAM,THIRUVANANTHAPURAM,KERALA
"FEDERAL BANK",FDRL0002177,NA,PANPOSH,"CIVIL TOWNSHIP,PANPOSH ROAD,ROURKELA 769004",0,PANPOSH,SUNDARGARH,ODISHA
"FEDERAL BANK",FDRL0002176,NA,SHIRATI,"H.NO. 304. HASUR ROAD, SHIRATI, TAL SHIROL,DIST. KOLHAPUR",0,KOLHAPUR,KOLHAPUR,MAHARASHTRA
"FEDERAL BANK",FDRL0002175,WAITING,NABHA,"THE FEDERAL BANK LTD, BRANCH NABHA, SCF 6,7,8,DR AMBEDKAR MARKET, PATIALA GATE, NABHA",2300972,NABHA,PATIALA,PUNJAB
"FEDERAL BANK",FDRL0002174,NA,"ANGAMALY EXTN COUNTER","EXTENSION COUNTER, GROUND FLOOR, MOTHER & CHI LITTLE FLOWER HOSPITAL, M.C ROAD",0,ANGAMALY,ERNAKULAM,KERALA
"FEDERAL BANK",FDRL0002173,NA,DASHAARI,"RATHORE PLAZA, NEAR DASHAARI CROSSING, OPP HYAT HOSPITAL, KAKORI PO",0,LUCKNOW,LUCKNOW,"UTTAR PRADESH"
"FEDERAL BANK",FDRL0002172,NA,HANDPOST,"SY. NO. 34/1A, YERAHALLI H.D.KOTE TALUK",0,MYSORE,MYSORE,KARNATAKA
"FEDERAL BANK",FDRL0002171,560049029,"KODATHI GATE","ST. PATRICK ACADEMY CAMPUS, SARJAPUR ROAD,CARMELARAM P O",0,BANGALORE,BANGALORE,KARNATAKA
"FEDERAL BANK",FDRL0002170,NA,BALAGARANAHALLI,"SY. NO. 33/2, BALAGARANAHALLI, ATTIBELE HOBLI,ANEKAL TALUK",0,BANGALORE,BANGALORE,KARNATAKA
"FEDERAL BANK",FDRL0002169,NA,"JANGAMAKOTE CROSS","NO. 295, HOSAPET VILLAGE JANGAMAKOTE CROSS, SHIDLAGHTTA TALUK",0,CHIKKABALLAPUR,CHIKKABALLAPUR,KARNATAKA
"FEDERAL BANK",FDRL0002168,NA,"SURYA NAGAR","SURYA NAGAR, B.NANJAPPA LAYOUT K.H.NO.168 & 169, BANAHALLI",0,BANGALORE,BANGALORE,KARNATAKA
"FEDERAL BANK",FDRL0002167,NA,"VISWESWARAYA LAYOUT","VISWESWARAYA LAYOUT,SITE NO.2, SY. NO.68/3 (R MANGANAHALLI VILLAGE, KODIGEHALLI",0,BANGALORE,BANGALORE,KARNATAKA
"FEDERAL BANK",FDRL0002166,560049032,BILLAPURA,"SY. NO.20, THYVAKANAHALLY SARJAPUR - ATTIBELE ROAD",0,BANGALORE,BANGALORE,KARNATAKA
"FEDERAL BANK",FDRL0002165,NA,"DOMMASANDRA (BANGALORE EAST)","KHATA NO. 13 - GRAMATHANA, BIDARAHALLI HOBLI DOMMASANDRA (BANGALORE EAST), VIRGONAGAR P O",0,BANGALORE,BANGALORE,KARNATAKA
"FEDERAL BANK",FDRL0002164,560049031,CHAMBENAHALLI,"SY. NO.82/4C (PAPPANA COMPLEX), CHAMBENAHALLI SARJAPUR ROAD, BANGALORE",0,BANGALORE,BANGALORE,KARNATAKA
"FEDERAL BANK",FDRL0002163,NA,HIRANDAHALLI,"SY. NO.81/1, HIRANDAHALLI MAIN ROAD OPP. ASWATHAKATTE,VIRGONAGAR P O",0,BANGALORE,BANGALORE,KARNATAKA
"FEDERAL BANK",FDRL0002162,WAITING,"KOLKATA RASHBEHARI AVENUE","152,SP MUKHERJEE ROAD,KALIGHAT P O,KOLKATA DISTRICT,WEST BENGAL",23990235,KOLKATA,KOLKATA,"WEST BENGAL"
"FEDERAL BANK",FDRL0002161,NA,"THIRUVANANTHAPURAM/ PATTOOR","SAMRUDHI ANUPAM,GROUND FLOOR, PATTOOR,VANCHIYOOR P O",0,THIRUVANANTHAPURAM,THIRUVANANTHAPURAM,KERALA
"FEDERAL BANK",FDRL0002160,NA,DHENKANAL,"NEAR DISTRICT HQ HOSPITAL,CHANDAN BAZAR, DHENKANAL DT ODISHA PIN 759001",0,DHENKANAL,DHENKANAL,ODISHA
"FEDERAL BANK",FDRL0002159,754049402,PATTAMUNDAI,"AGFC16& DRGC-17.GAJANAN BAZAR PATTAMUNDAI PO, KENDRAPARA DIST ODISHA",0,PATTAMUNDAI,KENDRAPARA,ODISHA
"FEDERAL BANK",FDRL0002158,NA,MUZAFFARPUR,"CHAKIA HOUSE,IMLI CHATTI MUZAFFARPUR.MUZAFFARPUR HEAD PO.BIHAR PIN 842001",2223076,MUZAFFARPUR,MUZAFFARPUR,BIHAR
"FEDERAL BANK",FDRL0002157,WAITING,SIWAN,"CHAPRA ROAD, SHIWAN P O , SHIWAN,BIHAR",8507945641,SIWAN,SIWAN,BIHAR
"FEDERAL BANK",FDRL0002156,WAITING,NALLILA,"THE FEDERAL BANK LTD, GROUND FLOOR, KALLUVILAYIL BUILDING, NALLILA ,KOLLAM",63633,KOLLAM,KOLLAM,KERALA
"FEDERAL BANK",FDRL0002155,756049003,BALASORE,"GROUND FLOOR,CITY PLAZA, VIVEKANANDA MARG, BALESWAR P O",0,BALASORE,BALASORE,ODISHA
"FEDERAL BANK",FDRL0002154,NA,"AGRA KAMALANAGAR","D 525,KAMALA NAGAR,AGRA,KARAM YOGI ENCLAVE.P.O PINCODE 282005,U.P",2522955,"DAYAL BAGH",AGRA,"UTTAR PRADESH"
"FEDERAL BANK",FDRL0002153,NA,"KOLKATA BBD BAGH","OLISA HOUSE,4,GOVERNMENT PLACE NORTH,GPO GENERAL POST OFFICE KOLKATA 700001",2223076,KOLKATA,KOLKATA,"WEST BENGAL"
"FEDERAL BANK",FDRL0002152,NA,KOPPAM,"FIRST FLOOR,SEVANA BUILDING, OPP:PRIMARY HEALTH CENTRE,KOPPAM, PULASSERY P",0,PALAKKAD,PALAKKAD,KERALA
"FEDERAL BANK",FDRL0002151,NA,"GHAZIABAD VASUNDHRA","GROUND FLOOR,C2,SECTOR 15,VASUNDHARA,VASUNDHARA PO,GHAZIABAD,U.P,PINCODE 201012",5885486,SAHIBABAD,GHAZIABAD,"UTTAR PRADESH"
"FEDERAL BANK",FDRL0002150,NA,GHAZIABAD/VAISHALI,"EXPRESS GREENS,PLOT NO.GH 1/1, SECTOR  1,VAISHALI",0,GHAZIABAD,GHAZIABAD,"UTTAR PRADESH"
"FEDERAL BANK",FDRL0002149,713049202,DURGAPUR,"2/2 , NACHAN ROAD BENACHITY, DURGAPUR",0,KOLKATA,DURGAPUR,"WEST BENGAL"
"FEDERAL BANK",FDRL0002148,NA,"KOLKATA/ASSET RECOVERY","1ST FLOOR, REGENCY, 6, HUNGERFORD STREET, KOLKATA",0,KOLKATA,KOLKATA,"WEST BENGAL"
"FEDERAL BANK",FDRL0002147,NA,"NEW DELHI/ASSET RECOVERY","1/7, FIRST FLOOR, PATEL ROAD, EAST PATEL NAGA  EAST PATEL NAGAR , NEW DELHI",0,"NEW DELHI","NEW DELHI",DELHI
"FEDERAL BANK",FDRL0002146,NA,"THIRUVANANTHAPURAM/ ASSET RECO","5TH FLOOR, FEDERAL TOWERS MG ROAD",0,THIRUVANANTHAPURAM,THIRUVANANTHAPURAM,KERALA
"FEDERAL BANK",FDRL0002145,NA,"KOZHIKODE ASSET RECOVERY","4TH FLOOR,  DOOR NO. 11/416 M SONS ARCADE, CHEROOTY ROAD",0,KOZHIKODE,KOZHIKODE,KERALA
"FEDERAL BANK",FDRL0002144,NA,MANDYA,"# 1119/B, KAMBALI BUILDING, ASHOKA NAGAR, M C ROAD",0,MANDYA,MANDYA,KARNATAKA
"FEDERAL BANK",FDRL0002143,456049002,UJJAIN,"GOPAL PLAZA,11 VARRUCHI MARG, NEAR SHAHEED PARK,FREEGANJ",0,UJJAIN,UJJAIN,"MADHYA PRADESH"
"FEDERAL BANK",FDRL0002142,NA,"INDORE PIPLIYAHANA","C-3,BRAGESWARI EXTENSION,MAIN ROAD, IDA SCHEME NO.140,NEAR PIPLIYAHANA CHOURAHA,",0,INDORE,INDORE,"MADHYA PRADESH"
"FEDERAL BANK",FDRL0002141,680049048,"ATHANI (THRISSUR)","SASTHA SHOPPING COMPLEX BYE PASS JUNCTION, ATHANI",0,THRISSUR,THRISSUR,KERALA
"FEDERAL BANK",FDRL0002140,NA,"INDORE VIJAYANAGAR","SHAGUN G1 & G2,PLOT NO.7,PU 4, SCHEME 54, AB ROAD,INDORE",0,INDORE,INDORE,"MADHYA PRADESH"
"FEDERAL BANK",FDRL0002139,673049029,"KOZHIKODE/MEDICAL COLLEGE","DOOR NO.30/721,HILL VIEW COMPLEX NEAR GOVT. MEDICAL COLLEGE",0,KOZHIKODE,KOZHIKODE,KERALA
"FEDERAL BANK",FDRL0002138,676049004,ALATHIYUR,"21/119, PURATHUR ROAD ALATHIYUR P.O,MALAPPURAM DISTRICT",2106060,ALATHIYUR,MALAPPURAM,KERALA
"FEDERAL BANK",FDRL0002137,679049353,KARUKAPUTHUR,"THULASI DHALAM BUILDING, MAIN ROAD, NEAR NARASIMHAMOORTHY TEMPLE, CHAZHIYATTIRI PO",0,PALAKKAD,PALAKKAD,KERALA
"FEDERAL BANK",FDRL0002136,673049028,OMASSERY,"C V COMPLEX OMASSERY",0,KOZHIKODE,KOZHIKODE,KERALA
"FEDERAL BANK",FDRL0002135,NA,"MUKTSAR CITY","MAIN KKP ROAD,KHEWAT NO.1608, SRI.MUKTSAR SAHIB,",0,MUKTSAR,MUKTSAR,PUNJAB
"FEDERAL BANK",FDRL0002134,NA,KHANNA,"SCO 39-40, GROUND FLOOR,KHANNA CITY CENTRE G.T.ROAD, KHANNA,LUDHIANA DISTRICT",0,KHANNA,LUDHIANA,PUNJAB
"FEDERAL BANK",FDRL0002133,151049002,BATHINDA,"GOYAL COMPLEX,BUILDING NO.3029, G.T.ROAD,BATHINDA DIST",0,BHATHINDA,BHATHINDA,PUNJAB
"FEDERAL BANK",FDRL0002132,WAITING,ARAKONAM,"SY NO 203 2 A4,BLOCK NO 14 ,WARD B,SHOLINGUR ROAD,ARAKONAM, VELLORE DISTRICT, RAMILNADU 631001",4963835,CHENNAI,VELLORE,"TAMIL NADU"
"FEDERAL BANK",FDRL0002131,641049022,ERIPATTI,"BUILDING NO: 217, ERIPATTI P O, POLLACHI TALU COIMBATORE DIST",0,ERIPATTI,COIMBATORE,"TAMIL NADU"
"FEDERAL BANK",FDRL0002130,NA,BARAMATI,"PLOT NO 1&2, BUILDING NO E, SANGHAVI TOWNSHIP,BHIGWAN ROAD,BARAMATI",0,PUNE,PUNE,MAHARASHTRA
"FEDERAL BANK",FDRL0002129,400049039,KAMOTHE,"SHOP NO.8-13,PREM AMBER BUILDING, PLOT NO.5 SECTOR-16,  NAVI MUMBAI",0,KAMOTHE,RAIGAD,MAHARASHTRA
"FEDERAL BANK",FDRL0002128,NA,PETLAD,"J  RAM HOUSE STATION ROAD, PETLAD",0,ANAND,ANAND,GUJARAT
"FEDERAL BANK",FDRL0002127,NA,JAMNAGAR,"OPP ST.ANN S SCHOOL,PATEL COLONY SUB POST OFFICE,JAMNAGAR 361008",2555174,JAMNAGAR,JAMNAGAR,GUJARAT
"FEDERAL BANK",FDRL0002126,388049071,BORSAD,"SHOP NO. 55, 56,MAHATMA GANDHI GANJ BORSAD",0,ANAND,ANAND,GUJARAT
"FEDERAL BANK",FDRL0002125,NA,YETTACODE,"SHEBIN COMPLEX (GROUND FLOOR ), CHEVRACODE JU YETTACODE,VEEYANNOOR P O KANYAKUMARI DIST",0,YETTACODE,KANYAKUMARI,"TAMIL NADU"
"FEDERAL BANK",FDRL0002124,400049038,"MIRA ROAD","PENT HOUSE NO.2, EVERSHINING CLAVE,JAY SATYAM CHS LTD, BEHIND RASAZZ CINEMA,MIRA ROAD (E)",0,MUMBAI,THANE,MAHARASHTRA
"FEDERAL BANK",FDRL0002123,NA,AMBADI,"SHOP NO19-23, GROUND FLOOR, OM SAI,PARADISE,  BHIWANDI WADA ROAD, AMBADI,PO DIGHASI",0,THANA,THANA,MAHARASHTRA
"FEDERAL BANK",FDRL0002122,WAITING,CHOMU,"THE FEDERAL BANK LTD, NEAR GOPAL TRACTOR JAIPUR ROAD , CHOMU , JAIPUR RAJASTHAN",2360279,JAIPUR,JAIPUR,RAJASTHAN
"FEDERAL BANK",FDRL0002121,NA,EZHUMATTOOR,"BUILDING NO EP XIV 127A THANNICKAL BUILDINGS MULLAPALLY RANNI ROAD EZHUMATOOR PO,PATHANAMTHITTA KERALA",0,PATHANAMTHITTA,PATHANAMTHITTA,KERALA
"FEDERAL BANK",FDRL0002120,WAITING,MARATHAKKARA,"CJ ARCADE, SIGNAL JUNCTION, KUNJANAMPARA, MARATHAKARA P O, THRISSUR KERALA, 680306",2353445,THRISSUR,THRISSUR,KERALA
"FEDERAL BANK",FDRL0002119,WAITING,ANDATHODE,"NH17,KADIKKAD VILLAGE, PUNAYOORKULAM,THRISUR,KERALA,679854",2545100,THRISSUR,THRISSUR,KERALA
"FEDERAL BANK",FDRL0002118,680049047,PALAKKAL,"ANTONY PLAZA,PALAKKAL, PALISSERY P O,THRISSUR DIST",0,THRISSUR,THRISSUR,KERALA
"FEDERAL BANK",FDRL0002117,583049402,KOPPAL,"KODANDAPPA COMPLEX,NEAR KIRAN PAINTS JAWAHAR ROAD,KOPPAL DIST",0,KOPPAL,KOPPAL,KARNATAKA
"FEDERAL BANK",FDRL0002116,NA,KUNDLI,"SHOP NO 1 & 2, TDI MALL, KUNDLI",0,SONEPAT,SONIPAT,HARYANA
"FEDERAL BANK",FDRL0002115,NA,THELLIYOOR,"VENNIKULAM VIA,THELLIYOOR P.O PATHANAMTHITTA DIST.",0,THELLIYOOR,PATHANAMTHITTA,KERALA
"FEDERAL BANK",FDRL0002114,NA,CHOWARA,"THE FEDERAL BANK LTD,BUILDING NO: II/256E ST.MARYS BLDG,NEAR POST OFFICE,CHOWARA PO",0,ERNAKULAM,ERNAKULAM,KERALA
"FEDERAL BANK",FDRL0002113,629049105,PALOOR,"DOOR NO:V/179, VETTUKKATTUVILAI PALOOR VILLAGE, KARINGAL P O,KANYAKUMARI DIST",0,PALOOR,KANYAKUMARI,"TAMIL NADU"
"FEDERAL BANK",FDRL0002112,560049028,THIRUPALYA,"NEAR ELECTRONIC CITY,HEBGODI POST ANEKAL TALUK,BANGALORE URBAN DIST",0,THIRUPALYA,BANGALORE,KARNATAKA
"FEDERAL BANK",FDRL0002111,581049102,RANIBENNUR,"GUNGADATTI BUILDING,  OPP.KEB OFFICE PB ROAD, RANIBENNUR",0,HAVERI,HAVERI,KARNATAKA
"FEDERAL BANK",FDRL0002110,WAITING,ODDANCHATRAM,"NO 2, THENDRAI NAGAR, DINDUGAL MAIN ROAD, ODDANCHATRAM P O , TAMIL NADU, 624919",241020,MADURAI,MADURAI,"TAMIL NADU"
"FEDERAL BANK",FDRL0002109,NA,RAMAPURAM,"D.NO.1/12, THIROOR VILLAGE VELLAMADAM P.O, KANYAKUMARI",0,RAMAPURAM,KANYAKUMARI,"TAMIL NADU"
"FEDERAL BANK",FDRL0002108,641049019,SULAKKAL,"D.NO.1/147, EAST CAR STREET, SULAKKAL KINATHUKADAVU TK",0,COIMBATORE,COIMBATORE,"TAMIL NADU"
"FEDERAL BANK",FDRL0002107,641049014,KANNARPALAYAM,"D.NO. 1/336, ANNUR ROAD, KANNARPALAYAM, KARAMADAI, COIMBATORE",0,KANNARPALAYAM,COIMBATORE,"TAMIL NADU"
"FEDERAL BANK",FDRL0002106,641049018,DEVANAMPALAYAM,"D.NO.2/127, MULLUPADI KAPPALANKARAI ROAD DEVANAMPALAYAM, COIMBATORE",0,DEVANAMPALAYAM,COIMBATORE,"TAMIL NADU"
"FEDERAL BANK",FDRL0002105,NA,THIRUPATHISARAM,"D.NO.3/11, KEEZHOOR ROAD KANYAKUMARI",0,THIRUPATHISARAM,KANYAKUMARI,"TAMIL NADU"
"FEDERAL BANK",FDRL0002104,NA,SWAMITHOPE,"D. NO 104, OPP. SWAMITHOPE TEMPLE MELETHEURUVU,  KANYAKUMARI",0,SWAMITHOPE,KANYAKUMARI,"TAMIL NADU"
"FEDERAL BANK",FDRL0002103,629049004,ESANTHIMANGALAM,"BUILDING NO.4/1/3, NAVAL NAGAR COMPLEX NAVALKADU, ESANTHIMANGALAM, KANYAKUMARI",0,ESANTHIMANGALAM,KANYAKUMARI,"TAMIL NADU"
"FEDERAL BANK",FDRL0002102,641049020,ACHIPATTI,"DOOR NO.1/A2B,KOVAI MAIN ROAD POLLACHI,COIMBATORE",0,ACHIPATTI,COIMBATORE,"TAMIL NADU"
"FEDERAL BANK",FDRL0002101,641049017,PALATHURAI,"2/83,MURUGAN KOVIL STREET NACHIPALAYAM MAIN ROAD,COIMBATORE DIST.",2622303,PALATHURAI,COIMBATORE,"TAMIL NADU"
"FEDERAL BANK",FDRL0002100,NA,MELAKKAL,"D.NO.3/93, THIRUMANGALAM MAIN ROAD MELAKKAL, VADIPATTI TK, MADURAI",0,MELAKKAL,MADURAI,"TAMIL NADU"
"FEDERAL BANK",FDRL0002099,NA,KIDARIPATTI,"D.NO.135 & 136, ALAGKOVIL MAIN ROAD KIDARPATTI P.O. MADURAI",0,KIDARIPATTI,MADURAI,"TAMIL NADU"
"FEDERAL BANK",FDRL0002098,641049016,VALUKKUPARAI,"DOOR NO2/3B OPP TO BSNL EXCHANGE,VALUKKUPARAI POST, OTHAKALMANDAPAM VIA",0,COIMBATORE,COIMBATORE,"TAMIL NADU"
"FEDERAL BANK",FDRL0002097,641049021,SOLAPALAYAM,"D.NO. 2/130, PALANIAMMAL LAYOUT UDUMALPET ROAD, POLLACHI, COIMBATORE",0,SOLAPALAYAM,COIMBATORE,"TAMIL NADU"
"FEDERAL BANK",FDRL0002096,636049010,NILAVARAPATTI,"D.NO.5/538,THIRUMURUGAN COMPLEX, OPP. GOVT. H DASANAICKANPATTI P.O, SALEM",0,NILAVARAPATTI,SALEM,"TAMIL NADU"
"FEDERAL BANK",FDRL0002095,636049011,TIRUMALAIGIRI,"SY.NO.26/12, PLOT NO.10,SIVADAPURAM ROUTE NEAR CHEMMANTHITTU BUS STOP, TIRUMALAIGIRI PO",0,SALEM,SALEM,"TAMIL NADU"
"FEDERAL BANK",FDRL0002094,NA,THUVARIMAN,"D.NO. 1/241, EAST STREET, THUVARIMAN",0,MADURAI,MADURAI,"TAMIL NADU"
"FEDERAL BANK",FDRL0002093,NA,GOKILAPURAM,"WARD NO.1, SURALI MAIN ROAD GOKILAPURAM, THENI",0,GOKILAPURAM,THENI,"TAMIL NADU"
"FEDERAL BANK",FDRL0002092,625049104,ALAGAPURI,"WARD NO.1,RAJKUMAR COMPLEX,CUMBUM MAIN ROAD THENI",0,ALAGAPURI,THENI,"TAMIL NADU"
"FEDERAL BANK",FDRL0002091,NA,CHINNAOVULAPURAM,"D.NO.2,WARD.NO.6,MIDDLE STREET, THENI",0,CHINNAOVULAPURAM,THENI,"TAMIL NADU"
"FEDERAL BANK",FDRL0002090,NA,"PULI KUTHI","D.NO.103, WARD NO.5, PANNAIPURAM VIA MAIN ROAD, THENI",0,"PULI KUTHI",THENI,"TAMIL NADU"
"FEDERAL BANK",FDRL0002089,641049015,PATTANAM,"NO.4/1, NEAR PATTANAM BUS STOP, PATTANAM MAIN ROAD,COIMBATORE",2270375,PATTANAM,COIMBATORE,"TAMIL NADU"
"FEDERAL BANK",FDRL0002088,670049154,PAZHAYANGADI,"FIRST FLOOR, SHOPPING COMPLEX, NEAR BUS STAND, MAIN ROAD,PAZHAYANGADI",0,KANNUR,KANNUR,KERALA
"FEDERAL BANK",FDRL0002086,560049027,CHIKKAJALA,"SHREE BYRAVESHWARA COMPLEX,NO 82/3,CHIKKAJALA BIAL ROAD,B LORE NORTH TALUK,BLORE RURAL DIST",0,CHIKKAJALA,BANGALORE,KARNATAKA
"FEDERAL BANK",FDRL0002085,688049006,KALAVOOR,"AISWARYA BUILDING KALAVOOR JUNCTION",0,ALAPUZHA,ALAPUZHA,KERALA
"FEDERAL BANK",FDRL0002084,686049103,THALANAD,"NELLUVELIL BUILDING THALANADU  P O",0,KOTTAYAM,KOTTAYAM,KERALA
"FEDERAL BANK",FDRL0002083,689049055,PULIYOOR,"MARUTHOTHU BUILDINGS,KIZHAKKENADA, PULIYOOR P.O,CHENGANNUR",2464632,ALAPUZHA,ALAPUZHA,KERALA
"FEDERAL BANK",FDRL0002082,691049010,KOTTIYAM,"AMMA TOWERS,KOTTIYAM.P.O KOLLAM DIST,",0,KOTTIYAM,KOLLAM,KERALA
"FEDERAL BANK",FDRL0002081,691049011,PARIPPALLY,"M S BUILDING, MAIN ROAD, PARIPPALLY, KOLLAM ( DIST.)",0,PARIPPALLY,KOLLAM,KERALA
"FEDERAL BANK",FDRL0002080,671049004,UPPALA,"CITY HEIGHTS,KAIKAMBA UPPALA",0,KASARAGODE,KASARAGODE,KERALA
"FEDERAL BANK",FDRL0002079,670049007,IRIKKUR,"FIRST FLOOR, BUS STAND BUILDING IRIKKUR, KANNUR(DIST.)",0,KANNUR,KANNUR,KERALA
"FEDERAL BANK",FDRL0002078,670049054,MAYYIL,"KRIPA COMPLEX,MAIN ROAD, MAYYIL P O",2274227,KANNUR,KANNUR,KERALA
"FEDERAL BANK",FDRL0002077,NA,CHITTARIKKAL,"ST. THOMAS CHRUCH BUILDING OPPOSITE NEW BUS STAND CHITTARIKKAL - 671326 KASARAGODE (DIST) KERALA",0,KASARAGODE,KASARAGODE,KERALA
"FEDERAL BANK",FDRL0002076,680049046,PULLUT,"THIRUTHOLI COMPLEX, NEAR V K RAJAN MEMORIAL S PULLUT, KODUNGALLORE",0,THRISSUR,THRISSUR,KERALA
"FEDERAL BANK",FDRL0002075,680049050,KARUVANNUR,"SREE LAKSHMI COMPLEX,CHERIAPALAM, THRISSUR DIST",0,KARUVANNUR,THRISSUR,KERALA
"FEDERAL BANK",FDRL0002074,680049049,MELOOR,"HAT COMPLEX, MELOOR JUNCTION MELOOR PO",0,THRISSUR,THRISSUR,KERALA
"FEDERAL BANK",FDRL0002073,676049153,MAKKARAPARAMBA,"KAY TEE PLAZA MAKKARAPARAMBA P  O",0,MALAPPURAM,MALAPPURAM,KERALA
"FEDERAL BANK",FDRL0002072,686049603,"KULASEKHARA MANGALAM","HRISHABHAM TOWERS, TOLL JUNCTION, KULASEKHARAMANGALAM P O,VAIKOM",0,KOTTAYAM,KOTTAYAM,KERALA
"FEDERAL BANK",FDRL0002071,575049009,"B C ROAD (BANTWAL CROSS ROAD)","GROUND FLOOR,HISDUSTHAN TOWERS,OPP LIC OFFICE SANTHI ANGADI KAIKAMBA,B C ROAD (BANTWAL CROSS ROAD)",0,"B C ROAD (BANTWAL CROSS ROAD)","DAKSHINA KANNADA",KARNATAKA
"FEDERAL BANK",FDRL0002070,NA,KUNIGAL,"KRS AGRAHARA, BM ROAD TUMKUR DISTRICT",0,KUNIGAL,TUMKUR,KARNATAKA
"FEDERAL BANK",FDRL0002069,635049102,TIRUPATHUR,"BLOCK NO.18, WARD NO.1,THIRUMAGAL THEATRE LANE, KRISHNAGIRI ROAD, RAMAKAPETTAI,",0,TIRUPATTUR,VELLORE,"TAMIL NADU"
"FEDERAL BANK",FDRL0002068,NA,GHARAUNDA,"SHOP NO. 130-131, OPPOSITE RAILWAY ROAD G.T ROAD, GHARAUNDA",0,KARNAL,KARNAL,HARYANA
"FEDERAL BANK",FDRL0002067,673049027,PULIKKAL,"CAPITAL TOWER,ALINGAL, PULIKKAL, MALAPPURAM DISTRICT",0,MALAPPURAM,MALAPPURAM,KERALA
"FEDERAL BANK",FDRL0002066,689049005,THOTTABHAGOM,"GROUND FLOOR, MELAKAYIL BUILDING THOTTABHAGOM  P O , KAVIYOOR, TIRUVALLA",0,PATHANAMTHITTA,PATHANAMTHITTA,KERALA
"FEDERAL BANK",FDRL0002065,NA,KHED,"BAHAR COMMERCIAL COMPLEX, BHARNE NAKA MUMBAI - GOA HIGHWAY, KHED, RATNAGIRI",0,KHED,RATNAGIRI,MAHARASHTRA
"FEDERAL BANK",FDRL0002064,416049007,"MIDC KAGAL","PLOT P-43, FROSTEE ICE CREAM CHOWK FIVE STAR MIDC, KAGAL",0,KOLHAPUR,KOLHAPUR,MAHARASHTRA
"FEDERAL BANK",FDRL0002063,395049008,KUMBARIYA,"2/B, GR. FLOOR, SARTHY RESIDENCY SURAT - KADODARA ROAD",0,KUMBARIYA,SURAT,GUJARAT
"FEDERAL BANK",FDRL0002062,395049009,LASKANA,"23,24, GROUND FLOOR, MAHIDA NAGAR, SURAT- KAMREJ ROAD,LASKANA, SURAT",0,LASKANA,LASKANA,GUJARAT
"FEDERAL BANK",FDRL0002061,NA,FEROZEPUR,"GOLDEN SUN RISE TOWER THE MALL, FEROZEPUR CITY,",0,FEROZPUR,FEROZPUR,PUNJAB
"FEDERAL BANK",FDRL0002060,149049102,SIRHIND,"WARD NO.10,  BABA FATEH SINGH NAGAR NEAR AAM KHAS BHAG,FATEHGARH SAHIB,",0,SIRHIND,"FATEHGARH SAHIB",PUNJAB
"FEDERAL BANK",FDRL0002059,144049402,NAKODAR,"VISHAL TOWER, NOORMAHAL ROAD JALANDHAR (DIST)",0,NAKODAR,JALANDHAR,PUNJAB
"FEDERAL BANK",FDRL0002058,141049251,SAMRALA,"NO.223, WARD NO.10 CHANDIGARH ROAD, SAMRALA",0,LUDHIANA,LUDHIANA,PUNJAB
"FEDERAL BANK",FDRL0002057,WAITING,KODENCHERI,"J& B PLAZA, KODENCHERI, KOZHIKODE, KERALA 673580",2236600,KOZHIKODE,KOZHIKODE,KERALA
"FEDERAL BANK",FDRL0002056,841049102,GOPALGANJ,"NEAR AMBEDKAR CHOWK CINEMA ROAD",0,GOPALGANJ,GOPALGANJ,BIHAR
"FEDERAL BANK",FDRL0002055,NA,MIRGANJ,"MAIN ROAD, NEAR HATHUA MORE, MIRGANJ, GOPALGANJ (DIST)",0,MIRGANJ,GOPALGANJ,BIHAR
"FEDERAL BANK",FDRL0002054,NA,NANDANI,"OPP. NALAVADE BUILDING,SPORTS CORNER, NEAR GRAMPANCHAYAT OFFICE,KOLHAPUR",0,NANDANI,KOLHAPUR,MAHARASHTRA
"FEDERAL BANK",FDRL0002053,360049041,GONDAL,"SHOP NO 1 TO 6, C.M. PALACE, PALACE ROAD RADHAKRISHNA NAGAR",0,GONDAL,RAJKOT,GUJARAT
"FEDERAL BANK",FDRL0002052,NA,KOLLAKADAVU,"THAIVILAYIL BUILDING KIZHAKKEMUKKU,  ALAPUZHA DIST",0,KOLLAKADAVU,ALAPUZHA,KERALA
"FEDERAL BANK",FDRL0002051,NA,BARNALA,"OPP RAM BAGH GATE NO 2 GRAIN MARKET ROAD",0,BARNALA,BARNALA,PUNJAB
"FEDERAL BANK",FDRL0002049,NA,MEPPAYUR,"T K SHOPPING MALL, PAYYOLI ROAD MEPPAYUR (P.O), KOZHIKODE DISTRICT",0,MEPPAYUR,KOZHIKODE,KERALA
"FEDERAL BANK",FDRL0002048,689049045,PUTHUR,"KINGINI BUILDINGS,OPP ST THOMAS FORANE CHURCH PUTHUR",0,THRISSUR,THRISSUR,KERALA
"FEDERAL BANK",FDRL0002047,673049026,KUTTIADY,"SIMAX TOWER, MARUTHONKARA ROAD, KUTTIADY",0,KOZHIKODE,KOZHIKODE,KERALA
"FEDERAL BANK",FDRL0002046,WAITING,UDUMALPETT,"CM TOWER , NO 67, KALYANI NAGAR, PALANI ROAD , UDUMALPETT P O ,TAMIL NADU , PIN CODE 642154",220331,UDUMALPETT,UDUMALPETT,"TAMIL NADU"
"FEDERAL BANK",FDRL0002045,689049054,PANDANAD,"NSS KARAYOGA MANDIRAM BUILDING NEAR PANCHAYATH OFFICE,KEEZHVANMAZHI,APY DIST",0,PANDANAD,ALAPUZHA,KERALA
"FEDERAL BANK",FDRL0002044,160049012,KURALI,"7-8, OPPOSITE KHALSA SCHOOL, NH-21, KURALI, DIST. S.A.S. NAGAR, PUNJAB - 140103",0,KURALI,MOGA,PUNJAB
"FEDERAL BANK",FDRL0002043,581049052,HAVERI,"C PLOT NO 30A, VIDYA NAGAR P B ROAD",0,HAVERI,HAVERI,KARNATAKA
"FEDERAL BANK",FDRL0002042,396029111,SILVASSA,"GROUND FLOOR,VIJAY BHAVAN COMPLEX NAROLI-SILVASSA MAIN ROAD",0,SILVASSA,"DADRA AND NAGAR HAVELI","DADRA AND NAGAR HAVELI"
"FEDERAL BANK",FDRL0002041,WAITING,"SADAR EXTENSION COUNTER","THE NAGPUR LEARNING CENTER , 177 KAMPTEE ROAD, OPP SFS CHURCH ROAD, MOHANNAGAR, NAGPUR, 440001",2527388,NAGPUR,NAGPUR,MAHARASHTRA
"FEDERAL BANK",FDRL0002040,NA,KADAMPANAD,"D NO 137- A & B, OPP. ST THOMAS ORTHODOX CATHEDRAL, PATHANAMTHITTA,",0,KADAMPANAD,PATHANAMTHITTA,KERALA
"FEDERAL BANK",FDRL0002039,695049033,PEYAD,"NEDUGANAL PEYAD  P O",0,THIRUVANANTHAPURAM,THIRUVANANTHAPURAM,KERALA
"FEDERAL BANK",FDRL0002038,695049035,ALAMCODE,"GROUND FLOOR,  AKM BUILDINGS, OPP:ALAMCODE JUMA MASJID,ALAMCODE PO,ATTINGAL",0,THIRUVANANTHAPURAM,THIRUVANANTHAPURAM,KERALA
"FEDERAL BANK",FDRL0002037,NA,"THODUPUZHA / VENGALLOOR","BUILDING NO.80 F,  ANIMOOTTIL BUILDINGS VENGALLOOR P  O,  THODUPUZHA",0,IDUKKI,IDUKKI,KERALA
"FEDERAL BANK",FDRL0002036,695049034,MANGALAPURAM,"SHANMUGHA VILASOM MANGALAPURAM,  THONNAKKAL P O",0,THIRUVANANTHAPURAM,THIRUVANANTHAPURAM,KERALA
"FEDERAL BANK",FDRL0002035,691049108,POOYAPPALLY,"CHAMAVILA ALENCY PLAZA, POOYAPPALLY PO",0,KOLLAM,KOLLAM,KERALA
"FEDERAL BANK",FDRL0002034,691049009,MAYYANAD,"GROUND FLOOR, CHETTIAR BUILDING, XIV/255 MAYYANAD",0,KOLLAM,KOLLAM,KERALA
"FEDERAL BANK",FDRL0002033,679049004,VANIAMKULAM,"THOMSON TRADERS BUILDING, PALAKKAD MAIN ROAD, VANIYAMKULAM, PALAKKAD",0,VANIYAMKULAM,PALAKKAD,KERALA
"FEDERAL BANK",FDRL0002032,678049808,KONGAD,"GALAXY COMPLEX, NEAR KONGAD BUS STAND PATHIRIPPALA ROAD, KONGAD, PALAKKAD - 678631",0,KONGAD,PALAKKAD,KERALA
"FEDERAL BANK",FDRL0002031,NA,"LULU MALL - KOCHI","S 65,LULU INTERNATIONAL SHOPPING MALL PVT LTD DOOR NO. 34/1000,NH 47, EDAPPALLY",0,KOCHI,ERNAKULAM,KERALA
"FEDERAL BANK",FDRL0002030,573049002,ARSIKERE,"NEAR LIC OFFICE BH ROAD, ARSIKERE",0,HASSAN,HASSAN,KARNATAKA
"FEDERAL BANK",FDRL0002029,NA,KOLAKKAD,"CHEMBARATHY BUILDING, KOLAKKAD P O, KANNUR DIST.,",0,KOLAKKAD,KANNUR,KERALA
"FEDERAL BANK",FDRL0002028,691049816,CHITTUMALA,"CHANDRAVIL  BUILDING EAST KALLADA  P.O,",0,KOLLAM,KOLLAM,KERALA
"FEDERAL BANK",FDRL0002027,670049813,PAYYAVOOR,"DOOR NO. 3433, BEMBUA JUNCTION, HILL HIGHWAY PAYYAVUR",0,KANNUR,KANNUR,KERALA
"FEDERAL BANK",FDRL0002026,670049103,PANOOR,"PUTHOOR ROAD PANOOR",0,KANNUR,KANNUR,KERALA
"FEDERAL BANK",FDRL0002025,396049131,DAMAN,"SHOP NO 6 TO 11, MANCHHA EMPIRE, MASHAL CHOWK, KATHIRIA VILLAGE, NANI DAMAN ,",0,DAMAN,DAMAN,"DAMAN AND DIU"
"FEDERAL BANK",FDRL0002024,713049102,"GHOR DAUR CHOTI","SRIPALLY(PO), BURDWAN",0,"GHOR DOUR CHATI",BARDDHAMAN,"WEST BENGAL"
"FEDERAL BANK",FDRL0002023,756049102,BHADRAKH,"GROUND FLOOR, ADITI COMMERCIAL COMPLEX, GOPABANDHUNAGAR,  CHARAMPA(PO),",0,BHADRAKH,BHADRAKH,ODISHA
"FEDERAL BANK",FDRL0002022,759049102,ANGUL,"SHANKAR CINEMA ROAD, ANGUL TOWN",0,ANGUL,ANGUL,ODISHA
"FEDERAL BANK",FDRL0002021,562049002,CHIKKABALLAPUR,"NO 1153/3, BB ROAD CHIKKABALLAPUR",0,CHIKKABALLAPUR,CHIKKABALLAPUR,KARNATAKA
"FEDERAL BANK",FDRL0002020,605049004,VILLUPURAM,"DOOR NO.25 D, K.K. ROAD,",0,VILLUPURAM,VILLUPURAM,"TAMIL NADU"
"FEDERAL BANK",FDRL0002019,WAITING,ARIYALUR,"NO 34 MVM COMPLEX, PONNUSWAMY ARANMANAI STREET, ARIYALUR P O , ARIYALUR",221111,ARIYALUR,ARIYALUR,"TAMIL NADU"
"FEDERAL BANK",FDRL0002018,695049036,POOVAR,"NEAR BHASURAM FUELS THIRUVANANTHAPURAM",0,POOVAR,THIRUVANANTHAPURAM,KERALA
"FEDERAL BANK",FDRL0002017,691049817,KULATHUPUZHA,"CHIRAYATHU BUILDING KULATHUPUZHA  P O",0,KOLLAM,KOLLAM,KERALA
"FEDERAL BANK",FDRL0002016,636049103,DHARMAPURI,"NO: 22 A, P R SUNDARAM IYER STREET DHARMAPURI DIST, TAMIL NADU",0,DHARMAPURI,DHARMAPURI,"TAMIL NADU"
"FEDERAL BANK",FDRL0002015,NA,MEMARI,"HOSPITAL MORE, WARD NO.08 BURDWAN DIST,",0,MEMARI,BARDDHAMAN,"WEST BENGAL"
"FEDERAL BANK",FDRL0002014,NA,KUNDAPURA,"MUNICIPAL MAIN ROAD, NEAR OLD BUS STAND,",0,KUNDAPURA,KUNDAPURA,KARNATAKA
"FEDERAL BANK",FDRL0002013,575049008,THOKOTTU,"OPP. THOKOTTU BUS STAND, NH 17, PERMANNUR PO, THOKOTTU JN.",0,THOKOTTU,THOKOTTU,KARNATAKA
"FEDERAL BANK",FDRL0002012,575049501,KADABA,"GROUND FLOOR, ANUGRAHA COMPLEX MAIN ROAD, DAKSHINA KANNADA DISTRICT",0,KADABA,"DAKSHINA KANNADA",KARNATAKA
"FEDERAL BANK",FDRL0002011,627049007,KOVILPATTI,"NO.62/1, NEW ROAD NEAR RAILWAY STATION, KOVILPATTI",0,TUTICORIN,TOOTHUKUDI,"TAMIL NADU"
"FEDERAL BANK",FDRL0002010,626049302,VIRUDHUNAGAR,"DOOR NO.74,SUKADI COMPLEX, RAILWAY FEEDER ROAD",0,VIRUDHUNAGAR,VIRUDHUNAGAR,"TAMIL NADU"
"FEDERAL BANK",FDRL0002009,635049302,AMBUR,"DOOR NO.88/6 , GROUND FLOOR, BYE PASS ROAD, VELLORE DISTRICT,",0,AMBUR,VELLORE,"TAMIL NADU"
"FEDERAL BANK",FDRL0002008,NA,GUDIYATHAM,"DOOR NO.54, KOSA ANNAMALAI STREET, AMBAPURAM,GUDIYATTAM,VELLORE DISTRICT",0,GUDIYATHAM,VELLORE,"TAMIL NADU"
"FEDERAL BANK",FDRL0002007,WAITING,KINNIGOLI,"C4 AND C5,PRINTOS GOLDEN CASTLE,TALIPADY ROAD, NEXT TO BSNL OFFICE,KINNIGOLI,DAKSHIN KANNAD 574150",82271998,KINNIGOLI,"DAKSHIN KANNAD",KARNATAKA
"FEDERAL BANK",FDRL0002006,NA,THIRUVALLA/MUTHOOR,"GROUND FLOOR, FUSION CENTRE,M C ROAD, MUTHOOR,THIRUVALLA, PATHANAMTHITTA",0,TIRUVALLA,PATHANAMTHITTA,KERALA
"FEDERAL BANK",FDRL0002005,682049065,KOONAMMAVU,"JOYS ARCADE OPP CHAVARA DARSHAN CMI PUBLIC SCHOOL,KOONAMAVU,ERNAKULAM,683518",0,ERNAKULAM,ERNAKULAM,KERALA
"FEDERAL BANK",FDRL0002004,682049064,EROOR,"VENDRAPPILLY BUILDING ,  NEAR POTTAYIL TEMPLE EROOR SOUTH PO, TRIPUNITHURA",0,ERNAKULAM,ERNAKULAM,KERALA
"FEDERAL BANK",FDRL0002003,NA,KUNDANNOOR,"GROUND FLOOR, AMV TOWERS, NH-47 BYEPASS KUNDANNOOR, MARADU,",0,ERNAKULAM,ERNAKULAM,KERALA
"FEDERAL BANK",FDRL0002002,786049002,DIBRUGARH,"NEAR RAJIV BHAVAN MANCOTTA ROAD",0,DIBRUGARH,DIBRUGARH,ASSAM
"FEDERAL BANK",FDRL0002001,751049004,JATANI,"JAGADAMBA COMPLEX, NEAR DAMANUEI TEMPLE, KHURDA ROAD, KHURDA (DIST.)",0,JATANI,KHURDA,ODISHA
"FEDERAL BANK",FDRL0002000,754049002,PARADIP,"GROUND FLOOR, OCEAN CASTLE, UDAYBATTA, NEAR PPL CHHAK, PARADIP PORT (PO) , JAGATSINGHPUR",0,PARADIP,ADILABAD,ODISHA
"FEDERAL BANK",FDRL0001999,686049205,"KOTHAMANGALAM TOWN","C P BAWA TOWER, MUVATTUPUZHA ROAD,",2822249,KOTHAMANGALAM,ERNAKULAM,KERALA
"FEDERAL BANK",FDRL0001998,NA,PADAPPANAL,"GLOBAL BUILDING, PADAPPANAL THEVALAKKARA P O",0,KOLLAM,KOLLAM,KERALA
"FEDERAL BANK",FDRL0001997,670049006,KANNUR/TALAP,"R M APARTMENTS, NH 17,CIVIL STATION POST NEAR MAKKANI,TALAP",0,KANNUR,KANNUR,KERALA
"FEDERAL BANK",FDRL0001996,NA,THRICHATTUKULAM,"K.N THANKAPPAN NAIR MEMORIAL BLDG, CHERTHALA- AROOKUTTY ROAD ,ALAPPUZHA DISTRICT",0,THRICHATTUKULAM,ALAPUZHA,KERALA
"FEDERAL BANK",FDRL0001995,NA,MUNDRA,"SHAHI COMPLEX, OPP.HOTEL BANSIDHAR PALACE MIRZA CORNER,PORT ROAD",0,KUTCH,KUTCH,GUJARAT
"FEDERAL BANK",FDRL0001994,NA,NAWANSHAHR,"CORPORATE PARK, GROUND FLOOR, BANGA ROAD,",0,NAWANSHAHR,NAWANSHAHR,PUNJAB
"FEDERAL BANK",FDRL0001993,635049002,KRISHNAGIRI,"DOOR NO 76/4, GROUND FLOOR, 2ND CROSS STREET, CO-OPERATIVE COLONY, KRISHNAGIRI DIST.",0,KRISHNAGIRI,KRISHNAGIRI,"TAMIL NADU"
"FEDERAL BANK",FDRL0001992,783049002,BONGAIGAON,"BOC GATE,CHAPAGURI PWD ROAD",0,BONGAIGAON,BONGAIGAON,ASSAM
"FEDERAL BANK",FDRL0001991,638049302,DHARAPURAM,"NO.163-A, MUTHU COMPLEX,  NACHIMUTHUPUDUR TIRUPUR",0,DHARAPURAM,TIRUPUR,"TAMIL NADU"
"FEDERAL BANK",FDRL0001990,572049202,TIPTUR,"156 & 157 , OPP JANATA DELUXE LODGE VINAYAKA NAGARA,OFF B H ROAD,TIPTUR",0,TUMKUR,TUMKUR,KARNATAKA
"FEDERAL BANK",FDRL0001989,571049052,HUNSUR,"BM ROAD, OPP. VIJAYA BANK, MYSORE DIST.",0,HUNSUR,MYSORE,KARNATAKA
"FEDERAL BANK",FDRL0001988,NA,HIRIYUR,"PRASHANTHA NILAYA MAIN ROAD, HIRIYUR",0,CHITRADURGA,CHITRADURGA,KARNATAKA
"FEDERAL BANK",FDRL0001987,NA,CHANNARAYAPATNA,"GROUND FLOOR,MADHU COMPLEX, MYSORE ROAD, HASSAN DIST.",0,CHANNARAYAPATNA,HASSAN,KARNATAKA
"FEDERAL BANK",FDRL0001986,581049352,BHATKAL,"MISBAH CHAMBERS, RANGINKATTA, NH 17 UTTAR KANNADA ( DIST)",0,BHATKAL,"UTTAR KANNADA",KARNATAKA
"FEDERAL BANK",FDRL0001985,NA,"KOLKATA / VIP ROAD","SIDDHI APARTMENTS, 71, TEGHORIA, VIP ROAD, P.S. RAJARHAT,",0,KOLKATA,KOLKATA,"WEST BENGAL"
"FEDERAL BANK",FDRL0001984,680049042,KOMBODINJAMAKKAL,"M.A.M. BUILDING,BUILDING NO.14/823-B JUMA MASJID ROAD,P. O. THAZHEKKAD",0,THRISSUR,THRISSUR,KERALA
"FEDERAL BANK",FDRL0001983,147049102,"MANDI GOBINDGARH","GROUND FLOOR,G.T.ROAD, OPP BUS STAND,MANDI GOBINDGARH",0,"MANDI GOBIND GARH",MANDI,PUNJAB
"FEDERAL BANK",FDRL0001982,641049011,"COIMBATORE/ PAPANAIKAN PALAYAM","KATTOOR STREET PAPPANAICKENPALAYAM",0,COIMBATORE,COIMBATORE,"TAMIL NADU"
"FEDERAL BANK",FDRL0001981,NA,"LUCKNOW / VIKAS NAGAR","C 2/78, VIKAS NAGAR, MAMA CHOURAHA, VIKAS NAGAR,",0,LUCKNOW,LUCKNOW,"UTTAR PRADESH"
"FEDERAL BANK",FDRL0001980,110049032,"NEW DELHI/HAUZ KHAS","E-48,HAUZ KHAS MARKET",0,"NEW DELHI","NEW DELHI",DELHI
"FEDERAL BANK",FDRL0001979,400049037,"MUMBAI/ IC COLONY BORIVILI","SHOP NOS. 4 & 5, GROUND FLR., POONAM RESIDENC HOLY CROSS ROAD EXTN,I.C COLONY,BORIVILI WEST",0,MUMBAI,"MUMBAI SUBURBAN",MAHARASHTRA
"FEDERAL BANK",FDRL0001978,110049033,MURADNAGAR,"GROUND FLOOR, SHREE BALAJI TRADERS DELHI MEERUT ROAD, NEAR 32ND MILESTONE,",0,MURADNAGAR,GHAZIABAD,"UTTAR PRADESH"
"FEDERAL BANK",FDRL0001977,226049005,BARABANKI,"SHRI SAI PLAZA, 509, MINOBRI, FAIZABAD ROAD,",0,BARABANKI,BARABANKI,"UTTAR PRADESH"
"FEDERAL BANK",FDRL0001976,148049002,SANGRUR,"MAIN GAUSHALA ROAD, OPPOSITE NEW GRAIN MARKET SANGRUR DIST",0,SANGRUR,SANGRUR,PUNJAB
"FEDERAL BANK",FDRL0001975,148049252,SUNAM,"B / II-10-12, MATA MODI ROAD SANGRUR DISTRICT",0,SUNAM,SANGRUR,PUNJAB
"FEDERAL BANK",FDRL0001974,WAITING,KAPURTHALA,"SULTHANPUR ROAD,KAPURTHALA P O , KAPURTHALA DISTRICT, PUNJAB 144601",230307,KAPURTHALA,KAPURTHALA,PUNJAB
"FEDERAL BANK",FDRL0001973,WAITING,"SGMC EXTN COUNTER","SREE GOKULAM MEDICAL COLLEGE AND RESEARCH FOUNDATION, MC ROAD VENJARAMOODU, THIRUVANANTHAPURAM, 695607",2875999,VENJARAMOODU,THIRUVANANTHAPURAM,KERALA
"FEDERAL BANK",FDRL0001972,680049038,CHITTILAPPILLY,"IES COMPLEX CHITTILAPPILLY, THRISSUR (DIST)",0,CHITTILAPPILLY,THRISSUR,KERALA
"FEDERAL BANK",FDRL0001971,673049022,KUNNAMANGALAM,"SREELAKSHMI COMPLEX, KOZHIKODE",0,KUNNAMANGALAM,KOZHIKODE,KERALA
"FEDERAL BANK",FDRL0001970,679049052,KULAPPULLY,"PATTAMBI ROAD SHORANUR, PALAKKAD DISTRICT",0,KOLAPPULLY,PALAKKAD,KERALA
"FEDERAL BANK",FDRL0001969,626049202,ARUPPUKOTTAI,"DOOR NO.187 D, MADURAI ROAD, ARUPPUKOTTAI,VIRUDHNAGAR DISTRICT",0,ARUPPUKOTTAI,VIRUDHUNAGAR,"TAMIL NADU"
"FEDERAL BANK",FDRL0001968,607049202,PANRUTI,"11A/2, CUDDALORE MAIN ROAD CUDDALORE (DIST)",0,PANRUTI,CUDDALORE,"TAMIL NADU"
"FEDERAL BANK",FDRL0001967,797049102,KOHIMA,"KROS PLAZA, T.C.P.GATE NAGALAND",0,KOHIMA,ADILABAD,NAGALAND
"FEDERAL BANK",FDRL0001966,NA,GUWAHATI/SILPUKHURI,"GOGOI TOWER, OPPOSITE TO GUWAHATI CLUB G.N.B. ROAD, SILPUKHURI, KAMRUP(DIST)",0,GUWAHATI,KAMRUP,ASSAM
"FEDERAL BANK",FDRL0001965,799049002,AGARTALA,"PREMISES NO.824,JAGANNATH BARI ROAD, BEHIND JAGANNATH TEMPLE",0,AGARTALA,"WEST TRIPURA",TRIPURA
"FEDERAL BANK",FDRL0001964,560049025,KENGERI,"D.NO.NO.737,KOMMAGHATTA MAIN ROAD, KENGERI SATELLITE TOWN, BANGALORE,",0,KENGERI,KENGERI,KARNATAKA
"FEDERAL BANK",FDRL0001963,575049006,KARKALA,"OPP. BUNDIMATT  BUS STAND UDUPI (DIST)",0,KARKALA,UDUPI,KARNATAKA
"FEDERAL BANK",FDRL0001962,575049005,MOODABIDRI,"NEXT TO HOTEL PANCHARATNA BUILDING D. KANNADA DISTRICT",0,MOODABIDRI,KANNADA,KARNATAKA
"FEDERAL BANK",FDRL0001961,571049522,GONIKOPAL,"SUDHARMA BUILDING, NEAR MASJID PONNAMPET ROAD JN., MAIN ROAD, KODAGU DIST",0,GONIKOPPAL,KODAGU,KARNATAKA
"FEDERAL BANK",FDRL0001960,590049005,KHANAPUR,"ROOM NO. A4, MANGIRISH BUILDING OPP. MUNICIPAL BUS STAND  , BELGAUM DISTRICT",0,KHANAPUR,BELGAUM,KARNATAKA
"FEDERAL BANK",FDRL0001959,415049201,CHIPLUN,"GROUND FLOOR,JEEVAN JYOTHI BUILDING SHIVAJI NAGAR,MUMBAI-GOA HIGHWAY",0,CHIPLUN,RATNAGIRI,MAHARASHTRA
"FEDERAL BANK",FDRL0001958,301049001,BHIWADI,"SHOP NOS.A-12 & 13, BHAGAT SING COLONY ALWAR BYPASS ROAD, BHIWADI, ALWAR (DIST)",0,BHIWADI,ALWAR,RAJASTHAN
"FEDERAL BANK",FDRL0001957,641049013,KINATHUKADAVU,"DOOR NO.119, COIMBATORE-POLLACHI MAIN ROAD COIMBATORE DISTRICT",0,KINATHUKADAVU,COIMBATORE,"TAMIL NADU"
"FEDERAL BANK",FDRL0001956,605049003,TINDIVANAM,"NO.23A, RAJAJI STREET, TINDIVANAM VILLUPURAM (DIST)",0,VILLUPURAM,VILLUPURAM,"TAMIL NADU"
"FEDERAL BANK",FDRL0001955,673049023,BALUSSERY,"THRIPURA BULDING, OPPOSITE PWD REST HOUSE NEAR PANCHAYATH OFFICE  , KOZHIKODE DIST",0,BALUSSERY,KOZHIKODE,KERALA
"FEDERAL BANK",FDRL0001954,673049024,THIRUVAMBADY,"K.J.T SHOPPING COMPLEX, KOODARANHI ROAD KOZHIKODE DIST",0,THIRUVAMBADI,KOZHIKODE,KERALA
"FEDERAL BANK",FDRL0001953,670049153,TRIKARIPUR,"CITY SQUARE, RAILWAY STATION ROAD, TRIKARIPUR",0,KASARAGODE,KASARAGODE,KERALA
"FEDERAL BANK",FDRL0001952,686049012,KURICHY,"ARACKATHARA BUILDINGS NEAR OUT POST JUNCTION, KURICHY",0,KOTTAYAM,KOTTAYAM,KERALA
"FEDERAL BANK",FDRL0001951,690049202,BHARANIKKAVU,"GROUND FLOOR, TAJMAHAL SHOPPING COMPLEX KOLLAM",0,BHARANIKAVU,KOLLAM,KERALA
"FEDERAL BANK",FDRL0001950,686049154,MANIMALA,"PADINJAREMURIYIL BUILDINGS, MOONGANI, MANIMALA  P. O",0,KOTTAYAM,KOTTAYAM,KERALA
"FEDERAL BANK",FDRL0001949,682049059,"ERNAKULAM / ELAMAKKARA","BLDG NO.337-J, PERANDOOR VAYANASALA,  ELAMAKKARA, ELAMAKKARA PO,",0,ERNAKULAM,ERNAKULAM,KERALA
"FEDERAL BANK",FDRL0001948,682049062,MARAMPALLY,"PUTHUMANAKUDY BUILDING MARAMPALLY P O, ALUVA",0,MARAMPILLY,ERNAKULAM,KERALA
"FEDERAL BANK",FDRL0001947,682049063,PATHADIPPALAM,"GROUND FLOOR,  ELLICKAL ESTATE BUILDING N H 47, EDAPPALLY P O, PATHADIPPALAM",0,ERNAKULAM,ERNAKULAM,KERALA
"FEDERAL BANK",FDRL0001946,411049014,"PUNE / TILAK ROAD","GROUND FLOOR, SHREE KRISHNA COMPLEX, 1026 SHUKRAWAR PETH, TILAK ROAD",0,PUNE,PUNE,MAHARASHTRA
"FEDERAL BANK",FDRL0001945,492049003,"RAIPUR/ SHANKAR NAGAR","18/1421, NEW SHANTI NAGAR, SHANKAR NAGAR P O,",0,RAIPUR,RAIPUR,CHANDIGARH
"FEDERAL BANK",FDRL0001944,NA,"CHANDIGARH / SECTOR 38 D","SCO 310, SECTOR 38D,",0,CHANDIGARH,CHANDIGARH,CHANDIGARH
"FEDERAL BANK",FDRL0001943,NA,"HYDERABAD / VANASTHALIPURAM","D NO 5-5-148/P4,PLOT NO 4,VANASTHALI HILLS, NEAR PANAMA GODOWN,VANASTHALIPURAM",0,HYDERABAD,HYDERABAD,"ANDHRA PRADESH"
"FEDERAL BANK",FDRL0001942,680049044,PARIYARAM,"ST PETER S CHURCH BUILDING POOVATHUNGAL, PARIYARAM P O , CHALAKUDY (VIA)",0,THRISSUR,THRISSUR,KERALA
"FEDERAL BANK",FDRL0001941,686049254,"MUVATTUPUZHA (EAST)","ONE WAY JUNCTION MARKET P.O, MUVATTUPUZHA",0,MUVATTUPUZHA,ERNAKULAM,KERALA
"FEDERAL BANK",FDRL0001940,403049007,VASCO,"GROUND FLOOR, ANGEL HEIGHTS OPP. TO PAI NURSING HOME, VADEM,VASCO-DA-GAMA",0,VASCO,GOA,GOA
"FEDERAL BANK",FDRL0001939,591049202,CHIKODI,"HOUSE NO.3450, SADGURU PREMNIVAS,,INDIRANAGAR BELGAUM DISTRICT",0,CHIKODI,BELGAUM,KARNATAKA
"FEDERAL BANK",FDRL0001938,700049017,"KOLKATA / ULTADANGA","MERLIN WARDEN TF LAKEVIEW, BLOCK-SUPERIOR, 104, BIDHANNAGAR ROAD,",0,KOLKATA,KOLKATA,"WEST BENGAL"
"FEDERAL BANK",FDRL0001937,695049031,VEMBAYAM,"BUILDING NO.MP IX / 696 D, MANIKKAL VILLAGE M C ROAD,VEMBAYAM",0,VEMBAYAM,THRIUVANANTHAPURAM,KERALA
"FEDERAL BANK",FDRL0001936,695049032,KARAKULAM,"PANCHAMI BUILDING, PANCHAYATH JUNCTION, KARAKULAM P O",0,THIRUVANANTHAPURAM,THIRUVANANTHAPURAM,KERALA
"FEDERAL BANK",FDRL0001935,695049030,ARYANAD,"GOKULAM BUILDING, NO AP III 563/2,3,4 ALUMMOODU JUNCTION, THIRUVANANTHAPURAM",0,ARYANAD,THIRUVANANTHAPURAM,KERALA
"FEDERAL BANK",FDRL0001934,NA,KUMBAZHA,"KAKKANATTU BUILDING KUMBAZHA",0,PATHANAMTHITTA,PATHANAMTHITTA,KERALA
"FEDERAL BANK",FDRL0001933,600049027,"CHENNAI/ PERAMBUR","NO.39,SRP KOIL STREET, NORTH STREET TVK NAGAR, PERAMBUR WEST",0,CHENNAI,CHENNAI,"TAMIL NADU"
"FEDERAL BANK",FDRL0001932,686049305,"PALA / KOTTARAMATTOM","MUNDATHANATH BUILDING, ARUNAPURAM P O, PALA",0,KOTTAYAM,KOTTAYAM,KERALA
"FEDERAL BANK",FDRL0001931,NA,"KUSHAL NAGAR","MIST FLOWER COMPLEX, MADIKERI ROAD COORG DISTRICT",0,"KUSHAL NAGAR",COORG,KARNATAKA
"FEDERAL BANK",FDRL0001930,NA,TALCHER,"SIDDHARTH REGENCY, BY-PASS ROAD ANGUL (DIST)",0,TALCHER,ANGUL,ODISHA
"FEDERAL BANK",FDRL0001929,755049102,"JAJPUR ROAD","T C PLAZA, CHORDA BYPASS SQUARE JAJPUR ROAD P O, JAJPUR (DIST)",0,"JAJPUR ROAD",JAIPUR,ODISHA
"FEDERAL BANK",FDRL0001928,680049040,KOTTEKKAD,"FATHIMANATHA BUILDINGS KOTTEKKAD , KUTTUR  P O",0,THRISSUR,THRISSUR,KERALA
"FEDERAL BANK",FDRL0001927,680049039,PATTIKKAD,"DREAM CITY COMPLEX,  PEECHI ROAD JUNCTION, THRISSUR",0,PATTIKKAD,THRISSUR,KERALA
"FEDERAL BANK",FDRL0001926,680049041,PANNITHADAM,"6/6, A H SHOPPING POINT, KUNNAMKULAM - WADAKKANCHERY ROAD, CHIRAMANANGAD P O",0,THRISSUR,THRISSUR,KERALA
"FEDERAL BANK",FDRL0001925,788049003,"SILCHAR / SONAI ROAD","BISHOPS HOUSE COMPLEX, SONAI ROAD SILCHARG DT, CACHER",0,SILCHAR,SILCHAR,ASSAM
"FEDERAL BANK",FDRL0001924,781049005,"GUWAHATI / PALTAN BAZAR","RAMANAND TOWER,  G.S.ROAD,  PALTAN BAZAR KAMRUP DISTRICT",0,GUWAHATI,KAMRUP,ASSAM
"FEDERAL BANK",FDRL0001923,800049003,"PATNA / RAJA BAZAR","LEGEND PLAZA, ASHIYANA DIGHA MAIN ROAD,",0,PATNA,PATNA,BIHAR
"FEDERAL BANK",FDRL0001922,NA,BHAGAWANPUR,"GOPAL MARKET COMPLEX, BHAGWANPUR CHATTI, REWA ROAD, MUZAFFARPUR (DIST)",0,BHAGAWANPUR,MUZAFFARPUR,BIHAR
"FEDERAL BANK",FDRL0001921,625049103,CHINNAMANNUR,"NO.176/10, APK COMPLEX CUMBUM MAIN ROAD, THENI DIST",0,CHINNAMANNUR,THENI,"TAMIL NADU"
"FEDERAL BANK",FDRL0001920,636049008,RASIPURAM,"DOOR NO. 6, ZAHIR HUSSAIN ROAD, NAMAKKAL DISTRICT,",0,RASIPURAM,NAMAKKAL,"TAMIL NADU"
"FEDERAL BANK",FDRL0001919,NA,"LUDHIANA / FEROZPUR ROAD","MAHAL HOTEL COMPLEX,B35-39/6, FEROZEPUR ROAD OPP VERKA MILK PLANT",0,LUDHIANA,LUDHIANA,PUNJAB
"FEDERAL BANK",FDRL0001918,NA,ZIRAKPUR,"HITPRIYA SQUARE OPPOSITE LUCKY DHABA, PATIALA ROAD ZIRAKPUR, MOHALI (DIST)",0,MOHALI,MOHALI,PUNJAB
"FEDERAL BANK",FDRL0001917,110049029,"NOIDA / BOTANICAL GARDEN","GROUND FLOOR, NEAR GATE NO 1, NOIDA BOTANICAL GARDEN METRO STATION  , GAUTAM BUDH NAGAR",0,NOIDA,"GAUTAM BUDDHA NAGAR","UTTAR PRADESH"
"FEDERAL BANK",FDRL0001916,NA,"LUDHIANA / G.T ROAD","B21/1425, DHOLEWAL, KALSI NAGAR, G T ROAD, LUDHIANA",0,LUDHIANA,LUDHIANA,PUNJAB
"FEDERAL BANK",FDRL0001915,160049010,MORINDA,"WARD NO.4,SHOWROOM NO 133 G.T ROAD, OPP. PREET DHABA, MORINDA, DIST- ROOPNAGAR",0,ROOPNAGAR,ROOPNAGAR,PUNJAB
"FEDERAL BANK",FDRL0001914,110049028,"FARIDABAD/SECTOR 16","SCO -5, GROUND FLOOR SECTOR 16, HUDA MARKET",0,FARIDABAD,FARIDABAD,HARYANA
"FEDERAL BANK",FDRL0001913,671049053,PARAPPA,"GROUND FLOOR, AREEKUZHIYIL TOWERS, MAIN ROAD PARAPPA, KASARGOD DISTRICT,",0,PARAPPA,KANNUR,KERALA
"FEDERAL BANK",FDRL0001912,682049061,VALLARPADAM,"NEAR FIRST GATE TRANSHIPMENT TERMINAL PWD ROAD, VALLARPADAM",0,KOCHI,ERNAKULAM,KERALA
"FEDERAL BANK",FDRL0001911,NA,"NEW DELHI / GREEN PARK","S-21, OPPOSITE UPHAR CINEMA, GREE PARK EXTENSION",0,"NEW DELHI","NEW DELHI",DELHI
"FEDERAL BANK",FDRL0001910,686049304,BHARANANGANAM,"KOKKATT BUILDING,OPP. ST.MARYS FORANE CHURCH BHARANANGANAM",0,KOTTAYAM,KOTTAYAM,KERALA
"FEDERAL BANK",FDRL0001909,641049012,ANNUR,"DOOR NO. 3/173, KOVAI MAIN ROAD,",0,ANNUR,COIMBATORE,"TAMIL NADU"
"FEDERAL BANK",FDRL0001908,360049006,METODA,"GROUND FLOOR, FORTUNE SQUARE PLOT NO.C-1004/A, KISHAN GATE ROAD",0,METODA,RAJKOT,GUJARAT
"FEDERAL BANK",FDRL0001907,NA,MELUR,"GOLDEN COMPLEX, NO 126, SIVAGANGAI ROAD MELUR, MADURAI",0,MADURAI,MADURAI,"TAMIL NADU"
"FEDERAL BANK",FDRL0001906,629049104,KOLLENCODE,"OPP. TO BSNL OFFICE, KANNANAGAM JUNCTION, NITHIRAVILAI ROAD,KANYAKUMARI DIST",0,KOLLENCODE,KANYAKUMARI,"TAMIL NADU"
"FEDERAL BANK",FDRL0001905,606049102,KALLAKURICHI,"DOOR NO.10, RAJAMMAL NAGAR SALEM MAIN ROAD, VILLUPURAM DISTRICT",0,KALLAKURICHI,VILLUPURAM,"TAMIL NADU"
"FEDERAL BANK",FDRL0001904,636049102,HARUR,"10/243/1, THIRU VI KA NAGAR, BYPASS ROAD DHARMAPURI DIST",0,HARUR,DHARMAPURI,"TAMIL NADU"
"FEDERAL BANK",FDRL0001903,600049026,ANAKAPUTHUR,"PLOT NO.16, 4TH STREET BALAJI NAGAR, CHENNAI",0,ANAKAPUTHUR,CHENNAI,"TAMIL NADU"
"FEDERAL BANK",FDRL0001902,673049020,ULLIYERI,"KUMMAYAPURATH BUILDING EAST MUKKU, KOZHIKODE",0,ULLIYERI,KOZHIKODE,KERALA
"FEDERAL BANK",FDRL0001901,NA,BELTHANGADI,"SUVARNA ARCADE, DOOR NO 8/4B 1(2), BELTHANGADI,",0,"DAKSHINA KANNADA","DAKSHINA KANNADA",KARNATAKA
"FEDERAL BANK",FDRL0001900,574049302,SULLYA,"SHREYAS COMPLEX, MAIN ROAD, SULLYA D. KANNADA",0,SULLYA,SULLYA,KARNATAKA
"FEDERAL BANK",FDRL0001899,392049002,NANDELAV,"A 15,26, GROUND FLOOR, ABHISHEK COLONY, DEHEJ BYPASS ROAD, NANDELAV",0,BHARUCH,BHARUCH,GUJARAT
"FEDERAL BANK",FDRL0001898,440049004,BUTIBORI,"PLOT NO X 262, MIDC WARDHA ROAD BUTIBORI",0,NAGPUR,NAGPUR,MAHARASHTRA
"FEDERAL BANK",FDRL0001897,577049523,CHALLAKERE,"GOMMATTA NILAYA BANGALORE ROAD CHITRADURGA DISTRICT",0,CHALLAKERE,CHITRADURGA,KARNATAKA
"FEDERAL BANK",FDRL0001896,NA,HEBRI,"GROUND FLOOR,SHAKU MANSION MAIN ROAD",0,HEBRI,HEBRI,KARNATAKA
"FEDERAL BANK",FDRL0001895,577049521,NARASIMHARAJAPURA,"ASSESSMENT NO.794,NEAR TO IOC PETROL PUMP NAGALAPURA VILLAGE,B H KAIMARA",0,NARASIMHARAJAPURA,NARASIMHARAJAPURA,KARNATAKA
"FEDERAL BANK",FDRL0001894,575049007,PUTTUR,"AMRUTHA SOUDHA (RADHIKA PLAZA) COURT ROAD PUTTUR,",0,"DAKSHINA KANNADA","DAKSHINA KANNADA",KARNATAKA
"FEDERAL BANK",FDRL0001893,577049522,KADUR,"ASSESSMENT NO.7339,SRI RAM COMPLEX,B.H.ROAD",0,KADUR,KADUR,KARNATAKA
"FEDERAL BANK",FDRL0001892,NA,SREEKANDAPURAM,"KVA COMPLEX, MAIN ROAD SREEKANDAPURAM",0,KANNUR,KANNUR,KERALA
"FEDERAL BANK",FDRL0001891,NA,UDUMA,"MAIN ROAD, NEAR UDUMA RAILWAY GATE UDUMA",0,KASARAGODE,KASARAGODE,KERALA
"FEDERAL BANK",FDRL0001890,678049302,KOLLENGODE,"ST JOHN COMPLEX, NEAR VINAYAKA TEMPLE POLLACHI ROAD, KOLLENGODE",0,PALAKKAD,PALAKKAD,KERALA
"FEDERAL BANK",FDRL0001889,680049036,VADAKKEKKAD,"OM BROTHERS BUILDING NALAMKALLU, VADAKKEKAD",0,THRISSUR,THRISSUR,KERALA
"FEDERAL BANK",FDRL0001888,680049035,GURUVAYOOR,"DOOR NO-XXVII/422 (1), VENUS ENCLAVE EAST NADA, NEAR MANJULAL, THRISSUR ROAD",0,GURUVAYOOR,THRISSUR,KERALA
"FEDERAL BANK",FDRL0001887,679049815,VALLAPUZHA,"BULIDING NO IV/423, 424 ,  NEAR RAILWAY GATE",0,PALAKKAD,PALAKKAD,KERALA
"FEDERAL BANK",FDRL0001886,679049003,PATHIRIPPALA,"PULACHERY COMPLEX, NAGARIPURAM P.O PATHIRIPPALA,",0,PALAKKAD,PALAKKAD,KERALA
"FEDERAL BANK",FDRL0001885,678049004,KODUVAYUR,"AMBADI TOWERS, PALAKKAD ROAD NEAR KODUVAYUR GOVT HOSPITAL, KODUVAYUR",0,PALAKKAD,PALAKKAD,KERALA
"FEDERAL BANK",FDRL0001884,691049107,"KOTTARAKKARA / GANAPATHIKOIL","KALPAKA BLDG, RLY STN ROAD, KKA NO X/529 A OF KOTTARAKKARA PANCHAYATH ,KOLLAM DISTRICT",0,KOTTARAKKARA,KOLLAM,KERALA
"FEDERAL BANK",FDRL0001883,691049055,AADIKATTUKULANGARA,"MOOTHANNAN SHOPPING COMPLEX, K P ROAD OPP MASJID, ADIKATTUKULANGARA",0,ALAPUZHA,ALAPUZHA,KERALA
"FEDERAL BANK",FDRL0001882,691049007,NILAMEL,"MB TOWER MARKET ROAD, NILAMEL",0,KOLLAM,KOLLAM,KERALA
"FEDERAL BANK",FDRL0001881,686049354,ATHIRAMPUZHA,"ST MARYS FORANE CHURCH OFFICE BUILDING ATHIRAMPUZHA",0,KOTTAYAM,KOTTAYAM,KERALA
"FEDERAL BANK",FDRL0001880,686049014,AYARKUNNAM,"GROUND FLOOR, THOPPIL BUILDING AYARKUNNAM, KOTTAYAM",0,AYARKUNNAM,KOTTAYAM,KERALA
"FEDERAL BANK",FDRL0001879,380049006,"AHMEDABAD/ MANINAGAR","GROUND FLR., ELEGANCE ARCADE, NEAR BANK OF IN STATION ROAD, MANINAGAR",0,AHMEDABAD,AHMEDABAD,GUJARAT
"FEDERAL BANK",FDRL0001878,400049036,SHAHAPUR,"SHOP NOS 4 TO 7, S K SHRUSHTI COMPLEX OLD AGRA ROAD, NEAR GOVT REST HOUSE, THANE",0,SHAHAPUR,THANE,MAHARASHTRA
"FEDERAL BANK",FDRL0001877,NA,NIRSA,"AMRIT COMPLEX PLOT NO 1360",0,DHANBAD,DHANBAD,JHARKHAND
"FEDERAL BANK",FDRL0001876,643049302,KOTAGIRI,"27/131 L, JOHNSTONE SHOPS JOHNSTONE SQUARE(KAMRAJ SQUARE), NILGRIS DIST",0,KOTAGIRI,NILGRIS,"TAMIL NADU"
"FEDERAL BANK",FDRL0001875,638049005,KODUMUDI,"NO. 258/2, BYPASS, ERODE MAIN ROAD,  KODUMUDI",0,ERODE,ERODE,"TAMIL NADU"
"FEDERAL BANK",FDRL0001874,638049006,NAMBIYUR,"DOOR NO 492/3, KOVAI MAIN ROAD, NAMBIYUR ERODE DISTRICT",0,NAMBIYUR,ERODE,"TAMIL NADU"
"FEDERAL BANK",FDRL0001873,635049403,DENKANIKOTTAI,"NO 89,90, NEHRU STREET, DENKANIKOTTAI",0,KRISHNAGIRI,KRISHNAGIRI,"TAMIL NADU"
"FEDERAL BANK",FDRL0001872,NA,PATHIYOOR,"M N BUILDING, PATHIYOOR JN, KEERIKKAD,",0,ALAPUZHA,ALAPUZHA,KERALA
"FEDERAL BANK",FDRL0001871,688049056,ERAMALLUR,"GRAND FURNITURE MART, SURVEY NO 141/1 ERAMALLOOR",0,ALAPUZHA,ALAPUZHA,KERALA
"FEDERAL BANK",FDRL0001870,NA,THAMARAKKULAM,"HAMDAN TOWERS, OPP. PETROL PUMP THAMARAKKULAM",0,ALAPUZHA,ALAPUZHA,KERALA
"FEDERAL BANK",FDRL0001869,690049005,KARUVATTA,"SHAHANAS BUILDING, KARUVATTA P.O",0,ALAPUZHA,ALAPUZHA,KERALA
"FEDERAL BANK",FDRL0001868,NA,PADANILAM,"BLDG NO VIII/588-1, NOORANADU-PADANILAM ROAD PADANILAM",0,ALAPUZHA,ALAPUZHA,KERALA
"FEDERAL BANK",FDRL0001867,680049037,KANJANI,"INDIRA ARCADE, ANTHIKAD ROAD KANJANI",0,THRISSUR,THRISSUR,KERALA
"FEDERAL BANK",FDRL0001866,395049004,PALSANA,"SHOP NOS 23 TO 31, GROUND FLOOR, RAJ COMPLEX PALSANA CHOKDI",0,PALSANA,SURAT,GUJARAT
"FEDERAL BANK",FDRL0001865,395049007,"SURAT/ VARACHA","SHOP NO.2, GROUND FLOOR,MANGALDEEP COMPLEX HIRABAUG CIRCLE, VARACHA",0,SURAT,SURAT,GUJARAT
"FEDERAL BANK",FDRL0001864,395049003,KADODARA,"CORPORATE HOUSE, NEAR BUS STAND SURAT-KADODARA ROAD, KADODRA",0,SURAT,SURAT,GUJARAT
"FEDERAL BANK",FDRL0001863,NA,CHETTIKULANGARA,"DHARSHANA SHOPPING COMPLEX, OPPOSITE VAYANASA CHETTIKULANGARA",2349401,ALAPUZHA,ALAPUZHA,KERALA
"FEDERAL BANK",FDRL0001862,695049029,"THIRUVANANTHAPURAM /CHALAI","SALMA COMPLEX, T C 39/459-1 TO 6, KOTHUVAL STREET, CHALAI P.O.,",0,THIRUVANANTHAPURAM,THIRUVANANTHAPURAM,KERALA
"FEDERAL BANK",FDRL0001861,690049004,CHERUTHANA,"SAMEENA BUILDING NEAR H.S.SCHOOL AYAPARAMBU CHERUTHANA,ALAPUZHA DISTRICT",0,CHERUTHANA,ALAPUZHA,KERALA
"FEDERAL BANK",FDRL0001860,690049003,CHEPPAD,"NAKKALAKKAL, CHEPPAD,",0,ALAPUZHA,ALAPUZHA,KERALA
"FEDERAL BANK",FDRL0001859,160049011,KHARAR,"DESU MAJRA, NH 21 SANT WARYAM SINGH NAGAR WARD NO. 4,KHARAR",0,MOHALI,MOGA,PUNJAB
"FEDERAL BANK",FDRL0001858,NA,"LUDHIANA / URBAN ESTATE","SCO 18, SECT 32A, URBAN ESTATE, CHANDIGARH ROAD,",0,LUDHIANA,LUDHIANA,PUNJAB
"FEDERAL BANK",FDRL0001857,NA,KALKA,"GROUND FLOOR SHOP NO.713,LOWER BAZAR, N H 22, KALKA PANCHKULA (DIST)",0,PANCHKULA,PANCHKULA,HARYANA
"FEDERAL BANK",FDRL0001856,NA,"CHANDIGARH /SECTOR 22 C","SCO 2471-72, SECTOR 22C",0,CHANDIGARH,CHANDIGARH,CHANDIGARH
"FEDERAL BANK",FDRL0001855,140049002,RUPNAGAR,"GROUND FLOOR SCO-40, BEANT SINGH AMAN NAGAR BELA ROAD RUPNAGAR, RUPNAGAR (DIST)",0,ROOPNAGAR,RUPNAGAR,PUNJAB
"FEDERAL BANK",FDRL0001854,NA,DERABASSI,"LOWER GROUND FLOOR, CHOPRA TOWER MAIN AMBALA-CHANDIGARH ROAD, DERABASSI MOHALI",0,MOHALI,CHANDIGARH,PUNJAB
"FEDERAL BANK",FDRL0001853,756049002,REMUNA,"REMUNA GOLAI, JANUGANJ, GANESWARPUR PO, BALASORE,",0,REMUNA,BALESHWAR,ODISHA
"FEDERAL BANK",FDRL0001852,756049503,SORO,"ANAM SHOPPING COMPLEX NEW CINEMA ROAD, BALASORE (DIST)",0,SORO,BALESHWAR,ODISHA
"FEDERAL BANK",FDRL0001851,828049002,CHIRKUNDA,"KUMAR DUBI, SARSA PAHARI BESIDE GURUNANAK MISSION SCHOOL",0,CHIRKUNDA,DHANBAD,JHARKHAND
"FEDERAL BANK",FDRL0001850,826049003,GOVINDPUR,"KHALSA COMPLEX, OPP. GOBINDPUR P.S G.T.ROAD, GOVINDPUR",0,DHANBAD,DHANBAD,JHARKHAND
"FEDERAL BANK",FDRL0001849,686049733,PAMPAKUDA,"OOTHUKUZHIYIL BUILDINGS PALLITHAZHAM JUNCTION",0,PAMPAKUDA,ERNAKULAM,KERALA
"FEDERAL BANK",FDRL0001848,NA,WADI,"SHOP NO 5,6,7 & 8 ,TOWER 6, LAKE VIEW ENCLAVE ATOMIC ENERGY ROAD, AMRAVATI ROAD, WADI",0,NAGPUR,NAGPUR,MAHARASHTRA
"FEDERAL BANK",FDRL0001847,395049006,KAMREJ,"SHOP NO# 30,31,GROUND FLOOR,SHRUSHTI COMPLEX, NH 8, KAMREJ,CHARRASTA",0,SURAT,CHARRASTA,GUJARAT
"FEDERAL BANK",FDRL0001846,380049003,SANAND,"NO 31, 32 GROUND FLOOR , OPP KALUPUR BANK SANAND VIRAMGAM HIGH WAY,SANAND",0,AHMEDABAD,AHMEDABAD,GUJARAT
"FEDERAL BANK",FDRL0001845,110049026,"NEW DELHI / PATEL NAGAR","1/6, OPPOSITE METRO PILLAR NO-178 EAST PATEL NAGAR, PATEL ROAD",0,"NEW DELHI","NEW DELHI",DELHI
"FEDERAL BANK",FDRL0001844,685049006,"THODUPUZHA / MANGATTUKAVALA","KUNNAPPILLIL BUILDING THODUPUZHA EAST P O",0,IDUKKI,IDUKKI,KERALA
"FEDERAL BANK",FDRL0001843,NA,"HYDERABAD BANJARA HILLS","NO.8-293/82/564-A43, PRASANTHI, ROAD NO.92, BANJARA HILLS,",0,HYDERABAD,HYDERABAD,"ANDHRA PRADESH"
"FEDERAL BANK",FDRL0001842,682049060,ELENTHIKKARA,"MALIAKAL BUILDINGS NEAR ELENTHIKKARA JN ELENTHIKKARA MALA ROAD",0,ELENTHIKKARA,ERNAKULAM,KERALA
"FEDERAL BANK",FDRL0001841,682049058,MUPPATHADAM,"BLDG NO V/264B, MUPPATHADAM JN MUPPATHADAM,",0,ERNAKULAM,ERNAKULAM,KERALA
"FEDERAL BANK",FDRL0001840,NA,PALLICKATHODU,"BLDG NO 176/ B, VELLAPALLY BUILDINGS, PALA ROAD, PALLICKATHODU",0,KOTTAYAM,KOTTAYAM,KERALA
"FEDERAL BANK",FDRL0001839,673049021,"KOZHIKODE / KALLAI ROAD","N V TOWER, KALLAI ROAD,",0,KOZHIKODE,KOZHIKODE,KERALA
"FEDERAL BANK",FDRL0001838,600049025,THIRUVALLUR,"47, D S R VISHNU PLAZA, J N ROAD,",0,THIRUVALLUR,THIRUVALLUR,"TAMIL NADU"
"FEDERAL BANK",FDRL0001837,680049043,"CHALAKUDI NORTH","CHAKKALAMATTATTAH TOWER , CCMK  JUNCTION CHALAKUDY",0,THRISSUR,THRISSUR,KERALA
"FEDERAL BANK",FDRL0001836,400049035,"MUMBAI/MALAD WEST","SHOP NOS.1& 2,GRND FLOOR,LINK HOUSE,GOREGAON MALAD LINK ROAD,CHINCHOLI BUNDER,MALAD WEST",0,MUMBAI,"MUMBAI SUBURBAN",MAHARASHTRA
"FEDERAL BANK",FDRL0001835,685049816,VANNAPPURAM,"RESHMI ARCADE VANNAPPURAM",0,VANNAPPURAM,IDUKKI,KERALA
"FEDERAL BANK",FDRL0001834,620049003,TIRUVERUMBUR,"NO.27, NO.51/1 B2, KUMARAN NAGAR THIRUVERUMBUR",0,TIRUCHIRAPALLY,TIRUCHIRAPALLY,"TAMIL NADU"
"FEDERAL BANK",FDRL0001833,632049102,RANIPET,"NO.136,SKT COMPLEX, MBT ROAD MUTHUKADAI",0,RANIPET,VELLORE,"TAMIL NADU"
"FEDERAL BANK",FDRL0001832,NA,"JAIPUR / MALVIYA NAGAR","40,41  MOJI  COLONY, KAILGIRI ROAD, MALVIYA NAGAR",0,JAIPUR,JAIPUR,RAJASTHAN
"FEDERAL BANK",FDRL0001831,NA,"JAIPUR/ VIDHYADHAR NAGAR","GROUND FLOOR, SUN N MOON,MAIN SIKAR ROAD, VIDHYADHAR NAGAR",0,JAIPUR,JAIPUR,RAJASTHAN
"FEDERAL BANK",FDRL0001830,403049006,PORVORIM,"GROUND FLOOR, COSTA COSME NUCLEUS NH17, OPPOSITE TO HOLY FAMILY CHURCH, BARDEZ",0,PORVORIM,GOA,GOA
"FEDERAL BANK",FDRL0001829,400049034,"MUMBAI ANDHERI EAST","GF,MARIAM APMT,PLOT NO.36,OPP.GURUDWARA,SHER- E PUNJAB SOC.,MAHAKALI CAVES ROAD,ANDHERI -E",0,MUMBAI,"MUMBAI SUBURBAN",MAHARASHTRA
"FEDERAL BANK",FDRL0001828,396049091,BILIMORA,"GROUND FLOOR,  LABDHI SQUARE, OPP. HONEST TRADING CO., GOHARBAUG, NAVSARI DIST",0,BILIMORA,NAVSARI,GUJARAT
"FEDERAL BANK",FDRL0001827,560049023,"BANGALORE J P NAGAR","U.D.N.ALTIUS,NO.13,15TH CROSS,100 FT. RING ROAD,J.P.NAGAR,6TH PHASE,",0,BANGALORE,BANGALORE,KARNATAKA
"FEDERAL BANK",FDRL0001826,500049014,"HYDERABAD / MALAKPET","D.NO 16-11-20/6/6/1/1, BESIDE MARUTHI SHOW ROOM,  GAFOOR BAGH, SALEEM NAGAR COLONY",0,HYDERABAD,HYDERABAD,"ANDHRA PRADESH"
"FEDERAL BANK",FDRL0001825,680049034,"THRISSUR OLLUR","ARACKAL TOWERS CHRISTOPHER NAGAR, OLLUR",0,THRISSUR,THRISSUR,KERALA
"FEDERAL BANK",FDRL0001824,683049054,VENGOLA,"GUARDIAN ANGEL CARE CHARITABLE SOCIETY BEDSEDA ,  ARAKKAPADI VILLAGE, ERNAKULAM DIST",2592332,VENGOLA,ERNAKULAM,KERALA
"FEDERAL BANK",FDRL0001823,686049011,THELLAKOM,"CHEMBOLA COMPLEX , CARITAS , THELLAKOM P O , ATHIRAMPUZHA VILLAGE",0,KOTTAYAM,KOTTAYAM,KERALA
"FEDERAL BANK",FDRL0001822,683049004,KARAYAMPARAMBU,"NH-47,  KARAYAMPARAMBU JUNCTION, KARUKUTTY P O",0,KARAYAMPARAMBU,ERNAKULAM,KERALA
"FEDERAL BANK",FDRL0001821,781049004,"GUWAHATI / BELTOLA","52, DR. B.N.SAIKIA ROAD, BELTOLA SURVEY,",0,GUWAHATI,GUWAHATI,ASSAM
"FEDERAL BANK",FDRL0001820,110049031,"NEWDELHI / KIRTI NAGAR","B-4, TAGORE MARKET, KIRTI NAGAR,",0,"NEW DELHI","NEW DELHI",DELHI
"FEDERAL BANK",FDRL0001819,411049012,PUNE/BIBVEWADI,"UNIT NO 3 UPPER GRND FLOOR CRU MALL S NO 588/ MAIN GANGADHAM ROAD OPP GAGAN VIHAR COLONY",0,PUNE,PUNE,MAHARASHTRA
"FEDERAL BANK",FDRL0001818,411049013,"PUNE/PIMPLE SAUDAGAR","SHOP NO 1 GROUND FLOOR PRIME SQUARE S NO 125/5 ANUDH ANNEXE",0,PUNE,PUNE,MAHARASHTRA
"FEDERAL BANK",FDRL0001817,600049024,ORAGADAM,"TEMPLE GREEN PLAZA,SINGAPERUMAL, SRIPERUMBUDUR ROAD,MATHUR",0,ORAGADAM,KANCHEEPURAM,"TAMIL NADU"
"FEDERAL BANK",FDRL0001816,636049007,KONGANAPURAM,"NO.2/1/58A, OMALUR MAIN ROAD KONGANAPURAM",0,SALEM,SALEM,"TAMIL NADU"
"FEDERAL BANK",FDRL0001815,641049010,KUNIYAMUTHUR,"510/11, PALAKKAD MAIN ROAD, KUNIYAMUTHUR",0,COIMBATORE,COIMBATORE,"TAMIL NADU"
"FEDERAL BANK",FDRL0001814,641049104,"TIRUPPUR/ AVINASHI ROAD","NO.247, AVINASHI ROAD NEAR BUNGALOW STOP",0,TIRUPUR,TIRUPUR,"TAMIL NADU"
"FEDERAL BANK",FDRL0001813,636049009,MECHERI,"DOOR NO 11/5-29B,P.B COMPLEX,ANGAMUTHU GOUNDE NAGAR,METTUR MAIN ROAD,MECHERI",0,SALEM,SALEM,"TAMIL NADU"
"FEDERAL BANK",FDRL0001812,110049027,MANESAR,"SHOP NO 48  , GROUND FLOOR, AMRAPALI TOWER J SECTOR - 2, MANESAR",0,GURGAON,GURGAON,HARYANA
"FEDERAL BANK",FDRL0001811,638049402,SATHYAMANGALAM,"NO.347, GOBI MAIN ROAD ERODE DIST.",0,SATHYAMANGALAM,ERODE,"TAMIL NADU"
"FEDERAL BANK",FDRL0001810,NA,"VADODARA WAGHODIA ROAD","SHOP NOS 1 TO 6,GROUND FLOOR,SUNRISE COMPLEX, NEAR VRUNDAVAN CROSSING,WAGODIYA ROAD",0,BARODA,BARODA,GUJARAT
"FEDERAL BANK",FDRL0001809,390049003,"VADODARA SAMA","GROUND FLOOR,VISMAY,GIPCL CIRCLE,SAMA VADODARA",0,BARODA,BARODA,GUJARAT
"FEDERAL BANK",FDRL0001808,379049051,BHUJ,"K D  CHAMBERS, GR FLOOR, OPP. ALFRED HIGH SCHOOL, KUTCH DIST",0,BHUJ,KUTCH,GUJARAT
"FEDERAL BANK",FDRL0001807,370049001,GANDHIDHAM,"SHOP NOS. 3 TO 8, GR. FLOOR , KAILASH - MANAS BUILDING, PLOT NO 340, WARD NO 12B,KUTCH DIST",0,GANDHIDHAM,KUTCH,GUJARAT
"FEDERAL BANK",FDRL0001806,390049005,"VADODARA/ MAKARPURA","SHOP NOS. 8 TO 13, GR. FLR.PARTH AVENUE, OPP. RUTURAJ COMPLEX, MANJALPUR",0,VADODARA,VADODARA,GUJARAT
"FEDERAL BANK",FDRL0001805,400049032,MUMBAI/GHATKOPAR,"SHOP NOS.1 & 2,GROUND FLOOR,TRIKAL CHS LTD BLDG NO.310,90 FEET ROAD,GHATKOPAR EAST",0,MUMBAI,"MUMBAI SUBURBAN",MAHARASHTRA
"FEDERAL BANK",FDRL0001804,NA,VELLAKOVIL,"43,T.C.MAIN ROAD,VELLAKOIL ERODE",0,VELLAKOVIL,ERODE,"TAMIL NADU"
"FEDERAL BANK",FDRL0001803,638049003,PERUNDURAI,"S.NO: 509/9B,  COIMBATORE MAIN ROAD ERODE, TAMILNADU",0,PERUNDURAI,ERODE,"TAMIL NADU"
"FEDERAL BANK",FDRL0001802,641049007,"COIMBATORE-SAIBABA COLONY","S.NO 12/158PT, S F NO 391/1,  N.S.R. ROAD, SANGANUR VILLAGE, SAIBABA COLONY",0,COIMBATORE,COIMBATORE,"TAMIL NADU"
"FEDERAL BANK",FDRL0001801,NA,SHAPER-VERAVAL,"SHOP NOS.1,2,3,4,59,60,61&62,IST FLOOR, SHAPHIRE TOWER,NEAR SHAPAR BUS STOP,NH-8B",0,RAJKOT,RAJKOT,GUJARAT
"FEDERAL BANK",FDRL0001800,380049005,"AHMEDABAD-SATELLITE(NEAR ISRO)","SIGMA ICON II, UNITS 1&2,132 FT.,RING ROAD, SHYAMAL CROSS,SATELLITE,",0,AHMEDABAD,AHMEDABAD,GUJARAT
"FEDERAL BANK",FDRL0001799,380049004,"AHMEDABAD-IITCHANDKHEDA AREA","GROUND FLOOR SUN SQUARE,NEAR DEV BUSINESS HUB VISAT-GANDHI NAGAR HIGHWAY, MOTERA,CHANDKHEDA",0,AHMEDABAD,AHMEDABAD,GUJARAT
"FEDERAL BANK",FDRL0001798,NA,SURAT-ADAJAN,"SHOP NO 1 & 2, GF, RIDDHI SHOPPERS, OPP. IMPERIAL SQUARE, ADJAN HAZIRA ROAD , ADJAN",0,SURAT,SURAT,GUJARAT
"FEDERAL BANK",FDRL0001797,NA,NAMAKKAL,"74, RANGAR SANNATHI STREET,SENDAMANGALAM MAIN ROAD",0,NAMAKKAL,NAMAKKAL,"TAMIL NADU"
"FEDERAL BANK",FDRL0001796,673049804,PADINJARATHARA,"DIMA COMPLEX MAIN ROAD, WYANAD",0,PADINJARATHARA,WAYANAD,KERALA
"FEDERAL BANK",FDRL0001795,686049055,KURISUMMOODU,"XII/18A, MARETTE BUILDING, CHETHIPUZHA VILLAGE, KURISUMMOODU , KOTTAYAM DISTRICT",0,CHANGANASSERY,KOTTAYAM,KERALA
"FEDERAL BANK",FDRL0001794,636049005,"ATTIYAM PATTI","1 /500, RASIPURAM MAIN ROAD, S. PAPPAARAPATTI SALEM",0,"ATTIYAM PATTI",SALEM,"TAMIL NADU"
"FEDERAL BANK",FDRL0001793,NA,KARUVEPPAMPATTI,"S NO 323/2, SANKARI - TIRUCHENGODE HIGHWAY NAMAKKAL DISTRICT",0,KARUVEPPAMPATTI,NAMAKKAL,"TAMIL NADU"
"FEDERAL BANK",FDRL0001792,NA,KANGEYAM,"S NO 432/7  TIRUPPUR ROAD TIRUPPUR",0,KANGEYAM,TIRUPUR,"TAMIL NADU"
"FEDERAL BANK",FDRL0001791,641049009,VADAVALLI,"SF 114/1,SITE NO.26-22 PART I MARUTHAMALAI MAIN ROAD",0,VADAVALLI,COIMBATORE,"TAMIL NADU"
"FEDERAL BANK",FDRL0001790,641049008,SARAVANAMPATTI,"3-B, SATHY MAIN ROAD NEAR KALAPATTI PIRIVU",0,SARAVANAMPATTI,COIMBATORE,"TAMIL NADU"
"FEDERAL BANK",FDRL0001789,641049103,PALLADAM,"SF 388/3, CHETTIPALAYAM ROAD, PALLADAM, TIRUPUR DISTRICT",0,PALLADAM,TIRUPUR,"TAMIL NADU"
"FEDERAL BANK",FDRL0001788,627049006,THISAYANVILAI,"474-GANDHIJI MAIN ROAD TIRUNELVELI DIST",0,THISAYANVILAI,TIRUNELVELI,"TAMIL NADU"
"FEDERAL BANK",FDRL0001787,638049004,"KALINGARAYAN PALAYAM","5/72, PRANAVA LINGAM ENCLAVE BHAVANI MAIN ROAD",0,ERODE,ERODE,"TAMIL NADU"
"FEDERAL BANK",FDRL0001786,411049011,CHAKAN-NANEKARWADI,"CHAKAN, HRISHIKESH CHAMBERS,  SHIVAJI CHOWK CHAKAN TALEGAON ROAD  , CHAKAN",0,PUNE,PUNE,MAHARASHTRA
"FEDERAL BANK",FDRL0001785,411049010,"PUNE - PHURSUNGI","DESHMUKH ESTATES, OPP. INFOCITY , PUNE SASWAD ROAD, PHURSUNGI",0,PUNE,PUNE,MAHARASHTRA
"FEDERAL BANK",FDRL0001784,670049005,CHAKKARAKKAL,"AMBADY BUILDINGS, THALASSERY ROAD MOWANCHERY P O, KANNUR",0,CHAKKARAKKAL,KANNUR,KERALA
"FEDERAL BANK",FDRL0001783,686049303,RAMAPURAM,"MAMPARAMPIL TOWERS, PALA ROAD RAMAPURAM BAZAR P O, KOTTAYAM DIST",0,RAMAPURAM,KOTTAYAM,KERALA
"FEDERAL BANK",FDRL0001782,NA,"RAJKOT BHAKTI NAGAR","GF,UNIT NO.2C,SHIVALIK-5 GONDAL ROAD,BHAKTI NAGAR",0,RAJKOT,RAJKOT,GUJARAT
"FEDERAL BANK",FDRL0001781,560049026,"BANGALORE / BANASHANKARI","SUDHAMA, NO.299, 100 FEET RING ROAD, 4TH PHASE, 7TH BLOCK, BANASHANKARI 3RD STAGE,",0,BANGALORE,BANGALORE,KARNATAKA
"FEDERAL BANK",FDRL0001780,NA,KOTHANALLOOR,"JOHN K ANTONY ARCADE, ETTUMANOOR ERNAKULAM ROAD, KOTHANALLOOR P.O.",0,KOTTAYAM,KOTTAYAM,KERALA
"FEDERAL BANK",FDRL0001779,793049003,SHILLONG/LAITUMKHRAH,"BEAT HOUSE , LAITUMKHRAH",0,SHILLONG,"EAST KHASI HILLS",MEGHALAYA
"FEDERAL BANK",FDRL0001778,NA,"RAJKOT KALAWAD ROAD","KINGS BUILDING, OPP. KARNATAKA BANK IN MANGAL BUILDING, KALAWAD ROAD,",0,RAJKOT,RAJKOT,GUJARAT
"FEDERAL BANK",FDRL0001777,NA,"RAJKOT BHUPENDRA ROAD","RAJKOT BHUPENDRA ROAD, SHOP NO.13 & C, GROUND MONARCH, BHUPENDRA ROAD, OPP.RAJASHREE CINEMA",0,RAJKOT,RAJKOT,GUJARAT
"FEDERAL BANK",FDRL0001776,686049015,KUMARAKAM,"ILLIKALAM BUILDINGS KUMARAKAM",0,KOTTAYAM,KOTTAYAM,KERALA
"FEDERAL BANK",FDRL0001775,400049033,"THANE LOUISWADI","SHOP NO: 7 & 8, SUN MAGNETICA SERVICE ROAD, NR LIC BUILDING ,THANE (W)",0,MUMBAI,THANE,MAHARASHTRA
"FEDERAL BANK",FDRL0001774,796049002,AIZAWL,"B/8, MAIN ROAD  NEAR TRAFFIC POINT CANDMARI",0,AIZAWL,AIZAWL,MIZORAM
"FEDERAL BANK",FDRL0001773,673049019,PAYYOLI,"SUNSHINE COMPLEX, OPP. TELEHONE EXCHANGE PAYYOLI P. O, KOZHIKODE DIST",0,PAYYOLI,KOZHIKODE,KERALA
"FEDERAL BANK",FDRL0001772,686049204,OONNUKAL(ERNAKULAM),"KAKKADASSERIL BUILDING ERNAKULAM DIST",0,OONNUKAL,ERNAKULAM,KERALA
"FEDERAL BANK",FDRL0001771,673049253,MEENANGADI,"M P 12/983, P B M BUILDING WAYANAD",0,MEENANGADI,WAYANAD,KERALA
"FEDERAL BANK",FDRL0001770,575049003,MANGALORE-KANKANADY,"GROUND FLOOR, PRESIDENCY VINTAGE, KANKANADY JUNCTION",0,MANGALORE,MANGALORE,KARNATAKA
"FEDERAL BANK",FDRL0001769,560049024,"BANGALORE-HSR LAYOUT","NO.19, 15TH CROSS, 15TH MAIN, SECTOR IV HSR LAYOUT",0,BANGALORE,BANGALORE,KARNATAKA
"FEDERAL BANK",FDRL0001768,686049010,MANARCADU,"MANATHALA ISONS ARCADE, MANARCADU P.O PERUMANOORKULAM, KOTTAYAM",0,MANARCADU,KOTTAYAM,KERALA
"FEDERAL BANK",FDRL0001767,411049009,"PUNE - SHIVANE","GROUND FLOOR,HARI VITHAL PLAZA SURVEY NO 14/1A,SHIVANE PO,HAVELI TALUK",0,PUNE,PUNE,MAHARASHTRA
"FEDERAL BANK",FDRL0001766,695049254,NADAYARA,"KALLUVILAKAM BUILDING, VARKALA P O CHEMMARUTHY VILLAGE, NADAYARA, TVM DIST",0,NADAYARA,THIRUVANANTHAPURAM,KERALA
"FEDERAL BANK",FDRL0001765,690049809,VENMONY,"BLDG NO.VP/1/88,NEAR MARTHOMA HIGHER SEC. SCHOOL,KALLIYATHARA JUNCTION, ALAPUZHA DIST.",0,VENMONY,ALAPUZHA,KERALA
"FEDERAL BANK",FDRL0001764,678049052,ALATHUR,"A R MALL, SWATI NAGAR, COURT ROAD ALATHUR, PALAKKAD DIST",0,ALATHUR,PALAKKAD,KERALA
"FEDERAL BANK",FDRL0001763,NA,"BANGALORE / ASSET RECOVERY","NO.4, 2ND CROSS, CSI COMPOUND MISSION ROAD",0,BANGALORE,BANGALORE,KARNATAKA
"FEDERAL BANK",FDRL0001762,683049805,"THURUTHY- VENGOOR WEST","ESHEL COMPLEX BUILDING,VENGOOR WEST THURUTHY PO , EKM DIST",0,"THURUTHY- VENGOOR WEST",ERNAKULAM,KERALA
"FEDERAL BANK",FDRL0001761,691049006,THRIKKADAVOOR,"GOWRI SANKAR HOSPITAL BUILDING OPP: HOTEL LAKE PALACE, PERINADU PO",0,KOLLAM,KOLLAM,KERALA
"FEDERAL BANK",FDRL0001760,180049001,JAMMU,"PLOT NO.63, SECTOR B, BLOCK D, GANDHI NAGAR EXTN",0,JAMMU,JAMMU,"JAMMU AND KASHMIR"
"FEDERAL BANK",FDRL0001759,313049002,"UDAIPUR/HIRAN MAGRI SECTOR 14","PLOT NO.1, SHOPPING CENTRE, 100 FEET ROAD SECTOR14 OF HIRAN MAGRI.RAJASTHAN STATE",0,UDAIPUR,UDAIPUR,RAJASTHAN
"FEDERAL BANK",FDRL0001758,400049031,NERUL,"GROUND FLOOR, CENTURION SHOPPING & OFFICE COMPLEX, PLOT NO.88TO91, SECTOR 19A, NERUL(E)",0,MUMBAI,THANE,MAHARASHTRA
"FEDERAL BANK",FDRL0001757,400049030,AIROLI,"SHOP NO. F-21, 1ST FLOOR, RIPPLEZ MALL, PLOT SECTOR-7, AIROLI ,NAVI MUMBAI",0,MUMBAI,THANE,MAHARASHTRA
"FEDERAL BANK",FDRL0001756,NA,WARANGAL,"11-25-131, SSS PLAZA, M G ROAD",0,WARANGAL,WARANGAL,"ANDHRA PRADESH"
"FEDERAL BANK",FDRL0001755,400049029,BADLAPUR,"SHOP NO.S1,2,3 & 5, GROUND FLOOR,PRIYA MANAY APARTMENTS, KATRAP ROAD, BADLAPUR EAST,THANE",0,BADLAPUR,THANE,MAHARASHTRA
"FEDERAL BANK",FDRL0001754,NA,"INFOPARK KORATTY EXTN COUNTER","INFOPARK, NALUKETTU ROAD THRISSUR DIST",0,KORATTY,THRISSUR,KERALA
"FEDERAL BANK",FDRL0001753,682049052,"S H COLLEGE THEVARA EXTN COUNT","SACRED HEART COLLEGE , THEVARA KOCHI",0,ERNAKULAM,ERNAKULAM,KERALA
"FEDERAL BANK",FDRL0001752,680049032,KOLAZHY,"MAIN ROAD THRISSUR DIST",0,KOLAZHY,THRISSUR,KERALA
"FEDERAL BANK",FDRL0001751,688049053,"CHERTHALA SOUTH","132/8, NSS KARAYOGAM BLDG, AREEPARAMPU CHERTHALA SOUTH PO , ALLEPPEY DIST",0,CHERTHALA,ALAPUZHA,KERALA
"FEDERAL BANK",FDRL0001750,400049028,KHARGHAR,"SHOP NOS.4, 5 & 6, GROUND FLOOR, ANANT PLOT NO.31, SECTOR 4, NAVI MUMBAI",0,KHARGHAR,RAIGAD,MAHARASHTRA
"FEDERAL BANK",FDRL0001749,682049057,KARUMALLOOR,"KARUMALLOOR,NSS KARAYOGAM SHOPPING COMPLEX THATTAMPADY,  KARUMALLOOR PO,  PARUR TALUK",0,KARUMALLOOR,ERNAKULAM,KERALA
"FEDERAL BANK",FDRL0001748,627049004,SURANDAI,"NO.14 -1 -252, AZHAGAPURIPATTANAM, NEAR ALAGU PARVATHI AMMAN TEMPLE TIRUNELVELI ROAD",0,SURANDAI,TIRUNELVALI,"TAMIL NADU"
"FEDERAL BANK",FDRL0001747,627049005,SENGOTTAI,"NO.16/30, MELARATHA VEETHI SENGOTTAI POST, TIRUNELVELI DISTRICT",0,SENGOTTAI,TIRUNELVELI,"TAMIL NADU"
"FEDERAL BANK",FDRL0001746,685049815,RAJAKKAD,"PATHIPPALLIL BUILDING, MAIN ROAD RAJAKKAD, IDUKKI DIST",0,RAJAKKAD,IDUKKI,KERALA
"FEDERAL BANK",FDRL0001745,695049037,VATTAPPARA,"ROSE BUILDING MARUTHOOR",0,VATTAPPARA,THIRUVANANTHAPURAM,KERALA
"FEDERAL BANK",FDRL0001744,673049017,ENGAPUZHA,"9/240 A & B, GROUND FLOOR PUDUPADY",0,ENGAPUZHA,KOZHIKODE,KERALA
"FEDERAL BANK",FDRL0001743,683049053,"PERUMBAVOOR/ MC ROAD","BUILDING NO.VI/372 A, 3&4, M C ROAD PERUMBAVOOR P O, ERNAKULAM DIST",0,PERUMBAVOOR,ERNAKULAM,KERALA
"FEDERAL BANK",FDRL0001742,625049202,PERIAKULAM,"DOOR NO.60/18, GROUND FLOOR, BAZAAR STREET RASTHA , THENKARAI",0,PERIAKULAM,THENI,"TAMIL NADU"
"FEDERAL BANK",FDRL0001741,626049402,SATTUR,"BLDG NO. 40, GROUND FLOOR, NEW COLONY OPP. FIRE SERVICE STATION, SATTUR  PO",0,SATTUR,VIRUDHUNAGAR,"TAMIL NADU"
"FEDERAL BANK",FDRL0001740,691049104,PUTHOOR,"BUILDING NO.552, WARD 1, NEDUVATHOOR VILLAGE KOTTARAKKARA",0,PUTHOOR,KOLLAM,KERALA
"FEDERAL BANK",FDRL0001739,691049203,KUZHIMATHICADU,"KP-XVII 297 B, C , D KOTTARAKKARA",0,KUZHIMATHICADU,KOLLAM,KERALA
"FEDERAL BANK",FDRL0001738,NA,"ANGAMALY SOUTH","1 ST FLOOR , EMJAY BUILDING RAILWAY STATION JUNCTION, ERNAKULAM DIST",0,ANGAMALY,ERNAKULAM,KERALA
"FEDERAL BANK",FDRL0001737,691049105,THALAVOOR,"SIBU BLDG , RANDALUMMOOD KOLLAM DIST",0,THALAVOOR,KOLLAM,KERALA
"FEDERAL BANK",FDRL0001736,695049023,KANIYAPURAM,"AP - 11/452, SHIFA, ALUMMOODU JN THIRUVANATHAPURAM DIST",0,KANIYAPURAM,THIRUVANANTHAPURAM,KERALA
"FEDERAL BANK",FDRL0001735,695049025,KALLARA,"1 ST FLOOR, P M PLAZA, OPP.KALLARA VHSS THIRUVANATHAPURAM DIST",0,KALLARA,THIRUVANANTHAPURAM,KERALA
"FEDERAL BANK",FDRL0001734,695049024,KALLAMBALAM,"NEAR JAGEE AUDITORIUM, N H MAIN ROAD THIRUVANATHAPURAM DIST",0,KALLAMBALAM,THIRUVANANTHAPURAM,KERALA
"FEDERAL BANK",FDRL0001733,695049022,BALARAMAPURAM,"BP 617, KATTAKADA ROAD, THIRUVANATHAPURAM DIST",0,BALARAMAPURAM,THIRUVANANTHAPURAM,KERALA
"FEDERAL BANK",FDRL0001732,690049252,OACHIRA,"BLDG NO.OP II/478, 479, 480, ADJ TO HOTEL ROYALE REGENCY, KOLLAM DIST",0,OACHIRA,KOLLAM,KERALA
"FEDERAL BANK",FDRL0001731,691049106,AYUR,"OPPO. IOC PETROL PUMP, AMBADI BUILDING, AYUR PO, KOLLAM DIST.",0,AYUR,KOLLAM,KERALA
"FEDERAL BANK",FDRL0001730,695049026,VITHURA,"GF, MUTHOOTTU ROYAL SQUARE, KALUNGU JN, THIRUVANATHAPURAM DIST",0,VITHURA,THIRUVANANTHAPURAM,KERALA
"FEDERAL BANK",FDRL0001729,NA,OTHERA,"ALTHARA JUNCTION PATHANAMTHITTA DIST",0,OTHERA,PATHANAMTHITTA,KERALA
"FEDERAL BANK",FDRL0001728,691049204,NEDUMONKAVU,"GEETHANJALI, VANCHIMUKKU KOLLAM DIST",0,NEDUMONKAVU,KOLLAM,KERALA
"FEDERAL BANK",FDRL0001727,690049808,KAMBISSERY,"V/561, FIRST FLOOR, RAJADHANI COMPLEX KAMBISSERY JN, VALLIKUNNAM, ALLEPPEY DIST",0,KAMBISSERY,ALAPUZHA,KERALA
"FEDERAL BANK",FDRL0001726,682049051,CHERAI,"PUNNAKAYIL HOUSE, DEVASWOM NADA, CHERAI, ERNAKULAM DIST",0,CHERAI,ERNAKULAM,KERALA
"FEDERAL BANK",FDRL0001725,682049053,UDAYAMPEROOR,"GROUND FLOOR, PUTHENPURACKEL ARCADE, ERNAKULAM DIST",0,UDAYAMPEROOR,ERNAKULAM,KERALA
"FEDERAL BANK",FDRL0001724,682049048,PUKKATTUPADY,"KEERAMKUZHY BUILDING EDATHALA P O, ERNAKULAM DIST",0,PUKKATTUPADY,ERNAKULAM,KERALA
"FEDERAL BANK",FDRL0001723,690049154,PUNNAMOOD,"PUTHENPARAMBIL BUILDING, XIII/3845, LAHA JUNCTION, MAVELIKKARA , ALLEPPEY DIST",0,PUNNAMOOD,ALAPUZHA,KERALA
"FEDERAL BANK",FDRL0001722,686049726,KARUKACHAL,"NADUVILEDATHU ARCADE, MERCY HOSPITAL ROAD  KOTTAYAM DIST",0,KARUKACHAL,KOTTAYAM,KERALA
"FEDERAL BANK",FDRL0001721,689049053,KALLISSERRY,"VIII/521/14, M C ROAD ALAPPUZHA DSIT",0,KALLISSERRY,ALAPUZHA,KERALA
"FEDERAL BANK",FDRL0001720,NA,KURATHIKAD,"KAVILAYIL BUILDING THEKKEKKARA P O, ALAPPUZHA DIST",0,KURATHIKAD,ALAPUZHA,KERALA
"FEDERAL BANK",FDRL0001719,680049204,"IRINJALAKUDA / NADA","MENON ANNEX, PATTAMALI ROAD THRISSUR DIST. IFS CODE FDRL0001719",0,IRINJALAKUDA,THRISSUR,KERALA
"FEDERAL BANK",FDRL0001718,686049353,NEENDOOR,"KALLADANTHYIL BUILDING NEENDOOR PO , KOTTAYAM DIST",0,NEENDOOR,KOTTAYAM,KERALA
"FEDERAL BANK",FDRL0001717,685049004,KARIMKUNNAM,"THODUPUZHA - PALA ROAD, KARIMKUNNAM P.O.,IDUKKI DIST.",0,KARIMKUNNAM,IDUKKI,KERALA
"FEDERAL BANK",FDRL0001716,NA,KARIMANNOOR,"THOTTUPATTU BUILDINGS, II/566  KARIMANNOOR P.O, IDUKKI DIST.",0,KARIMANNOOR,IDUKKI,KERALA
"FEDERAL BANK",FDRL0001715,686049007,KALATHIPADY,"KODATH ARCADE, BUILDING NO.XI/114A VADAVATHOOR P O KOTTAYAM",0,KALATHIPADY,KOTTAYAM,KERALA
"FEDERAL BANK",FDRL0001714,682049045,"HORMIS NAGAR ( MOOKKANNOOR )","XI/250, HORMIS NAGAR MOOKKANNOOR P O",0,"HORMIS NAGAR (MOOKKANNOOR)",ERNAKULAM,KERALA
"FEDERAL BANK",FDRL0001713,NA,THENGANA,"BUILDING NO.1/265F, CHANGANACHERRY-VAZHOOR RO PERUMPANACHY P O, CHANGANACHERRY",0,THENGANA,KOTTAYAM,KERALA
"FEDERAL BANK",FDRL0001712,NA,CHENNITHALA,"MOONNAMVILAYIL BUILDING ALAPUZHA DIST.",0,CHENNITHALA,CHENNITHALA,KERALA
"FEDERAL BANK",FDRL0001711,670049810,ALAKODE,"NJAVALLIL SHOPPING COMPLEX ALAKODE POST, KANNUR DIST",0,ALAKODE,ALAPUZHA,KERALA
"FEDERAL BANK",FDRL0001710,673049015,ATHOLI,"STAR MANSION, ATHOLI ATHANI KOZHIKODE DIST",0,ATHOLI,KOZHIKODE,KERALA
"FEDERAL BANK",FDRL0001709,670049811,PERAVOOR,"V/523 A TO K, KK PLAZA NEDUMPOIL ROAD, KANNUR DIST",0,PERAVOOR,KANNUR,KERALA
"FEDERAL BANK",FDRL0001708,680049031,POTTA,"LITTLE FLOWER  COMPLEX CHALAKKUDI, THRISSUR DIST",0,POTTA,ERNAKULAM,KERALA
"FEDERAL BANK",FDRL0001707,680049030,KODAKARA,"BUILDING NO.137, NEAR SHANTI HOSPITAL, THRISSUR DIST",0,KODAKARA,THRISSUR,KERALA
"FEDERAL BANK",FDRL0001706,679049813,MARANCHERRY,"THANNIR PANDAL BUILDING MARANCHERY  P O, MALAPPURAM DIST",0,MARANCHERRY,MALAPPURAM,KERALA
"FEDERAL BANK",FDRL0001705,679049814,THRITHALA,"V K ROAD,THRITHALA PALAKKAD DIST",0,THRITHALA,PALAKKAD,KERALA
"FEDERAL BANK",FDRL0001704,680049029,AMBALLUR,"BUILDING NO.508, PUDUKKAD PO MERRY LAND COMPLEX. THRISSUR DIST",0,AMBALLUR,THRISSUR,KERALA
"FEDERAL BANK",FDRL0001703,680049028,ANNAMANADA,"KRISHNA MENON SQUARE, OPP PRIVATE BUS STAND THRISSUR DIST",0,ANNAMANADA,THRISSUR,KERALA
"FEDERAL BANK",FDRL0001702,679049253,SREEKRISHNAPURAM,"GROUND FLOOR, BLDG. NO.946&947, WARD NO.10, SOCIETYPADY, PALAKKAD DIST.",0,SREEKRISHNAPURAM,PALAKKAD,KERALA
"FEDERAL BANK",FDRL0001701,679049810,POOKKOTTUMPADAM,"THE FEDERAL BANK LTD, SUNCITY BUILDING POOKKOTTUMPADAM, MALAPPURAM DT",0,POOKKOTTUMPADAM,MALAPPURAM,KERALA
"FEDERAL BANK",FDRL0001700,680049027,KODALY,"CHILAMBUTHSSERY C C TOWERS P O PADY, THRISSUR DIST",0,KODALY,THRISSUR,KERALA
"FEDERAL BANK",FDRL0001699,680049026,CHERUTHURUTHY,"GROUND FLOOR, KONIKKAL COMPLEX CHUNGAM JUNCTION, CHERUTHURUTHY",0,CHERUTHURUTHY,THRISSUR,KERALA
"FEDERAL BANK",FDRL0001698,680049025,PAVARATTY,"MARY MATHA COMPLEX, MAIN ROAD,THRISSUR DIST, PVT@FEDERALBANK.CO.IN, FDRL0001698",0,PAVARATTY,THRISSUR,KERALA
"FEDERAL BANK",FDRL0001697,680049033,KOOTTANAD,"BLDG NO.1/1326, SHIFA TOWER GURUVAYOOR ROAD",0,KOOTTANAD,PALAKKAD,KERALA
"FEDERAL BANK",FDRL0001696,680049024,MATHILAKAM,"J J PLAZA, NEAR POLICE QUARTERS MATHILAKAM PO",0,THRISSUR,THRISSUR,KERALA
"FEDERAL BANK",FDRL0001695,691049053,MANAKALA,"EP 1/176, 176 C,  MANAKALA, ADOOR  PATHANAMTHITTA DISTRICT",0,MANAKALA,PATHANAMTHITTA,KERALA
"FEDERAL BANK",FDRL0001694,685049003,"THODUPUZHA WEST","KALLEL SHOPPING COMPLEX , OPP. PRIVATE BUS STAND, THODUPUZHA WEST",0,THODUPUZHA,IDUKKI,KERALA
"FEDERAL BANK",FDRL0001693,686049008,VAKATHANAM,"BLDG NO.VII/59B, 59C, ERAVUCHIRA BUILDING THENGANA-MANARCAD ROAD, NJALIAKUZHY",0,VAKATHANAM,KOTTAYAM,KERALA
"FEDERAL BANK",FDRL0001692,682049805,CHUNANGAMVELI,"IV / 27G,  GROUND FLOOR, ERUMATHALA PO,  ERNAKULAM DIST",0,CHUNANGAMVELI,ERNAKULAM,KERALA
"FEDERAL BANK",FDRL0001691,682049044,KUMBALANGI,"7/IID, E , BERCHMANS ARCADE ERNAKULAM DIST",0,KUMBALANGI,ERNAKULAM,KERALA
"FEDERAL BANK",FDRL0001690,679049809,KOLATHUR,"1ST FLOOR, K P BUILDING, OPP.KSEB OFFICE MALAPPURAM DIST",0,KOLATHUR,MALAPPURAM,KERALA
"FEDERAL BANK",FDRL0001689,570049003,"MYSORE / JAYALAXMIPURAM","NO. D 3, LEO MADHURYA, ADI PAMPA ROAD NEAR MATHRUMANDALI CIRCLE, VANIVILAS MOHALLA",0,MYSORE,MYSORE,KARNATAKA
"FEDERAL BANK",FDRL0001688,500049013,"SERI LINGAMPALLY","VIJAYA HEALTH CENTRE, MADEENAGUDA, SERI LINGAMPALLY CIRCLE II , HYDERABAD",0,"SERI LINGAMPALLY",RANGAREDDY,"ANDHRA PRADESH"
"FEDERAL BANK",FDRL0001687,530049002,GAJUWAKA,"D NO.10-8-27, BESIDE MANGALGIRI COMPLEX, VISHAKHAPATNAM",0,GAJUWAKA,VISHAKHAPATNAM,"ANDHRA PRADESH"
"FEDERAL BANK",FDRL0001686,682049041,"ERNAKULAM / KATHRUKADAVU","PARIYATH BUILDING, KUMARANASAN JUNCTION KALOOR- KADAVANTHRA ROAD",0,ERNAKULAM,ERNAKULAM,KERALA
"FEDERAL BANK",FDRL0001685,583049302,GANGAWATI,"BUILDING NO 2-12-81,82,83,MALLESWARA COMPLEX, KOPPAL ROAD",0,GANGAWATI,GANGAWATI,KARNATAKA
"FEDERAL BANK",FDRL0001684,629049102,MARTHANDAM,"CHAIRMAN P P MUNUSAMY MEMORIAL SHOPPING COMPLEX, VETTUVENNI JN., KANYAKUMARI DIST",0,MARTHANDAM,KANYAKUMARI,"TAMIL NADU"
"FEDERAL BANK",FDRL0001683,517049002,TIRUPATI,"D NO., 6-7-587, A.K.NILAYAM, SRIPURAM COLONY ISKON ROAD, CHITTOR DIST,",0,TIRUPATI,TIRUPATI,"ANDHRA PRADESH"
"FEDERAL BANK",FDRL0001682,400049027,"MUMBAI / KALINA","AISWARYA TOWERS, C S T ROAD, SANTACRUZ EAST, MAHARASTRA",0,MUMBAI,"MUMBAI SUBURBAN",MAHARASHTRA
"FEDERAL BANK",FDRL0001681,400049026,MANPADA,"SHOP NO.1A, COSMOS MART, OPP. HAPPY VALLEY TIKUJINI WADI ROAD, THANE (W),",0,MANPADA,THANE,MAHARASHTRA
"FEDERAL BANK",FDRL0001680,110049024,"NEW DELHI SHALIMAR BAGH","BN-57 E, GROUND FLOOR, EAST SHALIMAR BAGH DELHI",0,"NEW DELHI","NEW DELHI",DELHI
"FEDERAL BANK",FDRL0001679,226049003,"LUCKNOW / GOMTI NAGAR","2/8, VIVEK KHAND, GOMTI NAGAR, LUCKNOW DIST.",0,LUCKNOW,LUCKNOW,"UTTAR PRADESH"
"FEDERAL BANK",FDRL0001678,110049023,"NEW DELHI / PUNJABI BAGH","46, NORTH AVENUE, PUNJABI BAGH DELHI",0,"NEW DELHI","NEW DELHI",DELHI
"FEDERAL BANK",FDRL0001677,110049025,"NEW DELHI/ SHIVALIK","A-12, NEAR SRI AUROBINDO COLLEGE SHIVALIK",0,"NEW DELHI","NEW DELHI",DELHI
"FEDERAL BANK",FDRL0001676,160049004,MOHALI,"SCO 672, SECTOR 70 RUPNAGAR DIST",0,MOHALI,RUPNAGAR,PUNJAB
"FEDERAL BANK",FDRL0001675,151049112,MANSA,"GAUSHALA MARKET, GAUSHALA ROAD MANSA DIST.",0,MANSA,MANSA,PUNJAB
"FEDERAL BANK",FDRL0001674,NA,"GUWAHATI / G S ROAD","DEKA PREMISES, CHRISTIAN BASTI G S ROAD, KAMARUP DIST.",0,GUWAHATI,KAMARUP,ASSAM
"FEDERAL BANK",FDRL0001673,517049102,"CHITTOOR (ANDHRA PRADESH)","BALAJI COMPLEX, OPP. RAGHAVA THEATRE JAILKHANA ROAD, CHITTOOR DIST.",0,"CHITTOOR (ANDHRA PRADESH)",CHITTOOR,"ANDHRA PRADESH"
"FEDERAL BANK",FDRL0001672,500049011,"L B NAGAR","PLOT NO.142/A, SBH COLONY , VENTURE 2, NEAR L B NAGAR RING ROAD, RANGAREDDY DIST.",0,"L B NAGAR",RANGAREDDY,"ANDHRA PRADESH"
"FEDERAL BANK",FDRL0001671,520049102,GUNTUR,"6-14-36, 14TH LANE, ARUNDELPET, GUNTUR DIST",0,GUNTUR,GUNTUR,"ANDHRA PRADESH"
"FEDERAL BANK",FDRL0001670,560049021,BIDADI,"SITE NO.342/370, NELLIGUDDA ROAD, BANGALORE RURAL DIST",0,BIDADI,BANGALORE,KARNATAKA
"FEDERAL BANK",FDRL0001669,571049552,RAMANAGARAM,"OPP. ROTARY HOSPITALS, BANGALORE -MYSORE ROAD BANGALORE RURAL DIST",0,RAMANAGARAM,BANGALORE,KARNATAKA
"FEDERAL BANK",FDRL0001668,524049002,NELLORE,"16-2-230, ISKA ANILKUMAR REDDY KAIZAN HEIGHTS GANDHI NAGAR(NEAR SUNDAY MARKET ,POGATHOTTA,",0,NELLORE,NELLORE,"ANDHRA PRADESH"
"FEDERAL BANK",FDRL0001667,NA,MALKAJGIRI,"H NO.1/29/1/2/1A, 6, SANJAY NAGAR COLONY HYDERABAD, RANGAREDDY DIST",0,MALKAJGIRI,RANGAREDDY,"ANDHRA PRADESH"
"FEDERAL BANK",FDRL0001666,NA,BILASPUR,"GURUKRIPA BUILDING, VYAPAR VIHAR MAIN ROAD, BILASPUR DIST",0,BILASPUR,BILASPUR,CHANDIGARH
"FEDERAL BANK",FDRL0001665,NA,ANAND,"SHOP NO.G3 & G4, MARUTI SUMIRAN, OPP.NAND BHOOMI, VIDYANAGAR ROAD, ANAND DIST.",0,ANAND,ANAND,GUJARAT
"FEDERAL BANK",FDRL0001664,396049031,VAPI,"G01 AND G02, GROUND FLOOR, STATUS , PLOT NO CM 8/8, NH8,GUNJAN , GIDC, VAPI 396195",0,VAPI,VALSAD,GUJARAT
"FEDERAL BANK",FDRL0001663,411049008,"PUNE AUNDH","GROUND FLOOR , SUPREME SQUARE, NEAR SHIV SAGAR HOTEL, DP ROAD, PARIHARCHOWK, AUNDH",0,PUNE,PUNE,MAHARASHTRA
"FEDERAL BANK",FDRL0001662,NA,"BOKARO STEEL CITY","B 12, CITY CENTRE, SECTOR IV, BOKARO DIST",0,"BOKARO STEEL CITY",BOKARO,JHARKHAND
"FEDERAL BANK",FDRL0001661,147049002,PATIALA,"36-37, NEW LEELA BHAWAN PATIALA DISTRICT",0,PATIALA,PATIALA,PUNJAB
"FEDERAL BANK",FDRL0001660,679049805,KARINKALLATHANI,"GROUND FLOOR, A K BLDG, THAZHEKODE P O PERINTALMANNA VIA, MALAPPURAM DT,",0,KARINKALLATHANI,MALAPPURAM,KERALA
"FEDERAL BANK",FDRL0001659,560049022,TAVEREKERE,"NO 104/1,GROUND FLOOR 1ST MAIN , TAVEREKERE, BANGALORE",0,TAVEREKERE,BANGALORE,KARNATAKA
"FEDERAL BANK",FDRL0001658,680049023,PERINGOTTUKARA,"KAKKERY BUILDING, NO.246/X, 3 WAY JUNCTION CHERPU - TRIPRAYAR ROAD  TRISSUR  DIST.",0,PERINGOTTUKARA,THRISSUR,KERALA
"FEDERAL BANK",FDRL0001657,600049023,CHENGALPATTU,"113 A, G.S.T.ROAD, OPP.SARADHA LODGE KANCHEEPURAM DIST",0,CHENGALPATTU,KANCHEEPURAM,"TAMIL NADU"
"FEDERAL BANK",FDRL0001656,NA,GADHINGLAJ,"VIMAL PLAZA, AJARA SANKESHWAR MAIN ROAD, KOLHAPUR DIST",0,GADHINGLAJ,KOLHAPUR,MAHARASHTRA
"FEDERAL BANK",FDRL0001655,416049352,SAWANTWADI,"9A, B VAISHYA BHAVAN GAVALI TITTHA, SHIVAJI CHOWK, SINDHUDURG DIST",0,SAWANTWADI,SINDHUDURG,MAHARASHTRA
"FEDERAL BANK",FDRL0001654,124049002,ROHTAK,"OPP.ALL INDIA RADIO, 5,SUBASH ROAD ROHTAK PO",0,ROHTAK,ROHTAK,HARYANA
"FEDERAL BANK",FDRL0001653,670049803,KUTHUPARAMBA,"E J TOWER, KANNUR ROAD KANNUR DIST",0,KUTHUPARAMBA,KANNUR,KERALA
"FEDERAL BANK",FDRL0001652,673049052,MAHE,"AZADHI BUILDING,STATUE JUNCTION, MAHE",0,MAHE,MAHE,PUDUCHERRY
"FEDERAL BANK",FDRL0001651,416049006,GANDHINAGAR(KOLHAPUR),"GANESH TALKIES, GADMUDSINGI P O, GANDHINAGAR",0,GANDHINAGAR(KOLHAPUR),KOLHAPUR,MAHARASHTRA
"FEDERAL BANK",FDRL0001650,680049022,KORATTY,"DHANYA CPMPLEX, OPP. M A M HIGH SCHOOL THRISSUR DIST",0,KORATTY,THRISSUR,KERALA
"FEDERAL BANK",FDRL0001649,132049102,KARNAL,"SCO-101, COMMERCIAL CENTRE, SECTOR 7 KARNAL DIST.",0,KARNAL,KARNAL,HARYANA
"FEDERAL BANK",FDRL0001648,571049602,CHANNAPATNA,"ANUGRAHA TOWERS, NO.2108/3A-4/1, 8TH CROSS KUVEMPU NAGARA, B M ROAD,",0,BANGALORE,BANGALORE,KARNATAKA
"FEDERAL BANK",FDRL0001647,673049012,THENHIPALAM,"4H AVENUE IX/20 E, CHELARI MALAPPURAM DIST",0,THENHIPALAM,MALAPPURAM,KERALA
"FEDERAL BANK",FDRL0001646,678049252,CHITTUR,"GOVT.HOSPITAL JUNCTION PALAKKAD DIST",0,CHITTUR,PALAKKAD,KERALA
"FEDERAL BANK",FDRL0001645,680049021,PERUMPILAVU,"MAIN ROAD, KARIAKAD THRISSUR DIST",0,PERUMPILAVU,THRISSUR,KERALA
"FEDERAL BANK",FDRL0001644,574049521,NELLYADI,"ELITE PLAZA, NH48, NEAR ST.GEORGE P U COLLEGE DAKSHIN KANNAD DIST",0,NELLYADI,"DAKSHINA KANNADA",KARNATAKA
"FEDERAL BANK",FDRL0001643,560049020,"BANGALORE / VIJAYA NAGAR","#21,17TH CROSS, CHORD ROAD, NEAR MARUTHI MANDIR, VIJAYA NAGAR, BANGALORE URBAN DIST.",0,BANGALORE,BANGALORE,KARNATAKA
"FEDERAL BANK",FDRL0001642,600049022,KANCHEEPURAM,"NO.42AB, KAMARAJAR STREET, KANCHEEPURAM DIST.",0,KANCHEEPURAM,KANCHEEPURAM,"TAMIL NADU"
"FEDERAL BANK",FDRL0001641,629049103,KULASEKHARAM,"DOOR NO.6-26/2, ""NELLIMOOTTIL PLAZA"", ARASAMOODU JUNCTION,KK DISTRICT",0,KULASEKHARAM,KANYAKUMARI,"TAMIL NADU"
"FEDERAL BANK",FDRL0001640,629049003,ERANIEL,"ROUNDANA JUNCTION NAGARCOIL ROAD, MONDAY MARKET",0,ERANIEL,KANYAKUMARI,"TAMIL NADU"
"FEDERAL BANK",FDRL0001639,680049019,KECHERI,"THEKEKKARA BUILDING, OPP RAJIV GANDHI BUS STAND,ERANELLUR P O, KECHERI THRISSUR 680501",0,KECHERI,THRISSUR,KERALA
"FEDERAL BANK",FDRL0001638,580049302,DHARWAD,"VISWA LAXMI ARCADE COURT CIRCLE, KARNATAKA STATE",0,DHARWAD,DHARWAD,KARNATAKA
"FEDERAL BANK",FDRL0001637,680049020,MUNDUR,"SAM'S TOWER, THRISSUR E.MAIL:MDR@FEDERALBANK.CO.IN",0,MUNDUR,THRISSUR,KERALA
"FEDERAL BANK",FDRL0001636,413049202,BARSHI,"OPP.BARSHI TEXTILE MILL, AGALGAON ROAD DIST.SOLAPUR, MAHARASHTRA",0,BARSHI,SOLAPUR,MAHARASHTRA
"FEDERAL BANK",FDRL0001635,678049807,"MANGALAM DAM","KR COMPLEX, MAIN ROAD, MANGALAM DAM PALAKKAD DIST",0,"MANGALAM DAM",PALAKKAD,KERALA
"FEDERAL BANK",FDRL0001634,670049802,MATTANNUR,"MATTANNUR PLAZA, KANNUR ROAD MATTANNUR, KANNUR DIST.",0,MATTANNUR,KANNUR,KERALA
"FEDERAL BANK",FDRL0001633,680049018,VELLANGALLUR,"GLAMOUR COMPLEX, MAIN ROAD, VADAKKUMKARA VILLAGE, VELLANGALLUR P O THRISSUR DIST.",0,VELLANGALLUR,THRISSUR,KERALA
"FEDERAL BANK",FDRL0001632,679049807,MANKADA,"P T COMPLEX, MANKADA - 679324 MALAPPURAM DIST",0,MANKADA,MALAPPURAM,KERALA
"FEDERAL BANK",FDRL0001631,560049018,"DOD BALLAPUR","D CROSS ROAD, DODBALLAPURA TOWN DOD BALLAPUR - 561023, BANGALORE RURAL DIST.",0,"DOD BALLAPUR","DOD BALLAPUR",KARNATAKA
"FEDERAL BANK",FDRL0001630,676049807,KARUVARAKUNDU,"NEDUMPALLIL BUILDING, KIZHAKKETHALA, THARISH P O, MALAPPURAM DIST",0,KARUVARAKUNDU,MALAPPURAM,KERALA
"FEDERAL BANK",FDRL0001629,560049019,"BANGALORE VIGNANA NAGAR","NO.2 & 5, SANDS PLAZA, VIGNANA NAGAR, MAIN ROAD, BANGALORE URBAN DIST.",0,BANGALORE,BANGALORE,KARNATAKA
"FEDERAL BANK",FDRL0001628,581049202,KARWAR,"451/G-1, SUPRABHA, GREEN STREET, UTTAR KANNAD DIST,",0,KARWAR,"UTTAR KANNADA",KARNATAKA
"FEDERAL BANK",FDRL0001627,688049055,THURAVOOR,"GROUND FLOOR, DEVAKI TOWER, N H 47,THURAVOOR 688532, ALLEPPEY DT.",0,THURAVOOR,ALAPUZHA,KERALA
"FEDERAL BANK",FDRL0001626,533049002,KAKINADA,"GROUND FLOOR, AYYAPPA TOWERS-PHASE II D NO.5-1-76, MAIN ROAD, EAST GODAVARI DIST,",0,KAKINADA,KAKINADA,"ANDHRA PRADESH"
"FEDERAL BANK",FDRL0001625,244049002,MORADABAD,"A-22, GROUND FLOOR, GANDHINAGAR, RAMPUR ROAD MORADABAD, UTTAR PRADESH",0,MORADABAD,MORADABAD,"UTTAR PRADESH"
"FEDERAL BANK",FDRL0001624,826049002,DHANBAD,"IST FLOOR, GOODWILL PROPERTIES, BANK MORE",0,DHANBAD,DHANBAD,JHARKHAND
"FEDERAL BANK",FDRL0001623,700049014,"KOLKATA / RABINDRA SARANI","GROUND FLOOR,GATE NO: 2,PODDAR COURT, 18,RABINDRA SARANI,KOLKATA-700001",0,KOLKATA,KOLKATA,"WEST BENGAL"
"FEDERAL BANK",FDRL0001622,400049024,"MUMBAI / KANDIVILI","93, 94 & 95 VENUS CHS LTD,EVERSHINE MILLENNIUM PARADISE, KANDIVILI EAST",0,MUMBAI,"MUMBAI SUBURBAN",MAHARASHTRA
"FEDERAL BANK",FDRL0001621,600049020,"SHOLINGANALLUR,","215, OLD MAHABALIPURAM ROAD, SHOLINGANALLUR, KANCHEEPURAM DIST , TAMILNADU",0,SHOLINGANALLUR,KANCHEEPURAM,"TAMIL NADU"
"FEDERAL BANK",FDRL0001620,NA,KANKAVLI,"324, NEAR KANKAVLI POST OFFICE, ACHARYA ROAD, KANKAVLI, MAHARASHTRA",0,KANKAVLI,SINDHUDURG,MAHARASHTRA
"FEDERAL BANK",FDRL0001619,400049023,"MUMBAI SAKINAKA","SAGAR PALLAZIO, SHOP NO.8 & 19, ANDHERI KURLA ROAD, SAKINAKA JUNCTION, MUMBAI .",0,MUMBAI,"MUMBAI SUBURBAN",MAHARASHTRA
"FEDERAL BANK",FDRL0001618,403049005,MAPUSA,"BOSHAM HOMES BUILDING, BODGESWAR TEMPLE, MAPUSA, BARDEZ, GOA, UTTAR GOA DIST.",0,MAPUSA,MAPUSA,GOA
"FEDERAL BANK",FDRL0001617,695049011,KAZHAKUTTAM,"PADMANABHAM, KAZHAKUTTAM, THIRUVANATHAPURAM, KERALA",0,KAZHAKUTTAM,THIRUVANANTHAPURAM,KERALA
"FEDERAL BANK",FDRL0001616,400049022,ULHASNAGAR,"SHOP NO. 15A, 15B &16, GEETHA COMPLEX, ULHASNAGAR- THANE DIST., MAHARASHTRA.",0,ULHASNAGAR,THANE,MAHARASHTRA
"FEDERAL BANK",FDRL0001615,144049002,JALANDHAR,"1A/545, NEW JAWAHAR NAGAR MARKET",0,JALANDHAR,JALANDHAR,PUNJAB
"FEDERAL BANK",FDRL0001614,110049021,GHAZIABAD,"B-7, RDC, RAJ NAGAR, GHAZIABAD GHAZIABAD DIST., UTTAR PRADESH",0,GHAZIABAD,GHAZIABAD,"UTTAR PRADESH"
"FEDERAL BANK",FDRL0001613,455049001,DEWAS,"SEASON 1 BUILDING, A-5 KALANI BAUGH. AB ROAD DEWAS, DEWAS DIST., MADHYA PRADESH",0,DEWAS,DEWAS,"MADHYA PRADESH"
"FEDERAL BANK",FDRL0001612,600049019,PERUNGUDI,"58, OLD MAHABALIPURAM ROAD SEEVARAM, PERUNGUDI",0,PERUNGUDI,KANCHEEPURAM,"TAMIL NADU"
"FEDERAL BANK",FDRL0001611,600049017,THIRUPORUR,"2/5, IYYEMPET STREET, OLD MAHABALIPURAM  ROAD THIRUPORUR, KANCHEEPURAM DIST",0,THIRUPORUR,KANCHEEPURAM,"TAMIL NADU"
"FEDERAL BANK",FDRL0001610,600049018,SRIPERUMBUDUR,"2, KAMBER STREET, SRIPERUMBUDUR KANCHEEPURAM DIST , TAMIL NADU",0,SRIPERUMBUDUR,KANCHEEPURAM,"TAMIL NADU"
"FEDERAL BANK",FDRL0001609,626049102,RAJAPALAYAM,"23-25, SRI HARI KRISHNA COMPLEX, MUDANGIYAR ROAD, RAJAPALAYAM, VIRUDHNAGAR , TAMIL NADU",0,RAJAPALAYAM,VIRUDHUNAGAR,"TAMIL NADU"
"FEDERAL BANK",FDRL0001608,682049037,"ERNAKULAM BYE PASS","SG BUILDING, NH BYE PASS, NEAR EMC ERNAKULAM, KOCHI, ERNAKULAM DIST, KERALA",0,ERNAKULAM,ERNAKULAM,KERALA
"FEDERAL BANK",FDRL0001607,700049013,GARIA,"591, SREENAGAR, GARIA, KOLKATA 24 PARGANAS (S) DIST. WEST BENGAL",0,GARIA,"SOUTH 24 PARGANAS","WEST BENGAL"
"FEDERAL BANK",FDRL0001606,713049002,ASANSOL,"PARBATI SHOPPING ARCADE, BLOCK C , ASHRAM MORE, GT ROAD (EAST) ASASOL, BARDDAMAN , WB",0,ASANSOL,BARDDHAMAN,"WEST BENGAL"
"FEDERAL BANK",FDRL0001605,500049010,RAMACHANDRAPURAM,"25/35/1/G, PLOT NO.14 & 15 , MEDAK DIST,",0,RAMACHANDRAPURAM,MEDAK,"ANDHRA PRADESH"
"FEDERAL BANK",FDRL0001604,585049002,GULBARGA,"PLOT NO.7, FIRST FLOOR, SUPER MARKET MAIN ROAD, GULBARGA , GULBARGA DIST, KA",0,GULBARGA,GULBARGA,KARNATAKA
"FEDERAL BANK",FDRL0001603,572049002,TUMKUR,"NEAR DWARAKA HOTEL, MG ROAD, TUMKUR, TUMKUR DIST, KARNATAKA",0,TUMKUR,TUMKUR,KARNATAKA
"FEDERAL BANK",FDRL0001602,500049009,"ECIL CROSS ROADS","225, 226, 231 & 232 . ECIL ROAD KAPRA, HYDERABAD, RANGAREDDY DIST. AP",0,"ECIL CROSS ROADS",RANGAREDDY,"ANDHRA PRADESH"
"FEDERAL BANK",FDRL0001601,680049017,CHELAKKARA,"KULAPPURATH MALL, OPP.LFGHS, THRISSUR DIST",0,CHELAKKARA,THRISSUR,KERALA
"FEDERAL BANK",FDRL0001600,673049016,EDAVANNAPPARA,"CITY GATE, OPP. PRIVATE BUS STAND EDAVANNAPPARA, CHERUVAYOOR PO , MALAPPURAM",0,EDAVANNAPPARA,MALAPPURAM,KERALA
"FEDERAL BANK",FDRL0001599,680049009,PUZHAKKAL,"SREE DHARMA SASTHA SHOPPING COMPLEX, MAIN ROAD, PUZHAKKAL,  THRISSUR DIST",0,PUZHAKKAL,THRISSUR,KERALA
"FEDERAL BANK",FDRL0001598,679049806,MELATTUR,"PALAKKAD ROAD, MELATTUR MALAPPURAM DIST",0,MELATTUR,MALAPPURAM,KERALA
"FEDERAL BANK",FDRL0001597,689049808,PULLAD,"VADAKKETHIL BUILDINGS, PB NO.6, PULLAD PO PATHANAMTHITTA DIST, KERALA",0,PULLAD,PATHANAMTHITTA,KERALA
"FEDERAL BANK",FDRL0001596,110049022,"PASCHIM VIHAR / NEW DELHI","B- 465,GROUND FLOOR,MEERA BAGH, PASCHIM VIHAR",0,"NEW DELHI","NEW DELHI",DELHI
"FEDERAL BANK",FDRL0001595,221049002,VARANASI,"D-63/12, GROUND FLOOOR, VIRAT AISHWARYA COMPLEX, MAHMOOR GANJ, VARANASI , UP",0,VARANASI,VARANASI,"UTTAR PRADESH"
"FEDERAL BANK",FDRL0001594,577049002,CHITRADURGA,"OPP. VASAVI MAHAL, BASAVESHWARA TALKIES ROAD CHITRADURGA , CHITRADURGA DIST, KARNATAKA",0,CHITRADURGA,CHITRADURGA,KARNATAKA
"FEDERAL BANK",FDRL0001593,413049002,SOLAPUR,"CTS NO.8378/1/1-BM 151, RAILWAY LINES, SOLAPUR",0,SOLAPUR,SOLAPUR,MAHARASHTRA
"FEDERAL BANK",FDRL0001592,679049812,KALIKAVU,"VAYALIL SQUARE, NILAMBUR ROAD, KALIKAVU P O",0,KALIKAVU,MALAPPURAM,KERALA
"FEDERAL BANK",FDRL0001591,251049002,MEERUT,"37, CHIPPI TANK, BEGUM BRIDGE ROAD, MEERUT, UTTAR PRADESH",0,MEERUT,MEERUT,"UTTAR PRADESH"
"FEDERAL BANK",FDRL0001590,577049202,SHIMOGA,"SRI LAXMI COMPLEX, NEHRU ROAD, SHIMOGA , KARNATAKA",0,SHIMOGA,SHIMOGA,KARNATAKA
"FEDERAL BANK",FDRL0001589,583049002,BELLARY,"MODI CHAMBERS, 2ND CROSS, GANDHINAGAR, BELLARY",0,BELLARY,BELLARY,KARNATAKA
"FEDERAL BANK",FDRL0001588,414049001,AHMEDNAGAR,"KAMDA HOUSE, SAVEDI ROAD, AHMEDNAGAR, MAHARASHTRA",0,AHMEDNAGAR,AHMEDNAGAR,MAHARASHTRA
"FEDERAL BANK",FDRL0001587,110049020,BAHADURGARH,"BHAGWANI COMPLEX, NAJAHGARH  ROAD, MAIN BAZAR BAHADURGARH , JHAJJAR DIST, HARYANA",0,BAHADURGARH,BAHADURGARH,HARYANA
"FEDERAL BANK",FDRL0001586,691049807,ENATHU,"ENATHU, PATHANAMTHITTA DIST.",0,ENATHU,PATHANAMTHITTA,KERALA
"FEDERAL BANK",FDRL0001585,560049017,HOSKOTE,"GANGAMMA GUDI ROAD , M V EXTENSION, HOSKOTE, BANGALORE RURAL",0,HOSKOTE,HOSKOTE,KARNATAKA
"FEDERAL BANK",FDRL0001584,415049002,SATARA,"MALHAR PLAZA, PLOT NO.15/3, RADHIKA ROAD SATARA",0,SATARA,SATARA,MAHARASHTRA
"FEDERAL BANK",FDRL0001583,500049008,"UPPAL KALAN","NO.2-3-16&17, MAIN ROAD, UPPAL, HYDERABAD",0,"UPPAL KALAN",RANGAREDDY,"ANDHRA PRADESH"
"FEDERAL BANK",FDRL0001582,560049015,"BANGALORE / JALAHALLI","17/1 SAVITHRI, SM ROAD,JALAHALLI WEST BANGALORE",0,BANGALORE,BANGALORE,KARNATAKA
"FEDERAL BANK",FDRL0001581,411049007,PIMPRI-CHINCHWAD,"K 20, 21 & 22,  EMPIRE ESTATE PUNE- MUMBAI ROAD, PIMPRI-CHINCHWAD, PUNE",0,PIMPRI-CHINCHWAD,PUNE,MAHARASHTRA
"FEDERAL BANK",FDRL0001580,110049019,"RAJOURI GARDENS/ NEW DELHI","J-199, RAJOURI GARDENS, NEW DELHI",0,"NEW DELHI","NEW DELHI",DELHI
"FEDERAL BANK",FDRL0001579,682049036,"ATHANI (ERNAKULAM)","ATHANI P O, NEDUMBASSERRY ERNAKULAM DIST.",0,"ATHANI (ERNAKULAM)",ERNAKULAM,KERALA
"FEDERAL BANK",FDRL0001578,689049816,PAIPAD,"THYPARAMBIL BUILDINGS,  PALLICACHIRA P O PAIPAD",0,PAIPAD,KOTTAYAM,KERALA
"FEDERAL BANK",FDRL0001577,676049805,PARAPPANANGADI,"XI/1576, KADALUNDI ROAD PARAPPANANGADI P O, MALAPPURAM DIST",0,PARAPPANANGADI,MALAPPURAM,KERALA
"FEDERAL BANK",FDRL0001576,403049004,PONDA,"PB NO.55, MENINO TRADE CENTRE, PONDA -403401 GOA STATE",0,PONDA,PONDA,GOA
"FEDERAL BANK",FDRL0001575,400049021,WALIV,"OMKAR BUILDING, WALIV, VASAI EAST, TANE DIST.",0,MUMBAI,THANE,MAHARASHTRA
"FEDERAL BANK",FDRL0001574,576049002,UDIPI,"MAHALASA TOWERS, COURT ROAD OPP. TALUK OFFICE, UIDIPI",0,UDIPI,UDIPI,KARNATAKA
"FEDERAL BANK",FDRL0001573,584049002,RAICHUR,"ASWINI COMPLEX, AMBEDKAR CIRCLE RAICHUR, KARNATAKA",0,RAICHUR,RAICHUR,KARNATAKA
"FEDERAL BANK",FDRL0001572,676049302,CHEMMAD,"MAJESTIC TOWERS, PARAPPANAGADI ROAD TIRURANGADI (P O) , CHEMMAD",0,CHEMMAD,MALAPPURAM,KERALA
"FEDERAL BANK",FDRL0001571,560049016,BANNERGHATTA,"LIMRA TOWERS NO.53/3,4,5 KEMNAIKANA HALLI BANNERGHATTA, BANGALORE",0,BANGALORE,BANGALORE,KARNATAKA
"FEDERAL BANK",FDRL0001570,680049008,CHERPU,"MALITHU TOWERS, MAIN ROAD, CHERPU, THRISSUR",0,CHERPU,THRISSUR,KERALA
"FEDERAL BANK",FDRL0001569,500049007,KUKATPALLY,"PHASE I & II, KPHB COLONY,J N T U POST OFFICE RANGAREDDY (DIST).",0,KUKATPALLY,RANGAREDDY,"ANDHRA PRADESH"
"FEDERAL BANK",FDRL0001568,673049018,NADAPURAM,"CROWN BUILDING, MAIN ROAD NADAPURAM , KOZHIKODE DIST.",0,NADAPURAM,KOZHIKODE,KERALA
"FEDERAL BANK",FDRL0001567,688049153,VANDANAM,"DEVI ARCADE,  MEDICAL COLLEGE HOSPITAL JUNCTION, AMC PO",0,VANDANAM,ALAPUZHA,KERALA
"FEDERAL BANK",FDRL0001566,600049016,AMBATTUR,"NO.84 MTH ROAD VENKITAPURAM, AMBATTUR CHENNAI",0,CHENNAI,THIRUVALLUR,"TAMIL NADU"
"FEDERAL BANK",FDRL0001565,680049402,WADAKKANCHERRY,"VMC COMPLEX, THRISSUR-SHORNOOR ROAD,",0,WADAKKANCHERRY,WADAKKANCHERRY,KERALA
"FEDERAL BANK",FDRL0001564,600049015,PORUR,"4/70, ARCOT ROAD, PORUR KARAMBAKKOM, CHENNAI",0,PORUR,THIRUVALLUR,"TAMIL NADU"
"FEDERAL BANK",FDRL0001563,600049014,POONAMALLEE,"40, TRUNK ROAD, POONAMALLEE CHENNAI",0,POONAMALLEE,THIRUVALLUR,"TAMIL NADU"
"FEDERAL BANK",FDRL0001562,600049013,AVADI,"199, NEHRU BAZAR, AVADI CHENNAI",0,AVADI,THIRUVALLUR,"TAMIL NADU"
"FEDERAL BANK",FDRL0001561,560049014,"BANGALORE / K R PURAM","VSR COMPLEX, OLD MADRAS ROAD, KRISHNARAJAPURAM, BANGALORE",0,BANGALORE,BANGALORE,KARNATAKA
"FEDERAL BANK",FDRL0001560,676049002,TIRUR,"KALADY COMPLEX, POONGOTTUKULAM TIRUR",0,TIRUR,MALAPPURAM,KERALA
"FEDERAL BANK",FDRL0001559,676049806,WANDOOR,"PRIYANKA AVENUE, NILAMBOOR ROAD WANDOOR",245960,WANDOOR,MALAPPURAM,KERALA
"FEDERAL BANK",FDRL0001558,678049202,NEMMARA,"7/782, LAKSHMI COMPLEX, OPP TO BUS STAND NEMMARA PO",0,NEMMARA,PALAKKAD,KERALA
"FEDERAL BANK",FDRL0001557,679049811,EDAKKARA,"JOHNS TOWER, OOTTY ROAD EDAKKARA",0,EDAKKARA,MALAPPURAM,KERALA
"FEDERAL BANK",FDRL0001556,679049804,CHANGARAMKULAM,"SHABANA COMMERCIAL COMPLEX, NH17, KOZHIKODE R CHANGARAMKULAM",0,CHANGARAMKULAM,MALAPPURAM,KERALA
"FEDERAL BANK",FDRL0001555,500049006,"HYDERABAD / MADHAPUR","ACCESS , ARUNODAYA COLONY, NEAR IMAGE GARDENS MADHAPUR ,HYDERABAD",0,HYDERABAD,HYDERABAD,"ANDHRA PRADESH"
"FEDERAL BANK",FDRL0001554,342049002,JODHPUR,"RANVEER BHAVAN, 9TH CHOPASANI ROAD JODHPUR, RAJASTHAN",0,JODHPUR,JODHPUR,RAJASTHAN
"FEDERAL BANK",FDRL0001553,560049013,NELAMANGALA,"SITE NO:2667/3388 ,PARAMANNA LAYOUT B H ROAD BANGALORE RURAL",0,NELAMANGALA,BANGALORE,KARNATAKA
"FEDERAL BANK",FDRL0001552,313049001,UDAIPUR,"3-C, MADHUBAN,",0,UDAIPUR,UDAIPUR,RAJASTHAN
"FEDERAL BANK",FDRL0001551,400049019,VIRAR,"UNIQUE PLAZA, OPP.SCIENCE GARDEN AGASHI ROAD, VIRAR (WEST), MUMBAI",0,VIRAR,THANE,MAHARASHTRA
"FEDERAL BANK",FDRL0001550,639049002,KARUR,"32, OLD BYPASS ROAD,",0,KARUR,KARUR,"TAMIL NADU"
"FEDERAL BANK",FDRL0001549,695049017,KATTAKADA,"COLLEGE ROAD, KATTAKADA THIRUVANATHAPURAM DIST.",0,KATTAKADA,THIRUVANANTHAPURAM,KERALA
"FEDERAL BANK",FDRL0001548,682049806,PATTIMATTOM,"MECKAMKUNNEL SHOPPING COMPLEX, PP ROAD PATTIMATTOM, ERNAKULAM DIST.",0,PATTIMATTOM,ERNAKULAM,KERALA
"FEDERAL BANK",FDRL0001547,679049302,EDAPPAL,"GOLDEN TOWERS, PONNANI ROAD EDAPPAL , MALAPPURAM DIST",0,EDAPPAL,MALAPPURAM,KERALA
"FEDERAL BANK",FDRL0001546,132049002,PANIPAT,"HARPREET PLAZA, BATAK CHOWK, PANIPAT",0,PANIPAT,PANIPAT,HARYANA
"FEDERAL BANK",FDRL0001545,110049018,"DWARAKA / NEW DELHI","MANISH ABHINAV PLAZA, PLOT 5, SECTOR-5 (ASHIRWAD CHOWK) ,  DWARKA,  NEW DELHI",0,"NEW DELHI","NEW DELHI",DELHI
"FEDERAL BANK",FDRL0001544,400049016,"VASAI ROAD","VASAI ROAD BRANCH, MARY GREG BUILDING , MANICKPUR, VASAI ROAD WEST, THANE DIST MUMBAI",0,"VASAI ROAD",THANE,MAHARASHTRA
"FEDERAL BANK",FDRL0001543,676049803,PUTHANATHANI,"TAUFEEQUE TOWERS, 3/514-515, NH17 PUTHANATHANI, MALAPPURAM DIST. 676552",0,PUTHANATHANI,MALAPPURAM,KERALA
"FEDERAL BANK",FDRL0001542,400049020,KALYAN,"CHANDULAL J JOSHI COMPLEX, VASANTH VIHAAR, V P ROAD , KALYAN (WEST) 421301, THANE DIST",0,MUMBAI,THANE,MAHARASHTRA
"FEDERAL BANK",FDRL0001541,364049001,BHAVNAGAR,"1ST FLOOR THAKHESHWAR PLOTS, OPP. TO SAHAKARI HATT,WAGHAVADI ROAD",0,BHAVNAGAR,BHAVNAGAR,GUJARAT
"FEDERAL BANK",FDRL0001540,425049001,JALGAON,"DAULAT PLAZA, NEAR TOWER CHOWK MG ROAD, JALGAON - 425001, MAHARASHTRA",0,JALGAON,JALGAON,MAHARASHTRA
"FEDERAL BANK",FDRL0001539,400049018,MUMBAI/MULUND,"MARATHON CHAMBERS, SH NO 8, PK RD & RRT RD JN PANCH RASTHA, MULUND,  WEST MUMBAI",0,MUMBAI,"MUMBAI SUBURBAN",MAHARASHTRA
"FEDERAL BANK",FDRL0001538,400049017,MUMBAI/GOREGAON,"GROUND FLOOR, ONYX BUILDING, S V ROAD GOREGAON WEST, MUMBAI",0,MUMBAI,"MUMBAI SUBURBAN",MAHARASHTRA
"FEDERAL BANK",FDRL0001537,679049152,PERINTALMANNA,"FATHIMA TOWERS, PATTAMBI ROAD PERINTALMANNA , MALAPPURAM  DIST.",0,PERINTALMANNA,MALAPPURAM,KERALA
"FEDERAL BANK",FDRL0001536,600049012,CHENNAI/TAMBARAM,"NEW NO.58 (OLD NO.26), KAKKAN STREET, WEST THAMBARAM, CHENNAI - 600045",0,CHENNAI,CHENNAI,"TAMIL NADU"
"FEDERAL BANK",FDRL0001535,560049012,"BANGALORE / INDIRANAGAR","315/1, 100 FEET ROAD, INDIRA NAGAR BANGALORE",0,BANGALORE,BANGALORE,KARNATAKA
"FEDERAL BANK",FDRL0001534,160049003,PANCHAKULA,"SCO 63, SECTOR -11 PANCHKULA",0,CHANDIGARH,PANCHKULA,HARYANA
"FEDERAL BANK",FDRL0001533,143049002,AMRITSAR,"39,COURT ROAD, AMRITSAR",0,AMRITSAR,AMRITSAR,PUNJAB
"FEDERAL BANK",FDRL0001532,679049252,CHERPULASSERY,"FATHIMA COMPLEX, PATTAMBI ROAD,",0,PALAKKAD,PALAKKAD,KERALA
"FEDERAL BANK",FDRL0001531,685049807,KUMILY,"MASS BUILDINGS, THEKKADI JUNCTION KUMILY, IDUKKI",0,KUMILY,IDUKKI,KERALA
"FEDERAL BANK",FDRL0001530,590049004,"BELGAUM / TILAKWADI","NO:14, SUNFLOWER APART, NEAR 3RD RLY GATE KHANAPUR ROAD, TILAKWADI,",0,BELGAUM,BELGAUM,KARNATAKA
"FEDERAL BANK",FDRL0001529,560049011,DEVANAHALLI,"135/9, CHECK POST JUNCTION, DB CROSS DEVANAHALLI, BANGALORE RURAL DT, KARANATAKA",0,BANGALORE,BANGALORE,KARNATAKA
"FEDERAL BANK",FDRL0001528,110049017,"GURGAON DLF","B-247, UPPER GRND FLOOR, SUPERMART COMM COMP1 DLF,QUTUB ENCLAVE, PHASE-IV GURGAON",0,GURGAON,GURGAON,HARYANA
"FEDERAL BANK",FDRL0001527,636049003,"SALEM / ALAGAPURAM","ST.JOHNS MATRICULATION HS SCHOOL CAMPUS CONVENT ROAD, ALAGAPURAM",0,SALEM,SALEM,"TAMIL NADU"
"FEDERAL BANK",FDRL0001525,NA,"CHERUTHURUTHY EXT. COUNTER","JYOTHI ENGG. COLLEGE, CHERUTHURUTHY",0,CHERUTHURUTHY,THRISSUR,KERALA
"FEDERAL BANK",FDRL0001524,678049003,KANJIKODE,"XV/1019, K.M.S. COMPLEX CHEDAYANKALAI,  KANJIKODE (WEST)  PALAKKAD",0,PALGHAT,PALAKKAD,KERALA
"FEDERAL BANK",FDRL0001523,NA,"NEW DELHI CON CIRCUS EXTN","NDLA EXT COUNTER NDLA EXT COUNTER",0,"NEW DELHI","NEW DELHI",DELHI
"FEDERAL BANK",FDRL0001522,NA,"NEDUMBASSERY EXTN COUNTER","CIAL NEDUMBASSEY",0,NEDUMBASSERY,ERNAKULAM,KERALA
"FEDERAL BANK",FDRL0001521,600049028,"CHENNAI / GREAMS ROAD","COCHIN HOUSE, NO.1, ANDERSON ROAD",0,CHENNAI,CHENNAI,"TAMIL NADU"
"FEDERAL BANK",FDRL0001520,NA,"LUDHIANA EXTN COUNTER","LUDHIANA CHHRISTIAN MEDICAL COLLEGE LUDHIANA",0,LUDHIANA,LUDHIANA,PUNJAB
"FEDERAL BANK",FDRL0001519,689049153,THEKKEMALA,"416A, KAITHAVANAMALA COMPLEX, THEKKEMALA JUNCTION, KOZHENCHERRY, PATHANAMTHITTA DIST.",0,THEKKEMALA,PATHANAMTHITTA,KERALA
"FEDERAL BANK",FDRL0001518,NA,"KOTHAMANGALAM EXT COUNTER","KOTHAMANGALAM KOTHAMANGALAM",0,KOTHAMANGALAM,ERNAKULAM,KERALA
"FEDERAL BANK",FDRL0001517,680049015,MOONUPEEDIAKA,"M A MCOMPLEX,  NH 17 KAIPAMANGALAM  P O",0,THRISSUR,THRISSUR,KERALA
"FEDERAL BANK",FDRL0001516,831049002,"JAMSHEDPUR / SAKCHI","KERALA SAMAJAM SCHOOL JAMSHADPUR",0,JAMSHEDPUR,JAMSHEDPUR,JHARKHAND
"FEDERAL BANK",FDRL0001515,689049155,VARIAPURAM,"KOLLANPADY ELANTHOOR EAST P O",0,PATHANAMTHITTA,PATHANAMTHITTA,KERALA
"FEDERAL BANK",FDRL0001514,700049015,"KOLKATA / PARK CIRCUS","DON BOSCO SCHOOL CAMPUS PARK CIRCUS",0,KOLKATA,KOLKATA,"WEST BENGAL"
"FEDERAL BANK",FDRL0001513,751049003,"BHUBANESHWAR/KALPANA SQUARE","BHUBANESWAR/KALPANA SQUARE, 62, BUDHA NAGAR, KALPANA SQUARE ,CUTTAK ROAD.",0,BHUBANESWAR,BHUBANESWAR,ODISHA
"FEDERAL BANK",FDRL0001512,682049039,THAIKKATTUKARA,"N H - 47 NEAR FIT SHOW ROOM THAIKKATTUKARA  P.O, ALUVA",0,ALUVA,ERNAKULAM,KERALA
"FEDERAL BANK",FDRL0001511,673049402,KONDOTTY,"KODITHODI TOWER,146/8, WARD NO.3, BYE PASS JN.,KONDOTTY",0,KONDOTTY,MALAPPURAM,KERALA
"FEDERAL BANK",FDRL0001510,411049006,"PUNE/SINHAGAD ROAD","S NO.39/38,SUNDAR PARK,MANIK BAG,SINHAGAD RD. VADGAON(BK), PUNE-411051",0,PUNE,PUNE,MAHARASHTRA
"FEDERAL BANK",FDRL0001509,590049002,"BELGAUM CITY","VENKATESH ANUGRAH COMPLEX, H. NO.1414, BASWAN GALLI, BELGAUM",0,BELGAUM,BELGAUM,KARNATAKA
"FEDERAL BANK",FDRL0001508,NA,NIPANI,"TIFFCO PLAZA, GALA NO.1, NIPANI",0,NIPANI,NIPANI,KARNATAKA
"FEDERAL BANK",FDRL0001507,591049402,"ATHANI (BELGAUM)","NEAR HPO,NEAR GANESH MANDIR, A/P ATHANI,ATHANI TALUK,BELGAUM DIST.",0,"ATHANI, KARNATAKA",BELGAUM,KARNATAKA
"FEDERAL BANK",FDRL0001506,411049005,PUNE/WARJE-MALWADI,"ARYAPRATHAM APARTMENTSNEAR  WARJE CHOWK  N D A ROADWARJE/MALWADI, PUNE",0,PUNE,PUNE,MAHARASHTRA
"FEDERAL BANK",FDRL0001505,400049015,"MUMBAI / DADAR WEST","FINAL PLOT NO.350,NEMINATH APARTMENT, OPP.BHAINDAKAR MKT.,DADAR(WEST),MUMBAI-400028",0,MUMBAI,MUMBAI,MAHARASHTRA
"FEDERAL BANK",FDRL0001503,416049151,"SANGLI CITY","SIDDHIVINAYAK FORUM,OPP. ZILLA PARISHAD SANGLI  ---  416 416",0,SANGLI,SANGLI,MAHARASHTRA
"FEDERAL BANK",FDRL0001502,411049004,PUNE/DHANKAVADI,"RAVIKIRAN HEIGHTS, SR NO. 20/2, PUNE - SATARA ROAD, BALAJI NAGAR, DHANKAVADI,",0,PUNE,PUNE,MAHARASHTRA
"FEDERAL BANK",FDRL0001501,415049101,ISLAMPUR,"HOLKAR COMPLEX S.T.STAND ROAD ISLAMPUR MAHARASHTRA",0,PUNE,SANGLI,MAHARASHTRA
"FEDERAL BANK",FDRL0001500,411049003,PUNE/KOTHRUD,"NIRMAL PLAZA, GROUND FLOOR OPP. VANAZ INDUSTRIES,PAUD ROAD, KOTHRUD",0,PUNE,PUNE,MAHARASHTRA
"FEDERAL BANK",FDRL0001499,NA,"UGAR KHURD","ATHANI TALUK BELGAUM DIST.",0,"UGAR KHURD",BELGAUM,KARNATAKA
"FEDERAL BANK",FDRL0001498,415049352,KARAD,"KARAD TALUK, SATARA DIST.",0,KARAD,SATARA,MAHARASHTRA
"FEDERAL BANK",FDRL0001497,NA,AINAPUR,"ATHANI TALUK BELGAUM DIST.",0,AINAPUR,BELGAUM,KARNATAKA
"FEDERAL BANK",FDRL0001496,416049004,"KOHLAPUR/ R.R TAKALA","Upper Ground Floor Grand Signet Building, Rajaram Road, Kolhapur 416 008",0,KOLHAPUR,KOLHAPUR,MAHARASHTRA
"FEDERAL BANK",FDRL0001495,590049003,GANESHPUR,"PLOT NO. 19, NEAR MILITARY HOSPITAL, GANESHPUR MAIN ROAD,",0,BELGAUM,BELGAUM,KARNATAKA
"FEDERAL BANK",FDRL0001494,416049152,"SANGLI/ S.T COLONY","S T COLONY,SANGLI, KESAR BHAVAN,100 FT ROAD, NR. GANESH MANDIR, VISHRAMBAG, SANGLI-416415",0,SANGLI,SANGLI,MAHARASHTRA
"FEDERAL BANK",FDRL0001493,416049153,MIRAJ,"SHANIWARPETH,NEAR MAIDAN DATTA MANDIR SANGLI DIST,MAHARASHTRA",0,MIRAJ,SANGLI,MAHARASHTRA
"FEDERAL BANK",FDRL0001492,416049003,"KOHLAPUR/AZAD CHOWK","KARVEER TALUK KOLHAPUR DIST, MAHARASHTRA",0,KOLHAPUR,KOLHAPUR,MAHARASHTRA
"FEDERAL BANK",FDRL0001491,416049154,JAYSINGPUR,"SHIROL TALUK,NEAR ST STAND KOLHAPUR DIST, MAHARASHTRA",0,JAYASINGPUR,KOLHAPUR,MAHARASHTRA
"FEDERAL BANK",FDRL0001490,416049005,TOAP,"HATKANANGLE TALUK KOLHAPUR DIST, MAHARASHTRA",0,TOAP,KOLHAPUR,MAHARASHTRA
"FEDERAL BANK",FDRL0001485,416049502,SHIROL,"SHIROL TALUK KOHLAPUR,MAHARASHTRA",0,SHIROL,KOLHAPUR,MAHARASHTRA
"FEDERAL BANK",FDRL0001484,416049503,KOTHALI,"NANDRE BUILDING, KUPADE GALLI, MAIN ROAD KOTHALI , KOLHAPUR DIST, MAHARASHTRA",0,KOTHALI,KOLHAPUR,MAHARASHTRA
"FEDERAL BANK",FDRL0001483,NA,GANESHWADI,"SHIROL TALUK KOLHAPUR DIST, MAHARASHTRA",0,GANESHWADI,KOLHAPUR,MAHARASHTRA
"FEDERAL BANK",FDRL0001482,NA,NARSOBAWADI,"SHIROL TALUK KOLHAPUR DISTRICT,MAHARASHTRA",0,NARSOBAWADI,KOLHAPUR,MAHARASHTRA
"FEDERAL BANK",FDRL0001481,416049201,ICHALKARINJI,"DHANYA LANE HATKANAGALE TALUK, MAHARASHTRA",0,ICHALKARANJI,KOLHAPUR,MAHARASHTRA
"FEDERAL BANK",FDRL0001480,591049002,KAGWAD,"ATHANI TALUK BELGAUM DIST KARNATAKA",0,KAGWAD,BELGAUM,KARNATAKA
"FEDERAL BANK",FDRL0001479,416049102,KURUNDWAD,"SHIROL TALUK KOHLAPUR( DIST) MAHARASHTRA",0,KURUNDWAD,KOLHAPUR,MAHARASHTRA
"FEDERAL BANK",FDRL0001478,110049016,"NEW DELHI / MAYUR VIHAR","UTTARA GURUVAYURAPPAN TEMPLE COMPLEX EAST GATE, KRISHA MARG, POCKET3, MAUR VIHAR1",0,"NEW DELHI","NEW DELHI",DELHI
"FEDERAL BANK",FDRL0001477,689049303,PACHA/CHEKKIDIKKAD,"CHEKKIDIKKADU P O CHEKKIDIKKADU P O CHEKKIDIKKADU P O",0,PACHA/CHEKKIDIKKAD,ALAPUZHA,KERALA
"FEDERAL BANK",FDRL0001476,690049103,"KAYAMKULAM/COLLEGE JUNCTION","MSM COLLEGE KAYAMKULAM",2442031,KAYAMKULAM,ALAPUZHA,KERALA
"FEDERAL BANK",FDRL0001475,400049014,PANVEL,"GROUND FLOOR  ""SULOCHANA"" PLOT NO.1  SECTOR 19 NEW PANVEL  NAVI MUMBAI",27453610,PANVEL,RAIGAD,MAHARASHTRA
"FEDERAL BANK",FDRL0001474,110049015,"NEW DELHI / ROHINI","IST FLOOR  SGL PLAZA  PLOT NO.10 COMMUNITY CENTRE  SECTOR IX DELHI",27556500,"NEW DELHI","NEW DELHI",DELHI
"FEDERAL BANK",FDRL0001473,500049005,HYDERABAD/PUNJAGUTTA,"6-3-456/C1 & C2  GROUND FLOOR MGR ESTATES PUNJAGUTTA  HYDERABAD",23357575,HYDERABAD,HYDERABAD,"ANDHRA PRADESH"
"FEDERAL BANK",FDRL0001472,560049010,"BANGALORE/RT NAGAR","NO.20  IST MAIN ROAD 108 'B' BUS ST GANGA NG RT NAGAR PO BANGALORE",0,BANGALORE,BANGALORE,KARNATAKA
"FEDERAL BANK",FDRL0001471,560049009,"BANGALORE / BANASWADI","NO.7  WARD NO.88 BANASWADI MAIN ROAD BANGALORE",25420700,BANGALORE,BANGALORE,KARNATAKA
"FEDERAL BANK",FDRL0001470,392049001,BHARUCH,"UPPER GROUND FLOOR B-WING M/S CAPITAL BUSINESS CENTRE BHARUCH",243213,BHARUCH,BHARUCH,GUJARAT
"FEDERAL BANK",FDRL0001469,682049035,"KAKKANAD/SEAPORT-AIRPORT ROAD","K & T TOWERS NEAR POST OFFICE KAKKANAD",2421940,KAKKANAD,ERNAKULAM,KERALA
"FEDERAL BANK",FDRL0001468,676049252,VALANCHERY,"PTP TOWER OPP.PANCHAYATH OFFICE VALANCHERY",0,VALANCHERY,MALAPPURAM,KERALA
"FEDERAL BANK",FDRL0001467,680049007,"THRISSUR / KOORKENCHERY","SUNCITY COMMERCIAL COMPLEX KOORKENCHERY THRISSUR",2427810,THRISSUR,THRISSUR,KERALA
"FEDERAL BANK",FDRL0001466,682049026,"WILLINGDON ISLAND","5TH CROSS ROAD, DHARRAGH SMAIL HOUSE, WILLINGDON ISLAND, KOCHI 682 003",0,KOCHI,ERNAKULAM,KERALA
"FEDERAL BANK",FDRL0001465,673049009,RAMANATTUKARA,"V/488A  FIRST FLOOR REGENT PLAZA KOZHIKODE DISTRICT",2442620,RAMANATTUKARA,KOZHIKODE,KERALA
"FEDERAL BANK",FDRL0001464,682049034,"INFOPARK / KAKKANAD","GROUND FLOOR VISMAYA INFOPARK  KUSUMAGIRI P O  KAKKANAD",2415050,KAKKANAD,ERNAKULAM,KERALA
"FEDERAL BANK",FDRL0001463,680049010,EDAMUTTAM,"STAR PLAZA COMPLEX NH 17 EDAMUTTAM CENTRE EDAMUTTAM",2835286,THRISSUR,THRISSUR,KERALA
"FEDERAL BANK",FDRL0001462,625049102,THENI,"139 & 140 MADURAI ROAD TAMILNADU",255666,THENI,THENI,"TAMIL NADU"
"FEDERAL BANK",FDRL0001461,670049004,"KANNUR/SOUTH BAZAR","P B NO 488 FIRST FLOOR SOUTH BAZAR  KANNUR",2711986,KANNUR,KANNUR,KERALA
"FEDERAL BANK",FDRL0001460,520049002,"VIJAYAWADA / PATAMATA","NTR CIRCLE PATAMATA VIJAYAWADA",2477547,VIJAYAWADA,VIJAYAWADA,"ANDHRA PRADESH"
"FEDERAL BANK",FDRL0001459,691049003,"KOLLAM / POLAYATHODE","KURUMPELIL AVENUE POLAYATHODE KOLLAM - DIST.",2767701,KOLLAM,KOLLAM,KERALA
"FEDERAL BANK",FDRL0001458,670049801,IRITTY,"KCP/13/1831 SAKTHICOMPLEX MAINROAD IRITTY KANNURDIST.",2492700,IRITTY,KANNUR,KERALA
"FEDERAL BANK",FDRL0001457,600049011,CHENNAI/PURASAWALKAM,"DOOR NO.47 GANGADEESWARAR KOIL ST PURASAWALKAM CHENNAI",26651129,CHENNAI,CHENNAI,"TAMIL NADU"
"FEDERAL BANK",FDRL0001456,431049002,AURANGABAD,"GROUND FLOOR ALAKANANDA AURANGABAD",2356434,AURANGABAD,AURANGABAD,MAHARASHTRA
"FEDERAL BANK",FDRL0001455,416049002,KOLHAPUR,"C.S. NO.1425 C WARD FORD CORNER LAXMIPURI SAMANT TOWER KOLHAPUR",2642692,KOLHAPUR,KOLHAPUR,MAHARASHTRA
"FEDERAL BANK",FDRL0001454,560049007,"BANGALORE / MARATHAHALLI","86/80  1ST FLOOR MAIN ROAD  MARATHAHALLI BANGALORE",0,BANGALORE,BANGALORE,KARNATAKA
"FEDERAL BANK",FDRL0001453,110049014,"NEW DELHI / PITAMPURA","GROUND FLOOR B-156  LOK VIHAR ROAD NO.44  PITAMPURA",27354333,"NEW DELHI","NEW DELHI",DELHI
"FEDERAL BANK",FDRL0001452,600049010,"CHENNAI / CMS BRANCH","61  ANNA SALAI CHENNAI  TAMILNADU STATE",28510645,CHENNAI,CHENNAI,"TAMIL NADU"
"FEDERAL BANK",FDRL0001451,110049013,"NEW DELHI/ NIRMAN VIHAR","E - 372 GROUND FLOOR NIRMAN VIHAR  NEW DELHI",22440956,"NEW DELHI","NEW DELHI",DELHI
"FEDERAL BANK",FDRL0001450,248049002,DEHRADUN,"447  RAJPUR ROAD OPPOSITE HOTEL GREAT VALUE",0,DEHRADUN,DEHRADUN,UTTARAKHAND
"FEDERAL BANK",FDRL0001449,678049804,VADAKKENCHERY,"THE FEDERAL BANK LTD SHA TOWERS  VADAKKENCHERY",254243,VADAKKENCHERY,PALAKKAD,KERALA
"FEDERAL BANK",FDRL0001448,682049032,THIRUVANKULAM,"BLDG. NO.VII/602 A PULIMOOTTIL BUILDING ERNAKULAM DIST",2786886,THIRUVANKULAM,ERNAKULAM,KERALA
"FEDERAL BANK",FDRL0001447,834049002,RANCHI,"GROUND FLOOR HERO HOUSE , MAIN ROAD",2211483,RANCHI,RANCHI,JHARKHAND
"FEDERAL BANK",FDRL0001445,492049002,RAIPUR,"GF  LALGANGA SHOPPING MALL GE ROAD",2236276,RAIPUR,RAIPUR,CHANDIGARH
"FEDERAL BANK",FDRL0001444,600049009,"CHENNAI / VADAPALANI","NO. 64 , J N SALAI, OPP.HOTEL VIJAY PARK 100 FEET ROAD, ARUMBAKKAM",0,CHENNAI,CHENNAI,"TAMIL NADU"
"FEDERAL BANK",FDRL0001443,689049402,"MALLAPPALLY WEST","THE FEDERAL BANK LTD GROUND FLOOR MALLAPPALLY",2683232,"MALLAPPALLY WEST",PATHANAMTHITTA,KERALA
"FEDERAL BANK",FDRL0001442,670049202,MANANTHAVADY,"THE FEDERAL BANK LTD ONATTUTHOTTATHIL BLDG MANANTHAVADY",246444,MANANTHAVADY,WAYANAD,KERALA
"FEDERAL BANK",FDRL0001441,600049008,"CHENNAI / ADYAR","NO 10, 4TH MAIN ROAD, GANDHI NAGAR, (NEAR FORTIS MALAR HOSPITAL),ADYAR, CHENNAI",24404058,CHENNAI,CHENNAI,"TAMIL NADU"
"FEDERAL BANK",FDRL0001440,695049202,NEYYATINKARA,"THE FEDERAL BANK LTD SWADESABHIMANI COMPLEX NEYYATTINKARA",0,NEYYATINKARA,NEYYATINKARA,KERALA
"FEDERAL BANK",FDRL0001439,695049014,POTHENCODE,"REBEKKA SHOPPING COMPLEX THIRUVANANTHAPURAM",2717269,POTHENCODE,THIRUVANANTHAPURAM,KERALA
"FEDERAL BANK",FDRL0001438,734049002,SILIGURI,"LOWER GROUND FLOOR, SATURNS BESIDES UBI SEVOKE ROAD BRANCH, SEVOKE ROAD",0,SILIGURI,DARJILING,"WEST BENGAL"
"FEDERAL BANK",FDRL0001437,560049008,"BANGALORE  KORAMANGALA","NO.820  20TH MAIN GOLDEN HOUSE 8TH BLOCK 80 FT.ROAD KORAMANGALA",0,BANGALORE,BANGALORE,KARNATAKA
"FEDERAL BANK",FDRL0001435,NA,"ERNAKULAM/ASSET RECOVERY","FEDERAL TOWERS 8TH FLOOR MARINE DRIVE  ERNAKULAM",2385598,ERNAKULAM,ERNAKULAM,KERALA
"FEDERAL BANK",FDRL0001433,680049013,MALA,"XII/1379 A POST OFFICE ROAD MALA  THRISSUR DISTRICT",2897770,THRISSUR,THRISSUR,KERALA
"FEDERAL BANK",FDRL0001432,680049102,CHAVAKKAD,"LIMA TOWER OPP. POLICE STATION MAIN ROAD  CHAVAKKAD",2503120,CHAVAKKAD,THRISSUR,KERALA
"FEDERAL BANK",FDRL0001431,679049002,OTTAPPALAM,"GROUND FLOOR NARAYANA TOWERS OTTAPPALAM",2249520,OTTAPPALAM,PALAKKAD,KERALA
"FEDERAL BANK",FDRL0001430,686049253,VAZHAKULAM,"CHAKKUMPEEDIKA ARCADE VAZHAKULAM (P.O) ERNAKULAM DIST.",2262277,VAZHAKULAM,ERNAKULAM,KERALA
"FEDERAL BANK",FDRL0001429,695049010,THIRUVANANTHAPURAM/COTTONHILL,"T.C. 15/356-4, EDAPPAZHANJI MAIN ROAD, COTTON HILL,VAZHUTHACAUD,",0,THIRUVANANTHAPURAM,THIRUVANANTHAPURAM,KERALA
"FEDERAL BANK",FDRL0001427,676049102,KOTTAKKAL,"VEE PEE TOWER KOTTAKKAL (P.O) MALAPPURAM DIST  KL",2740900,KOTTAKKAL,MALAPPURAM,KERALA
"FEDERAL BANK",FDRL0001426,NA,KATTAPPANA,"HILLSON PLAZA IDUKKI KAVALA KATTAPPANA  KL",274555,KATTAPPANA,IDUKKI,KERALA
"FEDERAL BANK",FDRL0001425,680049452,TRIPRAYAR,"GROUND FLOOR KAKKANAT COMPLEX TRIPRAYARNATTIKA P O",0,THRISSUR,THRISSUR,KERALA
"FEDERAL BANK",FDRL0001424,682049025,"ERNAKULAM / CMS BRANCH","FEDERAL TOWERS MARINE DRIVE ERNAKULAM",2385514,ERNAKULAM,ERNAKULAM,KERALA
"FEDERAL BANK",FDRL0001423,686049805,UZHAVOOR,"THE FEDERAL BANK LTD UZHAVOOR UZHAVOOR",241746,UZHAVOOR,KOTTAYAM,KERALA
"FEDERAL BANK",FDRL0001422,695049015,VENJARAMOODU,"NEAR KSEB MAJOR SECTION OFFICE PB NO. 5  M.C. ROAD  THIRUVANANTHAPURAM",2875999,VENJARAMOODU,THIRUVANANTHAPURAM,KERALA
"FEDERAL BANK",FDRL0001421,682049022,ERNAKULAM/KALOOR,"SYDA BUILDING,  OPPOSITE TO IGNOU KALOOR KADAVANTHARA ROAD, KALOOR",2336900,KOCHI,ERNAKULAM,KERALA
"FEDERAL BANK",FDRL0001418,NA,COIMBATORE/ARB,"DOOR NO 21 VARIETY HALL ROAD COIMBATORE",2302992,COIMBATORE,COIMBATORE,"TAMIL NADU"
"FEDERAL BANK",FDRL0001417,689049476,PANDALAM,"P B NO. 46  OOTHIKALIL COMPLEX OPPOSITE POST OFFICE PANDALAM",251133,PANDALAM,PATHANAMTHITTA,KERALA
"FEDERAL BANK",FDRL0001416,695049008,THIRUVANANTHAPURAM/PEROORKADA,"THE FEDERAL BANK LIMITED 1STFLOOR VASANTHAMTOWERS THIRUVANANTHAPURAM",2439933,THIRUVANANTHAPURAM,THIRUVANANTHAPURAM,KERALA
"FEDERAL BANK",FDRL0001415,673049102,PERAMBRA,"ALANKAR ARCADE KOZHIKODE",2612777,PERAMBRA,KOZHIKODE,KERALA
"FEDERAL BANK",FDRL0001414,673049452,THAMARASSERY,"MAHARANI SHOPPING COMPLEX KARADI, WYNAD ROADTHAMARASSERY",0,THAMARASSERY,KOZHIKODE,KERALA
"FEDERAL BANK",FDRL0001413,673049004,"KOZHIKODE / MAVOOR ROAD","GROUND FLOOR FEDERAL TOWER 27/97G MAVOOR RD ARAYIDATHPALAM",2744177,KOZHIKODE,KOZHIKODE,KERALA
"FEDERAL BANK",FDRL0001412,679049352,PATTAMBI,"PRANAVAM BUILDINGS PALAKKAD ROAD PATTAMBI",2213966,PATTAMBI,PALAKKAD,KERALA
"FEDERAL BANK",FDRL0001410,682049019,ERNAKULAM/VYTTILA,"31/758  THAMMANAM ROAD VYTTILA JUNCTION KOCHI",2389309,ERNAKULAM,ERNAKULAM,KERALA
"FEDERAL BANK",FDRL0001409,678049152,MANNARKKAD,"CHILAMBUKADAN BUILDINGS KODATHIPADY MANNARKKAD",224065,MANNARKKAD,PALAKKAD,KERALA
"FEDERAL BANK",FDRL0001408,NA,"CHENNAI / ASSET RECOVERY","ASSET RECOVERY BRANCH 1ST FL NO.57 ROYAPETTAH HG RD ROYAPETTAH CHN",28130988,CHENNAI,CHENNAI,"TAMIL NADU"
"FEDERAL BANK",FDRL0001407,673049152,QUILANDY,"P B NO. 22 TOWN CENTRE QUILANDY",2631157,QUILANDY,KOZHIKODE,KERALA
"FEDERAL BANK",FDRL0001403,400049025,"MUMBAI / ASSET RECOVERY","134  JOLLY MAKER CHAMBER NO.2 NARIMAN POINT MUMBAI",22846676,MUMBAI,MUMBAI,MAHARASHTRA
"FEDERAL BANK",FDRL0001402,686049054,PERUNNA,"NSS BUILDING, PERUNNA PO, CHANGANASSERY, KOTTAYAM DIST.",0,PERUNNA,KOTTAYAM,KERALA
"FEDERAL BANK",FDRL0001401,695049052,ATTINGAL,"OPP. K S R T C  BUS STAND ATTINGAL ATTINGAL",2625760,ATTINGAL,THIRUVANANTHAPURAM,KERALA
"FEDERAL BANK",FDRL0001400,700049012,"KOLKATA / SHAKESPERE SARANI","IST FLOOR 21A  SHAKESPERE SARANI KOLKATA",22828292,KOLKATA,KOLKATA,"WEST BENGAL"
"FEDERAL BANK",FDRL0001399,400049013,"MUMBAI / CHEMBUR","SHOP NO.1 ED-EL PLOT NO.208  CHEMBUR  MUMBAI",25298105,MUMBAI,"MUMBAI SUBURBAN",MAHARASHTRA
"FEDERAL BANK",FDRL0001398,400049012,"MUMBAI / BANDRA (WEST)","B-989 CASA ADRIANA 15 ST.JOHNBAPTISTROAD BANDRA(WEST MUMBAI",0,MUMBAI,"MUMBAI SUBURBAN",MAHARASHTRA
"FEDERAL BANK",FDRL0001397,NA,MUNDAKAYAM,"C S I  BUILDING P B NO. 17 MUNDAKAYAM",273356,MUNDAKAYAM,KOTTAYAM,KERALA
"FEDERAL BANK",FDRL0001396,690049002,HARIPAD,"P B NO. 40 GOVT. HOSPITAL JN. HARIPAD",2416614,HARIPAD,ALAPUZHA,KERALA
"FEDERAL BANK",FDRL0001395,500049004,SECUNDERABAD,"1ST FLOOR  VASAVI TOWERS 1-1-40/1  OPP. MANJU THEATRE SECUNDRABAD",27895133,SECUNDERABAD,SECUNDERABAD,"ANDHRA PRADESH"
"FEDERAL BANK",FDRL0001394,605049002,PONDICHERRY,"315  MARAIMALAI ADIGAL SALAI NELLITHOPE PONDICHERRY",2200235,PONDICHERRY,PONDICHERRY,PUDUCHERRY
"FEDERAL BANK",FDRL0001393,400049008,"MUMBAI / VILE PARLE","`WEMBLY` GROUND FLOOR OFF NEHRU ROAD VILE PARLE EAST",26154635,MUMBAI,"MUMBAI SUBURBAN",MAHARASHTRA
"FEDERAL BANK",FDRL0001392,211049002,ALLAHABAD,"N P A ARCADE 23  M. G. ROAD ALLAHABAD",2560019,ALLAHABAD,ALLAHABAD,"UTTAR PRADESH"
"FEDERAL BANK",FDRL0001391,400049011,"MUMBAI / BORIVILI","BUILDING NO 1, SUMER NAGAR, S. V. ROAD, BORIVILI - WEST,",0,MUMBAI,"MUMBAI SUBURBAN",MAHARASHTRA
"FEDERAL BANK",FDRL0001390,110049011,"NEW DELHI/CORPORATE BANKING BR","E-13-29 , HARSHA BHAVAN, MIDDLE CIRCLE CONNAUGHT PLACE",0,"NEW DELHI","NEW DELHI",DELHI
"FEDERAL BANK",FDRL0001389,673049007,"KOZHIKODE / S M STREET","S M STREET BRANCH PARCO TOWERS P M TAJ ROAD  KOZHIKODE",2723411,KOZHIKODE,KOZHIKODE,KERALA
"FEDERAL BANK",FDRL0001388,680049252,KODUNGALLUR,"NEAR MEGA MALL NORTH NADA  KODUNGALLUR",2806828,KODUNGALLUR,THRISSUR,KERALA
"FEDERAL BANK",FDRL0001387,560049006,BANGALORE/JAYANAGAR,"K M PLAZA KANAKAPURA MAIN RD 30TH CROSS 7TH BLOCK  JAYANAGAR BANGALORE",26655558,BANGALORE,BANGALORE,KARNATAKA
"FEDERAL BANK",FDRL0001386,600049007,"CHENNAI / T NAGAR","NO. 29, DR. NAIR ROAD, T NAGAR,",0,CHENNAI,CHENNAI,"TAMIL NADU"
"FEDERAL BANK",FDRL0001385,400049009,"MUMBAI / CORPORATE BANKING","CORPORATE BANKING BRANCH, GROUND FLOOR EXPRESS TOWERS, NARIMAN POINT",0,MUMBAI,MUMBAI,MAHARASHTRA
"FEDERAL BANK",FDRL0001383,400049010,"MUMBAI / THANE","SHOP NO 5 & 6, GIRIDARSHAN BUILDING, VEER SAW THEEN PETROL PUMP JUNCTION THANE(WEST), MAHAR",25339373,MUMBAI,THANE,MAHARASHTRA
"FEDERAL BANK",FDRL0001382,110049009,"NEW DELHI / KAROL BAGH","1001  FAIZ ROAD ARYASAMAJROADCROSSING KAROLBAGH NEWDELHI",25811984,"NEW DELHI","NEW DELHI",DELHI
"FEDERAL BANK",FDRL0001381,110049010,FARIDABAD,"5 D/6 B P NEELAM RAILWAY ROAD  NIT FARIDABAD",2420783,FARIDABAD,FARIDABAD,HARYANA
"FEDERAL BANK",FDRL0001380,682049018,ERNAKULAM/PALARIVATTOM,"35/37A PALARIVATTAM ERNAKULAM",2338230,ERNAKULAM,ERNAKULAM,KERALA
"FEDERAL BANK",FDRL0001378,700049011,"KOLKATA / OVERSEAS","OVERSEAS BRANCH 21A  SHAKESPEARE SARANI KOLKATA",22826674,KOLKATA,KOLKATA,"WEST BENGAL"
"FEDERAL BANK",FDRL0001377,753049002,CUTTACK,"BAJRAKABATI ROAD BESIDE PETROL PUMP CUTTACK",2312038,CUTTACK,CUTTACK,ODISHA
"FEDERAL BANK",FDRL0001376,686049003,"KOTTAYAM / KANJIKUZHY","KANJIKUZHY MUTTAMBALAM P O KOTTAYAM",2573688,KOTTAYAM,KOTTAYAM,KERALA
"FEDERAL BANK",FDRL0001375,682049011,"ERNAKULAM/MARINE DRIVE","GROUND FLOOR FEDERAL TOWERS ERNAKULAM",0,ERNAKULAM,ERNAKULAM,KERALA
"FEDERAL BANK",FDRL0001374,695049007,THIRUVANANTHAPURAM/PATTOM,"PERSONAL BANKING BRANCH JEEVANPRAKASH THIRUVANANTHAPURAM",2542370,THIRUVANANTHAPURAM,THIRUVANANTHAPURAM,KERALA
"FEDERAL BANK",FDRL0001373,160049002,CHANDIGARH,"SCO 139-140 SECTOR 8 C MADHYA MARG  CHANDIGARH",2549410,CHANDIGARH,CHANDIGARH,CHANDIGARH
"FEDERAL BANK",FDRL0001372,141049002,LUDHIANA,"IST FL NEW SHOPPING CEN GHUMAR MANDI RD KRISHNA NG CIVIL LINES LUDHIANA",2404249,LUDHIANA,LUDHIANA,PUNJAB
"FEDERAL BANK",FDRL0001371,682049040,KALADY,"CRYSTAL TOWERS M C ROAD, ERNAKULAM DIST",2462871,KALADY,ERNAKULAM,KERALA
"FEDERAL BANK",FDRL0001370,671049002,KASARAGODE,"M G ROAD KASARGODE KASARGODE",226946,KASARAGODE,KASARAGODE,KERALA
"FEDERAL BANK",FDRL0001369,400049007,"MUMBAI / VASHI","P B NO. 172 NO.51 APSARA APARTMENTS NAVI MUMBAI",0,MUMBAI,THANE,MAHARASHTRA
"FEDERAL BANK",FDRL0001368,680049006,"THRISSUR / M.O. ROAD","M O ROAD BRANCH THRISSUR THRISSUR",2427721,THRISSUR,THRISSUR,KERALA
"FEDERAL BANK",FDRL0001367,415049051,RATNAGIRI,"D Y S PLAZA, GROUND FLOOR MARUTI MANDIR",0,RATNAGIRI,RATNAGIRI,MAHARASHTRA
"FEDERAL BANK",FDRL0001365,676049052,MANJERI,"1ST FLOOR,KORAMBAYIL CORPORATE MALL CENTRAL JUNCTION,MANJERI",0,MALAPPURAM,MALAPPURAM,KERALA
"FEDERAL BANK",FDRL0001364,685049152,ADIMALY,"P B NO 14 ADIMALY ADIMALY",222289,ADIMALY,IDUKKI,KERALA
"FEDERAL BANK",FDRL0001363,679049202,PONNANI,"P B NO.  23 CHAMRAVATTOM JUNCTION PONNANI",2667262,PONNANI,MALAPPURAM,KERALA
"FEDERAL BANK",FDRL0001361,635049402,HOSUR,"76/10 HOTEL SHA INTER.BLD KRISHNAGIRI DIST.",246789,HOSUR,KRISHNAGIRI,"TAMIL NADU"
"FEDERAL BANK",FDRL0001360,110049008,"NEW DELHI/GREATER KAILASH II","S-571  GREATER KAILASH-II NEW DELHI NEW DELHI",29212094,"NEW DELHI","NEW DELHI",DELHI
"FEDERAL BANK",FDRL0001359,641049102,"TIRUPUR INDUSTRIAL FINANCE","P B NO.  419 INDUSTRIAL FINANCE BR. TIRUPUR",2200563,TIRUPUR,TIRUPUR,"TAMIL NADU"
"FEDERAL BANK",FDRL0001358,400049006,"MUMBAI / DOMBIVLI","101-105 KASTURI PLAZA  COMPLEX MANPADA RD TILAK NAGAR DOMBIVLI(EAST) MUMBAI",2862177,MUMBAI,MUMBAI,MAHARASHTRA
"FEDERAL BANK",FDRL0001357,641049004,"COIMBATORE/KAVUNDAM PALAYAM","5/1  J 3  GANDHI NAGAR METTUPPALAYAMROAD KAVUNDAMPALAYAM COIMBATORE",2440922,COIMBATORE,COIMBATORE,"TAMIL NADU"
"FEDERAL BANK",FDRL0001356,577049102,CHIKMAGALUR,"P B NO 157 INDIRA GANDHI ROAD CHIKMAGALUR",233024,CHIKMAGALUR,CHIKMAGALUR,KARNATAKA
"FEDERAL BANK",FDRL0001355,110049007,GURGAON,"483/16 CHANDAN PALACE JAIL ROAD CIVIL LINES  GURGAON",2331681,GURGAON,GURGAON,HARYANA
"FEDERAL BANK",FDRL0001354,573049302,HASSAN,"P B NO 175 SUVARNA ARCADE B M ROAD  HASSAN",267848,HASSAN,HASSAN,KARNATAKA
"FEDERAL BANK",FDRL0001353,530049102,ANAKAPALLE,"P B NO. 23 12-4-7  UPSTAIRS OPP. R T C COMPLEX ANAKAPPALLE",222910,ANAKAPALLE,ANAKAPALLE,"ANDHRA PRADESH"
"FEDERAL BANK",FDRL0001352,403049002,PANAJI,"DAYANAND SMRUTI, SWAMI VIVEKANANDA ROAD, PANAJI GOA 403001",2228262,PANAJI,PANAJI,GOA
"FEDERAL BANK",FDRL0001351,523049002,ONGOLE,"D NO. 37-1-173  1ST FLOOR KURNOOL ROAD ONGOLE",234776,ONGOLE,ONGOLE,"ANDHRA PRADESH"
"FEDERAL BANK",FDRL0001350,462049002,BHOPAL,"BR.BHOPAL PLOT NO.6  ZONE II BHOPAL DIST  BHOPAL  M.P",2769364,BHOPAL,BHOPAL,"MADHYA PRADESH"
"FEDERAL BANK",FDRL0001349,689049202,KUMBANAD,"P B NO. 28 KUMBANAD KUMBANAD",2665364,KUMBANAD,PATHANAMTHITTA,KERALA
"FEDERAL BANK",FDRL0001348,411049002,PUNE,"P B NO. 821 ARIHANT NEAR BALGANDHARVA SQUARE",0,PUNE,PUNE,MAHARASHTRA
"FEDERAL BANK",FDRL0001347,641049003,COIMBATORE/SSI,"NO. 309, RAJ KAMAL TOWERS, AVINASHI ROAD, PEELAMEDU",0,COIMBATORE,COIMBATORE,"TAMIL NADU"
"FEDERAL BANK",FDRL0001346,671049052,KANHANGAD,"P B NO. 53 KALLATRA COMPLEX KANHANGAD",2208286,KANHANGAD,KASARAGODE,KERALA
"FEDERAL BANK",FDRL0001345,673049202,KALPETTA,"P B NO. 20 UJALA COMPLEX GUDALAI  KALPETTA",202058,KALPETTA,WAYANAD,KERALA
"FEDERAL BANK",FDRL0001344,302049002,JAIPUR,"P B NO. 412 SANGHI UPASANA TOWER C-98 SUBHASH MARG JAIPUR",2360925,JAIPUR,JAIPUR,RAJASTHAN
"FEDERAL BANK",FDRL0001343,395049002,SURAT,"P B NO.  443 VANKAR SANGH BUILDING SURAT",0,SURAT,SURAT,GUJARAT
"FEDERAL BANK",FDRL0001342,680049302,KUNNAMKULAM,"P B NO 47 WADAKKANCHERRY ROAD KUNNAMKULAM",222733,KUNNAMKULAM,THRISSUR,KERALA
"FEDERAL BANK",FDRL0001341,533049102,RAJAHMUNDRY,"DOOR NO: 60506 MAIN ROAD RAJAMUNDRY",2461457,RAJAHMUNDRY,RAJAHMUNDRY,"ANDHRA PRADESH"
"FEDERAL BANK",FDRL0001340,110049006,NOIDA,"FEDERAL TOWERS FEDERAL TOWERS SECTOR 22  NOIDA",0,NOIDA,"GAUTAM BUDDHA NAGAR","UTTAR PRADESH"
"FEDERAL BANK",FDRL0001339,440049002,NAGPUR,"LOWER GROUND FLOOR PUSHP KUNJ COMPLEX 20 CENTRAL BAZAAR ROAD",0,NAGPUR,NAGPUR,MAHARASHTRA
"FEDERAL BANK",FDRL0001338,580049002,HUBLI,"REVANKAR COMFORTS, S.V. ROAD, COURT CIRCLE, HUBLI-29, KARNATAKA",2368449,HUBLI,HUBLI,KARNATAKA
"FEDERAL BANK",FDRL0001335,390049002,BARODA,"GROUND FLOOR, GOKULESH II RC DUTT ROAD",2350721,BARODA,BARODA,GUJARAT
"FEDERAL BANK",FDRL0001334,560049005,"BANGALORE / RAJAJI NAGAR","NO. 60/60  RAJ CHAMBERS DR.RAJKUMAR RD 2ND BLOCK RAJAJI NG BANGALORE",0,BANGALORE,BANGALORE,KARNATAKA
"FEDERAL BANK",FDRL0001333,685049808,THOPRAMKUDI,"THOPRAMKUDY P O KATTAPPANA SOUTH KATTAPPANA SOUTH",8264224,THOPRAMKUDI,IDUKKI,KERALA
"FEDERAL BANK",FDRL0001332,500049003,"HYDERABAD LAKADI KA PUL","6-2-981, MARUTHI PLAZA,BESIDE SHAHDAN COLLEGE KHAIRATABAD, LAKDIKAPUL",4023322755,HYDERABAD,HYDERABAD,"ANDHRA PRADESH"
"FEDERAL BANK",FDRL0001331,688049005,"ALAPUZHA / CONVENT SQUARE","P B NO 184 ACJ MANSION,CCNB ROAD",0,ALAPUZHA,ALAPUZHA,KERALA
"FEDERAL BANK",FDRL0001330,685049805,KARIMPAN,"KARIMPAN MANIPPARA MANIPPARA",230326,KARIMPAN,IDUKKI,KERALA
"FEDERAL BANK",FDRL0001329,686049203,KUTTAMPUZHA,"KOTHAMANGALAM  (VIA) KUTTAMPUZHA KUTTAMPUZHA",2588212,KUTTAMPUZHA,ERNAKULAM,KERALA
"FEDERAL BANK",FDRL0001328,670049804,ERIAM,"ERIAM EDAKKOME P O CHAPPARAPPADAVU (VIA)",2270219,ERIAM,KANNUR,KERALA
"FEDERAL BANK",FDRL0001327,691049815,KOKKADU,"KOKKADU VETTIKAVALA (VIA) KOTTARAKKARA",2409343,KOKKADU,KOLLAM,KERALA
"FEDERAL BANK",FDRL0001326,691049805,KUREEPALLY,"KUREEPALLY NEDUMPANA NEDUMPANA",0,KUREEPALLY,KOLLAM,KERALA
"FEDERAL BANK",FDRL0001325,695049807,CHEMBUR,"OTTASEKHARAMANGALAM P O CHEMBUR CHEMBUR",2255249,CHEMBUR,THIRUVANANTHAPURAM,KERALA
"FEDERAL BANK",FDRL0001324,600049006,"CHENNAI / ANNA NAGAR","C48, TNHB COMPLEX 2ND AVENUE ANNA NAGAR,PHONE 044-26280413",26283610,CHENNAI,CHENNAI,"TAMIL NADU"
"FEDERAL BANK",FDRL0001323,673049801,MOTTANTHARA,"KAYANNA BAZAR P O PERAMBRA (VIA) PERAMBRA (VIA)",2659029,MOTTANTHARA,KOZHIKODE,KERALA
"FEDERAL BANK",FDRL0001322,688049811,PUTHENANGADI,"VARANAM P O ALAPPUZHA DIST",0,PUTHENANGADI,ALAPUZHA,KERALA
"FEDERAL BANK",FDRL0001321,682049050,ARAKUNNAM,"ST. GEORGE CHURCH BUILDING, ERNAKULAM DIST.",2747800,ARAKUNNAM,ERNAKULAM,KERALA
"FEDERAL BANK",FDRL0001320,686049801,TEEKOY,"GROUND FLOOR 575  KURUSUMOOTTIL BUILDINGS TEEKOY P O",281015,TEEKOY,KOTTAYAM,KERALA
"FEDERAL BANK",FDRL0001319,NA,DEVIKULANGARA,"DEVIKULANGARA PUTHUPPALLY P O KAYAMKULAM (VIA)",2442604,DEVIKULANGARA,ALAPUZHA,KERALA
"FEDERAL BANK",FDRL0001318,560049004,"BANGALORE / BASAVANAGUDI","20/1, GROUND FLOOR,SHRI MALLIKARJUNA NILAYA PROF.B S MADHAVA RAO CIRCLE,BASAVANAGUDI",26565323,BANGALORE,BANGALORE,KARNATAKA
"FEDERAL BANK",FDRL0001317,695049004,NANTHENCODE,"P B NO. 830 DEVASWOM BOARD JN NANTHENCODE",2314802,NANTHENCODE,THIRUVANANTHAPURAM,KERALA
"FEDERAL BANK",FDRL0001316,682049008,"ERNAKULAM/PANAMPILLY NAGAR","28/105 A OPP:HOUSING BOARD BLDG PANAMPILLY NAGAR KOCHI",0,ERNAKULAM,ERNAKULAM,KERALA
"FEDERAL BANK",FDRL0001315,679049801,KULUKKALLUR,"MULAYAMKAVU PATTAMBI (VIA) KULUKKALLUR",2215247,KULUKKALLUR,PALAKKAD,KERALA
"FEDERAL BANK",FDRL0001314,700049008,"KOLKATA / BEHALA","514 DIAMOND HARBOUR ROAD BEHALA KOLKATA",0,KOLKATA,KOLKATA,"WEST BENGAL"
"FEDERAL BANK",FDRL0001313,700049009,"KOLKATA / NEW MARKET","8, SUDDER STREET",3322529272,KOLKATA,KOLKATA,"WEST BENGAL"
"FEDERAL BANK",FDRL0001312,682049049,PAZHAMTHOTTAM,"PAZHAMTHOTTAM PAZHAMTHOTTAM KUMARAPURAM",2688378,PAZHAMTHOTTAM,ERNAKULAM,KERALA
"FEDERAL BANK",FDRL0001311,695049020,VENGODE,"VENGODE KUDAVOOR P O KUDAVOOR P O",2429747,VENGODE,THIRUVANTHAPURAM,KERALA
"FEDERAL BANK",FDRL0001310,690049806,"MUTTOM (ALAPUZHA)","MUTTOM HARIPPAD (VIA) MUTTOM",2401848,"MUTTOM (ALAPUZHA)",ALAPUZHA,KERALA
"FEDERAL BANK",FDRL0001309,685049802,KANCHIYAR,"THOPPIPALA KANCHIYAR KANCHIYAR",271306,KANCHIYAR,IDUKKI,KERALA
"FEDERAL BANK",FDRL0001308,691049103,KALAYAPURAM,"MEDAYIL BUILDINGS KALAYAPURAM KALAYAPURAM",0,KALAYAPURAM,KOLLAM,KERALA
"FEDERAL BANK",FDRL0001307,695049006,PONGUMOODU,"MEDICAL COLLEGE P O PONGUMOODU PONGUMOODU",2442230,THIRUVANANTHAPURAM,THIRUVANANTHAPURAM,KERALA
"FEDERAL BANK",FDRL0001306,673049006,PUTHIYARA,"1ST FLOOR, SPACE MALL JAFARKHAN COLONY ROAD",2725234,KOZHIKODE,KOZHIKODE,KERALA
"FEDERAL BANK",FDRL0001305,695049003,MUTTADA,"MUTTADA MUTTADA MUTTADA",2541056,THIRUVANANTHAPURAM,THIRUVANANTHAPURAM,KERALA
"FEDERAL BANK",FDRL0001304,700049004,"KOLKATA / BHOWANIPORE","4/1 ELGIN ROAD BHOWANIPORE KOLKATA",22832452,KOLKATA,KOLKATA,"WEST BENGAL"
"FEDERAL BANK",FDRL0001303,686049806,KIDANGOOR,"KIDANGOOR KIDANGOOR KIDANGOOR",254191,KIDANGOOR,KOTTAYAM,KERALA
"FEDERAL BANK",FDRL0001302,110049005,"NEW DELHI / NEHRU PLACE","G.I-6 SATKAR BUILDING 79-80 NEHRU PLACE NEW DELHI",0,"NEW DELHI","NEW DELHI",DELHI
"FEDERAL BANK",FDRL0001301,636049004,ILLUPILI,"ILLUPPILI ILLUPPILI ELACHIPALAYAM (VIA)",231148,ILLUPILI,NAMAKKAL,"TAMIL NADU"
"FEDERAL BANK",FDRL0001300,673049005,"NADAKKAVU WEST","P B NO. 1016 ELITE ARCADE, NADAKKAVU  WEST",2366115,KOZHIKODE,KOZHIKODE,KERALA
"FEDERAL BANK",FDRL0001299,686049006,CHINGAVANAM,"NANTHIATTU BUILDINGS, M C ROAD, CHINGAVANAM P O KOTTAYAM DIST",2430433,CHINGAVANAM,KOTTAYAM,KERALA
"FEDERAL BANK",FDRL0001298,695049018,KALLIKKAD,"THOPPIL BUILDING KALLIKKAD MYLAKKARA PO",2272433,KALLIKKAD,THIRUVANANTHAPURAM,KERALA
"FEDERAL BANK",FDRL0001297,689049802,THONIPUZHA,"THONIPUZHA KURIANOOR P O TIRUVALLA",2672254,THONIPUZHA,PATHANAMTHITTA,KERALA
"FEDERAL BANK",FDRL0001296,695049027,KIZHUVILAM,"KIZHUVILAM MUDAPURAM CHIRAYINKEEZHU (VIA)",2640273,KIZHUVILAM,THIRUVANANTHAPURAM,KERALA
"FEDERAL BANK",FDRL0001295,682049024,CHERANALLOOR,"CHURCH JUNCTION CHERANELLOOR KOCHI",2431309,CHERANALLOOR,ERNAKULAM,KERALA
"FEDERAL BANK",FDRL0001294,NA,OORAKAM,"P B NO. 18 OORAKAM VENGARA",2450270,OORAKAM,MALAPPURAM,KERALA
"FEDERAL BANK",FDRL0001293,686049803,POONJAR,"POONJAR POONJAR POONJAR SOUTH P O",273014,POONJAR,KOTTAYAM,KERALA
"FEDERAL BANK",FDRL0001292,NA,KOMBANAD,"KOMBANAD KOMBANAD KOMBANAD",2648241,KOMBANAD,ERNAKULAM,KERALA
"FEDERAL BANK",FDRL0001291,NA,KURUPPAMPADY,"BUILDING NO III/685 A KOCHERIL BUIDING  A M ROAD KURUPPAMPADY",2524460,KURUPPAMPADY,ERNAKULAM,KERALA
"FEDERAL BANK",FDRL0001290,690049802,VALLIKKAVU,"VALLIKAVU CLAPPANA P O KARUNAGAPALLY",2897530,VALLIKKAVU,KOLLAM,KERALA
"FEDERAL BANK",FDRL0001289,690049804,THODIYOOR,"THODIYOOR NORTH P O THAZHAVA THAZHAVA",0,THODIYOOR,KOLLAM,KERALA
"FEDERAL BANK",FDRL0001288,686049453,ELANJI,"ELANJI ELANJI ELANJI",2257358,ELANJI,ERNAKULAM,KERALA
"FEDERAL BANK",FDRL0001287,636049002,SALEM,"20, RAMAKRISHNA ROAD,",0,SALEM,SALEM,"TAMIL NADU"
"FEDERAL BANK",FDRL0001286,422049002,"NASIK CITY","P B NO. 16 SURGANA HOUSE COMPOUND NASIK",2592727,NASIK,NASIK,MAHARASHTRA
"FEDERAL BANK",FDRL0001285,400049004,"MUMBAI / CRAWFORD MARKET","92  MIMSON HOUSE L T MARG CRAWFORD MARKET  MUMBAI",23453204,MUMBAI,MUMBAI,MAHARASHTRA
"FEDERAL BANK",FDRL0001284,700049002,"KOLKATA / BALLYGUNGE","1/DMANDIVILLE GARDENS BALLYGUNGE KOLKATA",24407978,KOLKATA,KOLKATA,"WEST BENGAL"
"FEDERAL BANK",FDRL0001283,682049007,ERNAKULAM/BROADWAY,"CATHOLIC CENTRE BROADWAY KOCHI",0,ERNAKULAM,ERNAKULAM,KERALA
"FEDERAL BANK",FDRL0001282,600049005,"CHENNAI / ROYAPETTAH","P B NO. 5569 NO.1  BEEMASENA GARDEN MYLAPORE CHENNAI",24993441,CHENNAI,CHENNAI,"TAMIL NADU"
"FEDERAL BANK",FDRL0001281,570049002,MYSORE,"IST FLOOR  VISHWA TOWERS OPP. CLOCK TOWERS  MYSORE",2433995,MYSORE,MYSORE,KARNATAKA
"FEDERAL BANK",FDRL0001280,680049003,"THRISSUR / S. T. NAGAR","FEDERAL  TOWERS S T NAGAR THRISSUR",2423116,THRISSUR,THRISSUR,KERALA
"FEDERAL BANK",FDRL0001279,680049202,IRINJALAKUDA,"P B NO. 31 C K K COMPLEX IRINJALAKUDA",0,IRINJALAKUDA,THRISSUR,KERALA
"FEDERAL BANK",FDRL0001278,691049809,CHATHANNOOR,"P B NO. 3 CHATHANOOR CHATHANOOR",2593395,CHATHANNOOR,KOLLAM,KERALA
"FEDERAL BANK",FDRL0001277,689049818,SEETHATHODE,"BUILDING NO: X/854 ASHA COMPLEX PALACKATHARAYIL, PATHANAMTHITTA",258045,SEETHATHODE,PATHANAMTHITTA,KERALA
"FEDERAL BANK",FDRL0001276,688049806,CHAMPAKULAM,"ST.MARY'S THEOLOGICAL  CENTRE BUILDING CHAMPAKULAM",0,CHAMPAKULAM,ALAPUZHA,KERALA
"FEDERAL BANK",FDRL0001275,688049803,MARARIKULAM,"IX/122-C  KALITHATTU JN. S.L. PURAM (P.O) MARARIKULAM",2862408,MARARIKULAM,ALAPUZHA,KERALA
"FEDERAL BANK",FDRL0001274,686049004,PUTHUPPALLY,"PUTHUPPALLY PUTHUPPALLY PUTHUPPALLY",2352431,PUTHUPPALLY,ALAPUZHA,KERALA
"FEDERAL BANK",FDRL0001273,691049004,UMAYANALLOOR,"UMAYANALLOOR UMAYANALLOOR UMAYANALLOOR",0,UMAYANALLOOR,KOLLAM,KERALA
"FEDERAL BANK",FDRL0001272,680049004,"THRISSUR EAST FORT","THRISSUR EAST FORT DOOR NO.8/107/6  GROUND FLOOR THRISSUR",2420169,THRISSUR,THRISSUR,KERALA
"FEDERAL BANK",FDRL0001271,680049103,VADANAPPALLY,"P B NO. 2 VADANAPPALLY VADANAPPALLY",2600956,VADANAPPALLY,THRISSUR,KERALA
"FEDERAL BANK",FDRL0001270,691049813,ILAMBAL,"ILAMBAL ILAMBAL PUNALUR (VIA)",2222360,ILAMBAL,KOLLAM,KERALA
"FEDERAL BANK",FDRL0001269,688049003,KALARCODE,"KALARCODE KALARCODE SANATHANAPURAM P O",2266396,KALARCODE,ALAPUZHA,KERALA
"FEDERAL BANK",FDRL0001268,689049813,BUDHANOOR,"N S S KARAYOGAM BUILDING BUDHANOOR PULIYOOR (VIA)",2465261,BUDHANOOR,ALAPUZHA,KERALA
"FEDERAL BANK",FDRL0001267,688049802,THUMPOLLY,"CHANNAR MEMORIAL BUILDING THUMPOLLY JUNCTION ALLEPPEY DIST.",2245504,THUMPOLLY,ALAPUZHA,KERALA
"FEDERAL BANK",FDRL0001266,689049812,AZHIYIDATHUCHIRA,"AZHIYIDATHUCHIRA AZHIYIDATHUCHIRA THIRUVALLA (VIA)",2700784,AZHIYIDATHUCHIRA,PATHANAMTHITTA,KERALA
"FEDERAL BANK",FDRL0001265,NA,NEDUNGADAPPALLY,"NEDUNGADAPPALLY NEDUNGADAPPALLY MALLAPPALLY WEST P O",2680409,NEDUNGADAPPALLY,PATHANAMTHITTA,KERALA
"FEDERAL BANK",FDRL0001264,691049005,NEENDAKARA,"ST. SEBASTIAN COMPLEX NEENDAKARA",0,NEENDAKARA,KOLLAM,KERALA
"FEDERAL BANK",FDRL0001263,691049814,EDAMON,"EDAMON EDAMON PUNALUR (VIA)",2335526,EDAMON,KOLLAM,KERALA
"FEDERAL BANK",FDRL0001262,110049003,"NEW DELHI / CHANDNI CHOWK","64  KATRA BARYAN CHANDNI CHOWK FATEHPUPRIDELHI",0,"NEW DELHI","NEW DELHI",DELHI
"FEDERAL BANK",FDRL0001261,689049820,THANNITHODE,"THANNITHODE THANNITHODE KONNI",2382224,THANNITHODE,PATHANAMTHITTA,KERALA
"FEDERAL BANK",FDRL0001260,689049806,KOTTATHUR,"NELEAMPLAVU JN. AYIROOR (VIA) KOTTATHUR",231909,KOTTATHUR,PATHANAMTHITTA,KERALA
"FEDERAL BANK",FDRL0001259,691049808,KALLUVATHUKKAL,"KALLUVATHUKKAL KALLUVATHUKKAL KALLUVATHUKKAL",2572043,KALLUVATHUKKAL,KOLLAM,KERALA
"FEDERAL BANK",FDRL0001258,680049011,EDATHURUTHY,"MAIN  ROAD EDATHURUTHY EDATHURUTHY",2877311,THRISSUR,THRISSUR,KERALA
"FEDERAL BANK",FDRL0001257,678049806,PUDUNAGARAM,"OPP. TO POLICE STATION PUDUNAGARAM PUDUNAGARAM",3252201,PUDUNAGARAM,PALAKKAD,KERALA
"FEDERAL BANK",FDRL0001256,680049052,CHOWALLURPADY,"CHOWALLURPADY THAIKAD P O GURUVAYOOR",2556310,CHOWALLURPADY,THRISSUR,KERALA
"FEDERAL BANK",FDRL0001255,680049014,MANNAMPETTA,"MANNAMPETTA VARAKKARA VARAKKARA",2751421,THRISSUR,THRISSUR,KERALA
"FEDERAL BANK",FDRL0001254,686049808,KADAPLAMATTOM,"KADAPLAMATTOM KADAPLAMATTOM KADAPLAMATTOM",2251053,KADAPLAMATTOM,KOTTAYAM,KERALA
"FEDERAL BANK",FDRL0001253,689049003,KAVUMBHAGOM,"KAVUMBHAGOM KAVUMBHAGOM TIRUVALLA (VIA)",2605774,KAVUMBHAGOM,PATHANAMTHITTA,KERALA
"FEDERAL BANK",FDRL0001252,680049016,POKKULANGARA,"ENGANDIYUR P O ENGANDIYUR P O POKKULANGARA",2292477,THRISSUR,THRISSUR,KERALA
"FEDERAL BANK",FDRL0001251,688049804,MANNANCHERRY,"MANNAMCHERRY MANNAMCHERRY MANNAMCHERRY",2292403,MANNANCHERRY,ALAPUZHA,KERALA
"FEDERAL BANK",FDRL0001250,689049823,OONNUKAL,"OONNUKAL OONNUKAL OMALLUR (VIA)",2350317,OONNUKAL,PATHANAMTHITTA,KERALA
"FEDERAL BANK",FDRL0001249,695049028,VAKKOM,"P B NO. 1302 VAKKOM VAKKOM",2653655,VAKKOM,THIRUVANANTHAPURAM,KERALA
"FEDERAL BANK",FDRL0001248,689049827,NELLICKAMON,"RANNI (VIA) NELLICKAMON NELLICKAMON",200261,NELLICKAMON,PATHANAMTHITTA,KERALA
"FEDERAL BANK",FDRL0001247,689049819,ATHIKKAYAM,"ATHIKKAYAM NARANAMMUZHI P O RANNI-PERUNADU (VIA)",270258,ATHIKKAYAM,PATHANAMTHITTA,KERALA
"FEDERAL BANK",FDRL0001246,689049824,KADAMINETTA,"KADAMINETTA KADAMINETTA KADAMINETTA",5245271,KADAMINETTA,PATHANAMTHITTA,KERALA
"FEDERAL BANK",FDRL0001245,689049831,MANNAMARUTHY,"MANNAMARUTHY MAKKAPUZHA MAKKAPUZHA",262611,MANNAMARUTHY,PATHANAMTHITTA,KERALA
"FEDERAL BANK",FDRL0001244,680049352,NELLAYI,"ST.MARY S CHURCH BUILDING NELLAYI, THRISSUR",0,NELLAYI,THRISSUR,KERALA
"FEDERAL BANK",FDRL0001243,691049202,KUNDARA,"P B NO. 18 HOSPITAL JUNCTION KUNDARA",0,KUNDARA,KOLLAM,KERALA
"FEDERAL BANK",FDRL0001242,689049825,NEDUMPURAM,"NEDUMPURAM NEDUMPURAM NEDUMPURAM",2732370,NEDUMPURAM,PATHANAMTHITTA,KERALA
"FEDERAL BANK",FDRL0001241,682049031,PUTHUVYPE,"OCHANTHURUTHU P O OCHANTHURUTHU P O KOCHI",2492402,OCHANTHURUTH,ERNAKULAM,KERALA
"FEDERAL BANK",FDRL0001240,680049005,"OLARIKKARA, THRISSUR","OLARIKKARA, THRISSUR PULLAZHI PULLAZHI",2360973,OLARIKKARA,THRISSUR,KERALA
"FEDERAL BANK",FDRL0001239,686049810,KIDANGARA,"SWAMY'S BUILDING, CHANGANACHERRY-KIDANGARA RD ALAPUZHA DISTRICT",2753529,KIDANGARA,ALAPUZHA,KERALA
"FEDERAL BANK",FDRL0001238,682049006,"ERNAKULAM/MG ROAD","KANDAMKULATHY TOWERS OPP.MAHARAJAS COLLEGE GROUND MG RD ERNAKULAM",2372397,ERNAKULAM,ERNAKULAM,KERALA
"FEDERAL BANK",FDRL0001237,700049007,KOLKATA/TANGRA,"52 D RADHANATH CHOWDHURY ROAD TANGRA KOLKATA",0,KOLKATA,KOLKATA,"WEST BENGAL"
"FEDERAL BANK",FDRL0001236,788049002,SILCHAR,"P B NO. 33 67 SHYAMA PRASAD ROAD SILCHAR",230512,SILCHAR,SILCHAR,ASSAM
"FEDERAL BANK",FDRL0001235,530049001,VISAKHAPATANAM,"P.B.NO.2014 DABA GARDENS VISAKHAPATANAM",2564693,VISAKHAPATANAM,VISAKHAPATANAM,"ANDHRA PRADESH"
"FEDERAL BANK",FDRL0001234,452049002,INDORE,"21/4, RATLAM KOTHI, SAKAR BHAWAN,",0,INDORE,INDORE,"MADHYA PRADESH"
"FEDERAL BANK",FDRL0001233,600049004,"CHENNAI / RM NAGAR","E5 & E6,NELSON CHAMBERS 115,NELSON MANICKAM ROAD RAJARAM MEHTA NAGAR",0,CHENNAI,CHENNAI,"TAMIL NADU"
"FEDERAL BANK",FDRL0001232,751049002,BHUBANESWAR,"14 B 1ST FLOOR JANAPATH BHUBANESWAR",0,BHUBANESWAR,BHUBANESWAR,ODISHA
"FEDERAL BANK",FDRL0001231,360049002,RAJKOT,"P B NO. 141  7  PANCHNATH PLOT OPP.SHASTRI MAIDAN RAJKOT",2232601,RAJKOT,RAJKOT,GUJARAT
"FEDERAL BANK",FDRL0001230,208049002,KANPUR,"24/11  THE MALL POST BOX NO. 484 KANPUR",2317045,KANPUR,KANPUR,"UTTAR PRADESH"
"FEDERAL BANK",FDRL0001229,695049803,AMBOORI,"AMBOORI  P.O. AMBOORI P.O. VELLARADA (VIA)",2245389,AMBOORI,THIRUVANTHAPURAM,KERALA
"FEDERAL BANK",FDRL0001228,685049803,UPPUTHARA,"UPPUTHARA UPPUTHARA UPPUTHARA",244227,UPPUTHARA,IDUKKI,KERALA
"FEDERAL BANK",FDRL0001227,686049402,MUTTUCHIRA,"KURISUMKAL BUILDING KOTTAYAM  DIST",282362,MUTTUCHIRA,KOTTAYAM,KERALA
"FEDERAL BANK",FDRL0001226,688049054,THANKEY,"THANKEY THANKEY KADAKKARAPALLY",2813086,THANKEY,ALAPUZHA,KERALA
"FEDERAL BANK",FDRL0001225,NA,VALAKOM,"VALAKOM VALAKOM KOTTARAKKARA",2471315,VALAKOM,KOLLAM,KERALA
"FEDERAL BANK",FDRL0001224,691049804,ODANAVATTOM,"P B NO. 1 ODANAVATTOM ODANAVATTOM",2462091,ODANAVATTOM,KOLLAM,KERALA
"FEDERAL BANK",FDRL0001223,682049055,PUTHENCRUZ,"KARTHEDATH BUILDINGS PUTHENCRUZ PUTHENCRUZ",2733159,PUTHENCRUZ,ERNAKULAM,KERALA
"FEDERAL BANK",FDRL0001222,683049803,KEEZHILLAM,"KADAMBELIL BUILDING M C ROAD KEEZHILLAM",2654461,KEEZHILLAM,ERNAKULAM,KERALA
"FEDERAL BANK",FDRL0001221,682049015,THOTTAKKATTUKARA,"PARACKAL TOWERS, GROUND FLOOR,PARUR JUNCTION, UC COLLEGE POST",0,THOTTAKKATTUKARA,ERNAKULAM,KERALA
"FEDERAL BANK",FDRL0001220,800049002,PATNA,"P B NO. 164 NEW DAK BUNGLOW ROAD PATNA",2236045,PATNA,PATNA,BIHAR
"FEDERAL BANK",FDRL0001219,682049002,POONITHURA,"PALATHINKAL BUILDING P B NO. 2 PETTA JUNCTION  POONITHURA",0,POONITHURA,POONITHURA,KERALA
"FEDERAL BANK",FDRL0001218,689049828,CHUNKAPPARA,"CHUNKAPPARA CHUNKAPPARA CHUNKAPPARA",2697563,CHUNKAPPARA,PATHANAMTHITTA,KERALA
"FEDERAL BANK",FDRL0001217,695049019,PERUMATHURA,"PERUMATHURA PERUMATHURA PUTHENKURICHI P O",2428545,PERUMATHURA,KOTTAYAM,KERALA
"FEDERAL BANK",FDRL0001216,686049802,MOONNILAVU,"MOONNILAVU MOONNILAVU MOONNILAVU",286238,MOONNILAVU,KOTTAYAM,KERALA
"FEDERAL BANK",FDRL0001215,686049503,"PULICKAL KAVALA","VADAKKEKKARA BUILDING PULICKAL KAVALA PULICKAL KAVALA",2458881,"PULICKAL KAVALA",KOTTAYAM,KERALA
"FEDERAL BANK",FDRL0001214,695049016,KANJIRAMKULAM,"KANJIRAMKULAM KANJIRAMKULAM KANJIRAMKULAM",2260027,KANJIRAMKULAM,KANJIRAMKULAM,KERALA
"FEDERAL BANK",FDRL0001213,682049803,MANEED,"MANEED MANEED PIRAVOM (VIA)",2246321,MANEED,ERNAKULAM,KERALA
"FEDERAL BANK",FDRL0001212,282049002,AGRA,"6  RAGHUNATH NAGAR (LITTLE WING CAMPUS) AGRA",2523303,AGRA,AGRA,"UTTAR PRADESH"
"FEDERAL BANK",FDRL0001211,689049807,KUZHIKALA,"KUZHIKALA KUZHIKALA KUZHIKALA",2212058,KUZHIKALA,PATHANAMTHITTA,KERALA
"FEDERAL BANK",FDRL0001210,685049811,VELLIAMATTOM,"VELLIAMATTOM VELLIAMATTOM VELLIAMATTOM",276242,VELLIAMATTOM,IDUKKI,KERALA
"FEDERAL BANK",FDRL0001209,686049811,MUTTAR,"MUTTAR MUTTAR MUTTAR",2219313,MUTTAR,ALAPUZHA,KERALA
"FEDERAL BANK",FDRL0001208,689049804,ARATTUPUZHA,"ARATTUPUZHA PUTHENCAVU (VIA) CHENGANNUR",2317487,ARATTUPUZHA,PATHANAMTHITTA,KERALA
"FEDERAL BANK",FDRL0001207,689049817,VADASSERIKARA,"P B NO. 2 VADASSERIKKARA",0,VADASSERIKARA,PATHANAMTHITTA,KERALA
"FEDERAL BANK",FDRL0001206,689049826,KOODAL,"SNEHADHARA PLAZA, PUNALUR MUVATTUPUZHA ROAD, KOODAL",0,PATHANAMTHITTA,PATHANAMTHITTA,KERALA
"FEDERAL BANK",FDRL0001205,689049801,THIRUVANVANDOOR,"SREEPADAM BUILDINGS P B NO. 1 THIRUVANVANDOOR",2427969,THIRUVANVANDOOR,ALAPUZHA,KERALA
"FEDERAL BANK",FDRL0001204,689049805,KIDANGANNUR,KIDANGANNUR,0,KIDANGANNUR,PATHANAMTHITTA,KERALA
"FEDERAL BANK",FDRL0001203,689049403,KUNNAMTHANAM,"THOPPIL BUILDING KUNNAMTHANAM KUNNAMTHANAM",2692266,KUNNAMTHANAM,PATHANAMTHITTA,KERALA
"FEDERAL BANK",FDRL0001202,689049814,KODUKULANJI,"KODUKULANJI KODUKULANJI KODUKULANJI",2369261,KODUKULANJI,ALAPUZHA,KERALA
"FEDERAL BANK",FDRL0001201,689049809,CHANDANAPPALLY,"CHANDANAPPALLY KAIPATTOOR (VIA)",2351296,CHANDANAPPALLY,PATHANAMTHITTA,KERALA
"FEDERAL BANK",FDRL0001200,700049006,"KOLKATA / RN MUKHERJEE ROAD","MARTIN BURN HOUSE 1  R.N. MUKHERJEE ROAD KOLKATA",0,KOLKATA,KOLKATA,"WEST BENGAL"
"FEDERAL BANK",FDRL0001199,400049003,"MUMBAI / DADAR EAST","RAJGIR COURT DADAR(EAST), MUMBAI",0,MUMBAI,MUMBAI,MAHARASHTRA
"FEDERAL BANK",FDRL0001198,786049202,TINSUKIA,"P B NO. 52 CHIRWAPPATTY ROAD TINSUKIA",2330960,TINSUKIA,TINSUKIA,ASSAM
"FEDERAL BANK",FDRL0001197,831049001,JAMSHEDPUR,"P B NO. 169 AWTARBUILDING MAINROAD BISTUPUR JAMSHEDPUR",2423699,JAMSHEDPUR,JAMSHEDPUR,JHARKHAND
"FEDERAL BANK",FDRL0001196,700049010,HOWRAH,"NW- 101, BELILIOUS PARK EAST WEST BYE PASS ROAD, HOWRAH",0,KOLKATA,HAORA,"WEST BENGAL"
"FEDERAL BANK",FDRL0001195,613049002,THANJAVUR,"2766SOUTH RAMPART THANJAVUR THANJAVUR",231312,THANJAVUR,THANJAVUR,"TAMIL NADU"
"FEDERAL BANK",FDRL0001194,110049004,"NEW DELHI / WEST END","1-4 CONVENIENT SHOPPING CENTRE WESTEND NEW DELHI",0,"NEW DELHI","NEW DELHI",DELHI
"FEDERAL BANK",FDRL0001193,785049002,JORHAT,"P B NO. 33 GAR - ALI JORHAT",2323767,JORHAT,JORHAT,ASSAM
"FEDERAL BANK",FDRL0001192,632049002,VELLORE,"P B NO. 199 NO.1 OFFICERS LINE VELLORE",2222963,VELLORE,VELLORE,"TAMIL NADU"
"FEDERAL BANK",FDRL0001191,627049003,TUTICORIN,"45, PALAYAMKOTTAI ROAD OPP. CRUZ FERNANDEZ STATUE, TUTICORIN-628 002",0,TUTICORIN,TOOTHUKUDI,"TAMIL NADU"
"FEDERAL BANK",FDRL0001190,793049002,SHILLONG,"P B NO. 25 POLICE BAZAAR G S ROAD SHILLONG",2225339,SHILLONG,"EAST KHASI HILLS",MEGHALAYA
"FEDERAL BANK",FDRL0001189,560049002,"BANGALORE / GANDHI NAGAR","NO.24, 2ND CROSS, GANDHI NAGAR BANGALORE",22253222,BANGALORE,BANGALORE,KARNATAKA
"FEDERAL BANK",FDRL0001188,797049002,DIMAPUR,"NYAMOLOTHA ROAD (OLD CHURCH ROAD) DIMAPUR",225725,DIMAPUR,DIMAPUR,NAGALAND
"FEDERAL BANK",FDRL0001187,784049002,TEZPUR,"P B NO. 32 K C ROAD TEZPUR",221633,TEZPUR,TEZPUR,ASSAM
"FEDERAL BANK",FDRL0001186,403049003,MARGAO,"P B NO. 361 MABAI BUILDING MARGAO",2703313,MARGAO,MARGAO,GOA
"FEDERAL BANK",FDRL0001185,679049808,PULAMANTHOLE,"PULAMANTHOLE PULAMANTHOLE PULAMANTHOLE",267474,PULAMANTHOLE,MALAPPURAM,KERALA
"FEDERAL BANK",FDRL0001184,682049003,EDAPPALLY,"ST.GEORGE S CHURCH BUILDING EDAPPALLY EDAPPALLY",0,ERNAKULAM,ERNAKULAM,KERALA
"FEDERAL BANK",FDRL0001183,682049021,PALLURUTHY,"PALLURUTHY INDUSTRIAL ESTATE P O PALLURUTHY KOCHI",2233258,KOCHI,ERNAKULAM,KERALA
"FEDERAL BANK",FDRL0001182,781049002,GUWAHATI,"ARHAM PLAZA,FIRST FLOOR,FANCY BAZAR, MG ROAD,GUWAHATI ASSAM,781001",0,GUWAHATI,GUWAHATI,ASSAM
"FEDERAL BANK",FDRL0001181,600049002,"CHENNAI / GEORGE TOWN","VOLTAS INTERNATIONAL CENTRE 52(NEW NO 107) ARMENIAN ST GEORGE TOWN CHN",25342327,CHENNAI,CHENNAI,"TAMIL NADU"
"FEDERAL BANK",FDRL0001180,685049812,KUNCHITHANNY,"KUNCHITHANNY KUNCHITHANNY KUNCHITHANNY",265234,KUNCHITHANNY,IDUKKI,KERALA
"FEDERAL BANK",FDRL0001179,641049006,POLLACHI,"THE RP TOWRES NO.88  COIMBATORE ROAD POLLACHI",221753,POLLACHI,POLLACHI,"TAMIL NADU"
"FEDERAL BANK",FDRL0001177,638049002,ERODE,"NO.22 PALANIAPPA STREET PERUNDURAI ROAD ERODE",2253298,ERODE,ERODE,"TAMIL NADU"
"FEDERAL BANK",FDRL0001176,400049002,"MUMBAI / ANDHERI","P B NO. 17387 8 9 10 LARAM CEN S.V.RD ANDHERI(WEST) MUMBAI",26288115,MUMBAI,"MUMBAI SUBURBAN",MAHARASHTRA
"FEDERAL BANK",FDRL0001175,575049002,MANGALORE,"P.B.NO 775, MANASA TOWERS  M.G.ROAD, MANGALORE",0,MANGALORE,MANGALORE,KARNATAKA
"FEDERAL BANK",FDRL0001174,670049807,VALLITHODE,"VALLITHODE KILIYANTHARA P O KILIYANTHARA P O",2420421,VALLITHODE,KANNUR,KERALA
"FEDERAL BANK",FDRL0001173,670049809,ULIKKAL,"ULIKKAL ULIKKAL ULIKKAL",2228124,ULIKKAL,KANNUR,KERALA
"FEDERAL BANK",FDRL0001172,673049803,THOTTILPALAM,"THOTTILPALAM KAVILUMPARA P O KOZHIKODE DIST.",2565822,THOTTILPALAM,KOZHIKODE,KERALA
"FEDERAL BANK",FDRL0001171,679049203,THAVANUR,"THAVANUR THAVANUR THAVANUR",2686222,THAVANUR,MALAPPURAM,KERALA
"FEDERAL BANK",FDRL0001170,676049003,THALAKKADATHUR,"THALAKKADATHUR TIRUR TIRUR",2588140,THALAKKADATHUR,MALAPPURAM,KERALA
"FEDERAL BANK",FDRL0001169,689049821,PURAMATTOM,"PURAMATTOM PURAMATTOM PURAMATTOM",2766214,PURAMATTOM,PATHANAMTHITTA,KERALA
"FEDERAL BANK",FDRL0001168,689049815,POOVATHOOR,"POOVATHOOR KOIPURAM KOIPURAM",2660656,POOVATHOOR,PATHANAMTHITTA,KERALA
"FEDERAL BANK",FDRL0001167,689049829,MULAKUZHA,"MULAKUZHA P O CHENGANNUR",0,MULAKUZHA,ALAPUZHA,KERALA
"FEDERAL BANK",FDRL0001166,673049014,MONGAM,"MONGAM MONGAM MONGAM",2772052,MONGAM,MALAPPURAM,KERALA
"FEDERAL BANK",FDRL0001165,690049153,MAMKAMKUZHY,"MAMKAMKUZHY MAMKAMKUZHY MAMKAMKUZHY",2356846,MAMKAMKUZHY,ALAPUZHA,KERALA
"FEDERAL BANK",FDRL0001164,686049814,KOTTAPPADY,"KOTTAPPADY KOTHAMANGALAM (VIA) KOTHAMANGALAM (VIA)",2843225,KOTTAPPADY,ERNAKULAM,KERALA
"FEDERAL BANK",FDRL0001163,670049805,KELAKAM,"ABOO ARCADE KELAKOM KELAKOM",0,KELAKAM,KANNUR,KERALA
"FEDERAL BANK",FDRL0001162,690049805,KATTANAM,"KATTANAM PALLICKAL PALLICKAL",2332227,KATTANAM,ALAPUZHA,KERALA
"FEDERAL BANK",FDRL0001161,690049807,CHUNAKKARA,"BR.CHUNKKARA , PB NO.1,  CHARUMOOD PO 690505, ALAPUZHA DIST, KERALA STATE",0,CHUNAKKARA,ALAPUZHA,KERALA
"FEDERAL BANK",FDRL0001160,670049808,CHERUPUZHA,"GROUND FLOOR,THE LANDMARK BUILDING KANNUR DIST",5242830,CHERUPUZHA,KANNUR,KERALA
"FEDERAL BANK",FDRL0001159,688049805,ALA,"NEDUVARAMCODE P O ALA ALA",2360244,ALA,ALAPUZHA,KERALA
"FEDERAL BANK",FDRL0001158,380049002,AHMEDABAD,"P B NO. 4073 ASHRAM ROAD AHMEDABAD",0,AHMEDABAD,AHMEDABAD,GUJARAT
"FEDERAL BANK",FDRL0001157,700049003,"KOLKATA / BURRA BAZAR","33A TARA CHAND DUTTA STREET BURRA BAZAR KOLKATA",22715091,KOLKATA,KOLKATA,"WEST BENGAL"
"FEDERAL BANK",FDRL0001156,679049102,NILAMBUR,"NILAMBUR - 679329 MALAPPURAM DIST. KERALA",221867,NILAMBUR,MALAPPURAM,KERALA
"FEDERAL BANK",FDRL0001154,688049809,"NEDUMUDY / THEKKEKARA","THEKKEKKARA  P O NEDUMUDY NEDUMUDY",2702317,"NEDUMUDY / THEKKEKARA",ALAPUZHA,KERALA
"FEDERAL BANK",FDRL0001153,682049005,ERNAKULAM/SOUTH,"P B NO.1731 M G ROAD (SOUTH) KOCHI",2378710,ERNAKULAM,ERNAKULAM,KERALA
"FEDERAL BANK",FDRL0001152,520049001,VIJAYAWADA,"PRAKASAM ROAD PRAKASAM ROAD VIJAYAWADA",2436163,VIJAYAWADA,VIJAYAWADA,"ANDHRA PRADESH"
"FEDERAL BANK",FDRL0001151,620049002,TIRUCHIRAPALLY,"NO.75 E/1, SALAI ROAD, THILLAI NAGAR",0,TIRUCHIRAPALLY,TIRUCHIRAPALLY,"TAMIL NADU"
"FEDERAL BANK",FDRL0001150,625049002,MADURAI,"170 EAST VELI STREET OPP. CHRISTIAN MISSION HOSPITAL",0,MADURAI,MADURAI,"TAMIL NADU"
"FEDERAL BANK",FDRL0001149,226049002,LUCKNOW,"P B NO. 178, 37-A, CANTT ROAD BURLINGTON CROSSING,LUCKNOW",0,LUCKNOW,LUCKNOW,"UTTAR PRADESH"
"FEDERAL BANK",FDRL0001148,688049152,AMBALAPUZHA,"GROUND FLOOR,SREEVALSOM COMPLEX EAST OF KACHERY JUNCTION AMBALAPUZHA",0,AMBALAPUZHA,ALAPUZHA,KERALA
"FEDERAL BANK",FDRL0001147,678049802,ALANALLUR,"FATHIMA COMPLEX PALAKKAD DISTRICT",263492,ALANALLUR,PALAKKAD,KERALA
"FEDERAL BANK",FDRL0001146,678049805,MATHUR,"CHUNKAMANNAM CHUNKAMANNAM MATHUR",2214428,MATHUR,PALAKKAD,KERALA
"FEDERAL BANK",FDRL0001145,686049813,KURAVILANGAD,"P B NO. 2 KURAVILANGAD KURAVILANGAD",230252,KURAVILANGAD,KOTTAYAM,KERALA
"FEDERAL BANK",FDRL0001144,686049102,ARUVITHURA,"ARUVITHURA ERATTUPETTAH P O ERATTUPETTAH P O",2275306,ARUVITHURA,KOTTAYAM,KERALA
"FEDERAL BANK",FDRL0001143,690049803,CHAVARA,"CHAVARA CHAVARA CHAVARA",2682833,CHAVARA,KOLLAM,KERALA
"FEDERAL BANK",FDRL0001142,NA,PARAVOOR,"P B  NO. 3 PARAVOOR PARAVOOR",2512313,PARAVOOR,KOLLAM,KERALA
"FEDERAL BANK",FDRL0001141,682049038,MULANTHURUTHY,"MULANTHURUTHY MULANTHURUTHY MULANTHURUTHY",2740241,MULANTHURUTHY,ERNAKULAM,KERALA
"FEDERAL BANK",FDRL0001140,686049153,ERUMELY,"BUS STAND  ROAD ERUMELI ERUMELI",210261,ERUMELY,ERUMELY,KERALA
"FEDERAL BANK",FDRL0001139,627049002,TIRUNELVELI,"MURUGANKURICHI, TIRUCHENDUR ROAD PALAYAMKOTTAI , TIRUNELVELI",0,TIRUNELVELI,TIRUNELVELI,"TAMIL NADU"
"FEDERAL BANK",FDRL0001138,670049003,VALAPATTANAM,"VALAPATANAM HIGHWAY JN PUTHIYATHERU",0,VALAPATTANAM,VALAPATTANAM,KERALA
"FEDERAL BANK",FDRL0001137,685049801,ERATTAYAR,"ERATTAYAR KATTAPPANA KATTAPPANA",276006,ERATTAYAR,IDUKKI,KERALA
"FEDERAL BANK",FDRL0001136,691049054,PARAKODE,"P B NO. 2 PARAKODE PARAKODE",216438,PARAKODE,PATHANAMTHITTA,KERALA
"FEDERAL BANK",FDRL0001135,689049822,CHITTAR,"KODOORUZHATHIL BUILDINGS KODOORUZHATHIL BUILDINGS CHITTAR",0,CHITTAR,PATHANAMTHITTA,KERALA
"FEDERAL BANK",FDRL0001134,689049810,ERAVIPEROOR,"P B NO. 5 ERAVIPEROOR ERAVIPEROOR",2666203,ERAVIPEROOR,PATHANAMTHITTA,KERALA
"FEDERAL BANK",FDRL0001133,686049552,PONKUNNAM,"P B NO. 4 K K ROAD PONKUNNAM",222560,PONKUNNAM,KOTTAYAM,KERALA
"FEDERAL BANK",FDRL0001132,682049014,"ALUVA / RSS","P.B.NO.80,NO.XII/125, CSI DIAMOND ARCADE, PUMP JUNCTION, ALUVA",0,ALUVA,ERNAKULAM,KERALA
"FEDERAL BANK",FDRL0001131,689049452,MANNAR,"P B NO. 4 MANNAR MANNAR",2315962,MANNAR,ALAPUZHA,KERALA
"FEDERAL BANK",FDRL0001130,691049803,PATTAZHI,"PATTAZHI KOTTARAKKARA KOTTARAKKARA",2399447,PATTAZHI,KOLLAM,KERALA
"FEDERAL BANK",FDRL0001129,695049252,VARKALA,"P B NO. 1423 PERUMKUDY SHOPPING COMPLEX VARKALA",0,VARKALA,THIRUVANTHAPURAM,KERALA
"FEDERAL BANK",FDRL0001128,679049153,ANGADIPURAM,"P B NO. 1 ANGADIPURAM ANGADIPURAM",226672,ANGADIPURAM,MALAPPURAM,KERALA
"FEDERAL BANK",FDRL0001127,670049052,TALIPARAMBA,"AJRU TOWERS, BANK STREET TALIPARAMBA",0,KANNUR,KANNUR,KERALA
"FEDERAL BANK",FDRL0001126,670049152,PAYYANNUR,"P B NO. 20 MAIN ROAD PAYYANNUR",206243,PAYYANNUR,KANNUR,KERALA
"FEDERAL BANK",FDRL0001125,682049027,"NORTH PARAVUR","P B NO. 9 NORTH PARAVUR NORTH PARAVUR",2447794,"NORTH PARAVUR",ERNAKULAM,KERALA
"FEDERAL BANK",FDRL0001124,500049002,HYDERABAD,"P O BOX 230, BLDG NO-4-3-389 TO 392,411,422 OPPOSITE SURABHI COMPLEX, BANK STREET",0,HYDERABAD,HYDERABAD,"ANDHRA PRADESH"
"FEDERAL BANK",FDRL0001123,695049021,KILIMANOOR,"P B NO. 752 S N V BUILDINGS KILIMANOOR",2672519,KILIMANOOR,THIRUVANANTHAPURAM,KERALA
"FEDERAL BANK",FDRL0001122,679049802,EDAVANNA,"A S COMPLEX EDAVANNA EDAVANNA",2700253,EDAVANNA,MALAPPURAM,KERALA
"FEDERAL BANK",FDRL0001121,685049002,THODUPUZHA,"PULIMOOTTIL ROY ROJER TOWERS AMBALAM BYE PASS ROAD IDUKKI DIST.",0,THODUPUZHA,IDUKKI,KERALA
"FEDERAL BANK",FDRL0001120,676049802,PANDIKAD,"MANJERY ROAD PANDIKAD PANDIKAD",2783744,PANDIKAD,MALAPPURAM,KERALA
"FEDERAL BANK",FDRL0001119,673049010,CHALIYAM,"APCO ANNEX CHALIYAM P O",0,KOZHIKODE,KOZHIKODE,KERALA
"FEDERAL BANK",FDRL0001118,NA,PAMPADY,"P B NO. 3 PAMPADY PAMPADY",2505751,PAMPADY,KOTTAYAM,KERALA
"FEDERAL BANK",FDRL0001117,685049809,KALOOR,"KALOOR KALLOORKAD (VIA) KALLOORKAD (VIA)",2267234,KALOOR,ERNAKULAM,KERALA
"FEDERAL BANK",FDRL0001116,670049806,CHEMBERI,"CHEMBERI CHEMBERI CHEMBERI",2213633,CHEMBERI,KANNUR,KERALA
"FEDERAL BANK",FDRL0001115,686049807,POOVARANI,"PAIKA JUNCTION POOVARANI POOVARANI",2225339,POOVARANI,KOTTAYAM,KERALA
"FEDERAL BANK",FDRL0001114,682049023,PANANGAD,"MADAVANA PANANGAD PANANGAD",2700268,ERNAKULAM,ERNAKULAM,KERALA
"FEDERAL BANK",FDRL0001113,686049812,MEVALLOOR,"PUNCHAYIL BUILDINGS MEVALLOOR MEVALLOOR",257131,MEVALLOOR,KOTTAYAM,KERALA
"FEDERAL BANK",FDRL0001112,676049804,KUTTIPURAM,"KUTTIPPURAM KUTTIPPURAM KUTTIPPURAM",2608361,KUTTIPURAM,MALAPPURAM,KERALA
"FEDERAL BANK",FDRL0001111,673049003,BEYPORE,"MATHOTTAM ARAKKINAR  BEYPORE ARAKKINAR  BEYPORE",2414227,BEYPORE,KOZHIKODE,KERALA
"FEDERAL BANK",FDRL0001110,673049008,CHERUVANNOOR,"P. B. NO.35 CHERUVANNUR FEROKE",0,CHERUVANNOOR,KOZHIKODE,KERALA
"FEDERAL BANK",FDRL0001109,686049009,PERUVA,"PERUVA PERUVA PERUVA",251174,PERUVA,KOTTAYAM,KERALA
"FEDERAL BANK",FDRL0001108,629049002,NAGERCOIL,"GROUND FLOOR 110  COURT ROAD NAGERCOIL",232760,NAGERCOIL,NAGERCOIL,"TAMIL NADU"
"FEDERAL BANK",FDRL0001107,690049052,KARUNAGAPPALLY,"P B NO. 5 KARUNAGAPPALLY KARUNAGAPPALLY",2620161,KARUNAGAPPALLY,KOLLAM,KERALA
"FEDERAL BANK",FDRL0001106,686049804,KOLLAPPALLY,"KOLLAPPALLY ANTHINADU ANTHINADU",246349,KOLLAPPALLY,KOTTAYAM,KERALA
"FEDERAL BANK",FDRL0001105,110049002,"NEW DELHI / CONNAUGHT CIRCUS","M-17CONNAUGHT CIRCUS NEW DELHI NEW DELHI",0,"NEW DELHI","NEW DELHI",DELHI
"FEDERAL BANK",FDRL0001104,560049003,"BANGALORE / ST MARKS ROAD","NO. 9, HALCYON COMPLEX ST. MARKS ROAD",0,BANGALORE,BANGALORE,KARNATAKA
"FEDERAL BANK",FDRL0001103,700049005,"KOLKATA / C.R.AVENUE","8 CHITTARANJAN AVENUE KOLKATA KOLKATA",22126352,KOLKATA,KOLKATA,"WEST BENGAL"
"FEDERAL BANK",FDRL0001102,676049152,MALAPPURAM,"P B NO. 218 DOWN HILL P O MALAPPURAM",2734877,MALAPPURAM,MALAPPURAM,KERALA
"FEDERAL BANK",FDRL0001101,695049808,KARAKONAM,"KARAKONAM P O KUNNATHUKAL KUNNATHUKAL",2251721,KARAKONAM,THIRUVANANTHAPURAM,KERALA
"FEDERAL BANK",FDRL0001100,600049003,"CHENNAI / MOUNT ROAD","S V S CLUB BUILDING 61  ANNA SALAI CHENNAI",28549280,CHENNAI,CHENNAI,"TAMIL NADU"
"FEDERAL BANK",FDRL0001099,400049005,"MUMBAI / FORT","P B NO. 251 32  BOMBAY SAMACHAR MARG FORT  MUMBAI",22680011,MUMBAI,MUMBAI,MAHARASHTRA
"FEDERAL BANK",FDRL0001098,670049002,KANNUR,"GRAND PLAZA, FORT ROAD, KANNUR CNN@FEDERALBANK.CO.IN, SWIFT: FDRLINBBCNN",0,KANNUR,KANNUR,KERALA
"FEDERAL BANK",FDRL0001097,686049302,PALA,"KATTAKKAYAM ROAD, KOTTAYAM DIST.",0,PALAI,KOTTAYAM,KERALA
"FEDERAL BANK",FDRL0001096,686049602,VAIKOM,"P B NO. 7 WEST GATE VAIKOM",0,VAIKOM,KOTTAYAM,KERALA
"FEDERAL BANK",FDRL0001095,688049052,CHERTHALA,"P B NO. 22 MUTTOM BAZAR CHERTHALA",2813039,CHERTHALA,ALAPUZHA,KERALA
"FEDERAL BANK",FDRL0001094,682049017,TRIPUNITHURA,"P B NO. 4 FEDERAL BHAVAN TRIPUNITHURA",2777438,TRIPUNITHURA,ERNAKULAM,KERALA
"FEDERAL BANK",FDRL0001093,695049805,MANAMBOOR,"MANAMBOOR KAVALAYOOR B O MOONGODE P O",2688036,MANAMBOOR,THIRUVANANTHAPURAM,KERALA
"FEDERAL BANK",FDRL0001092,641049002,COIMBATORE,"P B NO.545 21 VARIETY HALL ROAD COIMBATORE",0,COIMBATORE,COIMBATORE,"TAMIL NADU"
"FEDERAL BANK",FDRL0001091,685049806,IDUKKI,"IDUKKI COLONY  P O IDUKKI COLONY P O IDUKKI COLONY P O",2235334,IDUKKI,IDUKKI,KERALA
"FEDERAL BANK",FDRL0001090,673049011,MUKKOM,"P C ROAD MUKKOM KOZHIKODE ROAD",0,MUKKOM,KOZHIKODE,KERALA
"FEDERAL BANK",FDRL0001089,678049801,KALLADIKODE,"HAREKRISHNA BUILDINGS T B JUNCTION KALLADIKODE",246222,KALLADIKODE,PALAKKAD,KERALA
"FEDERAL BANK",FDRL0001088,670049102,THALASSERY,"PB NO.3 45/73A, LOGANS ROAD,",0,THALASSERY,KANNUR,KERALA
"FEDERAL BANK",FDRL0001087,680049203,KAKKATHURUTHY,"KAKKATHURUTHY EDATHIRINJI P O IRINJALAKUDA",2845251,KAKKATHURUTHY,THRISSUR,KERALA
"FEDERAL BANK",FDRL0001086,678049803,MUTHALAMADA,"MUTHALAMADA MUTHALAMADA MUTHALAMADA",275573,MUTHALAMADA,PALAKKAD,KERALA
"FEDERAL BANK",FDRL0001085,689049154,ELANTHOOR,"ELANTHOOR ELANTHOOR ELANTHOOR",2361050,ELANTHOOR,PATHANAMTHITTA,KERALA
"FEDERAL BANK",FDRL0001084,691049802,OYOOR,"OYOOR OYOOR OYOOR",2466547,OYOOR,KOLLAM,KERALA
"FEDERAL BANK",FDRL0001083,690049801,"KALLADA WEST","KALLADA WEST KARALI JUNCTION P O KARALI JUNCTION P O",2830252,"KALLADA WEST",KOLLAM,KERALA
"FEDERAL BANK",FDRL0001082,689049803,KULANADA,"M C ROAD KULANADA KULANADA",260154,KULANADA,PATHANAMTHITTA,KERALA
"FEDERAL BANK",FDRL0001081,678049002,PALAKKAD,"SAI KRISHNA RESIDENCY,KUNNATHURMEDU,  PALAKKAD 678013",2534281,PALAKKAD,PALAKKAD,KERALA
"FEDERAL BANK",FDRL0001080,NA,RAJAPURAM,"RAJAPURAM KASARGODE DIST",2224021,RAJAPURAM,KASARAGODE,KERALA
"FEDERAL BANK",FDRL0001079,671049801,BEEMANODI,"BEEMANODI NILESHWAR (VIA) NILESHWAR (VIA)",2241326,BEEMANODI,KASARAGODE,KERALA
"FEDERAL BANK",FDRL0001078,685049813,"MUTTOM (IDUKKI)","MUTTOM MUTTOM MUTTOM",255026,"MUTTOM (IDUKKI)",IDUKKI,KERALA
"FEDERAL BANK",FDRL0001077,676049801,AREACODE,"MUKKOM ROAD MUKKOM ROAD AREACODE",2850239,AREACODE,MALAPPURAM,KERALA
"FEDERAL BANK",FDRL0001076,673049802,KOORACHUNDA,"KOORACHUNDU ATHIYODI ATHIYODI",2660227,KOORACHUNDA,KOORACHUNDA,KERALA
"FEDERAL BANK",FDRL0001075,682049010,PACHALAM,"BAGYODAYA BUILDINGS PACHALAM KOCHI",0,PACHALAM,ERNAKULAM,KERALA
"FEDERAL BANK",FDRL0001074,688049154,THAKAZHY,"WARRIER BUILDING THAKAZHY THAKAZHY",0,THAKAZHY,ALAPUZHA,KERALA
"FEDERAL BANK",FDRL0001073,685049804,PUTTADI,"PUTTADI VANDANMEDU VANDANMEDU",277040,PUTTADI,PUTTADI,KERALA
"FEDERAL BANK",FDRL0001072,695049152,NEDUMANGADU,"P B NO. 2 P S H MEMORIAL SHOPPING COMPLEX NEDUMANGAD",2803006,NEDUMANGADU,THIRUVANANTHAPURAM,KERALA
"FEDERAL BANK",FDRL0001071,673049302,VADAKARA,"FEDERAL BANK LTD APPUS COMPLEX,VADAKARA",2517898,VADAKARA,KOZHIKODE,KERALA
"FEDERAL BANK",FDRL0001070,671049802,NILESHWAR,"CITY CENTRE RAJA ROAD NILESHWAR",2281080,NILESHWAR,KASARAGODE,KERALA
"FEDERAL BANK",FDRL0001069,673049252,SULTHANBATHERY,"MULLAM POTTACKAL BUILDINGS P B NO. 5 SULTHANBATHERY",226159,SULTHANBATHERY,WAYANAD,KERALA
"FEDERAL BANK",FDRL0001068,689049830,VALAKUZHY,"VALAKUZHY VENNIKULAM VENNIKULAM",2654688,VALAKUZHY,PATHANAMTHITTA,KERALA
"FEDERAL BANK",FDRL0001067,686049005,GANDHINAGAR,"P B NO. 2 GANDHINAGAR KOTTAYAM",0,GANDHINAGAR,KOTTAYAM,KERALA
"FEDERAL BANK",FDRL0001066,695049013,CHIRAYINKEEZHU,"P B NO 406 MEDAYIL TOWERS CHIRAYINKEEZHU",2640263,CHIRAYINKEEZHU,THIRUVANANTHAPURAM,KERALA
"FEDERAL BANK",FDRL0001065,689049352,KONNI,"OPP. PRIVATE BUS STAND PATHANAMTHITTA",0,KONNI,PATHANAMTHITTA,KERALA
"FEDERAL BANK",FDRL0001064,688049801,AROOR,"ST.AUGUSTINE S CHURCH BUILDING BYE PASS JN. AROOR",2872001,AROOR,PATHANAMTHITTA,KERALA
"FEDERAL BANK",FDRL0001063,695049253,EDAVA,"P B NO. 503 EDAVA EDAVA",2660431,EDAVA,THIRUVANANTHAPURAM,KERALA
"FEDERAL BANK",FDRL0001062,683049801,VENGOOR,"VENGOOR VENGOOR VENGOOR",0,VENGOOR,ERNAKULAM,KERALA
"FEDERAL BANK",FDRL0001061,689049103,KUMPLAMPOIKA,"KUMPLAMPOIKA KUMPLAMPOIKA KUMPLAMPOIKA",252038,KUMPLAMPOIKA,PATHANAMTHITTA,KERALA
"FEDERAL BANK",FDRL0001060,686049732,PIRAVOM,"THODUPUZHA ROAD PIRAVOM PIRAVOM",2243551,PIRAVOM,ERNAKULAM,KERALA
"FEDERAL BANK",FDRL0001059,673049013,KODUVALLY,"FAROOQUE COMMERCIAL ARCADE KODUVALLY KODUVALLY",2210266,KODUVALLY,KOZHIKODE,KERALA
"FEDERAL BANK",FDRL0001058,682049009,GIRINAGAR,"GIRINAGAR ELAMKULAM KADAVANTHRA P O  KOCHI",2203162,ERNAKULAM,ERNAKULAM,KERALA
"FEDERAL BANK",FDRL0001057,691049801,KADAKKAL,"P B NO 2 KADAKKAL KADAKKAL",2423980,KADAKKAL,KOLLAM,KERALA
"FEDERAL BANK",FDRL0001056,673049002,KOZHIKODE,"P B NO. 1114 CHEROOTY ROAD KOZHIKODE",2360967,KOZHIKODE,KOZHIKODE,KERALA
"FEDERAL BANK",FDRL0001055,685049810,VAZHITHALA,"GROUND FLOOR BUILDING NO.IV/97 VAZHITHALA",273458,VAZHITHALA,IDUKKI,KERALA
"FEDERAL BANK",FDRL0001054,690049102,KAYAMKULAM,"P B NO. 19 K P ROAD KAYAMKULAM",2442413,KAYAMKULAM,ALAPUZHA,KERALA
"FEDERAL BANK",FDRL0001053,688049810,KAVALAM,"KAVALAM KAVALAM KAVALAM",2747221,KAVALAM,ALAPUZHA,KERALA
"FEDERAL BANK",FDRL0001052,691049153,PATHANAPURAM,"PATHANAPURAM PATHANAPURAM PATHANAPURAM",2354288,PATHANAPURAM,KOLLAM,KERALA
"FEDERAL BANK",FDRL0001051,688049807,POOCHAKKAL,"POOCHAKKAL POOCHAKKAL POOCHAKKAL",2532268,POOCHAKKAL,ALAPUZHA,KERALA
"FEDERAL BANK",FDRL0001050,682049046,KANJOOR,"KANJOOR KANJOOR KANJOOR",2465193,KANJOOR,ERNAKULAM,KERALA
"FEDERAL BANK",FDRL0001049,682049056,POOVATHUSSERY,"POOVATHUSSERY PARAKKADAVU P O PARAKKADAVU P O",2471398,POOVATHUSSERY,ERNAKULAM,KERALA
"FEDERAL BANK",FDRL0001048,682049033,NEDUMBASSERY,"NEDUMBASSERY VAPPALASSERY P O ANGAMALLY",0,NEDUMBASSERY,ERNAKULAM,KERALA
"FEDERAL BANK",FDRL0001047,683049802,MOOKKANNOOR,"MOOKKANNOOR ANGAMALLY (VIA) ANGAMALLY (VIA)",2615229,MOOKKANNOOR,ERNAKULAM,KERALA
"FEDERAL BANK",FDRL0001046,695049009,PAPPANAMCODE,"T.C NO.51/234 (1) MUSTAFFA TOWERS THIRUVANANTHAPURAM",0,THIRUVANANTHAPURAM,THIRUVANANTHAPURAM,KERALA
"FEDERAL BANK",FDRL0001045,686049809,NEDUMKUNNAM,"NEDUMKUNNAM NEDUMKUNNAM NEDUMKUNNAM",2415175,NEDUMKUNNAM,KOTTAYAM,KERALA
"FEDERAL BANK",FDRL0001044,686049352,ETTUMANOOR,"P B NO. 5 ETTUMANOOR ETTUMANOOR",0,ETTUMANOOR,KOTTAYAM,KERALA
"FEDERAL BANK",FDRL0001043,682049807,MANJAPRA,"MANJAPRA ANGAMALLY(VIA) ANGAMALLY(VIA)",2690253,MANJAPRA,ERNAKULAM,KERALA
"FEDERAL BANK",FDRL0001042,691049052,ADOOR,"P B NO. 3 M.C.ROAD",0,ADOOR,PATHANAMTHITTA,KERALA
"FEDERAL BANK",FDRL0001041,690049402,MAVELIKARA,"P B NO. 3 PUTHIYACAVU MAVELIKKARA",2300322,MAVELIKARA,ALAPUZHA,KERALA
"FEDERAL BANK",FDRL0001040,689049252,PAZHAVANGADY,"P B NO. 1 PAZHAVANGADY RANNI RANNI",0,PAZHAVANGADY,PATHANAMTHITTA,KERALA
"FEDERAL BANK",FDRL0001039,689049102,PATHANAMTHITTA,"P B NO. 14 PATHANAMTHITTA PATHANAMTHITTA",2224360,PATHANAMTHITTA,PATHANAMTHITTA,KERALA
"FEDERAL BANK",FDRL0001038,689049302,THALAVADY,"ANAPRAMPAL NORTH PO THALAVADY, ALAPUZHA DIST.",0,THALAVADY,ALAPUZHA,KERALA
"FEDERAL BANK",FDRL0001037,686049052,CHANGANASSERY,"P B NO. 24 CHANGANASSERY CHANGANASSERY",2420463,CHANGANASSERY,KOTTAYAM,KERALA
"FEDERAL BANK",FDRL0001036,691049102,KOTTARAKKARA,"P B NO. 1 PULAMON P O KOTTARAKKARA",0,KOTTARAKKARA,KOLLAM,KERALA
"FEDERAL BANK",FDRL0001035,682049047,KIZHAKKAMBALAM,"KIZHAKKAMBALAM KIZHAKKAMBALAM KIZHAKKAMBALAM",2682700,KIZHAKKAMBALAM,ERNAKULAM,KERALA
"FEDERAL BANK",FDRL0001034,682049012,THRIKKAKKARA,"CHEMBUMUKKU THRIKKAKARA KOCHI",2427156,THRIKKAKKARA,ERNAKULAM,KERALA
"FEDERAL BANK",FDRL0001033,682049020,KOCHI,"P B NO. 334 PARVANA JUNCTION MATTANCHERRY  KOCHI",2224134,KOCHI,ERNAKULAM,KERALA
"FEDERAL BANK",FDRL0001032,691049810,ANCHAL,"P B NO. 2 R.O. JUNCTION ANCHAL",0,ANCHAL,KOLLAM,KERALA
"FEDERAL BANK",FDRL0001031,686049152,KANJIRAPPALLY,"SAMANVAYA COMPLEX THAMBALAKKAD ROAD, KANJIRAPPALLY",482203109,KOTTAYAM,KOTTAYAM,KERALA
"FEDERAL BANK",FDRL0001030,695049005,THIRUVANANTHAPURAM/STATUE,"P B NO. 2 1ST FLOOR  FEDERAL TOWERS THIRUVANANTHAPURAM",2329543,THIRUVANANTHAPURAM,THIRUVANANTHAPURAM,KERALA
"FEDERAL BANK",FDRL0001029,689049002,TIRUVALLA,"P B NO. 19 M C ROAD TIRUVALLA",2630468,TIRUVALLA,PATHANAMTHITTA,KERALA
"FEDERAL BANK",FDRL0001028,691049152,PUNALUR,"P B NO. 8 PUNALUR PUNALUR",0,PUNALUR,KOLLAM,KERALA
"FEDERAL BANK",FDRL0001027,695049302,PARASSALA,"PARASSALA PARASSALA PARASSALA",2202031,PARASSALA,THIRUVANANTHAPURAM,KERALA
"FEDERAL BANK",FDRL0001026,689049152,KOZHENCHERRY,"P B NO. 6 KOZHENCHERRY PIN-689641",0,KOZHENCHERRY,PATHANAMTHITTA,KERALA
"FEDERAL BANK",FDRL0001025,686049002,KOTTAYAM,"P B NO. 269 T B ROAD KOTTAYAM",0,KOTTAYAM,KOTTAYAM,KERALA
"FEDERAL BANK",FDRL0001024,689049052,CHENGANNUR,"P B NO. 1 ENGG. COLLEGE ROAD CHENGANNUR",0,CHENGANNUR,ALAPUZHA,KERALA
"FEDERAL BANK",FDRL0001023,685049814,MOOLAMATTOM,"KALAPURAYIL BUILDING, IDUKKI  DISTRICT",252047,MOOLAMATTOM,IDUKKI,KERALA
"FEDERAL BANK",FDRL0001022,695049012,VIZHINJAM,"KMS COMPLEX, VIZHINJAM JUNCTION THIRUVANANTHAPURAM  DISTRICT",2480823,VIZHINJAM,THIRUVANANTHAPURAM,KERALA
"FEDERAL BANK",FDRL0001021,695049002,THIRUVANANTHAPURAM/PALAYAM,"P B NO. 5406 PALAYAM THIRUVANANTHAPURAM",0,THIRUVANANTHAPURAM,THIRUVANANTHAPURAM,KERALA
"FEDERAL BANK",FDRL0001020,682049028,NARAKKAL,"MANJOORANS BUILDINGS NARAKKAL NARAKKAL",2492348,NARAKKAL,ERNAKULAM,KERALA
"FEDERAL BANK",FDRL0001019,691049002,KOLLAM,"RAVI S ARCADE NEAR IRON BRIDGE KOLLAM",2796088,KOLLAM,KOLLAM,KERALA
"FEDERAL BANK",FDRL0001018,685049052,NEDUMKANDAM,"CENTRAL JUNCTION NEDUMKANDAM ,IDUKKI DISTRICT",232021,NEDUMKANDAM,IDUKKI,KERALA
"FEDERAL BANK",FDRL0001017,680049012,KALLETTUMKARA,"KALLETTUMKARA KALLETTUMKARA KALLETTUMKARA",2881856,THRISSUR,THRISSUR,KERALA
"FEDERAL BANK",FDRL0001016,682049029,VARAPUZHA,"VARAPUZHA VARAPUZHA VARAPUZHA",2513021,VARAPUZHA,ERNAKULAM,KERALA
"FEDERAL BANK",FDRL0001015,688049004,ALAPUZHA,"SREE RAJARAJESWARY BUILDING, CHURCH ROAD MULLACKAL, ALAPUZHA DIST.",2261732,ALAPUZHA,ALAPUZHA,KERALA
"FEDERAL BANK",FDRL0001014,680049002,"THRISSUR / MAIN","ANJALI  COMPLEX ROUND NORTH THRISSUR",0,THRISSUR,THRISSUR,KERALA
"FEDERAL BANK",FDRL0001013,686049702,THALAYOLAPARAMBU,"THALAYOLAPARAMBU THALAYOLAPARAMBU THALAYOLAPARAMBU",236125,THALAYOLAPARAMBU,KOTTAYAM,KERALA
"FEDERAL BANK",FDRL0001012,682049016,KALAMASSERY,"P B NO. 18 PREMIER JUNCTION KALAMASSERY",0,KALAMASSERY,ERNAKULAM,KERALA
"FEDERAL BANK",FDRL0001011,682049201,KOLENCHERRY,"P B NO. 3 KOLENCHERY KOLENCHERY",0,KOLENCHERRY,ERNAKULAM,KERALA
"FEDERAL BANK",FDRL0001010,685049202,MUNNAR,"P B NO. 15 MUNNAR MUNNAR",0,MUNNAR,IDUKKI,KERALA
"FEDERAL BANK",FDRL0001009,686049252,MUVATTUPUZHA,"P B NO. 8 MUVATTUPUZHA MUVATTUPUZHA",2832906,MUVATTUPUZHA,ERNAKULAM,KERALA
"FEDERAL BANK",FDRL0001008,686049202,KOTHAMANGALAM,"P B NO. 4 KOTHAMANGALAM KOTHAMANGALAM",2862247,KOTHAMANGALAM,ERNAKULAM,KERALA
"FEDERAL BANK",FDRL0001007,682049030,EDVANAKKAD,"ILLATHUPADI EDAVANAKKAD EDAVANAKKAD",2505327,EDVANAKKAD,ERNAKULAM,KERALA
"FEDERAL BANK",FDRL0001006,686049452,KOOTHATTUKULAM,"P B NO. 3 M C ROAD KOOTHATUKULAM",2252026,KOOTHATTUKULAM,ERNAKULAM,KERALA
"FEDERAL BANK",FDRL0001005,680049152,CHALAKUDY,"P B NO. 20 CHALAKUDY CHALAKUDY",0,CHALAKUDY,THRISSUR,KERALA
"FEDERAL BANK",FDRL0001004,682049004,ERNAKULAM/NORTH,"P B NO. 1927 BANERJI ROAD ERNAKULAM NORTH  KOCHI",0,ERNAKULAM,ERNAKULAM,KERALA
"FEDERAL BANK",FDRL0001003,683049052,PERUMBAVOOR,"P B NO. 6 FEDERAL CHAMBERS PERUMBAVOOR",0,PERUMBAVOOR,ERNAKULAM,KERALA
"FEDERAL BANK",FDRL0001002,683049002,ANGAMALY,"P B NO. 10 ANGAMALLY ANGAMALY",0,ANGAMALY,ERNAKULAM,KERALA
"FEDERAL BANK",FDRL0001001,682049013,"ALUVA / BANK JUNCTION","I ST FLOOR  FEDERAL HEIGHTS BYE PASS JUNCTION ALUVA",0,ALUVA,ERNAKULAM,KERALA
"FEDERAL BANK",FDRL0000516,500049001,"HYDERABAD / SERVICE BRANCH","UNIT NO.301, III FLOOR DEGA TOWERS,RAJBHAVAN SOMAJIGUDA, BEGMPET, HYDERABAD",0,HYDERABAD,HYDERABAD,"ANDHRA PRADESH"
"FEDERAL BANK",FDRL0000515,670049001,"KANNUR / SERVICE","NO. CW 35/1647 - 1650 JUBILY COMPLEX ONDEN ROAD  KANNUR",2707701,KANNUR,KANNUR,KERALA
"FEDERAL BANK",FDRL0000514,NA,"PALAKKAD / SERVICE","2ND FLOOR SANJO TOWERS 2ND FLOOR SANJO TOWERS PALAKKAD",0,PALAKKAD,PALAKKAD,KERALA
"FEDERAL BANK",FDRL0000513,689049001,PATHANAMTHITTA/SERVICE,"SERVICE BRANCH 1ST FLOOR PATHANAMTHITTA",2322026,PATHANAMTHITTA,PATHANAMTHITTA,KERALA
"FEDERAL BANK",FDRL0000512,686049001,"KOTTAYAM / SERVICE","THEKKUMKAL BUILDINGS T.B. ROAD  KOTTAYAM",2583322,KOTTAYAM,KOTTAYAM,KERALA
"FEDERAL BANK",FDRL0000511,691049001,"KOLLAM / SERVICE","MAH BUILDING BEACH ROAD KOLLAM",2766952,KOLLAM,KOLLAM,KERALA
"FEDERAL BANK",FDRL0000510,688049002,"ALAPUZHA / SERVICE","421 N 2ND FLOOR  CHANDRA SQUARE CULLEN ROAD ALAPUZHA",2230636,ALAPUZHA,ALAPUZHA,KERALA
"FEDERAL BANK",FDRL0000509,680049001,"THRISSUR / SERVICE","SERVICE BRANCH  DOOR NO.28/637 ANJALI COMMERCIAL COMPLEX THRISSUR",2321182,THRISSUR,THRISSUR,KERALA
"FEDERAL BANK",FDRL0000508,673049001,"KOZHIKODE / SERVICE","FIRST FLOOR  FEDERAL TOWERS 27/97G  MAVOOR ROAD KOZHIKODE",2744569,KOZHIKODE,KOZHIKODE,KERALA
"FEDERAL BANK",FDRL0000507,695049001,THIRUVANANTHAPURAM/SERVICE,"FIRST FLOOR SAMRUDHI ANUPAM TC27/517(2) PATTOOR,VANCHIYOOR",0,THIRUVANANTHAPURAM,THIRUVANANTHAPURAM,KERALA
"FEDERAL BANK",FDRL0000506,560049001,"BANGALORE /  F & I BRANCH","FUNDS & INVESTMENT BRANCH, NO.24, MEAZZANINE FLOOR, 2ND CROSS, GANDHINAGAR",22201998,BANGALORE,BANGALORE,KARNATAKA
"FEDERAL BANK",FDRL0000505,700049001,"KOLKATA / FUNDS & INVESTMENT","FUNDS & INVESTMENT BRANCH 1/1  CAMAC STREET KOLKATA",22171743,KOLKATA,KOLKATA,"WEST BENGAL"
"FEDERAL BANK",FDRL0000504,400049001,"MUMBAI / FUNDS & INVESTMENTS","1ST FLOOR,NARIMAN BHAVAN, NARIMAN POINT",0,MUMBAI,MUMBAI,MAHARASHTRA
"FEDERAL BANK",FDRL0000503,110049001,"NEWDELHI / FUNDS & INVESTMENT","FUNDS AND INVESTMENT BRANCH M-74  CONNAUGHT CIRCUS NEW DELHI",23415434,"NEW DELHI","NEW DELHI",DELHI
"FEDERAL BANK",FDRL0000502,600049001,"CHENNAI / FUNDS & INVESTMENT","W -121, FIRM TOWERS,I FLOOR 3RD AVENUE,ANNA NAGAR,",0,CHENNAI,CHENNAI,"TAMIL NADU"
"FEDERAL BANK",FDRL0000501,682049001,ERNAKULAM/SERVICE,"SERVICE BRANCH, GROUND FLOOR FEDERAL TOWERS, ERNAKULAM",0,ERNAKULAM,ERNAKULAM,KERALA
"FEDERAL BANK",FDRL0000401,WAITING,"DPS DIVISON ERNAKULAM","DEPOSITORY SERVICE DIVISION, FEDERAL TOWERS MARINE DRIVE ERNAKULAM , KOCHI 682031",2367101,ERNAKULAM,ERNAKULAM,KERALA
"FEDERAL BANK",FDRL0000319,WAITING,"CRCH CHENNAI","THIRD FLOOR TRINITY TOWER NEW NO 30 CONRON SMITH ROAD, GOPALAPURAM,TAMILNADU",28351141,CHENNAI,CHENNAI,"TAMIL NADU"
"FEDERAL BANK",FDRL0000317,NA,"PUNE CREDIT HUB","THE FEDERAL BANK LTD.,, 1STFLOOR, SAIKRUPA BL OPP. SPENCERS,BHANDARKAR ROAD,DECCAN",0,PUNE,PUNE,MAHARASHTRA
"FEDERAL BANK",FDRL0000315,WAITING,"AHMEDABAD RCH","401 RBS OPP HK COLLEGE, ASHRAM ROAD , AHMEDABAD, GUJARAT",26582585,AHMEDABAD,AHMEDABAD,GUJARAT
"FEDERAL BANK",FDRL0000311,WAITING,"KOLHAPUR CREDIT HUB","SHRUSHTI MAHABARAT APARTMENTS,NEAR COLLECTOR OFFICE, MAHALA COLLEGE ROAD, NAGALA PARK, KOLHAPUR, MAHARASHTRA",2657973,KOLHAPUR,KOLHAPUR,MAHARASHTRA
"FEDERAL BANK",FDRL0000308,NA,"CHENNAI CREDIT HUB","30, WEST COTT ROAD BHATTAD TOWERS, ROYAPETTAH",0,CHENNAI,CHENNAI,"TAMIL NADU"
"FEDERAL BANK",FDRL0000303,WAITING,"KOTTAM CREDIT HUB","KOTTAYAM REGIOANL OFFICE,PB NO 80,THEKKUMKAL BUILDING,T B ROAD , KOTTAYAM 686001",2566950,KOTTAYAM,KOTTAYAM,KERALA
"FEDERAL BANK",FDRL0000301,NA,"THIRUVANANTHAPURAM CREDIT HUB","CREDIT HUB-SME/RETAIL PB NO.303, FEDERAL TOWERS, M.G.ROAD, STATUE",0,THIRUVANANTHAPURAM,THIRUVANANTHAPURAM,KERALA
"FEDERAL BANK",FDRL0000211,NA,"THIRUVANANTHAPURAM ZONALOFFICE","ZONAL OFFICE P.B.NO.303 FEDERAL TOWERS THIRUVANANTHAPURAM",2331365,THIRUVANANTHAPURAM,THIRUVANANTHAPURAM,KERALA
"FEDERAL BANK",FDRL0000181,NA,"NEWDELHI ZONAL OFFICE","ZONAL OFFICE  1/7  FIRST FLOOR PATEL ROAD NEW DELHI",25885485,"NEW DELHI","NEW DELHI",DELHI
"FEDERAL BANK",FDRL0000171,NA,"CHENNAI ZONAL OFFICE","BHATTAD TOWER  IST FLOOR 30 WEST COTT ROAD ROYAPETTAH CHENNAI",0,CHENNAI,CHENNAI,"TAMIL NADU"
"FEDERAL BANK",FDRL0000151,NA,"KOZHIKODE ZONAL OFFICE","2ND FLOOR FEDERAL TOWER 27/97G MAVOOR RD ARAYIDATHPALAM",2741100,KOZHIKODE,KOZHIKODE,KERALA
"FEDERAL BANK",FDRL0000141,NA,"ERNAKULAM ZONAL OFFICE","ZONAL OFFICE 6TH FL FEDERAL TOWERS MARINE DRIVE ERNAKULAM",2385520,ERNAKULAM,ERNAKULAM,KERALA
"FEDERAL BANK",FDRL0000131,NA,"KOLKATA ZONAL OFFICE","ZONAL OFFICE REGENCY-2ND FL 6 HUNGERFORD ST KOLKATA-17",22830840,KOLKATA,KOLKATA,"WEST BENGAL"
"FEDERAL BANK",FDRL0000121,NA,"BANGALORE ZONAL OFFICE","P B NO.  8226  BLDG NO:123/107 1ST FLR 7 BLOCK 2 MAIN RD 27CROSS JAYA NG BAN",26640563,BANGALORE,BANGALORE,KARNATAKA
"FEDERAL BANK",FDRL0000111,NA,"MUMBAI / ZONAL OFFICE","ZONAL OFFICE 9 LAKSHMI TOWERS GRD FL BANDRA(EAST) MUMBAI",26506959,MUMBAI,"MUMBAI SUBURBAN",MAHARASHTRA
"FEDERAL BANK",FDRL0000037,NA,"INFORMATION TECHNOLOGY DEPARTMENT","P B NO 103,HEAD OFFICE,ALUVA 683 101,KERALA",0,ALUVA,ERNAKULAM,KERALA
"FEDERAL BANK",FDRL0000035,NA,"HEAD OFFICE (HAS)","P.B.NO. 103 HEAD OFFICE ALUVA  KL",0,ALUVA,ERNAKULAM,KERALA
"FEDERAL BANK",FDRL0000001,NA,"ATM POOL BRANCH","FEDERAL TOWERS ALUVA",0,ALUVA,ERNAKULAM,KERALA
