BANK,IFSC,MICR,BRANCH,ADDRESS,CONTACT,CITY,DISTRICT,STATE
"HIMACHAL PRADESH STATE COOPERATIVE BANK LTD",HPSC0000579,WAITING,GATADHAR,"PO SANGNA TEHSIL SANGRAH DISTT SIRMOUR 173023",8894067667,SANGRAH,SIRMOUR,"HIMACHAL PRADESH"
"HIMACHAL PRADESH STATE COOPERATIVE BANK LTD",HPSC0000578,WAITING,RONHAT,"RONHAT TEHSIL SHILLAI",270404,SHILLAI,SIRMOUR,"HIMACHAL PRADESH"
"HIMACHAL PRADESH STATE COOPERATIVE BANK LTD",HPSC0000577,WAITING,NAINIDHAR,"NAINIDHAR TEHSIL SHILLAI PIN",206010,SHILLAI,SIRMOUR,"HIMACHAL PRADESH"
"HIMACHAL PRADESH STATE COOPERATIVE BANK LTD",HPSC0000576,WAITING,JAMTA,"JAMTA TEHSIL NAHAN PIN",258666,NAHAN,SIRMOUR,"HIMACHAL PRADESH"
"HIMACHAL PRADESH STATE COOPERATIVE BANK LTD",HPSC0000575,WAITING,KHERI,"KHERI TEHSIL RAJGARH DISTT SIRMOUR",275021,RAJGARH,SIRMOUR,"HIMACHAL PRADESH"
"HIMACHAL PRADESH STATE COOPERATIVE BANK LTD",HPSC0000573,WAITING,"YASHWANT NAGAR","YASHWANT NAGAR PIN 173212",270400,"YASHWANT NAGAR",SIRMOUR,"HIMACHAL PRADESH"
"HIMACHAL PRADESH STATE COOPERATIVE BANK LTD",HPSC0000572,173311054,"DC OFFICE NAHAN","DC NAHAN PIN 173026",222267,NAHAN,SIRMOUR,"HIMACHAL PRADESH"
"HIMACHAL PRADESH STATE COOPERATIVE BANK LTD",HPSC0000571,173311058,"LANA CHETA","LANA CHETA PIN 173104",247120,"LANA CHETA",SIRMOUR,"HIMACHAL PRADESH"
"HIMACHAL PRADESH STATE COOPERATIVE BANK LTD",HPSC0000570,173311104,KAMRAU,"KAMRAU PIN 173029",271443,KAMRAU,SIRMOUR,"HIMACHAL PRADESH"
"HIMACHAL PRADESH STATE COOPERATIVE BANK LTD",HPSC0000569,173311060,TRILOKPUR,"TRILOKPUR PIN 173030",238679,"KALA AMB",SIRMOUR,"HIMACHAL PRADESH"
"HIMACHAL PRADESH STATE COOPERATIVE BANK LTD",HPSC0000568,173311105,SHILLAI,"SHILLAI PIN 173027",278545,SHILLAI,SIRMOUR,"HIMACHAL PRADESH"
"HIMACHAL PRADESH STATE COOPERATIVE BANK LTD",HPSC0000567,173311108,SATAUN,"SATAUN PIN 173029",262506,SATAUN,SIRMOUR,"HIMACHAL PRADESH"
"HIMACHAL PRADESH STATE COOPERATIVE BANK LTD",HPSC0000566,173311061,SARAHAN-SIRMOUR,"SARAHAN SIRMOUR. PIN 173024",236745,SRAHAN,SIRMOUR,"HIMACHAL PRADESH"
"HIMACHAL PRADESH STATE COOPERATIVE BANK LTD",HPSC0000565,173311056,SANGRAH,"SANGRAH PIN 173023",248163,SANGRAH,SIRMOUR,"HIMACHAL PRADESH"
"HIMACHAL PRADESH STATE COOPERATIVE BANK LTD",HPSC0000564,173311106,"S - PURUWALA","S PRURWALA PIN 173025",238838,"PAONTA SAHIB",SIRMOUR,"HIMACHAL PRADESH"
"HIMACHAL PRADESH STATE COOPERATIVE BANK LTD",HPSC0000563,WAITING,RAJGARH,"RAJGARH PIN 173101",221021,RAJGARH,SIRMOUR,"HIMACHAL PRADESH"
"HIMACHAL PRADESH STATE COOPERATIVE BANK LTD",HPSC0000562,173311102,"PAONTA SAHIB","PAONTA SAHIB PIN 173025",222336,"PAONTA SAHIB",SIRMOUR,"HIMACHAL PRADESH"
"HIMACHAL PRADESH STATE COOPERATIVE BANK LTD",HPSC0000561,173311002,NOHRADHAR,"NOHRADHAR PIN 173104",240680,NOHRADHAR,SIRMOUR,"HIMACHAL PRADESH"
"HIMACHAL PRADESH STATE COOPERATIVE BANK LTD",HPSC0000560,173311055,NARAG,"NARAG PIN 173024",257335,NARAG,SIRMOUR,"HIMACHAL PRADESH"
"HIMACHAL PRADESH STATE COOPERATIVE BANK LTD",HPSC0000559,173311052,NAHAN,"NAHAN PIN 173001",222687,NAHAN,SIRMOUR,"HIMACHAL PRADESH"
"HIMACHAL PRADESH STATE COOPERATIVE BANK LTD",HPSC0000558,173311109,MAJRA,"MAJRA PIN 173021",254047,MAJRA,SIRMOUR,"HIMACHAL PRADESH"
"HIMACHAL PRADESH STATE COOPERATIVE BANK LTD",HPSC0000557,173311053,"KATCHA TANK","KATCHA TANK PIN 173001",223143,NAHAN,SIRMOUR,"HIMACHAL PRADESH"
"HIMACHAL PRADESH STATE COOPERATIVE BANK LTD",HPSC0000556,173311062,"KALA AMB","KALA AMB PIN 173020",254114,"KAKA AMB",SIRMOUR,"HIMACHAL PRADESH"
"HIMACHAL PRADESH STATE COOPERATIVE BANK LTD",HPSC0000555,173311003,HABBAN,"HABBAN PIN 173101",266080,HABBAN,SIRMOUR,"HIMACHAL PRADESH"
"HIMACHAL PRADESH STATE COOPERATIVE BANK LTD",HPSC0000553,173311059,DADAHU,"DADAHU DISTT SIRMOUR PIN 173022",267353,DADAHU,SIRMOUR,"HIMACHAL PRADESH"
"HIMACHAL PRADESH STATE COOPERATIVE BANK LTD",HPSC0000552,173311107,"DHAULA KUAN","DHAULA KUAN PIN 173020",257619,"DHAULA KUAN",SIRMOUR,"HIMACHAL PRADESH"
"HIMACHAL PRADESH STATE COOPERATIVE BANK LTD",HPSC0000551,173311103,BADRINAGAR,"BO BADARI NAGAR PIN 173026",224788,"PAONTA SAHIB",SIRMOUR,"HIMACHAL PRADESH"
"HIMACHAL PRADESH STATE COOPERATIVE BANK LTD",HPSC0000467,WAITING,"JATHIA DEVI","VPO JATHIA DEVI TEHSIL SHIMLA",0,SHIMLA,SHIMLA,"HIMACHAL PRADESH"
"HIMACHAL PRADESH STATE COOPERATIVE BANK LTD",HPSC0000466,WAITING,JALOG,"VPO JALOG TEHSIL SUNNI",0,SHIMLA,SHIMLA,"HIMACHAL PRADESH"
"HIMACHAL PRADESH STATE COOPERATIVE BANK LTD",HPSC0000462,WAITING,KUPVI,"KUPVI TEHSIL KUPVI DISTT SHIMLA",270280,KUPVI,SHIMLA,"HIMACHAL PRADESH"
"HIMACHAL PRADESH STATE COOPERATIVE BANK LTD",HPSC0000461,WAITING,"SUMMER HILL","SUMMER HILL DISTT SHIMLA 171005",2832500,SHIMLA,SHIMLA,"HIMACHAL PRADESH"
"HIMACHAL PRADESH STATE COOPERATIVE BANK LTD",HPSC0000460,WAITING,FAGU,"FAGU TEHSIL THEOG DISTT SHIMLA",239207,THEOG,SHIMLA,"HIMACHAL PRADESH"
"HIMACHAL PRADESH STATE COOPERATIVE BANK LTD",HPSC0000459,171311049,KHARAPATHAR,"KHARA PATHAR TEHSIL JUBBAL PIN 171205",9418012762,JUBBAL,SHIMLA,"HIMACHAL PRADESH"
"HIMACHAL PRADESH STATE COOPERATIVE BANK LTD",HPSC0000458,171311025,"BACHHUNCH   CHAPOTI","BACHHUNCH CHAPOTI",244231,ROHRU,SHIMLA,"HIMACHAL PRADESH"
"HIMACHAL PRADESH STATE COOPERATIVE BANK LTD",HPSC0000457,171311011,"BATAR GALU","BATAR GALU PO KATHASU TEHSIL JUBBAL PIN-171206",8988125900,JUBBAL,SHIMLA,"HIMACHAL PRADESH"
"HIMACHAL PRADESH STATE COOPERATIVE BANK LTD",HPSC0000456,171311012,KHARAHAN,"KHARAHAN TEHSIL NANKHARI PIN 171213",9418211634,NANKHARI,SHIMLA,"HIMACHAL PRADESH"
"HIMACHAL PRADESH STATE COOPERATIVE BANK LTD",HPSC0000455,171311039,"KHOLI GHAT","KHOLIGHAT NANKHARI PIN 171213",268755,NANKHARI,SHIMLA,"HIMACHAL PRADESH"
"HIMACHAL PRADESH STATE COOPERATIVE BANK LTD",HPSC0000454,WAITING,MANDAL,"MANDAL PIN 171216",239156,MANDAL,SHIMLA,"HIMACHAL PRADESH"
"HIMACHAL PRADESH STATE COOPERATIVE BANK LTD",HPSC0000453,171311023,DEOLI,"BO DEOLI PIN 171203",9418142342,DEOLI,SHIMLA,"HIMACHAL PRADESH"
"HIMACHAL PRADESH STATE COOPERATIVE BANK LTD",HPSC0000451,171311043,KOTI,"KOTI TEHSIL JUNGA PIN 171012",2733451,SHIMLA,SHIMLA,"HIMACHAL PRADESH"
"HIMACHAL PRADESH STATE COOPERATIVE BANK LTD",HPSC0000450,171311024,SHILAROO,"SHILAROO PIN 171213",9418095965,SHILAROO,SHIMLA,"HIMACHAL PRADESH"
"HIMACHAL PRADESH STATE COOPERATIVE BANK LTD",HPSC0000449,171311045,"DEORI KHANETI","DEORI KHANETI TEHSIL KOTKHAI PIN 171201",246707,KOTKHAI,SHIMLA,"HIMACHAL PRADESH"
"HIMACHAL PRADESH STATE COOPERATIVE BANK LTD",HPSC0000448,171311032,"SARASWATI NAGAR","SARASWATI NAGAR PIN 171206",238995,"SARASWATI NAGAR",SHIMLA,"HIMACHAL PRADESH"
"HIMACHAL PRADESH STATE COOPERATIVE BANK LTD",HPSC0000447,171311044,RATNARI,"RATNARI TEHSIL KOTKHAI PIN 171225",275801,KOTKHAI,SHIMLA,"HIMACHAL PRADESH"
"HIMACHAL PRADESH STATE COOPERATIVE BANK LTD",HPSC0000446,171311010,TOTU,"BO TOTU SHIMLA PIN 171011",2837608,SHIMLA,SHIMLA,"HIMACHAL PRADESH"
"HIMACHAL PRADESH STATE COOPERATIVE BANK LTD",HPSC0000445,171311040,TIKKAR,"TIKKAR PIN 171203",233277,TIKKER,SHIMLA,"HIMACHAL PRADESH"
"HIMACHAL PRADESH STATE COOPERATIVE BANK LTD",HPSC0000444,171311026,THEOG,"THEOG PIN 171201",238207,THEOG,SHIMLA,"HIMACHAL PRADESH"
"HIMACHAL PRADESH STATE COOPERATIVE BANK LTD",HPSC0000443,171311030,THANEDHAR,"THANEDHAR TEHSIL KUMARSAIN PIN 172030",222350,KUMARSAIN,SHIMLA,"HIMACHAL PRADESH"
"HIMACHAL PRADESH STATE COOPERATIVE BANK LTD",HPSC0000442,172311006,TAKLECH,"BO TAKLECH TEHSIL RAMPUR PIN 172022",272206,RAMPUR,SHIMLA,"HIMACHAL PRADESH"
"HIMACHAL PRADESH STATE COOPERATIVE BANK LTD",HPSC0000441,171311033,"THE MALL SHIMLA","SHIMLA THE MALL SHIMLA 171001",0,SHIMLA,SHIMLA,"HIMACHAL PRADESH"
"HIMACHAL PRADESH STATE COOPERATIVE BANK LTD",HPSC0000440,171311013,"THE MALL SHIMLA","SHIMLA THE MALL SHIMLA 171001",0,SHIMLA,SHIMLA,"HIMACHAL PRADESH"
"HIMACHAL PRADESH STATE COOPERATIVE BANK LTD",HPSC0000439,171311022,"THE MALL SHIMLA","SHIMLA THE MALL SHIMLA 171001",0,SHIMLA,SHIMLA,"HIMACHAL PRADESH"
"HIMACHAL PRADESH STATE COOPERATIVE BANK LTD",HPSC0000438,171311002,"THE MALL SHIMLA","SHIMLA THE MALL SHIMLA 171001",0,SHIMLA,SHIMLA,"HIMACHAL PRADESH"
"HIMACHAL PRADESH STATE COOPERATIVE BANK LTD",HPSC0000437,171311047,SHARONTHA,"SHARONTHA TEHSIL TIKKAR PIN 171203",9418071898,SHRONTHA,SHIMLA,"HIMACHAL PRADESH"
"HIMACHAL PRADESH STATE COOPERATIVE BANK LTD",HPSC0000435,171311006,"H P SECRETARIAT","BO SECTT CHHOTA SHIMLA 171002",2620991,SHIMLA,SHIMLA,"HIMACHAL PRADESH"
"HIMACHAL PRADESH STATE COOPERATIVE BANK LTD",HPSC0000434,172311005,SARAHAN-BSR,"SARAHAN BSR TEHSIL RAMPUR PIN 172002",274261,RAMPUR,SHIMLA,"HIMACHAL PRADESH"
"HIMACHAL PRADESH STATE COOPERATIVE BANK LTD",HPSC0000433,171311008,SANJAULI,"SANJAULI SHIMLA PIN 171006",2841140,SHIMLA,SHIMLA,"HIMACHAL PRADESH"
"HIMACHAL PRADESH STATE COOPERATIVE BANK LTD",HPSC0000432,171311017,ROHRU,"ROHRU PIN 171207",240050,ROHRU,SHIMLA,"HIMACHAL PRADESH"
"HIMACHAL PRADESH STATE COOPERATIVE BANK LTD",HPSC0000431,172311002,"RAMPUR BUSHAHAR","RAMPUR MAIN BAZAR PIN 172001",233034,RAMPUR,SHIMLA,"HIMACHAL PRADESH"
"HIMACHAL PRADESH STATE COOPERATIVE BANK LTD",HPSC0000430,171311031,PREMNAGAR,"PREM NAGAR TEHSIL KUMARSAIN",244046,KUMARSAIN,SHIMLA,"HIMACHAL PRADESH"
"HIMACHAL PRADESH STATE COOPERATIVE BANK LTD",HPSC0000429,171311042,"PRAGATI NAGAR","PRAGATI NAGAR TEHSIL KOTKHAI PIN 171202",253304,KOTKHAI,SHIMLA,"HIMACHAL PRADESH"
"HIMACHAL PRADESH STATE COOPERATIVE BANK LTD",HPSC0000428,172311004,NOGLI,"NOGLI TEHSIL RAMPUR BUSHAHAR PIN 172022",271296,RAMPUR,SHIMLA,"HIMACHAL PRADESH"
"HIMACHAL PRADESH STATE COOPERATIVE BANK LTD",HPSC0000427,171311046,NERWA,"NERWA TEHSIL CHOPAL PIN 171210",264427,CHOPAL,SHIMLA,"HIMACHAL PRADESH"
"HIMACHAL PRADESH STATE COOPERATIVE BANK LTD",HPSC0000426,171311018,NARKANDA,"NARKANDA, TEHSIL KUMARSAIN PIN-171213",242433,KUMARSAIN,SHIMLA,"HIMACHAL PRADESH"
"HIMACHAL PRADESH STATE COOPERATIVE BANK LTD",HPSC0000425,172311009,NANKHARI,"NANKHARI TEHSIL NANKHARI PIN 172021",225444,NANKHARI,SHIMLA,"HIMACHAL PRADESH"
"HIMACHAL PRADESH STATE COOPERATIVE BANK LTD",HPSC0000424,171311041,MARAOG,"MARAOG TEHSIL CHOPAL PIN 171211",261304,CHOPAL,SHIMLA,"HIMACHAL PRADESH"
"HIMACHAL PRADESH STATE COOPERATIVE BANK LTD",HPSC0000423,171311027,KUMARSAIN,"BO AND TEHSIL KUMARSAIN PIN 172029",240004,KUMARSAIN,SHIMLA,"HIMACHAL PRADESH"
"HIMACHAL PRADESH STATE COOPERATIVE BANK LTD",HPSC0000422,171311029,KOTKHAI,"KOTKHAI TEHSIL KOTKHAI DISTT SHIMLA PIN 171202",255313,KOTKHAI,SHIMLA,"HIMACHAL PRADESH"
"HIMACHAL PRADESH STATE COOPERATIVE BANK LTD",HPSC0000421,171311037,KIARI,"KIARI TEHSIL KOTKHAI PIN 171204",258213,KOTKHAI,SHIMLA,"HIMACHAL PRADESH"
"HIMACHAL PRADESH STATE COOPERATIVE BANK LTD",HPSC0000420,171311021,"KHANETI SANDOCH","KHANETI SADOCH PO BATARI TEHSIL KUMARSAIN PIN 172031",228123,KUMARSAIN,SHIMLA,"HIMACHAL PRADESH"
"HIMACHAL PRADESH STATE COOPERATIVE BANK LTD",HPSC0000419,171311014,"KHALTU NALA","KHALTUNALA TEHSIL KOTKHAI PIN 171202",244530,KOTKHAI,SHIMLA,"HIMACHAL PRADESH"
"HIMACHAL PRADESH STATE COOPERATIVE BANK LTD",HPSC0000418,171311004,KHALINI,"KHALINI SHIMLA PIN 171002",2623676,SHIMLA,SHIMLA,"HIMACHAL PRADESH"
"HIMACHAL PRADESH STATE COOPERATIVE BANK LTD",HPSC0000417,171311007,KASUMPATI,"KASUMPATI SHIMLA 9",2624818,SHIMLA,SHIMLA,"HIMACHAL PRADESH"
"HIMACHAL PRADESH STATE COOPERATIVE BANK LTD",HPSC0000416,171311028,JUBBAL,"JUBBAL TEHSIL JUBBAL DISTT SHIMLA PIN 171205",252047,JUBBAL,SHIMLA,"HIMACHAL PRADESH"
"HIMACHAL PRADESH STATE COOPERATIVE BANK LTD",HPSC0000415,171311038,JIKHNIPUL,"JHIKNIPUL TEHSIL CHOPAL PIN 171211",266530,CHOPAL,SHIMLA,"HIMACHAL PRADESH"
"HIMACHAL PRADESH STATE COOPERATIVE BANK LTD",HPSC0000414,172311003,JHAKRI,"JHAKRI, TEHSIL RAMPUR PIN-172201",275581,RAMPUR,SHIMLA,"HIMACHAL PRADESH"
"HIMACHAL PRADESH STATE COOPERATIVE BANK LTD",HPSC0000413,172311008,JEORI,"JEORI TEHSIL RAMPUR PIN 172101",278460,RAMPUR,SHIMLA,"HIMACHAL PRADESH"
"HIMACHAL PRADESH STATE COOPERATIVE BANK LTD",HPSC0000412,171311035,JANGLA,"JANGLA TEHSIL ROHRU PIN 171214",275801,ROHRU,SHIMLA,"HIMACHAL PRADESH"
"HIMACHAL PRADESH STATE COOPERATIVE BANK LTD",HPSC0000411,171311016,GHANAHATTI,"GANAHATTI PIN 171011",2774678,SHIMLA,SHIMLA,"HIMACHAL PRADESH"
"HIMACHAL PRADESH STATE COOPERATIVE BANK LTD",HPSC0000410,172311007,DODRA,"DODRA KWAR PIN 171221",262070,CHIRGAON,SHIMLA,"HIMACHAL PRADESH"
"HIMACHAL PRADESH STATE COOPERATIVE BANK LTD",HPSC0000409,171311009,DHALLI,"DHALLI DISTT SHIMLA PIN 171012",2841099,SHIMLA,SHIMLA,"HIMACHAL PRADESH"
"HIMACHAL PRADESH STATE COOPERATIVE BANK LTD",HPSC0000408,171311048,DEHA,"BO DEHA PIN 171201",231711,DEHA,SHIMLA,"HIMACHAL PRADESH"
"HIMACHAL PRADESH STATE COOPERATIVE BANK LTD",HPSC0000407,171311015,DALAN,"DALAN PO VIRGARH TEHSIL KUMARSAIN PIN 172030",222909,KUMARSAIN,SHIMLA,"HIMACHAL PRADESH"
"HIMACHAL PRADESH STATE COOPERATIVE BANK LTD",HPSC0000406,171311005,"CHHOTA SHIMLA","CHHOTA SHIMLA-2",2621886,SHIMLA,SHIMLA,"HIMACHAL PRADESH"
"HIMACHAL PRADESH STATE COOPERATIVE BANK LTD",HPSC0000405,171311020,CHOPAL,CHOPAL,260025,CHOPAL,SHIMLA,"HIMACHAL PRADESH"
"HIMACHAL PRADESH STATE COOPERATIVE BANK LTD",HPSC0000404,171311019,CHIRGAON,"CHIRGAON PIN",277258,CHIRGAON,SHIMLA,"HIMACHAL PRADESH"
"HIMACHAL PRADESH STATE COOPERATIVE BANK LTD",HPSC0000403,171311034,CHAMAIN,"CHAMAIN TEHSIL KOTKHAI",240561,KOTKHAI,SHIMLA,"HIMACHAL PRADESH"
"HIMACHAL PRADESH STATE COOPERATIVE BANK LTD",HPSC0000402,171311003,"ISBT SHIMLA","BO ISBT SHIMLA PIN 171001",2812945,SHIMLA,SHIMLA,"HIMACHAL PRADESH"
"HIMACHAL PRADESH STATE COOPERATIVE BANK LTD",HPSC0000401,171311036,BHARANU,"BHARANU TEHSIL CHOPAL",269521,CHOPAL,SHIMLA,"HIMACHAL PRADESH"
"HIMACHAL PRADESH STATE COOPERATIVE BANK LTD",HPSC0000352,WAITING,TAKOLI,"TAKOLI PIN 175025",287213,TAKOLI,MANDI,"HIMACHAL PRADESH"
"HIMACHAL PRADESH STATE COOPERATIVE BANK LTD",HPSC0000351,175311132,"RAJGARH   MND","RAJGARH PIN 175027",244006,RAJGARH,MANDI,"HIMACHAL PRADESH"
"HIMACHAL PRADESH STATE COOPERATIVE BANK LTD",HPSC0000349,WAITING,"BAGA CHANOGI","BAGA CHANOGI TEHSIL THUNAG VIA BAGSAID PIN 175035",217050,THUNAG,MANDI,"HIMACHAL PRADESH"
"HIMACHAL PRADESH STATE COOPERATIVE BANK LTD",HPSC0000347,WAITING,PADDAR,"VPO PADDAR TEH PADDAR MANDI 175012",260670,PADDAR,MANDI,"HIMACHAL PRADESH"
"HIMACHAL PRADESH STATE COOPERATIVE BANK LTD",HPSC0000345,175311118,"AWAH DEVI","SARAUN (AWHA DEVI) PIN 175024",275157,SARAUN,MANDI,"HIMACHAL PRADESH"
"HIMACHAL PRADESH STATE COOPERATIVE BANK LTD",HPSC0000343,175311113,CHANDESH,"CHANDESH PO GAHAR TEHSIL SARKAGHAT PIN 175049",257681,SARKAGHAT,MANDI,"HIMACHAL PRADESH"
"HIMACHAL PRADESH STATE COOPERATIVE BANK LTD",HPSC0000342,174311005,DHANOTU,"DHANOTU TEHSIL SUNDER NAGAR PIN-174401",265066,SUNDERNAGAR,MANDI,"HIMACHAL PRADESH"
"HIMACHAL PRADESH STATE COOPERATIVE BANK LTD",HPSC0000341,175311110,KUNNU,"KUNNU TEHSIL PADHAR PIN 176121",260640,PADHAR,MANDI,"HIMACHAL PRADESH"
"HIMACHAL PRADESH STATE COOPERATIVE BANK LTD",HPSC0000340,175311116,"BS JOGINDER NAGAR","JOGINDER NAGAR BUS STAND PIN 17",224307,"JOGINDER NAGAR",MANDI,"HIMACHAL PRADESH"
"HIMACHAL PRADESH STATE COOPERATIVE BANK LTD",HPSC0000339,WAITING,"NABAHI DEVI","VPO NABAHI DEVI TEH SARKAGHAT MANDI 175024",230174,SARKAGHAT,MANDI,"HIMACHAL PRADESH"
"HIMACHAL PRADESH STATE COOPERATIVE BANK LTD",HPSC0000338,174311007,SMAILA,"SMAILA, TEHSIL SARAGHAT PIN-175034",256310,SARKAGHAT,MANDI,"HIMACHAL PRADESH"
"HIMACHAL PRADESH STATE COOPERATIVE BANK LTD",HPSC0000336,175311111,"SAJAO PIPLU","SAJAO PIPLU TEHSIL SARKAGHAT PIN 175025",251766,SARKAGHAT,MANDI,"HIMACHAL PRADESH"
"HIMACHAL PRADESH STATE COOPERATIVE BANK LTD",HPSC0000335,175311117,"CHAIL CHOWK","CHAIL CHOWK TEHSIL CHACHIOT PIN 175045",251048,"CHAIL CHOWK",MANDI,"HIMACHAL PRADESH"
"HIMACHAL PRADESH STATE COOPERATIVE BANK LTD",HPSC0000334,WAITING,LONGANI,"LONGNI TEHSIL SARKAGHAT DISTT. MANDI PIN-175025",279055,LONGNI,MANDI,"HIMACHAL PRADESH"
"HIMACHAL PRADESH STATE COOPERATIVE BANK LTD",HPSC0000333,175311127,MARHI,"MARHI TEHSIL SARKAGHAT PIN 175050",270100,SARKAGHAT,MANDI,"HIMACHAL PRADESH"
"HIMACHAL PRADESH STATE COOPERATIVE BANK LTD",HPSC0000332,174311008,TIHRA,"TIHRA TEHSIL SARKAGHAT PIN 175026",278401,SARKAGHAT,MANDI,"HIMACHAL PRADESH"
"HIMACHAL PRADESH STATE COOPERATIVE BANK LTD",HPSC0000331,175311105,BHADARWAR,"BALDWARA TEHSIL SARKAGHAT PIN 175033",271311,SARKAGHAT,MANDI,"HIMACHAL PRADESH"
"HIMACHAL PRADESH STATE COOPERATIVE BANK LTD",HPSC0000330,174311004,"BSL SUNDERNAGAR","BSL COLONY SNR PURANA BAZAR TEHSIL SUNDER NAGAR",264154,SUNDERNAGAR,MANDI,"HIMACHAL PRADESH"
"HIMACHAL PRADESH STATE COOPERATIVE BANK LTD",HPSC0000329,174311003,CHATROKHARI,"CHATROKHRI, TEHSIL SUNDER NAGAR PIN-174402",266309,SUNDERNAGAR,MANDI,"HIMACHAL PRADESH"
"HIMACHAL PRADESH STATE COOPERATIVE BANK LTD",HPSC0000328,175311103,SAULIKHAD,"SAULIKAHD PIN 175001",237659,MANDI,MANDI,"HIMACHAL PRADESH"
"HIMACHAL PRADESH STATE COOPERATIVE BANK LTD",HPSC0000327,175311126,BHAMBLA,"BHAMBLA TEHSIL SARKAGHAT PIN 175004",256454,SARKAGHAT,MANDI,"HIMACHAL PRADESH"
"HIMACHAL PRADESH STATE COOPERATIVE BANK LTD",HPSC0000326,175311115,THUNAG,"THUNAG PO & TEHSIL THUNAG PIN 175048",257514,THUNAG,MANDI,"HIMACHAL PRADESH"
"HIMACHAL PRADESH STATE COOPERATIVE BANK LTD",HPSC0000325,174311002,"SUNDER NAGAR","SUNDER NAGAR PIN 175019",262337,SUNDERNAGAR,MANDI,"HIMACHAL PRADESH"
"HIMACHAL PRADESH STATE COOPERATIVE BANK LTD",HPSC0000324,174311012,"SERI BANGLOW","SERI BUNLOW TEHSIL KARSOG MANDI PIN-175011",226505,KARSOG,MANDI,"HIMACHAL PRADESH"
"HIMACHAL PRADESH STATE COOPERATIVE BANK LTD",HPSC0000323,175311122,SARKAGHAT,SARKAGHAT,230057,SARKAGHAT,MANDI,"HIMACHAL PRADESH"
"HIMACHAL PRADESH STATE COOPERATIVE BANK LTD",HPSC0000322,175311112,SANDHOLE,"SANDHOLE PIN 176090",273228,SANDHOLE,MANDI,"HIMACHAL PRADESH"
"HIMACHAL PRADESH STATE COOPERATIVE BANK LTD",HPSC0000321,175311106,REWALSAR,"REWALSAR PIN 175023",240211,REWALSAR,MANDI,"HIMACHAL PRADESH"
"HIMACHAL PRADESH STATE COOPERATIVE BANK LTD",HPSC0000320,175311123,PANDOH,"PANDOH PIN 175124",282207,PANDOH,MANDI,"HIMACHAL PRADESH"
"HIMACHAL PRADESH STATE COOPERATIVE BANK LTD",HPSC0000319,175311119,"NER CHOWK","NERCHOWK TEHSIL SADAR PIN 175008",242358,"NER CHOWK",MANDI,"HIMACHAL PRADESH"
"HIMACHAL PRADESH STATE COOPERATIVE BANK LTD",HPSC0000318,175311124,NAGWAIN,"NAGWAIN PIN 175121",287113,NAGWAIN,MANDI,"HIMACHAL PRADESH"
"HIMACHAL PRADESH STATE COOPERATIVE BANK LTD",HPSC0000317,175311102,MANDI,"CHOTA BAZAR MANDI PIN 175001",223035,MANDI,MANDI,"HIMACHAL PRADESH"
"HIMACHAL PRADESH STATE COOPERATIVE BANK LTD",HPSC0000316,175311130,MAKARIRI,"MAKRIRI MANDI",256104,MAKRIRI,MANDI,"HIMACHAL PRADESH"
"HIMACHAL PRADESH STATE COOPERATIVE BANK LTD",HPSC0000315,175311104,LADBADHOL,"LAD BHROL PIN 176126",278143,LADBHAROL,MANDI,"HIMACHAL PRADESH"
"HIMACHAL PRADESH STATE COOPERATIVE BANK LTD",HPSC0000314,175311109,KOTLI,"KOTLI PIN 175003",281219,KOTLI,MANDI,"HIMACHAL PRADESH"
"HIMACHAL PRADESH STATE COOPERATIVE BANK LTD",HPSC0000313,174311010,KARSOG,"KARSOG MANDI PIN 175011",222248,KARSOG,MANDI,"HIMACHAL PRADESH"
"HIMACHAL PRADESH STATE COOPERATIVE BANK LTD",HPSC0000312,175311107,"JOGINDER NAGAR","JOGINDER NAGAR PIN 175015",222029,"JOGINDER NAGAR",MANDI,"HIMACHAL PRADESH"
"HIMACHAL PRADESH STATE COOPERATIVE BANK LTD",HPSC0000311,174311013,JANJEHLI,"JANJEHLI MANDI PIN- 175047",256748,JANJEHLI,MANDI,"HIMACHAL PRADESH"
"HIMACHAL PRADESH STATE COOPERATIVE BANK LTD",HPSC0000310,175311121,GOHAR,"GOHAR TEHSIL CHACHYOT PIN 175029",250270,GOHAR,MANDI,"HIMACHAL PRADESH"
"HIMACHAL PRADESH STATE COOPERATIVE BANK LTD",HPSC0000309,175311125,DHARMARPUR,"DHARAMPUR TEHSIL SARKAGHAT PIN 175040",272005,DHARMPUR,MANDI,"HIMACHAL PRADESH"
"HIMACHAL PRADESH STATE COOPERATIVE BANK LTD",HPSC0000308,174311009,DEHAR,"DEHAR TEHSIL SUNDER NAGAR PIN 175030",283004,DEHAR,MANDI,"HIMACHAL PRADESH"
"HIMACHAL PRADESH STATE COOPERATIVE BANK LTD",HPSC0000307,175311114,CHURAG,"CHURAG TEHSIL KARSOG PIN",224036,KARSOG,MANDI,"HIMACHAL PRADESH"
"HIMACHAL PRADESH STATE COOPERATIVE BANK LTD",HPSC0000306,174311011,CHHATRI,"CHHATRI MANDI PIN 175047",243201,CHHATRI,MANDI,"HIMACHAL PRADESH"
"HIMACHAL PRADESH STATE COOPERATIVE BANK LTD",HPSC0000305,175311108,CHAUNTRA,"CHAUNTRA PIN 175032",252227,CHAUNTRA,MANDI,"HIMACHAL PRADESH"
"HIMACHAL PRADESH STATE COOPERATIVE BANK LTD",HPSC0000304,175311129,BAROT,"BAROT MANDI",267241,BAROT,MANDI,"HIMACHAL PRADESH"
"HIMACHAL PRADESH STATE COOPERATIVE BANK LTD",HPSC0000303,175311120,"BALI CHOWKI","BALICHOWKI TEHSIL BALICHOWKI PIN 175106",229145,"BALI CHOWKI",MANDI,"HIMACHAL PRADESH"
"HIMACHAL PRADESH STATE COOPERATIVE BANK LTD",HPSC0000302,175311128,BALDWARA,"BALDWARA TEHSIL SARKAGHAT PIN 175033",258052,SARKAGHAT,MANDI,"HIMACHAL PRADESH"
"HIMACHAL PRADESH STATE COOPERATIVE BANK LTD",HPSC0000301,174311006,BAGSIAD,"BAGSAID, TEHSIL THUNAG PIN-175035",254245,THUNAG,MANDI,"HIMACHAL PRADESH"
"HIMACHAL PRADESH STATE COOPERATIVE BANK LTD",HPSC0000266,WAITING,SPILLOW,"SPILLOW DISTT KINNAUR",9816012458,SPILLOW,KINNAUR,"HIMACHAL PRADESH"
"HIMACHAL PRADESH STATE COOPERATIVE BANK LTD",HPSC0000264,WAITING,GIABONG,"GIABONG PIN 172110",9418761189,GIABONG,KINNAUR,"HIMACHAL PRADESH"
"HIMACHAL PRADESH STATE COOPERATIVE BANK LTD",HPSC0000262,172311055,AKPA,"AKPA, TEHSIL MOORANG PIN-172116",225564,MOORANG,KINNAUR,"HIMACHAL PRADESH"
"HIMACHAL PRADESH STATE COOPERATIVE BANK LTD",HPSC0000261,172311010,TAPRI,"TAPRI KINNAUR",261207,TAPRI,KINNAUR,"HIMACHAL PRADESH"
"HIMACHAL PRADESH STATE COOPERATIVE BANK LTD",HPSC0000260,172311058,SANGLA,"SANGLA PIN 172106",242202,SANGLA,KINNAUR,"HIMACHAL PRADESH"
"HIMACHAL PRADESH STATE COOPERATIVE BANK LTD",HPSC0000259,172311054,POWARI,"POWARI SHANTHONG TEHSIL KALPA PIN 172107",223523,KALPA,KINNAUR,"HIMACHAL PRADESH"
"HIMACHAL PRADESH STATE COOPERATIVE BANK LTD",HPSC0000258,172311060,POOH,"POOH PIN 172111",232297,POOH,KINNAUR,"HIMACHAL PRADESH"
"HIMACHAL PRADESH STATE COOPERATIVE BANK LTD",HPSC0000257,172311052,"REKONG PEO","RECKONG PEO TEHSIL KALPA PIN 172107",222485,"REKONG PEO",KINNAUR,"HIMACHAL PRADESH"
"HIMACHAL PRADESH STATE COOPERATIVE BANK LTD",HPSC0000256,172311053,PANGI,"PANGI PIN 172107",228811,PANGI,KINNAUR,"HIMACHAL PRADESH"
"HIMACHAL PRADESH STATE COOPERATIVE BANK LTD",HPSC0000255,172311011,NICHAR,"NICHAR KINNAUR",204549,NICHAR,KINNAUR,"HIMACHAL PRADESH"
"HIMACHAL PRADESH STATE COOPERATIVE BANK LTD",HPSC0000254,172311061,MOORANG,"MOORENG PIN 172109",252739,MOORANG,KINNAUR,"HIMACHAL PRADESH"
"HIMACHAL PRADESH STATE COOPERATIVE BANK LTD",HPSC0000253,172311059,KATGAON,"KATGAON PIN 172118",262295,KATGAON,KINNAUR,"HIMACHAL PRADESH"
"HIMACHAL PRADESH STATE COOPERATIVE BANK LTD",HPSC0000252,172311056,KALPA,"KALPA PIN-172108",226004,KALPA,KINNAUR,"HIMACHAL PRADESH"
"HIMACHAL PRADESH STATE COOPERATIVE BANK LTD",HPSC0000251,172311057,"BHABA NAGAR","BHABA NAGAR TEHSIL NICHAR PIN 172115",253330,"BHABA NAGAR",KINNAUR,"HIMACHAL PRADESH"
"HIMACHAL PRADESH STATE COOPERATIVE BANK LTD",HPSC0000202,WAITING,SUNDLA,"VPO SUNDLA TEHSIL SALOONI",242007,CHAMBA,CHAMBA,"HIMACHAL PRADESH"
"HIMACHAL PRADESH STATE COOPERATIVE BANK LTD",HPSC0000201,WAITING,DHARWALA,"VPO DHARWALA TEHSIL CHAMBA",0,CHAMBA,CHAMBA,"HIMACHAL PRADESH"
"HIMACHAL PRADESH STATE COOPERATIVE BANK LTD",HPSC0000200,WAITING,KARIAN,"VILL KARIAN PO BHARIAN KOTHI TEHSIL CHAMBA",0,CHAMBA,CHAMBA,"HIMACHAL PRADESH"
"HIMACHAL PRADESH STATE COOPERATIVE BANK LTD",HPSC0000199,WAITING,SAHO,"VPO SAHO TEHSIL CHAMBA",0,CHAMBA,CHAMBA,"HIMACHAL PRADESH"
"HIMACHAL PRADESH STATE COOPERATIVE BANK LTD",HPSC0000198,WAITING,RAJNAGAR,"RAJNAGAR DISTT CHAMBA",9418759447,RAJNAGAR,CHAMBA,"HIMACHAL PRADESH"
"HIMACHAL PRADESH STATE COOPERATIVE BANK LTD",HPSC0000197,WAITING,SAROL,"VPO SAROL TEHSIL CHAMBA",226235,CHAMBA,CHAMBA,"HIMACHAL PRADESH"
"HIMACHAL PRADESH STATE COOPERATIVE BANK LTD",HPSC0000195,NA,BATHARI,"BATHARI DISTT CHAMBA",9418397348,BATHARI,CHAMBA,"HIMACHAL PRADESH"
"HIMACHAL PRADESH STATE COOPERATIVE BANK LTD",HPSC0000193,176311003,TUNDI,"TUNDI TEHSIL SIHUNTA PIN 176207",200524,SIHUNTA,CHAMBA,"HIMACHAL PRADESH"
"HIMACHAL PRADESH STATE COOPERATIVE BANK LTD",HPSC0000192,176311016,TISSA,"TISSA TEHSIL CHURAH PIN 176316",227041,TISSA,CHAMBA,"HIMACHAL PRADESH"
"HIMACHAL PRADESH STATE COOPERATIVE BANK LTD",HPSC0000191,176311009,SURGANI,"SURANGANI TEHSIL SALOONI PIN 176317",232007,SURGANI,CHAMBA,"HIMACHAL PRADESH"
"HIMACHAL PRADESH STATE COOPERATIVE BANK LTD",HPSC0000190,176311006,SIHUNTA,"SIHUNTHA PIN",265424,SIHUNTA,CHAMBA,"HIMACHAL PRADESH"
"HIMACHAL PRADESH STATE COOPERATIVE BANK LTD",HPSC0000189,176311011,SALOONI,"SALOONI PIN 176320",233237,SALOONI,CHAMBA,"HIMACHAL PRADESH"
"HIMACHAL PRADESH STATE COOPERATIVE BANK LTD",HPSC0000188,176311014,"NAINI KHAD","NAINI KHAD PIN",257645,"NAINI KHAD",CHAMBA,"HIMACHAL PRADESH"
"HIMACHAL PRADESH STATE COOPERATIVE BANK LTD",HPSC0000187,176311013,KAKIRA,"KAKIRA TEHSIL BHATTIYAT PIN 176313",257245,KAKIRA,CHAMBA,"HIMACHAL PRADESH"
"HIMACHAL PRADESH STATE COOPERATIVE BANK LTD",HPSC0000186,176311004,HOLI,"HOLI PIN 176309",232315,HOLI,CHAMBA,"HIMACHAL PRADESH"
"HIMACHAL PRADESH STATE COOPERATIVE BANK LTD",HPSC0000185,176311052,HATLI,"HATLI PO DARMAN TEHSIL SIHUNTHA PIN 176223",238076,SIHUNTA,CHAMBA,"HIMACHAL PRADESH"
"HIMACHAL PRADESH STATE COOPERATIVE BANK LTD",HPSC0000184,176377012,GAROLA,"GAROLA TEHSIL BHARMAUR PIN 176309",224007,GAROLA,CHAMBA,"HIMACHAL PRADESH"
"HIMACHAL PRADESH STATE COOPERATIVE BANK LTD",HPSC0000183,176311010,DHULARA,"DHULARA PIN 176027",200495,DHULARA,CHAMBA,"HIMACHAL PRADESH"
"HIMACHAL PRADESH STATE COOPERATIVE BANK LTD",HPSC0000182,176311005,DALHOUSIE,"DALHOUSIE PIN 176304",240241,DALHOUSIE,CHAMBA,"HIMACHAL PRADESH"
"HIMACHAL PRADESH STATE COOPERATIVE BANK LTD",HPSC0000180,176311007,CHOWARI,"CHOWARI TEHSIL BHATTIYAT PIN 176302",266332,CHOWARI,CHAMBA,"HIMACHAL PRADESH"
"HIMACHAL PRADESH STATE COOPERATIVE BANK LTD",HPSC0000179,176311002,CHAMBA,"CHAMBA PIN 176310",222249,CHAMBA,CHAMBA,"HIMACHAL PRADESH"
"HIMACHAL PRADESH STATE COOPERATIVE BANK LTD",HPSC0000178,176311017,BHARMOUR,"BHARMAUR CHAMBA PIN-176015",225054,BHARMOUR,CHAMBA,"HIMACHAL PRADESH"
"HIMACHAL PRADESH STATE COOPERATIVE BANK LTD",HPSC0000177,176311015,BHANJRARU,"BHANJRARU TEHSIL CHAMBA PIN 176316",227071,BHANJRARU,CHAMBA,"HIMACHAL PRADESH"
"HIMACHAL PRADESH STATE COOPERATIVE BANK LTD",HPSC0000176,176311008,BANIKHET,"BANIKHET PIN 176303",254051,BANIKHET,CHAMBA,"HIMACHAL PRADESH"
"HIMACHAL PRADESH STATE COOPERATIVE BANK LTD",HPSC0000134,WAITING,"KAULAN WALA TOBA","VPO KAULAN WALA TOBA TEHSIL SHRI NAINA DEVI JI",0,BILASPUR,BILASPUR,"HIMACHAL PRADESH"
"HIMACHAL PRADESH STATE COOPERATIVE BANK LTD",HPSC0000133,WAITING,HARLOG,"VPO HARLOG TEHSIL GHUMARWIN",0,BILASPUR,BILASPUR,"HIMACHAL PRADESH"
"HIMACHAL PRADESH STATE COOPERATIVE BANK LTD",HPSC0000132,WAITING,CHANDPUR,"VPO CHANDPUR TEHSIL SADAR",0,BILASPUR,BILASPUR,"HIMACHAL PRADESH"
"HIMACHAL PRADESH STATE COOPERATIVE BANK LTD",HPSC0000130,WAITING,GOLTHAI,"GOLTHAI TEHSIL SRI NAINA DEVI JI",239522,"SRI NAINA DEVI JI",BILASPUR,"HIMACHAL PRADESH"
"HIMACHAL PRADESH STATE COOPERATIVE BANK LTD",HPSC0000129,WAITING,HATWAR,"HATWAR TEHSIL GHUMARWIN",252243,HATWAR,BILASPUR,"HIMACHAL PRADESH"
"HIMACHAL PRADESH STATE COOPERATIVE BANK LTD",HPSC0000128,174311067,MALOKHAR,"MALOKHAR PO CHHAKHOH TEHSIL NAMHOL PIN 174001",249183,NAMHOL,BILASPUR,"HIMACHAL PRADESH"
"HIMACHAL PRADESH STATE COOPERATIVE BANK LTD",HPSC0000127,174311061,BUM,"BUM, PO- PANTEHRA, TEHSIL GHUMARWIN PIN-174028",250067,BUM,BILASPUR,"HIMACHAL PRADESH"
"HIMACHAL PRADESH STATE COOPERATIVE BANK LTD",HPSC0000126,174311070,JEJHWIN,"JEJWIN TEHSIL JHANDUTTA PIN 174017",268041,JEJWIN,BILASPUR,"HIMACHAL PRADESH"
"HIMACHAL PRADESH STATE COOPERATIVE BANK LTD",HPSC0000125,174311064,JUKHALA,"JUKHALA PIN-174033",286253,JUKHALA,BILASPUR,"HIMACHAL PRADESH"
"HIMACHAL PRADESH STATE COOPERATIVE BANK LTD",HPSC0000124,174311057,TRIFALGHAT,"TRIFAL GHAT, PO-HAWAN PIN-174003",256195,TRIFALGHAT,BILASPUR,"HIMACHAL PRADESH"
"HIMACHAL PRADESH STATE COOPERATIVE BANK LTD",HPSC0000123,174311055,"GUGA MOHRA","GUGA MOHRA, PO- KAPAHORA TEHSIL GHUMARWIN PIN-174029",260474,"GUGA MOHRA",BILASPUR,"HIMACHAL PRADESH"
"HIMACHAL PRADESH STATE COOPERATIVE BANK LTD",HPSC0000120,174311072,HARNORA,"HARNORA TEHSIL SADAR PIN",283141,HARNORA,BILASPUR,"HIMACHAL PRADESH"
"HIMACHAL PRADESH STATE COOPERATIVE BANK LTD",HPSC0000119,174311059,KANDRAUR,"KANDRAUR, TEHSIL SADAR PIN-174004",242080,KANDRAUR,BILASPUR,"HIMACHAL PRADESH"
"HIMACHAL PRADESH STATE COOPERATIVE BANK LTD",HPSC0000118,174311056,SWARGHAT,"SWARGHAT TEHSIL SRI NAINA DEVI JI PIN-174011",284148,SWARGHAT,BILASPUR,"HIMACHAL PRADESH"
"HIMACHAL PRADESH STATE COOPERATIVE BANK LTD",HPSC0000117,174311077,"SHAH TALAI","SHAHTALAI TEHSIL JHANDUTA DISTT BILASPUR",264077,JHANDUTA,BILASPUR,"HIMACHAL PRADESH"
"HIMACHAL PRADESH STATE COOPERATIVE BANK LTD",HPSC0000116,174311066,NAMHOL,"NAMHOL, PIN-",240056,NAMHOL,BILASPUR,"HIMACHAL PRADESH"
"HIMACHAL PRADESH STATE COOPERATIVE BANK LTD",HPSC0000115,174311075,"NAINA DEVI","SRI NAINA DEVI JI PIN-174310",288097,"NAINA DEVI",BILASPUR,"HIMACHAL PRADESH"
"HIMACHAL PRADESH STATE COOPERATIVE BANK LTD",HPSC0000114,174311062,LAKHANPUR,"LAKHANPUR PIN-174001",222697,BILASPUR,BILASPUR,"HIMACHAL PRADESH"
"HIMACHAL PRADESH STATE COOPERATIVE BANK LTD",HPSC0000113,174311065,KUTHERA,"KUTHERA TEHSIL GHUMARWIN",275080,KUTHERA,BILASPUR,"HIMACHAL PRADESH"
"HIMACHAL PRADESH STATE COOPERATIVE BANK LTD",HPSC0000112,174311060,KALLARI,"KALLARI, PO- NASWAL, TEHSIL GHUMARWIN PIN-174021",254043,KALLARI,BILASPUR,"HIMACHAL PRADESH"
"HIMACHAL PRADESH STATE COOPERATIVE BANK LTD",HPSC0000111,174311074,JHANDUTTA,"JHANDUTTA PIN 174031",272043,JHANDUTA,BILASPUR,"HIMACHAL PRADESH"
"HIMACHAL PRADESH STATE COOPERATIVE BANK LTD",HPSC0000110,174311069,GHUMARWIN,"GHUMARWIN PIN 174021",255243,GHUMARWIN,BILASPUR,"HIMACHAL PRADESH"
"HIMACHAL PRADESH STATE COOPERATIVE BANK LTD",HPSC0000109,174311073,GEHRWIN,"GEHRWIN PIN 174034",270203,GEHRWIN,BILASPUR,"HIMACHAL PRADESH"
"HIMACHAL PRADESH STATE COOPERATIVE BANK LTD",HPSC0000108,174311054,DANGAR,"DANGAR TEHSIL GHUMARWIN PIN-174023",278181,DANGAR,BILASPUR,"HIMACHAL PRADESH"
"HIMACHAL PRADESH STATE COOPERATIVE BANK LTD",HPSC0000107,174311063,DADHOL,"DADHOL TEHSIL GHUMARWIN PIN 174023",278031,DADHOL,BILASPUR,"HIMACHAL PRADESH"
"HIMACHAL PRADESH STATE COOPERATIVE BANK LTD",HPSC0000106,174311052,BILASPUR,"BILASPUR MAIN MARKET PIN-174001",222542,BILASPUR,BILASPUR,"HIMACHAL PRADESH"
"HIMACHAL PRADESH STATE COOPERATIVE BANK LTD",HPSC0000105,174311058,BHARARI,"BHARARI, PO- LEHRI SAREL TEHSIL GHUMARWIN PIN-174027",273039,BHARARI,BILASPUR,"HIMACHAL PRADESH"
"HIMACHAL PRADESH STATE COOPERATIVE BANK LTD",HPSC0000104,174311068,BERTHIN,"BERTHIN TEHSIL JHANDUTTA PIN 174029",266041,BERTHIN,BILASPUR,"HIMACHAL PRADESH"
"HIMACHAL PRADESH STATE COOPERATIVE BANK LTD",HPSC0000103,174311071,BERI,"BERI PIN 174001",244522,BERI,BILASPUR,"HIMACHAL PRADESH"
"HIMACHAL PRADESH STATE COOPERATIVE BANK LTD",HPSC0000102,174311076,BASSI,"BASSI KEHLOOR TEHSIL SRI NAINA DEVI JI PIN 174002",214552,BASSI,BILASPUR,"HIMACHAL PRADESH"
"HIMACHAL PRADESH STATE COOPERATIVE BANK LTD",HPSC0000101,174311053,BARMANA,"BARMANA TEHSIL SADAR PIN 174013",245036,BARMANA,BILASPUR,"HIMACHAL PRADESH"
"HIMACHAL PRADESH STATE COOPERATIVE BANK LTD",HPSC0000051,110013251,"NEW SUBZI MANDI DELHI","NEW SUBZI MANDI AZADPUR DELHI",27681808,DELHI,DELHI,"HIMACHAL PRADESH"
