BANK,IFSC,MICR,BRANCH,ADDRESS,CONTACT,CITY,DISTRICT,STATE
"STATE BANK OF PATIALA",STBP0RRMLGB,148007002,"NEFT MALWA GRAMIN BANK","NEAR BARRA CHOWK, SANGRUR, PUNJAB-148001",241631,SANGRUR,SANGRUR,PUNJAB
"STATE BANK OF PATIALA",STBP0001555,400007035,"AMBERNATH WEST","SHOP NO 4-10 GROUND FLOOR JOY HUB BUILDING-OPP AMBERNATH NAGAR PRISHAD AMBERNATH WEST THANE 421502",2681661,THANE,THANE,MAHARASHTRA
"STATE BANK OF PATIALA",STBP0001554,160007090,"MONEY SHOPPE","STATE BANK OF PATIALA, OLD DISTRICT COURT ARBITRATION CENTRE, SECTOR 17C",9888977018,CHANDIGARH,CHANDIGARH,CHANDIGARH
"STATE BANK OF PATIALA",STBP0001552,171007019,"MONEY SHOPPE","SHOP NO 21 BLOCK NO 4 SDA COMPLEX KASUMPATI",9459262604,SIMLA,SIMLA,"HIMACHAL PRADESH"
"STATE BANK OF PATIALA",STBP0001551,143007505,BEAS,"STATE BANK OF PATIALA, VPO - BEAS, G.T. ROAD, NEAR ARMY BRIGADE, 143001",8729095400,AMRITSAR,AMRITSAR,PUNJAB
"STATE BANK OF PATIALA",STBP0001550,160007088,"MATTAWALA BILLA","STATE BANK OF PATIALA MOUNT LITERA SCHOOL VILL MATTAWALA BILLA PO KOT DISTT PANCHKULA PIN CODE 13411",9977726,CHANDIGARH,PANCHKULA,HARYANA
"STATE BANK OF PATIALA",STBP0001548,144007258,"KAPURTHALA SULTANPUR ROAD","STATE BANK OF PATIALA, SULTANPUR ROAD, OPP BOMBAY MOTOR, NEAR ESI HOSPITAL, KAPURTHALA, PUNJAB 144601",9779584817,KAPURTHALA,KAPURTHALA,PUNJAB
"STATE BANK OF PATIALA",STBP0001547,144007604,"SUNNER KALAN","VPO SUNNER KALAN, TEHSIL PHILLAUR, DISTRICT JALANDHAR, PUNJAB",9779586367,JALANDHAR,PHILLAUR,PUNJAB
"STATE BANK OF PATIALA",STBP0001546,145001546,MIRTHAL,"NEAR BUSSTAND, G T ROAD, VPO MIRTHAL, DIST PATHANKOT, PIN 145101",9417362980,PATHANKOT,MIRTHAL,PUNJAB
"STATE BANK OF PATIALA",STBP0001545,144001545,"HARSE MANSAR","SANYAL ROAD, VPO HARSE MANSAR, DISTRICT HOSHIARPUR, PIN 144306",9463430003,HOSHIARPUR,"HARSA MANSAR",PUNJAB
"STATE BANK OF PATIALA",STBP0001544,WAITING,"SALEMGARH MASANI","STATE BANK OF PATIALA, VILLAGE SALEMGARH MASANI (13GGR), TEHSIL TIBBI, DISTRICT HANUMANGARH, RAJASTHAN",234004,HANUMANGARH,TIBBI,RAJASTHAN
"STATE BANK OF PATIALA",STBP0001543,530007002,"AVN COLLEGE BRANCH","AVN COLLEGE CAMPUS, VELAMPETA, PURNA MARKET , VISAKHAPATANAM- 530001",2572769,VISHAKHAPATNAM,VISAKHAPATNAM,"ANDHRA PRADESH"
"STATE BANK OF PATIALA",STBP0001540,175007009,"BANOGI BASHING","STATE BANK OF PATIALA, VILLAGE BANOGI BASHING, POST OFFICE BABELI, TEHSIL AND DISTRICT KULU, HIMACHAL PRADESH",9418433227,KULU,KULU,"HIMACHAL PRADESH"
"STATE BANK OF PATIALA",STBP0001539,125007006,"SIRSA BHADRA BAZAR","STATE BANK OF PATIALA, STREET KHJANCHIYON WALI, BHADRA BAZAR, DISTRICT SIRSA, HARYANA",222441,SIRSA,SIRSA,HARYANA
"STATE BANK OF PATIALA",STBP0001538,125007007,FAGGU,"STATE BANK OF PATIALA, NEAR VETERINARY HOSPITAL, VILLAGE FAGGU, DISTRICT SIRSA, HARYANA",8950292958,SIRSA,SIRSA,HARYANA
"STATE BANK OF PATIALA",STBP0001536,440007004,"NAGPUR CONGRESS NAGAR","PLOT NO 41, HOUSE NO 247, WANKHEDE HOUSE, NEAR DHANWANTENATIONAL COLLEGE, CONGRESS NAGAR T POINT, NAGPUR 440012, MAHARASHTRA",2440400,NAGPUR,NAGPUR,MAHARASHTRA
"STATE BANK OF PATIALA",STBP0001535,174007107,DHUNDLA,"STATE BANK OF PATIALA, VPO DHUNDLA, TEHSIL BANGANA, DIST UNA, HIMACHAL PRADESH, PIN 174308",9418164455,UNA,BANGANA,"HIMACHAL PRADESH"
"STATE BANK OF PATIALA",STBP0001534,151007032,"BATHINDA AJITH ROAD","AJITH ROAD, OPP STREET NO 30, NEAR GURUDWARA BIBI MAHATMA JI, BATHINDA - 151001",9779586390,BATHINDA,BATHINDA,PUNJAB
"STATE BANK OF PATIALA",STBP0001533,WAITING,KHIPANWALI,"STATE BANK OF PATIALA,MAIN BAZAR, VILLAGE KHIPANWALI, DISTRICT FAZILKA",235452,FAZILKA,KHIPANWALI,PUNJAB
"STATE BANK OF PATIALA",STBP0001532,110007098,"KAILASH COLONY MARKET","STATE BANK OF PATIALA, SHOP NO 2, HS 21, KAILASH COLONY MARKET, NEW DELHI 110048",29233268,DELHI,DELHI,DELHI
"STATE BANK OF PATIALA",STBP0001529,WAITING,"MID CORPORATE BRANCH","SCO 109-110, FIRST FLOOR, HEERA TOWERS, URBAN ESTATE, PHASE II, PATIALA",9891514272,PATIALA,PATIALA,PUNJAB
"STATE BANK OF PATIALA",STBP0001528,301007003,CHAUBARA,"STATE BANK OF PATIALA CHAUBARA TEH NEEMRANA DIST ALWAR RAJASTHAN 301706",8401200,ALWAR,SHAHJHANPUR,RAJASTHAN
"STATE BANK OF PATIALA",STBP0001527,142007009,KUSSA,"VPO KUSSA TEHSIL NIHAL SINGH WALA DIST MOGA 142039",9585914,MOGA,MOGA,PUNJAB
"STATE BANK OF PATIALA",STBP0001525,WAITING,HARIGARH,"VPO HARIGARH THE DHANAULA DISTT BARNALA",6694483,BARNALA,BARNALA,PUNJAB
"STATE BANK OF PATIALA",STBP0001524,143007504,MEHTA,"VILLAGE MEHTA AMRITSAR ROAD TEHSIL BABA BAKALA DIST AMRITSAR 143114",9779586449,AMRITSAR,AMRITSAR,PUNJAB
"STATE BANK OF PATIALA",STBP0001523,WAITING,HNI,"PRAGATI BHAWAN URBAN ESTATE PH III",3918219,PATIALA,PATIALA,PUNJAB
"STATE BANK OF PATIALA",STBP0001522,WAITING,"MONEY SHOPPE","BOOTH NO 117-118 SECTOR 7 C CHANDIGARH",9779586372,CHANDIGARH,CHANDIGARH,CHANDIGARH
"STATE BANK OF PATIALA",STBP0001521,110007097,"SARB NEW DELHI","32-33 BASEMENT, KUSHAL BAZAR, NEHRU PLACE, NEW DELHI 110019",9779584855,DELHI,"NEW DELHI",DELHI
"STATE BANK OF PATIALA",STBP0001516,WAITING,"SARB JALANDHAR","RAINAK BAZAR BRANDRATH ROAD JALANDHAR PIN CODE 144001",2212384,JALANDHAR,JALANDHAR,PUNJAB
"STATE BANK OF PATIALA",STBP0001514,WAITING,"STRESSED ASSETS RECOVERY BRANCH","SCO 109 110 URBAN ESTATE PHASE II PATIALA 147002",2284917,PATIALA,PATIALA,PUNJAB
"STATE BANK OF PATIALA",STBP0001513,110007096,"MONEY SHOPPE RAJIV CHOWKX","A AND F BLOCK,INSIDE METRO STATION,RAJIV CHOWK, CONNAUGHT PLACE, DELHI 110001",23415034,DELHI,DELHI,DELHI
"STATE BANK OF PATIALA",STBP0001512,WAITING,"MCB KARNAL","STATE BANK OF PATIALA, FIRST FLOOR,MAYA PREM TOWER,KALANDRI GATE, KARNAL, HARYANA",9650690808,KARNAL,KARNAL,HARYANA
"STATE BANK OF PATIALA",STBP0001511,WAITING,"MID CORPORATE BRANCH NETAJI SUBHASH PLACE PITAMPURA","ANCHOR 102 1ST FLOOR D MALL NETAJI SUBHASH PLACE PITAMPURA DELHI 34",27374969,DELHI,DELHI,DELHI
"STATE BANK OF PATIALA",STBP0001510,140007114,SOUNDHA,"VILL SOUNDHA PO MULLANPUR KALAN DISTRICT FATEHGARH SAHIB 140406",267510,"FATEHGARH SAHIB",SOUNDHA,PUNJAB
"STATE BANK OF PATIALA",STBP0001509,WAITING,"HANSI MSA","HANSI MSA JIND BY PASS ROAD HANSI PIN CODE 125033",253080,HISAR,HANSI,HARYANA
"STATE BANK OF PATIALA",STBP0001508,WAITING,BANASHANKARI,"NO 609 80 FT ATTIMABBE ROAD KARTIGUPPE BANASHANKARI 3RD STAGE BANGALORE 560085 LANDMARK NEXT TO DEVEGOWDA PETROL PUMP",26698619,"BANGALORE URBAN",BANGALORE,KARNATAKA
"STATE BANK OF PATIALA",STBP0001507,WAITING,"GURDASPUR JUDICIAL COMPLEX","JUDICIAL COMPLEX DISTT COURTS GURDASPUR PIN 143521",9302862,GURDASPUR,GURDASPUR,PUNJAB
"STATE BANK OF PATIALA",STBP0001506,682007003,KAKKANAD,"GROUND FLOOR, G V ENT CENTER, SEAPORT AIRPORT ROAD,CHITTETHUKARA, KAKKANAD, ERNAKULAM, KERALA 683037",9746075721,ERNAKULAM,ERNAKULAM,KERALA
"STATE BANK OF PATIALA",STBP0001505,160007074,"MINI SECRETARIAT PANCHKULA","STATE BANK OF PATIALA, MINI SECRETARIAT BRANCH, SECTOR1, PANCHKULA, HARYANA 134109",2584071,PANCHKULA,PANCHKULA,HARYANA
"STATE BANK OF PATIALA",STBP0001503,WAITING,"DERA BABA NANAK","DANA MANDI MAIN ROAD DERA BABA NANAK DISTT GURDASPUR",247003,GURDASPUR,"DERABABA NANAK",PUNJAB
"STATE BANK OF PATIALA",STBP0001502,143007253,"UJAGAR NAGAR BATALA","UJAGAR NAGAR OPP URBAN ESTATE BATALA",229061,BATALA,BATALA,PUNJAB
"STATE BANK OF PATIALA",STBP0001501,WAITING,"BARIELLY JANAKPURI","STATE BANK OF PATIALA 724 JANAKPURI RAJENDER NAGAR RAM JANKI MANDIR ROAD NEAR TO RK NURSING HOME BARIELLY UP 243122",125656,BAREILLY,BAREILLY,"UTTAR PRADESH"
"STATE BANK OF PATIALA",STBP0001500,140007500,KHUDDA,"NEW ENCLAVE COLONY GT ROAD KHUDDA",266003,HOSHIARPUR,KHUDA,PUNJAB
"STATE BANK OF PATIALA",STBP0001498,WAITING,"TRIBUNE CHANDIGARH","TRIBUNE COMPLEX SECTOR 29 CHANDIGARH 160030",2637204,CHANDIGARH,CHANDIGARH,CHANDIGARH
"STATE BANK OF PATIALA",STBP0001497,WAITING,"MONEY SHOPPE","5C GIAN NAGAR COOL ROAD NEAR LIBERTY CHOWK JALANDHAR",2270006,JALANDHAR,JALANDHAR,PUNJAB
"STATE BANK OF PATIALA",STBP0001496,110007093,"NANGLOI JAT","P K 61 KH NO 13/22 23/1 ADHYAPAK NAGAR MAIN NAJAFGARH ROAD NANGLOI DELHI 110041",25943730,DELHI,DELHI,DELHI
"STATE BANK OF PATIALA",STBP0001494,302007006,"MALVIYA NAGAR JAIPUR","13A BHAGWAN MAHAVEER VIKLANG SAHAYATA SAMITI GURU NANAK PATH KELGIRI ROAD MALVIYA NAGAR JAIPUR PIN CODE 302017",2525876,JAIPUR,JAIPUR,RAJASTHAN
"STATE BANK OF PATIALA",STBP0001493,WAITING,"KURUKSHETRA NGM","GATE NO 2 NEW GRAIN MARKET KDB ROAD KURUKSHETRA 136119",9779584570,KURUKSHETRA,KURUKSHETRA,HARYANA
"STATE BANK OF PATIALA",STBP0001492,WAITING,SANGRAH,"STATE BANK OF PATIALA NEAR BUS STAND SANGRAH TEHSIL SANGRAH DISTRICT SIRMOUR",6617246,SIRMAUR,NAHAN,"HIMACHAL PRADESH"
"STATE BANK OF PATIALA",STBP0001491,WAITING,"SELAQUE CAPE TOWN","STATE BANK OF PATIALA 303 JAMANPUR NEAR JAI DURGA COMMERCIAL PLAZA MAIN MARKET SELAQUI DEHRADUN 248011",248011,"DEHRA DUN",SELAKUI,UTTARAKHAND
"STATE BANK OF PATIALA",STBP0001489,324007004,"KOTA BHAMASHAH MANDI","STATE BANK OF PATIALA, PLOT NO. S 75, INDRAPRASTHA INDUSTR AREA RIICO, BHAMASHAH MANDI, RAJASTHAN 324005",2490975,KOTA,KOTA,RAJASTHAN
"STATE BANK OF PATIALA",STBP0001488,390007003,PADRA,"STATE BANK OF PATIALA, ARIHANT COMPLEX, NEAR GHANSHYAMNAGAR, PADRA BRANCH, VADODARA, GUJARAT",266222383,VADODARA,PADRA,GUJARAT
"STATE BANK OF PATIALA",STBP0001487,NA,"MONEY SHOP","STATE BANK OF PATIALA, MONEY SHOP, NIZAM PALACE, A.C. BOSE ROAD, KOLKATA, WEST BENGAL, PIN 700020",9163463786,KOLKATA,KOLKATA,"WEST BENGAL"
"STATE BANK OF PATIALA",STBP0001486,344007026,BALOTRA,"RIICO PHASE -III, KHER ROAD BALOTRA, TEH-PACHPADRA, DISTT-BARMER RAJASTHAN 344022",9001215111,BARMER,BARMER,RAJASTHAN
"STATE BANK OF PATIALA",STBP0001484,570007002,DEVANAHALLI,"BNW COMPLEX, NEAR RTO OFFICE BANGALORE, BELLARY RD DEVANAHALLI - 562110",9008779977,"BANGALORE URBAN",BANGALORE,KARNATAKA
"STATE BANK OF PATIALA",STBP0001483,WAITING,"SBP MYSURU","NO 28 DEVRAJ URS ROAD MYSURU KARNATAKA 57001",2420600,MYSURU,MYSORE,KARNATAKA
"STATE BANK OF PATIALA",STBP0001482,NA,"JIGANI INDUSTRIAL AREA  BANGALORE RURAL","ESHWAR COMPLEX, PLOT NO 3A-1 JIGANI INDUSTR AREA, PHASE 2, ANEKAL TALUK, BANGALORE 560106",27825556,"BANGALORE URBAN",JIGANI,KARNATAKA
"STATE BANK OF PATIALA",STBP0001481,WAITING,"NO PHATAK","24 NO PHATAK, NEAR PATIALA CANTT RAILWAY STATION, 24 NO PHATAK PATIALA",9779584528,PATIALA,PATIALA,PUNJAB
"STATE BANK OF PATIALA",STBP0001480,WAITING,"BAGRU JAIPUR","BABA COMPLEX MEENA MARKET DAKWELL PHASE II BAGRU JAIPUR 303007",2864111,JAIPUR,BAGRU,RAJASTHAN
"STATE BANK OF PATIALA",STBP0001479,WAITING,"VKI JAIPUR","A 188 A ROAD NO 6D VKI AREA JAIPUR RAJASTHAN 302013",2333602,JHOTWARA,JAIPUR,RAJASTHAN
"STATE BANK OF PATIALA",STBP0001478,WAITING,"BARWALI KHURD","VILL POST BARWALI KHURD TEHSIL KHAMANON",2044244,"FATEHGARH SAHIB",KHAMANON,PUNJAB
"STATE BANK OF PATIALA",STBP0001477,WAITING,THUHA,"VILLAGE THUHA, POST OFFICE- THUHA, 140417",9779586359,PATIALA,RAJPURA,PUNJAB
"STATE BANK OF PATIALA",STBP0001476,WAITING,"KALIAN CHAK","HINDUMALKOT ROAD VILLAGE KALIAN TEHSIL HINDUMALKOT",2456007,GANGANAGAR,KAILAN,RAJASTHAN
"STATE BANK OF PATIALA",STBP0001475,WAITING,"KAITHAL ROAD CHEEKA","KAITHAL ROAD CHEEKA DISTT KAITHAL HARYANA",221483,PANIPAT,CHEEKA,HARYANA
"STATE BANK OF PATIALA",STBP0001474,WAITING,PADAMPUR,"NEW DHAN MANDI ROAD PADAMPUR TEHSIL PADAMPUR DISTT SRI GANGANAGAR 335041",232007,"SRI GANGANAGAR",PADAMPUR,RAJASTHAN
"STATE BANK OF PATIALA",STBP0001473,WAITING,"RAISINGH NAGAR","STATE BANK OF PATIALA PNB ROAD OLD DHAN MANDI RAISINGH NAGAR",220130,GANGANAGAR,RAISINGHNAGAR,RAJASTHAN
"STATE BANK OF PATIALA",STBP0001472,WAITING,"HISAR CANTT","HISAR CANTT OPP TCP GATE2 HISAR CANTT",221282,HISAR,HISAR,HARYANA
"STATE BANK OF PATIALA",STBP0001471,160007086,PEERMUCHALLA,"SCO 9 PEERMUCHALLA ZIRAKPUR",6071128,MOHALI,ZIRAKPUR,PUNJAB
"STATE BANK OF PATIALA",STBP0001470,WAITING,"SBOP BHOR SAIDAN","VPO BHOR SAIDAN TEHSIL PEHOWA DIST KURUKSHETRA 136119",9874910,KURUKSHETRA,"BHOR SAIDAN",HARYANA
"STATE BANK OF PATIALA",STBP0001469,WAITING,"SBOP BABAIN","OPP SAINI SENIOR SECONDARY SCHOOL BARARA ROAD BABAIN KURUKSHETRA 136156",9875458,KURUKSHETRA,BABAIN,HARYANA
"STATE BANK OF PATIALA",STBP0001468,WAITING,KHED,"SHOP NO.3&4, ADARSH SANKUL, BESIDES HOTEL PRANJALI, NH-4, SATARA, MAHARASHTRA",244468,SATARA,SATARA,MAHARASHTRA
"STATE BANK OF PATIALA",STBP0001467,WAITING,BHOPAL,"SHOP NO 4 5 6 NEW KHEDA PATI HANUMAN MANDIR BHEL JUBLEE GATE TO AYODHYA BY PASS ROAD BHOPAL",4119080,BHOPAL,BHOPAL,"MADHYA PRADESH"
"STATE BANK OF PATIALA",STBP0001466,WAITING,"HISSAR MILL GATE","OPP DCM GATE NEAR JINDAL PARK MILL GATE HISSAR",258600,HISAR,HISAR,HARYANA
"STATE BANK OF PATIALA",STBP0001465,WAITING,"DING MOR PATLI DABAR","DING MOR PATLI DABAR SIRSA PIN 125054",273006,SIRSA,SIRSA,HARYANA
"STATE BANK OF PATIALA",STBP0001464,132007155,"SAMALKHA MSA","BEHOLI ROAD MINI SECRETARIATE SAMALKHA",2572886,PANIPAT,SAMALKHA,HARYANA
"STATE BANK OF PATIALA",STBP0001463,WAITING,"GOHANA MINI SECTT., SONEPAT","GOHANA MINI SECTT NEW BUILDING GOHANA",6229864,SONEPAT,SONPEAT,HARYANA
"STATE BANK OF PATIALA",STBP0001462,147007462,"BHURTHALA MANDER","VPO BHURTHALA MANDER TEH MALERKOTLA SANGRUR PUNJAB",281008,SANGRUR,MALERKOTLA,PUNJAB
"STATE BANK OF PATIALA",STBP0001461,NA,"RAIPUR KALAN","STATE BANK OF PATIALA, RAIPURE KALAN, CHANDIGARH",9815755825,CHANDIGARH,CHANDIGARH,CHANDIGARH
"STATE BANK OF PATIALA",STBP0001460,176007460,"SUNHET BHAGHEEN","VPO SUNHET BLOCK TEHSIL DEHRA",5017077,KANGRA,KANGRA,"HIMACHAL PRADESH"
"STATE BANK OF PATIALA",STBP0001459,176007459,"DURANA TIKA BHATED","VILLAGE DURANA NEAR VETANARY HOSPITAL PO DOLE BLOCK TEHSIL JAWALI",296562,KANGRA,KANGRA,"HIMACHAL PRADESH"
"STATE BANK OF PATIALA",STBP0001458,WAITING,"LUDHIANA CIVIL LINE","KIRPAL TOWER B19 645 DANDI SWAMI ROAD OPPO OLD DMC HOSPITAL CIVIL LINE",2433566,LUDHIANA,LUDHIANA,PUNJAB
"STATE BANK OF PATIALA",STBP0001457,WAITING,"LUDHIANA PAKHOWAL ROAD","1339 7 PASSI CHOWK OPPO HOUSEFED FLATS PAKHOWAL ROAD",2564566,LUDHIANA,LUDHIANA,PUNJAB
"STATE BANK OF PATIALA",STBP0001456,WAITING,"LUDHIANA HAIBOWAL","ADJOINING TOOR HOSPITAL NEAR RELIANCE FRESH MAIN ROAD HAIBOWAL LUDHIANA 141001",25006830,LUDHIANA,LUDHIANA,PUNJAB
"STATE BANK OF PATIALA",STBP0001455,WAITING,"LUDHIANA DURGI","B 37/84 DURGI ROAD JAGDISH NAGAR LUDHIANA 141002",25006830,LUDHIANA,LUDHIANA,PUNJAB
"STATE BANK OF PATIALA",STBP0001454,110007094,"DWARKA EXPRESSWAY BRANCH","DWARKA EXPRESSWAY BRANCH PATAUDI ROAD HARSARU",1383612,GURGAON,GURGAON,HARYANA
"STATE BANK OF PATIALA",STBP0001453,WAITING,"PLA HISAR","DSS 1 2 POLICE LINE AREA HISAR",270255,HISAR,HISAR,HARYANA
"STATE BANK OF PATIALA",STBP0001451,342007004,"JODHPUR RIICO","MS SANKHLA UDYOG A48 MARUDHARA INDUSTRIAL AREA BASNI PHASE II 342005",2745657,JODHPUR,JODHPUR,RAJASTHAN
"STATE BANK OF PATIALA",STBP0001450,WAITING,"NEW GRAIN MARKET JIND","SHOP NO 54 NEW GRAIN MARKET JIND",258333,JIND,JIND,HARYANA
"STATE BANK OF PATIALA",STBP0001449,WAITING,"JAMMU TALAB TILLO","NEAR GOLE PULLI MAIN ROAD TALAB TILLO",2096555,JAMMU,JAMMU,"JAMMU AND KASHMIR"
"STATE BANK OF PATIALA",STBP0001448,110007092,"FARIDABAD SEC 58","LAL DASS PLAZA RAJEEV COLONY SAMAYPUR ROAD SECTOR 58 FARIDABAD HARYANA PIN 121004",256580,FARIDABAD,FARIDABAD,HARYANA
"STATE BANK OF PATIALA",STBP0001447,WAITING,BAJAURA,"VPO BAJAURA TEH BHUNTAR DISTT KULLU PIN 175125",287701,KULLU,KULLU,"HIMACHAL PRADESH"
"STATE BANK OF PATIALA",STBP0001446,WAITING,"BIR ROAD","BIR ROAD PO AHJU TEH JOGINDER NAGAR DISTT MANDI PIN 175032",251104,MANDI,MANDI,"HIMACHAL PRADESH"
"STATE BANK OF PATIALA",STBP0001445,WAITING,KANSAPUR,"PLOT NO 14 RAM NAGAR NEAR ELECTRICITY BOARD KANSAPUR",254192,YAMUNANAGAR,YAMUNANAGAR,HARYANA
"STATE BANK OF PATIALA",STBP0001444,WAITING,RASULPUR,"MAIN ROAD KALA AMB VPO ┬áRASULPUR┬áDISTT YAMUANANAGAR HARYANA 133204",9875537,YAMUNANAGAR,YAMUNANAGAR,HARYANA
"STATE BANK OF PATIALA",STBP0001443,WAITING,KHARWAN,"VILLAGE KHARWAN HARYANA 135003",9729875496,YAMUNANAGAR,YAMUNANAGAR,HARYANA
"STATE BANK OF PATIALA",STBP0001442,160007082,MARRANWALA,"NEAR BUS STAND PO NANAK PUR TEHSIL KALKA",267031,PANCHKULA,PANCHKULA,HARYANA
"STATE BANK OF PATIALA",STBP0001441,WAITING,MAQSUDAN,"SBP MAQSUDAN CHAUK JALANDHAR PUNJAB PIN NO 144008",2671894,JALANDHAR,JALANDHAR,PUNJAB
"STATE BANK OF PATIALA",STBP0001440,WAITING,"BASTI NAU","PLOT NO 13 OPP PNB MAIN ROAD BASTI NAU JALANDHAR 144002",2471040,JALANDHAR,JALANDHAR,PUNJAB
"STATE BANK OF PATIALA",STBP0001439,WAITING,TAKHTUPURA,"VPO TAKHTUPURA NIHALSINGHWALA 142055",255037,MOGA,"NIHALSINGH WALA",PUNJAB
"STATE BANK OF PATIALA",STBP0001438,148007438,KOTDUNA,"VILLAGE PO KOTDUNA VPO KOTDUNA TEHSIL BARNALA",266035,SANGRUR,BARNALA,PUNJAB
"STATE BANK OF PATIALA",STBP0001437,WAITING,KARAMGARH,"VILL KARAMGARH PO BARNALA 148101",282033,SANGRUR,BARNALA,PUNJAB
"STATE BANK OF PATIALA",STBP0001436,WAITING,"HASSAN PUR CHUNGI SAHARANPUR","HASSAN PUR CHUNGI SAHARANPUR",2760025,SAHARANPUR,SAHARANPUR,"UTTAR PRADESH"
"STATE BANK OF PATIALA",STBP0001435,WAITING,"BATHINDA ROAD","STATE BANK OF PATIALA BATHINDA ROAD MUKATSAR 152026",244566,MUKTSAR,MUKTSAR,PUNJAB
"STATE BANK OF PATIALA",STBP0001434,WAITING,PATHRALA,"NEAR SHEETLA MATA MANDIR VPO PATHRALA",9584120,BATHINDA,BATHINDA,PUNJAB
"STATE BANK OF PATIALA",STBP0001433,WAITING,"LAL SINGH BASTI","H NO 27446 STREET NO 6B MAIN ROAD LAL SINGH BASTI BATHINDA",2281114,BATHINDA,BATHINDA,PUNJAB
"STATE BANK OF PATIALA",STBP0001432,141007206,BARDHALA,"VILL BARDHALA PO MANKI TEH SAMRALA",9586181,LUDHIANA,LUDHIANA,PUNJAB
"STATE BANK OF PATIALA",STBP0001431,141007032,KHERI,"V KHERI PO LALATON KALAN DIST LUDHIANA PB 142022",2806707,LUDHIANA,LUDHIANA,PUNJAB
"STATE BANK OF PATIALA",STBP0001430,141007207,IKOLAHA,"STATE BANK OF PATIALA, IKOLAHA BRANCH,MALERKOTLA ROAD,NEAR BUS STAND, VPO IKOLAHA, TEH KHANNA, DIST LUDHIANA, PUNJAB",234044,LUDHIANA,LUDHIANA,PUNJAB
"STATE BANK OF PATIALA",STBP0001429,141007033,"RARA SAHIB","AHMEDGARH KHANNA ROAD VPO RARA SAHIB",273075,LUDHIANA,LUDHIANA,PUNJAB
"STATE BANK OF PATIALA",STBP0001428,WAITING,PANJAWA,"PANJAWA TEHSIL MALOUT MUKATSAR 152113",241695,MUKTSAR,MUKTSAR,PUNJAB
"STATE BANK OF PATIALA",STBP0001427,WAITING,"JHOK HARI HAR","MUKTSAR ROAD VPO JHOK HARI HAR FEROZEPUR",258003,FEROZPUR,FIROZPUR,PUNJAB
"STATE BANK OF PATIALA",STBP0001425,302007004,"VAISHALI NAGAR","B29 GANDHI PATH CHITRAKOOT SCHEME VAISHALI NAGAR JAIPUR 302021",2441822,JAIPUR,JAIPUR,RAJASTHAN
"STATE BANK OF PATIALA",STBP0001424,WAITING,"BHAI RUPA","STATE BANK OF PATIALA GUMTI ROAD BHAI RUPA TEHSIL PHUL DISTT BATHINDA 151106",231424,BATHINDA,BATHINDA,PUNJAB
"STATE BANK OF PATIALA",STBP0001423,WAITING,"KOT BHAKTU BRANCH","STATE BANK OF PATIALA KOT BHAKTU BATHINDA 151301",9550790,BATHINDA,BATHINDA,PUNJAB
"STATE BANK OF PATIALA",STBP0001422,WAITING,AKKANWALI,"STATE BANK OF PATIALA AKKANWALI MANSA PUNJAB PIN NO 151505",9586601,MANSA,MANSA,PUNJAB
"STATE BANK OF PATIALA",STBP0001421,WAITING,"SARAGTHAL  SONEPAT","BPR MEDICAL COLLEGE ROAD VILL PO SARAGTHAL THE GOHANA",2427204,SONEPAT,SONPEAT,HARYANA
"STATE BANK OF PATIALA",STBP0001420,WAITING,VIRAR,"SANDEEP HOUSE TIRUPATI NAGAR PHASE I MB ESTATE ROAD VIRAR W",9223601525,THANE,VIRAR,MAHARASHTRA
"STATE BANK OF PATIALA",STBP0001419,NA,"BATHINDA BHATTI ROAD","STATE BANK OF PATIALA BHATTI ROAD",2210350,BATHINDA,BATHINDA,PUNJAB
"STATE BANK OF PATIALA",STBP0001418,WAITING,"SECTOR 44C CHANDIGARH","SCO 263 SECTOR 44C CHANDIGARH PIN 160047",9915966233,CHANDIGARH,CHANDIGARH,CHANDIGARH
"STATE BANK OF PATIALA",STBP0001417,WAITING,BIKANER,"STATE BANK OF PATIALA,GURUDWARA SHRI GURUNANAK DEVJI,JAI NARAYAN VYAS COLONY,BIKANER",2231013,BIKANER,BIKANER,RAJASTHAN
"STATE BANK OF PATIALA",STBP0001416,305007002,AJMER,"SATGURU OVERSEAS, PLOT C165, NEAR GANPATI TOWER, PANCHSHEEL NAGAR,VAISHALI NAGAR, AJMER, PIN 305004",2640116,AJMER,AJMER,RAJASTHAN
"STATE BANK OF PATIALA",STBP0001415,NA,"DESH BHAGAT UNIVERSITY VILL SOUNTI","DESH BHAGAT UNIVERSITY VILL SOUNTI TEHSIL AMLOH DISTT FATEHGARH SAHIB PIN 147203",231027,"FATEHGARH SAHIB",AMLOH,PUNJAB
"STATE BANK OF PATIALA",STBP0001414,WAITING,BASHIRATGANJ,"STATE BANK OF PATIALA VILL BASHIRATGANJ THE UNNAO PIN 209831",5102095,UNNAO,UNNAO,"UTTAR PRADESH"
"STATE BANK OF PATIALA",STBP0001413,WAITING,NEWALGANJ,"NEWAL GANJ VILL NEWALGANJ TEHSIL DISTT UNNAO",8400075075,UNNAO,LUCKNOW,"UTTAR PRADESH"
"STATE BANK OF PATIALA",STBP0001412,301007051,BEHROR,"WARD NO 14 INFRONT OF GOVT SR SEC SCHOOL GROUND BUS STAND ROAD BEHROR DISTT 301701",220131,ALWAR,BEHROR,RAJASTHAN
"STATE BANK OF PATIALA",STBP0001411,WAITING,LAGROI,"BUS STAND ROAD VILLAGE LAGROI PO PATIALA PUNJAB 147001",2649230,PATIALA,PATIALA,PUNJAB
"STATE BANK OF PATIALA",STBP0001410,WAITING,GHANAGUGHAT,"NEAR PANCHAYAT BLDG VPO GHANAGUGHAT TEH SOLAN",8015645,SOLAN,GHANAGUGHAT,"HIMACHAL PRADESH"
"STATE BANK OF PATIALA",STBP0001409,NA,"PATTA BRAWARI","VPO PATTA BRAWARI NEAR GOVT SR SEC SCHOOL TEHSIL SOLAN PIN CODE 173207",5502886,SOLAN,SOLAN,"HIMACHAL PRADESH"
"STATE BANK OF PATIALA",STBP0001408,NA,SAMALSAR,"SBP SAMALSAR NEAR BUS STAND VPO SMALSAR DISTT MOGA PIN 142049",281408,MOGA,MOGA,PUNJAB
"STATE BANK OF PATIALA",STBP0001407,638007002,ERODE,"NO 5 PALANIAPPA STREET NEAR KMCH SPECIALITY HOSPITAL ERODE 638009",2224027,ERODE,ERODE,"TAMIL NADU"
"STATE BANK OF PATIALA",STBP0001406,NA,KALANAUR,"NEAR SHRI RAM HOSPITAL LPU BUILDING GURDASPUR ROAD KALANAUR",7966358,GURDASPUR,KALANAUR,PUNJAB
"STATE BANK OF PATIALA",STBP0001405,143007019,"AMRITSAR RANJIT AVENUE","SCO NO 53 DISTRICT SHOPPING COMPLEX RANJIT AVENUE AMRITSAR 143001",2507772,AMRITSAR,AMRITSAR,PUNJAB
"STATE BANK OF PATIALA",STBP0001404,NA,MALOYA,"STATE BANK OF PATIALA,91,VPO MALOYA, CHANDIGARH, PIN 160025",9779586372,CHANDIGARH,CHANDIGARH,CHANDIGARH
"STATE BANK OF PATIALA",STBP0001403,WAITING,BHUNGA,"DASUYA HOSHIARPUR ROAD OP CIVIL HOSPITAL BHUNGA",253318,HOSHIARPUR,BHUNGA,PUNJAB
"STATE BANK OF PATIALA",STBP0001402,145007402,"SBOP KHOJKI CHACK","VPO KHOJKI CHACK TEHSIL PATHANKOT 145027",2102820,GURDASPUR,PATHANKOT,PUNJAB
"STATE BANK OF PATIALA",STBP0001401,NA,"DHAULA VILL","NEAR COOP SOCIETY MANSA ROAD VPO DHAULA DISTT BARNALA PIN 148107",260077,SANGRUR,BARNALA,PUNJAB
"STATE BANK OF PATIALA",STBP0001400,NA,RAISAR,"OPP SR SEC SCHOOL RAISAR DISTT BARNALA PIN 148101",282033,SANGRUR,BARNALA,PUNJAB
"STATE BANK OF PATIALA",STBP0001399,WAITING,"AYAD NAGAR","STATE BANK OF PATIALA AYAD NAGAR NORTH POST BABUGARG CANTT",1180382,HAPUR,HAPUR,"UTTAR PRADESH"
"STATE BANK OF PATIALA",STBP0001398,177007112,"JAURBAR UJHE","VILL JAURBAR UJHE PO TIPRI TEHSIL JASWAN DISTT KANGRA HP 177112",276004,KANGRA,KANGRA,"HIMACHAL PRADESH"
"STATE BANK OF PATIALA",STBP0001397,144007397,KAHMA,"NAWANSHAHR VPO KAHMA DISTT SBS NAGAR 144512",278400,"SHAHID BHAGAT SINGH NAGAR","SBS NAGAR",PUNJAB
"STATE BANK OF PATIALA",STBP0001396,WAITING,"SIHORA BAJEY","KHABARIYA ROAD VILLAGE SIHORA BAJEY PO MUNDHA PANDEY DIST MORADABAD UP 244926",567890,MORADABAD,MORADABAD,"UTTAR PRADESH"
"STATE BANK OF PATIALA",STBP0001395,313007002,"UDAIPUR CITY","PLOT NO 1 2 ADARSH NAGAR 120 FEET ROAD OPPOSITE SAMUDAIK KENDRA SECTOR 4 HIRAN MAGRI",2465505,UDAIPUR,UDAIPUR,RAJASTHAN
"STATE BANK OF PATIALA",STBP0001394,WAITING,"DAU MAJRA","VILLAGE DAU MAJRA,TEHSIL SHAHABAD MARKANDA,DISTRICT KURUKSHETRA",248247,KURUKSHETRA,"DAU MAJRA",HARYANA
"STATE BANK OF PATIALA",STBP0001393,WAITING,"JHANSA ROAD","NEAR ROTARY CHOWK JHANSA ROAD THANESAR KURUKSHETRA 136118",236393,KURUKSHETRA,KURUKSHETRA,HARYANA
"STATE BANK OF PATIALA",STBP0001392,126007392,"SBOP LODAR","VPO LODHAR TEH NARWANA PIN CODE 126125",286711,JIND,NARWANA,HARYANA
"STATE BANK OF PATIALA",STBP0001391,WAITING,PILLUKHERA,"JAMANI ROAD PILLUKHERA",268060,JIND,PILLIKHERA,HARYANA
"STATE BANK OF PATIALA",STBP0001390,WAITING,PATAUDI,"STATE BANK OF PATIALA, MAIN GURGAON ROAD,  PATAUDI-123503",2672050,GURGAON,PATAUDI,HARYANA
"STATE BANK OF PATIALA",STBP0001389,132007005,"PANIPAT MODEL TOWN","224 L RAM LAL CHOWNK MODEL TOWN PANIPAT HARYANA PIN 132103",2653007,PANIPAT,PANIPAT,HARYANA
"STATE BANK OF PATIALA",STBP0001388,160007081,"MUNDI KHARAR","NEAR BANSAL DEPARTMENTAL STORE CHANDIGARGH MOHALI KHARAR ROAD MUNDI KHARAR PO KHARAR 140301",5001353,"SAHIBZADA AJIT SINGH NAGAR","MUNDI KHARAR",PUNJAB
"STATE BANK OF PATIALA",STBP0001387,WAITING,BHOKRA,"GONIANA BATHINDA ROAD VPO BHOKRA BATHINDA 151201",2262128,BATHINDA,BATHINDA,PUNJAB
"STATE BANK OF PATIALA",STBP0001386,WAITING,RATANGARH,"OPP POLICE CHOUKI NEAR BUS STAND STATION ROAD",222913,CHURU,RATANGARH,RAJASTHAN
"STATE BANK OF PATIALA",STBP0001385,NA,"SHASHTRI NAGAR","DC 3 SHASHTRI NAGAR MEERUT",2600977,MEERUT,MEERUT,"UTTAR PRADESH"
"STATE BANK OF PATIALA",STBP0001384,110007091,"INDIRAPURAM GHAZIABAD","HARSHA MALL SHAKTI KHAND II INDIRAPURAM GHAZIABAD UP 201014",2563070,GHAZIABAD,GHAZIABAD,"UTTAR PRADESH"
"STATE BANK OF PATIALA",STBP0001382,WAITING,"KOT DHARMU","STATE BANK OF PATIALA SIRSA ROAD",2089254,MANSA,MANSA,PUNJAB
"STATE BANK OF PATIALA",STBP0001381,NA,"RGTP KHEDAR","RGTP KHEDAR VILLAGE DISST HISAR PIN 125122",250299,HISAR,HISAR,HARYANA
"STATE BANK OF PATIALA",STBP0001380,NA,AGROGA,"VILLAGE PO AGROHA DISTT HISAR PIN 125047",9729875462,HISAR,AGROHA,HARYANA
"STATE BANK OF PATIALA",STBP0001379,WAITING,MUSSIMBLE,"NEAR HARYANA GRAMIN BANK VPO MUSSIMBLE DIST YAMUNAGAR HARYANA 135003",266053,YAMUNANAGAR,MUSIMBALHINDWAN,HARYANA
"STATE BANK OF PATIALA",STBP0001378,NA,RADAUR,"NEAR BUBKA CHOWK PO RADAUR TEHSIL RADAUR MUSTFABAD ROAD RADAUR",283044,YAMUNANAGAR,RADAUR,HARYANA
"STATE BANK OF PATIALA",STBP0001377,NA,"SHINGLA DAKOLAR","MEERA NIWAS,DAKOLAR,NEW RAMPUR,PO SHINGLA,TEHSIL RAMPUR,DISTT SHIMLA H.P.PIN CODE 172001",9816126791,SHIMLA,SHIMLA,"HIMACHAL PRADESH"
"STATE BANK OF PATIALA",STBP0001376,NA,"MEGH CHAPPAR","OPP POSTAL TRAINING CENTRE AMBALA ROAD",721415,SAHARANPUR,SAHARANPUR,"UTTAR PRADESH"
"STATE BANK OF PATIALA",STBP0001375,WAITING,GOLUPUR,"LUCKNOW RAEBARELI MAIN ROAD VILLAGE GOLUPUR PO KATHWARA RAEBARELI 229123",567890,"RAI BARELI",KATHAURA,"UTTAR PRADESH"
"STATE BANK OF PATIALA",STBP0001374,NA,KOTDWARA,"PO NO 3 NEAR JHANDA CHOWK SRI BADRINATH MARG PIN 246149",2223613,GARHWAL,KOTDWARA,UTTARAKHAND
"STATE BANK OF PATIALA",STBP0001373,WAITING,DOIWALA,"WARD NO 2 DEHRADUN ROAD MISSERWALA",2695941,"DEHRA DUN",DEHRADUN,UTTARAKHAND
"STATE BANK OF PATIALA",STBP0001372,WAITING,"CHAMYANA KAMLA NAGAR","CHAMYANA KAMLA NAGAR PO KAMLA NAGAR TEHSIL SHIMLA DISTT SHIMLA HP PIN CODE171006",5502849,SHIMLA,SHIMLA,"HIMACHAL PRADESH"
"STATE BANK OF PATIALA",STBP0001371,NA,GHECH,"STATE BANK OF PATIALA VILL KOHBAG PO KOHBAG TEHSIL DISTT SHIMLA HP PIN CODE171103",7550187,SHIMLA,SHIMLA,"HIMACHAL PRADESH"
"STATE BANK OF PATIALA",STBP0001370,WAITING,NILJE,"CASA BELA GOLD NEAR LODHA WORLD SCHOOL KALYAN SHIL ROAD NILJE DOMBIVALI EAST THANE 421204",9206074,THANE,THANE,MAHARASHTRA
"STATE BANK OF PATIALA",STBP0001369,WAITING,"KISHANGARH RENWAL","NEAR CHOMU GATE TEHSIL JAIPUR RAJASTHAN 303603",4221969,JAIPUR,PHULERA,RAJASTHAN
"STATE BANK OF PATIALA",STBP0001368,WAITING,BAJRUR,"ROPAR NURPUR BEDI ROAD VPO BAJRUR TEHSIL ANANDPUR SAHIB DIST RUP NAGAR PUNJAB",245021,RUPNAGAR,"ANANDPUR SAHIB",PUNJAB
"STATE BANK OF PATIALA",STBP0001366,WAITING,BHANGROTU,"VPO BHANGROTU TEHSIL BALH SADAR DISTT MANDI HIMACHAL PRADESH 175021",241325,MANDI,MANDI,"HIMACHAL PRADESH"
"STATE BANK OF PATIALA",STBP0001365,NA,GWALTHAI,"GWALTHAI INDSUTRIAL ESTATESHRI NAINA DEVI JI",0,BILASPUR,BILASPUR,"HIMACHAL PRADESH"
"STATE BANK OF PATIALA",STBP0001364,WAITING,BHIULI,"BEAS SADAN BUILDING JOGINDER NAGAR ROAD BHIULI CHANDIGARH 175001",235263,CHANDIGARH,CHANDIGARH,CHANDIGARH
"STATE BANK OF PATIALA",STBP0001362,NA,TIPRA,"VILL TIPRA SUNARADI PO KOTR TEHSIL KASAULI",0,SOLAN,KASAULI,"HIMACHAL PRADESH"
"STATE BANK OF PATIALA",STBP0001361,WAITING,SYRI,"VILL SYRI PO SYRI TEHSIL KANDAGHAT DIST SOLAN PIN 173207",0,SOLAN,SYRI,"HIMACHAL PRADESH"
"STATE BANK OF PATIALA",STBP0001360,NA,DAMROG,"VILLAGE DAMROG PO GALANAG TEHSIL SOLAN DISTRICT SOLAN",7139680,SOLAN,SOLAN,"HIMACHAL PRADESH"
"STATE BANK OF PATIALA",STBP0001359,WAITING,JHARMAJRI,"VILL JHARMAJRI PO BAROTIWALA THE.NALAHARH DISTT SOLAN HP 174103",0,SOLAN,BAROTIWALA,"HIMACHAL PRADESH"
"STATE BANK OF PATIALA",STBP0001358,NA,"JODHPUR PAKHAR","JODHPUR PAKHAR TEHSIL MAUR PIN 151509",9464154722,BATHINDA,MAUR,PUNJAB
"STATE BANK OF PATIALA",STBP0001357,NA,JHANDUKE,"JHANDUKE TEHSIL MAUR DIST BATHINDA PIN 151101",9872889318,BATHINDA,MAUR,PUNJAB
"STATE BANK OF PATIALA",STBP0001356,NA,KALALWALA,"KALALWALA TALWANDI SABO DIST BATHINDA PIN 151302",9876915698,BATHINDA,"TALWANDI SABO",PUNJAB
"STATE BANK OF PATIALA",STBP0001355,NA,GOLEWALA,"GOLEWALA FARIDKOT POSTAL CODE 151203",270101,FARIDKOT,FARIDKOT,PUNJAB
"STATE BANK OF PATIALA",STBP0001354,NA,KULGARHI,"VILLAGE KULGARHI,PO SHERKHANWALA,DIST FEROZEPUR,PUNJAB,PINCODE 152005",2270005,FEROZPUR,KULGARHI,PUNJAB
"STATE BANK OF PATIALA",STBP0001353,WAITING,MATLAUDA,"RAILWAY CROSSING NEAR BIKANER MISTHAN BHANDAR RAILWAY ROAD MADLAUDA DISTT PANIPET",0,PANIPAT,MADLAUDA,HARYANA
"STATE BANK OF PATIALA",STBP0001352,WAITING,"CHUNNIHETI GADA","VILLAGE CHUNHETI GADA POST KANKARKUI DISTRICT  SAHARANPUR PIN 247001",0,SAHARANPUR,SAHARANPUR,"UTTAR PRADESH"
"STATE BANK OF PATIALA",STBP0001351,WAITING,"RAJPURI NAWADA","VILL RAJPURI NAWADA, NEAR PETROL PUMP PO-BHUTTA, THE-&DISTT- BAREILLY PIN 243126",0,BAREILLY,BHUTA,"UTTAR PRADESH"
"STATE BANK OF PATIALA",STBP0001350,WAITING,GADDOPUR,"VILL GADDOPUR PHAPHAMAU THE SORAON DISTT ALLAHABAD PIN 211001",0,ALLAHABAD,SORAON,"UTTAR PRADESH"
"STATE BANK OF PATIALA",STBP0001349,WAITING,"KESHAWPUR SARPATHA","DIST COLLECTOR OFFICE ROOM NO 4 KESHAVPUR SARPATHA THE GYANPUR DISTT SANTRAVIDASNAGAR PIN 221401",0,"SANT RAVIDAS NAGAR",BHADOHI,"UTTAR PRADESH"
"STATE BANK OF PATIALA",STBP0001348,WAITING,DHAROT,"VILL PO DHAROT DIST SOLAN 173213",0,SOLAN,SOLAN,"HIMACHAL PRADESH"
"STATE BANK OF PATIALA",STBP0001347,WAITING,"JAI SINGH WALA","VILL PO JAI SINGH WALA BADAL ROAD DIST BATHINDA",9779584126,BATHINDA,BATHINDA,PUNJAB
"STATE BANK OF PATIALA",STBP0001346,WAITING,"ABLU KOTHE CHET SINGH","ABLU KOTHE CHET SINGH DIST BHATHINDA",1642442033,BATHINDA,BATHINDA,PUNJAB
"STATE BANK OF PATIALA",STBP0001345,WAITING,BHAPPAL,"VPO BHAPPAL TEHSIL RAJPURA DISTT PATIALA -140401",230556,PATIALA,RAJPURA,PUNJAB
"STATE BANK OF PATIALA",STBP0001344,WAITING,MOHABATPUR,"VPO MOHABATPUR",247101,HISAR,HISAR,HARYANA
"STATE BANK OF PATIALA",STBP0001343,WAITING,ISRANA,"VILL PO ISRANA TEHSIL ISRANA OPP POLICE STATION PANIPAT GOHANA ROAD DISTT PANIPAT",9729875252,PANIPAT,ISRANA,HARYANA
"STATE BANK OF PATIALA",STBP0001342,WAITING,"KAMACH KHEDA","VILL KAMACH KHEDA PO MALVI THE JULANA DISTRICT JIND PIN 126101",9992020501,JIND,JULANA,HARYANA
"STATE BANK OF PATIALA",STBP0001341,WAITING,RAJGARH,"STATE BANK OF PATIALA VILLAGE RAJGARH DISTT PATIALA PIN 147001",9779587063,PATIALA,PATIALA,PUNJAB
"STATE BANK OF PATIALA",STBP0001340,133007340,PAPLOHA,"VILL PAPLOHA POST OFFICE & TEHSIL KALKA DISTT PANCHKULA PIN 133302",0,PANCHKULA,PANCHKULA,HARYANA
"STATE BANK OF PATIALA",STBP0001339,NA,JAGRAON,"SHOP NO 85 86 OLD GRAIN MARKET JAGRAON 142026",228586,LUDHIANA,JAGRAON,PUNJAB
"STATE BANK OF PATIALA",STBP0001338,WAITING,ROHRU,"NEAR POLYTECHNIC COLLEGE, AMAR ESTATE, TEHSIL ROHRU, DISTT. SHIMLA, PINCODE-171001",9816247717,SIMLA,ROHRU,"HIMACHAL PRADESH"
"STATE BANK OF PATIALA",STBP0001337,WAITING,JHANDUKE,"STATE BANK OF PATIALA VILL POJHANDUKE TEHSHIL SADULGRAH DIST MANSA PIN 151506",9815348124,MANSA,SARDULGARH,PUNJAB
"STATE BANK OF PATIALA",STBP0001336,WAITING,MAUFFER,"STATE BANK OF PATIALA VILL MAUFFER TEHSHIL SADULGARH DIST MANSAPIN NO 151506",9264065,MANSA,SARDULGARH,PUNJAB
"STATE BANK OF PATIALA",STBP0001335,WAITING,TARKWARI,"MAIN MARKET TARKWARI PO TARKWARI TEHSIL BHORANJ DIST HAMIRPUR PIN 176045",1972266300,HAMIRPUR,BHORANJ,"HIMACHAL PRADESH"
"STATE BANK OF PATIALA",STBP0001334,WAITING,"TAUNI DEVI","VPO AND TEHSIL  TAUNI DEVIDISTT HAMIRPUR HP 177023",1972278115,HAMIRPUR,TAUNIDEVI,"HIMACHAL PRADESH"
"STATE BANK OF PATIALA",STBP0001333,WAITING,"REONA NIWAN","V REONA NIWAN PO REONA UCHA TEHSIL AND DISST FATEHGARH SAHIB PIN 140406",258321,"FATEHGARH SAHIB","FATEHGARH SAHIB",PUNJAB
"STATE BANK OF PATIALA",STBP0001332,800007004,"PHULWARI SHARIF (WALMI)","JAGDEESHWAR MARKET, GOBINDPUR, JANIPUR ROAD, PHULWARI SHARIF, WALMI, PATNA, BIHAR - 801505",9204067498,PATNA,"PHULWARI SHARIF",BIHAR
"STATE BANK OF PATIALA",STBP0001331,WAITING,KARJAT,"SHOP NO. 6,7,8,9 & 10, MANAS COMPLEX, AMBARAI, KARJAT-410201, DISTT. RAIGARH, MAHARASHTRA",0,RAIGAD,KARJAT,MAHARASHTRA
"STATE BANK OF PATIALA",STBP0001330,WAITING,"PIMRI CHINCHWAD","36/7, OGALE HERITAGE, MIDC ROAD, MORWADI, PIMPRI - 411018, DISTT. PUNE, MAHARASHTRA",0,PUNE,"PIMPRI CHINCHWAD",MAHARASHTRA
"STATE BANK OF PATIALA",STBP0001329,WAITING,"KALYAN WEST","SHOP NO-1, REGENCY ROYALE, LAL CHOWKI, OPPOSITE GANESH MANDIR, AGRA ROAD, KALYAN WEST, DISTRICT-THANE, MAHARASTRA, PIN CODE-421301",9869044725,THANE,KALYAN,MAHARASHTRA
"STATE BANK OF PATIALA",STBP0001328,WAITING,"WARING KHERA","VPO WARING KHERA, TEH MALOUT, DISTT MUKTSAR, PIN CODE 151211",9779584004,MUKTSAR,MALOUT,PUNJAB
"STATE BANK OF PATIALA",STBP0001327,WAITING,PEORI,"VPO PEORI, TEH GIDDERBAHA, DISTT MUKTSAR, PIN CODE 152101",9814524593,MUKTSAR,"GIDDAR BAHA",PUNJAB
"STATE BANK OF PATIALA",STBP0001326,800007003,NAUBATPUR,"LAKSHAN MARKET, KHAGAUL ROAD, NAUBATPUR, PATNA, BIHAR - 801109",6135266111,PATNA,NAUBATPUR,BIHAR
"STATE BANK OF PATIALA",STBP0001325,WAITING,"MINI SECRETARIAT, JHAJJAR","MINI SECRETARIAT, NEW DELHI",253414,JHAJJAR,JHAJJAR,HARYANA
"STATE BANK OF PATIALA",STBP0001324,WAITING,"SRI GURU GRANTH SAHIB WORLD UNIVERSITY","SRI GURU GRANTH SAHIB WORLD UNIVERSITY, FATEHGARH SAHIB, PIN CODE 140407",3233892,"FATEHGARH SAHIB","FATEHGARH SAHIB",PUNJAB
"STATE BANK OF PATIALA",STBP0001323,WAITING,"ZIRAKPUR PERSONAL BANKING","DASHMESH COLONY PATIALA ROAD ZIRAKPUR DISTT SAS NAGAR MOHALI PINCODE 140603",286071,PATIALA,ZIRAKPUR,PUNJAB
"STATE BANK OF PATIALA",STBP0001321,WAITING,SADHAURA,"SBOP NEAR BUS STAND PO SADHAURA TEHSIL BILASPUR DISTRICT YAMUNANAGAR HARYANA 133204",270093,YAMUNANAGAR,SADHAURA,HARYANA
"STATE BANK OF PATIALA",STBP0001320,WAITING,DAHISAR,"SHOP NO 1, IA, 2 ABHIMANYU CO HSG SOCIETY LTD., N L COMPLEX, ANAND NAGAR, DAHISAR EAST-400068",28961801,THANE,THANE,MAHARASHTRA
"STATE BANK OF PATIALA",STBP0001316,WAITING,"NANGAL CHOWDHARY","VPO NANGAL CHAUDHARY, DIST MOHINDERGARH, HARYANA 123023",278280,MAHENDRAGARH,"NANGAL CHOWDHARY",HARYANA
"STATE BANK OF PATIALA",STBP0001315,WAITING,"MUMBAI ANDHERI EAST","UNIT NO 1, GROUND FLOOR, APPLE HERITAGE, MATHURADAS VASANTH ROAD, CHAKALA, ANDHERI EAST, MUMBAI 400093",0,"GREATER BOMBAY",MUMBAI,MAHARASHTRA
"STATE BANK OF PATIALA",STBP0001313,WAITING,"SRI GANGANAGAR H H GARDEN","H H GARDEN, SADUL SHEHAR ROAD, SRI GANGANAGAR, RAJASTHAN 335001",0,GANGANAGAR,SADUL-SAHAR,RAJASTHAN
"STATE BANK OF PATIALA",STBP0001312,WAITING,SARAWAN,"SARAWAN, DIST MUKATSAR, TEHSIL MALOUT, PUNJAB 151210",250000,MUKTSAR,MALOUT,PUNJAB
"STATE BANK OF PATIALA",STBP0001311,WAITING,"SANGRUR GOVT RANBIR COLLEGE","GOVT RANBIR COLLEGE, SANGRUR DIST, PUNJAB 148001",0,SANGRUR,SANGRUR,PUNJAB
"STATE BANK OF PATIALA",STBP0001310,WAITING,"SARDAR SHEHAR","VPO SARDAR SHEHAR, NARAYAN KATRA, DISTT CHURU, RAJASTHAN, PIN 331403",220300,CHURU,SARDARSHAHAR,RAJASTHAN
"STATE BANK OF PATIALA",STBP0001309,WAITING,"MIANI BHAGUPURIAN","VPO MIANI BHAGUPURIAN TEHSIL BHOLATH  DISTT KAPURTHALA PUNJAB PIN 144631",1822248080,KAPURTHALA,BHOLATH,PUNJAB
"STATE BANK OF PATIALA",STBP0001308,144007977,BHOGPUR,"WARD NO 7, G T ROAD, PATHANKOT ROAD, JALANDHAR, PUNJAB 144201",2722901,JALANDHAR,BHOGPUR,PUNJAB
"STATE BANK OF PATIALA",STBP0001307,WAITING,"MANDI DABAWALI","CHAUTALA ROAD, MANDI DABAWALI, DIST SIRSA, HARYANA - 125104",223368,SIRSA,"MANDI DABWALI",HARYANA
"STATE BANK OF PATIALA",STBP0001306,WAITING,MALLANWALA,"MAKHU ROAD, MALLANWALA, FEROZEPUR DIST, PUNJAB",9779585462,FEROZPUR,MALLANWALA,PUNJAB
"STATE BANK OF PATIALA",STBP0001305,WAITING,"MIRA BHAYANDER","SHEETAL SAURABH BUILDING, 60 FEET ROAD, SHEETAL NAGAR, OPP MTNL, MIRA ROAD EAST. MIRA BHAYANDER, THANE - 401107",28112112,THANE,MIRA-BHAYANDAR,MAHARASHTRA
"STATE BANK OF PATIALA",STBP0001304,WAITING,GANDHINAGAR,"718, MAIN SHOPPING CENTRE, BEHIND PANCHDEV MANDIR, SECTOR-22, GANDHINAGAR, GUJARAT - 382022",23243427,GANDHINAGAR,GANDHINAGAR,GUJARAT
"STATE BANK OF PATIALA",STBP0001303,WAITING,BHANDUP,"CORPORA, SHOP NO G4, NEAR SANGRILLA BISCUIT, LBS MARG, BHANDUP WEST, MUMBAI - 400078",25957569,"GREATER BOMBAY",MUMBAI,MAHARASHTRA
"STATE BANK OF PATIALA",STBP0001302,WAITING,BHUBANESWAR,"PLOT NO 220, CUTTACK TOAD, BHUBANESWAR, DIST, KHURDA, ORISSA - 751006",2571905,KHURDA,BHUBANESWAR,ODISHA
"STATE BANK OF PATIALA",STBP0001301,WAITING,HARNODA,"VPO HARNODA, THE SARDAR, DIST BILASPUR, HIMACHAL PRADESH",210125,BILASPUR,BILASPUR,"HIMACHAL PRADESH"
"STATE BANK OF PATIALA",STBP0001300,WAITING,"GOV POLY COLG SUNDER NAGAR","GOVT POLYTECHNIC COLLEGE,CHATROKHARI (SUNDER NAGAR), DIST MANDI, HIMACHAL PRADESH, PIN 175018",266336,MANDI,"SUNDAR NAGAR","HIMACHAL PRADESH"
"STATE BANK OF PATIALA",STBP0001299,WAITING,MALEWAL,"INSIDE GURUDWARA SAHIB BUILDING, VPO MALEWAL, TEHSIL NABHA, DIST PATIALA, PUNJAB - 147202",264164,PATIALA,NABHA,PUNJAB
"STATE BANK OF PATIALA",STBP0001295,WAITING,"BEANT COLLEGE OF ENGINEERING AND TECHNOLOGY","INSIDE BEANT COLLEGE OF ENGINEERING AND TECHNOLOGY, VILL BARIAR, DISTT GURDASPUR 143521",223791,GURDASPUR,BARIAR,PUNJAB
"STATE BANK OF PATIALA",STBP0001294,WAITING,"UNA(MINI SECTT)","MINI SECRETARIAT, DC OFFICE, UNA, HIMACHAL PRADESH 174303",0,UNA,UNA,"HIMACHAL PRADESH"
"STATE BANK OF PATIALA",STBP0001293,WAITING,JACHH,"JACCH (JASSUR), DISTT. KANGRA, HIMACHAL PRADESH",226246,KANGRA,JASUR,"HIMACHAL PRADESH"
"STATE BANK OF PATIALA",STBP0001292,WAITING,"DHARAMSHALA(GOVT PGD COLLEGE)","GOVT. POST GRADUATE DEGREE COLLEGE, COLLEGE CAMPUS, DHARAMSHALA, DISTT KANGRA, HIMACHAL PRADESH 176215",223459,KANGRA,DHARAMSALA,"HIMACHAL PRADESH"
"STATE BANK OF PATIALA",STBP0001291,WAITING,JANKIPURAM,"B2 133, SEC F, SITAPUR ROAD SCHEME, JANKIPURAM, LUCKNOW - 226020",2733380,LUCKNOW,LUCKNOW,"UTTAR PRADESH"
"STATE BANK OF PATIALA",STBP0001290,WAITING,NAGGAR,"VPO NAGGAR, TEHSIL AND DIST KULLU, HIMACHAL PRADESH, 175130",248051,KULU,NAGGAR,"HIMACHAL PRADESH"
"STATE BANK OF PATIALA",STBP0001289,110007088,HASTSAL,"M 156, VIKASPURI, NEW DELHI",8800492085,DELHI,DELHI,DELHI
"STATE BANK OF PATIALA",STBP0001288,WAITING,"NEW DELHI (SHIVPURI)","C-5, 662/11-B, GROUND FLOOR, PATPARGANJ ROAD, KRISHNA NAGAR, SHIVPURI MAIN ROAD, NEW DELHI - 110051",1122527726,DELHI,DELHI,DELHI
"STATE BANK OF PATIALA",STBP0001287,11007087,"SHAKTI NAGAR EXTN ASHOK VIHAR DELHI","A-1/2, GROUND FLOOR, SHAKTI NAGAR EXTN., SWAMI NARAIN MARG, ASHOK VIHAR, PHASE III, DELHI 110052",27301338,DELHI,DELHI,DELHI
"STATE BANK OF PATIALA",STBP0001286,WAITING,"LADWA ROAD","LADWA ROAD, PIPLI, DIST KURUKSHETRA, HARYANA, PIN 51286",0,KURUKSHETRA,PIPLI,HARYANA
"STATE BANK OF PATIALA",STBP0001285,WAITING,"KARNA SEC 3","SCO 11 HSIIDC SEC 3, KARNAL, HARYANA",2220180,KARNAL,KARNAL,HARYANA
"STATE BANK OF PATIALA",STBP0001284,WAITING,BALLOH,"VPO BALLOH, TEHSIL RAMPURA PHUL, DISTT BATHINDA, PUNJAB 148109",249002,BATHINDA,"RAMPURA PHUL",PUNJAB
"STATE BANK OF PATIALA",STBP0001283,WAITING,"SHAHPUR AMBALA","SHAHPUR AMBALA OPPOSITE INNER GURUDWARA SAHIB VPO SHAHPURDISTT AMBALA133004 HARYANA",2810071,AMBALA,SHAHPUR,HARYANA
"STATE BANK OF PATIALA",STBP0001282,WAITING,GOREGAON,"SHOP NO C D, A K PLAZA, HOTEL GRAND SAROVAR PREMIER, JUNCTION OF VEER SAVARKAR FLYOVER & SV ROAD, OPP MTNL EXCHANGE, GOREGAON WEST, MUMBAI 400062",28788012,"GREATER BOMBAY",MUMBAI,MAHARASHTRA
"STATE BANK OF PATIALA",STBP0001281,WAITING,SADHUWALI,"BISHNOI MANDIR, SADHUWALI, SRI GANGANAGAR - 335001",2492071,GANGANAGAR,GANGANAGAR,RAJASTHAN
"STATE BANK OF PATIALA",STBP0001279,WAITING,"MINI SECRETARIAT","DISTRICT ADMINISTRATION OFFICE, MINI SECRETARIAT, D BLOCK, PATIALA 147001",2353812,PATIALA,PATIALA,PUNJAB
"STATE BANK OF PATIALA",STBP0001278,WAITING,BALDYAN,"VPO BALDYAN, TEHSIL AND DIST SHIMLA, HIMACHAL PRADESH 171007",2740990,SIMLA,SIMLA,"HIMACHAL PRADESH"
"STATE BANK OF PATIALA",STBP0001277,WAITING,FAGU,"VPO FAGU, TEHSIL THEOG, DIST SHIMLA, HIMACHAL PRADESH, PIN 171209",0,SIMLA,THEOG,"HIMACHAL PRADESH"
"STATE BANK OF PATIALA",STBP0001276,WAITING,BHUTTA,"VPO BHUTTA, TEHSIL LUDHIANA EAST, DIST LUDHIANA, PUNJAB - 141206",2852967,LUDHIANA,LUDHIANA,PUNJAB
"STATE BANK OF PATIALA",STBP0001275,WAITING,LALANWALI,"VILL LALANWALI P.O , TEHSIL & DISTT FAZILKA  (PUNJAB) PIN 152123",248044,FEROZPUR,FAZILKA,PUNJAB
"STATE BANK OF PATIALA",STBP0001274,WAITING,"MULUND WEST","SHOP NO. 5,6,7,8, GANESH KRUPA BUILDING, R.H.B ROAD, MULUND WEST, MAHARASHTRA",25922001,"GREATER BOMBAY",MUMBAI,MAHARASHTRA
"STATE BANK OF PATIALA",STBP0001273,WAITING,"CHANDIGARH SECTOR 20D","SCO NO 13, SECTOR 20D, CHANDIGARH 160020",2722013,CHANDIGARH,CHANDIGARH,CHANDIGARH
"STATE BANK OF PATIALA",STBP0001272,WAITING,"SECTOR 29 CHANDIGARH","SECTOR 29 D, CHANDIGARH",2652950,CHANDIGARH,CHANDIGARH,CHANDIGARH
"STATE BANK OF PATIALA",STBP0001271,636007002,SALEM,"RAJA TOWERS, NO. 49/5, 1ST FLOOR, NEW BUS STAND ROAD, MEYYANUR, SALEM, TAMILNADU-636004",2446016,SALEM,SALEM,"TAMIL NADU"
"STATE BANK OF PATIALA",STBP0001270,WAITING,GUMMIDIPOONDI,"NO 324, GNT ROAD, GUMMIDIPOONDI, DIST THIRUVALLUR, TAMILNADU 601201",27929923,THIRUVALLUR,GUMMIDIPUNDI,"TAMIL NADU"
"STATE BANK OF PATIALA",STBP0001269,WAITING,ROORKEE,"VPO ROORKEE, THE, DIST FATEHGARH, PUNJAB 147104",977958237,"FATEHGARH SAHIB","FATEHGARH SAHIB",PUNJAB
"STATE BANK OF PATIALA",STBP0001268,WAITING,NADHAURI,"NEAR BUS STAND, V & PO NADHAURI, TEHSIL & DIST. FATEHABAD, HARYANA",0,FATEHABAD,NADHAURI,HARYANA
"STATE BANK OF PATIALA",STBP0001267,WAITING,"MINI SECRETARIAT, RAJPURA","MINI SECRETARIAT,RAJPURA - 140401",0,PATIALA,RAJPURA,PUNJAB
"STATE BANK OF PATIALA",STBP0001266,WAITING,BARAHI,"MAIN ROAD, V & PO BARAHI, TEHSIL BAHADURGARH, DIST, JHAJJAR, HARYANA - 124525",211960,JHAJJAR,BARAHI,HARYANA
"STATE BANK OF PATIALA",STBP0001265,WAITING,"VIKAS NAGAR","MAIN ROAD, WARD 3, NEAR MANDI CHOWK, VIKAS NAGAR, DIST DEHRADUN, UTTRAKHAND - 248198",7417915311,"DEHRA DUN","VIKAS NAGAR",UTTARAKHAND
"STATE BANK OF PATIALA",STBP0001264,WAITING,"RANBIR SINGH PORA","SUCHET GARH ROAD, OPP BSF GATE, RANBIR SINGH PORA, THE DIST JAMMU, JAMMU KASHMIR 181102",241910,JAMMU,"RANBIR SINGH PORA","JAMMU AND KASHMIR"
"STATE BANK OF PATIALA",STBP0001263,WAITING,SANCHLA,"NEAR BUS STAND, VPO SANCHLA-125111, TEHSIL TOHANA, DIST FATEHABAD, HARYANA",0,FATEHABAD,TOHANA,HARYANA
"STATE BANK OF PATIALA",STBP0001262,WAITING,"ANDHERI WEST","UNIT NO 15,16,17,18, GROUND FLOOR, JANAKI CENTER, 29, SHAH INDUSTRIAL ESTATE, OFF VEERA DESAI ROAD, ANDHERI WEST, MUMBAI - 400058",0,"GREATED BOMBAY",MUMBAI,MAHARASHTRA
"STATE BANK OF PATIALA",STBP0001261,WAITING,"GHATKOPAR EAST","SHOP NO. 2, GROUND FLOOR, MANRATNA BUSINESS PARK, JUNCTION OF DERASAR LANE & TILAK ROAD,GHATKOPAR EAST, MUMBAI 400077",25086601,"GREATED BOMBAY",MUMBAI,MAHARASHTRA
"STATE BANK OF PATIALA",STBP0001260,WAITING,TARAORI,"46, NEW GRAIN MARKET, TARAORI, DIST KARNAL, HARYANA 132116",242071,KARNAL,TARAORI,HARYANA
"STATE BANK OF PATIALA",STBP0001259,WAITING,KHARKAN,"OPP. GRAM PANCHAYAT BHAWAN NEAR BUS STAND VPO KHARKAN DISTT KAITHAL PIN 136035",230411,KAITHAL,KAITHAL,HARYANA
"STATE BANK OF PATIALA",STBP0001258,WAITING,GURER,"GURER ASADPUR PULIYA, SAMBHAL ROAD, GURER-244301, MORADABAD, UTTAR PRADESH",248034,MORADABAD,MORADABAD,"UTTAR PRADESH"
"STATE BANK OF PATIALA",STBP0001257,WAITING,ARNIWALA,"ARNIWALA SHEIKH SUBHAN-PIN 152124 DISTT. & TEH FAZILKA PUNJAB",1638241452,FEROZPUR,FAZILKA,PUNJAB
"STATE BANK OF PATIALA",STBP0001255,WAITING,"SITO GUNNO","VPO SITO GUNNO, TEHSIL ABOHAR, DIST FAZILKA, PUNJAB 152116",270077,FEROZPUR,FAZILKA,PUNJAB
"STATE BANK OF PATIALA",STBP0001251,WAITING,"BANGA SN COLLEGE","C/O SIKH NATIONAL COLLEGE, NAWAN SHAHAR ROAD, BANGA, DIST SHAHEED UDHAM SINGH NAGAR, PUNJAB, PIN 144505",231218,NAWANSHAHR,BANGA,PUNJAB
"STATE BANK OF PATIALA",STBP0001249,141007027,"AAYAKAR BHAWAN","RISHI NAGAR, LUDHIANA",2302245,LUDHIANA,LUDHIANA,PUNJAB
"STATE BANK OF PATIALA",STBP0001248,WAITING,"LUDHIANA (JIAN COLLEGE)","DEVKI DEVI JAIN MEMORIAL COLLEGE FOR WOMEN, KIDWAI NAGAR, INDUSTRIAL AREA, LUDHIANA-141008, PUNJAB",2170679,LUDHIANA,LUDHIANA,PUNJAB
"STATE BANK OF PATIALA",STBP0001246,WAITING,"SOLAN (GOVT DEG COLG)","GOVT DEGREE COLLEGE, SOLAN, HIMACHAL PRADESH, PIN 173212",229069,SOLAN,SOLAN,"HIMACHAL PRADESH"
"STATE BANK OF PATIALA",STBP0001245,WAITING,"SADUL SHEHAR","MAHARAJA AGGARSEN MARG, WARD NO 10, SADUL SHEHAR, DIST SRI GANGANAGAR, RAJASTHAN 335062",222090,GANGANAGAR,SADUL-SAHAR,RAJASTHAN
"STATE BANK OF PATIALA",STBP0001244,160007076,"HSEB PANCHKULA","HSEB, HVPNL BUILDING, SHAKTI BHAWAN, SECTOR 6, PANCHKULA, PINCODE 134109",9779585939,PANCHKULA,PANCHKULA,HARYANA
"STATE BANK OF PATIALA",STBP0001242,WAITING,"ST JOHNS COLLEGE, AGRA","ST JOHNS COLLEGE, M.G. ROAD, AGRA",2855116,AGRA,AGRA,"UTTAR PRADESH"
"STATE BANK OF PATIALA",STBP0001241,WAITING,JALALPUR,"JALALPUR, POST OFFICE, BAHADURGARH, TEHSIL & DIST PATIALA",2653007,PATIALA,JALALPUR,PUNJAB
"STATE BANK OF PATIALA",STBP0001240,WAITING,"SUJANPUR TIRA","TIRA ROAD, NEAR GIRLS SCHOOL",272011,HAMIRPUR,"SUJANPUR TIRA","HIMACHAL PRADESH"
"STATE BANK OF PATIALA",STBP0001239,WAITING,PATHANKOT,"DHANGU ROAD, PATHANKOT - 145001, DISTT. PATHANKOT (PUNJAB)",1862236006,GURDASPUR,PATHANKOT,PUNJAB
"STATE BANK OF PATIALA",STBP0001238,WAITING,PUTLIGHAR,"NEAR OM INTERNATIONAL, 6, G.T. ROAD, PUTLIGHAR, AMRITSAR 143001",5068657,AMRITSAR,AMRITSAR,PUNJAB
"STATE BANK OF PATIALA",STBP0001237,WAITING,SARNA,"NEAR SHAKUNTLA PALACE, G.T. ROAD, SARNA, DISTT PATHANKOT - 145025",2345577,GURDASPUR,PATHANKOT,PUNJAB
"STATE BANK OF PATIALA",STBP0001236,WAITING,JAKOLARI,"VPO JAKOLARI, NEAR RAILWAY STATION JAKOLARI, TEHSIL AND DIST PATHANKOT, PUNJAB 145025",2265777,GURDASPUR,PATHANKOT,PUNJAB
"STATE BANK OF PATIALA",STBP0001235,NA,"NAVI MUMBAI","SBI,HRMS PREMISES, 4TH FLOOR, TOWER NO. 7, C.B.D. BELAPUR RAILWAY STATION BUILDING,NAVI MUMBAI-400614",0,"NAVI MUMBAI","NAVI MUMBAI",MAHARASHTRA
"STATE BANK OF PATIALA",STBP0001232,WAITING,"THANE WEST","SHOP NO 3 & 4, HORIZON TOWER, BHAKTI MANDIR ROAD, HARI NIWAS CIRCLE, THANE WEST, MAHARASHTRA",25432398,THANE,THANE,MAHARASHTRA
"STATE BANK OF PATIALA",STBP0001231,WAITING,"PATEL NAGAR","LAL MANDIR, EAST PATEL NAGAR, NEW DELHI 110008",25883460,DELHI,DELHI,DELHI
"STATE BANK OF PATIALA",STBP0001230,WAITING,ALIPUR,"KHASRA #74/31, KARNAL ROAD, OPP SWAMI SHARDHA NAND COLLEGE, ALIPUR, NEW DELHI 10036",27206675,DELHI,"ALIPORE VILLAGE",DELHI
"STATE BANK OF PATIALA",STBP0001229,WAITING,JHARLI,"NEAR NTPC METRO MARKET, BHAU JHORLI ROAD, VPO JHARLI, TEHSIL DIST JHAJJAR, HARYANA 124125",9416359450,JHAJJAR,JHARLI,HARYANA
"STATE BANK OF PATIALA",STBP0001227,WAITING,JALLOPUR,"VPO JALLOPUR, TEHSIL RATIA, DIST FATEHABAD, HARYANA 125051",0,FATEHABAD,RATTIA,HARYANA
"STATE BANK OF PATIALA",STBP0001226,WAITING,"JAMALPUR SHEKHAN","NEAR DURGA MANDIR, VPO JAMALPUR SHEKHAN, TEHSIL TOHANA, DIST FATEHABAD, HARYANA 125120",9729874994,FATEHABAD,TOHANA,HARYANA
"STATE BANK OF PATIALA",STBP0001225,WAITING,RAJLI,"VPO RAJLI, TEHSIL & DIST HISAR, HARYANA 125121",0,HISAR,HISAR,HARYANA
"STATE BANK OF PATIALA",STBP0001224,WAITING,GEONG,"V & PO GEONG, TEHSIL & DISTRICT KAITHAL, HARYANA-136027",288426,KAITHAL,KAITHAL,HARYANA
"STATE BANK OF PATIALA",STBP0001223,WAITING,D.A.C.BARNALA,"BARNALA, SANGRUR, PUNJAB - 148101",9779584583,SANGRUR,BARNALA,PUNJAB
"STATE BANK OF PATIALA",STBP0001222,160007075,BARWALA,"CHANDIGARH-NARAINGARH NYE-PASS ROAD, VPO BARWALA, DISTT PANCHKULA, HARYANA 134118",256358,PANCHKULA,BARWALA,HARYANA
"STATE BANK OF PATIALA",STBP0001221,WAITING,RAMPUR,"VPO RAMPUR, TEHSIL PAYAL, DISTRICT LUDHIANA, PIN CODE 141418",284007,LUDHIANA,PAYAL,PUNJAB
"STATE BANK OF PATIALA",STBP0001220,WAITING,HANS,"VPO HANS, TEHSIL JAGRAON, DIST LUDHIANA, PUNJAB 142026",233100,LUDHIANA,JAGRAON,PUNJAB
"STATE BANK OF PATIALA",STBP0001219,WAITING,"BOPARAI KHURD","BOPARAI KHURD, PO NATHOWAL, TEHSIL RAIKOT, DIST LUDHIANA, PUNJAB  142032",260466,LUDHIANA,RAIKOT,PUNJAB
"STATE BANK OF PATIALA",STBP0001218,WAITING,CHHAHAR,"VPO CHHAHAR, TEHSIL SUNAM, DIST SANGRUR, PUNJAB 148035",282217,SANGRUR,SUNAM,PUNJAB
"STATE BANK OF PATIALA",STBP0001217,WAITING,HAMIDI,"VPO HAMIDI, DISTRICT BARNALA, PUNJAB 148025",9779584648,SANGRUR,BARNALA,PUNJAB
"STATE BANK OF PATIALA",STBP0001215,WAITING,AKKAR,"NEAR GURUDWARA NEEM, SAHIB, VILL AKKAR, PO SEHRA, TEHSIL RAJPURA, DIST PATIALA, PUNJAB 140701",262015,PATIALA,RAJPURA,PUNJAB
"STATE BANK OF PATIALA",STBP0001214,WAITING,RAKRI,"MAIN ROAD, V RAKRI, PO DATARPUR, TEHSIL MUKERIAN, DIST HOSHIARPUR, PUNJAB 144222",230125,HOSHIARPUR,MUKERIAN,PUNJAB
"STATE BANK OF PATIALA",STBP0001213,WAITING,"BARI BRAHMANA","NATIONAL HIGHWAY, NEAR PRIMARY HEALTH CENTRE, WARD NO 1, BARI BRAHMANA, THE & DIST SAMBA, JAMMU KASHMIR 181133",222939,SAMBA,RAMGARH,"JAMMU AND KASHMIR"
"STATE BANK OF PATIALA",STBP0001212,WAITING,JAINAGAR,"JAINAGAR, TEHSIL ARKI, DIST SOLAN, HIMACHAL PRADESH, PIN CODE 173221",0,SOLAN,ARKI,"HIMACHAL PRADESH"
"STATE BANK OF PATIALA",STBP0001211,WAITING,"DEONGHAT SOLAN","DEONGHAT SAPROON SOLAN H P",0,SOLAN,SOLAN,"HIMACHAL PRADESH"
"STATE BANK OF PATIALA",STBP0001210,WAITING,SALOGRA,"VPO SALOGRA,TEHSIL DIST SOLAN,HIMACHAL PRADESH,PIN 173214",0,SOLAN,SOLAN,"HIMACHAL PRADESH"
"STATE BANK OF PATIALA",STBP0001209,WAITING,"TALWANDI CHOWDHARIAN","MAIN ROAD, VPO TALWANDI CHOWDHARIAN, TEHSIL AND DISTT KAPURTHALA-144606",0,KAPURTHALA,"TALWANDI CHOUDHRIAN",PUNJAB
"STATE BANK OF PATIALA",STBP0001208,WAITING,PHOLARIWALA,"V & PO PHOLARIWALA, TEHYSIL & DISTRICT JALANDHAR, PUNJAB-144022",2634933,JALANDHAR,PHOLARIWALA,PUNJAB
"STATE BANK OF PATIALA",STBP0001207,NA,KOTKAPURA,"FARIDKOT ROAD, KOTKAPURA 151204",525328,FARIDKOT,"KOT KAPURA",PUNJAB
"STATE BANK OF PATIALA",STBP0001206,WAITING,BASAWESHWARANAGAR,"93 M MPLAZA WEST OF CHORD ROAD, BHIMAJYOTHI LIC COLONY, BASAWESHWARANAGAR, BANGALORE 560079",9663233509,"BANGALORE URBAN",BANGALORE,KARNATAKA
"STATE BANK OF PATIALA",STBP0001205,WAITING,"NAGAUR ROAD","NAGAUR BYE PASS ROAD, MAGRA PUNJALA, NAGAUR ROAD, JODHPUR, RAJASTHAN 342001",2571205,JODHPUR,MAGARA-PUNJALA,RAJASTHAN
"STATE BANK OF PATIALA",STBP0001204,WAITING,"MOHAN GARDEN, NEW DELHI","SHOP NO 11 & 12, MOHAN BHAGWATI SHOPPING COMPLEX, NEAR METRO PILLAR NO 769, UTTAM NAGAR, MAIN NAGAFGARH ROAD, MOHAN GARDEN, NEW DELHI - 110059",25352355,DELHI,DELHI,DELHI
"STATE BANK OF PATIALA",STBP0001203,WAITING,"GMS ROAD, DEHRADUN","748, RAM BAGH, KANWALI ROAD, NEAR ANURAG NURSERY, DEHRADUN",2760912,"DEHRA DUN",DEHRADUN,UTTARAKHAND
"STATE BANK OF PATIALA",STBP0001202,WAITING,GORAKHPUR,"DUBEY COMPLEX, BEHTI HATA, GORAKHPUR",9454486118,GORAKHPUR,GORAKHPUR,"UTTAR PRADESH"
"STATE BANK OF PATIALA",STBP0001201,WAITING,"CHANDIGARH (SECT 49B)","BOOTH NO. 1-2, SECTOR 49-B, CHANDIGARH 160047",2630604,CHANDIGARH,CHANDIGARH,CHANDIGARH
"STATE BANK OF PATIALA",STBP0001200,WAITING,"PANCHKULA SECT25","GROUND FLOOR, SCO 113, SECTOR 25, PANCHKULA 134116, HARYANA",2550436,PANCHKULA,PANCHKULA,HARYANA
"STATE BANK OF PATIALA",STBP0001199,110007081,"SECTOR 56, GURGAON","SCO NO 20, HUDA MARKET, SECTOR 56, GURGAON 122011",2386361,GURGAON,GURGAON,HARYANA
"STATE BANK OF PATIALA",STBP0001198,110007082,"SECTOR 48, GURGAON","A 05, IRIS TECH PARK, SECTOR 48, SOHNA ROAD, GURGAON 122018",2219185,GURGAON,GURGAON,HARYANA
"STATE BANK OF PATIALA",STBP0001196,WAITING,TFCPC,"TFCPC,ZONAL OFFICE,SECOND FLOOR,NBCC PLACE,BHISHM PITAMAH MARG,LODHI ROAD,NEW DELHI 110003",0,DELHI,DELHI,DELHI
"STATE BANK OF PATIALA",STBP0001195,WAITING,"ICCHEWALA ROAD, FEROZPUR CITY","ICCHEWALA ROAD, OPP. BUS STAND, FEROZPUR CITY, PUNJAB - 152002",225671,FEROZPUR,FIROZPUR,PUNJAB
"STATE BANK OF PATIALA",STBP0001194,560007009,"YELAHANKA NEW TOWN BRANCH","NO.804, MIG, 2ND STAGE, SECTOR B, MOTHER DAIRY ROAD, YELAHANKA NEW TOWN, BANAGALORE 560064",28565065,"BANGALORE URBAN",YELAHANKA,KARNATAKA
"STATE BANK OF PATIALA",STBP0001193,WAITING,"CBD BELAPUR","SHOP NO 5-6, ELLORA, PLOT NO 27, SECTOR 11, CBD BELAPUR, NAVI MUMBAI 400614",0,"GREATER BOMBAY",MUMBAI,MAHARASHTRA
"STATE BANK OF PATIALA",STBP0001192,WAITING,"BORIVALI EAST","GROUND FLOOR, GREEN VIEW COMPLEX, NANCY COLONY, BORIVALI EAST, MUMBAI 400066",7738050027,"GREATER BOMBAY",MUMBAI,MAHARASHTRA
"STATE BANK OF PATIALA",STBP0001191,440007003,"CIVIL LINE NAGPUR","SHOP NO 1-2-3, POONAM PLAZA, CIVIL LINES, NAGPUR (MAH), PIN 440001",2540171,NAGPUR,NAGPUR,MAHARASHTRA
"STATE BANK OF PATIALA",STBP0001190,WAITING,"BHAGYA NAGAR","66, BHAGYANAGAR, NEAR ST OFFICE, AURANGABAD, MAHARASHTRA-431001",2352346,AURANGABAD,AURANGABAD,MAHARASHTRA
"STATE BANK OF PATIALA",STBP0001189,WAITING,"DAC, SANGRUR","DISTRICT ADMINISTRATIVE COMPLEX, SANGRUR 148001, DISTT SANGRUR, PUNJAB",241078,SANGRUR,SANGRUR,PUNJAB
"STATE BANK OF PATIALA",STBP0001188,WAITING,MUNIRKA,"249 A, RAMA MARKET, MUNRIKA, NEW DELHI 110067",26176772,DELHI,DELHI,DELHI
"STATE BANK OF PATIALA",STBP0001187,WAITING,"RAJINDER NAGAR","DF 139, SHANKAR ROAD, RAJINDER NAGAR, NEW DELHI 110060",28745764,DELHI,DELHI,DELHI
"STATE BANK OF PATIALA",STBP0001186,WAITING,"DILSHAD GARDEN","488/6, NEAR RADHA KRISHNA MANDIR,GURU TEG BAHADUR ROAD, DILSHAD GARDEN, NEW DELHI 110095",22570697,DELHI,DELHI,DELHI
"STATE BANK OF PATIALA",STBP0001184,WAITING,"DALHOUSIE ROAD, PATHANKOT","NEAR SHANI DEV MANDIR, DALHOUSIE ROAD, PATHANKOT 145001, DISTT GURDASPUR, PUNJAB",5100289,GURDASPUR,PATHANKOT,PUNJAB
"STATE BANK OF PATIALA",STBP0001183,WAITING,"SARHALI ROAD TARN TARAN","SARHALI ROAD, TARN TARAN",0,AMRITSAR,"TARN TARAN",PUNJAB
"STATE BANK OF PATIALA",STBP0001182,NA,"BATALA ROAD,GURDASPUR","8 20,SCHEME NO 1,IMPROVEMENT TRUST COLONY,BATALA ROAD,GURDASPUR 143521",240135,GURDASPUR,GURDASPUR,PUNJAB
"STATE BANK OF PATIALA",STBP0001181,WAITING,"CIRCULAR ROAD, AMRITSAR","1176/4, DYNASTY TOWER, CIRCULAR ROAD, AMRITSAR, PUNJAB",2570717,AMRITSAR,AMRITSAR,PUNJAB
"STATE BANK OF PATIALA",STBP0001180,WAITING,"TARN TARAN ROAD","OPP MILAP TENT HOUSE, NEAR NAMDHARI KANDA, TARN TARAN ROAD, AMRITSAR, PUNJAB",2481718,AMRITSAR,"TARN TARAN",PUNJAB
"STATE BANK OF PATIALA",STBP0001179,WAITING,"MAJITHA ROAD AMRITSAR","OPP GURU NANAK DEV HOSPITAL, MAJITHA ROAD, AMRITSAR",2571722,AMRITSAR,MAJITHA,PUNJAB
"STATE BANK OF PATIALA",STBP0001178,NA,"LAKHAN MAJRA","JIND ROAD,VPO LAKHAN MAJRA,TEHSIL MEHAM,DISTT ROHTAK,HARYANA,PIN 124514",0,ROHTAK,"LAKHAN MANJRA",HARYANA
"STATE BANK OF PATIALA",STBP0001177,WAITING,BAJWARA,"SSG,PURC,BAJWARA,DISTT HOSHIARPUR,PUNJAB,PIN 146001",0,HOSHIARPUR,BAJWARA,PUNJAB
"STATE BANK OF PATIALA",STBP0001176,NA,"NEW GRAIN MARKET,MALOUT","NEW GRAIN MARKET,OPPOSITE LIC OFFICE,MALOUT 152107,DISTT MUKTSAR,PUNJAB",0,MUKTSAR,MALOUT,PUNJAB
"STATE BANK OF PATIALA",STBP0001175,NA,"SBC COLLEGE OF ENGG","SBSCET, MOGA ROAD, FEROZEPUR CANTT-152004, PUNJAB",9779511779,FIROZPUR,FIROZPUR,PUNJAB
"STATE BANK OF PATIALA",STBP0001174,WAITING,"MODEL TOWN, KARNAL","SHOP NO 19 20, CHHOTI MARKET, MODEL TOWN, KARNAL 132001, DISTT KARNAL, HARYANA",2265092,KARNAL,KARNAL,HARYANA
"STATE BANK OF PATIALA",STBP0001172,WAITING,"SECTOR 19,FARIDABAD","SCF 42, HUDA MARKET, PART II,SECTOR 19,FARIDABAD,HARYANA",43176575,FARIDABAD,FARIDABAD,HARYANA
"STATE BANK OF PATIALA",STBP0001171,NA,"SECTOR 3,FARIDABAD","SCO 50,HUDA MARKET,SECTOR 3,FARIDABAD 121004,DISTT FARIDABAD,HARYANA",0,FARIDABAD,FARIDABAD,HARYANA
"STATE BANK OF PATIALA",STBP0001170,WAITING,AMB,"STATE BANK OF PATIALA, UNA ROAD, AMANDEEP MOTORS, AMB DT UNA, PIN 177203",1976260038,UNA,AMB,"HIMACHAL PRADESH"
"STATE BANK OF PATIALA",STBP0001169,WAITING,"MALL ROAD HOSHIARPUR","MALL ROAD, OPP. INCOME TAX OFFICE, HOSHIARPUR, PUNJAB 146001",243825,HOSHIARPUR,HOSHIARPUR,PUNJAB
"STATE BANK OF PATIALA",STBP0001168,184007001,"HATLI MORH","HATLI MORH, KATHUA, JAMMU KASHMIR",238731,KATHUA,HATLI,"JAMMU AND KASHMIR"
"STATE BANK OF PATIALA",STBP0001167,WAITING,"AVINASHI ROAD, COIMBATORE","BHARATHIYAR ROAD,PAPANAICKEN PALAYAM LAKSHMI MILLS JUNCTION,AVINASHI ROAD, COIMBATORE,DISTT COIMBATORE,PIN 641037",2240093,COIMBATORE,COIMBATORE,"TAMIL NADU"
"STATE BANK OF PATIALA",STBP0001166,NA,"VELACHERY,CHENNAI","VELACHERY MAIN ROAD,VELACHERY,CHENNAI,PIN 600042",22434400,CHENNAI,CHENNAI,"TAMIL NADU"
"STATE BANK OF PATIALA",STBP0001165,WAITING,TAMBARAM,"21/6, SUKH NIWAS, KAMARAJ STREET, TAMBARAM (WEST), DIST KANCHEEPURAM, TAMILNADU, PIN 600045",22262671,KANCHEEPURAM,TAMBARAM,"TAMIL NADU"
"STATE BANK OF PATIALA",STBP0001164,WAITING,ERNAKULAM,"39/4164, FIRST FLOOR, SHEMA BUILDING, M G ROAD, RAVIPURAM, KOCLHI, ERNAKULAM 682106",2356979,ERNAKULAM,ERNAKULAM,KERALA
"STATE BANK OF PATIALA",STBP0001163,WAITING,"BANAGALORE WHITE FIELD","KATHA NO 613, OLD NO 7, SY NO 2/1, ANMOL CARLSON COURT, WHITE FIELD MAIN ROAD, WHITE FIELD, BANGALORE, PIN 560066",28452256,"BANGALORE URBAN",BANGALORE,KARNATAKA
"STATE BANK OF PATIALA",STBP0001162,WAITING,"BANGALORE HSR LAYOUT","54, HSR LAYOUT, VI SECTOR, 17 CROSS, 12 MAIN, BANGALORE 560102",25723902,"BANGALORE URBAN",BANGALORE,KARNATAKA
"STATE BANK OF PATIALA",STBP0001161,NA,"BANASWADI,BANGALORE","21,OMBR LAYOUT,MAIN ROAD,BANASWADI,BANGALORE 560043,DISTT BANGALORE",0,"BANGALORE URBAN",BANGALORE,KARNATAKA
"STATE BANK OF PATIALA",STBP0001160,NA,"KOTHAPET,HYDERABAD","PLOT NO 80,81,90,91,KAUSTHUB TOWERS,CTO COLONY,KOTHAPET TO NAGOLE ROAD,KOTHAPET,HYDERABAD 500035,DISTT HYDERABAD,ANDHRA PRADESH",0,HYDERABAD,HYDERABAD,"ANDHRA PRADESH"
"STATE BANK OF PATIALA",STBP0001159,WAITING,"HANUMANGARH JUNCTION","SHOP NO 18, SRI GANGANAGAR ROAD, NEW DHAN MANDI,HANUMAN JUNCTION,PIN 335512,DISTT HANUMANGARH,RAJASTHAN",0,HANUMANGARH,HANUMANGARH,RAJASTHAN
"STATE BANK OF PATIALA",STBP0001158,WAITING,GHARUAN,"VPO GHARUN, TEHSIL KHARAR, DISTT SAS NAGAR,MOHALI,PIN 140413",2635633,RUPNAGAR,GHARUAN,PUNJAB
"STATE BANK OF PATIALA",STBP0001157,WAITING,"MOGA AKALSAR ROAD","AKALSAR ROAD MOGA",223472,MOGA,MOGA,PUNJAB
"STATE BANK OF PATIALA",STBP0001156,WAITING,"ALAMGARH, LUCKNOW","C 3 CINDERS DUMP YOJANA ALAMGARH LUCKNOW",0,LUCKNOW,LUCKNOW,"UTTAR PRADESH"
"STATE BANK OF PATIALA",STBP0001155,WAITING,"NARWANA ADB","PATIALA ROAD, NARWANA 126116, DISTT JIND, HARYANA",240194,JIND,NARWANA,HARYANA
"STATE BANK OF PATIALA",STBP0001154,NA,"AZAD NAGAR,HISAR","AZAD NAGAR,RAJGARH ROAD,HISAR,PIN 125001,DISTT HISAR,HARYANA",0,HISAR,HISAR,HARYANA
"STATE BANK OF PATIALA",STBP0001153,WAITING,MOHALI,"SCF - 55, PHASE - V, MOHALI, PUNJAB - 160059",2264988,RUPNAGAR,MOHALI,PUNJAB
"STATE BANK OF PATIALA",STBP0001152,WAITING,NADAUN,"JAI SHREE COMPLEX, JAI SHREE TEMPLE ROAD, NADAUN, DIST HAMIRPUR, PIN 177033",235214,HAMIRPUR,NADAUN,"HIMACHAL PRADESH"
"STATE BANK OF PATIALA",STBP0001151,WAITING,NARKANDA,"VPO NARKANDA,TEHSIL KUMARSAIN,DISTT SHIMLA,PIN 171213",242503,SIMLA,NARKANDA,"HIMACHAL PRADESH"
"STATE BANK OF PATIALA",STBP0001150,NA,"RAMA MANDI JALANDHAR","SETHI COMPLEX, RAMA MANDI, JALANDHAR CITY",2414248,JALANDHAR,JALANDHAR,PUNJAB
"STATE BANK OF PATIALA",STBP0001149,WAITING,"KAPURTHALA ROAD JALANDHAR","9 EKTA VIHAR 120,KAPURTHALA ROAD,DILBAGH NAGAR EXTN.,JALANDHAR CITY",2472233,JALANDHAR,JALANDHAR,PUNJAB
"STATE BANK OF PATIALA",STBP0001148,WAITING,"JALANDHAR (FOCAL POINT)","24 SERVICE INDUSTRY, BEHIND HP PETROL PUMP, TRANSPORT NAGAR, FOCAL POINT, JALANDHAR 144004",2601224,JALANDHAR,JALANDHAR,PUNJAB
"STATE BANK OF PATIALA",STBP0001147,WAITING,MANALI,"1ST FLOOR,GOVINDA SHOPING COMPLEX,OLD MISSION ROAD,THE MALL,MANALI,DISTT KULLU,PIN 175131",250060,KULU,MANALI,"HIMACHAL PRADESH"
"STATE BANK OF PATIALA",STBP0001146,WAITING,"KHUDI KALAN","PANCHAYAT BUILDING, NEAR GOVT PRIMARY SCHOOL, VPO KHUDI KALAN,TEHSIL BARNALA,DISTT BARNALA,PUNJAB,PIN 148107",285092,SANGRUR,BARNALA,PUNJAB
"STATE BANK OF PATIALA",STBP0001145,WAITING,BANIKHET,"VPO BANIKHET, TEH DALHOUSIE, DIST CHAMBA, PIN 176303",254466,CHAMBA,BANIKHET,"HIMACHAL PRADESH"
"STATE BANK OF PATIALA",STBP0001144,NA,RUDRAPRAYAG,"BADRINATH ROAD, RUDRAPRAYAG,UTTARAKHAND, PIN 246171",233518,RUDRAPRAYAG,RUDRAPRAYAG,UTTARAKHAND
"STATE BANK OF PATIALA",STBP0001143,NA,"GOPESHWAR CHAMOLI","NAGAR PALIKA BUILDING, NEAR PETROL PUMP,MANDAL ROAD,CHAMOLI GOPESHWAR,DISTT. CHAMOLI,PIN 246401",251090,CHAMOLI,"GOPESHWAR CHAMOLI",UTTARAKHAND
"STATE BANK OF PATIALA",STBP0001142,NA,ALMORA,"MUNICIPAL COMMITTEE SHOPPING COMPLEX,MALL ROAD,ALMORA,UTTARAKHAND,PIN 263601",233166,ALMORA,ALMORA,UTTARAKHAND
"STATE BANK OF PATIALA",STBP0001141,WAITING,KHAWANGI,"VILLAGE PO KHAWANGI, TEHSIL KALPA, DIST KINNAUR, PIN 172107, KIMACHAL PRADESH",223951,KINNAUR,KALPA,"HIMACHAL PRADESH"
"STATE BANK OF PATIALA",STBP0001136,WAITING,"CCPC,AMRITSAR","FIRST FLOOR,EAST MOHAN NAGAR, AMRITSAR-143001",2582032,AMRITSAR,AMRITSAR,PUNJAB
"STATE BANK OF PATIALA",STBP0001135,NA,AMRITSAR,"NEAR ARTS BLOCK,GURU NANAK DEV UNIVERSITY CAMPUS,AMRITSAR",2450042,AMRITSAR,AMRITSAR,PUNJAB
"STATE BANK OF PATIALA",STBP0001134,NA,SARKAGHAT,"VPO SARKAGHAT,TEHSIL SARKAGHAT, DISTT. MANDI,HIMACHAL PRADESH, PIN 175024",230539,MANDI,SARKAGHAT,"HIMACHAL PRADESH"
"STATE BANK OF PATIALA",STBP0001133,WAITING,NAURA,"AMLOH ROAD, VILL. NAURA, PO DANDRALA DHINDSA, TEHSIL NABHA, DISTT. PATIALA, PUNJAB, PIN 147201",266366,PATIALA,"DHANDRALA DHINDSAN",PUNJAB
"STATE BANK OF PATIALA",STBP0001132,WAITING,KHALINI,"THAKUR NIWAS,NEAR SHIMLA PUBLIC SCHOOL,KHALINI,SHIMLA,HIMACHAL PRADESH, PIN 171002",2623502,SIMLA,SIMLA,"HIMACHAL PRADESH"
"STATE BANK OF PATIALA",STBP0001131,WAITING,NINDANA,"NEAR TATA TOWER, NINDANA, TEHSIL MEHAM, DISTT. ROHTAK, HARYANA, PIN 124513",276333,ROHTAK,MEHAM,HARYANA
"STATE BANK OF PATIALA",STBP0001130,WAITING,SANGHOL,"VPO SANGHOL, TEHSIL KHAMANO, DISTT. FATEHGARH SAHIB, PUNJAB, PIN 141128",255633,"FATEHGARH SAHIB",SANGOL,PUNJAB
"STATE BANK OF PATIALA",STBP0001129,WAITING,SIDHAULI,"172, NAROTTAM NAGAR, SIDHAULI, DISTT. SITAPUR, U.P.,PIN 261303",0,SITAPUR,SIDHAULI,"UTTAR PRADESH"
"STATE BANK OF PATIALA",STBP0001128,WAITING,BACHHRAWAN,"NEAR GUPTA FILLING STATION, ALLAHABAD ROAD, BACHHRAWAN, DISTT. RAI BARELI, U.P., PIN 229301",2636626,"RAI BARELI","BACHHRAWAN-BACHHRAWAN TQ","UTTAR PRADESH"
"STATE BANK OF PATIALA",STBP0001127,WAITING,GOSAINGANJ,"PLOT NO 476, SANKALP FILLING STATION, NH 56, GOSAINGANJ, DISTT. LUCKNOW, U.P., PIN 227125",0,LUCKNOW,GOSAINGANJ,"UTTAR PRADESH"
"STATE BANK OF PATIALA",STBP0001126,WAITING,NOHAR,"HISSARIA COMPLEX, NEAR JAJU HOSPITAL, MAIN ROAD, RANI BAZAR, NOHAR, DISTT. HANUMANGARH, RAJASTHAN",221711,HANUMANGARH,NOHAR,RAJASTHAN
"STATE BANK OF PATIALA",STBP0001125,WAITING,RAWATSAR,"SHOP NO 39, NEW GRAIN MARKET, RAWATSAR, DISTT. HANUMANGARH, RAJASTHAN",231222,HANUMANGARH,RAWATSAR,RAJASTHAN
"STATE BANK OF PATIALA",STBP0001124,WAITING,SIALBA,"KHIJRABAD ROAD, VILL. SIALBA, PO SIALBA MAJRI, TEHSIL KHARAR, DISTT. SAS NAGAR, PUNJAB, PIN 140110",2643003,RUPNAGAR,KHARAR,PUNJAB
"STATE BANK OF PATIALA",STBP0001123,WAITING,"BAWANI KHERA","OPP DHARMBIR DEPTO, MAIN ROAD, BARWANI KHERA, HARYANA, PIN 127032",233133,BHIWANI,"BAWANI KHERA",HARYANA
"STATE BANK OF PATIALA",STBP0001122,WAITING,UTTARKASHI,"OPPOSITE PETROL PUMP, NEAR BUS STAND, BHATWARI ROAD, UTTARKASHI, UTTARKASHI, PIN 249193",0,"UTTAR KASHI",UTTARKASHI,UTTARAKHAND
"STATE BANK OF PATIALA",STBP0001121,WAITING,PAURI,"NEW VIKAS COLONY, SRINAGAR ROAD, PAURI, DISTT. GARHWAL, PIN 246001",0,GARHWAL,PAURI,UTTARAKHAND
"STATE BANK OF PATIALA",STBP0001120,WAITING,TEHRI,"T 12, BURARI ROAD, NEW TEHRI 249001, DISTT. TEHRI GARHWAL, UTTARAKHAND, PIN 249001",0,"TEHRI GARHWAL",TEHRI,UTTARAKHAND
"STATE BANK OF PATIALA",STBP0001119,131071119,"NEW GRAIN MARKET, GOHANA","SHOP NO 63, NEW GRAIN MARKET, GOHANA,DISTT. SONIPAT,HARYANA",257011,SONIPAT,GOHANA,HARYANA
"STATE BANK OF PATIALA",STBP0001118,WAITING,"MARDAN HERI","NEAR BUS STAND, VILL. MARDAN HERI, PO DAKALA, TEHSIL PATIALA, DISTT. PATIALA, PUNJAB, PIN 147001",2230063,PATIALA,DAKALA,PUNJAB
"STATE BANK OF PATIALA",STBP0001117,WAITING,"CHARKHI DADRI","CHARKHI DADRI, ROHTAK ROAD, HARYANA 127306",221528,BHIWANI,"CHARKHI DADRI",HARYANA
"STATE BANK OF PATIALA",STBP0001116,WAITING,KHAIRTHAL,"OPPOSITE PARSURAM, BHAWAN MATOUR ROAD, KHAIRTHAL,TEH KISHANGARH, DIST ALWAR, RAJASTHAN, PIN 301404",0,ALWAR,KHAIRTHAL,RAJASTHAN
"STATE BANK OF PATIALA",STBP0001115,WAITING,BHOPALGARH,"NEHRU CHOWK, OPP. PANCHYAT SAMITI, BHOPALGARH, DISTT. JODHPUR, RAJASTHAN, PIN 342603",222029,JODHPUR,BHOPALGARH,RAJASTHAN
"STATE BANK OF PATIALA",STBP0001114,WAITING,JHANWAR,"JATABAS, VPO JHANWAR, PAL ROAD, TEHSIL LUNI, DISTT. JODHPUR, RAJASTHAN, PIN 340001",275811,JODHPUR,JHANWAR,RAJASTHAN
"STATE BANK OF PATIALA",STBP0001113,WAITING,RAYLA,"BUS STAND, NEAR RAILWAY CROSSING, VPO RAYLA, TEH BANERA, DIST BHILWARA, RAJASTHAN, PIN 311024",273033,BHILWARA,BHILWARA,RAJASTHAN
"STATE BANK OF PATIALA",STBP0001112,WAITING,NATHDWARA,"TEHSIL ROAD, NEAR BUS STAND, NATHDWARA, DIST RAJSAMAND, RAJASTHAN, PIN 313301",230050,RAJSAMAND,NATHDWARA,RAJASTHAN
"STATE BANK OF PATIALA",STBP0001110,WAITING,SHAHPUR,"VPO SHAHPUR,NEAR TEHSIL OFFICE,DISTT. KANGRA,HIMACHAL PRADESH,PIN 176206",238138,KANGRA,SHAHPUR,"HIMACHAL PRADESH"
"STATE BANK OF PATIALA",STBP0001109,WAITING,KEYLONG,"VILLAGE KEYLONG,POST KEYLONG,TEHSIL LAHOUL,DISTT. LAHOUL SPITI,HIMACHAL PRADESH,PIN 175132",222301,"LAHUL & SPITI",KEYLONG,"HIMACHAL PRADESH"
"STATE BANK OF PATIALA",STBP0001108,WAITING,TIBBI,"NEAR BUS STAND,TIBBI,DIST. HANUMANGARH,RAJASTHAN,PIN 335526",224301,HANUMANGARH,TIBBI,RAJASTHAN
"STATE BANK OF PATIALA",STBP0001107,WAITING,TEONA,"BUS STAND ROAD,V PO  TOENA,TEHSIL  DIST. BATHINDA,PIN 151001",2428003,BATHINDA,BATHINDA,PUNJAB
"STATE BANK OF PATIALA",STBP0001106,WAITING,DHAMPUR,"OPP TEACHERS COLONY, KALAGARH ROAD, DHAMPUR, TEHSIL  DHAMPUR, DISTT BIJNOR, UP, PIN 246761",0,BIJNOR,DHAMPUR,"UTTAR PRADESH"
"STATE BANK OF PATIALA",STBP0001105,WAITING,CHHUTMALPUR,"NEAR MUSKAN PALACE, CHHUTMALPUR, TEHSIL  CHHUTMALPUR, DISTT SAHARANPUR, UP ,PIN 247662",0,SAHARANPUR,CHUTMALPUR,"UTTAR PRADESH"
"STATE BANK OF PATIALA",STBP0001104,WAITING,SARSAWA,"OPP BHARAT PETROLEUM PUMP, AMBALA ROAD, SARSAWA, TEHSIL  NAKUR, DISTT SAHARANPUR, UP, PIN 247232",244488,"LAKHIMPUR KHERI",SARSAWA,"UTTAR PRADESH"
"STATE BANK OF PATIALA",STBP0001103,WAITING,MAMDOT,"KAILASH MARKET,MAIN ROAD,VPO MAMDOT,,TEHSIL  DISTT. FEROZPUR,PUNJAB,PIN 152023",262140,FEROZPUR,MAMDOT,PUNJAB
"STATE BANK OF PATIALA",STBP0001102,WAITING,"FATEHGARH PANJTOOR","DHARAMKOT ROAD,V PO FATEHGARH,PANJTOOR-,TEHSIL ZIRA,DISTT. MOGA,PUNJAB,PIN 142051",269098,MOGA,"FATEHGARH PUNJTUR",PUNJAB
"STATE BANK OF PATIALA",STBP0001101,WAITING,"MANDI LADHUKA","V PO MANDI LADHUKA, TEHSIL FAZILKA,DIST  FEROZEPUR,PUNJAB,PIN 152123",221763,FEROZPUR,"LADHUKA MANDI",PUNJAB
"STATE BANK OF PATIALA",STBP0001100,WAITING,POWAYAN,"POWAYAN SHAHJAHANPUR ROAD, POWAYAN, DISTT SHAHJAHANPUR, U.P, PIN 242401",0,SHAJAHANPUR,POWAYAN,"UTTAR PRADESH"
"STATE BANK OF PATIALA",STBP0001099,WAITING,BIGHAPUR,"PATEL BHAWAN, VPO BIGHAPUR,TEHSIL  BIGHAPUR, DISTT  UNNAO, U.P, PIN 229503",246779,UNNAO,BIGHAPUR,"UTTAR PRADESH"
"STATE BANK OF PATIALA",STBP0001098,WAITING,BHADRA,"SAHWA ROAD,OPP. GANDHI PARK,BHADRA,DIST.HANUMANGARH,RAJASTHAN,PIN  335501",224098,HANUMANGARH,BHADRA,RAJASTHAN
"STATE BANK OF PATIALA",STBP0001097,WAITING,SANGRIA,"COURT ROAD,SANGRIA,DIST  HANUMANGARH,RAJASTHAN",222158,HANUMANGARH,SANGARIA,RAJASTHAN
"STATE BANK OF PATIALA",STBP0001096,WAITING,"DABLI RATHAN","OPP. NEW GRAIN MARKET,DABLI RATHAN,TEHSIL HANUMANGARH,DISTT. HANUMANGARH,RAJASTHAN,PIN 355801",283006,HANUMANGARH,HANUMANGARH,RAJASTHAN
"STATE BANK OF PATIALA",STBP0001095,WAITING,"SISAR KHAS","SISAR KHAS, TEHSIL MEHAM, DISTT. ROHTAK, HARYANA, PIN 124121",234046,ROHTAK,MEHAM,HARYANA
"STATE BANK OF PATIALA",STBP0001094,NA,MANDAL,"NEAR PETROL PUMP,OPPOSITE BALVIDYA MANDIR,BAEWER ROAD,MANDAL,DISTT BHILWARA",266133,BHILWARA,MANDAL,RAJASTHAN
"STATE BANK OF PATIALA",STBP0001093,WAITING,TIJARA,"WARD NO 12, G F NEAR OLD BUS STAND, OPP. IRRIGATION DEPTT REST HOUSE, TIJARA, DISTT  ALWAR, RAJASTHAN, PIN 301411",0,ALWAR,TIJARA,RAJASTHAN
"STATE BANK OF PATIALA",STBP0001092,WAITING,KARWAR,"RAJASTHAN AYURVED UNIVERSITY,NAGAUR ROAD,KARWAR,DIST JODHPUR,RAJASTHAN,PIN  342037",0,BUNDI,KARWAR,RAJASTHAN
"STATE BANK OF PATIALA",STBP0001091,NA,GULABPURA,"KUMHAR MOHALA,SADDAR BAZAR,GULABPURA,DISTT BHILWARA,PIN 311021",223050,BHILWARA,GULABPURA,RAJASTHAN
"STATE BANK OF PATIALA",STBP0001090,WAITING,HAMIRGARH,"STATION ROAD,NEAR BUS STAND,HAMIRGARH ,TEHSIL HAMIRGARH,DIST. BHILWARA,RAJASTHAN,PIN 311025",286040,BHILWARA,HAMIRGARH,RAJASTHAN
"STATE BANK OF PATIALA",STBP0001089,WAITING,KHANIAN,"AMLOH ROAD, VILLAGE  KHANIAN, PO AMLOH, TEHSIL  AMLOH, DISTT  FATEHGARH SAHIB, PUNJAB, PIN 147203",233027,"FATEHGARH SAHIB",AMLOH,PUNJAB
"STATE BANK OF PATIALA",STBP0001087,WAITING,"JHINGAR KALAN","V PO JHINGAR KALAN, ADDA GARNA SAHIB, PATHANKOT ROAD, TEHSIL DASUYA, DIST HOSHIARPUR PUNJAB, PIN 144205",251021,HOSHIARPUR,DASUYA,PUNJAB
"STATE BANK OF PATIALA",STBP0001086,WAITING,RAIYA,"NEAR BUS STOP,VPO RAIYA,TEHSIL RAMPURAPHUL,DISTT BATHINDA",241124,BATHINDA,"RAMPURA PHUL",PUNJAB
"STATE BANK OF PATIALA",STBP0001085,WAITING,"DYALPURA BHAIKA","NEAR GRAIN MARKET,VPO DYALPURA BHAIKA,TEHSIL RAMPURAPHUL,DISTT BATHINDA 151108",235410,BATHINDA,"RAMPURA PHUL",PUNJAB
"STATE BANK OF PATIALA",STBP0001084,NA,ABLU,"VPO ABLU,TEH DISTT BHATINDA",2765020,BATHINDA,BATHINDA,PUNJAB
"STATE BANK OF PATIALA",STBP0001083,WAITING,"KALA TIBBA","VPO KALA TIBBA,TEHSIL ABOHAR,DISTT FEROZEPUR 152116",230987,FEROZPUR,ABOHAR,PUNJAB
"STATE BANK OF PATIALA",STBP0001082,WAITING,"CHAND BHAN","VPO CHAND BHAN,TEHSIL JAITU,DISTT FARIDKOT 151202",235598,FARIDKOT,JAITU,PUNJAB
"STATE BANK OF PATIALA",STBP0001081,WAITING,DEHLON,"LUDHIANA  MALERKOTLA ROAD, VPO  DEHLON, TEHSIL  LUDHIANA, DISTT  LUDHIANA, PUNJAB, PIN 141418",2850034,LUDHIANA,DEHLON,PUNJAB
"STATE BANK OF PATIALA",STBP0001080,WAITING,SOHIAN,"JAGRAON  MOGA ROAD, VPO  SOHIAN,TEHSIL  JAGRAON, DISTT LUDHIANA, PUNJAB",234011,LUDHIANA,JAGRAON,PUNJAB
"STATE BANK OF PATIALA",STBP0001079,NA,KADDON,"KADDON PAYAL RD, NEAR MOBILE TRANSMISSION TOWER, VILL KADDON, TEHSIL PAYAL, DIST LUDHIANA, PIN 141421",258476,LUDHIANA,PAYAL,PUNJAB
"STATE BANK OF PATIALA",STBP0001078,WAITING,AITIANA,"VPO AITIANA,TEHSIL RAIKOT,DISTT LUDHIANA 141107",99490,LUDHIANA,RAIKOT,PUNJAB
"STATE BANK OF PATIALA",STBP0001077,WAITING,SHAMSHI,"NATIONAL HIGHWAY 21,CHANDIGARH MANALI ROAD,VPO SHAMSHI,TEHSIL KULLU, DIST  KULLU,HIMACHAL PRADESH,PIN 175126",266457,KULU,SHAMSHI,"HIMACHAL PRADESH"
"STATE BANK OF PATIALA",STBP0001076,WAITING,THEOG,"PREM GHAT,PO THEOG, TEHSIL THEOG,DISTT. SHIMLA,HIMACHAL PRADESH,PIN 171201",238911,SIMLA,THEOG,"HIMACHAL PRADESH"
"STATE BANK OF PATIALA",STBP0001075,WAITING,RAJGARH,"UCHHBU COMPLEX, MAIN BAZAR, RAJGARH, DISTT. SIRMAUR, HIMACHAL PRADESH, PIN 173101",220600,SIRMAUR,RAJGARH,"HIMACHAL PRADESH"
"STATE BANK OF PATIALA",STBP0001074,WAITING,BHUMPTI,"SHIVALAYA CHOWK,VPO  BHUMPTI,TEHSIL  ARKI,DIST  SOLAN,HIMACHAL PRADESH,PIN 173221",238333,SOLAN,ARKI,"HIMACHAL PRADESH"
"STATE BANK OF PATIALA",STBP0001073,WAITING,"BEHRAMPUR BET","ROPAR MACHHIWARA ROAD,VPO BEHRAMPUR BET,TEHSIL  CHAMKAUR SAHIB, DIST  RUPNAGAR,PUNJAB,PIN 140111",268200,RUPNAGAR,"BEHRAMPUR BET",PUNJAB
"STATE BANK OF PATIALA",STBP0001072,WAITING,SHAHJADPUR,"PLOT NO 1234-AB, OPP. REDDISH RESTAURANT, VPO SHAHJADPUR,TEHSIL  NARAINGARH, DISTT  AMBALA, HARYANA, PIN 134002",277173,AMBALA,NARAINGARH,PUNJAB
"STATE BANK OF PATIALA",STBP0001071,WAITING,SAKETRI,"OPPOSITE WATER TANK, VILLAGE SAKETRI, PO BHAINSA TIBBA, TEHSIL DISTT. PANCHKULA, HARYANA, PIN 134109",2555051,PANCHKULA,PANCHKULA,HARYANA
"STATE BANK OF PATIALA",STBP0001070,WAITING,NARUR,"VPO-NARUR,TEHSIL  PHAGWARA,DISTT  KAPURTHALA,PUNJAB, PIN 144405",243038,KAPURTHALA,PHAGWARA,PUNJAB
"STATE BANK OF PATIALA",STBP0001069,WAITING,LOHGARH,"MEHAL KALAN CHHAPA ROAD,VILLAGE  LOHGARH, PO MITHEWAL, TEHSIL BARNALA, DISTT BARNALA,PUNJAB,PIN 148020",221005,SANGRUR,BARNALA,PUNJAB
"STATE BANK OF PATIALA",STBP0001068,WAITING,NAMOL,"GURUDWARA NANAK PURI, LONGOWAL ROAD, NAMOL,TEHSIL SUNAM,DISTT. SANGRUR,PUNJAB, PIN 148106",286116,SANGRUR,SUNAM,PUNJAB
"STATE BANK OF PATIALA",STBP0001067,WAITING,"SULAR GHARAT","VPO SULAR GHARA,SANGRUR PATRAN MAIN ROAD,TEH SUNAM,DISTT SANGRUR,PIN 148035",238740,SANGRUR,SULARGHRAT,PUNJAB
"STATE BANK OF PATIALA",STBP0001066,500007005,SHAMSHABAD,"NO 20-114/3, RB NAGAR, SHAMSHABAD, DIST RANGA REDDY, ANDHRA PRADESH, PIN 501218",223471,RANGAREDDY,SHAMSHABAD,"ANDHRA PRADESH"
"STATE BANK OF PATIALA",STBP0001064,WAITING,"RED HILLS","GNT ROAD, RED HILLS, CHENNAI VIJAYWADA ROAD, TEHSIL AMBATTUR, DIST THIRUVALLUR, TAMILNADU, PIN 600052",26310185,THIRUVALLUR,AMBATTUR,"TAMIL NADU"
"STATE BANK OF PATIALA",STBP0001063,WAITING,BOHATWALA,"JIND ROAD, VILL. BOHATWALA, PO DALAMWALA, TEHSIL DISTT. JIND, HARYANA, PIN 126102",285162,JIND,JIND,HARYANA
"STATE BANK OF PATIALA",STBP0001062,WAITING,ADHOYA,"VILLAGE ADHOYA, PO DIWANA, TEHSIL PEHOWA, DIST KURUKSHETRA, HARYANA, PIN 136128",275101,KURUKSHETRA,PEHOWA,HARYANA
"STATE BANK OF PATIALA",STBP0001061,WAITING,KHARKARA,"VPO- KHARKARA, TEHSIL  GUHLA, DISTT  KAITHAL, HARYANA, PIN 136034",236128,ROHTAK,KHARKARA,HARYANA
"STATE BANK OF PATIALA",STBP0001049,WAITING,"TALWANDI BUTIAN","VPO TALWANDI BUTIAN, TEHSIL SHAHKOT, DISTT. JALANDHAR, PUNJAB, PIN 144702",275007,JALANDHAR,SHAHKOT,PUNJAB
"STATE BANK OF PATIALA",STBP0001048,WAITING,BANBHORI,"JAI MATA NURSING SCHOOL COLLEGE COMPLEX, VPO BANBHORI,TEHSIL BARWALA,DISTT  HISSAR, HARYANA, PIN 125122",0,HISAR,BARWALA,HARYANA
"STATE BANK OF PATIALA",STBP0001047,WAITING,"JANDLI KHURD","FATEHABAD ROAD, V & PO JANDLI KHURD, DIST. FATEHABAD, HARYANA 125111",255425,FATEHABAD,FATEHABAD,HARYANA
"STATE BANK OF PATIALA",STBP0001033,NA,"SHAM CHAURASI","VPO SHAM CHAURASI, DISTT HOSHIARPUR,PUNJAB,PIN 144102",263101,HOSHIARPUR,"SHAM CHAURASI",PUNJAB
"STATE BANK OF PATIALA",STBP0001032,WAITING,SAMBA,"OPPOSITE BHARGAWA DEGREE COLLEGE, NATIONAL HIGHWAY,SAMBA, TEHSIL DISTT. SAMBA, PIN 184121",0,SAMBA,SAMBA,"JAMMU AND KASHMIR"
"STATE BANK OF PATIALA",STBP0001031,WAITING,KHEMKARAN,"MAIN BAZAR, VPO KHEMKARAN,TEHSIL PATTI, DISTT. TARAN TARAN, PIN 143419",268085,AMRITSAR,"KHEM KARAN",PUNJAB
"STATE BANK OF PATIALA",STBP0001030,110007074,BHIKHIWIND,"KHEM KARAN ROAD,VPO BHIKHIWIND,TEHSIL-PATTI,PIN-143003",273291,AMRITSAR,BHIKIWIND,PUNJAB
"STATE BANK OF PATIALA",STBP0001029,WAITING,AJNALA,"CHOGWAN ROAD, AJNALA, DISTT  AMRITSAR, PUNJAB, PIN 143102",220080,AMRITSAR,AJNALA,PUNJAB
"STATE BANK OF PATIALA",STBP0001028,WAITING,"JAMSHER KHAS","V PO JAMSHER KHAS, TEHSIL DIST JALANDHAR, PUNJAB, PIN 144020",2775776,JALANDHAR,JALANDHAR,PUNJAB
"STATE BANK OF PATIALA",STBP0001027,WAITING,NADALA,"DHILWAN ROAD,VPO NADALA,DISTT KAPURTHALA",270200,KAPURTHALA,NADALA,PUNJAB
"STATE BANK OF PATIALA",STBP0001026,NA,"MANSA- NEW COURT COMPLEX","NEW COURT COMPLEX, COURT ROAD,MANSA- 151505",232146,MANSA,MANSA,PUNJAB
"STATE BANK OF PATIALA",STBP0001025,WAITING,"FARIDKOT MINI SECRETARIATE","FARIDKOT MINI SECRETARIATE,PUNJAB",253188,FARIDKOT,FARIDKOT,PUNJAB
"STATE BANK OF PATIALA",STBP0001024,151007014,BATHINDA-PB,"SCO NO.11-12,URBANESTATE,PHASE-2,BHATINDA-151001,PUNJAB",2240251,BATHINDA,BATHINDA,PUNJAB
"STATE BANK OF PATIALA",STBP0001023,110007073,MANESAR,"AMARPALI COPORATE CENTRE,GROUND FLOOR,BLOCK-J,SECTOR 2,IMT MANESAR,DIST-GURGAON,PIN-122050",2291223,GURGAON,MANESAR,HARYANA
"STATE BANK OF PATIALA",STBP0001022,WAITING,"TALWANDI, KOTA","1-A-3, TALWANDI, IL CHORAHA, KOTA, RAJASTHAN 324005",9462728460,KOTA,KOTA,RAJASTHAN
"STATE BANK OF PATIALA",STBP0001021,110007072,"NOIDA SECTOR 63","H-1,A-7,SECTOR-63,DIST-GAUTAM BUDH NAGAR,NOIDA- 201301,UP",2427120,"GAUTAM BUDDHA NAGAR",NOIDA,"UTTAR PRADESH"
"STATE BANK OF PATIALA",STBP0001020,110007071,"JASOLA,NEW DELHI","48,POCKET 1,1ST FLOOR,JASOLA,NEW DELHI,PIN-110025",29947562,DELHI,DELHI,DELHI
"STATE BANK OF PATIALA",STBP0001019,110007070,"ALPHA 1,GREATER NOIDA","KAISONS ALPHA SQUARE,A-3,ALPHA COMMERCIAL BELT,ALPHA-1,GREATER NOIDA,PIN-201308",2396150,"GAUTAM BUDDHA NAGAR",NOIDA,"UTTAR PRADESH"
"STATE BANK OF PATIALA",STBP0001018,160007063,"MOHALI,SECTOR-67","NIPER, SECTOR-67, MOHALI,DIST-SAS NAGAR,PUNJAB,PIN-160062",2232363,RUPNAGAR,"SAS NAGAR(MOHALI)",PUNJAB
"STATE BANK OF PATIALA",STBP0001017,160007062,"CHANDIGARH,SECTOR-19 C","SCO NO. 21-22, SECTOR 19-C CHANDIGARH 160019",2724910,CHANDIGARH,CHANDIGARH,CHANDIGARH
"STATE BANK OF PATIALA",STBP0001016,110007069,"GHAZIABAD, SHASHTRI NAGAR","SI-7,SHASHTRI NAGAR GHAZIABAD,UP",2705183,GHAZIABAD,GHAZIABAD,"UTTAR PRADESH"
"STATE BANK OF PATIALA",STBP0001015,NA,"HARDWAR,SHIVALIK NAGAR","D-23,SHIVALIK NAGAR, HARDWAR, DISTT HARDWAR UTTRAKHAND",231808,HARIDWAR,HARDWAR,UTTARAKHAND
"STATE BANK OF PATIALA",STBP0001014,400007017,KANDIVALI,"SHOP NO.1-5,GND FLOOR,ANITA ACCORD,LOKHANDVALA COMPLEX,MHADA LAYOUT,AKURLI ROAD,KANDIVALI EAST,MUMBAI-400101",29660037,"GREATER BOMBAY",MUMBAI,MAHARASHTRA
"STATE BANK OF PATIALA",STBP0001013,NA,LANDRA,"KHARAR-BANUR ROAD,NEAR MAIN BUS STAND,VPO-LANDRAN,DIST-SAS NAGAR,PUNJAB-140307",2252146,RUPNAGAR,LANDRAN,PUNJAB
"STATE BANK OF PATIALA",STBP0001012,NA,"IBBAN,PTU","KAPURTHALA,JALANDHAR ROAD,NEAR PTU,IBBAN,DISTT.-KAPURTHALA",255009,KAPURTHALA,IBBAN,PUNJAB
"STATE BANK OF PATIALA",STBP0001000,NA,BHIWADI,"A-96 H, NEELAM CHOWK,BHIWADI-301019,DIST-ALWAR,RAJASTHAN",226338,ALWAR,BHIWADI,RAJASTHAN
"STATE BANK OF PATIALA",STBP0000995,110007067,"GURGAON -KHANDSA ROAD","SCO-72,SECTOR,10-A MARKET,KHANDSA ROAD,GURGAON-122001,DIST-GURGAON,HARYANA",4141830,GURGAON,KHANDSA,HARYANA
"STATE BANK OF PATIALA",STBP0000992,NA,"NANGAL KALAN-TAHLIWAL","VPO-TAHLIWAL,TEHSIL-HARSOLI,DIST-UNA,HIMACHAL PRADESH",257392,UNA,TAHLIWALA,"HIMACHAL PRADESH"
"STATE BANK OF PATIALA",STBP0000991,126007991,"SAFIDON,OPP GOVT SR SEC SCHOOL","MUNICIPAL  COMMITTEE AREA,OPP GOVT SR SEC SCHOOL, SAFIDON-126112 DIST-JIND,HARYANA",262253,JIND,SAFIDON,HARYANA
"STATE BANK OF PATIALA",STBP0000990,NA,"NABHA-PATIALA ROAD","OPP LIC OFFICE,PATIALA  ROAD,NABHA,DIST-PATIALA,PUNJAB,PIN-147201",223336,PATIALA,NABHA,PUNJAB
"STATE BANK OF PATIALA",STBP0000989,NA,"ABOHAR,JAIN NAGAR","JAIN NAGAR,ABOHAR,DIST-FEROZPUR,PUNJAB",220615,FEROZPUR,ABOHAR,PUNJAB
"STATE BANK OF PATIALA",STBP0000988,NA,BAJAKHANA,"BARNALA ROAD,VPO- BAJAKHANA, DIST-FARIDKOT",246140,FARIDKOT,BAJAKHANA,PUNJAB
"STATE BANK OF PATIALA",STBP0000987,NA,AJITWAL,"OPP TEELPHONE EXCHANGE,G T ROAD,AJITWAL-142053,DIST- MOGA,PUNJAB",263133,MOGA,AJITWAL,PUNJAB
"STATE BANK OF PATIALA",STBP0000986,NA,RAMSARA,"VILL. RAMSARA, P.O. RAMAN, TEH. TALWANDI SABO, DISTT. BATHINDA",242561,BATHINDA,RAMAN,PUNJAB
"STATE BANK OF PATIALA",STBP0000985,NA,GHUDDA,"VILL. GHUDDA PO GHUDDA DISTT BATHINDA PUNJAB",2425862,BATHINDA,BATHINDA,PUNJAB
"STATE BANK OF PATIALA",STBP0000984,WAITING,"BORIVALI ,MUMBAI","GANJAWALA RESIDENCY,GANJAWALA LANE,BORIVALI WEST,MUMBAI 400092",28945334,"GREATER BOMBAY",MUMBAI,MAHARASHTRA
"STATE BANK OF PATIALA",STBP0000983,400007016,"CHEMBUR,MUMBAI","THE BUREAU, PLOT NO 447, R C MARG, M WARD,CHEMBUR-EAST,MUMBAI,PIN-400071",25298013,"GREATER BOMBAY",MUMBAI,MAHARASHTRA
"STATE BANK OF PATIALA",STBP0000981,WAITING,"KURUKSHETRA PIPLI ROAD","NEAR PAYAL NURSING HOME, PIPLI ROAD KURUKSHETRA DISTT KURUKSHETRA HARYANA",0,KURUKSHETRA,KURUKSHETRA,HARYANA
"STATE BANK OF PATIALA",STBP0000980,NA,PAKHOWAL,"RAIKOT ROAD, OPP GRAIN MARKET,VILL & POST PAKHOWAL DISTT LUDHIANA PUNJAB",2866662,LUDHIANA,LUDHIANA,PUNJAB
"STATE BANK OF PATIALA",STBP0000979,110007074,"DELHI-MODEL TOWN 1","B 5/2 ,NEAR METRO STATION, MODEL TOWN 1,DELHI-110009",27232900,DELHI,DELHI,DELHI
"STATE BANK OF PATIALA",STBP0000978,NA,"NARNAUL ROAD","NARNAUL ROAD MOHINDERGARH,HARYANA -123029",221100,MOHINDERGARH,MOHINDERGARH,HARYANA
"STATE BANK OF PATIALA",STBP0000977,NA,MEHATPUR,"STATE BANK OF PATIALA MEHATPUR, DISTT. JALLANDHAR-144041",251655,JALANDHAR,MAHATPUR,PUNJAB
"STATE BANK OF PATIALA",STBP0000976,NA,BHOLATH,"STATE BANK OF PATIALA BHOLATH, DISTT. KAPURTHALA, PUNJAB-144622",240009,KAPURTHALA,BHOLATH,PUNJAB
"STATE BANK OF PATIALA",STBP0000975,NA,NARAINGARH,"NEAR PANJLASA CHOWK, SADHAURA ROAD NARAINGARH DISTT AMBALA HARYANA",0,AMBALA,AMBALA,HARYANA
"STATE BANK OF PATIALA",STBP0000974,NA,KALANWALI,"STATE BANK OF PATIALA, PLOT NO 10,NEAR MARKET COMMITTEE, KALANWALI, DIST-SIRSA,HARYANA",0,SIRSA,KALANWALI,HARYANA
"STATE BANK OF PATIALA",STBP0000971,NA,"NEW MC MARKET, SIRSA","203-204, NEW M C MARKET, OLD CIVIL HOSPITAL ROAD, SIRSA",235941,SIRSA,SIRSA,HARYANA
"STATE BANK OF PATIALA",STBP0000970,NA,"ANAJ MANDI, FATEHABAD","BEHIND ANAJ MANDI, FATEHABAD",225455,FATEHABAD,FATEHABAD,HARYANA
"STATE BANK OF PATIALA",STBP0000969,WAITING,"PANCHKULA SECTOR 4","SCO 40, SECTOR 4 PANCHKULA DISTT PANCHKULA HARYANA",258077,PANCHKULA,PANCHKULA,HARYANA
"STATE BANK OF PATIALA",STBP0000968,NA,KOHARA,"STATE BANK OF PATIALA, OPPOSITE TELEPHONE EXCHANGE, MACHHIWARA ROAD, KOHARA,THE.& DIST-LUDHIANA",2848335,LUDHIANA,KOHARA,PUNJAB
"STATE BANK OF PATIALA",STBP0000967,NA,SHERPUR,"VILL. SHERPUR POST SHERPUR TEHSIL DHURI DISTT SANGRUR PUNJAB",234568,SANGRUR,SANGRUR,PUNJAB
"STATE BANK OF PATIALA",STBP0000966,WAITING,"SIRHIND G.T.ROAD","G.T.ROAD SIRHIND DISTT FATEHGARH SAHIB",229966,"FATEHGARH SAHIB",SIRHIND,PUNJAB
"STATE BANK OF PATIALA",STBP0000965,NA,"DHURI,MALERKOTLA ROAD","MALERKOTLA ROAD,DHURI-148024,TEHSIL-DHURI,DIST-SANGRUR,PUNJAB",225680,SANGRUR,DHURI,PUNJAB
"STATE BANK OF PATIALA",STBP0000949,160007058,"CHANDIGARH SECTOR-35C","STATE BANK OF PATIALA SCO 439-440 SECTOR 35C ,CHANDIGARH-160022",0,CHANDIGARH,CHANDIGARH,CHANDIGARH
"STATE BANK OF PATIALA",STBP0000935,151007040,"AGRI CPC KOTKAPURA","AGRI CENTRAL PROCESSING CENTRE, 1ST FLOOR, SATTA BAZAR, KOTKAPURA, FARIDKOT-151204",228828,FARIDKOT,"KOT KAPURA",PUNJAB
"STATE BANK OF PATIALA",STBP0000934,NA,"MINI SECTT., ROHTAK","MINI SECTT. , ROHTAK ┬û 124 001",246483,ROHTAK,ROHTAK,HARYANA
"STATE BANK OF PATIALA",STBP0000933,110007065,"MID CORPORATE GROUP, GURGAON","91, IDC, 1ST FLOOR, M.G. ROAD, GURGAON",2220990,GURGAON,GURGAON,HARYANA
"STATE BANK OF PATIALA",STBP0000932,NA,"NEW GRAIN MARKET, FAZILKA","SCF-66, NEW GRAIN MARKET, FAZILKA",265452,FEROZPUR,FAZILKA,PUNJAB
"STATE BANK OF PATIALA",STBP0000931,160007056,"SEC-40 CHANDIGARH","GOVT. MODEL SENIOR SECONDARY SCHOOL, SEC-40 CHANDIGARH",2691289,CHANDIGARH,CHANDIGARH,CHANDIGARH
"STATE BANK OF PATIALA",STBP0000930,110007064,"DWARKA, SECTOR 6, DELHI","PLOT NO.6, AGGARWAL DWARKA PLAZA, 1ST FLOOR, SECTOR -6 ,DWARKA,  NEW DELHI ┬û 110 075",25071991,"NEW DELHI",DELHI,DELHI
"STATE BANK OF PATIALA",STBP0000929,NA,"VIDYUT NAGAR HISSAR","SHOP NO. 1 TO 4, DBVNL SHOPPING COMPLEX, VIDYUT NAGAR, HISSAR-125005",223053,HISAR,HISAR,HARYANA
"STATE BANK OF PATIALA",STBP0000928,141007020,"AGAR NAGAR LUDHIANA","SCF 21-22, A-BLOCK, AGAR NAGAR FEROZEPUR ROAD,LUDHIANA-141012",2550461,LUDHIANA,LUDHIANA,PUNJAB
"STATE BANK OF PATIALA",STBP0000926,141007019,"MODEL TOWN LUDHIANA","SCO-12-13, MODEL TOWN EXTN.,D-BLOCK,DUGRI ROAD, LUDHIANA-141003",2500563,LUDHIANA,LUDHIANA,PUNJAB
"STATE BANK OF PATIALA",STBP0000925,141007018,"GIASPURA LUDHIANA","71,FAMEZ TOWER, GIASPURA, G.T.ROAD, LUDHIANA-141012",2510224,LUDHIANA,LUDHIANA,PUNJAB
"STATE BANK OF PATIALA",STBP0000924,WAITING,MADHAPUR,"STATE BANK OF PATIALA  1-99/14, FIRST FLOOR, MAIN ROAD, MADHAPUR, HYDERABAD-500081",23111471,RANGAREDDY,MADHAPUR,"ANDHRA PRADESH"
"STATE BANK OF PATIALA",STBP0000923,600007008,"AMBAL NAGAR, CHENNAI","9/1, POONTHAMALLE ROAD,AMBAL NAGAR, EKKATTUTHANGAL, CHENNAI ┬û 600 032",22254815,CHENNAI,CHENNAI,"TAMIL NADU"
"STATE BANK OF PATIALA",STBP0000922,560007005,"ELECTRONIC CITY, BANGALORE","STATE BANK OF PATIALA, ELECTRONIC CITY BRANCH, MEENAKSHI TOWERS, 1/43/2, SINGASANDRA, HOSUR MAIN ROAD, BANGALORE - 560 068",25743762,"BANGALORE URBAN",BANGALORE,KARNATAKA
"STATE BANK OF PATIALA",STBP0000921,NA,BARAMATI,"STATE BANK OF PATIALA, 1,2, VIDYA CORNER, MIDC, BARAMATI-413133",244323,PUNE,BARAMATI,MAHARASHTRA
"STATE BANK OF PATIALA",STBP0000919,395007003,"BHATAR ROAD, SURAT","1ST FLOOR, SHEETAL SHOPPING SQUARE, NEAR TURNING POINT, BHATAR ROAD,SURAT",9427302954,SURAT,SURAT,GUJARAT
"STATE BANK OF PATIALA",STBP0000918,411007003,"BANER, PUNE","1,2,3, ADAMS COURT, BANER ROAD, BANER, PUNE ┬û 411 045",27290888,PUNE,PUNE,MAHARASHTRA
"STATE BANK OF PATIALA",STBP0000917,160007001,TANDA,"R P GOVT COLLEGE, TANDA-1761, DIST-KANGRA",267230,KANGRA,KANGRA,"HIMACHAL PRADESH"
"STATE BANK OF PATIALA",STBP0000909,WAITING,"KARNAL DNM HIGH SCHOOL","DAYANAND MODEL HIGH SCHOOL,MELA RAM SCHOOL MARKET,MUGHAL CANAL,KARNAL-132001",2268321,KARNAL,KARNAL,HARYANA
"STATE BANK OF PATIALA",STBP0000908,WAITING,"ZONAL OFFICE MUMBAI","UNIT 603, 604, 6 FLOOR, B WING, KOHINOOR CITY, COMMERCIAL I, KIROL ROAD, OFF LBS MARG, KURLA WEST, MUMBAI 400070",25046274,"GREATER BOMBAY",MUMBAI,MAHARASHTRA
"STATE BANK OF PATIALA",STBP0000905,160007905,"ZO CHANDIGARH","S C O 99 107 SECTOR 8 C CHANDIGARH",2715758,CHANDIGARH,CHANDIGARH,CHHATTISGARH
"STATE BANK OF PATIALA",STBP0000900,WAITING,"GURGAON SOHNA ROAD","SCO-30, JAIL COMPLEX, SOHNA ROAD, GURGAON-122001",2300059,GURGAON,GURGAON,HARYANA
"STATE BANK OF PATIALA",STBP0000899,WAITING,"BHATTU KALAN","SHOP-155, GRAIN MARKET, BHATTUKALAN",252633,FATEHABAD,"BHATTU KALAN",HARYANA
"STATE BANK OF PATIALA",STBP0000897,416007002,KOLHAPUR,"STATE BANK OF PATIALA 14, SURVE COLONY, TARA BAI PARK, KOLHAPUR, MAHARASHTRA - 416 003",2661160,KOLHAPUR,KOLHAPUR,MAHARASHTRA
"STATE BANK OF PATIALA",STBP0000896,WAITING,AURANGABAD,"RAMDAS TOWER, PLOT NO-3 KALPATARU HOUSING SOCIETY GAJANAN  MANDIR TO CIDCO ROAD, GARKHEDA, AURANGABAD-431005",2453235,AURANGABAD,AURANGABAD,MAHARASHTRA
"STATE BANK OF PATIALA",STBP0000895,452007003,"MID CORPORATE INDORE","STATE BANK OF PATIALA MID CORPORATE BRANCH, ORBIT MALL, LOWER GROUND FLOOR,53 & 53A SCHEME NO.54 A B ROAD INDORE-452010",4246392,INDORE,INDORE,"MADHYA PRADESH"
"STATE BANK OF PATIALA",STBP0000894,WAITING,UKLANA,"CHHABIL DAS COLONY, NEAR OLD MARVEL FACTORY, UKLANA",235567,HISSAR,UKLANA,HARYANA
"STATE BANK OF PATIALA",STBP0000893,160007054,CHANDIGARH,"SCO-210, SEC-36D, CHANDIGARH",2606010,CHANDIGARH,CHANDIGARH,CHANDIGARH
"STATE BANK OF PATIALA",STBP0000888,WAITING,"BARNALA S.D. COLLEGE","S D COLLEGE, BARNALA(PUNJAB)",232137,SANGRUR,BARNALA,PUNJAB
"STATE BANK OF PATIALA",STBP0000887,WAITING,INDRI,"AMAR MARKET, NEAR PATWAR KHANNA, INDRI",2382855,KARNAL,INDRI,HARYANA
"STATE BANK OF PATIALA",STBP0000886,WAITING,ISMAILBAD,"AMBALA-HISSAR ROAD, PASRICHA MARKET, ISMAILABAD-136129",253600,KURUKSHETRA,ISMAILBAD,HARYANA
"STATE BANK OF PATIALA",STBP0000885,WAITING,"ST. STEPHEN SCHOOL, SECTOR-45","ST. STEPHEN SCHOOL, SECTOR-45, CHANDIGARH - 160047",2648005,CHANDIGARH,CHANDIGARH,CHANDIGARH
"STATE BANK OF PATIALA",STBP0000884,WAITING,BARIWALA,"STATE BANK OF PATIALA V & PO BARIWALA, TEHSIL & DISTT.- MUKTSAR-152025",275500,MUKTSAR,BARIWALA,PUNJAB
"STATE BANK OF PATIALA",STBP0000883,WAITING,PINJORE,"194, NALAGARH ROAD, PINJORE, DISTT. PANCHKULA",230212,PANCHKULA,PINJORE,HARYANA
"STATE BANK OF PATIALA",STBP0000882,WAITING,RANCHI,"CHAMBERS BHAVAN KADROO MORE, MAIN ROAD RANCHI-834001",9470193952,RANCHI,RANCHI,JHARKHAND
"STATE BANK OF PATIALA",STBP0000880,WAITING,KARUR,"STATE BANK OF PATIALA, NO. 1044, KBS ARCADE, IST FLOOR, COVAI ROAD, KARUR-639002",248797,KARUR,KARUR,"TAMIL NADU"
"STATE BANK OF PATIALA",STBP0000879,380007005,"MID CORPORATE AHMEDABAD","STATE BANK OF PATIALA, MID CORPORATE BRANCH, OPP. JAIN DEVASAR, NAVRANGPUR,AHMEDABAD",26448710,AHMEDABAD,AHMEDABAD,GUJARAT
"STATE BANK OF PATIALA",STBP0000878,WAITING,KHARGHAR,"SHOP NO.6-9, BHOOMI TOWER, PLOT NO.28, SECTOR-4, KHARGHAR, DIST-RAIGAD, PIN-410210",27742530,"GREATER BOMBAY",MUMBAI,MAHARASHTRA
"STATE BANK OF PATIALA",STBP0000877,WAITING,VAPI,"SHOP NO.15-19, TIRUPATI PLAZA, VAPI DAMAN ROAD, CHALA, VAPI-398191",2460377,VALSAD,VAPI,GUJARAT
"STATE BANK OF PATIALA",STBP0000876,WAITING,KHANNA,"A.S.COLLEGE FOR WOMEN,AMLOH ROAD,KHANNA,DISTT.LUDHIANA(PUNJAB),PIN-14141",220725,LUDHIANA,KHANNA,PUNJAB
"STATE BANK OF PATIALA",STBP0000875,WAITING,"URBAN ESTATE , JALANDHAR","SCF NO.33 URBAN STATE PHASE-II JALANDHAR-144001",2463254,JALANDHAR,JALANDHAR,PUNJAB
"STATE BANK OF PATIALA",STBP0000874,WAITING,"MODEL TOWN JALANDHAR","716, MODEL TOWN, NEAR RANA HOSPITAL, JALANDHAR-144003",2463724,JALANDHAR,JALANDHAR,PUNJAB
"STATE BANK OF PATIALA",STBP0000873,WAITING,ADAMPUR,"MAIN HOSHIARPUR ROAD, ADAMPUR-144102",2751424,JALANDHAR,ADAMPUR,PUNJAB
"STATE BANK OF PATIALA",STBP0000872,WAITING,"BATHINDA MILK PLANT","VERKA MILK PLANT, DIST-BATHINDA -151001",2212624,BHATINDA,BATHINDA,PUNJAB
"STATE BANK OF PATIALA",STBP0000871,WAITING,NASHIK,"CIDCO AMBADLINK ROAD, UPENDERNAGAR, SHRADHA COMPLEX, NASIK-422009",2384718,NASHIK,NASHIK,MAHARASHTRA
"STATE BANK OF PATIALA",STBP0000870,WAITING,RAIPUR,"OPP RAJKUMAR COLLEGE, G.E. ROAD, RAIPUR-492001",2254701,RAIPUR,RAIPUR,CHANDIGARH
"STATE BANK OF PATIALA",STBP0000869,WAITING,RAJKOT,"KRISHNA CON ARCH-2, 8 TO 14, FIRST FLOOR, TAGORE ROAD RAJKOT-360002",2480234,RAJKOT,RAJKOT,GUJARAT
"STATE BANK OF PATIALA",STBP0000868,WAITING,MADURAI,"109 VAKIL NEW STREET SIMMAKKAL, MADURAI-625001",2325723,MADURAI,MADURAI,"TAMIL NADU"
"STATE BANK OF PATIALA",STBP0000867,WAITING,GHANAUR,"NEAR POLICE STATION,V&P.O.GHANAUR,TEHSIL RAJPURA,DISTT.PATIALA (PUNJAB),PIN-140702",267022,PATIALA,GHANAUR,PUNJAB
"STATE BANK OF PATIALA",STBP0000866,WAITING,"FARIDKOT,  GURU GOVIND SINGH MEDICAL COLLEGE","GURU GOVIND SINGH MEDICAL COLLEGE,SADIQ ROAD, FARIDKOT-151203",250179,FARIDKOT,FARIDKOT,PUNJAB
"STATE BANK OF PATIALA",STBP0000865,WAITING,"AMRITSAR CHHEHRATTA","G T ROAD, AMRITSAR(CHHEHRATTA), DIST- AMRITSAR-143105",2258040,AMRITSAR,AMRITSAR,PUNJAB
"STATE BANK OF PATIALA",STBP0000864,WAITING,"AMRITSAR CIVIL LINES","J K TOWER, CIVIL LINES MALL ROAD AMRITSAR-143001",5014635,AMRITSAR,AMRITSAR,PUNJAB
"STATE BANK OF PATIALA",STBP0000863,WAITING,HARIANA,"NEAR BAWA AUTOS,VILL+PO-HARIANA-144208",251499,HOSIARPUR,HARIANA,PUNJAB
"STATE BANK OF PATIALA",STBP0000862,WAITING,PANVEL,"24,TANISHQ HEIGHTS, MTNL ROAD, NEAR RUPALI CINEMA CIRCLE, PANVEL-410206",27482285,RAIGAD,PANVEL,MAHARASHTRA
"STATE BANK OF PATIALA",STBP0000861,WAITING,VALSAD,"DHARAMPUR ROAD, ABRAMA,VALSAD-396001",227242,VALSAD,BULSAR,GUJARAT
"STATE BANK OF PATIALA",STBP0000857,WAITING,"BATHINDA (SSD GIRLS COLLEGE)","SSD GIRLS COLLEGE, AMRIK SINGH ROAD, BATHINDA",2253239,BHATINDA,BATHINDA,PUNJAB
"STATE BANK OF PATIALA",STBP0000856,WAITING,"CHENNAI ADARSH VIDYALYA","NO. 202,204,206 ADARSH VIDYALYA, PETERS ROAD, CHENNAI",28524604,CHENNAI,CHENNAI,"TAMIL NADU"
"STATE BANK OF PATIALA",STBP0000855,WAITING,"RAMPURA BHARTIYA MODEL SCHOOL","BHARTIYA MODEL SCHOOL, PATIALA MANDI, RAMPURAPHUL",2221000,BHATINDA,"RAMPURA PHUL",PUNJAB
"STATE BANK OF PATIALA",STBP0000854,WAITING,MALAUD,"STATE BANK OF PATIALA, MALAUD, TEH-PAYAL, DIST-LUDHIANA",2859203,LUDHIANA,MALAUDH,PUNJAB
"STATE BANK OF PATIALA",STBP0000853,WAITING,GOLUWALA,"BASI DA MARKET, TEH-PILLIBANGAN, DIST-HANUMANGARH",220450,HANUMANGARH,"GOLUWALA NIWADAN",RAJASTHAN
"STATE BANK OF PATIALA",STBP0000852,WAITING,"MANDI JAITSAR","DHAN MANDI, JAITSAR, DIST-SRIGANGANAGAR",0,GANGANAGAR,JETSAR,RAJASTHAN
"STATE BANK OF PATIALA",STBP0000842,WAITING,BELA,"FARMACY COLLEGE, ROPAR ROAD, BELA,TEH-CHAMKAUR SAHIB, DIST-ROPAR",0,RUPNAGAR,BELA,PUNJAB
"STATE BANK OF PATIALA",STBP0000841,WAITING,"REC JALANDHAR","REGIONAL ENGINEERING COLLEGE JALANDHAR",2690695,JALANDHAR,JALANDHAR,PUNJAB
"STATE BANK OF PATIALA",STBP0000840,WAITING,"LEHRA MOHABAT","GHTP(GURU HARGOVIND THERMAL PLANT)TEH-RAMPURAPHUL,DIST-BHATINDA",0,BHATINDA,"LEHRA MOHBAT",PUNJAB
"STATE BANK OF PATIALA",STBP0000839,WAITING,DINANAGAR,"GT ROAD, OPP BUS STAND,DINANAGAR, ,DIST-GURDASPUR",224224,GURDASPUR,DINANAGAR,PUNJAB
"STATE BANK OF PATIALA",STBP0000838,WAITING,CHAHERU,"NEAR CHAHERU RAILWAY BRIDGE ,THE-PHAGWARA,DIST-KAPURTHALA",9878085082,KAPURTHALA,CHAHERU,PUNJAB
"STATE BANK OF PATIALA",STBP0000837,WAITING,"CHENNAI ADARSH COLLEGE","ANNA ADARSH COLLEGE, CHENNAI",26211192,CHENNAI,CHENNAI,"TAMIL NADU"
"STATE BANK OF PATIALA",STBP0000836,WAITING,BAGHA,"VILLAGE BAGHA, P.O. KANDHAR,BLOCK KUNIHAR, TEH. ARKI, DISTT. SOLAN H.P.",9418461137,SOLAN,ARKI,"HIMACHAL PRADESH"
"STATE BANK OF PATIALA",STBP0000835,WAITING,"PHAGWARA (GURU HARGOBIND NAGAR)","SCF-93, HARGOBIND NAGAR, PHAGWARA ┬û 144401",220051,KAPURTHALA,PHAGWARA,PUNJAB
"STATE BANK OF PATIALA",STBP0000834,WAITING,"PATHANKOT SMDRDSD COLLEGE,PATHANKOT","SMDRSD COLLEGE,COLLEGE ROAD ,PATHANKOT,DISTT-GURDASPUR(PUNJAB)",2240368,GURDASPUR,PATHANKOT,PUNJAB
"STATE BANK OF PATIALA",STBP0000833,WAITING,MANSA,"NEHRU MEMORIAL PG COLLEGE, MANSA",229292,MANSA,MANSA,PUNJAB
"STATE BANK OF PATIALA",STBP0000832,WAITING,"INDRA NAGAR, LUCKNOW","PLOT NO.1 & B, ISHWARPURI, SECTOR-12, INDRA NAGAR, LUCKNOW",9451175877,LUCKNOW,LUCKNOW,"UTTAR PRADESH"
"STATE BANK OF PATIALA",STBP0000831,WAITING,"SECTOR 15 D, CHANDIGARH","SCO NO.82-81, SECTOR-15 D, CHANDIGARH",2703805,CHANDIGARH,CHANDIGARH,CHANDIGARH
"STATE BANK OF PATIALA",STBP0000830,WAITING,"GREATER NOIDA","B2-B3 GAMMA SHOPPING MALL, GAMMA-1, JAGAT FARM, GREATER NOIDA",2322520,"GAUTAM BODDA NAGAR",NOIDA,"UTTAR PRADESH"
"STATE BANK OF PATIALA",STBP0000827,WAITING,"PANCHKULA,SEC-20","SCO-236,SEC-20,PANCHKULA",0,PANCHKULA,PANCHKULA,HARYANA
"STATE BANK OF PATIALA",STBP0000826,WAITING,"ALIGANJ LUCKNOW","AISHWARYA PLAZA - 1, BLOCK NO 4, SECTOR-4, ALIGANJ, LUCKNOW",2762202,LUCKNOW,LUCKNOW,"UTTAR PRADESH"
"STATE BANK OF PATIALA",STBP0000825,WAITING,"SECTOR 46-C, CHANDIGARH","SCF NO.84, SECTOR-46 C, CHANDIGARH",2620396,CHANDIGARH,CHANDIGARH,CHANDIGARH
"STATE BANK OF PATIALA",STBP0000824,WAITING,"AASHIANA,LUCKNOW","CP-5/I,SEC-I,ANURAG PLAZA,AASHIANA,LUCKNOW",2421152,LUCKNOW,LUCKNOW,"UTTAR PRADESH"
"STATE BANK OF PATIALA",STBP0000819,WAITING,TOSHAM,"NEAR PANCHAYAT BHAWAN,TOSHAM",0,BHIWANI,TOSHAM,HARYANA
"STATE BANK OF PATIALA",STBP0000818,WAITING,NISSING,"KAITHAL ROAD,NISSING",270400,KARNAL,NISANG,HARYANA
"STATE BANK OF PATIALA",STBP0000817,WAITING,"PANCHKULA,SEC-15","SCO-11,SEC-15,PANCHKULA",0,PANCHKULA,PANCHKULA,HARYANA
"STATE BANK OF PATIALA",STBP0000816,WAITING,"PANCHKULA,MDC,SEC-5","SC0-87,88,SWASTIK VIHAR,MDC,SEC-5,PANCHKULA",2555175,PANCHKULA,PANCHKULA,HARYANA
"STATE BANK OF PATIALA",STBP0000815,WAITING,BHILWARA,"6,S-1,BASANT VIHAR,BHILWARA-311001,",232080,BHILWARA,BHILWARA,RAJASTHAN
"STATE BANK OF PATIALA",STBP0000814,WAITING,FARRUKHNAGAR,"WAZIRPUR ROAD,NEAR ANAJ MANDI,FARRUKHNAGAR",2275430,GURGAON,FARRUKHNAGAR,HARYANA
"STATE BANK OF PATIALA",STBP0000813,WAITING,"ANDHERI(EAST),MUMBAI","KURLA ROAD-GROUND FLOOR,SHOP NO. 4&5,CENTRE POINT BUILDING,ANDHERI KURLA ROAD,CHAKALA,ANDHERI(EAST),MUMBAI",28208268,"GREATER BOMBAY",MUMBAI,MAHARASHTRA
"STATE BANK OF PATIALA",STBP0000812,WAITING,"MULUND(EAST), MUMBAI","KUMAR COOPERATIVE HOUSING SOCIETY,RDP-1,PLOT NO. 10,MHADA COLONY.MULUND EAST,MUMBAI",25630029,"GREATER BOMBAY",MUMBAI,MAHARASHTRA
"STATE BANK OF PATIALA",STBP0000811,WAITING,"MALAD(WEST), MUMBAI","SHOP NO.-4 MAHAPALIKA MARKET,NEAR VIKAS PARK,MIDCHOWKI,LINK ROAD. MALAD WEST,MUMBAI",28802271,"GREATER BOMBAY",MUMBAI,MAHARASHTRA
"STATE BANK OF PATIALA",STBP0000809,WAITING,"NARELA, NEW DELHI","HALL NO.103, FIRST FLOOR, DSIDC INDUSTRIAL COMPLEX, NARELA, NEW DELHI",27782060,"NEW DELHI",DELHI,DELHI
"STATE BANK OF PATIALA",STBP0000808,WAITING,"BHOWANIPUR,KOLKATA","15,ASHUTOSH MUKHERJEE MARG BHOWANIPUR KOLKATA",24867835,KOLKATA,KOLKATA,"WEST BENGAL"
"STATE BANK OF PATIALA",STBP0000784,WAITING,SURAT,"K.K.TOWERS,SURAT",2334552,SURAT,SURAT,GUJARAT
"STATE BANK OF PATIALA",STBP0000783,WAITING,TIRUPUR,"TWOWIN CHAMBERS,TIRUPUR DISTT-COIMBATORE (TAMILNADU)",2430008,COIMBOTORE,TIRUPUR,"TAMIL NADU"
"STATE BANK OF PATIALA",STBP0000782,WAITING,GANDHIDHAM,"PLOT NO. 20,VRINDAVAN COMPLEX,SECTOR-9,GANDHIDHAM-370201",226788,KUTCH,GANDHIDHAM,GUJARAT
"STATE BANK OF PATIALA",STBP0000781,WAITING,"MINI SECTT.JAGADHARI","MINI SECTT.JAGADHARI,DISTT-YAMUNANAGAR (HARYANA)",224405,YAMUNANAGAR,JAGADHRI,HARYANA
"STATE BANK OF PATIALA",STBP0000776,WAITING,GHUMARWIN,"NEAR RAJENDRA FILLING STATION, GHUMARWIN, DIST BILASPUR(HP)-174021",255776,BILASPUR,GHUMARWIN,"HIMACHAL PRADESH"
"STATE BANK OF PATIALA",STBP0000775,WAITING,PARPOLA,"PARPOLA TEHSIL BAIJNATH, DIST KANGRA , HIMACHAL PRADESH",0,KANGRA,KANGRA,"HIMACHAL PRADESH"
"STATE BANK OF PATIALA",STBP0000774,WAITING,MACHHIWARA,"MACHHIWARA, DIST LUDHIANA, PUNJAB",0,LUDHIANA,MACHHIWARA,PUNJAB
"STATE BANK OF PATIALA",STBP0000773,WAITING,"URBAN ESTATE P-II PATIALA","SC 122 URBAN ESTATE PHASE II PATIALA(PUNJAB)",0,PATIALA,PATIALA,PUNJAB
"STATE BANK OF PATIALA",STBP0000771,WAITING,"COMMERCIAL BR FARIDABAD","OM SHUBHAM TOWER,69-70-71 NEELAM BATA ROAD, FARIDABAD",0,FARIDABAD,FARIDABAD,HARYANA
"STATE BANK OF PATIALA",STBP0000770,WAITING,"TALWANDI BHAI ┬û FEROZPUR",FEROZPUR,0,FEROZEPUR,"TALWANDI BHAI",PUNJAB
"STATE BANK OF PATIALA",STBP0000769,WAITING,"JIND,DRDA","DRDA,JIND",288247,JIND,JIND,HARYANA
"STATE BANK OF PATIALA",STBP0000768,WAITING,"HAMIRPUR GOVT. POLYTECHNIC COLLEGE","HAMIRPUR GOVT. POLYTECHNIC COLLEGE",258565,HAMIRPUR,HAMIRPUR,"HIMACHAL PRADESH"
"STATE BANK OF PATIALA",STBP0000767,WAITING,"HOSHIARPUR (MSM)","MAHAVIR SPINNING MILLS",249239,HOSIARPUR,HOSHIARPUR,PUNJAB
"STATE BANK OF PATIALA",STBP0000766,WAITING,"BHIWANI ADARSH MAHILA MAHA VID",BHIWANI,224915,BHIWANI,BHIWANI,HARYANA
"STATE BANK OF PATIALA",STBP0000765,WAITING,"NILO - KHERI",KURUKSHETRA,0,KARNAL,NILOKHERI,HARYANA
"STATE BANK OF PATIALA",STBP0000764,WAITING,"BATHINDA DAC COMPLEX","DISTT ADMN COMP MINI SECTT BATHINDA",2222486,BHATINDA,BATHINDA,PUNJAB
"STATE BANK OF PATIALA",STBP0000763,WAITING,LADWA,LADWA,220466,KURUKSHETRA,LADWA,HARYANA
"STATE BANK OF PATIALA",STBP0000762,WAITING,"AMBALA HUDA SECTOR 9","AMBALA HUDA SECTOR 9",2643510,AMBALA,AMBALA,HARYANA
"STATE BANK OF PATIALA",STBP0000759,WAITING,"MOHALI SEC 70","SECTOR-70 SAS NAGAR MOHALI",2267007,RUPNAGAR,"SAS NAGAR(MOHALI)",PUNJAB
"STATE BANK OF PATIALA",STBP0000758,WAITING,RTGS-HO,"7TH FLOOR, ""SYNERGY"", SBILHO BUILDING, BKC, BANDRA EAST, MUMBAI",26445861,"GREATER BOMBAY",MUMBAI,MAHARASHTRA
"STATE BANK OF PATIALA",STBP0000757,WAITING,DHULKOTE,DHULKOTE,2254195,AMBALA,AMBALA,HARYANA
"STATE BANK OF PATIALA",STBP0000756,WAITING,"TOHANA I.G. GOVT. COLLEGE","TOHANA I.G. GOVT. COLLEGE",230153,FATEHABAD,TOHANA,HARYANA
"STATE BANK OF PATIALA",STBP0000755,WAITING,"AMBALA CANTT ARYA COLLEGE","AMBALA CANTT ARYA COLLEGE",2644523,AMBALA,"AMBALA CANTT.",HARYANA
"STATE BANK OF PATIALA",STBP0000754,WAITING,"SUNAM N.G.M.","NEW GRAIN MARKET,SUNAM(PUNJAB)",244781,SANGRUR,SUNAM,PUNJAB
"STATE BANK OF PATIALA",STBP0000753,WAITING,"GURGAON SUSHANT LOK","MILLENIUM PLAZA, TOWER-A, SECTOR 27, SUSHANT LOK , GURGAON",2573883,GURGAON,GURGAON,HARYANA
"STATE BANK OF PATIALA",STBP0000752,WAITING,"CHANDIGARH SEC 34","SECTOR-34 CHANDIGARH",2660620,CHANDIGARH,CHANDIGARH,CHANDIGARH
"STATE BANK OF PATIALA",STBP0000751,WAITING,JAMALPUR,"SECTOR 32, JAMALPUR LUDHIANA",2602221,LUDHIANA,LUDHIANA,PUNJAB
"STATE BANK OF PATIALA",STBP0000750,WAITING,"NEW DELHI PATPARGANJ","68A, PANDAV NAGAR, PATPARGANJ, NEW DELHI",22799401,"NEW DELHI",DELHI,DELHI
"STATE BANK OF PATIALA",STBP0000749,WAITING,"SEEPZ++,MUMBAI","BLOCK 1/002,SEEPZ++,ANDHERI(E),MUMBAI-400096",28293002,"GREATER BOMBAY",MUMBAI,MAHARASHTRA
"STATE BANK OF PATIALA",STBP0000748,WAITING,SITARGANJ,"KICHHA ROAD, SITTARGANJ  (UTTARAKHAND)",254205,"UDHAMSINGH NAGAR",SITARGANJ,UTTARAKHAND
"STATE BANK OF PATIALA",STBP0000747,WAITING,"RAJPURA K.S.M.","K.S.M, RAJPURA(PUNJAB)",224288,PATIALA,RAJPURA,PUNJAB
"STATE BANK OF PATIALA",STBP0000746,WAITING,"BHAGTA BHAI KA","JAITU BARNALA ROAD TEH PHUL TOWN",259310,BHATINDA,BHAGTA,PUNJAB
"STATE BANK OF PATIALA",STBP0000745,WAITING,ZIRAKPUR,"SCF-23 KALGIDHAR ENCLAVE PANCHKULA ROAD",271576,PATIALA,ZIRAKPUR,PUNJAB
"STATE BANK OF PATIALA",STBP0000744,WAITING,KHATIMA,"TANAKPUR ROAD, KHATIMA  (UTTARAKHAND)",250083,"UDHAMSINGH NAGAR",KHATIMA,UTTARAKHAND
"STATE BANK OF PATIALA",STBP0000743,WAITING,"GURU HAR SAHAI","OLD MANDI GURU HAR SAHAI",232795,FEROZEPUR,GURUHARSAHAI,PUNJAB
"STATE BANK OF PATIALA",STBP0000742,WAITING,LONGOWAL,"GAHU PATTI, LONGOWAL(PUNJAB)",283529,SANGRUR,LONGOWAL,PUNJAB
"STATE BANK OF PATIALA",STBP0000741,WAITING,KARSOG,"VPO KARSOG",203899,MANDI,KARSOG,"HIMACHAL PRADESH"
"STATE BANK OF PATIALA",STBP0000740,WAITING,"NER CHOWK","CAHDIAR COMPLEX MAVI ROAD",243349,MANDI,"NER CHOWK","HIMACHAL PRADESH"
"STATE BANK OF PATIALA",STBP0000739,WAITING,BHUNA,"JAKHAL ROAD DIST FATEHABAD",243162,FATEHABAD,BHUNA,HARYANA
"STATE BANK OF PATIALA",STBP0000738,WAITING,MULLANPUR,"JAGRAON ROAD MULLANPUR",2881515,LUDHIANA,"MULLANPUR DAKHA",PUNJAB
"STATE BANK OF PATIALA",STBP0000737,WAITING,BAZPUR,"BAZPUR, DIST UDHAM SINGH NAGAR (UTTARAKHAND)",283860,"UDHAMSINGH NAGAR",BAZPUR,UTTARAKHAND
"STATE BANK OF PATIALA",STBP0000736,WAITING,"CHANDIGARH SEC 16","SECGTOR0-16 GENERAL HOSPITAL CHANDIGARH",2771516,CHANDIGARH,CHANDIGARH,CHANDIGARH
"STATE BANK OF PATIALA",STBP0000735,WAITING,KICHHA,"MAIN MARKET U S NAGAR, KICHHA,  (UTTARAKHAND)",260013,"UDHAMSINGH NAGAR",KICHHA,UTTARAKHAND
"STATE BANK OF PATIALA",STBP0000734,WAITING,GANNAUR,"CHHOTI MANDI",272196,SONIPAT,GANAUR,HARYANA
"STATE BANK OF PATIALA",STBP0000733,WAITING,BIILASPUR,HARYANA,228457,YAMUNANAGAR,BILASPUR,HARYANA
"STATE BANK OF PATIALA",STBP0000732,WAITING,"COMMERCIAL BRANCH,DELHI","2ND FLOOR, CHANDRALOK BUILDING,JANPATH,NEW DELHI-110001",23321398,"NEW DELHI",DELHI,DELHI
"STATE BANK OF PATIALA",STBP0000731,WAITING,"NEW DELHI ROHINI","YUYASHAKTI MODEL SCHOOL SECTOR-3 ROHINI DELHI-110085",27511665,"NEW DELHI",DELHI,DELHI
"STATE BANK OF PATIALA",STBP0000730,WAITING,YAMUNANAGAR(GNGC),YAMUNANAGAR(GNGC),252024,YAMUNANAGAR,YAMUNANAGAR,HARYANA
"STATE BANK OF PATIALA",STBP0000729,WAITING,ELLENABAD,ELLENABAD,222082,SIRSA,ELLANABAD,HARYANA
"STATE BANK OF PATIALA",STBP0000728,WAITING,"LUDHIANA (K N)","KITCHLU NAGAR LUDHIANA",2301773,LUDHIANA,LUDHIANA,PUNJAB
"STATE BANK OF PATIALA",STBP0000727,WAITING,VASHI,"Z-7, APMC MARKET 2, DANA BUNDER,VASHI, NAVI MUMBAI-400705",27802150,"GREATER BOMBAY",MUMBAI,MAHARASHTRA
"STATE BANK OF PATIALA",STBP0000726,WAITING,"PANCHKULA (SEC. 12)","PANCHKULA (SEC. 12)",220880,PANCHKULA,PANCHKULA,HARYANA
"STATE BANK OF PATIALA",STBP0000725,WAITING,"RATIA,GRAIN MARKET","DIST FATEHABAD OFFICIATING",251977,FATEHABAD,RATTIA,HARYANA
"STATE BANK OF PATIALA",STBP0000724,WAITING,"AMBALA (SAJC)","S A JAIN COLLEGE AMBALA",2578802,AMBALA,AMBALA,HARYANA
"STATE BANK OF PATIALA",STBP0000723,WAITING,"LUDHIANA (BRSN)","OPP. MILK PLANT  BRS NAGAR LUDHIANA",2456071,LUDHIANA,LUDHIANA,PUNJAB
"STATE BANK OF PATIALA",STBP0000722,WAITING,"NEW DELHI (BUDH VIHAR)","BUDH VIHAR, NEW DELHI",27272906,"NEW DELHI",DELHI,DELHI
"STATE BANK OF PATIALA",STBP0000721,WAITING,"KANINA MANDI","TEH MOHINDERGARH HARYANA",235613,MAHENDRAGARH,KANINA,HARYANA
"STATE BANK OF PATIALA",STBP0000720,WAITING,"NEW DELHI MOUNT KARMEL","ANAND NIKETAN, NEW DELHI",24102230,"NEW DELHI",DELHI,DELHI
"STATE BANK OF PATIALA",STBP0000719,WAITING,"CHANDIGARH DISTT. COURTS","DISTRICT COURT SECTOR-17",2708815,CHANDIGARH,CHANDIGARH,CHANDIGARH
"STATE BANK OF PATIALA",STBP0000718,WAITING,GARHDIWAL,"VPO GARHDIWAL, THE. DASUYA",260021,HOSIARPUR,GARHDIWALA,PUNJAB
"STATE BANK OF PATIALA",STBP0000717,WAITING,KUSUMPATI(SHIMLA),"SDA COMPLEX KAMUMPATI SHIMLA",2621843,SHIMLA,SIMLA,"HIMACHAL PRADESH"
"STATE BANK OF PATIALA",STBP0000716,WAITING,"LUCKNOW JAWAHAR BHAWAN","16 ASHOK MARG LUCKNOW-228001",2392964,LUCKNOW,LUCKNOW,"UTTAR PRADESH"
"STATE BANK OF PATIALA",STBP0000715,WAITING,"MUMBAI (BPCL)","MAHUL BPCL REFINERY,MUMBAI",5540063,"GREATER BOMBAY",MUMBAI,MAHARASHTRA
"STATE BANK OF PATIALA",STBP0000714,WAITING,"JALANDHAR P & SB","37,COOL ROAD,JALANDHAR",2233472,JALANDHAR,JALANDHAR,PUNJAB
"STATE BANK OF PATIALA",STBP0000713,WAITING,MANAKPUR,MANAKPUR(PUNJAB),254226,PATIALA,"MANAK PURA",PUNJAB
"STATE BANK OF PATIALA",STBP0000712,WAITING,"ROHTAK KATH MANDI",ROHTAK,240178,ROHTAK,ROHTAK,HARYANA
"STATE BANK OF PATIALA",STBP0000711,WAITING,"CHANDIGARH 32-C","SECTOR-32 CHANDIGARH",2667122,CHANDIGARH,CHANDIGARH,CHANDIGARH
"STATE BANK OF PATIALA",STBP0000710,WAITING,MAHILPUR,"VPO MAHILPUR",245265,HOSIARPUR,MAHALPUR,PUNJAB
"STATE BANK OF PATIALA",STBP0000709,WAITING,"LUDHIANA (H T)","NEAR DARPAN STUDIO BN CHOWK LUDHIANA",2440014,LUDHIANA,LUDHIANA,PUNJAB
"STATE BANK OF PATIALA",STBP0000708,WAITING,"PERSONAL BANKING BRANCH,PANCHKULA","SECTOR 6, PANCHKULA(HARYANA)",2577282,PANCHKULA,PANCHKULA,HARYANA
"STATE BANK OF PATIALA",STBP0000707,WAITING,"PHAGWARA P & SB","BANGA ROAD,PHAGWARA DISTT.KAPURTHALA",266020,KAPURTHALA,PHAGWARA,PUNJAB
"STATE BANK OF PATIALA",STBP0000706,WAITING,"PATIALA DC","THE MALL, PATIALA(PUNJAB)",2309932,PATIALA,PATIALA,PUNJAB
"STATE BANK OF PATIALA",STBP0000705,WAITING,"NAGROTA BAGWAN","TEH KANGRA HP-",252903,KANGRA,"NAGROTA BAGWAN","HIMACHAL PRADESH"
"STATE BANK OF PATIALA",STBP0000704,WAITING,MUKANDPUR,"MAIN ROAD,MUKANDPUR,DISTT. NAWASHAHR",276717,NAVANSAHAR,MOKANDPUR,PUNJAB
"STATE BANK OF PATIALA",STBP0000703,WAITING,"JALANDHAR CANTT.","JALANDHAR CANTT.,JALANDHAR",2263286,JALANDHAR,JALANDHAR,PUNJAB
"STATE BANK OF PATIALA",STBP0000702,WAITING,JANDIALA,"NEAR BUS STAND,THE PHILLAUR,DISTT JALANDHAR",275990,JALANDHAR,JUNDIALA,PUNJAB
"STATE BANK OF PATIALA",STBP0000701,WAITING,"JABALPUR JAWAHARGANJ","874 JAWAHAR GANJ MAIN ROAD JABALPUR",411254,JABALPUR,JABALPUR,"MADHYA PRADESH"
"STATE BANK OF PATIALA",STBP0000700,WAITING,"KARNAL URBANESTATE SEC-6","URBAN ESTATE KARNAL",2281230,KARNAL,KARNAL,HARYANA
"STATE BANK OF PATIALA",STBP0000699,WAITING,"ROHTAK CIRCULAR ROAD","D L F COLONY ROHTAK",250183,ROHTAK,ROHTAK,HARYANA
"STATE BANK OF PATIALA",STBP0000698,WAITING,"JAIPUR RAJAPARK","471/5 VYAS MARG JAIPUR",2623982,JAIPUR,JAIPUR,RAJASTHAN
"STATE BANK OF PATIALA",STBP0000697,WAITING,"OVERSEAS BRANCH,JALANDHAR","JALANDHAR 289, SHAHEED UDHAM SINGH MARKET,OPPOSITE T.V. CENTRE, JALANDHAR(PUNJAB)-144001",2404107,JALANDHAR,JALANDHAR,PUNJAB
"STATE BANK OF PATIALA",STBP0000696,WAITING,JODHPUR,"35 STADIUM SHOPPING CENTRE NEAR DARPAN CENEMA, JODHPUR",2540738,JODHPUR,JODHPUR,RAJASTHAN
"STATE BANK OF PATIALA",STBP0000695,WAITING,"BADHNI KALAN","TEH NIHAL SINGH WALA",250194,MOGA,"BADANI KALAN",PUNJAB
"STATE BANK OF PATIALA",STBP0000694,WAITING,GHAGA,"VPO GHAGGA TEH SAMANA",252379,PATIALA,GHAGGA,PUNJAB
"STATE BANK OF PATIALA",STBP0000693,WAITING,"GURGAON SSI","NEW RAILWAY ROAD, GURGAON(HARYANA)",2221919,GURGAON,GURGAON,HARYANA
"STATE BANK OF PATIALA",STBP0000692,WAITING,"BEGOWAL P & SB","VPO BEGOWAL DISTT. KAPURTHALA",248181,KAPURTHALA,BEGOWAL,PUNJAB
"STATE BANK OF PATIALA",STBP0000691,WAITING,"SONEPAT MINI SECTT.","MINI SECTT SONEPAT",262131,SONIPAT,SONIPAT,HARYANA
"STATE BANK OF PATIALA",STBP0000690,WAITING,"MORADABAD (SSI)","LAJPAT NAGAR MORADABAD UP-244001",2412719,MORADABAD,MORADABAD,"UTTAR PRADESH"
"STATE BANK OF PATIALA",STBP0000689,WAITING,"ALLAHABAD DEGREE COLLEGE","DEGREE COLLEGE ALLAHABAD UP-211001",2618673,ALLAHABAD,ALLAHABAD,"UTTAR PRADESH"
"STATE BANK OF PATIALA",STBP0000688,WAITING,"BANGA P& SB","PHAGWARA ROAD,BANGA,DISTT. NAWASHAHR",260946,NAVANSAHAR,BANGA,PUNJAB
"STATE BANK OF PATIALA",STBP0000687,WAITING,"NAWASHAHR P & SB","CHANDIGARH ROAD,NAWASHAHR",221029,NAVANSAHAR,NAWANSHAHAR,PUNJAB
"STATE BANK OF PATIALA",STBP0000686,WAITING,"BATHINDA  MALL","MALL ROAD BATHINDA",2254324,BHATINDA,BATHINDA,PUNJAB
"STATE BANK OF PATIALA",STBP0000685,WAITING,"PANIPAT,SSI","SSI PANIPAT",2649091,PANIPAT,PANIPAT,HARYANA
"STATE BANK OF PATIALA",STBP0000684,WAITING,"YAMUNA NAGAR (SSI)",HARYANA,252564,YAMUNANAGAR,YAMUNANAGAR,HARYANA
"STATE BANK OF PATIALA",STBP0000683,WAITING,"ATELI MANDI","DIST MOHINDERGFARH",276573,MAHENDRAGARH,ATELI,HARYANA
"STATE BANK OF PATIALA",STBP0000682,WAITING,ANOOPGARH,"DHAN MANDI  RAJASTHAN",222298,GANGANAGAR,ANUPGARH,RAJASTHAN
"STATE BANK OF PATIALA",STBP0000681,WAITING,NURMAHAL,"MAIN BAZAR VPO NURMAHAL,DISTT JALANDHAR",242885,JALANDHAR,NURMAHAL,PUNJAB
"STATE BANK OF PATIALA",STBP0000680,WAITING,"GORAYA  P & SB","G.T.ROAD,GORAYA THE. PHILLAUR DISTT JALANDHAR",262757,JALANDHAR,GORAYA,PUNJAB
"STATE BANK OF PATIALA",STBP0000679,WAITING,AUR,"VPO AUR,DISTT. NAWASHAHR",245631,NAVANSAHAR,AUR,PUNJAB
"STATE BANK OF PATIALA",STBP0000678,WAITING,NAJIBABAD,"TEHSIL ROAD DIST BIJNMORE UP",221458,BIJNOR,NAJIBABAD,"UTTAR PRADESH"
"STATE BANK OF PATIALA",STBP0000677,WAITING,"PATIALA STATE COLLEGE","STATE COLLEGE, PATIALA(PUNJAB)",2200770,PATIALA,PATIALA,PUNJAB
"STATE BANK OF PATIALA",STBP0000676,WAITING,"PATIALA PERSONAL BKG","LEELA BHAVWAN, PATIALA(PUNJAB)",2200851,PATIALA,PATIALA,PUNJAB
"STATE BANK OF PATIALA",STBP0000675,WAITING,RAYYA,"VPO RAYYA",222046,AMRITSAR,RAYYA,PUNJAB
"STATE BANK OF PATIALA",STBP0000674,WAITING,UJJAIN,"FREE GANJ, 30, VARANASI MARG, UJJAIN",514550,UJJAIN,UJJAIN,"MADHYA PRADESH"
"STATE BANK OF PATIALA",STBP0000673,WAITING,PILIBANGAN,"INDUSTRIAL AREA PILIBANGAN",233950,HANUMANGARH,PILIBANGAN,RAJASTHAN
"STATE BANK OF PATIALA",STBP0000672,WAITING,"KOT FATUHI","NRI SPLD. BR. THE. GARHSHANKAR",250559,HOSIARPUR,KOTFATUHI,PUNJAB
"STATE BANK OF PATIALA",STBP0000671,WAITING,"PATIALA SHAKTI VIHAR","SAKTI VIHAR,PATIALA -147001",2223975,PATIALA,PATIALA,PUNJAB
"STATE BANK OF PATIALA",STBP0000670,WAITING,"PATIALA VICTORIA SCHOOL","VICTORIA SCHOOL,PATIALA -147001",2222926,PATIALA,PATIALA,PUNJAB
"STATE BANK OF PATIALA",STBP0000668,WAITING,"MOHALI PHASE-X","MOHALI PHASE-X",2212146,RUPNAGAR,"SAS NAGAR(MOHALI)",PUNJAB
"STATE BANK OF PATIALA",STBP0000667,WAITING,"KOTKAPURA (MOGA ROAD)","MOGA ROAD KOTKAPURA",224477,FARIDKOT,"KOT KAPURA",PUNJAB
"STATE BANK OF PATIALA",STBP0000666,WAITING,"MUZZAFAR NAGAR(PREM PURI)","PREM PURI, MUZZAFFAR NAGAR, UP",260035,"MUZAFFAR NAGAR",MUZAFFARNAGAR,"UTTAR PRADESH"
"STATE BANK OF PATIALA",STBP0000665,WAITING,APRA,"VILL. APRA TEH. PHILLAUR DISTT. JALANDHAR",250450,JALANDHAR,APRA,PUNJAB
"STATE BANK OF PATIALA",STBP0000664,WAITING,KUMBRA,"VILLAGE KUMBRA",2305222,RUPNAGAR,KUMBRA,PUNJAB
"STATE BANK OF PATIALA",STBP0000663,WAITING,"KALKA NRW","NORTHERN RAILWAY WORKSHOP HARYANA-",253421,PANCHKULA,KALKA,HARYANA
"STATE BANK OF PATIALA",STBP0000662,WAITING,RUDRAPUR,"173/3 CIVIL LINES RUDRAPUR",241218,"UDHAMSINGH NAGAR",RUDRAPUR,UTTARAKHAND
"STATE BANK OF PATIALA",STBP0000661,WAITING,COIMBATORE,"R S PURAM, COIMBATORE-2",2552743,COIMBOTORE,COIMBATORE,"TAMIL NADU"
"STATE BANK OF PATIALA",STBP0000660,WAITING,"FARIDKOT KNJ SCHOOL","K N JAIN SCHOOLFARIDKOT",250096,FARIDKOT,FARIDKOT,PUNJAB
"STATE BANK OF PATIALA",STBP0000659,WAITING,"MOGA M.C.","MUNICIPAL COMMITTEE TEH MOGA",224518,MOGA,MOGA,PUNJAB
"STATE BANK OF PATIALA",STBP0000658,WAITING,"KOSI KALAN","998 MAIN RAM DASS NATIONAL HIGHWAY BYE PASS, KOSI KALAN DISTT. MATHURA",233367,MATHURA,"KOSI KALAN","UTTAR PRADESH"
"STATE BANK OF PATIALA",STBP0000657,WAITING,"BATHINDA CANTT.","BATHINDA CANTT",2240128,BHATINDA,BATHINDA,PUNJAB
"STATE BANK OF PATIALA",STBP0000656,WAITING,"BARNALA S.D. COLLEGE","S D COLLEGE, BARNALA(PUNJAB)",232137,SANGRUR,BARNALA,PUNJAB
"STATE BANK OF PATIALA",STBP0000655,WAITING,"MOHALI SSI","SSI SPECIALISED BR S C F-33 PHASE-VII MOHALI-160055",394523,RUPNAGAR,"SAS NAGAR(MOHALI)",PUNJAB
"STATE BANK OF PATIALA",STBP0000654,WAITING,"DERABASSI SSI","TEH RAJPURA",70724,PATIALA,"DERA BASSI",PUNJAB
"STATE BANK OF PATIALA",STBP0000653,WAITING,"LUDHIANA (HOSY)","CHAURI SARAK DIVISION NO. 3 LUDHIANA",2728763,LUDHIANA,LUDHIANA,PUNJAB
"STATE BANK OF PATIALA",STBP0000652,WAITING,"GIDDERBAHA GUR MANDI","TEH GIDDERBAHA DIST FARIDKOT-152001",230673,MUKTSAR,"GIDDAR BAHA",PUNJAB
"STATE BANK OF PATIALA",STBP0000651,WAITING,RISHIKESH,"29-DEHRADUN ROAD RISHSKESH",433941,DEHRADUN,RISHIKESH,UTTARAKHAND
"STATE BANK OF PATIALA",STBP0000649,WAITING,"MOHALI (YPS)","YPS SCHOOL  MOHALI",2230558,RUPNAGAR,"SAS NAGAR(MOHALI)",PUNJAB
"STATE BANK OF PATIALA",STBP0000647,WAITING,THANESAR,"ARYA HIGH SCHOOL THANESAR",234323,KURUKSHETRA,KURUKSHETRA,HARYANA
"STATE BANK OF PATIALA",STBP0000646,WAITING,"JAGADHRI SGNK HIGH SCHOOL","SHRI GURU NANAK KHALSA HIGH SCHOOL JAGADHARI",277636,YAMUNANAGAR,JAGADHRI,HARYANA
"STATE BANK OF PATIALA",STBP0000645,WAITING,SHAMLI,"SINGHAL OIL MILLS BUDHANA ROAD SHAMLI-247776",252344,SAHARANPUR,SHAMLI,"UTTAR PRADESH"
"STATE BANK OF PATIALA",STBP0000644,WAITING,"AMRITSAR TEXT.","KRISHNA SQUARE-I,BATALA ROAD",2272010,AMRITSAR,AMRITSAR,PUNJAB
"STATE BANK OF PATIALA",STBP0000643,WAITING,LUCKNOW(PICUP),"PICUP OFFICE VIBHUTI KHAND GOMTI NAGAR LUCKNOW UP",2395672,LUCKNOW,LUCKNOW,"UTTAR PRADESH"
"STATE BANK OF PATIALA",STBP0000642,WAITING,"WTC BRANCH","13, ARCADE, WORLD TRADE CENTRE, MUMBAI",22181547,"GREATER BOMBAY",MUMBAI,MAHARASHTRA
"STATE BANK OF PATIALA",STBP0000641,WAITING,MALERKOTLA(SSI),"SSI SPECIALISED BR INDUSTRIAL ESTATE RAILWAY STATION ROAD,MALERKOTLA(PUNJAB)",255306,SANGRUR,MALERKOTLA,PUNJAB
"STATE BANK OF PATIALA",STBP0000640,WAITING,"GURGAON(MINI SECTT.)","ADMN & JUDICIAL COMPLEX (MINI SECTT) GURGAON",2320678,GURGAON,GURGAON,HARYANA
"STATE BANK OF PATIALA",STBP0000639,WAITING,SURATGARH,"TEH SURATGARH NEAR BUS STAND",221032,GANGANAGAR,SURATGARH,RAJASTHAN
"STATE BANK OF PATIALA",STBP0000638,WAITING,"LUDHIANA SALEM TABRI","SALEM TABRI JALANDHAR BY PASS LUDHIANA",2781495,LUDHIANA,LUDHIANA,PUNJAB
"STATE BANK OF PATIALA",STBP0000637,WAITING,KARNAL(DSC),"DAYAL SINGH COLLEGE HARYANA",2271227,KARNAL,KARNAL,HARYANA
"STATE BANK OF PATIALA",STBP0000636,WAITING,QADIAN,"HAR CHOWK, COLLEGE RD, QADIAN",220244,GURDASPUR,QADIAN,PUNJAB
"STATE BANK OF PATIALA",STBP0000635,WAITING,"MANI MAJRA(CHANDIGARH)","S C O NO-838 CHD KALKA SHIMLA ROAD MANI MAJRA-160101",2733863,CHANDIGARH,CHANDIGARH,CHANDIGARH
"STATE BANK OF PATIALA",STBP0000634,WAITING,"NEW DELHI PERSONAL BANKING","SPECIALISED BANCHE E-4 DEFENCE COLONY RING ROAD NEW DELHI-110024",4602026,"NEW DELHI",DELHI,DELHI
"STATE BANK OF PATIALA",STBP0000633,WAITING,"SRI KARANPUR","B BLOCK WARD NO-6 SRI KARANPUR",220460,GANGANAGAR,KARANPUR,RAJASTHAN
"STATE BANK OF PATIALA",STBP0000632,WAITING,KHURZA,"NEW SHIVPURI, JUNCTION ROAD, KHURZA DISTT. BULANDSHAHAR",248053,BULANDSHEHAR,KHURJA,"UTTAR PRADESH"
"STATE BANK OF PATIALA",STBP0000631,WAITING,HATHRAS,"KAMAL COMPLEX BAGLA MARG HATHRAS UP",233645,HARDOI,HATHRAS,"UTTAR PRADESH"
"STATE BANK OF PATIALA",STBP0000630,WAITING,MUKERIAN,"VPO MUKERIAN",244324,HOSIARPUR,MUKERIAN,PUNJAB
"STATE BANK OF PATIALA",STBP0000629,WAITING,"JALALABAD WEST","BIMAL PLACE NEAR OLD BUS STAND FEROZEPPUR-FAZILIKA ROAD JALABAD(WEST)",250455,FEROZEPUR,JALALABAD,PUNJAB
"STATE BANK OF PATIALA",STBP0000628,WAITING,"TARN TARAN","TEH. TARAN TARAN",228519,AMRITSAR,"TARN TARAN",PUNJAB
"STATE BANK OF PATIALA",STBP0000627,WAITING,"FEROZEPUR CANTT","BAZAR NO-2 FEROZEPUR CANTT",246338,FEROZEPUR,FIROZPUR,PUNJAB
"STATE BANK OF PATIALA",STBP0000626,WAITING,NASHIK,"38/2-B PLOT NO-1 TRIMUTI CHOWK CIDCO KAMALWADE NASIK",392771,NASHIK,NASHIK,MAHARASHTRA
"STATE BANK OF PATIALA",STBP0000625,WAITING,NANDED,"SHOP NO-6-4-156 SAROFA OPPOSITE DHOT NIWAS NANDED",33860,NANDED,NANDED,MAHARASHTRA
"STATE BANK OF PATIALA",STBP0000624,WAITING,UNNAO,"BABU GANJ UP-242001",2820836,UNNAV,UNNAO,"UTTAR PRADESH"
"STATE BANK OF PATIALA",STBP0000623,WAITING,"PATIALA OLD POLICE LINES","OLD POLICE LINE GEETA BHAVAN,PATIALA -147001 (PB)",201167,PATIALA,PATIALA,PUNJAB
"STATE BANK OF PATIALA",STBP0000622,WAITING,BAWANA,"VPO BAWANA HARYANA-",0,MAHENDRAGARH,BAWANA,HARYANA
"STATE BANK OF PATIALA",STBP0000621,WAITING,TANDA,"VPO TANDA",222630,HOSIARPUR,"URMAR TANDA",PUNJAB
"STATE BANK OF PATIALA",STBP0000620,WAITING,HALDWANI,"OPPOSITTE PWD RESI HOUSE HALDWANI UP",222199,NAINITAL,HALDWANI,UTTARAKHAND
"STATE BANK OF PATIALA",STBP0000619,WAITING,KASHIPUR,"MAIN CHORAHA, NAINITAL, KASHIPUR, UP-244713",275503,"UDHAMSINGH NAGAR",KASHIPUR,UTTARAKHAND
"STATE BANK OF PATIALA",STBP0000618,WAITING,KOTPUTLI,"NATIONAL HIGH WAY NO-8 KOTPUTLI -303108",222280,JAIPUR,KOTPUTLI,RAJASTHAN
"STATE BANK OF PATIALA",STBP0000617,WAITING,BALACHAUR,"NEAR BUS STAND,BALACHAUR,DISTT NAWASHAHR",220317,NAVANSAHAR,BALACHAUR,PUNJAB
"STATE BANK OF PATIALA",STBP0000616,WAITING,UDHAMPUR,"MAIN BAZAR, UDHAMPUR",270550,UDHAMPUR,UDHAMPUR,"JAMMU AND KASHMIR"
"STATE BANK OF PATIALA",STBP0000615,WAITING,ROORKEE,"SHIV COMPLEX OPPOSITE KOTWALI CIVIL LINES ROORKEE UP",274216,HARIDWAR,ROORKEE,UTTARAKHAND
"STATE BANK OF PATIALA",STBP0000614,WAITING,"HANUMANGARH TOWN","NEW DHAN MANDI RAJASTHAN",223013,HANUMANGARH,HANUMANGARH,RAJASTHAN
"STATE BANK OF PATIALA",STBP0000613,WAITING,NAHAN,"KACHA TANK OPPOSITE CENTRAL SCHOOL HP-176027",222859,SIRMOUR,NAHAN,"HIMACHAL PRADESH"
"STATE BANK OF PATIALA",STBP0000612,WAITING,"PATIALA TREASURY BRANCH","SCF 129 ,CHHOTI, BIRADARI,PATIALA 147001",2201324,PATIALA,PATIALA,PUNJAB
"STATE BANK OF PATIALA",STBP0000611,WAITING,SHIMLA(SANJAULI),"HOTEL BROAD VIEWS SANJAULI SHIMLA",2842005,SHIMLA,SIMLA,"HIMACHAL PRADESH"
"STATE BANK OF PATIALA",STBP0000610,WAITING,ALWAR,"STATE BANK OF PATIALA,RAGHU MARG,ASHOK CIRCLE, ALWAR 301001",2332106,ALWAR,ALWAR,RAJASTHAN
"STATE BANK OF PATIALA",STBP0000609,WAITING,REWARI,"209 GRAIN MARKET, REWARI, HARYANA-123401",23042,REWARI,REWARI,HARYANA
"STATE BANK OF PATIALA",STBP0000608,WAITING,"LUDHIANA SSI","PARTAP CHOWK LUDHIANA",2530918,LUDHIANA,LUDHIANA,PUNJAB
"STATE BANK OF PATIALA",STBP0000607,WAITING,BAGHAPURANA,"NIHAL SINGH WALA ROAD",240387,MOGA,"BAGHA PURANA",PUNJAB
"STATE BANK OF PATIALA",STBP0000606,WAITING,DIRBA,"VILLAGE DIRBA",242308,SANGRUR,DIRBA,PUNJAB
"STATE BANK OF PATIALA",STBP0000605,WAITING,DHANAULA,"VILL & DISTT SANGRUR",263515,SANGRUR,DHANAULA,PUNJAB
"STATE BANK OF PATIALA",STBP0000604,WAITING,MANDI,"NEAR BEAS BRIDGE JAWHAR NAGAR HP",226107,MANDI,MANDI,"HIMACHAL PRADESH"
"STATE BANK OF PATIALA",STBP0000603,WAITING,BARWALA,"DAULATPUR CHOWK WARD NO-3 BHARWALA-126010",242373,PANCHKULA,BARWALA,HARYANA
"STATE BANK OF PATIALA",STBP0000602,WAITING,RANIA,"NEAR BUS STAND DIST SIRSA HARYANA-125076",242441,SIRSA,RANIA,HARYANA
"STATE BANK OF PATIALA",STBP0000601,WAITING,BATAL,"VPO BATAL THE ARKI-173208",220734,SOLAN,ARKI,"HIMACHAL PRADESH"
"STATE BANK OF PATIALA",STBP0000600,WAITING,"LUDHIANA  SUNDER NAGAR","SUNDER NAGAR LUDHIANA",2661232,LUDHIANA,LUDHIANA,PUNJAB
"STATE BANK OF PATIALA",STBP0000599,WAITING,"JALANDHAR AMAN NAGAR","AMAN NAGAR, NEAR BYE PASS,JALANDHAR",2291248,JALANDHAR,JALANDHAR,PUNJAB
"STATE BANK OF PATIALA",STBP0000598,WAITING,KHUMANO,"BLOCK & TEH KHUMANO (MANDI)",268342,"FATEHGARH SAHEB",KHAMANON,PUNJAB
"STATE BANK OF PATIALA",STBP0000597,WAITING,"PERSONAL BANKING BRANCH,CHANDIGARH","SECTOR 8-C, SCO 99-102,MADHYA MARG, CHANDIGARH-163001",544892,CHANDIGARH,CHANDIGARH,CHANDIGARH
"STATE BANK OF PATIALA",STBP0000596,WAITING,"KANKANADI (MANGALORE)","NRI SPECIALISED BRANCH STAR OF BOMBAY COMPLEX PO BOX NO-562, KANKANADI, MANGALORE",438455,"DAKSHINA KANNADA",MANGALORE,KARNATAKA
"STATE BANK OF PATIALA",STBP0000595,WAITING,ALIGARH,"H-287 A ALIGARH KOLA NAGAR ALIGARH UP-2020023",2400418,ALIGARH,ALIGARH,"UTTAR PRADESH"
"STATE BANK OF PATIALA",STBP0000594,WAITING,PHILLAUR,"NAWASHAHR ROAD,NEAR COURTS,DISTT JALANDHAR",222989,JALANDHAR,PHILLAUR,PUNJAB
"STATE BANK OF PATIALA",STBP0000593,WAITING,"MOPUSA (GOA)","DIL KUSH NEAR MUNCIPAL GARDERN, MOPUCA,  GOA",250004,"NORTH GOA",MAPUSA,GOA
"STATE BANK OF PATIALA",STBP0000592,WAITING,VARANASI,"H-1 BLOCK B BRIJ ENCLAVE PO SUNDERPUR VARANASI-221005",2316095,VARANASI,VARANASI,"UTTAR PRADESH"
"STATE BANK OF PATIALA",STBP0000591,WAITING,"FATEHGARH SAHIB","D C OFFICE COMPLEX",230218,"FATEHGARH SAHEB","FATEHGARH SAHIB",PUNJAB
"STATE BANK OF PATIALA",STBP0000590,WAITING,INDORE,"USHA NAGAR INDORE",481080,INDORE,INDORE,"MADHYA PRADESH"
"STATE BANK OF PATIALA",STBP0000589,WAITING,"JALANDHAR N.R.I.","SYAL HOUSE,LAJPAT NAGAR MARKET JALANDHAR",2227662,JALANDHAR,JALANDHAR,PUNJAB
"STATE BANK OF PATIALA",STBP0000588,WAITING,"BHIWANI MINI SECTT.","MINI SECREATARIAT HARYANA-125021",242904,BHIWANI,BHIWANI,HARYANA
"STATE BANK OF PATIALA",STBP0000587,WAITING,"COMMERCIAL BRANCH,CHANDIGARH","SECTOR 8-C, CHANDIGARH-163001",778403,CHANDIGARH,CHANDIGARH,CHANDIGARH
"STATE BANK OF PATIALA",STBP0000586,WAITING,KOTA,"290 PARTAP NAGAR RAWAT BHATA ROAD KOTA -324009",2438524,KOTA,KOTA,RAJASTHAN
"STATE BANK OF PATIALA",STBP0000585,WAITING,GWALIOR,"K -34 GANDHI NAGAR GWALIOR-2",423407,GWALIOR,GWALIOR,"MADHYA PRADESH"
"STATE BANK OF PATIALA",STBP0000584,WAITING,SHAHJEHANPUR,"BAHADURGANJ,MACHINERY MARKET , SHAHJEHANPUR UP-242001",224268,SAHARANPUR,SHAHJAHANPUR,"UTTAR PRADESH"
"STATE BANK OF PATIALA",STBP0000583,WAITING,SILLIHARI,"PO KANDAGHAT HP-173209",256234,SOLAN,KANDAGHAT,"HIMACHAL PRADESH"
"STATE BANK OF PATIALA",STBP0000582,WAITING,"FARIDABAD SECTOR-9","133 SECTOR-9 , FARIDABAD, HARYANA",2291058,FARIDABAD,FARIDABAD,HARYANA
"STATE BANK OF PATIALA",STBP0000581,WAITING,HAPUR,"29-31. MEERUT ROAD SADAR INDUSTRIES HAPUR UP-245101",2304250,GHAZIABAD,HAPUR,"UTTAR PRADESH"
"STATE BANK OF PATIALA",STBP0000580,WAITING,"PATIALA SANAURI ADDA","SANAURI ADDA,PATIALA-147001",2201328,PATIALA,PATIALA,PUNJAB
"STATE BANK OF PATIALA",STBP0000579,WAITING,VISAKHAPATNAM,"58-13,165, NAD KOTHA RD. JUNCTION, VISHAKAPATNAM",2558983,VISHAKAPATNAM,VISAKHAPATNAM,"ANDHRA PRADESH"
"STATE BANK OF PATIALA",STBP0000578,WAITING,"AMBALA CANTT HOUSING BOARD COL","HOUSING BOARD COLONY 238 RAM BAGH ROAD HARYANA-133001",2652089,AMBALA,"AMBALA CANTT.",HARYANA
"STATE BANK OF PATIALA",STBP0000577,WAITING,VIJAYAWADA,"24-1-66A SAMBHAMURTHY ROAD DURGAPURAM VIJAY WADA",476793,KRISHNA,VIJAYAWADA,"ANDHRA PRADESH"
"STATE BANK OF PATIALA",STBP0000576,WAITING,"NEKIPUR DHIGWA","TEH LOHARU HARYANA",257758,BHIWANI,DHIGAWA,HARYANA
"STATE BANK OF PATIALA",STBP0000575,WAITING,SAWAHAN,"VPO SWAHAN HP",288637,BILASPUR,SWAHAN,"HIMACHAL PRADESH"
"STATE BANK OF PATIALA",STBP0000574,WAITING,"AHMEDABAD (KALUPUR AREA)","1761-GAUTAM CHAMBERS GANDHI ROAD KALAPUR AREA AHMEDABAD",2123705,AHMEDABAD,AHMEDABAD,GUJARAT
"STATE BANK OF PATIALA",STBP0000573,WAITING,"BANGALORE (J.P.NAGAR)","1347 1 ST FLOOR SOUTHEND ROAD 3 RD PHASE J P NAGAR 9TH BLOCK",6583923,"BANGALORE URBAN",BANGALORE,KARNATAKA
"STATE BANK OF PATIALA",STBP0000571,WAITING,"PUNE (AUNDH)","KRISHANEE PLOT NO-17 SANGHVI NAGAR PUNE",5888925,PUNE,PUNE,MAHARASHTRA
"STATE BANK OF PATIALA",STBP0000570,WAITING,PANOG,"VPO PANOG TEH SHILLAI HP-",0,SIRMOUR,PANOG,"HIMACHAL PRADESH"
"STATE BANK OF PATIALA",STBP0000569,WAITING,TIMBI,"TIMBI TEH SHILLAI HP-173029",270023,SIRMOUR,TIMBI,"HIMACHAL PRADESH"
"STATE BANK OF PATIALA",STBP0000568,WAITING,DELGI,"VPO DELGI VIA SUBATU",245508,SOLAN,DELGI,"HIMACHAL PRADESH"
"STATE BANK OF PATIALA",STBP0000567,WAITING,SECUNDERABAD,"S-20134, 1ST FLOOR, RASHTRAPATI ROAD,SECUNDERABAD",262266,"HYDERABAD URBAN","SECUNDERABAD CANTONMENT","ANDHRA PRADESH"
"STATE BANK OF PATIALA",STBP0000566,WAITING,ALSINDI,"VPO ALSINDI",224217,MANDI,ALSINDHI,"HIMACHAL PRADESH"
"STATE BANK OF PATIALA",STBP0000564,WAITING,VADODARA,"SANJAYGANDHI STADIUM ROAD, NEAR SI DEPO, VADHODARA",2785482,VADODARA,VADODARA,GUJARAT
"STATE BANK OF PATIALA",STBP0000563,WAITING,LOHARGHAT,"VPO LOHARGHAT BLOCK NALAGARH HP-174101",232132,SOLAN,LOHARGHAT,"HIMACHAL PRADESH"
"STATE BANK OF PATIALA",STBP0000562,WAITING,BOGHDHAR,"VPO BOGHDHAR",0,SIRMOUR,BOGHDHAR,"HIMACHAL PRADESH"
"STATE BANK OF PATIALA",STBP0000561,WAITING,JIBHI,"VPO JIBHI TEH BANJAR HP-",275703,KULLU,JIBHI,"HIMACHAL PRADESH"
"STATE BANK OF PATIALA",STBP0000560,WAITING,BADHLAG,"VPO BADHLAGH TEH KASSAULI",278706,SOLAN,KASAULI,"HIMACHAL PRADESH"
"STATE BANK OF PATIALA",STBP0000559,WAITING,WASANI,"VPO WASNI BLOCK PACHHAD HP-173024",258859,SIRMOUR,WASNI,"HIMACHAL PRADESH"
"STATE BANK OF PATIALA",STBP0000558,WAITING,LADORI,"VPO LADORI TEH KANGRA  HP-176203",234123,KANGRA,LADORI,"HIMACHAL PRADESH"
"STATE BANK OF PATIALA",STBP0000557,WAITING,SAI,"SAITEH NALAGARH HP-173205",268818,SOLAN,SAI,"HIMACHAL PRADESH"
"STATE BANK OF PATIALA",STBP0000556,WAITING,TATAPANI,"DIST MANDI HP-",230902,MANDI,TATAPANI,"HIMACHAL PRADESH"
"STATE BANK OF PATIALA",STBP0000555,WAITING,DHER,"VPO DHER TEH ANANDPUR SAHIB",260652,RUPNAGAR,DHER,PUNJAB
"STATE BANK OF PATIALA",STBP0000554,WAITING,GAUDA,"VPO GAURA TEH KANDAGHAT-173221",251377,SOLAN,GAUDA,"HIMACHAL PRADESH"
"STATE BANK OF PATIALA",STBP0000553,WAITING,GUSHANI,"VPO GUSHAINI HP-175123",225013,KULLU,GUSHAINI,"HIMACHAL PRADESH"
"STATE BANK OF PATIALA",STBP0000552,WAITING,KARLOTI,"PO KARLOTI TEH GHUMARWIN HP-",274027,BILASPUR,KARLOTI,"HIMACHAL PRADESH"
"STATE BANK OF PATIALA",STBP0000551,WAITING,NAVGAON,"TEH ARKI BLOCK KUNIHAR HP-171102",245060,SOLAN,NAVGAON,"HIMACHAL PRADESH"
"STATE BANK OF PATIALA",STBP0000550,WAITING,MORSINGHI,"VPO MORSINGHI TEH GHUMARWIN HP-174026",275018,BILASPUR,MORSINGI,"HIMACHAL PRADESH"
"STATE BANK OF PATIALA",STBP0000549,WAITING,DAYORI,"KHANETI  TEH KOT BHAI-171202 (HP)",246310,SHIMLA,DAYORI(KHANETI),"HIMACHAL PRADESH"
"STATE BANK OF PATIALA",STBP0000548,WAITING,BHOPAL,"TATYA TOPE NAGAR BHADBHADA RAOD BHOPAL-462003",561416,BHOPAL,BHOPAL,"MADHYA PRADESH"
"STATE BANK OF PATIALA",STBP0000547,WAITING,"BHIWANI(VIKAS NAGAR)","VIKAS NAGAR HARYANA-125021",242779,BHIWANI,BHIWANI,HARYANA
"STATE BANK OF PATIALA",STBP0000546,WAITING,MANPURA,"VPO MANPURABLOCK NALAGARH HP-174101",2361128,SOLAN,MANPURA,"HIMACHAL PRADESH"
"STATE BANK OF PATIALA",STBP0000545,WAITING,GHANDIR,"GHANDHIR THE GHUMARVIAN",269021,BILASPUR,GHANDHIR,"HIMACHAL PRADESH"
"STATE BANK OF PATIALA",STBP0000544,WAITING,GHARWAL,"VPO GHARWAL HARYANA-131029",266276,SONIPAT,GHARWAL,HARYANA
"STATE BANK OF PATIALA",STBP0000543,WAITING,BEHAL,"VPO BEHAL HP-174015",230033,BILASPUR,BILASPUR,"HIMACHAL PRADESH"
"STATE BANK OF PATIALA",STBP0000541,WAITING,JABLI,"BLOCK DHARAMPUR TEH KASAULI -172209",277238,SOLAN,JABLI,"HIMACHAL PRADESH"
"STATE BANK OF PATIALA",STBP0000540,WAITING,"RAIL COACH FACTORY HUSSAINPUR","RAILWAY COACH FACTORY,HUSSAINPUR,DISTT. KAPURTHALA",229478,KAPURTHALA,KAPURTHALA,PUNJAB
"STATE BANK OF PATIALA",STBP0000539,WAITING,PUJARLI-4,"VPO PUJARLI",242435,SHIMLA,PUJARLI-4,"HIMACHAL PRADESH"
"STATE BANK OF PATIALA",STBP0000538,WAITING,"PATHANKOT, SPC","SHAH PUR CHOWK, PATHANKOT",2221783,GURDASPUR,PATHANKOT,PUNJAB
"STATE BANK OF PATIALA",STBP0000537,WAITING,DAGRAHN,"JAKAT PO JAKAT KHANA TEH SADAR HP",218023,BILASPUR,DAGRAHAN,"HIMACHAL PRADESH"
"STATE BANK OF PATIALA",STBP0000536,WAITING,BHAGANI,"TEH PANOTA SAHIB HP-",249721,SIRMOUR,BHAGANI,"HIMACHAL PRADESH"
"STATE BANK OF PATIALA",STBP0000535,WAITING,MOHAUDDINPUR,"TEH KARNAL HARYANA",2381003,KARNAL,MOHAUDDINPUR,HARYANA
"STATE BANK OF PATIALA",STBP0000534,WAITING,GANGOLI,"VPO GANGOLI TEH JIND (HARYANA)",288114,JIND,GANGOLI,HARYANA
"STATE BANK OF PATIALA",STBP0000533,WAITING,KARSINDHU,"VPO KARSINDHU TEH JIND HARYANA",285917,JIND,KARSINDHU,HARYANA
"STATE BANK OF PATIALA",STBP0000532,WAITING,MATAUR,"TEH KAITHAL HARYANA",285824,KAITHAL,MATAUR,HARYANA
"STATE BANK OF PATIALA",STBP0000531,WAITING,KUNGAR,"TEH BHIWANI HARYANA",236234,BHIWANI,KUNGAR,HARYANA
"STATE BANK OF PATIALA",STBP0000529,WAITING,"GOKHLE ROAD, DADAR","GOKHLE ROAD, DADAR(W), MUMBAI",24316849,"GREATER BOMBAY",MUMBAI,MAHARASHTRA
"STATE BANK OF PATIALA",STBP0000528,WAITING,HARIYANA,"VPO HARIYANA TEH BILLARI DISTT. MORADABAD, UP-202413",222733,MORADABAD,BILARI,"UTTAR PRADESH"
"STATE BANK OF PATIALA",STBP0000527,WAITING,"KIRATPUR SAHIB","KIRATPUR SAHIB TEH ANANDPUR SAHIB-140301",238270,RUPNAGAR,"KIRATPUR SAHIB",PUNJAB
"STATE BANK OF PATIALA",STBP0000524,WAITING,THERI,"VILLAGE THERI P O PUNJABI UNIVERSITY",282449,PATIALA,THERI,PUNJAB
"STATE BANK OF PATIALA",STBP0000523,WAITING,KAIMBWALA,"UT CHANDIGARGH",2741536,CHANDIGARH,CHANDIGARH,CHANDIGARH
"STATE BANK OF PATIALA",STBP0000522,WAITING,"KHUDA ALI SHER","KHUDA ALI SHER CHANDIGARH",2785525,CHANDIGARH,CHANDIGARH,CHANDIGARH
"STATE BANK OF PATIALA",STBP0000521,WAITING,"PATIALA DIESEL CAMP WORKS","D C W , PATIALA(PUNJAB)",220185,PATIALA,PATIALA,PUNJAB
"STATE BANK OF PATIALA",STBP0000520,WAITING,"HISSAR AUTOMOBILE MKT.","206-207 AUTO MARKET BARNAFA ROAD HARYANA",277949,HISSAR,HISAR,HARYANA
"STATE BANK OF PATIALA",STBP0000518,WAITING,"NEW DELHI NARAINA INDL.AREA","B-69/11 NARAINA INDUSTRIAL AREA PHASE II NEW DELHI -110028",5706085,"NEW DELHI",DELHI,DELHI
"STATE BANK OF PATIALA",STBP0000517,WAITING,"KANPUR SHARDA NAGAR","SHARDA NAGAR, KANPUR",2631652,"KANPUR NAGAR",KANPUR,"UTTAR PRADESH"
"STATE BANK OF PATIALA",STBP0000516,WAITING,"AHMEDABAD SHAH ALAM ROZA","36, BHAWANA SOCIETY, PLOT NO 3 , GITA  MANDI ROAD , AHMEDABAD",2535545,AHMEDABAD,AHMEDABAD,GUJARAT
"STATE BANK OF PATIALA",STBP0000515,WAITING,"GHAZIABAD (SURYA NAGAR)","SURYA NAGAR C-92 GHAZIABAD UP",2622291,GHAZIABAD,GHAZIABAD,"UTTAR PRADESH"
"STATE BANK OF PATIALA",STBP0000514,WAITING,"HARDWAR STATION ROAD","STATION ROAD, HARIDWAR,  UP",220877,HARIDWAR,HARDWAR,UTTARAKHAND
"STATE BANK OF PATIALA",STBP0000513,WAITING,"NAGPUR LINK OFFICE","BHAGWAGAR BHAVAN,ICE FACTORY ROAD, NAGPUR",0,NAGPUR,NAGPUR,MAHARASHTRA
"STATE BANK OF PATIALA",STBP0000512,WAITING,"NEW DELHI SHIV NAGAR","WS┬ùIII SHIV NAGAR, NEW DELHI  -110058",5597781,"NEW DELHI",DELHI,DELHI
"STATE BANK OF PATIALA",STBP0000511,WAITING,HANDESRA,"TEH RAJPURA",78128,PATIALA,HANDESRA,PUNJAB
"STATE BANK OF PATIALA",STBP0000510,WAITING,"KARNAL URBAN ESTATE SEC-13","URBAN ESTATE SECTOR-13 HARYANA-132001",2270756,KARNAL,KARNAL,HARYANA
"STATE BANK OF PATIALA",STBP0000509,WAITING,CHHAUSHA(WAKNAGHAT),"VPO WAKNA GHAT TEHCIL SOLAN",247762,SOLAN,CHHAUSHA,"HIMACHAL PRADESH"
"STATE BANK OF PATIALA",STBP0000508,WAITING,"CHANDIGARH INDUSTRIAL AREA","117- INDUSTRIAL AREA PHASE-11 CHANDIGARH",2638134,CHANDIGARH,CHANDIGARH,CHANDIGARH
"STATE BANK OF PATIALA",STBP0000507,WAITING,"PATHANKOT-GANDHI NAGAR","GANDHI CHOWK -145001",2224297,GURDASPUR,PATHANKOT,PUNJAB
"STATE BANK OF PATIALA",STBP0000506,WAITING,SARABHA,"VILLAGE & POST OFFICE SARABHA",2864860,LUDHIANA,SARABHA,PUNJAB
"STATE BANK OF PATIALA",STBP0000505,WAITING,"JALANDHAR RAINAK BAZAR","RAINAK BAZAR,JALANDHAR",2282287,JALANDHAR,JALANDHAR,PUNJAB
"STATE BANK OF PATIALA",STBP0000504,WAITING,"CHANDIANI KHURD","VPO. CHANDIANI KHURD,THE. BALACHAUR,DISTT. NAWASHAHR",288386,NAVANSAHAR,"CHANDIANI KHURD",PUNJAB
"STATE BANK OF PATIALA",STBP0000503,WAITING,BERI,"DIST ROHTAK HARYANA-",20244,JHANJHAR,BERI,HARYANA
"STATE BANK OF PATIALA",STBP0000502,WAITING,"MOHALI S.A.S.NAGAR","PHASE-VII S.A.S. NAGAR MOHALI",230558,RUPNAGAR,"SAS NAGAR(MOHALI)",PUNJAB
"STATE BANK OF PATIALA",STBP0000500,WAITING,"DURGA NAGLA (MODIPUR)","THE DISTT. RAMPUR",2225408,RAMPUR,DURGUNAGLA,"UTTAR PRADESH"
"STATE BANK OF PATIALA",STBP0000499,WAITING,"LUDHIANA DARESI ROAD","DARESI ROAD LUDHIANA",2706047,LUDHIANA,LUDHIANA,PUNJAB
"STATE BANK OF PATIALA",STBP0000497,WAITING,"BATHINDA PARAS RAM NAGAR","PARAS RAM NAGAR BATHINDA-151001",22280527,BHATINDA,BATHINDA,PUNJAB
"STATE BANK OF PATIALA",STBP0000496,WAITING,"GURUSAR MANDHIR","GIDDERBAHA VPO GURUSAR MANDIR TEH MUKTSAR DT.",237126,MUKTSAR,GURUSAR,PUNJAB
"STATE BANK OF PATIALA",STBP0000495,WAITING,ALAMWALA,"FAZILKA ROAD ALAMWALA",254603,MUKTSAR,ALAMWALA,PUNJAB
"STATE BANK OF PATIALA",STBP0000493,WAITING,"KHARAK PUNIA","TEH HANSI HARYANA-1260011",246220,HISSAR,"KHARAK PUNIA",HARYANA
"STATE BANK OF PATIALA",STBP0000492,WAITING,KURAR,"TEH KAITHAL HARYANA",285824,KAITHAL,KURAR,HARYANA
"STATE BANK OF PATIALA",STBP0000491,WAITING,"BAWANA LAKHU","VPO HARYANA-132141",288213,PANIPAT,"BAWANA LAKHU",HARYANA
"STATE BANK OF PATIALA",STBP0000490,WAITING,RAMTHALI,"PO KAARKA TEH KURUKSHETRA HARYANA",270406,KAITHAL,"RAM THALI",HARYANA
"STATE BANK OF PATIALA",STBP0000489,WAITING,"NEW DELHI NEW FRIENDS COLONY","42 COMMUNITY CENTR NEW DELHI-110065",6824819,"NEW DELHI",DELHI,DELHI
"STATE BANK OF PATIALA",STBP0000488,WAITING,"AGRA,SANJAY PALACE","33/2 SONJAY PALACE S G ROAD AGRA UP-282002",2527411,AGRA,AGRA,"UTTAR PRADESH"
"STATE BANK OF PATIALA",STBP0000487,WAITING,"NEW DELHI JOUNTI BLOCK","JOINTI BLOCK, NEW DELHI",5952915,"NEW DELHI",DELHI,DELHI
"STATE BANK OF PATIALA",STBP0000486,WAITING,"NEW DELHI LAXMI NAGAR","MAIN BAZAR F-114C KAILASH BUILDING NEW DELHI -110092",2247380,"NEW DELHI",DELHI,DELHI
"STATE BANK OF PATIALA",STBP0000485,WAITING,"JALANDHAR GURU TEG BAHADUR NAGAR","GURU TEG BAHADUR NAGAR,JALANDHAR",2276292,JALANDHAR,JALANDHAR,PUNJAB
"STATE BANK OF PATIALA",STBP0000484,WAITING,ALAMPUR,"VPO ALAMPUR, VIA DASUYA",255684,HOSIARPUR,ALAMPUR,PUNJAB
"STATE BANK OF PATIALA",STBP0000483,WAITING,"GHANAURI KALAN","VPO GHANAURIKALAN TEH MALERKOTLA",231034,SANGRUR,"GHANAURI KALAN",PUNJAB
"STATE BANK OF PATIALA",STBP0000482,WAITING,MANDVI,"TEH SUNAM",275088,SANGRUR,MANDVI,PUNJAB
"STATE BANK OF PATIALA",STBP0000481,WAITING,JAGSI,"TEH GOHANA HARYANA-124319",270538,SONIPAT,JAGSI,HARYANA
"STATE BANK OF PATIALA",STBP0000480,WAITING,BHALAIANA,"VPO BHALAIANA",234629,MUKTSAR,BHALAIANA,PUNJAB
"STATE BANK OF PATIALA",STBP0000479,WAITING,"BANGI RULDU","TEH TALWANDI SABO BATHINDA-151302",244814,BHATINDA,"BANGI RULDU",PUNJAB
"STATE BANK OF PATIALA",STBP0000478,WAITING,UBHAWAL,"V P O UBHAWAL",284248,SANGRUR,UBHAWAL,PUNJAB
"STATE BANK OF PATIALA",STBP0000477,WAITING,"MUNDI CHHURI MARAN","AT MAKHU TEH ZIRA",270370,FEROZEPUR,"MUNDI CHHURI MALAN",PUNJAB
"STATE BANK OF PATIALA",STBP0000476,WAITING,"BHATIWAL KALAN","TEH & DIST SANGRUR",72204,SANGRUR,"BHATIWAL KALAN",PUNJAB
"STATE BANK OF PATIALA",STBP0000475,WAITING,"NEW DELHI PASCHIM PURI","JAWALA HERI MARKET PASCHIM PURI, NEW DELHI  -110063",5580526,"NEW DELHI",DELHI,DELHI
"STATE BANK OF PATIALA",STBP0000474,WAITING,"KOLKATA-BURRA BAZAR","276, RAVINDRA SARNI,NEAR GANESH TALKIES, BURRA BAZAR, KOLKATA-700007",22697742,KOLKATA,KOLKATA,"WEST BENGAL"
"STATE BANK OF PATIALA",STBP0000473,WAITING,"DOOMERKHA KALAN","TEH NARWANA HARYANA-126116",244312,JIND,"DOOMERKHA KALAN",HARYANA
"STATE BANK OF PATIALA",STBP0000472,WAITING,"JALALABAD EAST","JALABAD EAST",220180,MOGA,JALALABAD,PUNJAB
"STATE BANK OF PATIALA",STBP0000471,WAITING,"JHAN JHOTI","VPO JHAN JHOTI, TEH. AJNALA",233363,AMRITSAR,JHANJHOTI,PUNJAB
"STATE BANK OF PATIALA",STBP0000470,WAITING,"NEW DELHI MAHIPAL PUR","MAHIPLUR, NEW DELHI",6896939,"NEW DELHI",DELHI,DELHI
"STATE BANK OF PATIALA",STBP0000469,WAITING,"NEW DELHI PALAM EXTENSION","WZ-172 PALAM EXTENSION NEW DELHI -110045",7263053,"NEW DELHI",DELHI,DELHI
"STATE BANK OF PATIALA",STBP0000468,WAITING,KARYAL,KARYAL,240401,MOGA,KARYAL,PUNJAB
"STATE BANK OF PATIALA",STBP0000466,WAITING,DHARAMGARH,"VPO DHARAMGARH TEH SUNAM",81105,SANGRUR,DHARAMGARH,PUNJAB
"STATE BANK OF PATIALA",STBP0000465,WAITING,CHAMBA,"JULKHARI PO HARDASPURA HP-171318",222276,CHAMBA,CHAMBA,"HIMACHAL PRADESH"
"STATE BANK OF PATIALA",STBP0000464,WAITING,DHARAMKOT,"DHARAMKOT TEHCIL MOGA",220090,MOGA,DHARMKOT,PUNJAB
"STATE BANK OF PATIALA",STBP0000463,WAITING,"LUDHIANA-COMMERCIAL BRANCH","COMMERCIAL BRANCH, LUDHIANA",2547855,LUDHIANA,LUDHIANA,PUNJAB
"STATE BANK OF PATIALA",STBP0000462,WAITING,"WANDER JATANA","WANDER JATANA",239455,FARIDKOT,"WANDER JALANA",PUNJAB
"STATE BANK OF PATIALA",STBP0000461,WAITING,"HARSHA CHHINA","VPO HARSHA CHHINA,TEH.AJNALA",264141,AMRITSAR,HARSHACHHINA,PUNJAB
"STATE BANK OF PATIALA",STBP0000460,WAITING,JOHAL,"VPO JOHAL, VIA KHUDA",255348,HOSIARPUR,JOHAL,PUNJAB
"STATE BANK OF PATIALA",STBP0000459,WAITING,"JAGADHRI N.R.W.","NORTHERN RAILWAY WORKSHOP HARYANA",230165,YAMUNANAGAR,JAGADHRI,HARYANA
"STATE BANK OF PATIALA",STBP0000458,WAITING,"MUMBAI (BANDRA)","82 HILL ROAD OSCAR APARTMENTS BANDRA BOMBAY-50",6443440,"GREATER BOMBAY",MUMBAI,MAHARASHTRA
"STATE BANK OF PATIALA",STBP0000457,WAITING,RALLA,"DIST MANSA-151057",250062,BHATINDA,RALLA,PUNJAB
"STATE BANK OF PATIALA",STBP0000456,WAITING,"SANGRUR N.G.M.","NEW GRAIN MARKET",34113,SANGRUR,SANGRUR,PUNJAB
"STATE BANK OF PATIALA",STBP0000455,WAITING,SARANGPUR,"VILL SARANGPUR PO MULLANJPUR UT CHANDGARH",2789342,CHANDIGARH,CHANDIGARH,CHANDIGARH
"STATE BANK OF PATIALA",STBP0000454,WAITING,DHILWAN,"VPO. DHILWAN DISTT. KAPURTHALA",273573,KAPURTHALA,DHILWAN,PUNJAB
"STATE BANK OF PATIALA",STBP0000453,WAITING,"PATIALA SAI MARKET","LOWER MALL PATILAL-147001",2203787,PATIALA,PATIALA,PUNJAB
"STATE BANK OF PATIALA",STBP0000452,WAITING,"DHILWAN KALAN","VPO DHILWAN KALAN TEH FARIDKOT-151204",20897,FARIDKOT,"DHILWAN KALAN",PUNJAB
"STATE BANK OF PATIALA",STBP0000451,WAITING,RAMGARH,"TEH KALKA HARYANA",2297681,PANCHKULA,RAMGARH,HARYANA
"STATE BANK OF PATIALA",STBP0000450,WAITING,"LAKHAN KE PADDE","VPO LAKHAN KE PADDE,DISTT.KAPURTHALA",262887,KAPURTHALA,KAPURTHALA,PUNJAB
"STATE BANK OF PATIALA",STBP0000449,WAITING,"LUCKNOW MEMORA AFS","AIR FORCE STATION PO BANTHARA UP-227101",2864111,LUCKNOW,LUCKNOW,"UTTAR PRADESH"
"STATE BANK OF PATIALA",STBP0000448,WAITING,BADDI,"BADDI TEH NALAGARH",24564,SOLAN,BADDI,"HIMACHAL PRADESH"
"STATE BANK OF PATIALA",STBP0000447,WAITING,LOHKA,"VPO LOHKA, TEH. PATTI",226596,AMRITSAR,LOHKA,PUNJAB
"STATE BANK OF PATIALA",STBP0000446,WAITING,"RAJPURA GRAIN-MARKET","GRAIN MARKET, RAJPURA(PUNJAB)",223591,PATIALA,RAJPURA,PUNJAB
"STATE BANK OF PATIALA",STBP0000445,WAITING,"BANGLORE, INDIRA NAGAR","BR COMPLEX, 237-240, II STAGE, INDIARA NAGAR, BANGLORE-560038",6583923,"BANGALORE URBAN",BANGALORE,KARNATAKA
"STATE BANK OF PATIALA",STBP0000444,WAITING,AMARGARH,"VPO AMARGARH, TEH. MALERKOTLA(PUNJAB)",284260,SANGRUR,AMARGARH,PUNJAB
"STATE BANK OF PATIALA",STBP0000443,WAITING,"SUNAM H.S.HIGH SC.","(HINDU SABHA HIGH SCHOOL, SUNAM(PUNJAB)",220138,SANGRUR,SUNAM,PUNJAB
"STATE BANK OF PATIALA",STBP0000442,WAITING,SHUTRANA,"TEH SAMANA",282001,PATIALA,SHUTRANA,PUNJAB
"STATE BANK OF PATIALA",STBP0000441,WAITING,SIDHBARI,"PO SADHBARI TEH KANGRA HP-176057",236040,KANGRA,SIDHBARI,"HIMACHAL PRADESH"
"STATE BANK OF PATIALA",STBP0000440,WAITING,"ROPAR THERMAL PLANT (S.COMPLEX","SHOPPING COMPLEX T P AREA ROPAR-140001",222125,RUPNAGAR,RUPNAGAR,PUNJAB
"STATE BANK OF PATIALA",STBP0000439,WAITING,"NATHU SRI CHOPTA","TEH SIRSA HARYANA-125055",248808,SIRSA,SIRSA,HARYANA
"STATE BANK OF PATIALA",STBP0000438,WAITING,RONHAT,"PO RONHAT TEH SHILLAI HP-173027",276422,SIRMOUR,SHILLAI,"HIMACHAL PRADESH"
"STATE BANK OF PATIALA",STBP0000437,WAITING,KANJLA,"VPO KANJLA",278102,SANGRUR,KANJLA,PUNJAB
"STATE BANK OF PATIALA",STBP0000436,WAITING,"NARNAUL DISTT.COURTS","DISTRICT COURTS DIST-MOHINDERGARH HARYANA-123001",251951,MAHENDRAGARH,NARNAUL,HARYANA
"STATE BANK OF PATIALA",STBP0000435,WAITING,KAZHERI,"VILLAGE KEHERI PO BADHORI UT CHANDIGARH",2604342,CHANDIGARH,CHANDIGARH,CHANDIGARH
"STATE BANK OF PATIALA",STBP0000434,WAITING,GURDITPURA,"VIA BAGRIAN, TEH.NABHA(PUNJAB)",276004,PATIALA,GURDITPURA,PUNJAB
"STATE BANK OF PATIALA",STBP0000433,WAITING,NATHANA,"TEH BATHINDA-",2750321,BHATINDA,NATHANA,PUNJAB
"STATE BANK OF PATIALA",STBP0000432,WAITING,DRAWL,"P O KARYALI VIA BASANTPUR-171108(HP)",2764418,SHIMLA,DRAWL,"HIMACHAL PRADESH"
"STATE BANK OF PATIALA",STBP0000431,WAITING,DOMEHAR,"VPO DOMEHAR TEH ARKI-173221",230453,SOLAN,DOMEHER,"HIMACHAL PRADESH"
"STATE BANK OF PATIALA",STBP0000430,WAITING,"AMBEDKAR CHOWK,JALANDHAR","AMBEDKAR CHOWK, JALANDHAR(PUNJAB)-144031",235409,JALANDHAR,JALANDHAR,PUNJAB
"STATE BANK OF PATIALA",STBP0000429,WAITING,DADUMAJRA,"VILLAGE DADUMAJRA PO MALOYA CHANDIGARH",2643319,CHANDIGARH,CHANDIGARH,CHANDIGARH
"STATE BANK OF PATIALA",STBP0000428,WAITING,DARIA,"VIA MAIN MAJRA-160101",2654784,CHANDIGARH,CHANDIGARH,CHANDIGARH
"STATE BANK OF PATIALA",STBP0000427,WAITING,"CHANDIGARH SECTOR 38-C","SECTOR-38 C CHANDIGARH-160036",2690421,CHANDIGARH,CHANDIGARH,CHANDIGARH
"STATE BANK OF PATIALA",STBP0000426,WAITING,BEESLA,"VPO. BEESLA DISTT. NAWASHAHR",252575,NAVANSAHAR,BEESLA,PUNJAB
"STATE BANK OF PATIALA",STBP0000425,WAITING,BANBOHRA,"VPO BANBORA TEH MALERKOTLA",285226,SANGRUR,"BAN BORA",PUNJAB
"STATE BANK OF PATIALA",STBP0000424,WAITING,BADMALIK,"P O P S RAI HARYANA-",244907,SONIPAT,BADMALIK,HARYANA
"STATE BANK OF PATIALA",STBP0000423,WAITING,JALALDIWAL,"VILLAGE & POST OFFICE JALALDEWAL",258415,SANGRUR,JALALDIWAL,PUNJAB
"STATE BANK OF PATIALA",STBP0000422,WAITING,"LOHAT BADDI","VILLAGE & POST  OFFICE LOHAT BADDI",290087,SANGRUR,"LOHAT BADDI",PUNJAB
"STATE BANK OF PATIALA",STBP0000421,WAITING,"NEW DELHI DDA FLATS,KALKAJI","DDA FLATS, KALKAJI, NEW DELHI",26479913,"NEW DELHI",DELHI,DELHI
"STATE BANK OF PATIALA",STBP0000420,WAITING,"KALYAN SUKHA","VPO KALYAQNSUKHA TEH NATHANA BATHINDA-",2755168,BHATINDA,"KALYAN SUKHA",PUNJAB
"STATE BANK OF PATIALA",STBP0000419,WAITING,"ROPAR RED CROSS BHAWAN","ROOP NAGAR RED CROSS BHAWAN-140001",220452,RUPNAGAR,RUPNAGAR,PUNJAB
"STATE BANK OF PATIALA",STBP0000418,WAITING,"BASSI PATHANA A.D.B.","BLOCK BASSI PATHANA",250021,"FATEHGARH SAHEB","BASSI PATHANA",PUNJAB
"STATE BANK OF PATIALA",STBP0000417,WAITING,GULZARPUR,"VPO GULZARPUR, TEH. SAMANA(PUNJAB)",285157,PATIALA,GULZARPUR,PUNJAB
"STATE BANK OF PATIALA",STBP0000416,WAITING,SANYANA,"VIA UKLANA TEH TOHANA DIST FATEHABAD HARYANA-126009",232404,FATEHABAD,SANYANA,HARYANA
"STATE BANK OF PATIALA",STBP0000415,WAITING,HARNOL,"VILL HARNOL TEH JAGADHARI",277224,YAMUNANAGAR,HARNOL,HARYANA
"STATE BANK OF PATIALA",STBP0000414,WAITING,TEJLI,"VILLAGE TEJLI PO JAGADHARI",288064,YAMUNANAGAR,TEJLI,HARYANA
"STATE BANK OF PATIALA",STBP0000413,WAITING,BURASS,"V & PO BURASS (VIA MANAKPUR) BLOCK BASSI PATHANA",256220,"FATEHGARH SAHEB",BURASS,PUNJAB
"STATE BANK OF PATIALA",STBP0000412,WAITING,AMLALA,"(VIA RAJPURA) TEH RAJPURA(PUNJAB)",281490,PATIALA,AMLALA,PUNJAB
"STATE BANK OF PATIALA",STBP0000411,WAITING,"BHISIANA AIRFORCE STATION","AFS BHASIANA TEH BATHINDA-151201",2449100,BHATINDA,BHISIANA,PUNJAB
"STATE BANK OF PATIALA",STBP0000410,WAITING,"BANGOWANI KUNJAR","VPO BANGOWANI KUNAR",266348,GURDASPUR,GURDASPUR,PUNJAB
"STATE BANK OF PATIALA",STBP0000409,WAITING,"JIND MINI SECTT.AREA","MINI SECREATARIAT AREA 10 HOUSING BOARD COLONG HARYANA-126102",255405,JIND,JIND,HARYANA
"STATE BANK OF PATIALA",STBP0000408,WAITING,MAYAR,"VPO MAYAR TEH HISAR HARYANA-",261436,HISSAR,MAYAR,HARYANA
"STATE BANK OF PATIALA",STBP0000407,WAITING,SANAUR,"TEH PATIALA",2650243,PATIALA,SANAUR,PUNJAB
"STATE BANK OF PATIALA",STBP0000406,WAITING,NADAMPUR,"TEH MALERKOTLA",275407,SANGRUR,NADAMPUR,PUNJAB
"STATE BANK OF PATIALA",STBP0000405,WAITING,CHANANWAL,"TEH BARNALA",282327,SANGRUR,CHANANWAL,PUNJAB
"STATE BANK OF PATIALA",STBP0000404,WAITING,SHEIKHPURA,"VPO SHEIKPURA TEH TALWANDI SABO BATHINDA",238421,BHATINDA,SHEIKHPURA,PUNJAB
"STATE BANK OF PATIALA",STBP0000403,WAITING,"NEW DELHI PITAMPURA","PITAMPURA NEW DELHI -110034",7272906,"NEW DELHI",DELHI,DELHI
"STATE BANK OF PATIALA",STBP0000402,WAITING,JAKHWALI,JAKHWALI(PUNJAB),207425,"FATEHGARH SAHEB",JAKHWALI,PUNJAB
"STATE BANK OF PATIALA",STBP0000401,WAITING,NASRALA,"VPO NASRALA, HOSHIARPUR",260248,HOSIARPUR,NASRALA,PUNJAB
"STATE BANK OF PATIALA",STBP0000400,WAITING,HATHIN,"GEN LAB ROAD, HATHIN, HARYANA-121103",261238,FARIDABAD,HATHIN,HARYANA
"STATE BANK OF PATIALA",STBP0000399,WAITING,"TUTO MAZARA","VPO TUTO MAZARA, GARHSHANKAR",248092,HOSIARPUR,GARHSHANKAR,PUNJAB
"STATE BANK OF PATIALA",STBP0000398,WAITING,MULLOWAL,"VPO MULLOWAL TEH MALEKOTLA",273202,SANGRUR,MULLOWAL,PUNJAB
"STATE BANK OF PATIALA",STBP0000397,WAITING,BILASPUR,"225-226 B MAIN MARKET HP-174001",222516,BILASPUR,BILASPUR,"HIMACHAL PRADESH"
"STATE BANK OF PATIALA",STBP0000396,WAITING,"JAI DEVI","TEH SUNDER NAGAR",274008,MANDI,"JAI DEVI","HIMACHAL PRADESH"
"STATE BANK OF PATIALA",STBP0000395,WAITING,BAREH,"VPO BAREH",251667,MANSA,BAREH,PUNJAB
"STATE BANK OF PATIALA",STBP0000394,WAITING,"NAROT JAI. SINGH","NAROT JAIMAL SINGH",2269231,GURDASPUR,"NAROT JAIMAL SINGH",PUNJAB
"STATE BANK OF PATIALA",STBP0000393,WAITING,ASRON,"P.O.ASRON THE. BALACHAUR DISTT. NAWASHAHR",270257,NAVANSAHAR,ASRON,PUNJAB
"STATE BANK OF PATIALA",STBP0000392,WAITING,KILLIANWALI,"PO MANDI DABAWALI TEH MUKATSAR-152104",222968,MUKTSAR,KILLIANWALI,PUNJAB
"STATE BANK OF PATIALA",STBP0000391,WAITING,ANWAL,"VPO ANWAL TEH ROHTAK HARYANA-124411",262339,ROHTAK,ANWAL,HARYANA
"STATE BANK OF PATIALA",STBP0000390,WAITING,BAKSHIWALA,THE.PATIALA(PUNJAB),0,PATIALA,BAKSHIWALA,PUNJAB
"STATE BANK OF PATIALA",STBP0000389,WAITING,BHOGIWAL,"TEH MALERKOTLA",283303,SANGRUR,BHOGIWAL,PUNJAB
"STATE BANK OF PATIALA",STBP0000388,WAITING,PANIAR,"VPO PANIAR, THE. GURDASPUR",309293,GURDASPUR,PANIAR,PUNJAB
"STATE BANK OF PATIALA",STBP0000387,WAITING,"SECTOR 7,PANCHKULA","SECTOR 7,PANCHKULA(HARYANA)",2596225,PANCHKULA,PANCHKULA,HARYANA
"STATE BANK OF PATIALA",STBP0000386,WAITING,CHALAILA,"VPO CHALAILA",261332,"FATEHGARH SAHEB","FATEHGARH SAHIB",PUNJAB
"STATE BANK OF PATIALA",STBP0000385,WAITING,"BATHINDA GRAIN MARKET","GRAIN MARKET BATHINDA-151001",2240277,BHATINDA,BATHINDA,PUNJAB
"STATE BANK OF PATIALA",STBP0000384,WAITING,MUKATSAR,DIST-FARIDKOT-156026,260148,MUKTSAR,MUKTSAR,PUNJAB
"STATE BANK OF PATIALA",STBP0000383,WAITING,BANUR,"V & PO BANUR TEH RAJPURA",451477,PATIALA,BANUR,PUNJAB
"STATE BANK OF PATIALA",STBP0000382,WAITING,NANGAL,"ADDA MARKET NANGAL TOWNSHIP-140124",224090,RUPNAGAR,NANGAL,PUNJAB
"STATE BANK OF PATIALA",STBP0000381,WAITING,"NEW DELHI KARALA","KANJHANWALA BLOCK , KARALA, NEW DELHI",5596449,"NEW DELHI",DELHI,DELHI
"STATE BANK OF PATIALA",STBP0000380,WAITING,"NEW DELHI BAMNOLI","NAJAFGARH ROAD , BAMNOLI, NEW DELHI",5566623,"NEW DELHI",DELHI,DELHI
"STATE BANK OF PATIALA",STBP0000379,WAITING,BHIKHI,"DIST MANSA-151504",275542,MANSA,BHIKHI,PUNJAB
"STATE BANK OF PATIALA",STBP0000378,WAITING,"AWAHA DEVI","AWAHA DEVI HP",275022,HAMIRPUR,"AWAHA DEVI","HIMACHAL PRADESH"
"STATE BANK OF PATIALA",STBP0000377,WAITING,"JAND MANGOLI","VPO JAND MANGOLI, OPP PANCHAYAT GHAR, TEH. RAJPURA(PUNJAB)",262236,PATIALA,"JAND MANGAULI",PUNJAB
"STATE BANK OF PATIALA",STBP0000376,WAITING,"NEW DELHI KONDLI","SHADARA BLOCK,MAYUR VIHAR, PHASE -III , NEW DELHI",229540,"NEW DELHI",DELHI,DELHI
"STATE BANK OF PATIALA",STBP0000375,WAITING,"NEW DELHI POOTH KALAN","BLOCK KANJHAWALA ROAD, NEW DELHI",5586003,"NEW DELHI",DELHI,DELHI
"STATE BANK OF PATIALA",STBP0000374,WAITING,BADSHAHPUR,"ANAZ MANDI, BADSHAHPUR, TEH. SAMANA(PUNJAB)",266327,PATIALA,BADSHAHPUR,PUNJAB
"STATE BANK OF PATIALA",STBP0000373,WAITING,"NEW DELHI AZADPUR","SABZI MANDI 27 TRANSPORT CENTRE PIN-110033",5552475,"NEW DELHI",DELHI,DELHI
"STATE BANK OF PATIALA",STBP0000372,WAITING,"DHAND MANDI","TEH PUNDRI DIST KAITHAL HARYANA-132020",250266,KAITHAL,PUNDRI,HARYANA
"STATE BANK OF PATIALA",STBP0000371,WAITING,"KAITHAL N.G.M.","NEW GRAIN MARKET HARYANA-132027",222938,KAITHAL,KAITHAL,HARYANA
"STATE BANK OF PATIALA",STBP0000370,WAITING,KAULI,"TEH PATIALA",2663534,PATIALA,KAULI,PUNJAB
"STATE BANK OF PATIALA",STBP0000369,WAITING,"PHAGWARA RLY. ROAD","RAILWAY ROAD,PHAGWARA,DISTT. KAPURTHALA",260303,KAPURTHALA,PHAGWARA,PUNJAB
"STATE BANK OF PATIALA",STBP0000368,WAITING,"BHUCHO MANDI","BHUCHO MANDI TEH BATHINDA-151101",0,BHATINDA,"BHUCHO MANDI",PUNJAB
"STATE BANK OF PATIALA",STBP0000367,WAITING,MEHLAN,"MEHLAN CHOWK TEH SUNAM",287511,SANGRUR,MEHLAN,PUNJAB
"STATE BANK OF PATIALA",STBP0000366,WAITING,"AMBALA CANTT.(SADAR BAZAR)","SADAR BAZAR (HARYANA)",2644523,AMBALA,"AMBALA CANTT.",HARYANA
"STATE BANK OF PATIALA",STBP0000365,WAITING,"NABHA N.G.M.","N.G.M. NABHA(PUNJAB)",220191,PATIALA,NABHA,PUNJAB
"STATE BANK OF PATIALA",STBP0000364,WAITING,BARMANA,"TEH SADAR HP-174013",244491,BILASPUR,BARMANA,"HIMACHAL PRADESH"
"STATE BANK OF PATIALA",STBP0000363,WAITING,ATTA,"TEH PANIPAT  HARYANA-",661542,PANIPAT,ATTA,HARYANA
"STATE BANK OF PATIALA",STBP0000362,WAITING,JALALPUR,"VIL. BANUR, TEH. RAJPURA(PUNJAB)",251538,PATIALA,JALALPUR,PUNJAB
"STATE BANK OF PATIALA",STBP0000361,WAITING,UPPLI,"VILLAGE UPPLI",234372,SANGRUR,UPPLI,PUNJAB
"STATE BANK OF PATIALA",STBP0000360,WAITING,"PATIALA AURBINDO BHAWAN","ROSE GARDEN, PATIALA(PUNJAB)",2301452,PATIALA,PATIALA,PUNJAB
"STATE BANK OF PATIALA",STBP0000359,WAITING,"RAIPUR RANI","TEH NARAINGARH DIST PANCHKULA HARYANA-134204",256642,PANCHKULA,"RAIPUR RANI",HARYANA
"STATE BANK OF PATIALA",STBP0000358,WAITING,ASSANDH,HARYANA-132009,278295,PANIPAT,ASSANDH,HARYANA
"STATE BANK OF PATIALA",STBP0000357,WAITING,SIRSA,"2 & 3 NEW ADDITIONAL MANDI TEH SIRSA HARYANA-125055",255406,SIRSA,SIRSA,HARYANA
"STATE BANK OF PATIALA",STBP0000356,WAITING,"ADAMPUR MANDI",HARYANA-125052,242106,HISSAR,"MANDI ADAMPUR",HARYANA
"STATE BANK OF PATIALA",STBP0000355,WAITING,DEHAR,"NEAR LALRUMANDI,TEH. RAJPURA(PUNJAB)",279384,PATIALA,RAJPURA,PUNJAB
"STATE BANK OF PATIALA",STBP0000354,WAITING,JALAL,"TEH PHUL -151108",235141,BHATINDA,JALAL,PUNJAB
"STATE BANK OF PATIALA",STBP0000353,WAITING,SINGHO,"VPO SINGHO TEH TALWANDI SABO BATHINDA",228124,BHATINDA,SINGHO,PUNJAB
"STATE BANK OF PATIALA",STBP0000352,WAITING,NIHALSINGHWALA,"TEH MOGA FARIDKOT-142055",254157,MOGA,"NIHAL SINGH WALA",PUNJAB
"STATE BANK OF PATIALA",STBP0000351,WAITING,"LEHAL KALAN","(VIA MOONAK) TEH. SUNAM(PUNJAB)",277553,SANGRUR,"LEHAL KALAN",PUNJAB
"STATE BANK OF PATIALA",STBP0000350,WAITING,"MEHAL KALAN A.D.B.","TEH BARNALA",55145,SANGRUR,"MAHAL KALAN",PUNJAB
"STATE BANK OF PATIALA",STBP0000349,WAITING,"BARNALA A.D.B.","A.D.B. BARNALA(PUNJAB)",230227,SANGRUR,BARNALA,PUNJAB
"STATE BANK OF PATIALA",STBP0000348,WAITING,CHABHAL,"VPO CHABHAL,TEH. TARN TARAN",277293,AMRITSAR,CHABHAL,PUNJAB
"STATE BANK OF PATIALA",STBP0000347,WAITING,"LUDHIANA  IND. AREA","IND. AREA A LUDHIANA",2222091,LUDHIANA,LUDHIANA,PUNJAB
"STATE BANK OF PATIALA",STBP0000346,WAITING,RAMPUR,"MUNCIPAL BOARD PERMISES SHAHABAD ROAD RAMPUR UP-247901",2354216,RAMPUR,RAMPUR,"UTTAR PRADESH"
"STATE BANK OF PATIALA",STBP0000345,WAITING,AHMEDABAD,"VASU PUJYA CHAMBERS, ASHRAM ROAD, AHMEDABAD",27542432,AHMEDABAD,AHMEDABAD,GUJARAT
"STATE BANK OF PATIALA",STBP0000344,WAITING,"LUCKNOW GANESH GANJ","ARYA SAMAJ MANDIR, GANESH GANJ, LUCKNOW,  UP-226018",2419317,LUCKNOW,LUCKNOW,"UTTAR PRADESH"
"STATE BANK OF PATIALA",STBP0000343,WAITING,"NEW DELHI OKHALA INDL. AREA","OKHLA INDUSTRIAL AREA PHASE-I, NEW DELHI",6819462,"NEW DELHI",DELHI,DELHI
"STATE BANK OF PATIALA",STBP0000342,WAITING,KHATAULI,"RAILWAY ROAD TEH JANSATH, DIST. MUZAFFARNAGAR",272156,"MUZAFFAR NAGAR",KHATAULI,"UTTAR PRADESH"
"STATE BANK OF PATIALA",STBP0000341,WAITING,"MORADABAD BARTAN BAZAR","BARTAN BAZAR MORADABAD, UP-244001",327982,MORADABAD,MORADABAD,"UTTAR PRADESH"
"STATE BANK OF PATIALA",STBP0000340,WAITING,SIKANDRABAD,"RAILWAY ROAD, SIKANDRABAD UP-203205",269665,BULANDSHEHAR,SIKANDRABAD,"UTTAR PRADESH"
"STATE BANK OF PATIALA",STBP0000339,WAITING,JAIPUR,"MAYA MISSION M I ROAD JAIPUR-302001",2363299,JAIPUR,JAIPUR,RAJASTHAN
"STATE BANK OF PATIALA",STBP0000338,WAITING,BALLUANA,"VPO BULLUANA BATHINDA-151001",2447579,BHATINDA,BALLUANA,PUNJAB
"STATE BANK OF PATIALA",STBP0000337,WAITING,KHANPUR,"VPO KHANPUR TEH MALERKOTLA",288215,SANGRUR,KHANPUR,PUNJAB
"STATE BANK OF PATIALA",STBP0000336,WAITING,HATHAN,"VPO HATHAN TEH MALERKOTLA",279006,SANGRUR,HATHAN,PUNJAB
"STATE BANK OF PATIALA",STBP0000335,WAITING,JAKHEPAL,"TEH SUNAM",288021,SANGRUR,JAKHEPAL,PUNJAB
"STATE BANK OF PATIALA",STBP0000334,WAITING,NAGPUR,"2 CENTRAL AVENUE NAGPUR-440018",725166,NAGPUR,NAGPUR,MAHARASHTRA
"STATE BANK OF PATIALA",STBP0000333,WAITING,KATRON,"VPO KATRON TEH MALERKOTLA",233371,SANGRUR,KATRON,PUNJAB
"STATE BANK OF PATIALA",STBP0000332,WAITING,"KHIALA KALAN","VPO KHIALA KALAN",267010,MANSA,"KHYALA KALAN",PUNJAB
"STATE BANK OF PATIALA",STBP0000331,WAITING,KAMALPUR,"(VIA BILUPUR)",246452,PATIALA,KAMALPUR,PUNJAB
"STATE BANK OF PATIALA",STBP0000330,WAITING,"KALA JHAR","VPO KALAJHAR",274558,SANGRUR,KALJHAR,PUNJAB
"STATE BANK OF PATIALA",STBP0000329,WAITING,"NEW DELHI DEFENCE COLONY","23 DEFENCE COLONY MARKET NEW DELHI -110024",229540,"NEW DELHI",DELHI,DELHI
"STATE BANK OF PATIALA",STBP0000328,WAITING,GAJEWAS,"TEH SAMANA",261048,PATIALA,GAJEWAS,PUNJAB
"STATE BANK OF PATIALA",STBP0000327,WAITING,"MORADABAD HINDU COLLEGE","HINDU COLLEGE, MORADABAD, UP-244001",2310446,MORADABAD,MORADABAD,"UTTAR PRADESH"
"STATE BANK OF PATIALA",STBP0000326,WAITING,"KARNAL N.D.R.I.",HARYANA-132001,2252461,KARNAL,KARNAL,HARYANA
"STATE BANK OF PATIALA",STBP0000325,WAITING,"DEHRADUN HARDWAR ROAD","57/2J HARDWAR ROAD, DEHRADUN, UP-248001",2629089,DEHRADUN,DEHRADUN,UTTARAKHAND
"STATE BANK OF PATIALA",STBP0000324,WAITING,NOIDA,"B-130 SECTOR-6, NOIDA , GHAZIABAD, UP",2422350,"GAUTAM BODDA NAGAR",NOIDA,"UTTAR PRADESH"
"STATE BANK OF PATIALA",STBP0000323,WAITING,"PATIALA P.S.E.B.","P.S.E.B., PATIALA",217605,PATIALA,PATIALA,PUNJAB
"STATE BANK OF PATIALA",STBP0000322,WAITING,TUNGWALI,"TEH BATHINDA-151101",2758109,BHATINDA,TUNGWALI,PUNJAB
"STATE BANK OF PATIALA",STBP0000321,WAITING,"PAONTA SAHIB","TEH POANTA SAHIB HP-173025",222319,SIRMOUR,"PAONTA SAHIB","HIMACHAL PRADESH"
"STATE BANK OF PATIALA",STBP0000320,WAITING,"CHENNAI, BROADWAY","98, BROADWAY GEORGE TOWN, CHENNAI(TAMILNADU)-600108",25229538,CHENNAI,CHENNAI,"TAMIL NADU"
"STATE BANK OF PATIALA",STBP0000319,WAITING,SARDULGARH,"TEH MANSA-151057",250062,MANSA,SARDULGARH,PUNJAB
"STATE BANK OF PATIALA",STBP0000318,WAITING,FEROZABAD,"RANI WALA MARKET , DISTT. AGRA",2242244,FIROZABAD,FIROZABAD,"UTTAR PRADESH"
"STATE BANK OF PATIALA",STBP0000317,WAITING,RANWAR,HARYANA-132001,2387547,KARNAL,RANWAR,HARYANA
"STATE BANK OF PATIALA",STBP0000316,WAITING,"AMBALA CITY G.T.ROAD",HARYANA-134002,244343,AMBALA,AMBALA,HARYANA
"STATE BANK OF PATIALA",STBP0000315,WAITING,SHAHKOT,"JAWAHAR MARKET,SHAHKOT,DISTT JALANDHAR",260138,JALANDHAR,SHAHKOT,PUNJAB
"STATE BANK OF PATIALA",STBP0000314,WAITING,"THARA UPRALA","PO DHAR KALAN, TEH. PATHANKOT",251348,GURDASPUR,"THARA UPRALA",PUNJAB
"STATE BANK OF PATIALA",STBP0000313,WAITING,"COMMERCIAL BRANCH,NARIMAN POINT, MUMABI",MUMBAI,400021,"GREATER BOMBAY",MUMBAI,MAHARASHTRA
"STATE BANK OF PATIALA",STBP0000312,144007014,"JALANDHAR CHHOTI BARADARI","SCO 37, CRYSTAL PLAZA, CHHOTI BARADARI PART 1, GARHA ROAD JALANDHAR 144001",2483785,JALANDHAR,JALANDHAR,PUNJAB
"STATE BANK OF PATIALA",STBP0000311,WAITING,"PATIALA DUKHNIWARAN SAHIB","DUKHNIVARAN SAHIB, PATIALA(PUNJAB)",2362793,PATIALA,PATIALA,PUNJAB
"STATE BANK OF PATIALA",STBP0000310,WAITING,"BABA BAKALA","VPO BABA BAKALA",245234,AMRITSAR,"BABA BAKALA",PUNJAB
"STATE BANK OF PATIALA",STBP0000309,WAITING,"MANAWALA ADB","VPO MANAWALA, TEH. AMRITSAR",0,AMRITSAR,MANANWALA,PUNJAB
"STATE BANK OF PATIALA",STBP0000308,WAITING,BEHNIWAL,"VPO BEHNIWAL",267057,MANSA,BEHNIWAL,PUNJAB
"STATE BANK OF PATIALA",STBP0000307,WAITING,PATNA,"BERI ROAD, PATNA",2674865,PATNA,PATNA,BIHAR
"STATE BANK OF PATIALA",STBP0000306,WAITING,"CHANDIGARH PB & HARYANA HIGHCT","CHANDIGARH PB & HARYANA HIGHCT",2740745,CHANDIGARH,CHANDIGARH,CHANDIGARH
"STATE BANK OF PATIALA",STBP0000305,WAITING,"PATLI KUHI","PO KATRAIN HP-175129",240157,KULLU,"PATLI KUHL","HIMACHAL PRADESH"
"STATE BANK OF PATIALA",STBP0000304,WAITING,"FARIDABAD SECTOR 24","PLOT NO.367, SECTOR-24, FARIDABAD- 121005",5238890,FARIDABAD,FARIDABAD,HARYANA
"STATE BANK OF PATIALA",STBP0000303,WAITING,"NEW DELHI PARLIAMENT STREET","30 REGAL BLDG, PARLIAMENT STREET,  NEW DELHI",113345134,"NEW DELHI",DELHI,DELHI
"STATE BANK OF PATIALA",STBP0000302,WAITING,THALI,"V THALI PO GHANAULI TEH ROPAR-140113",265249,RUPNAGAR,THALI,PUNJAB
"STATE BANK OF PATIALA",STBP0000301,WAITING,"FATTA MALUKA","DIST MANSA-151505",259161,MANSA,"FATTA MALUKA",PUNJAB
"STATE BANK OF PATIALA",STBP0000300,WAITING,FATEHABAD,"35 ANAJ MANDI TEH FATEHABAD HARYANA-125050",220225,FATEHABAD,FATEHABAD,HARYANA
"STATE BANK OF PATIALA",STBP0000299,WAITING,HIMMATGARH,HIMMATGARH(PUNJAB),0,"FATEHGARH SAHEB",HIMMATGARH,PUNJAB
"STATE BANK OF PATIALA",STBP0000298,WAITING,"SUNDER NAGAR","BHOJPUR BAZAR HP-175002",262479,MANDI,"SUNDAR NAGAR","HIMACHAL PRADESH"
"STATE BANK OF PATIALA",STBP0000297,WAITING,"MYSER KHANA","MYSER KHANA TEH.TALWANDI SABO",237121,BHATINDA,MYSERKHANA,PUNJAB
"STATE BANK OF PATIALA",STBP0000296,WAITING,BARSAR,"TEH BARSAR HP-174305",288024,HAMIRPUR,BARSAR,"HIMACHAL PRADESH"
"STATE BANK OF PATIALA",STBP0000295,WAITING,HATHWALA,"TEH PANIPAT HARYANA-132115",586604,PANIPAT,HATHWALA,HARYANA
"STATE BANK OF PATIALA",STBP0000294,WAITING,"PATHANKOT CB","CHAKKI BANK, PATHANKOT",2224965,GURDASPUR,PATHANKOT,PUNJAB
"STATE BANK OF PATIALA",STBP0000293,WAITING,CHAUKE,"VILLAGE CHAUKE PO JOGA  TEH RAMPURA PHUL",249658,BHATINDA,CHAUKE,PUNJAB
"STATE BANK OF PATIALA",STBP0000292,WAITING,"ALLAHABAD CIVIL LINES","17/33 MAHATMA GANDHI MARG CIVIL LINES ALLAHABAD UP-211001",2623065,ALLAHABAD,ALLAHABAD,"UTTAR PRADESH"
"STATE BANK OF PATIALA",STBP0000291,WAITING,"SRI NAGAR","CAMP AT JAMMU BRANCH",2433201,JAMMU,JAMMU,"JAMMU AND KASHMIR"
"STATE BANK OF PATIALA",STBP0000290,WAITING,"KANPUR NAVIN MARKET","NAVIN MARKET, KANPUR",2541584,"KANPUR NAGAR",KANPUR,"UTTAR PRADESH"
"STATE BANK OF PATIALA",STBP0000289,WAITING,"KANPUR BIRHANA ROAD","BIRHANA ROAD, KANPUR,  UP-208001",2310821,"KANPUR NAGAR",KANPUR,"UTTAR PRADESH"
"STATE BANK OF PATIALA",STBP0000288,WAITING,"MEERUT CANTT","BOMBAY BAZAR MEERUT CANTT UP-250001",2660899,MEERUT,MEERUT,"UTTAR PRADESH"
"STATE BANK OF PATIALA",STBP0000287,WAITING,BENRA,"VPO BENRA VIA DHURI TEH MALERKOTLA",220548,SANGRUR,BENRA,PUNJAB
"STATE BANK OF PATIALA",STBP0000286,WAITING,"PANIPAT FERTILIZER COMPLEX","PO KHADI ASHRAM G T ROAD HARYANA-132104",573686,PANIPAT,PANIPAT,HARYANA
"STATE BANK OF PATIALA",STBP0000285,WAITING,"NEW DELHI NEHRU PLACE","32-33 NEHRU PLACE NEW DELHI-110019",6438322,"NEW DELHI",DELHI,DELHI
"STATE BANK OF PATIALA",STBP0000284,WAITING,"NEW DELHI WAZIRPUR INDL.ESTATE","WAZIRPUR INDUSTRIAL AREA NEW DELHI-110052",79067,"NEW DELHI",DELHI,DELHI
"STATE BANK OF PATIALA",STBP0000283,WAITING,"BHIWANI GRAIN MKT.","NEW GRAIN MARKET HARYANA-125021",242079,BHIWANI,BHIWANI,HARYANA
"STATE BANK OF PATIALA",STBP0000282,WAITING,JAMMU,"GANDHI  NAGAR, JAMMU",2433201,JAMMU,JAMMU,"JAMMU AND KASHMIR"
"STATE BANK OF PATIALA",STBP0000281,WAITING,BULANDSHAHR,"CIVIL LINES, BULANDSHAHAR UP-703001",250165,BULANDSHEHAR,BULANDSHAHR,"UTTAR PRADESH"
"STATE BANK OF PATIALA",STBP0000280,WAITING,SANGHOA,"TEH KARNAL HARYANA-132002",2389064,KARNAL,SANGHOA,HARYANA
"STATE BANK OF PATIALA",STBP0000279,WAITING,"KHALTOO - NAUNI","PO NAUNI -173230",252321,SOLAN,NAUNI,"HIMACHAL PRADESH"
"STATE BANK OF PATIALA",STBP0000278,WAITING,"LUCKNOW V.S.M.","21 VIDHAN SABHA MARG POST BOX NO 14 UP-226001",2336,LUCKNOW,LUCKNOW,"UTTAR PRADESH"
"STATE BANK OF PATIALA",STBP0000277,WAITING,"NABHA GRAIN MARKET","GRAIN MARKET, NABHA(PUNJAB)",220405,PATIALA,NABHA,PUNJAB
"STATE BANK OF PATIALA",STBP0000276,WAITING,"NEW DELHI KAROL BAGH","BRITE HOUSE D B GUPTA ROAD NEW DELHI-110005",5584669,"NEW DELHI",DELHI,DELHI
"STATE BANK OF PATIALA",STBP0000275,WAITING,HANSI,"NEW GRAIN MARKET HARYANA-125034",252212,HISSAR,HANSI,HARYANA
"STATE BANK OF PATIALA",STBP0000274,WAITING,"ALLAHABAD CHOWK AREA","CHOWK AREA , ALLAHABAD,(UP)",2450855,ALLAHABAD,ALLAHABAD,"UTTAR PRADESH"
"STATE BANK OF PATIALA",STBP0000273,WAITING,HYDERABAD,"PULLA REDDY BUILDING, ABID CIRCLE, PB NO.229 HYDERABAD",23200399,"HYDERABAD URBAN",HYDERABAD,"ANDHRA PRADESH"
"STATE BANK OF PATIALA",STBP0000272,WAITING,"NAWASHAHR MAIN","OLD COURT ROAD,NAWASHAHR",227565,NAVANSAHAR,NAWANSHAHAR,PUNJAB
"STATE BANK OF PATIALA",STBP0000271,WAITING,"KOLKATA- CAMAC STREET","CAMAC STREET, SHANTI NIKETAN, KOLKATA- 700017",22824431,KOLKATA,KOLKATA,"WEST BENGAL"
"STATE BANK OF PATIALA",STBP0000270,WAITING,KUNDLI,"TEH SONEPAT HARYANA-131028",282199,SONIPAT,KUNDLI,HARYANA
"STATE BANK OF PATIALA",STBP0000269,WAITING,"QILA ZAFFARGARH","JIND ROHTAK ROAD HARYANA-126011",269155,JIND,"QILA ZAFFARGARH",HARYANA
"STATE BANK OF PATIALA",STBP0000268,WAITING,SANKHOL,"TEH BAHADURGARH DIST ROHTAK, HARYANA",21052,JHANJHAR,SANKHOL,HARYANA
"STATE BANK OF PATIALA",STBP0000267,WAITING,KANDROORI,"VPO KANDROORI  TEH-NURPUR HP-176402",244403,KANGRA,KANDROORI,"HIMACHAL PRADESH"
"STATE BANK OF PATIALA",STBP0000266,WAITING,"DEHRADUN M.G.MARG","58  MAHATMA GANDHI ROAD, DEHRADUN UP-248001",2653048,DEHRADUN,DEHRADUN,UTTARAKHAND
"STATE BANK OF PATIALA",STBP0000265,WAITING,"DUDHAN SAIDAN","VPO DUDHAN SADHAN",2631035,PATIALA,"DUDHAN SADHAN",PUNJAB
"STATE BANK OF PATIALA",STBP0000264,WAITING,"PATIALA Y.P.S.","Y P S, PATIALA(PUNJAB)",202598,PATIALA,PATIALA,PUNJAB
"STATE BANK OF PATIALA",STBP0000263,WAITING,"PATIALA RAJINDRA HOSPITAL","RAJENDRA HOSPITAL, PATIALA(PUNJAB)",200750,PATIALA,PATIALA,PUNJAB
"STATE BANK OF PATIALA",STBP0000262,WAITING,"DASUYA (ADB)","G.T. ROAD, DASUYA",285055,HOSIARPUR,DASUYA,PUNJAB
"STATE BANK OF PATIALA",STBP0000261,WAITING,PIPLANWALA,"VPO PIPLANWALA, HOSHIARPUR",256668,HOSIARPUR,PIPLANWALA,PUNJAB
"STATE BANK OF PATIALA",STBP0000260,WAITING,"AMRITSAR KJS","KATRA JAIMAL SINGH, AMRITSAR",2557861,AMRITSAR,AMRITSAR,PUNJAB
"STATE BANK OF PATIALA",STBP0000259,WAITING,MUZAFFARNAGAR,"COURT ROAD MUZAFFARNAGAR, UP-251001",2660035,"MUZAFFAR NAGAR",MUZAFFARNAGAR,"UTTAR PRADESH"
"STATE BANK OF PATIALA",STBP0000258,WAITING,"NEW DELHI JANAK PURI","C-29 JANAKPURI, NEW DELHI-110058",5582208,"NEW DELHI",DELHI,DELHI
"STATE BANK OF PATIALA",STBP0000257,WAITING,"JIND PATIALA CHOWK","PATIALA CHOWK HARYANA-126102",225743,JIND,JIND,HARYANA
"STATE BANK OF PATIALA",STBP0000256,WAITING,"JALANDHAR TANDA ROAD","TANDA ROAD,JALANDHAR",2224980,JALANDHAR,JALANDHAR,PUNJAB
"STATE BANK OF PATIALA",STBP0000255,WAITING,"AHMEDGARH OLD MANDI","OLD ANJI MANDI TEH MALERKOTLA",240222,SANGRUR,AHMEDGARH,PUNJAB
"STATE BANK OF PATIALA",STBP0000254,WAITING,"PATIALA I.O.COMPLEX","I O C PATIALA(PUNJAB)",229583,PATIALA,PATIALA,PUNJAB
"STATE BANK OF PATIALA",STBP0000253,WAITING,"SAINIK SCHOOL KAPURTHALA","SAINIK SCHOOL KAPURTHALA,DISTT. KAPURTHALA",233006,KAPURTHALA,KAPURTHALA,PUNJAB
"STATE BANK OF PATIALA",STBP0000252,WAITING,BAHADURGARH,BAHADURGARH(PUNJAB),2282459,PATIALA,PATIALA,PUNJAB
"STATE BANK OF PATIALA",STBP0000251,WAITING,SONEPAT,"NEAR OLD COURTS ROHTAK ROAD SONEPAT",252001,SONIPAT,SONIPAT,HARYANA
"STATE BANK OF PATIALA",STBP0000250,WAITING,"PANIPAT THERMAL PLANT","THERMAL PLANT HARYANA-132105",633366,PANIPAT,PANIPAT,HARYANA
"STATE BANK OF PATIALA",STBP0000249,WAITING,SRIGANGANAGAR,"DAYA NANDMARG RAJASTHAN-335001",2461037,GANGANAGAR,GANGANAGAR,RAJASTHAN
"STATE BANK OF PATIALA",STBP0000248,WAITING,FAZILKA,"GAUSHALA ROAD -152123",260452,FEROZEPUR,FAZILKA,PUNJAB
"STATE BANK OF PATIALA",STBP0000247,WAITING,BIBIWALA,"VPO BIBIWALA -151102",271707,BHATINDA,BIBIWALA,PUNJAB
"STATE BANK OF PATIALA",STBP0000246,WAITING,ABOHAR,"TEH FEROZEPUR-152116",228203,FEROZEPUR,ABOHAR,PUNJAB
"STATE BANK OF PATIALA",STBP0000245,WAITING,"AMRITSAR CWG","CHATI WIND GATE, AMRITSAR",2555576,AMRITSAR,AMRITSAR,PUNJAB
"STATE BANK OF PATIALA",STBP0000244,WAITING,"PATIALA THAPAR INSTITUTE","THAPER INSTITUE OF TECHNOLOGY PATIALA-147001",2361746,PATIALA,PATIALA,PUNJAB
"STATE BANK OF PATIALA",STBP0000243,WAITING,MEHATPUR,"VPO MEHATPUR THE UNA HP-174315",252033,UNA,MEHATPUR,"HIMACHAL PRADESH"
"STATE BANK OF PATIALA",STBP0000242,WAITING,MALOUT,"GURDWARA ROAD TEH MUKTSAR DT.",262076,MUKTSAR,MALOUT,PUNJAB
"STATE BANK OF PATIALA",STBP0000241,WAITING,"JINDAL NAGAR, GHAZIABAD","JINDAL NAGAR, GHAZIBAD, UP",2677619,GHAZIABAD,GHAZIABAD,"UTTAR PRADESH"
"STATE BANK OF PATIALA",STBP0000240,WAITING,"CHANDIGARH 22-B","SECTOR-22 B SC O NO-1106-1107",2706051,CHANDIGARH,CHANDIGARH,CHANDIGARH
"STATE BANK OF PATIALA",STBP0000239,WAITING,"NABHA H.M.M.","TEH. NABHA(PUNJAB)",220115,PATIALA,NABHA,PUNJAB
"STATE BANK OF PATIALA",STBP0000238,WAITING,"PATIALA MODEL TOWN","MODEL TOWN, PATIALA(PUNJAB)",200749,PATIALA,PATIALA,PUNJAB
"STATE BANK OF PATIALA",STBP0000237,WAITING,"GOBINDGARH GURU KI NAGARI","MANDI -GOBINDGARH",259753,"FATEHGARH SAHEB","GOBIND GARH",PUNJAB
"STATE BANK OF PATIALA",STBP0000236,WAITING,"KAITHAL A.D.B.",HARYANA-132027,222827,KAITHAL,KAITHAL,HARYANA
"STATE BANK OF PATIALA",STBP0000235,WAITING,CHHACHHRAULI,"DIST YAMUNA NAGAR HARYANA",245015,YAMUNANAGAR,CHHACHHRAULI,HARYANA
"STATE BANK OF PATIALA",STBP0000234,WAITING,UNA,"NANGAL ROAD UNA-174303",220107,UNA,UNA,"HIMACHAL PRADESH"
"STATE BANK OF PATIALA",STBP0000233,WAITING,"SHAHBAD MARKANDA",HARYANA-132135,240177,KURUKSHETRA,SHAHBAD,HARYANA
"STATE BANK OF PATIALA",STBP0000232,WAITING,GURGAON,"MUNICIPAL TOWER, RAILWAY ROAD, DHOBIGHAT, GURGAON(HARYANA)",2321843,GURGAON,GURGAON,HARYANA
"STATE BANK OF PATIALA",STBP0000231,WAITING,KULLU,"AKHARA BAZAR HP-175101",222457,KULLU,KULU,"HIMACHAL PRADESH"
"STATE BANK OF PATIALA",STBP0000230,WAITING,"MANSA A.D.B.",DIST-MANSA-151505,222259,MANSA,MANSA,PUNJAB
"STATE BANK OF PATIALA",STBP0000229,WAITING,"VIRK KALAN","PO GONIANA BATHINDA-151201",52447600,BHATINDA,"VIRK KALAN",PUNJAB
"STATE BANK OF PATIALA",STBP0000228,WAITING,MURTHAL,"G T ROAD HARYANA-131027",250240,SONIPAT,MURTHAL,HARYANA
"STATE BANK OF PATIALA",STBP0000227,WAITING,DHARAMSHALA,"LOWER DHARMASHALA TEH KANGRA HP-176215",223172,KANGRA,DHARAMSALA,"HIMACHAL PRADESH"
"STATE BANK OF PATIALA",STBP0000226,WAITING,"NEW DELHI HAUZ KHAS","HAUZ KHAS NEW DELHI-110016",5582609,"NEW DELHI",DELHI,DELHI
"STATE BANK OF PATIALA",STBP0000225,WAITING,BATALA,"HANSI BRIDGE,",244227,GURDASPUR,BATALA,PUNJAB
"STATE BANK OF PATIALA",STBP0000224,WAITING,"MSC,BHATINDA","MUNICIPAL SHOPPING COMPLEX,BHATINDA(PUNJAB)-151002",215178,BHATINDA,BATHINDA,PUNJAB
"STATE BANK OF PATIALA",STBP0000223,WAITING,"PATIALA CANTT","CONTONENTAL AREA, PATIALA(PUNJAB)",2396256,PATIALA,PATIALA,PUNJAB
"STATE BANK OF PATIALA",STBP0000222,WAITING,"LUDHIANA  GILL ROAD","GILL ROAD LUDHIANA",5036117,LUDHIANA,LUDHIANA,PUNJAB
"STATE BANK OF PATIALA",STBP0000221,WAITING,"BHUCHO KALAN","VIA BHUCHO KALANTEH BATHINDA-151101",2741086,BHATINDA,"BHUCHO KALAN",PUNJAB
"STATE BANK OF PATIALA",STBP0000220,WAITING,VERKA,"TEH. AMRITSAR",2263071,AMRITSAR,VERKA,PUNJAB
"STATE BANK OF PATIALA",STBP0000219,WAITING,BARARA,"TEH AMBALA-133201",283058,AMBALA,BARARA,HARYANA
"STATE BANK OF PATIALA",STBP0000218,WAITING,"AMRITSAR EMN","EAST MOHAN NAGAR,AMRITSAR",2702461,AMRITSAR,AMRITSAR,PUNJAB
"STATE BANK OF PATIALA",STBP0000217,WAITING,SAHARANPUR,"CHAKRATA ROAD,SAHARANPUR,  UP-247001",2724468,SAHARANPUR,SAHARANPUR,"UTTAR PRADESH"
"STATE BANK OF PATIALA",STBP0000216,WAITING,TOHANA,"19 NEW ANAJ MANDI TEH HISAR HARYANA-126120",231356,FATEHABAD,TOHANA,HARYANA
"STATE BANK OF PATIALA",STBP0000215,WAITING,"CHANDIGARH 35-D","SECTOR 35-D SCO NO-280",26603270,CHANDIGARH,CHANDIGARH,CHANDIGARH
"STATE BANK OF PATIALA",STBP0000214,WAITING,GIDDERBAHA,"TEH GIDDERBAHA DIST FARIDKOT-152001",30673,FARIDKOT,FARIDKOT,PUNJAB
"STATE BANK OF PATIALA",STBP0000213,WAITING,"HALWARA (AFS)","VILLAGE &POST OFFICE, HALWARA",277263,LUDHIANA,HALWARA,PUNJAB
"STATE BANK OF PATIALA",STBP0000212,WAITING,"PATIALA A.D.B.","THE MALL, PATIALA(PUNJAB)",2200730,PATIALA,PATIALA,PUNJAB
"STATE BANK OF PATIALA",STBP0000211,WAITING,"FARIDABAD ESCORTS","ESCORTS , FARIDABAD, HARYANA-121001",2283865,FARIDABAD,FARIDABAD,HARYANA
"STATE BANK OF PATIALA",STBP0000210,WAITING,"FEROZEPUR CITY","THE MALL FEROAEPUR",242712,FEROZEPUR,FIROZPUR,PUNJAB
"STATE BANK OF PATIALA",STBP0000209,WAITING,"PATIALA SIRHINDI BAZAR",PATIALA-147001,2220871,PATIALA,PATIALA,PUNJAB
"STATE BANK OF PATIALA",STBP0000208,WAITING,"JALANDHAR PATEL CHOWK","PATEL CHOWK,JALANDHAR",2280769,JALANDHAR,JALANDHAR,PUNJAB
"STATE BANK OF PATIALA",STBP0000207,WAITING,HOSHIARPUR,HOSHIARPUR,222688,HOSIARPUR,HOSHIARPUR,PUNJAB
"STATE BANK OF PATIALA",STBP0000206,WAITING,"NALAGARH A.D.B.","ADB NALAGARH",223042,SOLAN,NALAGARH,"HIMACHAL PRADESH"
"STATE BANK OF PATIALA",STBP0000205,WAITING,"FARIDABAD SECTOR 15","1047 SECTOR-15 FARIDABAD-121007",2282431,FARIDABAD,FARIDABAD,HARYANA
"STATE BANK OF PATIALA",STBP0000204,WAITING,"SHIMLA EAST","SHIMLA EAST(HIMACHAL PRADESH)-710002",2624066,SHIMLA,SIMLA,"HIMACHAL PRADESH"
"STATE BANK OF PATIALA",STBP0000203,WAITING,"SHASTRI BHAVAN,NEW DELHI","SHASTRI BHAVAN,RAJENDRA PRASAD ROAD,NEW DELHI-110001",23073726,"NEW DELHI",DELHI,DELHI
"STATE BANK OF PATIALA",STBP0000202,WAITING,"CHANDIGARH 7-C","SECTOR -7 -C-160019",2548929,CHANDIGARH,CHANDIGARH,CHANDIGARH
"STATE BANK OF PATIALA",STBP0000201,WAITING,"KANPUR GUMTI NO.5","GUMTI NO 5, KANPUR UP",2219096,"KANPUR NAGAR",KANPUR,"UTTAR PRADESH"
"STATE BANK OF PATIALA",STBP0000200,WAITING,MORADABAD,"GANDHI ROAD, MORADABAD ,UP",493867,MORADABAD,MORADABAD,"UTTAR PRADESH"
"STATE BANK OF PATIALA",STBP0000199,WAITING,SANAWAR,"LAWRENCE SHCOOL- SANAWAR THE KASAULI 173202",261219,SOLAN,SANAWAR,"HIMACHAL PRADESH"
"STATE BANK OF PATIALA",STBP0000198,WAITING,"PATIALA N.I.S.","OLD MOTIBAGH, PATIALA(PUNJAB)",224552,PATIALA,PATIALA,PUNJAB
"STATE BANK OF PATIALA",STBP0000197,WAITING,"MALERKOTLA A.D.B.","MOTI BAZAR , MALERKOTLA(PUNJAB)",253869,SANGRUR,MALERKOTLA,PUNJAB
"STATE BANK OF PATIALA",STBP0000196,WAITING,"BANGA MAIN","MAIN ROAD,BANGA,DISTT. NAWASHAHR",260126,NAVANSAHAR,BANGA,PUNJAB
"STATE BANK OF PATIALA",STBP0000195,WAITING,CHANDIMANDIR,"TEH KALKA HARYANA-134109",2589492,PANCHKULA,KALKA,HARYANA
"STATE BANK OF PATIALA",STBP0000194,WAITING,MOGA,"CIVIL LINES G T ROAD TEH FARIDKOT-142001",221314,MOGA,MOGA,PUNJAB
"STATE BANK OF PATIALA",STBP0000193,WAITING,PALWAL,"TEH FARIDABAD HARYANA",252142,FARIDABAD,PALWAL,HARYANA
"STATE BANK OF PATIALA",STBP0000192,WAITING,DUGGAN,"VPO DUGGAN",87240,SANGRUR,DUGGAN,PUNJAB
"STATE BANK OF PATIALA",STBP0000191,WAITING,"KGM,NEW DELHI","28, KASTUBA GANDHI MARG, NEW DELHI-110001",23310808,"NEW DELHI",DELHI,DELHI
"STATE BANK OF PATIALA",STBP0000190,WAITING,KHIZRABAD,"KHIZRABAD EAST HARYANA",286230,YAMUNANAGAR,KHIZRABAD,HARYANA
"STATE BANK OF PATIALA",STBP0000189,WAITING,KURUKSHETRA,KURUKSHETRA,220467,KURUKSHETRA,KURUKSHETRA,HARYANA
"STATE BANK OF PATIALA",STBP0000188,WAITING,KHANAURI,"TEH SUNAM",250155,SANGRUR,KHANAURI(MANDI),PUNJAB
"STATE BANK OF PATIALA",STBP0000187,WAITING,JAGRAON,"TEHSIL ROAD JAGRAON",222368,LUDHIANA,JAGRAON,PUNJAB
"STATE BANK OF PATIALA",STBP0000186,WAITING,BAREILLY,"SHYAM GANJ BAREILLY UP-243001",2470674,BAREILLY,BAREILLY,"UTTAR PRADESH"
"STATE BANK OF PATIALA",STBP0000185,WAITING,ROHTAK,"MODEL TOWN HARYANA-124001",233811,ROHTAK,ROHTAK,HARYANA
"STATE BANK OF PATIALA",STBP0000184,WAITING,GAGRET,"VPO GAGRET THE UNA",241338,UNA,GAGRET,"HIMACHAL PRADESH"
"STATE BANK OF PATIALA",STBP0000183,WAITING,"NEW DELHI SAFDARJUNG ENCLAVE","KAMAL THEATRE BUILDING, SAFDARJUNG ENCLAVE,  NEW DELHI-110029",5588941,"NEW DELHI",DELHI,DELHI
"STATE BANK OF PATIALA",STBP0000182,WAITING,"LUDHIANA-BHARAT NAGAR CHOWK","BHARAT NAGAR CHOWK, LUDHIANA",2244894,LUDHIANA,LUDHIANA,PUNJAB
"STATE BANK OF PATIALA",STBP0000181,WAITING,"AGRA NEHRU NAGAR","NEHRA NAGAR AGRA UP-282002",2150351,AGRA,AGRA,"UTTAR PRADESH"
"STATE BANK OF PATIALA",STBP0000180,WAITING,HISSAR,"RAILWAY ROAD TEH HISSAR HARYANA-125001",228342,HISSAR,HISAR,HARYANA
"STATE BANK OF PATIALA",STBP0000179,WAITING,"BANGLORE, NR SQUARE","BADAMI HOUSE, NR SQUARE, BANGLORE",26490326,"BANGALORE URBAN",BANGALORE,KARNATAKA
"STATE BANK OF PATIALA",STBP0000178,WAITING,"CHAMBA GHAT","VPO CHAMBA GHAT",230587,SOLAN,CHAMBAGHAT,"HIMACHAL PRADESH"
"STATE BANK OF PATIALA",STBP0000177,WAITING,"SAMANA A.D.B.","TEH. SAMANA(PUNJAB)",220163,PATIALA,SAMANA,PUNJAB
"STATE BANK OF PATIALA",STBP0000176,WAITING,"CHENNAI,WHITES ROAD","WHITES ROAD,CHENNAI(TAMILNADU)",28521805,CHENNAI,CHENNAI,"TAMIL NADU"
"STATE BANK OF PATIALA",STBP0000175,WAITING,"NEW DELHI PUSA ROAD","8 RAJENDRA PLACE, PUSA ROAD,NEW DELHI -110008",5588496,"NEW DELHI",DELHI,DELHI
"STATE BANK OF PATIALA",STBP0000174,WAITING,BARGARI,BARGARI,244040,FARIDKOT,BARGARI,PUNJAB
"STATE BANK OF PATIALA",STBP0000173,WAITING,"PANJ GRAIN KALAN","PANJ  GRAINKALAN",262633,FARIDKOT,"PANJGRAIN KALAN",PUNJAB
"STATE BANK OF PATIALA",STBP0000172,WAITING,"JAGADHRI A.D.B.",HARYANA,250230,YAMUNANAGAR,JAGADHRI,HARYANA
"STATE BANK OF PATIALA",STBP0000171,WAITING,"KHANNA NGM","NEW GRAIN MARKET KHANNA",235168,LUDHIANA,KHANNA,PUNJAB
"STATE BANK OF PATIALA",STBP0000170,WAITING,"LUDHIANA GHUMAR MANDI","GHUMAR MANDI LUDHIANA",2400980,LUDHIANA,LUDHIANA,PUNJAB
"STATE BANK OF PATIALA",STBP0000169,WAITING,"BATHINDA G.N.D.T.P.","GURU NANAK THERMAL PLANT BATHINDA-151001",2271711,BHATINDA,BATHINDA,PUNJAB
"STATE BANK OF PATIALA",STBP0000167,WAITING,"CHANDIGARH 17-C","SECTOR-17-C S C O NO 125-126",2544391,CHANDIGARH,CHANDIGARH,CHANDIGARH
"STATE BANK OF PATIALA",STBP0000166,WAITING,"NURPUR BEDI A.D.B.","VPO NURPUR BEDI TEH ANANDPUR SAHIB-140117",240237,RUPNAGAR,"NURPUR KALAN",PUNJAB
"STATE BANK OF PATIALA",STBP0000165,WAITING,BHARARI,"PO LEHRI SARAI HP-174027",273023,BILASPUR,BHARARI,"HIMACHAL PRADESH"
"STATE BANK OF PATIALA",STBP0000164,WAITING,"OLINDA COLONY","BHAKRA DAM TEH BILASPUR HP-174201",223428,BILASPUR,"OLINDA(BHAKRA DAM)","HIMACHAL PRADESH"
"STATE BANK OF PATIALA",STBP0000163,WAITING,"DAULATPUR CHOWK","VPO DAULATPUR CHOWAK TEH AMB HP-177204",265033,UNA,DAULATPUR,"HIMACHAL PRADESH"
"STATE BANK OF PATIALA",STBP0000162,WAITING,BAROTI(PARWANOO),"PARWANOO TEH KASAULI",232015,SOLAN,PARWANOO,"HIMACHAL PRADESH"
"STATE BANK OF PATIALA",STBP0000161,WAITING,SWADDI,"VILLAGE & POST OFFICE SWADDI",245238,LUDHIANA,"SAWADDI KHAS",PUNJAB
"STATE BANK OF PATIALA",STBP0000160,WAITING,SAHIBA,"VPO. SAHIBA,THE. BALACHAUR,DISTT. NAWASHAHR",232225,NAVANSAHAR,SAHIBA,PUNJAB
"STATE BANK OF PATIALA",STBP0000159,WAITING,SADHAR,"RAEKOT ROAD SADHAR",275241,LUDHIANA,SADHAR,PUNJAB
"STATE BANK OF PATIALA",STBP0000158,WAITING,PATTI,"RAILWAY ROAD, TEH. AMRITSAR",244610,AMRITSAR,PATTI,PUNJAB
"STATE BANK OF PATIALA",STBP0000157,WAITING,"MEERUT CITY","RAILWAY RAOD, MEERUT CITY,  UP-250001",2511374,MEERUT,MEERUT,"UTTAR PRADESH"
"STATE BANK OF PATIALA",STBP0000156,WAITING,MATHURA,"1935/ DAMPIER NAGAR, MATHURA",2406408,MATHURA,MATHURA,"UTTAR PRADESH"
"STATE BANK OF PATIALA",STBP0000155,WAITING,"AMBALA CITY C.M","TEH AMBALA HARYANA-134002",2511804,AMBALA,AMBALA,HARYANA
"STATE BANK OF PATIALA",STBP0000154,WAITING,HASSANGARH,"TEH ROHTAK HARYANA",263230,ROHTAK,HASSANGARH,HARYANA
"STATE BANK OF PATIALA",STBP0000153,WAITING,SATNALI,"DIST MOHUINDERGARH HARYANA-12304",231431,MAHENDRAGARH,SATNALI,HARYANA
"STATE BANK OF PATIALA",STBP0000152,WAITING,JHUNIR,DIST-MANSA-151506,260321,MANSA,JHUNIR,PUNJAB
"STATE BANK OF PATIALA",STBP0000151,WAITING,"KUP KALAN","TEH MALERKOTLA",283230,SANGRUR,"KUP KALAN",PUNJAB
"STATE BANK OF PATIALA",STBP0000150,WAITING,HANDIYAYA,"TEH BARNALA",284227,SANGRUR,HANDIAYAYA,PUNJAB
"STATE BANK OF PATIALA",STBP0000149,WAITING,DHAULA,"TEH BARNALA",277632,SANGRUR,DHAULA,PUNJAB
"STATE BANK OF PATIALA",STBP0000148,WAITING,BHASAUR,"VIA DHURI, TEH. MALERKOTLA(PUNJAB)",275448,SANGRUR,BHASAUR,PUNJAB
"STATE BANK OF PATIALA",STBP0000147,WAITING,KAKRALA,"TEH. NABHA(PATIALA)",275001,PATIALA,KAKRALA,PUNJAB
"STATE BANK OF PATIALA",STBP0000146,WAITING,"DON KALAN","TEH PATIALA",2660337,PATIALA,"DON KALAN",PUNJAB
"STATE BANK OF PATIALA",STBP0000145,WAITING,"CHANDIGARH SECTOR 10-D","SECTOR-10 SCO NO-21",2743215,CHANDIGARH,CHANDIGARH,CHANDIGARH
"STATE BANK OF PATIALA",STBP0000144,WAITING,"BATHINDA SSI","SSI, INDUSTRILA AREA BATHINDA",211188,BHATINDA,BATHINDA,PUNJAB
"STATE BANK OF PATIALA",STBP0000143,WAITING,BAUND,"TEH DADRI HARYANA-125025",242528,BHIWANI,"BAUND KALAN",HARYANA
"STATE BANK OF PATIALA",STBP0000142,WAITING,"SHAMBHU KALAN","TEH RAJPURA",265223,PATIALA,"SHAMBHU KALAN",PUNJAB
"STATE BANK OF PATIALA",STBP0000141,WAITING,"KHERA GAJJU","P O MURAKPURA TEH. RAJPURA(PUNJAB)",254275,PATIALA,"KHERA GAJJU",PUNJAB
"STATE BANK OF PATIALA",STBP0000140,WAITING,KALYAN,"TEH PATIALA",2215032,PATIALA,KALYAN,PUNJAB
"STATE BANK OF PATIALA",STBP0000139,WAITING,"S N MARG, NEW DELHI","SHRADHA NAND MARG, 79, SHANTI SADAN,1ST FLOOR, G B ROAD, NEW DELHI-100006",23994023,"NEW DELHI",DELHI,DELHI
"STATE BANK OF PATIALA",STBP0000138,WAITING,"PATIALA TRIPURI SAIDAN","PATIALA -147001",2351303,PATIALA,PATIALA,PUNJAB
"STATE BANK OF PATIALA",STBP0000137,WAITING,"CHANARTHAL KALAN","V & PO CHANARTHAL KALAN BLOCK SIRHIND",269235,"FATEHGARH SAHEB","CHANARTHAL KALAN",PUNJAB
"STATE BANK OF PATIALA",STBP0000136,WAITING,MEHAM,"THAND ROAD TEH MEHAM HARYANA-124112",233046,ROHTAK,MEHAM,HARYANA
"STATE BANK OF PATIALA",STBP0000135,WAITING,JUI,"TEH BHIWANI HARYANA-125030",287530,BHIWANI,JUI,HARYANA
"STATE BANK OF PATIALA",STBP0000134,WAITING,NARANGWAL,"VILLAGE & POST OFFICE NARAGWAL",2864210,LUDHIANA,NARANGWAL,PUNJAB
"STATE BANK OF PATIALA",STBP0000133,WAITING,"KONKE KALAN","VILLAGE & POST OFFICE KONKE KALAN",231241,LUDHIANA,KONKE,PUNJAB
"STATE BANK OF PATIALA",STBP0000132,WAITING,DHAMOT,"VILLAGE & POST OFFICE DHAMOT",278249,LUDHIANA,DHAMOT,PUNJAB
"STATE BANK OF PATIALA",STBP0000131,WAITING,"CHUNI KALAN","V & PO CHUNI KALAN TEH & BLOCK KHARAR",248431,RUPNAGAR,"CHUNI KALAN",PUNJAB
"STATE BANK OF PATIALA",STBP0000130,WAITING,CHHAJLI,"VPO CHHAJILLKI TEH SUNAM",80023,SANGRUR,CHAJLI,PUNJAB
"STATE BANK OF PATIALA",STBP0000129,WAITING,"SIRHIND CITY","SRHIND CITY(PUNJAB)",232851,"FATEHGARH SAHEB",SIRHIND,PUNJAB
"STATE BANK OF PATIALA",STBP0000128,WAITING,KUNIHAR,"TEH ARKI HP 173207",262248,SOLAN,ARKI,"HIMACHAL PRADESH"
"STATE BANK OF PATIALA",STBP0000127,WAITING,SOLAN,"MAIN ROAD SOLANHP-173212",223241,SOLAN,SOLAN,"HIMACHAL PRADESH"
"STATE BANK OF PATIALA",STBP0000126,WAITING,PALAMPUR,"MAIN BAZAR  PALAMPUR HP-176061",230861,KANGRA,PALAMPUR,"HIMACHAL PRADESH"
"STATE BANK OF PATIALA",STBP0000125,WAITING,NURPUR,"V P ONURPUR",220022,KANGRA,NURPUR,"HIMACHAL PRADESH"
"STATE BANK OF PATIALA",STBP0000124,WAITING,KANGRA,"TEH KANGRA HP-176001",265030,KANGRA,KANGRA,"HIMACHAL PRADESH"
"STATE BANK OF PATIALA",STBP0000123,WAITING,HAMIRPUR,"TEH HAMIRPUR HP-177001",222511,HAMIRPUR,HAMIRPUR,"HIMACHAL PRADESH"
"STATE BANK OF PATIALA",STBP0000122,WAITING,KASAULI,"MAIN BAZAR KASAULI H P 173209",272038,SOLAN,KASAULI,"HIMACHAL PRADESH"
"STATE BANK OF PATIALA",STBP0000121,WAITING,DHARAMPUR,"GT ROAD DHARAMPUR THE KASAULI",264023,SOLAN,DHARAMPUR,"HIMACHAL PRADESH"
"STATE BANK OF PATIALA",STBP0000120,WAITING,CHAIL,"VPO CHAIL",248347,SOLAN,CHAIL,"HIMACHAL PRADESH"
"STATE BANK OF PATIALA",STBP0000119,WAITING,NALAGARH,"MAIN BRANCH NALAGARH HP-174101",223038,SOLAN,NALAGARH,"HIMACHAL PRADESH"
"STATE BANK OF PATIALA",STBP0000118,WAITING,"SHIMLA,MALL ROAD","THE MALL, SHIMLA(HIMACHAL PRADESH_-710002",2651557,SHIMLA,SIMLA,"HIMACHAL PRADESH"
"STATE BANK OF PATIALA",STBP0000117,WAITING,"CHANDIGARH 22-D","SECTOR-22D SCO NO-7",2701623,CHANDIGARH,CHANDIGARH,CHANDIGARH
"STATE BANK OF PATIALA",STBP0000116,WAITING,"CHANDIGARH GRAIN MARKET-26","SECTOR-26 GRAIN MARKET",2791997,CHANDIGARH,CHANDIGARH,CHANDIGARH
"STATE BANK OF PATIALA",STBP0000115,WAITING,UCHANA,HARYANA-126115,230228,JIND,UCHANA,HARYANA
"STATE BANK OF PATIALA",STBP0000114,WAITING,JULANA,HARYANA,274023,JIND,JULANA,HARYANA
"STATE BANK OF PATIALA",STBP0000113,WAITING,SAFIDON,"PO  TEH SOFIDON  HARYANA-126110",262005,JIND,SAFIDON,HARYANA
"STATE BANK OF PATIALA",STBP0000112,WAITING,NARWANA,HAYRANA-126116,244261,JIND,NARWANA,HARYANA
"STATE BANK OF PATIALA",STBP0000111,WAITING,KALAYAT,"GRAIN MARKET HARYANA",260036,KAITHAL,KALAYAT,HARYANA
"STATE BANK OF PATIALA",STBP0000110,WAITING,JIND,"TEH JIND HARYANA -126102",257080,JIND,JIND,HARYANA
"STATE BANK OF PATIALA",STBP0000109,WAITING,NARNAUND,"VPO NARNAUND THE HANSI HARYANA-125039",233225,HISSAR,NARNAUND,HARYANA
"STATE BANK OF PATIALA",STBP0000108,WAITING,BHIWANI,"RAILWAY RAOD TEH BHIWANI HARYANA-125021",242204,BHIWANI,BHIWANI,HARYANA
"STATE BANK OF PATIALA",STBP0000107,WAITING,HODAL,"G T ROAD , HODAL, HARYANA",235536,FARIDABAD,HODAL,HARYANA
"STATE BANK OF PATIALA",STBP0000106,WAITING,"FARIDABAD,MATHURA ROAD","MATHURA ROAD FARIDABAD",2283505,FARIDABAD,FARIDABAD,HARYANA
"STATE BANK OF PATIALA",STBP0000105,WAITING,MOHINDERGARH,"OPP POLICE STATION TEH MOHINDERGARH HARYANA",220239,MAHENDRAGARH,MAHENDRAGARH,HARYANA
"STATE BANK OF PATIALA",STBP0000104,WAITING,NARNAUL,"NEW ANAJ MANDI THE NARNAUL DIST MOHINDERGARH HARYANA-123001",251394,MAHENDRAGARH,NARNAUL,HARYANA
"STATE BANK OF PATIALA",STBP0000103,WAITING,"CHARKHI DADRI",HARYANA-123306,220051,BHIWANI,"CHARKHI DADRI",HARYANA
"STATE BANK OF PATIALA",STBP0000102,WAITING,"KHERI SAMPLA","NEAR RAILWAY STATION",279017,ROHTAK,SAMPLA,HARYANA
"STATE BANK OF PATIALA",STBP0000101,WAITING,JHAJJAR,"VPO JHAJJAR TEH. DISTT. JHAJJAR",252011,JHANJHAR,JHAJJAR,HARYANA
"STATE BANK OF PATIALA",STBP0000100,WAITING,GOHANA,"BARODA ROAD HARYANA-124301",256134,SONIPAT,GOHANA,HARYANA
"STATE BANK OF PATIALA",STBP0000099,WAITING,SAMALKHA,SAMALKHA,2572136,PANIPAT,SAMALKHA,HARYANA
"STATE BANK OF PATIALA",STBP0000098,WAITING,PEHOWA,"TEH PEHOWA HARYANA-132128",220464,KURUKSHETRA,PEHOWA,HARYANA
"STATE BANK OF PATIALA",STBP0000097,WAITING,GHARAUNDA,"G T ROAD TEH KARNAL HARYANA-132114",252035,KARNAL,GHARAUNDA,HARYANA
"STATE BANK OF PATIALA",STBP0000096,WAITING,"GUHLA CHEEKA","PO CHEEKAK HARYANA-132034",221480,KAITHAL,"GUHLACHIKA MANDI",HARYANA
"STATE BANK OF PATIALA",STBP0000095,WAITING,"PANIPAT G.T.ROAD","G T ROAD HARYANA-132103",0,PANIPAT,PANIPAT,HARYANA
"STATE BANK OF PATIALA",STBP0000094,WAITING,"KARNAL,MAIN BRANCH","RAILWAY ROAD HARYANA-132001",2252820,KARNAL,KARNAL,HARYANA
"STATE BANK OF PATIALA",STBP0000093,WAITING,SAHA,"TEH AMBALA",2822234,AMBALA,SAHA,HARYANA
"STATE BANK OF PATIALA",STBP0000092,WAITING,MUSTAFABAD,"VPO MUSTAFABAD HARYANA",229657,YAMUNANAGAR,MUSTAFABAD,HARYANA
"STATE BANK OF PATIALA",STBP0000091,WAITING,KALKA,HARYANA-13302,272109,PANCHKULA,KALKA,HARYANA
"STATE BANK OF PATIALA",STBP0000090,WAITING,"YAMUNANAGAR INDL.AREA","INDUSTRIAL AREA HARYANA",252957,YAMUNANAGAR,YAMUNANAGAR,HARYANA
"STATE BANK OF PATIALA",STBP0000089,WAITING,"YAMUNANAGAR,MAIN BAZAR",HARYANA-135001,2297757,YAMUNANAGAR,YAMUNANAGAR,HARYANA
"STATE BANK OF PATIALA",STBP0000088,WAITING,"YAMUNANAGAR S.M.AREA","SUGAR MILL AREA POST BOX.NO40 HARYANA",247096,YAMUNANAGAR,YAMUNANAGAR,HARYANA
"STATE BANK OF PATIALA",STBP0000087,WAITING,"SIRHIND MANDI","ANAJ MANDI,SIRHIND MANDI(PUNJAB)",224710,"FATEHGARH SAHEB",SIRHIND,PUNJAB
"STATE BANK OF PATIALA",STBP0000086,WAITING,MORINDA,"VPO MORINDATEH ROPAR-140101",630040,RUPNAGAR,MORINDA,PUNJAB
"STATE BANK OF PATIALA",STBP0000085,WAITING,KURALI,"KRSHANA MANDI  KURALI -140103",640056,RUPNAGAR,KURALI,PUNJAB
"STATE BANK OF PATIALA",STBP0000084,WAITING,KHARAR,"BUS STAND  KHARAR PUNJAB-140301",247135,RUPNAGAR,KHARAR,PUNJAB
"STATE BANK OF PATIALA",STBP0000083,WAITING,"CHAMKAUR SAHIB","V P O CHAMKAUR SAHIB",260036,RUPNAGAR,"CHAMKAUR SAHIB",PUNJAB
"STATE BANK OF PATIALA",STBP0000082,WAITING,"ROPAR(MAIN BRANCH)","NEAR HOSPITAL ROPAR TEH ROPAR-140001",220452,RUPNAGAR,RUPNAGAR,PUNJAB
"STATE BANK OF PATIALA",STBP0000081,WAITING,GARHSHANKAR,"NEAR CIVIL COURT, GARHSHANKAR",4,HOSIARPUR,GARHSHANKAR,PUNJAB
"STATE BANK OF PATIALA",STBP0000080,WAITING,"ANANDPUR SAHIB","MAIN BAZAR ANANDPUR SAHIB",232033,RUPNAGAR,"ANANDPUR SAHIB",PUNJAB
"STATE BANK OF PATIALA",STBP0000079,WAITING,"SIDHWAN BET","VILLAGE & POST OFFICE SIDHWAN BET",240228,LUDHIANA,"SIDHWAN BET",PUNJAB
"STATE BANK OF PATIALA",STBP0000078,WAITING,SAMRALA,"CHANDIGARH ROAD SAMRALA",262016,LUDHIANA,SAMRALA,PUNJAB
"STATE BANK OF PATIALA",STBP0000077,WAITING,SAHNEWAL,"G T ROAD SAHNEWAL",2844141,LUDHIANA,SAHNEWAL,PUNJAB
"STATE BANK OF PATIALA",STBP0000076,WAITING,DORAHA,"RAILWAY ROAD DORAHA",0,LUDHIANA,DORAHA,PUNJAB
"STATE BANK OF PATIALA",STBP0000075,WAITING,RAEKOT,"LUDHIANA ROAD NEAR OLD BUS STAND RAEKOT",264331,LUDHIANA,RAIKOT,PUNJAB
"STATE BANK OF PATIALA",STBP0000074,WAITING,"KHANNA GTR","G T ROAD KHANNA",237222,LUDHIANA,KHANNA,PUNJAB
"STATE BANK OF PATIALA",STBP0000073,WAITING,"LUDHIANA SABAN  BAZAR","SABAN BAZAR LUDHIANA",2728254,LUDHIANA,LUDHIANA,PUNJAB
"STATE BANK OF PATIALA",STBP0000072,WAITING,"LUDHIANA (MILLER GANJ)","MILLER GANJ LUDHIANA",2530489,LUDHIANA,LUDHIANA,PUNJAB
"STATE BANK OF PATIALA",STBP0000071,WAITING,GORAYA,"G.T.ROAD,GORAYA THE. PHILLAUR DISTT JALANDHAR",263403,JALANDHAR,GORAYA,PUNJAB
"STATE BANK OF PATIALA",STBP0000070,WAITING,BARAPIND,"VPO. BARAPIND THE PHILLAUR DISTT. JALANDHAR",266319,JALANDHAR,BARAPIND,PUNJAB
"STATE BANK OF PATIALA",STBP0000069,WAITING,KARTARPUR,"G.T.ROAD,KARTARPUR,DISTT JALANDHAR",2782946,JALANDHAR,KARTARPUR,PUNJAB
"STATE BANK OF PATIALA",STBP0000068,WAITING,NAKODAR,"THE. NAKODAR,DISTT.JALANDHAR",220016,JALANDHAR,NAKODAR,PUNJAB
"STATE BANK OF PATIALA",STBP0000067,WAITING,"SHASTRI MARKET,JALANDHAR","SHASTRI MARKET, JALANDHAR(PUNJAB)-144001",2456320,JALANDHAR,JALANDHAR,PUNJAB
"STATE BANK OF PATIALA",STBP0000066,WAITING,"SULTANPUR LODHI","SULTANPUR LODHI,DISTT. KAPURTHALA",223624,KAPURTHALA,"SULTANPUR LODHI",PUNJAB
"STATE BANK OF PATIALA",STBP0000065,WAITING,"KAPURTHALA- MAIN","MALL ROAD, KAPURTHALA",232210,KAPURTHALA,KAPURTHALA,PUNJAB
"STATE BANK OF PATIALA",STBP0000064,WAITING,"PHAGWARA MAIN","G.T. ROAD PHAGWARA DISTT.KAPURTHALA",261437,KAPURTHALA,PHAGWARA,PUNJAB
"STATE BANK OF PATIALA",STBP0000063,WAITING,GURDASPUR,GURDASPUR,246533,GURDASPUR,GURDASPUR,PUNJAB
"STATE BANK OF PATIALA",STBP0000062,WAITING,"AMRITSAR MAIN MUKERJI MARG","MUKHARJEE MARG AMRITSAR",2556576,AMRITSAR,AMRITSAR,PUNJAB
"STATE BANK OF PATIALA",STBP0000061,WAITING,ZIRA,"NEAR COURTS  ZIRA",250604,FEROZEPUR,ZIRA,PUNJAB
"STATE BANK OF PATIALA",STBP0000060,WAITING,"KOT BHAI","VPO KOT BHAI TEH MUKATSAR",262076,MUKTSAR,"KOT BHAI",PUNJAB
"STATE BANK OF PATIALA",STBP0000059,WAITING,"RAMPURA PHUL","RAILWAY ROAD RAMPHURA PHUL-151105",220030,BHATINDA,"RAMPURA PHUL",PUNJAB
"STATE BANK OF PATIALA",STBP0000058,WAITING,"TALWANDI SABO","TEH TALWANDI SABO BATHINDA-151302",220231,BHATINDA,"TALWANDI SABO",PUNJAB
"STATE BANK OF PATIALA",STBP0000057,WAITING,SADIQ,SADIQ,220030,FARIDKOT,SADIQ,PUNJAB
"STATE BANK OF PATIALA",STBP0000056,WAITING,"RAMAN MANDI","GAUSHALA ROAD ,RAMA MANDI",220231,BHATINDA,RAMAN,PUNJAB
"STATE BANK OF PATIALA",STBP0000055,WAITING,"PHUL TOWN","TEH RAMPURA PHUL DIST BATHINDA-151104",248224,BHATINDA,PHUL,PUNJAB
"STATE BANK OF PATIALA",STBP0000054,WAITING,"KOT FATTA","VPO KOT FATTA TEH BATHINDA-151001",3437221,BHATINDA,KOTFATTA,PUNJAB
"STATE BANK OF PATIALA",STBP0000052,WAITING,GONIANA,"TEH BATHINDA-151201",2262024,BHATINDA,GONIANA,PUNJAB
"STATE BANK OF PATIALA",STBP0000051,WAITING,FARIDKOT,"THE MALL",51548,FARIDKOT,FARIDKOT,PUNJAB
"STATE BANK OF PATIALA",STBP0000050,WAITING,BUDHLADA,"GRAIN MARKET DIST MANSA-151502",253026,MANSA,BUDHLADA,PUNJAB
"STATE BANK OF PATIALA",STBP0000049,WAITING,BARETTA,"GRAIN MARKET BARETTA",242002,MANSA,BARETTA,PUNJAB
"STATE BANK OF PATIALA",STBP0000048,WAITING,BALANWALI,"TEH RAMPURA PHUL BATHINDA-151107",247466,BHATINDA,BALIANWALI,PUNJAB
"STATE BANK OF PATIALA",STBP0000047,WAITING,MEHRAJ,"TEH RAMPURA PHUL BATHIDA-151107",262248,BHATINDA,BATHINDA,PUNJAB
"STATE BANK OF PATIALA",STBP0000046,WAITING,"MEHMA SARJA","VPO MEHMA SARJA TEH BATHINDA -151107",2768220,BHATINDA,BATHINDA,PUNJAB
"STATE BANK OF PATIALA",STBP0000045,WAITING,MAUR,"TEH TALWANDI SABA DIST BATHINDA-151509",1655232463,BHATINDA,MAUR,PUNJAB
"STATE BANK OF PATIALA",STBP0000044,WAITING,JAITU,JAITU,37126,FARIDKOT,JAITU,PUNJAB
"STATE BANK OF PATIALA",STBP0000043,WAITING,BOHA,"VPO BOHA DIST MANSA-151503",257233,MANSA,BOHA,PUNJAB
"STATE BANK OF PATIALA",STBP0000042,WAITING,"MANSA INDL. AREA","INDUSTRIAL AREA DIST-MANSA151505",226012,MANSA,MANSA,PUNJAB
"STATE BANK OF PATIALA",STBP0000041,WAITING,MANSA,"WATER WORKS ROAD MANSA",51220007,MANSA,MANSA,PUNJAB
"STATE BANK OF PATIALA",STBP0000040,WAITING,KOTKAPURA,"RAILWAY ROAD,KOTKAPURA",223828,FARIDKOT,"KOT KAPURA",PUNJAB
"STATE BANK OF PATIALA",STBP0000039,WAITING,"BHATINDA CITY","BHATINDA CITY. PO KIKKAR BAZAR, BHATINDA(PUNJAB)-151005",253092,BHATINDA,BATHINDA,PUNJAB
"STATE BANK OF PATIALA",STBP0000038,WAITING,"BATHINDA CIVIL LINES","CIVIL LINES BATHINDA",2211537,BHATINDA,BATHINDA,PUNJAB
"STATE BANK OF PATIALA",STBP0000037,WAITING,SEHNA,"TEH BARNALA",270435,SANGRUR,SEHNA,PUNJAB
"STATE BANK OF PATIALA",STBP0000036,WAITING,TAPA,"NEAR RAILWAY STATION, TEH. BARNALA(PUNJAB)",272038,SANGRUR,TAPA,PUNJAB
"STATE BANK OF PATIALA",STBP0000035,WAITING,"LEHRA GAGA","NEAR RAILWAY STATION",272042,SANGRUR,LEHRAGAGA,PUNJAB
"STATE BANK OF PATIALA",STBP0000034,WAITING,CHEEMA,"BUS STAND CHEEMA",84224,SANGRUR,CHEEMA,PUNJAB
"STATE BANK OF PATIALA",STBP0000033,WAITING,BHAWANIGARH,"TEH & DIST SANGRUR",272026,SANGRUR,BHAWANIGARH,PUNJAB
"STATE BANK OF PATIALA",STBP0000032,WAITING,BHADAUR,"TEH BARNALA",274760,SANGRUR,BHADAUR,PUNJAB
"STATE BANK OF PATIALA",STBP0000031,WAITING,AHMEDGARH,"TEH MALERKOTLA",640031,SANGRUR,AHMEDGARH,PUNJAB
"STATE BANK OF PATIALA",STBP0000030,WAITING,SUNAM,"MAIN BRANCH, SUNAM(PUNJAB)",20031,SANGRUR,SUNAM,PUNJAB
"STATE BANK OF PATIALA",STBP0000029,WAITING,MOONAK,"TEH SUNAM",76339,SANGRUR,MOONAK,PUNJAB
"STATE BANK OF PATIALA",STBP0000028,WAITING,DHURI,"TEH MALERKOTLA",220034,SANGRUR,DHURI,PUNJAB
"STATE BANK OF PATIALA",STBP0000027,WAITING,BARNALA,"HADIYAYA BAZAR ,BARNALA(PUNJAB)",30026,SANGRUR,BARNALA,PUNJAB
"STATE BANK OF PATIALA",STBP0000026,WAITING,SANGRUR,"BARA CHOWK, SANGRUR(PUNJAB)",234313,SANGRUR,SANGRUR,PUNJAB
"STATE BANK OF PATIALA",STBP0000025,WAITING,MALERKOTLA,"TEH MALERKOTLA",253881,SANGRUR,MALERKOTLA,PUNJAB
"STATE BANK OF PATIALA",STBP0000024,WAITING,PATRAN,PATRAN(PUNJAB),242022,PATIALA,PATRAN,PUNJAB
"STATE BANK OF PATIALA",STBP0000023,WAITING,GOBINDGARH,"G T ROAD TEH AMOLH(PUNJAB)",257538,"FATEHGARH SAHEB","GOBIND GARH",PUNJAB
"STATE BANK OF PATIALA",STBP0000022,WAITING,DERABASSI,"TEH. RAJPURA",231024,PATIALA,"DERA BASSI",PUNJAB
"STATE BANK OF PATIALA",STBP0000021,WAITING,DEVIGARH,DEVIGARH(PUNJAB),2631078,PATIALA,DEVIGARH,PUNJAB
"STATE BANK OF PATIALA",STBP0000020,WAITING,BHADSON,"TEH PATIALA",260161,PATIALA,BHADSON,PUNJAB
"STATE BANK OF PATIALA",STBP0000019,WAITING,BALBEHRA,"V & PO BALBEHRA",2640228,PATIALA,BALBEHRA,PUNJAB
"STATE BANK OF PATIALA",STBP0000018,WAITING,AMLOH,"TEH. NABHA(PUNJAB)",230027,"FATEHGARH SAHEB",AMLOH,PUNJAB
"STATE BANK OF PATIALA",STBP0000017,WAITING,SAMANA,"TEH. SAMANA(PUNJAB)",220024,PATIALA,SAMANA,PUNJAB
"STATE BANK OF PATIALA",STBP0000016,WAITING,"RAJPURA MAIN BRANCH","MAIN BRANCH, RAJPURA(PUNJAB)",224060,PATIALA,RAJPURA,PUNJAB
"STATE BANK OF PATIALA",STBP0000015,WAITING,"RAJPURA TOWNSHIP","RAJPURA TOWNSHIP(PUNJAB)",222559,PATIALA,RAJPURA,PUNJAB
"STATE BANK OF PATIALA",STBP0000014,WAITING,"BASSI PATHANA","BLOCK BASSI PATHANA",250052,"FATEHGARH SAHEB","BASSI PATHANA",PUNJAB
"STATE BANK OF PATIALA",STBP0000013,WAITING,NABHA,"TEH NABHA",220105,PATIALA,NABHA,PUNJAB
"STATE BANK OF PATIALA",STBP0000012,WAITING,"MALL ROAD, PATIALA","THE MALL, PATIALA(PUNJAB)-147001",2227792,PATIALA,PATIALA,PUNJAB
"STATE BANK OF PATIALA",STBP0000011,WAITING,"PATIALA DHARAMPURA BAZAR","DHARAMPURA BAZAR, PATIALA(PUNJAB)",2202375,PATIALA,PATIALA,PUNJAB
"STATE BANK OF PATIALA",STBP0000009,WAITING,"PATIALA PBI UNIVERSITY","PUNJABI UNIVERSITY, PATIALA(PUNJAB)",2282658,PATIALA,PATIALA,PUNJAB
"STATE BANK OF PATIALA",STBP0000008,WAITING,"PATIALA INDUSTRIAL ESTATE","NEW GRAIN MARKET, PATIALA",2360896,PATIALA,PATIALA,PUNJAB
"STATE BANK OF PATIALA",STBP0000007,WAITING,"PATIALA CHOWK FORT","CHOWK FORT,PATIALA(PUNJAB)",220111,PATIALA,PATIALA,PUNJAB
"STATE BANK OF PATIALA",STBP0000006,WAITING,"BHUPINDER NAGAR, PATIALA","BHUPINDER NAGAR, PATIALA(PUNJAB)-147001",2226326,PATIALA,PATIALA,PUNJAB
"STATE BANK OF PATIALA",STBP0000005,WAITING,"PATIALA ARYA SAMAJ","PRESS ROAD,PATIALA",2309857,PATIALA,PATIALA,PUNJAB
"STATE BANK OF PATIALA",STBP0000004,WAITING,"NEW DELHI MODEL BASTI","8357-1/3 NEW COLONY MARG, NEW DELHI -110005",5402851,"NEW DELHI",DELHI,DELHI
"STATE BANK OF PATIALA",STBP0000003,WAITING,"NEW DELHI BALI NAGAR","BALI NAGAR, NEW DELHI-110015",5433589,"NEW DELHI",DELHI,DELHI
"STATE BANK OF PATIALA",STBP0000002,WAITING,"NEW DELHI DARYA GANJ","DARYAGANJ, NEW DELHI",23278115,"NEW DELHI",DELHI,DELHI
"STATE BANK OF PATIALA",STBP0000001,WAITING,GHAZIABAD,"10 NAVYUG MARKET UP-245101",0,GHAZIABAD,GHAZIABAD,"UTTAR PRADESH"
