BANKNAME,IFSC,MICR_CODE,BRANCH,ADDRESS,CONTACT1,CENTRE,DISTRICT,STATE
"NORTH MALABAR GRAMIN BANK",NMGB0000002,670460011,CHALA,"NORTH MALABAR GRAMIN BANK, CHALA BRANCH, P O CHALA EAST - 670 621, KANNUR DISTRICT, KERALA, PH: 0497-2820733",9400069002,CHALA,CANNUR,KERALA
"NORTH MALABAR GRAMIN BANK",NMGB0000003,670460801,KOLASSERY,"NORTH MALABAR GRAMIN BANK, KOLASSERY BRANCH, P O KOLASSERY- 670 601, KANNUR DISTRICT, KERALA, PH: 0498- 240550",9400069003,KOLLASSERRY,CANNUR,KERALA
"NORTH MALABAR GRAMIN BANK",NMGB0000004,670460203,KARTIKULAM,"NORTH MALABAR GRAMIN BANK, KARTIKULAM , P O KARTIKULAM - 670 646, WAYANAD DISTRICT, KERALA, PH: 04935-250441",9400069004,KARTIKULAM,WAYANAD,KERALA
"NORTH MALABAR GRAMIN BANK",NMGB0000005,670460802,PERIYA,"NORTH MALABAR GRAMIN BANK, PERIYA , P O PERIYA- 670 645, WAYANAD DISTRICT, KERALA, PH: 04935-260070",9400069005,PERIYA,WAYANAD,KERALA
"NORTH MALABAR GRAMIN BANK",NMGB0000006,671460801,NARKILAKAD,"NORTH MALABAR GRAMIN BANK, NARKILAKAD BRANCH, P O KOTTAMALA- 671 314, KASARAGOD DISTRICT, KERALA , PH: 04997-241348",9400069006,"ELERI WEST",KASARAGOD,KERALA
"NORTH MALABAR GRAMIN BANK",NMGB0000007,670460803,VENGAD,"NORTH MALABAR GRAMIN BANK, VENGAD BRANCH, P O VENGAD- 670 612, KANNUR DISTRICT, KERALA, PH: 0490-2308572 ",9400069007,VENGAD,CANNUR,KERALA
"NORTH MALABAR GRAMIN BANK",NMGB0000008,670460153,RAMANTHALI,"NORTH MALABAR GRAMIN BANK, RAMANTHALI BRANCH, P O RAMANTHALI- 670 308, KANNUR DISTRICT, KERALA, PH: 04985-222548",9400069008,RAMANTHALI,CANNUR,KERALA
"NORTH MALABAR GRAMIN BANK",NMGB0000009,670460154,MATHIL,"NORTH MALABAR GRAMIN BANK, MATHIL BRANCH, P O MATHIL- 670 343, KANNUR DISTRICT, KERALA, PH: 04985-280520",9400069009,MATHIL,CANNUR,KERALA
"NORTH MALABAR GRAMIN BANK",NMGB0000010,670460804,KUDIYANMALA,"NORTH MALABAR GRAMIN BANK, KUDIYANMALA BRANCH, PO KUDIYANMALA, KANNUR DIST, KERALA, PIN: 670 582, PH: 04602 - 218102",9400069010,KUDIYANMALA,CANNUR,KERALA
"NORTH MALABAR GRAMIN BANK",NMGB0000011,670460204,VELLAMUNDA,"NORTH MALABAR GRAMIN BANK, VELLAMUNDA , P O KATTAYAD- 670 731, WAYANAD DISTRICT, KERALA, PH: 04935-230331",9400069011,VELLAMUNDA,WAYANAD,KERALA
"NORTH MALABAR GRAMIN BANK",NMGB0000012,671460004,"MOGRAL PUTHUR","NORTH MALABAR GRAMIN BANK, MOGRAL PUTHUR BRANCH, P O MOGRAL PUTHUR - 671 124, KASARAGOD DISTRICT, KERALA, PH: 04994-233457 ",9400069012,KASARAGOD,KASARAGOD,KERALA
"NORTH MALABAR GRAMIN BANK",NMGB0000013,671460802,JAYANAGARA,"NORTH MALABAR GRAMIN BANK, JAYANAGARA BRANCH, P O KUMBDAJE - 671 551, KASARAGOD DISTRICT, KERALA , PH: 04998- 260206",9400069013,KUMBDAJE,KASARAGOD,KERALA
"NORTH MALABAR GRAMIN BANK",NMGB0000014,670460155,UDINUR,"NORTH MALABAR GRAMIN BANK, UDINUR BRANCH, P O EDACHAKAI- 671 310, KASARAGOD DISTRICT, KERALA , PH: 04997-211250",9400069014,"TRIKKARIPPUR NORTH",KASARAGOD,KERALA
"NORTH MALABAR GRAMIN BANK",NMGB0000015,671460803,PERMUDE,"NORTH MALABAR GRAMIN BANK, PERMUDE BRANCH, P O PERMUDE- 671 324, KASARAGOD DISTRICT, KERALA , PH: 04998-245205",9400069015,KASARAGOD,KASARAGOD,KERALA
"NORTH MALABAR GRAMIN BANK",NMGB0000016,671460804,PANATHADY,"NORTH MALABAR GRAMIN BANK, PANATHADY BRANCH, P O PANATHADY- 671 532, KASARAGOD DISTRICT, KERALA, PH: 04997-228370",9400069016,PANATHADY,KASARAGOD,KERALA
"NORTH MALABAR GRAMIN BANK",NMGB0000017,671460005,PUTHIGE,"NORTH MALABAR GRAMIN BANK, PUTHIGE BRANCH, P O EDANAD- 671 321, KASARAGOD DISTRICT, KERALA, PH: 04998-245224",9400069017,EDNAD,KASARAGOD,KERALA
"NORTH MALABAR GRAMIN BANK",NMGB0000018,670460805,PAYYAVUR,"NORTH MALABAR GRAMIN BANK, PAYYAVOOR BRANCH, P O PAYYAVOOR- 670 633, KANNUR DISTRICT, KERALA, PH: 04602-210143",9400069018,PAYYAVOOR,CANNUR,KERALA
"NORTH MALABAR GRAMIN BANK",NMGB0000019,670460806,PALAVAYAL,"NORTH MALABAR GRAMIN BANK, PALAVAYAL BRANCH, P O PALAVAYAL- 671 511, KASARAGOD DISTRICT, KERALA , PH: 04985-212225",9400069019,"ELERI EAST",KASARAGOD,KERALA
"NORTH MALABAR GRAMIN BANK",NMGB0000020,671460805,BANDADKA,"NORTH MALABAR GRAMIN BANK, BANDADKA BRANCH, P O BANDADKA -671 541, KASARAGOD DISTRICT, KERALA , PH: 04994 - 200210",9400069020,BANDADKA,KASARAGOD,KERALA
"NORTH MALABAR GRAMIN BANK",NMGB0000021,670460807,MATTOOL,"NORTH MALABAR GRAMIN BANK, MATTOOL BRANCH, P O MATTOOL- 670 302, KANNUR DISTRICT, KERALA, PH: 0497-2842087 ",9400069021,MATTUL,CANNUR,KERALA
"NORTH MALABAR GRAMIN BANK",NMGB0000022,670460003,THANA,"NORTH MALABAR GRAMIN BANK, THANA BRANCH, P O THANA- 670 012, KANNUR DISTRICT, KERALA, PH: 0497-2706869",9400069022,CANNUR,CANNUR,KERALA
"NORTH MALABAR GRAMIN BANK",NMGB0000023,670460156,CHERUTHAZHAM,"NORTH MALABAR GRAMIN BANK, CHERUTHAZHAM BRANCH, P O PILATHARA - 670 501, KANNUR DISTRICT, KERALA, PH: 0497-2800210",9400069023,CHERUTHAZHAM,CANNUR,KERALA
"NORTH MALABAR GRAMIN BANK",NMGB0000024,670460012,KUDUKKIMOTTA,"NORTH MALABAR GRAMIN BANK, KUDUKKIMOTTA BRANCH, P O KOODALI - 670 592, KANNUR DISTRICT, KERALA, PH: 0497- 2857949",9400069024,KUDUKKIMOTTA,CANNUR,KERALA
"NORTH MALABAR GRAMIN BANK",NMGB0000025,670460808,KAKKENGAD,"NORTH MALABAR GRAMIN BANK, KAKKENGAD BRANCH, P O KAKKENGAD- 670 673, KANNUR DISTRICT, KERALA, PH: 0490- 2457930",9400069025,KAKKENGAD,CANNUR,KERALA
"NORTH MALABAR GRAMIN BANK",NMGB0000026,670460809,KARIKOTTAKARI,"NORTH MALABAR GRAMIN BANK, KARIKKOTTAKARI BRANCH, P O KOOMANTHODE - 670 704, KANNUR DISTRICT, KERALA, PH: 0490- 2454566",9400069026,KARIKKOTTAKERE,CANNUR,KERALA
"NORTH MALABAR GRAMIN BANK",NMGB0000027,670460157,CHEEMENI,"NORTH MALABAR GRAMIN BANK, CHEEMENI BRANCH, P.O. CHEEMENI, KASARAGOD DIST, KERALA, PIN: 671 316, PH: 04997 -250345",9400069027,CHEEMENI,KASARAGOD,KERALA
"NORTH MALABAR GRAMIN BANK",NMGB0000028,670460103,PERINGATHUR,"NORTH MALABAR GRAMIN BANK, PERINGATHUR BRANCH, P O PERINGATHUR- 670 675, KANNUR DISTRICT, KERALA, PH: 0490-393055",9400069028,PERINGATHUR,CANNUR,KERALA
"NORTH MALABAR GRAMIN BANK",NMGB0000029,671460006,CHENGALA,"NORTH MALABAR GRAMIN BANK, CHENGALA BRANCH, P O CHENGALA - 671 541, KASARAGOD DISTRICT, KERALA , PH: 04994-280283",9400069029,CHEGALA,KASARAGOD,KERALA
"NORTH MALABAR GRAMIN BANK",NMGB0000030,670460810,VATTIAMTHODE,"NORTH MALABAR GRAMIN BANK, VATTIAMTHODE BRANCH, P O VATTIAMTHODE- 670 705, KANNUR DISTRICT, KERALA, PH: 0498-216029",9400069030,VATTIAMTHODU,CANNUR,KERALA
"NORTH MALABAR GRAMIN BANK",NMGB0000031,670460004,THAYYIL,"NORTH MALABAR GRAMIN BANK, THAYYIL BRANCH, P O THAYYIL - 670 003, KANNUR DISTRICT, KERALA, PH: 0497-2731456",9400069031,THAYYIL,CANNUR,KERALA
"NORTH MALABAR GRAMIN BANK",NMGB0000032,671460806,KALCHANADKA,"NORTH MALABAR GRAMIN BANK, KALCHANADKA BRANCH, POKALCHANDKA - 671 314, KASARAGOD DT KERALA, PH: 04997-256110",9400069032,NILESHWAR,KASARAGOD,KERALA
"NORTH MALABAR GRAMIN BANK",NMGB0000033,670460158,VALIYAPARAMBA,"NORTH MALABAR GRAMIN BANK, VALIYAPARAMBA BRANCH, P O VALIYAPARAMBA- , 671 312 , KASARAGOD DISTRICT, KERALA , PH: 04997-258358",9400069033,"TRIKKARIPPUR NORTH",KASARAGOD,KERALA
"NORTH MALABAR GRAMIN BANK",NMGB0000034,670460811,KOLAYAD,"NORTH MALABAR GRAMIN BANK, KOLAYAD BRANCH, P O KOLAYAD - 670643, KANNUR DISTRICT, KERALA, PH: 0490- 302412",9400069034,KOLAYAD,CANNUR,KERALA
"NORTH MALABAR GRAMIN BANK",NMGB0000035,671460807,VALLIKADAVU,"NORTH MALABAR GRAMIN BANK, VALLIKADAVU BRANCH, P O VALLIKKADAVU- 671 533, KASARAGOD DISTRICT, KERALA , PH: 04997-247470 ",9400069035,MALOTH,KASARAGOD,KERALA
"NORTH MALABAR GRAMIN BANK",NMGB0000036,670460159,CHERUVATHUR,"NORTH MALABAR GRAMIN BANK, CHERUVATHUR BRANCH, P O CHERUVATHUR- 671 313, KASARAGOD DISTRICT, KERALA , PH: 04997-260260",9400069036,CHERUVATHUR,KASARAGOD,KERALA
"NORTH MALABAR GRAMIN BANK",NMGB0000037,671460054,AMBALATHARA,"NORTH MALABAR GRAMIN BANK, AMBALATHARA BRANCH, P O PULLUR- 671 531, VIA. ANANDASHRAM, KASARAGOD DIST., KERALA, PH: 04997-243680",9400069037,KANHANGAD,KASARAGOD,KERALA
"NORTH MALABAR GRAMIN BANK",NMGB0000038,671460808,PARAPPA,"NORTH MALABAR GRAMIN BANK, PARAPPA BRANCH, P O PARAPPA - 671 533, KASARAGOD DISTRICT, KERALA , PH: 04997-254202",9400069038,NILESHWAR,KASARAGOD,KERALA
"NORTH MALABAR GRAMIN BANK",NMGB0000039,670460104,PINARAYI,"NORTH MALABAR GRAMIN BANK, PINARAYI BRANCH, P O PINARAYI- 670 741, KANNUR DISTRICT, KERALA, PH: 0490-382739",9400069039,PINARAYI,CANNUR,KERALA
"NORTH MALABAR GRAMIN BANK",NMGB0000040,670460812,CHERUVANCHERRY,"NORTH MALABAR GRAMIN BANK, CHERUVANCHERY BRANCH, PO.CHERUVANCHERY- 670 650, KANNUR DISTRICT, KERALA, PH: 0490- 2304403",9400069040,CHERUVANCHERRY,CANNUR,KERALA
"NORTH MALABAR GRAMIN BANK",NMGB0000041,670460813,KELAKAM,"NORTH MALABAR GRAMIN BANK, KELAKAM BRANCH, P O KELAKAM - 670 674, KANNUR DISTRICT, KERALA, PH: 0490-412047",9400069041,KELAKAM,CANNUR,KERALA
"NORTH MALABAR GRAMIN BANK",NMGB0000042,671460055,"PERIYA BAZAR","NORTH MALABAR GRAMIN BANK, PERIYA BAZAR BRANCH, P O PERIYA- 671 316, KASARAGOD DISTRICT, KERALA , PH: 04997-234050",9400069042,PERIYE,KASARAGOD,KERALA
"NORTH MALABAR GRAMIN BANK",NMGB0000043,670460814,PERATTA,"NORTH MALABAR GRAMIN BANK, PERATTA BRANCH, P O KOOTUPUZHA- 670 706, KANNUR DISTRICT, KERALA, PH: 0490-2420757",9400069043,"KIZHOOR IRITTY",CANNUR,KERALA
"NORTH MALABAR GRAMIN BANK",NMGB0000044,670460815,KARETTA,"NORTH MALABAR GRAMIN BANK, KARETTA BRANCH, P O URUVACHAL - 670 702, KANNUR DISTRICT, KERALA, PH: 0490- 2477727",9400069044,KARETTA,CANNUR,KERALA
"NORTH MALABAR GRAMIN BANK",NMGB0000045,670460009,KUNHIPALLY,"NORTH MALABAR GRAMIN BANK, KUNHIPPALLI BRANCH, PO KOTTALI, KANNUR DIST, KERALA, PIN: 670 016, PH: 0497-2707544",9400069045,KUNHIPALLY,CANNUR,KERALA
"NORTH MALABAR GRAMIN BANK",NMGB0000046,670460106,KALLIKANDY,"NORTH MALABAR GRAMIN BANK, KALLIKANDY BRANCH, P O KALLIKANDY-670 693, KANNUR DISTRICT, KERALA, PH: 0490-2462095",9400069046,KALLIKKANDY,CANNUR,KERALA
"NORTH MALABAR GRAMIN BANK",NMGB0000047,670460053,CHAPPARAPADAVU,"NORTH MALABAR GRAMIN BANK, CHAPPARAPADAVE BRANCH, P O CHAPPARAPADAVE- 670 581 KANNUR DISTRICT, KERALA, PH: 04602 - 270244",9400069047,CHAPPARAPADAVU,CANNUR,KERALA
"NORTH MALABAR GRAMIN BANK",NMGB0000048,670460818,MANAKKADAVU,"NORTH MALABAR GRAMIN BANK, MANAKKADAVU BRANCH, P O MANAKKADAVE - 670 571, KANNUR DISTRICT, KERALA, PH: 04602-286721 ",9400069048,MANAKKADAVU,CANNUR,KERALA
"NORTH MALABAR GRAMIN BANK",NMGB0000049,671460809,MEEYAPADAVU,"NORTH MALABAR GRAMIN BANK, MEEYAPADAVE BRANCH, P O MEEYAPADAVU- 671 323, KASARAGOD DISTRICT, KERALA , PH: 04998-252122",9400069049,KASARAGOD,KASARAGOD,KERALA
"NORTH MALABAR GRAMIN BANK",NMGB0000050,670460816,KEEZHPALLY,"NORTH MALABAR GRAMIN BANK, KEEZHPALLY BRANCH, P O KEEZHPALLY- 670 704, KANNUR DISTRICT, KERALA, PH; 0490- 2454503",9400069050,KEEZHPALLY,CANNUR,KERALA
"NORTH MALABAR GRAMIN BANK",NMGB0000051,671460007,ADOOR,"NORTH MALABAR GRAMIN BANK, ADOOR BRANCH, P.O URDOOR -671 543, KASARAGOD DIST, KERALA, PH: 04994 -270156",9400069051,ADOOR,KASARAGOD,KERALA
"NORTH MALABAR GRAMIN BANK",NMGB0000052,670460052,TALIPARAMBA,"NORTH MALABAR GRAMIN BANK, TALIPARAMBA BRANCH, P O TALIPARAMBA- 670 141, KANNUR DISTRICT, KERALA, PH: 04602- 203375",9400069052,TALIPARAMBA,CANNUR,KERALA
"NORTH MALABAR GRAMIN BANK",NMGB0000053,670460817,OLAYAMPADY,"NORTH MALABAR GRAMIN BANK, OLAYAMPADY BRANCH, P O OLAYAMPADY- 670 306, KANNUR DISTRICT, KERALA, PH: 04985-251110",9400069053,OLAYAMPADY,CANNUR,KERALA
"NORTH MALABAR GRAMIN BANK",NMGB0000054,671460008,MELPARAMBA,"NORTH MALABAR GRAMIN BANK, MELPARAMBA BRANCH, P O KALNAD- 671 317, KASARAGOD DISTRICT, KERALA , PH: 04994-237305",9400069054,KALANAD,KASARAGOD,KERALA
"NORTH MALABAR GRAMIN BANK",NMGB0000055,670460105,PARAL,"NORTH MALABAR GRAMIN BANK, PARAL BRANCH, P O PARAL- 670 671, KANNUR DISTRICT, KERALA, PH: 0490-2356131",9400069055,PARAL,CANNUR,KERALA
"NORTH MALABAR GRAMIN BANK",NMGB0000056,670460054,EZHOME,"NORTH MALABAR GRAMIN BANK, EZHOME BRANCH, P O EZHOME - 670 334, KANNUR DISTRICT, KERALA, PH: 0497-2871595 ",9400069056,EZHOME,CANNUR,KERALA
"NORTH MALABAR GRAMIN BANK",NMGB0000057,671460056,MADIYAN,"NORTH MALABAR GRAMIN BANK, MADIYAN BRANCH, P O MANIKOTH- 671 329, KASARAGOD DISTRICT, KERALA , PH: 04997- 267557 ",9400069057,KANHANGAD,KASARAGOD,KERALA
"NORTH MALABAR GRAMIN BANK",NMGB0000058,671460810,MUNNAD,"NORTH MALABAR GRAMIN BANK, MUNNAD BRANCH, P O MUNNAD- 671 541, KASARAGOD DISTRICT, KERALA , PH: 04994-205448",9400069058,BANDADKA,KASARAGOD,KERALA
"NORTH MALABAR GRAMIN BANK",NMGB0000059,671460811,KUNJATHUR,"NORTH MALABAR GRAMIN BANK, KUNJATHUR BRANCH, P O KUNJATHUR- 671 323, KASARAGOD DISTRICT, KERALA , PH: 04998-272771",9400069059,KUNJATHUR,KASARAGOD,KERALA
"NORTH MALABAR GRAMIN BANK",NMGB0000060,670460111,"WEST PONNIAM","NORTH MALABAR GRAMIN BANK, WEST PONNIAM BRANCH, P O WEST , PONNIAM- 670 641, KANNUR DISTRICT, KERALA, PH: 0490-2306141",9400069060,THALASSERY,CANNUR,KERALA
"NORTH MALABAR GRAMIN BANK",NMGB0000061,670460845,KARUVANCHAL,"NORTH MALABAR GRAMIN BANK, KARUVANCHAL BRANCH, P O KARUVANCHAL- 670 571, KANNUR DISTRICT, KERALA, PH: 04602-245579",9400069061,ALAKODE,CANNUR,KERALA
"NORTH MALABAR GRAMIN BANK",NMGB0000062,670460820,PADIYOTCHAL,"NORTH MALABAR GRAMIN BANK, PADIYOTCHAL BRANCH, POPADIYOTCHAL- 670 307, KANNUR DISTRICT, KERALA, PH: 0498-540073",9400069062,PERINGOME,CANNUR,KERALA
"NORTH MALABAR GRAMIN BANK",NMGB0000063,670460821,THONDIYIL,"NORTH MALABAR GRAMIN BANK, THONDIYIL BRANCH, P O THONDIYIL- 670 673, KANNUR DISTRICT, KERALA, PH: 0490-2444773",9400069063,PERAVOOR,CANNUR,KERALA
"NORTH MALABAR GRAMIN BANK",NMGB0000064,671460052,KANHANGAD,"NORTH MALABAR GRAMIN BANK, KANHANGAD BRANCH, P O KANHANGAD - 671 315, KOTTACHERY, KASARAGOD DISTRICT, KERALA , PH: 04997-20410",9400069064,KANHANGAD,KASARAGOD,KERALA
"NORTH MALABAR GRAMIN BANK",NMGB0000065,670460822,CHUZHALI,"NORTH MALABAR GRAMIN BANK, CHUZHALI BRANCH, P O CHUZHALI - 670631, KANNUR DISTRICT, KERALA, PH: 04602-260434",9400069065,CHUZHALI,CANNUR,KERALA
"NORTH MALABAR GRAMIN BANK",NMGB0000066,670460823,CHEMPANTHOTTY,"NORTH MALABAR GRAMIN BANK, CHEMPANTHOTTY BRANCH, P O CHEMPANTHOTTY - , 670 631, KANNUR DISTRICT, KERALA, PH: 04602- 250273 ",9400069066,NADUVIL,CANNUR,KERALA
"NORTH MALABAR GRAMIN BANK",NMGB0000067,670460107,POOKODE,"NORTH MALABAR GRAMIN BANK, POOKODE BRANCH, P O POOKODE- 670691, KANNUR DISTRICT, KERALA, PH: 0490-2362011",9400069067,KUTHUPARAMBA,CANNUR,KERALA
"NORTH MALABAR GRAMIN BANK",NMGB0000068,670460824,CHAVASSERY,"NORTH MALABAR GRAMIN BANK, CHAVASSERY BRANCH, P O CHAVASSERY - 670 702, KANNUR DISTRICT, KERALA, PH: 0490-2433842",9400069068,CHAVASSERY,CANNUR,KERALA
"NORTH MALABAR GRAMIN BANK",NMGB0000069,671460009,TRIKKANNAD,"NORTH MALABAR GRAMIN BANK, TRIKKANNAD BRANCH, P O UDUMA- 671 319, KASARAGOD DISTRICT, KERALA, PH: 04997-236618",9400069069,UDMA,KASARAGOD,KERALA
"NORTH MALABAR GRAMIN BANK",NMGB0000070,671460812,JODUKALLU,"NORTH MALABAR GRAMIN BANK, JODUKALLU BRANCH, P O KAYYAR- 671 322, KASARAGOD DISTRICT, KERALA?, PH: 04998 -205110",9400069070,BAYAR,KASARAGOD,KERALA
"NORTH MALABAR GRAMIN BANK",NMGB0000071,671460002,KASARAGOD,"NORTH MALABAR GRAMIN BANK, KASARAGOD BRANCH, P O KASARAGOD- 671 121, KASARAGOD DISTRICT, KERALA , PH: 04994-221341",9400069071,KASARAGOD,KASARAGOD,KERALA
"NORTH MALABAR GRAMIN BANK",NMGB0000072,670460102,THALASSERY,"NORTH MALABAR GRAMIN BANK, THALASSERY BRANCH, P O THALASSERY -670 101, KANNUR DISTRICT, KERALA, PH: 0490-2320815",9400069072,THALASSERY,CANNUR,KERALA
"NORTH MALABAR GRAMIN BANK",NMGB0000073,671460010,BOVIKANAM,"NORTH MALABAR GRAMIN BANK, BOVIKANAM BRANCH, P O MULIYAR - 671 542, KASARAGOD DISTRICT, KERALA , PH: 04998-250104",9400069073,MULIYAR,KASARAGOD,KERALA
"NORTH MALABAR GRAMIN BANK",NMGB0000074,670460160,PAYANGADI,"NORTH MALABAR GRAMIN BANK, PAYANGADI BRANCH, P O PAYANGADI RS- 670 358, KANNUR DISTRICT, KERALA, PH: 0497-2870660",9400069074,MADAYI,CANNUR,KERALA
"NORTH MALABAR GRAMIN BANK",NMGB0000075,671460011,MADHUR,"NORTH MALABAR GRAMIN BANK, MADHUR BRANCH, P O MADHUR- 671 124, KASARAGOD DISTRICT, KERALA , PH: 04994-240456",9400069075,MADHUR,KASARAGOD,KERALA
"NORTH MALABAR GRAMIN BANK",NMGB0000076,670460202,MANANTHAVADY,"NORTH MALABAR GRAMIN BANK, MANANTHAVADY , P O MANATHAVADY- 670 645, WAYANAD DISTRICT, KERALA, PH: 04935-240306",9400069076,MANANTHAVADY,WAYANAD,KERALA
"NORTH MALABAR GRAMIN BANK",NMGB0000077,670460013,CHAKKARAKKAL,"NORTH MALABAR GRAMIN BANK, CHAKKARAKAL BRANCH, P O MAMBA-670 611, KANNUR DISTRICT, KERALA, PH: 0497- 2851733",9400069077,ANJARAKANDY,CANNUR,KERALA
"NORTH MALABAR GRAMIN BANK",NMGB0000078,670460205,THAVINHAL,"NORTH MALABAR GRAMIN BANK, THAVINHAL , P O THALAPPUZHA- 670 644, WAYANAD DISTRICT, KERALA, PH: 04935-256306",9400069078,THAVINHAL,WAYANAD,KERALA
"NORTH MALABAR GRAMIN BANK",NMGB0000079,670460014,KANNADIPARAMBA,"NORTH MALABAR GRAMIN BANK, KANNADIPARAMBA BRANCH , P. O. KANNADIPARAMBA - 670601 , KANNUR DISTRICT, KERALA, PH: 04972-2796750",9400069079,KANNADIPARAMBA,CANNUR,KERALA
"NORTH MALABAR GRAMIN BANK",NMGB0000080,670460825,CHITTARIPARAMBA,"NORTH MALABAR GRAMIN BANK, CHITTARIPPARAMBA BRANCH, P O CHITTARIPPARAMBA- 670 650 , KANNUR DISTRICT, KERALA, PH: 0490-2300530 ",9400069080,KUTHUPARAMBA,CANNUR,KERALA
"NORTH MALABAR GRAMIN BANK",NMGB0000081,670460206,KALLODI,"NORTH MALABAR GRAMIN BANK, KALLODI , P O EDAVAKA - 670 645, WAYANAD DISTRICT, KERALA , PH: 04935-241781 ",9400069081,EDAVAKA,WAYANAD,KERALA
"NORTH MALABAR GRAMIN BANK",NMGB0000082,670460826,PATHIRIYAD,"NORTH MALABAR GRAMIN BANK, PATHIRIYAD BRANCH, P O SHANKARANELLUR- 670 643, KANNUR DISTRICT, KERALA, PH: 0490-2362461",9400069082,PATHIRIYAD,CANNUR,KERALA
"NORTH MALABAR GRAMIN BANK",NMGB0000083,671460813,KODLAMOGARU,"NORTH MALABAR GRAMIN BANK, KODLA MOGARU  BRANCH, POKODLA MOGARU -671 323, VIA MANJESWAR, KASARAGOD DT, KERALA, PH: 04998 - 202180 ",9400069083,KODALAMOGURU,KASARAGOD,KERALA
"NORTH MALABAR GRAMIN BANK",NMGB0000084,670460827,"PADIYUR KALLIAD","NORTH MALABAR GRAMIN BANK, PADIYUR KALLIAD BRANCH, P O PADIYUR- 670 703, KANNUR DISTRICT, KERALA, PH: 04602-273011 ",9400069084,PADIYUR,CANNUR,KERALA
"NORTH MALABAR GRAMIN BANK",NMGB0000085,671460814,SAJANKILA,"NORTH MALABAR GRAMIN BANK, SAJANKILA BRANCH, P O BAYAR- 671 322, KASARAGOD DISTRICT, KERALA , PH: 04998-205738",9400069085,BAYAR,KASARAGOD,KERALA
"NORTH MALABAR GRAMIN BANK",NMGB0000086,670460828,THERTHALLY,"NORTH MALABAR GRAMIN BANK, THERTHALLY BRANCH, P O THERTHALLY- 670 571, KANNUR DISTRICT, KERALA, PH: 04602-285292",9400069086,ALAKODE,CANNUR,KERALA
"NORTH MALABAR GRAMIN BANK",NMGB0000087,670460829,IRITTY,"NORTH MALABAR GRAMIN BANK, IRITTY BRANCH, P O IRITTY-670 703, KANNUR DISTRICT, KERALA, PH: 0490- 2491469",9400069087,"KIZHOOR IRITTY",CANNUR,KERALA
"NORTH MALABAR GRAMIN BANK",NMGB0000088,670460207,KELLUR,"NORTH MALABAR GRAMIN BANK, KELLUR , P O KELLUR- 670 645, WAYANAD DISTRICT, KERALA, PH: 04935-241851",9400069088,THONDERNAD,WAYANAD,KERALA
"NORTH MALABAR GRAMIN BANK",NMGB0000089,670460830,NEENDUNOKKI,"NORTH MALABAR GRAMIN BANK, NEENDUNOKKI BRANCH, P O KOTTIYOOR- 670 674, KANNUR DISTRICT, KERALA, PH: 0490-412350",9400069089,KELAKAM,CANNUR,KERALA
"NORTH MALABAR GRAMIN BANK",NMGB0000090,670460152,PAYYANNUR,"NORTH MALABAR GRAMIN BANK, PAYYANNUR BRANCH, P O PAYYANNUR- 670 307, KANNUR DISTRICT, KERALA, PH: 04985-203101",9400069090,PAYYANNUR,CANNUR,KERALA
"NORTH MALABAR GRAMIN BANK",NMGB0000091,670460831,ANGADIKKADAVU,"NORTH MALABAR GRAMIN BANK, ANGADIKADAVU BRANCH, P O ANGADIKADAVU -670 706 KANNUR DISTRICT, KERALA, PH: 0490 - 2426160",9400069091,"KIZHOOR IRITTY",CANNUR,KERALA
"NORTH MALABAR GRAMIN BANK",NMGB0000092,671460815,PANATHUR,"NORTH MALABAR GRAMIN BANK, PANATHUR BRANCH, P O PANATHUR- 671 532, KASARAGOD DISTRICT, KERALA , PH: 0499-727360",9400069092,PANATHADY,KASARAGOD,KERALA
"NORTH MALABAR GRAMIN BANK",NMGB0000093,670460055,KARIMBAM,"NORTH MALABAR GRAMIN BANK, KARIMBAM BRANCH, P O KARIMBAM- 670 142, KANNUR DISTRICT, KERALA, PH: 04602-203254",9400069093,TALIPARAMBA,CANNUR,KERALA
"NORTH MALABAR GRAMIN BANK",NMGB0000094,670460161,KUNHIMANGALAM,"NORTH MALABAR GRAMIN BANK, KUNHIMANGALAM BRANCH, P O KUNHIMANGALAM- 670 309, KANNUR DISTRICT, KERALA, PH: 0497-2805676",9400069094,KUNHIMANGALAM,CANNUR,KERALA
"NORTH MALABAR GRAMIN BANK",NMGB0000095,670460819,ERUVASSY,"NORTH MALABAR GRAMIN BANK, ERUVESSY BRANCH, P O CHEMPERI - 670 632, KANNUR DISTRICT, KERALA, PH:04602 -212397",9400069095,ERUVASSY,CANNUR,KERALA
"NORTH MALABAR GRAMIN BANK",NMGB0000096,670460108,CHAMPAD,"NORTH MALABAR GRAMIN BANK, CHAMPAD BRANCH, P O CHAMPAD-670694, KANNUR DISTRICT, KERALA, PH: 0490- 2311010",9400069096,KADIRUR,CANNUR,KERALA
"NORTH MALABAR GRAMIN BANK",NMGB0000097,670460832,MOKERI,"NORTH MALABAR GRAMIN BANK, MOKERI BRANCH, P O MOKERI- 670 692, KANNUR DISTRICT, KERALA, PH: 0490-311940",9400069097,MOKERI,CANNUR,KERALA
"NORTH MALABAR GRAMIN BANK",NMGB0000098,670460833,TRIKADARIPOIL,"NORTH MALABAR GRAMIN BANK, TRIKADARIPOIL BRANCH, P O THOLAMBRA- 670 673, KANNUR DISTRICT, KERALA, PH: 0490- 2400530",9400069098,PERAVOOR,CANNUR,KERALA
"NORTH MALABAR GRAMIN BANK",NMGB0000099,670460015,VELLACHAL,"NORTH MALABAR GRAMIN BANK, VELLACHAL BRANCH, P O MAKRERI- 670 622, KANNUR DISTRICT, KERALA, PH: 0490-282328",9400069099,PERALASSERRY,CANNUR,KERALA
"NORTH MALABAR GRAMIN BANK",NMGB0000100,671460816,BANDIYODU,"NORTH MALABAR GRAMIN BANK, BANDIYODU BRANCH, P O MANGALPADY -671 324, KASARAGOD DISTRICT, KERALA , PH: 04998 -240984",9400069100,UPPALA,KASARAGOD,KERALA
"NORTH MALABAR GRAMIN BANK",NMGB0000101,670460005,"THAZHE CHOVVA","NORTH MALABAR GRAMIN BANK, THAZHE CHOVVA BRANCH, P O CHOVVA - 670 006, KANNUR DISTRICT, KERALA, PH: 0497-2727905",9400069101,CHOVVA,CANNUR,KERALA
"NORTH MALABAR GRAMIN BANK",NMGB0000102,670460109,EDAKKAD,"NORTH MALABAR GRAMIN BANK, EDAKKAD BRANCH, P O EDAKKAD- 670 663, KANNUR DISTRICT, KERALA, PH: 0497-2832921",9400069102,EDAKKAD,CANNUR,KERALA
"NORTH MALABAR GRAMIN BANK",NMGB0000103,670460006,PALLIKUNNU,"NORTH MALABAR GRAMIN BANK, PALLIKKUNNU BRANCH, P O PALLIKKUNNU- 670 004, KANNUR DISTRICT, KERALA, PH: 0497-2707604",9400069103,PALLIKKUNNU,CANNUR,KERALA
"NORTH MALABAR GRAMIN BANK",NMGB0000104,671460053,RAMNAGAR,"NORTH MALABAR GRAMIN BANK, RAMNAGAR BRANCH, P O ANANDASHRAM- 671 531, KASARAGOD DISTRICT, KERALA , PH: 04997-203065",9400069104,KANHANGAD,KASARAGOD,KERALA
"NORTH MALABAR GRAMIN BANK",NMGB0000105,670460002,"KANNUR MAIN","NORTH MALABAR GRAMIN BANK, KANNUR MAIN BRANCH, P O KANNUR- 670 001, P B NO 83, KANNUR DISTRICT, KERALA, PH: 0497-705948",9400069105,CANNUR,CANNUR,KERALA
"NORTH MALABAR GRAMIN BANK",NMGB0000106,671460817,BELLOOR,"NORTH MALABAR GRAMIN BANK, BELLUR BRANCH, P O KINNINAGAR-671 543, KASARAGOD DISTRICT, KERALA , PH: 04998 - 266120",9400069106,MULIYAR,KASARAGOD,KERALA
"NORTH MALABAR GRAMIN BANK",NMGB0000107,670460834,UDAYAGIRI,"NORTH MALABAR GRAMIN BANK, UDAYAGIRI BRANCH, P O UDAYAGIRI - 670 571, KANNUR DISTRICT, KERALA, PH: 04602-286380",9400069107,MANAKKADAVU,CANNUR,KERALA
"NORTH MALABAR GRAMIN BANK",NMGB0000108,670460056,CHORKALA,"NORTH MALABAR GRAMIN BANK, CHORKALA BRANCH, P O KURUMATHUR- 670 142, KANNUR DISTRICT, KERALA, PH: 04602- 224 674",9400069108,KURUMATHUR,CANNUR,KERALA
"NORTH MALABAR GRAMIN BANK",NMGB0000109,671460818,DELAMPADY,"NORTH MALABAR GRAMIN BANK, DELAMPADY BRANCH, P O PARAPPA-671 543, KASARAGOD DISTRICT, KERALA , PH: 04994- 270 303 ",9400069109,DELAMPADY,KASARAGOD,KERALA
"NORTH MALABAR GRAMIN BANK",NMGB0000110,671460819,VANINAGAR,"NORTH MALABAR GRAMIN BANK, VANINAGAR BRANCH, PO VANINAGAR, KASARAGOD DIST, KERALA, PIN: 671 552, PH: 04998 - 266110 ",9400069110,KASARAGOD,KASARAGOD,KERALA
"NORTH MALABAR GRAMIN BANK",NMGB0000111,671460820,VELLARIKUNDU,"NORTH MALABAR GRAMIN BANK, VELLARIKUNDU BRANCH, P O , VELLARIKUNDU- 671 533, KASARAGOD DISTRICT, KERALA, PH: 04997-242270",9400069111,BHEEMANADU,KASARAGOD,KERALA
"NORTH MALABAR GRAMIN BANK",NMGB0000112,670460162,PERALAM,"NORTH MALABAR GRAMIN BANK, PERALAM BRANCH, P O KOZHUMMAL- 670 522, KANNUR DISTRICT, KERALA, PH: 0498-560469",9400069112,PERALAM,CANNUR,KERALA
"NORTH MALABAR GRAMIN BANK",NMGB0000113,670460007,PUTHIYATHERU,"NORTH MALABAR GRAMIN BANK, PUTHIYATHERU BRANCH, P O CHIRAKKAL - 670 011, KANNUR DISTRICT, KERALA, PH: 0497-2776264",9400069113,CHIRAKKAL,CANNUR,KERALA
"NORTH MALABAR GRAMIN BANK",NMGB0000114,670460835,THILLANKERI,"NORTH MALABAR GRAMIN BANK, THILLANKERI BRANCH, P O THILLANKERI- 670 702, KANNUR DISTRICT, KERALA, PH: 0490-2405362",9400069114,THILLENKERI,CANNUR,KERALA
"NORTH MALABAR GRAMIN BANK",NMGB0000115,671460012,EDANEER,"NORTH MALABAR GRAMIN BANK, EDANEER BRANCH, P O EDANEER- 671 541, KASARAGOD DISTRICT, KERALA , PH: 04994- 280932",9400069115,CHEGALA,KASARAGOD,KERALA
"NORTH MALABAR GRAMIN BANK",NMGB0000116,671460057,PADNEKAT,"NORTH MALABAR GRAMIN BANK, PADNEKAT BRANCH, P O PADNEKAT- 671 541, KASARAGOD DISTRICT, KERALA , PH: 04997-281370",9400069116,NILESHWAR,KASARAGOD,KERALA
"NORTH MALABAR GRAMIN BANK",NMGB0000117,671460013,KUMBALA,"NORTH MALABAR GRAMIN BANK, KUMBALA BRANCH, P O KUMBALA - 671 321, KASARAGOD DISTRICT, KERALA , PH: 04998-213272",9400069117,KASARAGOD,KASARAGOD,KERALA
"NORTH MALABAR GRAMIN BANK",NMGB0000118,671460058,NILESWAR,"NORTH MALABAR GRAMIN BANK, NILESHWAR BRANCH, P O NILESHWAR- 671 314, KASARAGOD DISTRICT, KERALA, PH: 04997-280905",9400069118,NILESHWAR,KASARAGOD,KERALA
"NORTH MALABAR GRAMIN BANK",NMGB0000119,679460821,PERALADKAM,"NORTH MALABAR GRAMIN BANK, PERALADKAM BRANCH, P O KOLATHUR- 671 541, KASARAGOD DISTRICT, KERALA , PH: 04994-210303",9400069119,KOLATHUR,KASARAGOD,KERALA
"NORTH MALABAR GRAMIN BANK",NMGB0000120,670460836,KOZHICHAL,"NORTH MALABAR GRAMIN BANK, KOZHICHAL BRANCH, P O KOZHICHAL- 670 511, KANNUR DISTRICT, KERALA, PH: 0498-512215 ",9400069120,CHERUPUZHA,CANNUR,KERALA
"NORTH MALABAR GRAMIN BANK",NMGB0000121,670460057,KOYYAM,"NORTH MALABAR GRAMIN BANK, KOYYAM BRANCH, P O CHENGALAYI- 670 142, KANNUR DISTRICT, KERALA, PH: 04602-231268",9400069121,CHENGALAYI,CANNUR,KERALA
"NORTH MALABAR GRAMIN BANK",NMGB0000122,670460837,KATTIMOOLA,"NORTH MALABAR GRAMIN BANK, KATTIMOOLA , P O VALAD- 670 644, WAYANAD DISTRICT, KERALA, PH: 04935-266047",9400069122,VALAD,WAYANAD,KERALA
"NORTH MALABAR GRAMIN BANK",NMGB0000123,670460838,MATTANNUR,"NORTH MALABAR GRAMIN BANK, MATTANNUR BRANCH, P O MATTANNUR- 670 702, KANNUR DISTRICT, KERALA, PH: 0490- 2471815",9400069123,CHAVASSERY,CANNUR,KERALA
"NORTH MALABAR GRAMIN BANK",NMGB0000124,671460822,HOSANGADI,"NORTH MALABAR GRAMIN BANK, HOSANGADI BRANCH, P O MANJESWAR - 671 323, KASARAGOD DISTRICT, KERALA , PH; 04998- 273050",9400069124,KUNJATHUR,KASARAGOD,KERALA
"NORTH MALABAR GRAMIN BANK",NMGB0000125,670460839,ULIKKAL,"NORTH MALABAR GRAMIN BANK, ULIKKAL BRANCH, P O ULIKKAL - 670 705, KANNUR DISTRICT, KERALA, PH: 0490-228560 ",9400069125,ULIKKAL,CANNUR,KERALA
"NORTH MALABAR GRAMIN BANK",NMGB0000126,671460003,VIDYANAGAR,"NORTH MALABAR GRAMIN BANK, VIDYANAGAR BRANCH, POVIDYANAGAR - 671 123, KASARAGOD DT, KERALA, PH: 04994 - 255152",9400069126,KASARAGOD,KASARAGOD,KERALA
"NORTH MALABAR GRAMIN BANK",NMGB0000129,671460823,UPPALA,"NORTH MALABAR GRAMIN BANK, UPPALA BRANCH, POUPPALA, OPPBUS STAND, UPPALA, KASARAGOD DT, KERALA, PH: 04998 - 241975",9400069129,UPPALA,KASARAGOD,KERALA
"NORTH MALABAR GRAMIN BANK",NMGB0000130,670460016,PAPPINISSERY,"NORTH MALABAR GRAMIN BANK, PAPPINISSERI BRANCH, POPAPPINISSERY - 670 561, NEAR RAILWAY GATE, KANNUR DT, PH:0497-2787320",9400069130,PAPPINISSERI,CANNUR,KERALA
"NORTH MALABAR GRAMIN BANK",NMGB0000131,670460163,TRIKARIPUR,"NORTH MALABAR GRAMIN BANK, TRIKKARIPUR BRANCH, POTRIKARIPUR- 671 310, KASARAGOD DT, KERALA, PH: 04997 - 215190",9400069131,"TRIKKARIPPUR NORTH",KASARAGOD,KERALA
"NORTH MALABAR GRAMIN BANK",NMGB0000132,682460002,"ERNAKULAM MAIN","NORTH MALABAR GRAMIN BANK, ERNAKULAM MAIN, ENSIGN ENCLAVE, M.G.ROAD, ERNAKULAM - 682 011, KERALA, PH: 0484-2375217",9400069132,KOCHI,ERNAKULAM,KERALA
"NORTH MALABAR GRAMIN BANK",NMGB0000133,686460252,MUVATTUPUZHA,"NORTH MALABAR GRAMIN BANK, MUVATTUPUZHA , ST.PAULS CSI CHURCH COMPLEX, MUVATTUPUZHA- 686 661, KERALA, PH: 0485 - 2836777",9400069133,MUVATTUPUZHA,ERNAKULAM,KERALA
"NORTH MALABAR GRAMIN BANK",NMGB0000135,686460352,ETTUMANOOR,"NORTH MALABAR GRAMIN BANK, ETTUMANOOR, NADAPURAYIL BUILDINGS, PEROOR JUNCTION, TEMPLE ROAD P.O., ETTUMANOOR - 686 631 , PH: 0481-2530538",9400069135,ETTUMANOOR,KOTTAYAM,KERALA
"NORTH MALABAR GRAMIN BANK",NMGB0000137,682460003,KALOOR,"NORTH MALABAR GRAMIN BANK, KALOOR, I FLOOR, MATHEWSONS TRADE CENTRE, NEAR TVS SHOW ROOM, KOCHI - 682 017, KERALA, PH: 0484 - 2539192",9400069137,KALOOR,ERNAKULAM,KERALA
"NORTH MALABAR GRAMIN BANK",NMGB0000139,683460002,ANGAMALI,"NORTH MALABAR GRAMIN BANK, ANGAMALY, KALLOOKKARAN TOWERS, ANGAMALY - 683 572, KERALA, PH: 0484 - 2459610",9400069139,ANGAMALY,ERNAKULAM,KERALA
"NORTH MALABAR GRAMIN BANK",NMGB0000142,686460502,PAMPADY,"NORTH MALABAR GRAMIN BANK, PAMPADY, VADAKARA BUILDING, K K ROAD, PAMPADY P.O, PIN-686502, KERALA; PH: 0481- 2508966 ",9400069142,PAMPADY,KOTTAYAM,KERALA
"NORTH MALABAR GRAMIN BANK",NMGB0000143,686460452,KOOTHATUKULAM,"NORTH MALABAR GRAMIN BANK, KOOTHATTUKULAM, PADINJARAYIL BUILDINGS, M C ROAD, KOOTHATTUKULAM, PIN- 686662, KERALA, PH: 0485 - 2253703",9400069143,KOOTHATTUKULAM,ERNAKULAM,KERALA
"NORTH MALABAR GRAMIN BANK",NMGB0000145,686460102,ERATUPETTA,"NORTH MALABAR GRAMIN BANK, ERATTUPETTA, PULICKAL PALACE, ERATTUPETTA - 686 121, KERALA, PH: 04822 - 277263",9400069145,ERATTUPETTA,KOTTAYAM,KERALA
"NORTH MALABAR GRAMIN BANK",NMGB0000147,686460202,KOTHAMANGALAM,"NORTH MALABAR GRAMIN BANK, KOTHAMANGALAM, 26/820, MARKS ESTATE, P.O., KOTHAMANGALAM -686 691, KERALA, PH: 0485 - 2823430",9400069147,KOTHAMANGALAM,ERNAKULAM,KERALA
"NORTH MALABAR GRAMIN BANK",NMGB0000148,682460006,"NORTH PARAVOOR","NORTH MALABAR GRAMIN BANK, NORTH PARAVOOR, RKG BUILDING, KMK JUNCTION, NORTH PARAVOOR - 683 513, KERALA, PH: 0484 - 2441410",9400069148,PARAVUR,ERNAKULAM,KERALA
"NORTH MALABAR GRAMIN BANK",NMGB0000149,682460009,MULAMTHURUTHY,"NORTH MALABAR GRAMIN BANK, MULAMTHURUTHY BRANCH, BALAL BUILDINGS, MULAMTHURUTHY.P.O-682314, KERALA, PH:0484-2743851",9400069149,MULAMTHURUTHY,ERNAKULAM,KERALA
"NORTH MALABAR GRAMIN BANK",NMGB0000150,686460732,PIRAVOM,"NORTH MALABAR GRAMIN BANK, PIRAVOM, MATHA COMPLEX, THREE ROAD JUNCTION, PO PIRAVOM, PIN-686664, PH: 0485-2241880 ",9400069150,PIRAVOM,ERNAKULAM,KERALA
"NORTH MALABAR GRAMIN BANK",NMGB0000151,682460005,TRIPUNITHURA,"NORTH MALABAR GRAMIN BANK, TRIPUNITHURA, STATUE JUNCTION, TRIPUNITHURA PO, PIN:682301, PH:0484-2785547",9400069151,TRIPPUNITHURA,ERNAKULAM,KERALA
"NORTH MALABAR GRAMIN BANK",NMGB0000152,683460052,PERUMBAVOOR,"NORTH MALABAR GRAMIN BANK, PERUMBAVOOR, COURT ROAD JUNCTION, MCROAD, PERUMBAVOOR-683542, PH: 0484- 2590828",9400069152,PERUMBAVOOR,ERNAKULAM,KERALA
"NORTH MALABAR GRAMIN BANK",NMGB0000154,690460252,OCHIRA,"NORTH MALABAR GRAMIN BANK, OCHIRA, K.P.10/182.F, NEAR PREMIER THEATRE JUNCTION, POST. KRISHNAPURAM, OCHIRA - 690 533, PH: 0476 2697372",9400069154,OACHIRA,KOLLAM,KERALA
"NORTH MALABAR GRAMIN BANK",NMGB0000155,690460103,KATTANAM,"NORTH MALABAR GRAMIN BANK, KATTANAM, B.P.3/573.A, PALAVILAYIL BUILDINGS, POST. PALLIKKAL, KATTANAM-690 503, PH: 0479-2334010",9400069155,KAYAMKULAM,ALAPUZHA,KERALA
"NORTH MALABAR GRAMIN BANK",NMGB0000156,690460152,MAVELIKKARA,"NORTH MALABAR GRAMIN BANK, MAVELIKKARA, COREL HOUSE, KOTTAR KOVA ROAD, PUTHIYA KAVU, MAVELIIKKARA - P.O, ALAPPUZHA - 690 101,0479-2340755 ",9400069156,MAVELIKKARA,ALAPUZHA,KERALA
"NORTH MALABAR GRAMIN BANK",NMGB0000157,689460452,MANNAR,"NORTH MALABAR GRAMIN BANK, MANNAR, PULIMOOTIL BUILDINGS, NEAR POST OFFICE, MANNAR POST, ALAPPUZHA - 686622, PH: 0479 2313755 ",9400069157,MANNAR,ALAPUZHA,KERALA
"NORTH MALABAR GRAMIN BANK",NMGB0000158,688460052,CHERTHALA,"NORTH MALABAR GRAMIN BANK, CHERTHALA, 186/F.S.K.M. COMPLEX, NADAKAVU ROAD, CHERTHALA, ALAPPUZHA - 688524, PH: 0478 2816254",9400069158,CHERTHALA,ALAPUZHA,KERALA
"NORTH MALABAR GRAMIN BANK",NMGB0000159,689460052,THIRUVANVANDOOR,"NORTH MALABAR GRAMIN BANK, THIRUVANVANDOOR , KALLISSERY POST, VIA CHENGANNUR, ALAPPUZHA, PH: 0479 2145664",9400069159,THIRUVANVANDOOR,ALAPUZHA,KERALA
"NORTH MALABAR GRAMIN BANK",NMGB0000160,670460008,PODIKUNDU,"NORTH MALABAR GRAMIN BANK, PODIKUNDU BRANCH, PALLIKKUNNU (P.O.), KANNUR DISTRICT, KERALA, PH:0497-2746930",9400069160,PALLIKKUNNU,CANNUR,KERALA
"NORTH MALABAR GRAMIN BANK",NMGB0000161,682460007,KAKKANAD,"NORTH MALABAR GRAMIN BANK, KAKKANAD BRANCH, THAZHATHEDATHU BUILDING, CHEMBU MUKKU, KAKKANAD, PIN-682030, PH: 0484-2425734",9400069161,KAKKANAD,ERNAKULAM,KERALA
"NORTH MALABAR GRAMIN BANK",NMGB0000162,686460752,KURUPANTHARA,"NORTH MALABAR GRAMIN BANK, KURUPANTHARA , THAYYIL BANK BUILDING, KURUPANTHARA, MANJOOR P.O, PIN-686 603, KERALA; PH: PH: 04829 - 243170",9400069162,KURUPPANTHARA,KOTTAYAM,KERALA
"NORTH MALABAR GRAMIN BANK",NMGB0000163,691460002,KOLLAM,"NORTH MALABAR GRAMIN BANK, KOLLAM, SREE VIGNESHWARA BHAVAN, KADAPPAKADA, KOLLAM- POST, PIN- 691 001, PH: 0474 2764212",9400069163,KOLLAM,KOLLAM,KERALA
"NORTH MALABAR GRAMIN BANK",NMGB0000164,691460153,ANCHAL,"NORTH MALABAR GRAMIN BANK,ANCHAL,AL-AMEEN BUILDING,RANGE OFFICE JUNCTION,ANCHAL P.O. - 691 306,KOLLAM DISTRICT,KERALA.0475-2270445",9400069164,ANCHAL,KOLLAM,KERALA
"NORTH MALABAR GRAMIN BANK",NMGB0000165,690460052,KARUNAGAPPALLY,"NORTH MALABAR GRAMIN BANK,KARUNAGAPPALLY,ZAINA BUILDINGS, H.S. JUNCTION,ALUMKADAVU ROAD,KARUNAGAPPALLY - 690 518,KOLLAM DISTRICT,KERALA.",9400069165,KARUNAGAPALLY,KOLLAM,KERALA
"NORTH MALABAR GRAMIN BANK",NMGB0000166,682460201,KOLENCHERRY,"NORTH MALABAR GRAMIN BANK,KOLENCHERRY,ELLORA TOWERS,ELAMKULAMKARA,KOLENCHERRY. P.O. - 682 311,ERNAKULAM DISTRICT, KERALA.",9400069166,KOLENCHERRY,ERNAKULAM,KERALA
"NORTH MALABAR GRAMIN BANK",NMGB0000167,682460008,ELAMAKKARA,"NORTH MALABAR GRAMIN BANK,ELAMAKKARA,PATHIYASSERIL BUILDINGS,NEAR PUNNAKKAL TEMPLE,ELAMAKKARA  P.O. - 682 026,ERNAKULAM DISTRICT, KERALA",9400069167,KALOOR,ERNAKULAM,KERALA
"NORTH MALABAR GRAMIN BANK",NMGB0000168,686460052,CHANGANASSERY,"NORTH MALABAR GRAMIN BANK,CHANGANASSERY,MARKET ROAD,CHANGANASSERY. P.O. - 686 101,KOTTAYAM DISTRICT",9400069168,CHANGANASSERY,KOTTAYAM,KERALA
"NORTH MALABAR GRAMIN BANK",NMGB0000169,686460303,RAMAPURAM,"NORTH MALABAR GRAMIN BANK,RAMAPURAM,NEW MICHAEL PLAZA,OPP.AUGUSTINE FORANE CHURCH,P.O. RAMAPURAM  BAZAR - 686 576,KOTTAYAM DISTRICT, KERALA",9400069169,RAMAPURAM,KOTTAYAM,KERALA
"NORTH MALABAR GRAMIN BANK",NMGB0000170,670460840,KADAVATHUR,"NORTH MALABAR GRAMIN BANK,KADAVATHUR,P.O.KADAVATHUR - 670 676,KANNUR DIST., KERALA ",9400069170,KALLIKKANDY,CANNUR,KERALA
"NORTH MALABAR GRAMIN BANK",NMGB0000171,691460003,CHATHANNUR,"NORTH MALABAR GRAMIN BANK,CHATHANNUR,P.O.CHATHANNUR - 691 572,N.H.47, KOLLAM DISTRICT,KERALA.",9400069171,CHATHANOOR,KOLLAM,KERALA
"NORTH MALABAR GRAMIN BANK",NMGB0000172,691460102,KOTTARAKKARA,"NORTH MALABAR GRAMIN BANK,KOTTARAKKARA,A.U. TOWER, CHANDAMUKKU,KOTTARAKKARA. P.O. - 691 506,KOLLAM  DT., KERALA STATE.",9400069172,KOTTARAKKARA,KOLLAM,KERALA
"NORTH MALABAR GRAMIN BANK",NMGB0000173,691460801,PARAVUR,"NORTH MALABAR GRAMIN BANK,PARAVUR,SAHIL COMPLEX,THEKKUMBHAGHAM ROAD,PARAVUR. P.O., - 691 301,KOLLAM DIST., KERALA.",9400069173,PARAVOOR,KOLLAM,KERALA
"NORTH MALABAR GRAMIN BANK",NMGB0000174,691460202,KUNDARA,"NORTH MALABAR GRAMIN BANK,KUNDARA,CSI  SHOPPING  COMPLEX,KUNDARA. P.O. - 691 501,KOLLAM DISTRICT.",9400069174,KUNDARA,KOLLAM,KERALA
"NORTH MALABAR GRAMIN BANK",NMGB0000175,682460010,KADAVANTHRA,"NORTH MALABAR GRAMIN BANK,KADAVANTHRA, ""MIRADOR"", MUTTATHIL LANE,NEAR KADAVANTHRA JUNCTION,COCHIN - 682 020,ERNAKULAM DIST., KERALA.",9400069175,KOCHI,ERNAKULAM,KERALA
"NORTH MALABAR GRAMIN BANK",NMGB0000176,670460010,SREEPURAM,"NORTH MALABAR GRAMIN BANK,SREEPURAM,P.O. PALLIKUNNU - 670 004,KANNUR DIST., KERALA.",9400069176,PALLIKKUNNU,CANNUR,KERALA
"NORTH MALABAR GRAMIN BANK",NMGB0000177,691460004,KOTTIYAM,"NORTH MALABAR GRAMIN BANK,KOTTIYAM,BLDG. NO. A.P.XVIII-359 & 360,P.O. KOTTIYAM - 691 571,KOLLAM DIST., KERALA.",9400069177,KOTTIYAM,KOLLAM,KERALA
"NORTH MALABAR GRAMIN BANK",NMGB0000178,691460152,PUNALUR,"NORTH MALABAR GRAMIN BANK,PUNALUR BRANCH,CHAWKA ROAD,PUNALUR POST - 691 305,KOLLAM DISTRICT, KERALA",9400069178,PUNALUR,KOLLAM,KERALA
"NORTH MALABAR GRAMIN BANK",NMGB0000179,670460841,PERAVOOR,"NORTH MALABAR GRAMIN BANK,PERAVOOR,PERAVOOR COMPLEX,DOOR NO. PP-V-2 T11,PERAVOOR GRAMA PANCHAYAT,MANATHANA VILLAGE,NEAR NEW BUS STAND,PERAVOOR POST -670 673,KANNUR,DISTRICT, KERALA",9400069179,PERAVOOR,CANNUR,KERALA
"NORTH MALABAR GRAMIN BANK",NMGB0000180,686460153,MANIMALA,"NORTH MALABAR GRAMIN BANK,MANIMALA,NEAR POLICE STATION,DOOR NO. VP-1-576-C,VELLAVOOR GRAMAPANCHAYAT,VELLAVOOR VILLAGE,MOONGANI, MANIMALA POST - 686 543,KOTTAYAM,DISTRICT, KERALA. ",9400069180,MANIMALA,KOTTAYAM,KERALA
"NORTH MALABAR GRAMIN BANK",NMGB0000181,686460503,PALLIKKATHODE,"NORTH MALABAR GRAMIN BANK,PALLIKKATHODE,PANICKER'S ARCADE"",DOOR NO. PPIV-70E(7),PALLIKKATHODE GRAMA PANCHAYAT,ANICKAD VILLAGE,ANICKAD POST - 686 503,KOTTAYAM DISTRICT, KERALA",9400069181,PALLICKATHODU,KOTTAYAM,KERALA
"NORTH MALABAR GRAMIN BANK",NMGB0000182,690460153,KOLLAKKADAVU,"NORTH MALABAR GRAMIN BANK,KOLLAKKADAVU,KAVALAKKAL PLAZA',DOOR NO. CP-VIII-393J,CHERIYANAD GRAMA PANCHAYAT,CHERIYANAD VILLAGE,KOLLAKKADAVU POST - 690 509,ALAPUZHA DISTRICT,KERALA STATE.",9400069182,CHERIANAD,ALAPUZHA,KERALA
"NORTH MALABAR GRAMIN BANK",NMGB0000183,671460824,PERLA,"NORTH MALABAR GRAMIN BANK,PERLA,S.H.BUILDING, DOOR NO.EP-X-525(A),ENMAKAJE PANCHAYAT,ENMAKAJE VILLAGE,PERLA POST - 671 582,KASARAGOD DISTRCT, KERALA",9400069183,KASARAGOD,KASARAGOD,KERALA
"NORTH MALABAR GRAMIN BANK",NMGB0000184,686460726,KARUKACHAL,"NORTH MALABAR GRAMIN BANK,KARUKACHAL,PALAKUNNEL BUILDING,MALLAPPALLY ROAD,P.O. KARUKACHAL - 686 540,KOTTAYAM DISTRICT, KERALA",9400069184,KARUKACHAL,KOTTAYAM,KERALA
"NORTH MALABAR GRAMIN BANK",NMGB0000185,691460154,PATHANAPURAM,"NORTH MALABAR GRAMIN BANK,PATHANAPURAM,PLAVILAYIL  BUILDING,P.O. PATHANAPURAM - 689 695,KOLLAM DISTRICT, KERALA.",9400069185,PATHANAPURAM,KOLLAM,KERALA
"NORTH MALABAR GRAMIN BANK",NMGB0000187,690460801,ATHIKKATTUKULANGARA,"NORTH MALABAR GRAMIN BANK,ATHIKKATTUKULANGARA,SUBY PLAZA,ATHIKKATTUKULANGARA. P.O.,NOORANAD - 690 504,ALAPPUZHA DISTRICT, KERALA",9400069187,NOORANAD,ALAPUZHA,KERALA
"NORTH MALABAR GRAMIN BANK",NMGB0000188,690460802,CHERUTHANA,"NORTH MALABAR GRAMIN BANK,CHERUTHANA,KOYPPALLIL BUILDING,POST CHERUTHANA- 690 615,AYAPARAMBA, KARUVATTA (VIA),ALAPPUZHA DISTRICT, KERALA. ",9400069188,KARUVATTA,ALAPUZHA,KERALA
"NORTH MALABAR GRAMIN BANK",NMGB0000189,691460802,AYOOR,"NORTH MALABAR GRAMIN BANK,AYOOR,CHRISTURAJ SHOPPING COMPLEX,POST AYOOR - 691533,KOLLAM DISTRICT, KERALA.",9400069189,AYOOR,KOLLAM,KERALA
"NORTH MALABAR GRAMIN BANK",NMGB0000190,686460703,PERUVA,"NORTH MALABAR GRAMIN BANK,PERUVA,KUZHIKKALAYIL BUILDING,POST PERUVA - 686 610,KOTTAYAM DISTRICT, KERALA.",9400069190,KOTTAYAM,KOTTAYAM,KERALA
"NORTH MALABAR GRAMIN BANK",NMGB0000191,686460704,AYAMKUDY,"NORTH MALABAR GRAMIN BANK,AYAMKUDY,ST. THERESAS SHOPPING CENTRE,AYAMKUDY POST - 686 613,MUTTUCHIRA (VIA),KOTTAYAM DISTRICT, KERALA.",9400069191,MUTTUCHIRA,KOTTAYAM,KERALA
"NORTH MALABAR GRAMIN BANK",NMGB0000192,686460003,MANARCAD,"NORTH MALABAR GRAMIN BANK,MANARCAD,NO.642-NSS KARAYOGAM BUILDING,POST MANARCAD - 686 019,KOTTAYAM DISTRICT , KERALA. ",9400069192,MANARCAUD,KOTTAYAM,KERALA
"NORTH MALABAR GRAMIN BANK",NMGB0000193,686460353,KIDANGOOR,"NORTH MALABAR GRAMIN BANK,KIDANGOOR,THEKKUMKATTIL CITY PLAZA,POST KIDANGOOR - 686 572,KOTTAYAM DISTRICT,KERALA.",9400069193,KIDANGOOR,KOTTAYAM,KERALA
"NORTH MALABAR GRAMIN BANK",NMGB0000194,686460253,VAZHAKULAM,"NORTH MALABAR GRAMIN BANK,VAZHAKULAM,GREEN VILLA COMPLEX,CARMEL JUNCTION,MUVATTUPUZHA, POST VAZHAKULAM,ERNAKULAM DISTRICT-686670, KERALA",9400069194,VAZHAKULAM,ERNAKULAM,KERALA
"NORTH MALABAR GRAMIN BANK",NMGB0000195,671460825,CHITTARIKKAL,"NORTH MALABAR GRAMIN BANK,CHITTARIKKAL,VELLIAPPALLIL COMPLEX,CHITTARIKKAL. P.O.,KASARAGOD DISTRICT - 671326, KERALA.",9400069195,"ELERI WEST",KASARAGOD,KERALA
"NORTH MALABAR GRAMIN BANK",NMGB0000196,671460826,MULLERIA,"NORTH MALABAR GRAMIN BANK,MULLERIA,ARAMANADKA COMPLEX,BADIYADKA ROAD,MULLERIA POST - 671 543,KASARAGOD DIST., KERALA.",9400069196,MULIYAR,KASARAGOD,KERALA
"NORTH MALABAR GRAMIN BANK",NMGB0000197,670460112,CHOKLI,"NORTH MALABAR GRAMIN BANK,CHOKLI,KHADEEJA COMPLEX,PONDY BAZAR, CHOKLI. P.O.,KANNUR DISTRICT - 670 672, KERALA",9400069197,CHOCKLI,CANNUR,KERALA
"NORTH MALABAR GRAMIN BANK",NMGB0000198,691460803,KULATHUPUZHA,"NORTH MALABAR GRAMIN BANK,KULATHUPUZHA,KUNNUMPURATH COMMERCIAL COMPLEX,KULATHUPUZHA. P.O.,KOLLAM  DISTRICT-691 310,  KERALA.",9400069198,KULATHUPUZHA,KOLLAM,KERALA
"NORTH MALABAR GRAMIN BANK",NMGB0000199,670460843,CHERUPUZHA,"NORTH MALABAR GRAMIN BANK,CHERUPUZHA,PUNCHAKUNNEL  BUILDINGS,MAIN ROAD, CHERUPUZHA P.O.,KANNUR DISTRICT - 670 511, KERALA",9400069199,CHERUPUZHA,CANNUR,KERALA
"NORTH MALABAR GRAMIN BANK",NMGB0000200,686460304,UZHAVOOR,"NORTH MALABAR GRAMIN BANK,UZHAVOOR,POST  UZHAVOOR - 686 634,KOTTAYAM DISTRICT, KERALA",9400069200,UZHAVOOR,KOTTAYAM,KERALA
"NORTH MALABAR GRAMIN BANK",NMGB0000201,686460154,ERUMELY,"NORTH MALABAR GRAMIN BANK,ERUMELY,KATTUPALAM BUILDING,KOTTAYAM DISTRICT686 509, KERALA.",9400069201,ERUMELY,KOTTAYAM,KERALA
"NORTH MALABAR GRAMIN BANK",NMGB0000202,670460113,PANOOR,"NORTH MALABAR GRAMIN BANK,PANOOR,CHAMPAD ROAD,PANOOR. P.O.,KANNUR DISTRICT - 670 692,  KERALA.",9400069202,PANOOR,CANNUR,KERALA
"NORTH MALABAR GRAMIN BANK",NMGB0000203,682460011,PUKKATTUPADY,"NORTH MALABAR GRAMIN BANK,PUKKATTUPADY,IST FLOOR, MUDAVATHIL BUILDING,EDATHALA POST - 683 561,ERNAKULAM DISTRICT,PH: 0484-2686203",9400069203,EDATHALA,ERNAKULAM,KERALA
"NORTH MALABAR GRAMIN BANK",NMGB0000204,682460012,THIRUVAMKULAM,"NORTH MALABAR GRAMIN BANK,THIRUVAMKULAM,IST FLOOR, KARODAN CENTRE,THIRUVAMKULAM POST - 682 305,ERNAKULAM DISTRICT,PH: 0484-2786209",9400069204,THIRUVANKULAM,ERNAKULAM,KERALA
"NORTH MALABAR GRAMIN BANK",NMGB0000205,683460003,MANJAPRA,"NORTH MALABAR GRAMIN BANK,MANJAPRA,IST FLOOR, MANGALY TOWERS,MANJAPRA POST - 683 581,ERNAKULAM DISTRICT,PH: 0484-2690790",9400069205,MANJAPRA,ERNAKULAM,KERALA
"NORTH MALABAR GRAMIN BANK",NMGB0000206,,PAVOOR,"NORTH MALABAR GRAMIN BANK,PAVOOR BRANCH,P.O. PAVOOR - 671 323,KASARAGOD DISTRICT.",9400069206,KUNJATHUR,KASARAGOD,KERALA
"NORTH MALABAR GRAMIN BANK",NMGB0000501,670460843,EDAYANNUR,"NORTH MALABAR GRAMIN BANK, EDAYANNUR BRANCH, P O EDAYANNUR-670695, KANNUR DIST, KERALA, PH: 0490-2484241",9400069001,EDAYANNUR,CANNUR,KERALA
"NORTH MALABAR GRAMIN BANK",NMGB0000701,670460844,"S.B.C EXTENSION COUNTER","NORTH MALABAR GRAMIN BANK, S.B.C EXTENSION COUNTER, MAKKIYAD, PO. MAKKIYAD, WAYANAD DIST -670 731, PH: 04935 -235006
",,VELLAMUNDA,WAYANAD,KERALA
"NORTH MALABAR GRAMIN BANK",NMGB0000001,,"HEAD OFFICE","NORTH MALABAR GRAMIN BANK, HEAD OFFICE, NMGB TOWERS, PALLIKKUNNU, KANNUR -670 004",0497-2702423,PALLIKKUNNU,CANNUR,KERALA
"NORTH MALABAR GRAMIN BANK",NMGB0000127,,PANAMARAM,"NORTH MALABAR GRAMIN BANK, PANAMARAM , P O PANAMARAM- 670 721, WAYANAD DISTRICT, KERALA, PH: 04935-220975",04935-220975,PANAMARAM,WAYANAD,KERALA
"NORTH MALABAR GRAMIN BANK",NMGB0000128,,"NEW MAHE","NORTH MALABAR GRAMIN BANK, NEW MAHE BRANCH, AMJAD COMPLEX, PO NEW MAHE, KANNUR , PIN: 673 311,PH: 0490 - 337494","0490 - 337494",THALASSERY,CANNUR,KERALA
"NORTH MALABAR GRAMIN BANK",NMGB0000134,,PALAI,"NORTH MALABAR GRAMIN BANK, PALAI , AVANTHI COMPLEX, PALAI - 686 575, KERALA, PH: 04822 - 200833","04822 - 200833",PALAI,KOTTAYAM,KERALA
"NORTH MALABAR GRAMIN BANK",NMGB0000136,,KOTTAYAM,"NORTH MALABAR GRAMIN BANK, KOTTAYAM, PULIMOOTTIL ARCADE, K.K  ROAD,MUTTAMBALAM, KOTTAYAM - 686 004, KERALA, PH: 0481 - 2576220","0481 - 2576220",KOTTAYAM,KOTTAYAM,KERALA
"NORTH MALABAR GRAMIN BANK",NMGB0000138,,KUTHUPARAMBA,"NORTH MALABAR GRAMIN BANK, KUTHUPARAMBA BRANCH, POKUTHUPARAMBA, PUTHENPURA , BUILDING - 670 643, KANNUR DST, KERALA, PH: 0490 - 365399","0490 - 365399",KUTHUPARAMBA,CANNUR,KERALA
"NORTH MALABAR GRAMIN BANK",NMGB0000140,,ALUVA,"NORTH MALABAR GRAMIN BANK, ALUVA, KAKKAT BUILDING, MARKET ROAD, OPP:FIRE STATION, ALUVA - 683 101 PH: 0484-2620825",0484-2620825,ALUVA,ERNAKULAM,KERALA
"NORTH MALABAR GRAMIN BANK",NMGB0000141,,THALAYOLAPARAMBA,"NORTH MALABAR GRAMIN BANK, THALAYOLAPARAMBA, ANAPPARAMBIL SHOPPING COMPLEX, NEAR BUS STAND, THALAYOLAPARAMBU , P.O - 686 605, PH: 04829 - 237766","04829 - 237766",THALAYOLAPARAMBU,KOTTAYAM,KERALA
"NORTH MALABAR GRAMIN BANK",NMGB0000144,,MUNDAKAYAM,"NORTH MALABAR GRAMIN BANK, MUNDAKKAYAM, CSI CHURCH BUILDINGS, K K ROAD, , MUNDAKKAYAM - 686 513, KERALA, PH: 04828 - 273264","04828 - 273264",MUNDAKAYAM,KOTTAYAM,KERALA
"NORTH MALABAR GRAMIN BANK",NMGB0000146,,KANJIRAPALLY,"NORTH MALABAR GRAMIN BANK, KANJIRAPPALLY, KANJIRAPPALLY , P.O.-686 507, KOTTAYAM DIST, KERALA, PH: 04828 - 203757","04828 - 203757",KANJIRAPPALLY,KOTTAYAM,KERALA
"NORTH MALABAR GRAMIN BANK",NMGB0000153,,ALAPPUZHA,"NORTH MALABAR GRAMIN BANK, ALAPPUZHA BRANCH, 17/1842, SREE PECHI, ANKALAMMAN COMPLEX, CHURCH ROAD, PAZHAVANGADI-688 011, PH: 0477 2237557","0477 2237557",ALAPPUZHA,ALAPUZHA,KERALA
"NORTH MALABAR GRAMIN BANK",NMGB0000207,,KALADY,"SYAM TOWER, NEAR SREESANKARA BRIDGE, KALADY P.O, ALUVA, ERNAKULAM PIN 683 574",0484-2244099,KALADY,ERNAKULAM,KERALA
"NORTH MALABAR GRAMIN BANK",NMGB0000208,,ELANJI,"POONTHOTTAM BUILDINGS, ELANJI P.O,MUVATTUPUZHA, ERNAKULAM PIN 686 665",0485-2257322,ELANJI,ERNAKULAM,KERALA
"NORTH MALABAR GRAMIN BANK",NMGB0000209,,PATTAZHI,"K.R.M BUILDINGS, PATTAZHI P.O, PATHANAPURAM, KOLLAM PIN 691 522",0475-2398788,PATTAZHI,KOLLAM,KERALA
"NORTH MALABAR GRAMIN BANK",NMGB0000210,,PAIKA,"KOCHUPARAMBIL BUILDINGS, PAIKA, POOVARANI P.O, MEENACHIL, KOTTAYAM PIN 686 577",0482-2225080,POOVARANI,KOTTAYAM,KERALA
"NORTH MALABAR GRAMIN BANK",NMGB0000211,,ADIVAD,"NORTH MALABAR GRAMIN BANK, MADINA TOWER, ADIVAD, POST PALLARIMANGALAM, PIN 686 671",0485-2563555,KOTHAMANGALAM,ERNAKULAM,KERALA
"NORTH MALABAR GRAMIN BANK",NMGB0000212,,PALLURUTHY,"NORTH MALABAR GRAMIN BANK, VT CHAMBER BUILDING, NEAR POLICE STATION, PALLURUTHY NADA, PALLURUTHY POST, PIN-682006 ERNAKULAM DIST KERALA 0484-2236088",0484-2236088,KOCHI,ERNAKULAM,KERALA
"NORTH MALABAR GRAMIN BANK",NMGB0000213,,"ERNAKULAM SERVICE BRANCH","NORTH MALABAR GRAMIN BANK, KALOOR, I FLOOR, MATHEWSONS TRADE CENTRE, NEAR TVS SHOW ROOM, KOCHI - 682 017, KERALA, PH: 0484 - 2539192",,KALOOR,ERNAKULAM,KERALA
"NORTH MALABAR GRAMIN BANK",NMGB0000214,,VAKATHANAM,"NORTH MALABAR GRAMIN BANK, ONATT TRADE CENTRE, NJALIAKUZHI JUNCTION, VAKATHANAM PO, KOTTAYAM DIST, KERALA -686538",9400069214,VAKATHANAM,KOTTAYAM,KERALA
"NORTH MALABAR GRAMIN BANK",NMGB0000704,,CHERUKUNNU,"NORTH MALABAR GRAMIN BANK,CHERUKUNNU,NEAR CANOSSIAN  CONVENT,P.O.CHERUKUNNU - 670 301,VIA) KANNAPURAM,KANNUR DIST., KERALA",0497-2862862,CHERUKUNNU,CANNUR,KERALA
"NORTH MALABAR GRAMIN BANK",NMGB0000215,,KANNANALLOOR,"NORTH MALABAR GRAMIN BANK, LEBBAS TOWER, KANNANALLOOR P O, KOLLAM 671576",,MUKATHALA,KOLLAM,KERALA
"NORTH MALABAR GRAMIN BANK",NMGB0000216,,KUNNIKODE,"NORTH MALABAR GRAMIN BANK,MEMORIAL BUILDING , KUNNIKODE JUNCTION, KOLLAM -691508",,KUNNIKODE,KOLLAM,KERALA
"NORTH MALABAR GRAMIN BANK",NMGB0000217,,BADIADKA,"SREE GURUVAYOORAPPAN SHOPPING COMPLEX, BADIADKA,  P.O PERDALA, KASARAGOD DISTRICT- 671551 PH:04998-284217",,BADIADKA,KASARAGOD,KERALA
"NORTH MALABAR GRAMIN BANK",NMGB0000218,686460306,KADANAD,"NORTH MALABAR GRAMIN BANK KADANAD BRANCH, PEEDIKAMALAYIL BUILDINGS, KADANAD P.O. 686653, KOTTAYAM DISTRICT",9400069218,KOLLAPPALLY,KOTTAYAM,KERALA
"NORTH MALABAR GRAMIN BANK",NMGB0000219,682460014,PUTHENVELIKARA,"NORTH MALABAR GRAMIN BANK ,PUTHENVELIKARA BRANCH, 1598 NO:NSS KARAYOGAM BUILDING, PUTHENVELIKARA P.O-683594, ERNAKULAM DISTRICT",9400069219,PUTHENVELIKKARA,ERNAKULAM,KERALA
"NORTH MALABAR GRAMIN BANK",NMGB0000220,691460105,PUTHOOR,"NORTH MALABAR GRAMIN BANK, PUTHOOR BRANCH, VALIYAKAMPIYIL PLAZA, BSNL JUNCTION, PUTHOOR P.O -691507",9400069220,PUTHOOR,KOLLAM,KERALA
"NORTH MALABAR GRAMIN BANK",NMGB0000221,691460106,KADAKKAL,"NORTH MALABAR GRAMIN BANK, KADAKKAL BRANCH, PULIMATH BUILDINGS, KADAKKAL P.O -691536, KOLLAM DISTRICT",9400069221,KADAKKAL,KOLLAM,KERALA
"NORTH MALABAR GRAMIN BANK",NMGB0000222,691460006,ANCHALUMMOODU,"NORTH MALABAR GRAMIN BANK, ANCHALUMMOODU BRANCH, MOTHAKADA BUILDING, VETTUVILA ROAD, PERINAD P.O. -691601, KOLLAM DISTRICT",9400069222,PERINAD,KOLLAM,KERALA
