BANK,IFSC,MICR,BRANCH,ADDRESS,CONTACT,CITY,DISTRICT,STATE
"CITY UNION BANK LIMITED",CIUB0CMS001,WAITING,CSD,"COMPUTER SYSTEMS DEPT, 706, II FLOOR,ANNA SALAI,THOUSAND LIGHTS,CHENNAI-600006",28297905,CHENNAI,CHENNAI,"TAMIL NADU"
"CITY UNION BANK LIMITED",CIUB0000553,WAITING,"CITY UNION BANK LTD","8/230-4,GROUND FLOOR,EAST AVENUE,IKKANDA WARRIER ROAD,EAST FORT,THRISSUR.",8590717765,"THRISSUR EAST FORT",THRISSUR,KERALA
"CITY UNION BANK LIMITED",CIUB0000552,WAITING,"CITY UNION BANK LTD","NO.339,RR COMPLEX,KOVAI ROAD,PERUMALNALLUR,TIRUPUR.",7305959187,PERUMALNALLUR,COIMBATORE,"TAMIL NADU"
"CITY UNION BANK LIMITED",CIUB0000551,WAITING,"CITY UNION BANK LTD","NO.33/13,CUDDALORE MAIN ROAD,OPP.JOTHI MATRICULATION SCHOOL,AMMAPETTAI,SALEM.",7695082347,SALEM,SALEM,"TAMIL NADU"
"CITY UNION BANK LIMITED",CIUB0000550,WAITING,"CITY UNION BANK LTD","NO 3/88 A, MAIN ROAD, OPP TO A/M KORAKKAR SIDHAR ASRAM, NORTH POIGANALLUR - 611106",9543911899,"NORTH POIGAINALLUR",NAGAPATTINAM,"TAMIL NADU"
"CITY UNION BANK LIMITED",CIUB0000549,WAITING,"CITY UNION BANK LTD","NO 66, SENGUNTHA PILLIAR KOIL STREET, NEAR PONVIZHA MANDAPAM, UTHIRAMERUR - 603406",7604883208,UTHIRAMERUR,KANCHEEPURAM,"TAMIL NADU"
"CITY UNION BANK LIMITED",CIUB0000548,WAITING,"CITY UNION BANK LTD","NO 1/1/3D, PALAMEDU MAIN ROAD, CHOKKALINGA NAGAR, KOODAL NAGAR, MADURAI - 625018",7695816261,"KOODAL NAGAR",MADURAI,"TAMIL NADU"
"CITY UNION BANK LIMITED",CIUB0000547,WAITING,"CITY UNION BANK LTD","NO 46A, BHARATHIYAR STREET, ALANGANALLUR, MADURAI - 625501",9543321479,ALANGANALLUR,MADURAI,"TAMIL NADU"
"CITY UNION BANK LIMITED",CIUB0000546,WAITING,AGARAMTHEN,"9/96,AGARAM MAIN ROAD,(NEAR AGARAMTHEN BUS STAND),AGARAMTHEN,KANCHEEPURAM-600126",9543275104,KANCHEEPURAM,KANCHEEPURAM,"TAMIL NADU"
"CITY UNION BANK LIMITED",CIUB0000545,WAITING,OMALUR,"NO.1/480-1,LC TOWERS,ANNA NAGAR WEST,(NEXT TO KRISHNA MAHAL KALYANA MANDAPAM),DHARMAPURI MAIN ROAD,OMALUR,SALEM.",7695941277,SALEM,SALEM,"TAMIL NADU"
"CITY UNION BANK LIMITED",CIUB0000544,WAITING,NALGONDA,"D.NO. 6-7-10,NCS SAI NEST,SHIVAJI NAGAR,OPP. TTD KALYANA MANDAPAM,NALGONDA,NALGONDA.",9346177188,NALGONDA,TELANGANA,TELANGANA
"CITY UNION BANK LIMITED",CIUB0000543,WAITING,"BENGALURU KENGARI","SITE NO.1107,1ST MAIN ROAD,SATELLITE TOWN,(OPP. TO DOMINOS PIZZA),KENGARI,BENGALURU.",7847843910,BENGALURU,BENGALURU,KARNATAKA
"CITY UNION BANK LIMITED",CIUB0000542,WAITING,MODAKURICHI,"205A, POOLAKATTU PUDUR, PERUMAPALAYAM, MODAKURICHI, ERODE - 638104",7806837239,ERODE,ERODE,"TAMIL NADU"
"CITY UNION BANK LIMITED",CIUB0000541,WAITING,"TVS NAGAR COIMBATORE","400/2,3, THADAGAM MAIN ROAD, TVS NAGAR, COIMBATORE 641025",7810954962,COIMBATORE,COIMBATORE,"TAMIL NADU"
"CITY UNION BANK LIMITED",CIUB0000540,WAITING,KARADIPATTI,"NO 3/19A, MGR NAGAR, NEAR ALAMPATTI BUS STOP, KARADIPATTI, MADURAI",7667847754,MADURAI,MADURAI,"TAMIL NADU"
"CITY UNION BANK LIMITED",CIUB0000539,WAITING,VENGAIVASAL,"OLD NO 1/41, NEW NO 10/192, ANJANEYAR KOIL STREET, VENGAIVASAL, CHENNAI",7810006426,CHENNAI,CHENNAI,"TAMIL NADU"
"CITY UNION BANK LIMITED",CIUB0000538,WAITING,SANOORAPATTI,"KANDARVAKOTTAI MAIN ROAD, SENGIPATTI POST, SANOORAPATTI, THANJAVUR",7667082256,THANJAVUR,THANJAVUR,"TAMIL NADU"
"CITY UNION BANK LIMITED",CIUB0000537,WAITING,ODDERPALAYAM,"NO.3/503,504/505,METTUPALAYAM ROAD, NEAR PERIYA PALAM,ODDERPALAYAM,COIMBATORE",7812804371,COIMBATORE,COIMBATORE,"TAMIL NADU"
"CITY UNION BANK LIMITED",CIUB0000536,WAITING,KALAYARKOIL,"NO.6893,SHANMUGAM COMPLEX,SOMASUNDARAM NAGAR,MADURAI THONDI MAIN ROAD,KALAYARKOIL,SIVAGANGA",7811921295,SIVAGANGA,SIVAGANGA,"TAMIL NADU"
"CITY UNION BANK LIMITED",CIUB0000535,WAITING,ILAYANGUDI,"NO. 240/2,KAMARAJAR ROAD,MANIVASAGAM NAGAR, ILAYANGUDI,SIVAGANGA",7667923077,SIVAGANGA,SIVAGANGA,"TAMIL NADU"
"CITY UNION BANK LIMITED",CIUB0000534,WAITING,THIRUMULLAIVOYAL,"NO.36,58,SARASWATHI NAGAR,THIRUMULLAIVOYAL,THRUVALLUR",7667204138,THIRUMULLAIVOYAL,THIRUVALLUR,"TAMIL NADU"
"CITY UNION BANK LIMITED",CIUB0000533,WAITING,"BENGALURU HSR LAYOUT","NO 1672/A, 14TH MAIN ROAD, GROUND FLOOR, SECTOR VII, BDA COMPLEX, HSR LAYOUT, BENGALURU",7813026080,BENGALURU,BENGALURU,KARNATAKA
"CITY UNION BANK LIMITED",CIUB0000532,WAITING,ARIYANKUPPAM,"140, CUDDALORE ROAD,ARIYANKUPPAM, PUDUCHERRY",7811056327,PUDUCHERRY,PUDUCHERRY,PUDUCHERRY
"CITY UNION BANK LIMITED",CIUB0000531,WAITING,MANGAIMADAM,"NO.1/48-3,MAIN ROAD,MANGAIMADAM,NAGAPATTINAM",7305439609,NAGAPATTINAM,NAGAPATTINAM,"TAMIL NADU"
"CITY UNION BANK LIMITED",CIUB0000530,WAITING,KUNIAMUTHUR,"DOOR NO.419,CROWN PLAZA,PALAKKAD MAIN ROAD,KUNIAMUTHUR,COIMBATORE-641008",7305428338,COIMBATORE,COIMBATORE,"TAMIL NADU"
"CITY UNION BANK LIMITED",CIUB0000529,WAITING,KORATTUR,"DOOR NO.445A,11TH STREET,TNHB,PERIYAR NAGAR,(OPP VIVEKANANDHA VIDHYALAYA),KORATTUR,CHENNAI-600080",9360587194,CHENNAI,CHENNAI,"TAMIL NADU"
"CITY UNION BANK LIMITED",CIUB0000528,WAITING,THIRUMALAISAMUDRAM,"SASTRA UNIVERSITY CAMPUS,THIRUMALAISAMUDRAM,THANJAVUR-613401",9367633188,THANJAVUR,THANJAVUR,"TAMIL NADU"
"CITY UNION BANK LIMITED",CIUB0000527,WAITING,AGARATHIRUMALAM,"RS NO 54/15,54/16,KMA TOWER,AGARATHIRUMALAM PANCHAYAT,MAYILADUTHURAI-TIRUVARUR MAIN ROAD,POONTHOTTAM,AGARATHIRUMALAM-609 503",9360833188,TIRUVARUR,TIRUVARUR,"TAMIL NADU"
"CITY UNION BANK LIMITED",CIUB0000526,WAITING,SURAMANGALAM,"GROUND FLOOR 196-15,NAMBIKKAI MUNAI MALL,SURAMANGALAM JUNCTION ROAD,THIRUVAKAUNDANOOR BYE PASS,SURAMANGALAM,SALEM-636 005",9364233188,SALEM,SALEM,"TAMIL NADU"
"CITY UNION BANK LIMITED",CIUB0000525,WAITING,CHINNAMANUR,"175K,CUMBUM MAIN ROAD,VKR PATTU MAHAL BUILDING,CHINNAMANUR-625515",9345933188,CHINNAMANUR,THENI,"TAMIL NADU"
"CITY UNION BANK LIMITED",CIUB0000524,WAITING,"TIRUNELVELI JUNCTION","NO.78,PERUMAL SANNATHI STREET,VEERARAGHAVAPURAM,TIRUNELVELI-627001",9344833188,TIRUNELVELI,TIRUNELVELI,"TAMIL NADU"
"CITY UNION BANK LIMITED",CIUB0000523,WAITING,NALLUR,"JVP COMPLEX,GROUND FLOOR,NO 254/2A,NALLIGOUNDER NAGAR,KANGEYAM MAIN ROAD,VIJAYAPURAM POST,NALLUR,TIRUPUR-641606",9360133188,TIRUPUR,COIMBATORE,"TAMIL NADU"
"CITY UNION BANK LIMITED",CIUB0000522,WAITING,KUNNATHUR,"DOOR NO 1/575 TO 579,SATHY MAIN ROAD,KUNNATHUR KOIL STOP,KUNNATHUR,COIMBATORE-641107",9345033188,COIMBATORE,COIMBATORE,"TAMIL NADU"
"CITY UNION BANK LIMITED",CIUB0000521,WAITING,IKKARAIPOLUVAMPATTI,"ISHANAVIHAR POST OFFICE,SEMMEDU VILLAGE,ISHA YOGA CENTRE,VELLINGIRI FOOT HILLS,IKKARAIPOLUVAMPATTI,COIMBATORE-641114",9360733188,COIMBATORE,COIMBATORE,"TAMIL NADU"
"CITY UNION BANK LIMITED",CIUB0000520,WAITING,KOVAIPUDUR,"X-21,SAM AVENUE,KOVAIPUDUR,COIMBATORE-641042",9360033188,COIMBATORE,COIMBATORE,"TAMIL NADU"
"CITY UNION BANK LIMITED",CIUB0000519,WAITING,VILLIVAKKAM,"NEW DOOR NO 261,OLD DOOR NO 123E,MTH ROAD,VILLIVAKKAM,CHENNAI-600049",9362133188,CHENNAI,CHENNAI,"TAMIL NADU"
"CITY UNION BANK LIMITED",CIUB0000518,WAITING,ADAMBAKKAM,"NO.146A,KARUNEEKAR STREET,ADAMBAKKAM,CHENNAI-600088",9360533188,CHENNAI,CHENNAI,"TAMIL NADU"
"CITY UNION BANK LIMITED",CIUB0000517,WAITING,RAMAPURAM,"G1-BUTTERFLY APARTMENT,1-2-3 AND 4 BHARATHI SALAI,RAMAPURAM,KANCHEEPURAM-600089",9344733188,RAMAPURAM,KANCHEEPURAM,"TAMIL NADU"
"CITY UNION BANK LIMITED",CIUB0000516,WAITING,SAIDAPET-CHENNAI,"NO 55,SESHACHALAM MUDALI STREET,SAIDAPET,CHENNAI-600015",9363133188,CHENNAI,CHENNAI,"TAMIL NADU"
"CITY UNION BANK LIMITED",CIUB0000515,WAITING,THULLURU,"NO4-118,KAKUMANU VARI STREET,THULLURU,GUNTUR-522237",9391393188,THULLUR,GUNTUR,"ANDHRA PRADESH"
"CITY UNION BANK LIMITED",CIUB0000514,WAITING,VANASTHALIPURAM,"D.NO-5-5-9/1,KRANTI HILLS COLONY,NEAR SUSHMA THEATRE,VANASTHALIPURAM,HYDERABAD-500070",9394538159,HYDERABAD,HYDERABAD,TELANGANA
"CITY UNION BANK LIMITED",CIUB0000513,WAITING,MARATHAHALLI-BANGALORE,"SITE NO.61,3RD CROSS,ASHWATH NAGAR,KALAMANDIR,SERVICE ROAD,MARATHAHALLI,BANGALORE-560037",9379032314,BANGALORE,BANGALORE,KARNATAKA
"CITY UNION BANK LIMITED",CIUB0000512,WAITING,"RT NAGAR BANGALORE","590,HMT LAYOUT,4TH CROSS,RT NAGAR,BANGALORE",9342855177,BANGALORE,560032,KARNATAKA
"CITY UNION BANK LIMITED",CIUB0000511,WAITING,FARIDABAD,"E5/10,BP RAILWAY ROAD,NEAR NEELAM BATA CHOWK,NIT,FARIDABAD,HARYANA-121001",9354776693,FARIDABAD,FARIDABAD,HARYANA
"CITY UNION BANK LIMITED",CIUB0000510,WAITING,THILLAINAYAGAPURAM,"No.156 ECR Main Road,Near Vandigate,CUDDALORE",9362333188,CHIDAMBARAM,CUDDALORE,"TAMIL NADU"
"CITY UNION BANK LIMITED",CIUB0000509,WAITING,THIRUINDALUR,"NO 1,THIRUINDALUR SANNATHI STREET,THIRUINDALUR,MAYILADUTHURAI-609 001",9360433188,NAGAPATTINAM,NAGAPATTINAM,"TAMIL NADU"
"CITY UNION BANK LIMITED",CIUB0000508,WAITING,THUCKALAY,"23/8,9 ANGEL COMPLEX,METTUKADAI,THUCKALAY,KANYAKUMARI-629 175",9361833188,KANYAKUMARI,KANYAKUMARI,"TAMIL NADU"
"CITY UNION BANK LIMITED",CIUB0000507,WAITING,THIRUPPALAI,"DOOR NO 209,5TH STREET,PORIYALAR NAGAR,THIRUPPALAI,MADURAI-625 014",9361733188,MADURAI,MADURAI,"TAMIL NADU"
"CITY UNION BANK LIMITED",CIUB0000506,WAITING,MADURAI-CHOKKIKULAM,"NO 13,SECOND STREET,KAMARAJAR NAGAR,CHOKKIKULAM,MADURAI-625 002",9361533188,MADURAI,MADURAI,"TAMIL NADU"
"CITY UNION BANK LIMITED",CIUB0000505,WAITING,SAHUPURAM,"DCW COMPLEX,SAHUPURAM,TUTICORIN-628 229",9344033188,TUTICORIN,TOOTHUKUDI,"TAMIL NADU"
"CITY UNION BANK LIMITED",CIUB0000504,WAITING,ALANGULAM,"DOOR NO 9/1/109J,ECN COMPLEX,AMBAI ROAD,ALANGULAM,TIRUNELVELI-627 851",9364133188,ALANGULAM,TIRUNELVELI,"TAMIL NADU"
"CITY UNION BANK LIMITED",CIUB0000503,WAITING,CHINTHAMANI,"1/228,MAIN ROAD,CHINTHAMANI,T.PALUR TALUK,ARIYALUR-612 904",9367769990,ARIYALUR,ARIYALUR,"TAMIL NADU"
"CITY UNION BANK LIMITED",CIUB0000502,WAITING,"NEW DELHI LAXMI NAGAR","F-120,MAIN BAZAR,LAXMI NAGAR,NEW DELHI-110 092",9312620592,DELHI,DELHI,DELHI
"CITY UNION BANK LIMITED",CIUB0000501,WAITING,KANPUR,"GROUND FLOOR,24/14,THE MALL,KANPUR-208 001",8799498478,KANPUR,"KANPUR CITY","UTTAR PRADESH"
"CITY UNION BANK LIMITED",CIUB0000500,WAITING,"CHENNAI-ANNA NAGAR WEST","W-393,SCHOOL ROAD,AR BUILDING,OPP SBOA SCHOOL,ANNA NAGAR,CHENNAI-600101",9345942939,CHENNAI,CHENNAI,"TAMIL NADU"
"CITY UNION BANK LIMITED",CIUB0000499,WAITING,AHMADABAD-RAIPUR,"GROUND FLOOR,SHIVAM ARCADE,NEAR SAFAL-3,D BLOCK,BEHND MAHIPATRAM ASRAM,RAIPUR,AHMADABAD-380 022",9374674453,RAIPUR,AHMADABAD,GUJARAT
"CITY UNION BANK LIMITED",CIUB0000498,WAITING,"JAM NAGAR","G-1,SHREEJI EMPERIA,JOGGERS PARK ROAD,PARK COLONY,JAM NAGAR-361 008",0,JAMNAGAR,JAMNAGAR,GUJARAT
"CITY UNION BANK LIMITED",CIUB0000497,WAITING,NIRMAL,"DOOR NO5-7-100/13, NH7, DOCTORS COLONY, NIRMAL",9394881390,NIRMAL,ADILABAD,"ANDHRA PRADESH"
"CITY UNION BANK LIMITED",CIUB0000496,WAITING,PAKKAM,"NO.3/331,VENKATESAPURAM,THIRUNINRAVUR,PAKKAM,TIRUVALLUR-602024",9360509312,THIRUNINRAVUR,THIRUVALLUR,"TAMIL NADU"
"CITY UNION BANK LIMITED",CIUB0000495,WAITING,"MADANA PALLE","DOOR NO II-215-2 AND II-214-B,WARD NO 2,PATEL ROAD,BANDAMEEDA KAMMAPALLE,MADANA PALLE-517325",9347038267,"MADANA PALLE",CHITTOOR,"ANDHRA PRADESH"
"CITY UNION BANK LIMITED",CIUB0000494,WAITING,MUGAPPAIR,"150,MOHAN RAM NAGAR, MUGAPPAIR,CHENNAI-600037",9360539964,CHENNAI,CHENNAI,"TAMIL NADU"
"CITY UNION BANK LIMITED",CIUB0000493,WAITING,KODANGIPALAYAM,"DOOR NO.3/237,SF NO 379/B25,TRICHY ROAD,KARANAMPETTAI,KODANGIPALAYAM,TIRUPUR-641 662",9360534774,TIRUPUR,COIMBATORE,"TAMIL NADU"
"CITY UNION BANK LIMITED",CIUB0000492,WAITING,VILANDAI,"NO.812A,SOUTH STREET,JOTHI COMPLEX,OPP.ANDIMADAM PANCHAYAT UNION OFFICE,VILANDAI,ARIYALUR-621 801",9345638476,ARIYALUR,PERAMBALUR,"TAMIL NADU"
"CITY UNION BANK LIMITED",CIUB0000491,WAITING,VELLANOOR,"PLOT NO.102,VEERAPURAM MAIN ROAD,VISHNUNAGAR,NEAR VELTECH COLLEGE,VELLANOOR,THIRUVALLUR",9345097560,TIRUVALLUR,THIRUVALLUR,"TAMIL NADU"
"CITY UNION BANK LIMITED",CIUB0000490,WAITING,ORAGADAM,"NO.2/90,PONNIAMMAN KOIL STREET,ORAGADAM,KANCHEEPURAM",9360189312,TAMBARAM,KANCHEEPURAM,"TAMIL NADU"
"CITY UNION BANK LIMITED",CIUB0000489,WAITING,VANIYAMBADI,"NO 275/32,BABA ASTHANA MALANG ROAD,NOORLAPET,VANIYAMBADI,VELLORE",9361031365,VANIYAMBADI,VELLORE,"TAMIL NADU"
"CITY UNION BANK LIMITED",CIUB0000488,WAITING,JODHPUR,"GROUND FLOOR,PLOT NO.3,SECTOR 7,NEW POWER HOUSE ROAD,JODHPUR",9351831129,JODHPUR,JODHPUR,RAJASTHAN
"CITY UNION BANK LIMITED",CIUB0000487,WAITING,"MANIAKARANPALAYAM COIMBATORE","OLD NO 36A/7,NEW NO 103,BHARATHIYAR ROAD,MANIAKARANPALAYAM,COIMBATORE",9344952627,COIMBATORE,COIMBATORE,"TAMIL NADU"
"CITY UNION BANK LIMITED",CIUB0000486,WAITING,"SIVANANDA COLONY COIMBATORE","69,RAJU NAIDU ROAD,SIVANANDA COLONY,TATABAD,COIMBATORE",9345467992,COIMBATORE,COIMBATORE,"TAMIL NADU"
"CITY UNION BANK LIMITED",CIUB0000485,WAITING,KONDAPUR,"1-112/1/20C, PLOT NO.26-C,GROUND FLOOR,KONDAPUR, RENGAREDDY",9393345653,KONDAPUR,RENGAREDDY,TELANGANA
"CITY UNION BANK LIMITED",CIUB0000484,WAITING,NAVALUR,"DOOR NO.1/192, GANDHI STREET,NAVALUR, CHENNAI 603103",9365859566,CHENNAI,KANCHEEPURAM,"TAMIL NADU"
"CITY UNION BANK LIMITED",CIUB0000483,WAITING,MANNIVAKKAM,"2/8, WALAJABAD ROAD, MANNIVAKKAM, CHENNAI 600048",9345510443,CHENNAI,CHENNAI,"TAMIL NADU"
"CITY UNION BANK LIMITED",CIUB0000482,WAITING,"ZAMIN PALLAVARAM","NO.95, P.V.VAIDYALINGAM ROAD, OLD PALLAVARAM, CHENNAI 600117",9360502172,CHENNAI,KANCHEEPURAM,"TAMIL NADU"
"CITY UNION BANK LIMITED",CIUB0000481,WAITING,VADALUR,"R.S.NO.171/1A/1A, KUMBAKONAM ROAD,VADALUR, CUDDALORE",9345740244,CUDDALORE,CUDDALORE,"TAMIL NADU"
"CITY UNION BANK LIMITED",CIUB0000480,NA,MANCHERIAL,"H.NO.5-186/2,IQBAL AHMED NAGAR,GROUND FLOOR,MANCHERIAL,ADILABAD",9347593478,MANCHERIAL,ADILABAD,TELANGANA
"CITY UNION BANK LIMITED",CIUB0000479,NA,JAGTIAL,"H.NO.3-6-27/4,KARIMNAGAR ROAD,JAGTIAL,KARIMNAGAR",9347593477,JAGTIAL,KARIMNAGAR,TELANGANA
"CITY UNION BANK LIMITED",CIUB0000478,WAITING,PONNAMARAVATHY,"67 AND 68, ANNA SALAI, PONNAMARAVATHY -622411 PUDUKKOTTAI -DIST",9345088936,PONNAMARAVATHY,PUDUKKOTTAI,"TAMIL NADU"
"CITY UNION BANK LIMITED",CIUB0000477,WAITING,SRINIVASANAGAR,"PLOT NO.30 VAYALUR MAIN ROAD, SRINIVASANAGAR,TRICHY-620017.",9345013102,TRICHY,TIRUCHIRAPALLI,"TAMIL NADU"
"CITY UNION BANK LIMITED",CIUB0000476,WAITING,KARUMANDABAM,"NO 1/2 DINDUGAL ROAD, KARUMANDABAM TRICHY -620001.",9360560137,TRICHY,TIRUCHIRAPALLI,"TAMIL NADU"
"CITY UNION BANK LIMITED",CIUB0000475,WAITING,IRUNGALUR,"1-398,TRICHY-CHENNAI HIGHWAY,(OPP. SRM CAMPUS),IRUNGALUR -621107 TRICHY -DIST",9365868948,TRICHY,TIRUCHIRAPALLI,"TAMIL NADU"
"CITY UNION BANK LIMITED",CIUB0000474,WAITING,TIRUTTANI,"124, AKKAIYA NAIDU STREET, TIRUTTANI-631209, TIRUVALLUR -DIST",9363228745,TIRUTTANI,THIRUVALLUR,"TAMIL NADU"
"CITY UNION BANK LIMITED",CIUB0000473,WAITING,MELAKABISTHALAM,"4/42B MAIN ROAD,MELAKABISTHALAM-614203,PAPANASAM -TK THANJAVUR -DIST",9345788744,MELAKABISTHALAM,THANJAVAUR,"TAMIL NADU"
"CITY UNION BANK LIMITED",CIUB0000472,WAITING,GANDHIDHAM,"SHREEJI COMPLEX,PLAT NO.9,WARD NO.12-B,OPP.CITY POLICE STATION,GANDHIDHAM -370201 JAMNAGAR -DIST, GUJARAT -STATE",9376865737,GANDHIDHAM,JAMNAGAR,GUJARAT
"CITY UNION BANK LIMITED",CIUB0000471,WAITING,ALUVA,"DOOR NO.291(2) TO 291(5), KJ SQUARE, GROUND FLOOR,PRINCE TOWERS, MARKET ROAD,ALUVA -683101,ERNAKULAM-DIST,KERALA -STATE",9388290599,ALUVA,ERNAKULAM,KERALA
"CITY UNION BANK LIMITED",CIUB0000470,WAITING,EDAPPALLY,"DOOR NO 34/2284A NH 47, EDAPPALLY SOUTH, PALARIVATTOM (PO), KOCHI -682025 ERNAKULAM -DIST, KERALA -STATE",9388290601,EDAPPALLY,ERNAKULAM,KERALA
"CITY UNION BANK LIMITED",CIUB0000469,WAITING,GINGEE,"NO.212 TIRUVANNAMALAI ROAD, GINGEE -604202, VILLUPURAM -DIST",9360574810,GNIGEE,VILLUPURAM,"TAMIL NADU"
"CITY UNION BANK LIMITED",CIUB0000468,WAITING,MELAVALAMPETTAI,"PLOT NO.56 UTHIRAMERUR ROAD,V.B NAGARAM V.NO. 144 (NEAR VASAM HOSPITAL) MELAVALAMPETTAI-603303 KANCHEEPURAM -DIST",9345563629,KANCHIPURAM,KANCHEEPURAM,"TAMIL NADU"
"CITY UNION BANK LIMITED",CIUB0000467,WAITING,ARUMBAKKAM,"CD -24 RAZACK GARDEN STREET,MMDA COLONY, ARUMBAKKAM-600100 CHENNAI -DIST",9345012129,CHENNAI,CHENNAI,"TAMIL NADU"
"CITY UNION BANK LIMITED",CIUB0000466,WAITING,VAPI,"SHOP NO 36,37 AND 38, GIRNAR KHUSBOO PLAZA,PLOT NO.209 GIDC ESTATE, VAPI-396195 GUJARAT-STATE",9327116247,VAPI,VALSAD,GUJARAT
"CITY UNION BANK LIMITED",CIUB0000465,WAITING,ANKLESHWAR,"PLOT NO 73/P GIDC ESTATE, OLD NATIONAL HIGHWAY NO 8 ANKLESHWAR -393002 GUJARAT -STATE",9327116248,ANKLESHWAR,BHARUCH,GUJARAT
"CITY UNION BANK LIMITED",CIUB0000464,WAITING,BALANAGAR,"D NO.6-3-134/1,PLOT 21 AL AMEEN PLAZA,BALANAGAR, HYDERABAD -500037, TELANGANA",9391521407,HYDERABAD,HYDERABAD,TELANGANA
"CITY UNION BANK LIMITED",CIUB0000463,WAITING,"A S RAO NAGAR","D.NO 1-19/1/1, GROUND FLOOR,PLOT NO 1,1-G BLOCK, OFFICERS COLONY, A S RAO NAGAR, ECIL POST HYDERABAD-500062 RANGAREDDY DIST. TELANGANA",9392209538,HYDERABAD,RANGAREDDY,TELANGANA
"CITY UNION BANK LIMITED",CIUB0000462,WAITING,MANJAKOLLAI,"NO 43/5 MAIN ROAD, PUTHUR, MANJAKOLLAI-611106 NAGAPATTINAM -DIST",9360542970,MANJAKOLLAI,NAGAPATTINAM,"TAMIL NADU"
"CITY UNION BANK LIMITED",CIUB0000461,WAITING,MANAMADURAI,"NO 23/65 MARIAMMAN KOVIL STREET, MANAMADURAI-630606 SIVAGANGAI-DIST",9360585112,MANAMADURAI,SIVAGANGA,"TAMIL NADU"
"CITY UNION BANK LIMITED",CIUB0000460,WAITING,SATHYAMANGALAM,"125, 126 ATHANI MAIN ROAD (OPP BHAVANIESWARAN TEMPLE) SATHYAMANGALAM -638401 ERODE -DIST",9360575682,SATHYAMANGALAM,ERODE,"TAMIL NADU"
"CITY UNION BANK LIMITED",CIUB0000459,WAITING,THARAMANGALAM,"SF NO 81/7C NANGAVALLI MAIN ROAD,THARAMANGALAM-636502 OMALUR-TK, SALEM -DIST",9345912328,THARAMANGALAM,SALEM,"TAMIL NADU"
"CITY UNION BANK LIMITED",CIUB0000458,WAITING,VAZHAPADI,"SK TOWERS NO 126,CUDDALORE MAIN ROAD,VAZHAPADI-636115 SALEM- DIST",9345132289,VALAPADI,SALEM,"TAMIL NADU"
"CITY UNION BANK LIMITED",CIUB0000457,WAITING,K.R.PURAM,"SREE RAGH TOWERS DOOR NO 390, 4TH MAIN,OLD MADRAS ROAD,K R PURAM OLD EXTN,BANGALORE -560036",9341713962,BANGALORE,BANGALORE,KARNATAKA
"CITY UNION BANK LIMITED",CIUB0000456,WAITING,BASAVANAGUDI,"NO 194 GROUND FLOOR,SC ROAD,NEAR NETKALLAPPA CIRCLE,BASAVANAGUDI-560004 BANGALORE- DIST",9343879470,BANGALORE,BANGALORE,KARNATAKA
"CITY UNION BANK LIMITED",CIUB0000455,WAITING,VANAGARAM,"PLOT NO.2,PORUR GARDEN PHASE II, NEAR PORUR TOLGATE,VANAGARAM,CHENNAI-600095,TIRUVALLUR-DIST",9345436450,VANAGARAM,THIRUVALLUR,"TAMIL NADU"
"CITY UNION BANK LIMITED",CIUB0000454,WAITING,KOILAMBAKKAM,"PLOT NO.415 D/NO 4/51, 200 FEET RADIAL ROAD, VIDUTHALAI NAGAR,KOLATHUR,KOILAMBAKKAM-600129 KANCHEEPURAM-DIST",9362647854,KOILAMBAKKAM,KANCHEEPURAM,"TAMIL NADU"
"CITY UNION BANK LIMITED",CIUB0000453,WAITING,SUNDARAPURAM,"NO.237/160 E,POLLACHI MAIN ROAD,(NEAR BALAJI HOSPITAL),SUNDARAPURAM,COIMBATORE-641024",9345506932,COIMBATORE,COIMBATORE,"TAMIL NADU"
"CITY UNION BANK LIMITED",CIUB0000452,WAITING,MALUMICHAMPATTI,"S.F.NO 248/AF,GURUVAYUR NAGAR,(BEHIND STATE BANK OF INDIA)MALUMICHAMPATTI-641050, COIMBATORE-DIST",9345969807,COIMBATORE,COIMBATORE,"TAMIL NADU"
"CITY UNION BANK LIMITED",CIUB0000451,WAITING,VANDAVASI,"15 AND 17,OTHAVADAI STREET,(NEAR THERADI),VANDAVASI-604408,TIRUVANNAMALAI-DIST",9345056215,VANDAVASI,TIRUVANNAMALAI,"TAMIL NADU"
"CITY UNION BANK LIMITED",CIUB0000450,WAITING,BARGUR,"D.NO 69 & 70, KRISHNAGIRI MAIN ROAD,(OPP TO BARGUR BUS STAND),BARGUR-635104,KRISHNAGIRI-DIST",9362802042,BARGUR,KRISHNAGIRI,"TAMIL NADU"
"CITY UNION BANK LIMITED",CIUB0000449,WAITING,KOMARAPALAYAM,"NO.286 L1,SALEM MAIN ROAD,KOMARAPALAYAM-638183,NAMAKKAL DIST",9367520336,KOMARAPALAYAM,NAMAKKAL,"TAMIL NADU"
"CITY UNION BANK LIMITED",CIUB0000448,WAITING,TUNI,"D.NO.4-13-3, MAIN ROAD,TUNI-533401,EAST GODAVARI-DIST,ANDHARA PRADESH",9346568373,TUNI,"EAST GODAVARI","ANDHRA PRADESH"
"CITY UNION BANK LIMITED",CIUB0000447,WAITING,VILANDHAKANDAM,"S.NO.57/1, CHENNAI MAIN ROAD,VILANDHAKANDAM  612 503KUMBAKONAM  TK THANJAVUR  DIST",9344229399,VILANDHAKANDAM,THANJAVUR,"TAMIL NADU"
"CITY UNION BANK LIMITED",CIUB0000446,WAITING,SITHARKADU,"92/A3, MAIN ROAD,SITHARKADU  609003MAYILADUTHURAI  TKNAGAPATTINAM  DIST",9361033775,SITHARKADU,NAGAPATTINAM,"TAMIL NADU"
"CITY UNION BANK LIMITED",CIUB0000445,WAITING,NARANAMANGALAM,"R.S.NO.47/61, THOPPU STREET,NARANAMANGALAM  610107KODAVASAL - TKTIRUVARUR  DIST",9360619774,NARANAMANGALAM,THIRUVARUR,"TAMIL NADU"
"CITY UNION BANK LIMITED",CIUB0000444,WAITING,THIMMAVARAM,"24, MAHALAKSHMI NAGAR,KANCHEEPURAM HIGH ROAD,THIMMAVARAM  603 101 CHENGALPET - TKKANCHEEPURAM  DIST",9360691692,THIMMAVARAM,KANCHEEPURAM,"TAMIL NADU"
"CITY UNION BANK LIMITED",CIUB0000443,WAITING,VIZIANAGARAM,"SURVEY NO 628, 638/3, DOOR NO 5-1-19, CITY SQUARE, SANTHAPETA, PEDDA VEEDHI, M.G.ROAD, VIZIANAGARAM 535001 ANDHRA PRADESH",275772,VIZIANAGARAM,VIZIANAGARAM,"ANDHRA PRADESH"
"CITY UNION BANK LIMITED",CIUB0000442,WAITING,GAJUWAKA,"PLOT NO 52,49 SURVEY NO 54, DOOR NO.13-14-20, DWARAPUREDDY COMPLEX, B.C.ROAD, NEW GAJUWAKA, VISAKHAPATNAM 530027 ANDHRA PRADESH",2575773,VISAKHAPATNAM,VISAKHAPATNAM,"ANDHRA PRADESH"
"CITY UNION BANK LIMITED",CIUB0000441,WAITING,KATTUR,"DOOR NO.12,13, PUGAL NAGAR, PAPAKURICHI, THANJAVUR MAIN ROAD, KATTUR 620019 TRICHY -DIST",9360012887,KATTUR,TRICHY,"TAMIL NADU"
"CITY UNION BANK LIMITED",CIUB0000440,WAITING,CHINNIYAMPALAYAM,"1/441 AVINASHI ROAD,NEAR INDIAN BANK, CHINNIYAMPALAM, COIMBATORE 641062",9360260296,COIMBATORE,COIMBATORE,"TAMIL NADU"
"CITY UNION BANK LIMITED",CIUB0000439,WAITING,PONNERI,"NO 3, AUTHULLASHA STREET, PONNERI-601204 THIRUVALLUR-DIST",9367170879,PONNERI,THIRUVALLUR,"TAMIL NADU"
"CITY UNION BANK LIMITED",CIUB0000438,WAITING,KOLATHUR,"17/22, GANAPATHY RAO NAGAR, REDHILLS ROAD, KOLATHUR-600099 CHENNAI-DIST",9367795902,CHENNAI,CHENNAI,"TAMIL NADU"
"CITY UNION BANK LIMITED",CIUB0000437,WAITING,VEERAPURAM,"NO.122,VEERAPANDIA KATTABOMMAN STREET, MAHINDRA WORLD CITY MAIN ROAD,VEERAPURAM-603002 CHENGALPET-TK KANCHEEPURAM-DIST",9362876376,VEERAPURAM,KANCHEEPURAM,"TAMIL NADU"
"CITY UNION BANK LIMITED",CIUB0000436,WAITING,MELUR,"D.NO.243/2C1 A, NEAR BHASKARAN CLINIC, ALAGAR KOVIL ROAD, MELUR 625 106 MADURAI DIST",9365869140,MELUR,MADURAI,"TAMIL NADU"
"CITY UNION BANK LIMITED",CIUB0000435,WAITING,NATHAM,"D.NO.4, WARD NO.5, DINDIGUL MAIN ROAD, NATHAM 624 401 DINDIGUL DIST",9362637559,NATHAM,DINDIGUL,"TAMIL NADU"
"CITY UNION BANK LIMITED",CIUB0000434,WAITING,NILAKOTTAI,"S.NO. 117/2C1 A, MAIN ROAD, NILAKOTTAI 624 208 DINDIGUL DIST.",9345625114,NILAKOTTAI,DINDIGUL,"TAMIL NADU"
"CITY UNION BANK LIMITED",CIUB0000433,WAITING,KATTUPAKKAM,"S.NO 62, MSR NAGAR SENDURPURAM MAIN ROAD, KATTUPAKKAM CHENNAI 600056 KANCHEEPURAM DIST",9362365145,CHENNAI,KANCHEEPURAM,"TAMIL NADU"
"CITY UNION BANK LIMITED",CIUB0000432,WAITING,"NEW COLONY CHROMPET","1 25, BASKAR PLAZA SIXTH MAIN ROAD, NEW COLONY, CHROMPET CHENNAI 600044 KANCHEEPURAM DIST",9362692987,CHENNAI,KANCHEEPURAM,"TAMIL NADU"
"CITY UNION BANK LIMITED",CIUB0000431,WAITING,"EAST TAMBARAM","NEW NO 96, OLD NO 130, BHARATHAMATHA STREET, EAST TAMBARAM CHENNAI 600059 KANCHEEPURAM DIST",9360072242,CHENNAI,KANCHEEPURAM,"TAMIL NADU"
"CITY UNION BANK LIMITED",CIUB0000430,WAITING,VALAJANAGARAM,"JAYANKONDAM MAIN ROAD, VALAJANAGARAM 621704, ARIYALUR DIST",9345923672,VALAJANAGARAM,ARIYALUR,"TAMIL NADU"
"CITY UNION BANK LIMITED",CIUB0000429,WAITING,ANGAMALY,"DOOR NO F2 F3, KOLENCHERY TOWER, MC ROAD, NEAR LF HOSPITAL, ANGAMALY 653572 ERNAKULAM DIST",2459700,ANGAMALY,ERNAKULAM,KERALA
"CITY UNION BANK LIMITED",CIUB0000428,NA,GANAPATHY,"1421A,SATHY MAIN ROAD,NEAR ATHIPALAYAM PIRIVU,GANAPATHY,COIMBATORE 641006",9362956773,COIMBATORE,COIMBATORE,"TAMIL NADU"
"CITY UNION BANK LIMITED",CIUB0000427,NA,ANTHIYUR,"9 BY 294 2,BHAVANI MAIN ROAD,ANTHIYUR,ERODE DIST",9362287327,ANTHIYUR,ERODE,"TAMIL NADU"
"CITY UNION BANK LIMITED",CIUB0000426,NA,SANKAGIRI,"1 14 18,D SETTIA GOUNDER COMPLEX,BHAVANI MAIN ROAD,SANKAGIRI 637 301,SALEM DT",9362050486,SANKARI,SALEM,"TAMIL NADU"
"CITY UNION BANK LIMITED",CIUB0000425,NA,HARUR,"SURVEY NO.21 BY 35,SINTHALPADI MAIN ROAD,HARUR 636 903,SALEM DIST",9362962061,SALEM,SALEM,"TAMIL NADU"
"CITY UNION BANK LIMITED",CIUB0000424,NA,EGMORE,"51 BY 33,POLICE COMMSSIONER S OFFICE ROAD,EGMORE,CHENNAI 600 008",9367742383,CHENNAI,CHENNAI,"TAMIL NADU"
"CITY UNION BANK LIMITED",CIUB0000423,NA,VILLIANUR,"NO.26,FIRST CROSS VASANTHAM NAGAR,VILLIANUR,PONDICHERY 605 110",9361007131,VILLIANUR,PONDICHERRY,PUDUCHERRY
"CITY UNION BANK LIMITED",CIUB0000422,NA,ROYAPURAM,"104 150 M.S.KOIL STREET,ROYAPURAM,CHENNAI 600013",9367129084,CHENNAI,CHENNAI,"TAMIL NADU"
"CITY UNION BANK LIMITED",CIUB0000421,NA,REDDIARPALAYAM,"93 VILLIANUR ROAD,REDDIARPALAYAM,PONDICHERRY 605010",9360059547,PONDICHERRY,PONDICHERRY,PUDUCHERRY
"CITY UNION BANK LIMITED",CIUB0000420,NA,ADYAR,"Plot No. 2/B, New Door No. 5, Third Cross Street,Kasthuribai Nagar, (Next to Kamakshi Memorial Hospital),Chennai",9360286894,CHENNAI,CHENNAI,"TAMIL NADU"
"CITY UNION BANK LIMITED",CIUB0000419,NA,AMBUR,"NO.9 BY 4,S.K.ROAD,KRISHNAPURAM,AMBUR 635 802 VELLORE DIST",9364405197,AMBUR,VELLORE,"TAMIL NADU"
"CITY UNION BANK LIMITED",CIUB0000418,NA,VARADARAJAPURAM,"D.NO.1 BY 117 1 BY 119,GANDHI STREET,NAZARATHPET,VARADARAJAPURAM 600 123 THIRUVALLUR DIST",9345921366,TIRUVALLUR,THIRUVALLUR,"TAMIL NADU"
"CITY UNION BANK LIMITED",CIUB0000417,NA,"S PUDUR","1 BY 212,MAIN ROAD,S.PUDUR 612 205 TIRUVIDAIMARUTHUR TK THANJAVUR DIST",9345653551,TIRUVDAIMARUDUR,THANJAVUR,"TAMIL NADU"
"CITY UNION BANK LIMITED",CIUB0000416,NA,THEPPERUMANALLUR,"MAYILADUTHURAI MAIN ROADTHEPPERUMANALLUR 612 206.TIRUVIDAIMARUTHUR TK THANJAVUR",9345349141,TIRUVDAIMARUDUR,THANJAVUR,"TAMIL NADU"
"CITY UNION BANK LIMITED",CIUB0000415,NA,UNAIYUR,"PLOT NO.35, THIRUMALAI THIRUNAGAR NEAR BHEL, UNAIYUR  622 507 PUDUKKOTTAI",9344112977,PUDUKKOTTAI,PUDUKKOTTAI,"TAMIL NADU"
"CITY UNION BANK LIMITED",CIUB0000414,NA,PADUR,"196,OLD MAHABALIPURAM ROAD OMR,PADUR 603 103 KANCHEEPURAM DIST",9344638614,PADUR,KANCHEEPURAM,"TAMIL NADU"
"CITY UNION BANK LIMITED",CIUB0000413,NA,THIRUVENCHERY,"AGARAMTHEN ROAD,NEAR BHARATH UNIVERSITY,THIRUVENCHERY 600 073 KANCHEEPURAM DIST",9345179609,THIRUVENCHERY,KANCHEEPURAM,"TAMIL NADU"
"CITY UNION BANK LIMITED",CIUB0000412,NA,NEDUNGUNDRAM,"71,GANDHI ROAD,SATHANANDAPURAM,NEDUNGUNDRAM 600 063 KANCHEEPURAM DIST",9344323198,NEDUNGUNDRAM,KANCHEEPURAM,"TAMIL NADU"
"CITY UNION BANK LIMITED",CIUB0000411,NA,VADAKUTHU,"13 BY A 1,40 FEET ROAD,GANDHI GRAMAM VADAKUTHU 607 308 CUDDALORE DIST",9344152734,VADAKUTHU,CUDDALORE,"TAMIL NADU"
"CITY UNION BANK LIMITED",CIUB0000410,NA,"VEERAPANDI PUDUR","11 BY 138,AMMAN NAGAR,KAMARAJ SALAI,VEERAPANDI PUDUR 641 019.COIMBATORE DIST",9344054394,VERAPANDIPUDUR,COIMBATORE,"TAMIL NADU"
"CITY UNION BANK LIMITED",CIUB0000409,NA,PATTEESWARAM,"NO.1 BY 90,GANDHI SALAI,PATTEESWARAM 612 703 TANJORE DIST",9364426527,THANJAVUR,THANJAVUR,"TAMIL NADU"
"CITY UNION BANK LIMITED",CIUB0000408,NA,ANNALAGRAHARAM,"427,VELLALAR STREET,MAIN ROAD,ANNALAGRAHARAM 612 401.TANJORE DIST",9344729608,THANJAVUR,THANJAVUR,"TAMIL NADU"
"CITY UNION BANK LIMITED",CIUB0000407,NA,KORANATTUKARUPPUR,"EASWAR SCHOOL PREMISES KORANATTUKARUPPUR 612 002 TANJORE DIST",9344783234,THANJAVUR,THANJAVUR,"TAMIL NADU"
"CITY UNION BANK LIMITED",CIUB0000406,NA,DEVANANCHERY,"5 BY 152,MAIN ROAD,DEVANANCHERY 612 501 TANJORE DIST",9344703698,THANJAVUR,THANJAVUR,"TAMIL NADU"
"CITY UNION BANK LIMITED",CIUB0000405,NA,TIRUVALANJULI,"NO.2,SWAMI NAGAR,MAIN ROAD,TIRUVALANJULI 612 302.TANJORE DIST",9362344422,THANJAVUR,THANJAVUR,"TAMIL NADU"
"CITY UNION BANK LIMITED",CIUB0000404,613054010,"MIYAPUR HYDERABAD","PLOT NO 16 AND 17,SRI SAI ELITE,ALLWYN CROSS,MIYAPUR HYDERABAD 500050",0,HYDERABAD,RENGAREDDY,"ANDHRA PRADESH"
"CITY UNION BANK LIMITED",CIUB0000403,613054009,"TEYNAMPET CHENNAI","25 BY 59,GROUND FLOOR,K.B.DHASAN ROAD,TEYNAMPET CHENNAI 600 018",0,CHENNAI,CHENNAI,"TAMIL NADU"
"CITY UNION BANK LIMITED",CIUB0000402,500054013,BALAKRISHNAPURAM,"5,MASILAMANIPURAM,BALAKRISHNAPURAM 624005 PUTHOOR POST DINDIGUL DIST",0,PUTHOOR,DINDIGUL,"TAMIL NADU"
"CITY UNION BANK LIMITED",CIUB0000401,600054074,CHINNALAPATTI,"11 3 6,KAMARAJ SALAI,CHINNALAPATTI 624301 DINDIGUL DIST",0,CHINNALAPATTI,DINDIGUL,"TAMIL NADU"
"CITY UNION BANK LIMITED",CIUB0000400,625054017,THIRUMUDIVAKKAM,"NO.80 BY 92,THIRUMUDIVAKKAM MAIN ROAD,THIRUMUDIVAKKAM,CHENNAI 600 044 KANCHEEPURAM DIST",0,CHENNAI,KANCHEEPURAM,"TAMIL NADU"
"CITY UNION BANK LIMITED",CIUB0000399,625054016,THIRUNINDRAVUR,"PLOT NO.2,C.T.H.ROAD,THIRUNINDRAVUR,CHENNAI 602 024 THIRUVALLUR DIST",0,CHENNAI,THIRUVALLUR,"TAMIL NADU"
"CITY UNION BANK LIMITED",CIUB0000398,600054073,AYAPPAKKAM,"D.NO.6284,THIRUVERKADU MAIN ROAD,AYAPPAKKAM,CHENNAI 600 077 THIRUVALLUR DIST",0,CHENNAI,THIRUVALLUR,"TAMIL NADU"
"CITY UNION BANK LIMITED",CIUB0000397,600054072,THIRUMAZHISAI,"114A,TH ROAD,THIRUMAZHISAI,CHENNAI 600 124 THIRUVALLUR DIST",0,CHENNAI,THIRUVALLUR,"TAMIL NADU"
"CITY UNION BANK LIMITED",CIUB0000396,600054071,MELAKOTTAIYUR,"VANDALUR KELAMBAKKAM ROAD,NEAR VIT CHENNAI CAMPUS,MELAKOTTAIYUR CHENNAI 600 048.KANCHIPURAM DIST",0,MELAKOTTAIYUR,KANCHEEPURAM,"TAMIL NADU"
"CITY UNION BANK LIMITED",CIUB0000395,600054070,VELAPPANCHAVADI,"NO.135,POONAMALLEE HIGH ROAD,BHUVANA NURSERY AVENUE,VELAPPANCHAVADI CHENNAI 600 077.THIRUVALLUR DIST",0,VELAPPANCHAVADI,THIRUVALLUR,"TAMIL NADU"
"CITY UNION BANK LIMITED",CIUB0000394,600054069,NANJIKOTTAI,"S.F.No. 42/1A, Ground Floor, Bishop Sundaram Complex,Pudukkottai Road,Nanjikottai",9382270145,NANJIKOTTAI,THANJAVUR,"TAMIL NADU"
"CITY UNION BANK LIMITED",CIUB0000393,600054068,BHOPAL,"127,M.P.NAGAR,ZONE 2,BHOPAL,BHOPAL",9301552849,BHOPAL,BHOPAL,"MADHYA PRADESH"
"CITY UNION BANK LIMITED",CIUB0000392,613054008,BATLAGUNDU,"13 1 77 78 MAIN ROAD BATLAGUNDU 624 202 DINDIGUL",9344023577,BATLAGUNDU,DINDIGUL,"TAMIL NADU"
"CITY UNION BANK LIMITED",CIUB0000391,462054001,MARTHANDAM,"PAMMAM MAIN ROAD MARTHANDAM 629 165 KULITHURAI MUNICIPALITY KANYAKUMARI",9382270102,MARTHANDAM,KANYAKUMARI,"TAMIL NADU"
"CITY UNION BANK LIMITED",CIUB0000390,625054015,PERUMBAKKAM,"OLD NO 183 SHOLINGANALLUR MAIN ROAD OPP TO PERUMBAKKAM CHURCH PERUMBAKKAM CHENNAI 600 100",9344023564,PERUMBAKKAM,KANCHEEPURAM,"TAMIL NADU"
"CITY UNION BANK LIMITED",CIUB0000389,629054102,"RED HILLS","291 GNT ROAD RED HILLS CHENNAI 600 052 THIRUVALLUR",9344023567,CHENNAI,THIRUVALLUR,"TAMIL NADU"
"CITY UNION BANK LIMITED",CIUB0000388,600054067,BALOTRA,"WARD NO.2,KHASARA NO.622,KHER ROAD,BALOTRA 344 022 RAJASTHAN STATE",9314906153,BALOTRA,BARMER,RAJASTHAN
"CITY UNION BANK LIMITED",CIUB0000387,600054066,PALI,"PART OF PLOT 3 TO 4,PANCH MUKHA PULIA NH 65,RAILWAY STATION ROAD,PALI 306 401 RAJASTHAN STATE",9352034953,PALI,PALI,RAJASTHAN
"CITY UNION BANK LIMITED",CIUB0000386,344054051,MEHDIPATNAM,"10 3 110,HUMAYUN NAGAR,OPP.SAROJINI DEVI EYE HOSPITAL,MEHDIPATNAM 500 028.ANDHRA PRADESH",9392906472,MEHDIPATNAM,RANGAREDDY,"ANDHRA PRADESH"
"CITY UNION BANK LIMITED",CIUB0000385,306054002,AMRAVATI,"KHATRI CHAMBERS D.NO.344 BY 1,1ST FLOOR,MORSHI ROAD,JAISTHAN CHOWK,AMRAVATI 444601 MAHARASHTRA",9373215468,AMRAVATI,AMRAVATI,MAHARASHTRA
"CITY UNION BANK LIMITED",CIUB0000384,500054012,LUCKNOW,"19 A,HALA COMPLEX,ASHOK MARG,SAPRU MARG,OPP.JAWAGAR BHAWAN LUCKNOW 226 001 UTTAR PRADESH",7499316077,LUCKNOW,LUCKNOW,"UTTAR PRADESH"
"CITY UNION BANK LIMITED",CIUB0000383,444054101,ILLALUR,"104, ILLALUR ROAD, KANAGAPATTU, TIRUPORUR603 110 KANCHEEPURAM",9344023562,TIRUPORUR,KANCHEEPURAM,"TAMIL NADU"
"CITY UNION BANK LIMITED",CIUB0000382,226054002,SITHALAPAKKAM,"1 BY 162, OTTIYAMBAKKAM MAIN ROAD, JAYANAGAR, SITHALAPAKKAM, CHENNAI  600 126 KANCHEEPURAM",9344023560,CHENNAI,KANCHEEPURAM,"TAMIL NADU"
"CITY UNION BANK LIMITED",CIUB0000381,600054065,NUNGAMBAKKAM,"123, VALLUVARKOTTAM HIGH ROAD, NUNGAMBAKKAM, CHENNAI  600 034",9344023559,CHENNAI,CHENNAI,"TAMIL NADU"
"CITY UNION BANK LIMITED",CIUB0000380,600054064,ALAPUZHA,"17 420 NANAS COMPLEX CULLEN ROAD MULLACKAL ALAPUZHA 688 011 ALAPUZHA DIST",9387965422,ALAPUZHA,ALAPUZHA,KERALA
"CITY UNION BANK LIMITED",CIUB0000379,600054063,THRIPUNITHURA,"KANNETH BUILDING NEAR GOVT HOSPITAL THRIPUNITHURA 682 301 ERNAKULAM DIST",9387058561,THRIPUNITHURA,ERNAKULAM,KERALA
"CITY UNION BANK LIMITED",CIUB0000378,688054002,"THIRUNAGAR MADURAI","NO 5,GROUND FLOOR,GST ROAD,THIRUNAGAR 625006 MADURAI DIST",9344023550,MADURAI,MADURAI,"TAMIL NADU"
"CITY UNION BANK LIMITED",CIUB0000377,682054003,AMBASAMUDRAM,"NO 58,SANJEEVI VILAS COMPOUND,THILAGARPURAM MAIN ROAD,AMBASAMUDRAM 627 401 TIRUNELVELI DIST",9344023542,AMBASAMUDRAM,TIRUNELVELI,"TAMIL NADU"
"CITY UNION BANK LIMITED",CIUB0000376,625054014,TENKASI,"DOOR NO 342D,COURTALLAM ROAD,NEAR YANAIPALAM,TENKASI 627 811 TIRUNELVELI DIST",9344023547,TENKASI,TIRUNELVELI,"TAMIL NADU"
"CITY UNION BANK LIMITED",CIUB0000375,627054010,USILAMPATTI,"NO 6A BY 3,PERAIYUR MAIN ROAD,WARD NO 21,USILAMPATTI 625 532 MADURAI DIST",230555,USILAMPATTI,MADURAI,"TAMIL NADU"
"CITY UNION BANK LIMITED",CIUB0000374,627054009,ARUPUKOTTAI,"45,SOUTH STREET,ARUPPUKOTTAI626101 VIRUDHUNAGAR DIST",9344023543,ARUPPUKOTTAI,VIRUDHUNAGAR,"TAMIL NADU"
"CITY UNION BANK LIMITED",CIUB0000373,625054013,AVINASHI,"416 BY 9 MAIN ROAD,OPP OLD BUS STAND,AVINASHI 641 654",9344023554,AVINASHI,TIRUPPUR,"TAMIL NADU"
"CITY UNION BANK LIMITED",CIUB0000372,626054202,BODUPPAL,"MAIN ROADUPPAL BUS DEPOT,NH 202 PEERZADIGUDA,HYDERABAD 500039 RENGAREDDY DIST,AP",9344023602,"BODUPPAL, HYDERABAD",RANGAREDDY,"ANDHRA PRADESH"
"CITY UNION BANK LIMITED",CIUB0000371,641054022,MEERPET,"SURVEY NO 56,GANHDI NAGAR,MEERPET,SAROOR NAGAR,HYDERABAD 500 097 RENGAREDDY,AP",9344023606,"MEERPET, HYDERABAD",RANGAREDDY,"ANDHRA PRADESH"
"CITY UNION BANK LIMITED",CIUB0000370,500054009,MEDCHAL,"RTC COLONY,NEAR MUKUND THEATRE,H 44,MEDCHAL 501401 RENGA REDDY DIST,ANDHRA PRADESH",9344023603,MEDCHAL,RANGAREDDY,"ANDHRA PRADESH"
"CITY UNION BANK LIMITED",CIUB0000369,500054011,KAMAREDDY,"7,HYDERABAD ROAD,NATIONAL HIGHWAY,KAMAREDDY503 111 NIZAMABAD DIST,ANDHRA PRADESH",9344023604,KAMAREDDY,NIZAMABAD,"ANDHRA PRADESH"
"CITY UNION BANK LIMITED",CIUB0000368,500054010,"MINJUR CHENNAI","S NO 213 BY 3,C1J,T H ROAD,MINJUR,PONNERI TK 601203 TIRUVALLUR DIST",9344023541,"PONNERI TK",THIRUVALLUR,"TAMIL NADU"
"CITY UNION BANK LIMITED",CIUB0000367,503054102,"MANGADU CHENNAI","1 BY 2,KUNDRATHUR ROAD,MURUGAN NAGAR,MANGADU,CHENNAI 600122 KANCHEEPURAM DIST",9344023540,CHENNAI,KANCHEEPURAM,"TAMIL NADU"
"CITY UNION BANK LIMITED",CIUB0000366,600054061,KATTUMANNARKOIL,"CHELLAM TOWERS,144 BY 41A,ERATAI STREET,KATTUMANNAR KOVIL608301 CUDDALORE DIST",9344023553,KATTUMANNARKOIL,CUDDALORE,"TAMIL NADU"
"CITY UNION BANK LIMITED",CIUB0000365,600054062,GUMMIDIPOONDI,"NO 267,GNT ROAD,GUMMIDIPOONDI601201 TIRUVALLUR DIST",9344023539,GUMMIDIPOONDI,THIRUVALLUR,"TAMIL NADU"
"CITY UNION BANK LIMITED",CIUB0000364,605054008,DHALAVAIPURAM,"54 C,PUTHUR MAIN ROAD,CHETTIARPATTI DHALAVAIPURAM626188 VIRUDHUNAGAR DIST",9344023546,DHALAVAIPURAM,VIRUDHUNAGAR,"TAMIL NADU"
"CITY UNION BANK LIMITED",CIUB0000363,600054060,CHEYYAR,"6,ARCOT ROAD,SBILIC COMPLEX,CHEYYAR 604 407 TIRUVANNAMALAI DIST",222228,CHEYYAR,TIRUVANNAMALAI,"TAMIL NADU"
"CITY UNION BANK LIMITED",CIUB0000362,626054303,PADAPPAI,"NO 5,NAVASAKTHI NAGAR,PADAPPAI 601 301 KANCHEEPURAM DIST",9344023535,"KANCHEEPURAM DIST",KANCHEEPURAM,"TAMIL NADU"
"CITY UNION BANK LIMITED",CIUB0000361,606054003,PERUNGULATHUR,"46 BY 57,KAMARAJ NEDUNCHALAI,NEW PERUNGALATHUR CHENNAI 600 063 KANCHEEPURAM DIST",9344023536,CHENNAI,KANCHEEPURAM,"TAMIL NADU"
"CITY UNION BANK LIMITED",CIUB0000360,600054059,THIRUVERKADU,"PLOT 14 AND 15,LINGESWAR NAGAR,THIRUVERKADU,CHENNAI 600 077 KANCHEEPURAM DIST",9344023538,CHENNAI,KANCHEEPURAM,"TAMIL NADU"
"CITY UNION BANK LIMITED",CIUB0000359,600054058,AMRITSAR,"NO 3A,LAWRANCE ROAD,AMRITSAR 143 001 PUNJAB",9344023585,AMRITSAR,AMRITSAR,PUNJAB
"CITY UNION BANK LIMITED",CIUB0000358,600054057,CHANDIGARH,"SCO243334,SECTOR 22C,CHANDIGARH 160 022",9344023591,CHANDIGARH,CHANDIGARH,CHANDIGARH
"CITY UNION BANK LIMITED",CIUB0000357,143054002,GURGAON,"SCO 28,SECTOR 14,GURGAON 122 001 HARYANA",9344023592,GURGAON,GURGAON,HARYANA
"CITY UNION BANK LIMITED",CIUB0000356,160054002,"LAJPAT NAGAR NEW DELHI","M17,GROUND FLOOR,LAJPAT NAGAR II,SOUTH DELHI,NEW DELHI 110 024",9344023594,"NEW DELHI",DELHI,DELHI
"CITY UNION BANK LIMITED",CIUB0000355,110054006,"MAYUR VIHAR NEW DELHI","DOOR NO C15,ACHARYA NIKETAN,MAYUR VIHAR PHASE I NEW DELHI 110 091",9344023593,"NEW DELHI",DELHI,DELHI
"CITY UNION BANK LIMITED",CIUB0000354,110054008,PEENYA,"DOOR NO 252,SUREKA COMPLEX,100 FEET ROAD,NEAR JALAHALLI CROSS,PEENYA BANGALORE 560 057",9343239877,BENGALURU,"BENGALURU RURAL",KARNATAKA
"CITY UNION BANK LIMITED",CIUB0000353,110054007,TIRUPATI,"TIRUMALA BYPASS ROAD,NEAR LEELA MAHAL JUNCTION,TIRUPATI 517 501 CHITTOOR DIST",9391002968,TIRUPATI,CHITTOOR,"ANDHRA PRADESH"
"CITY UNION BANK LIMITED",CIUB0000352,560054016,GUDUR,"8 BY 202 HOSPITAL ROAD,OPP SANGAM THEATRE,MITTA PALEM,GUDUR524101 NELLORE DIST",9393561937,GUDUR,NELLORE,"ANDHRA PRADESH"
"CITY UNION BANK LIMITED",CIUB0000351,517054002,CHILAKALURIPET,"7376 BY 1,GANDHIPETTA,OPP TO INDIAN BANK,N R T CENTER,CHILAKALURIPET 522 616 GUNTUR DIST",9398314148,CHILAKALURIPET,GUNTUR,"ANDHRA PRADESH"
"CITY UNION BANK LIMITED",CIUB0000350,524054102,NARASARAOPET,"D NO 9747,BANK STREET,ARUNDELPET,NARASARAOPET 522 601 GUNTUR DIST",9393824509,NARASARAOPET,GUNTUR,"ANDHRA PRADESH"
"CITY UNION BANK LIMITED",CIUB0000349,522054402,PULIYANGUDI,"158C,GROUND FLOOR,MAIN ROAD,NEAR BSNL OFFICE,PULIANGUDI 627 855 TIRUNELVELI DIST",9344023549,PULIANGUDI,TIRUNELVELI,"TAMIL NADU"
"CITY UNION BANK LIMITED",CIUB0000348,520054602,SANKARANKOIL,"NO 6,SOUTH CAR STREET,SANKARANKOIL 627 756 TIRUNELVELI DIST",9344085040,SANKARANKOIL,TIRUNELVELI,"TAMIL NADU"
"CITY UNION BANK LIMITED",CIUB0000347,627054008,CUMBUM,"WARD NO 21,D NO 79,79A,VELAPPAR KOIL STREET,CUMBUM 625 516 THENI DIST",9344085039,CUMBUM,THENI,"TAMIL NADU"
"CITY UNION BANK LIMITED",CIUB0000346,627054007,BODINAYAKANUR,"NEAR LIC OFFICE,THEVARAM ROAD,BODINAYAKANUR 625 513 THENI DIST",9344085038,BODINAYAKANUR,THENI,"TAMIL NADU"
"CITY UNION BANK LIMITED",CIUB0000345,625054012,PANNIMADAI,"ALIPRI COMPLEX,GROUND FLOOR,S F NO 55 BY 1,PANNIMADAI MAIN ROAD,COIMBATORE 641 017",9344085036,PANNIMADAI,COIMBATORE,"TAMIL NADU"
"CITY UNION BANK LIMITED",CIUB0000344,625054302,"PERIYANAIKEN PALAYAM","S F NO 319 BY 1E,METTUPALAYAM MAIN RD,OPP TO PRICOL,PERIYANAIKENPALAYAM,COIMBATORE 641 020",9344085037,PERIYANAIKENPALAYAM,COIMBATORE,"TAMIL NADU"
"CITY UNION BANK LIMITED",CIUB0000343,641054021,TANUKU,"D NO 1858,9 AND 10,RASHTRAPATHI ROAD,TANUKU 534 211 WEST GODAVARI DIST",9390545673,TANUKU,"WEST GODAVARI","ANDHRA PRADESH"
"CITY UNION BANK LIMITED",CIUB0000342,641054020,ANAKAPALLI,"DOOR NO 12141,RAMACHANDRA COMPLEX,OPP NTR STADIUM,ANAKAPALLI 531 001 VISAKHAPATNAM DIST",9392607769,ANAKAPALLI,VISHAKHAPATNAM,"ANDHRA PRADESH"
"CITY UNION BANK LIMITED",CIUB0000341,534054202,ADILABAD,"DOOR NO 4375 BY 2,HAMEEDPURA,NEAR NETAJI CHOWK,ADILABAD 504 001,ADILABAD DIST",9391729543,ADILABAD,ADILABAD,"ANDHRA PRADESH"
"CITY UNION BANK LIMITED",CIUB0000340,530054002,ADONI,"SY NO 79 BY 1A,ESI HOSPITAL ROAD,BEHIND NTR STATUE,ADONI 518 301 KURNOOL DIST",9393098158,ADONI,KURNOOL,"ANDHRA PRADESH"
"CITY UNION BANK LIMITED",CIUB0000339,504054002,ABIRAMAPURAM,"63A,C P RAMASWAMI ROAD,ABIRAMAPURAM ALWARPET,CHENNAI 600 018",9344085035,CHENNAI,CHENNAI,"TAMIL NADU"
"CITY UNION BANK LIMITED",CIUB0000338,518054202,MANAPAKKAM,"NO 1 BY 100,MANAPAKKAM MAIN ROAD,MANAPAKKAM,CHENNAI 600 125",9344085034,CHENNAI,CHENNAI,"TAMIL NADU"
"CITY UNION BANK LIMITED",CIUB0000337,600054056,URAPAKKAM,"145,GST ROAD,URAPAKKAM 603 202 KANCHEEPURAM",9344085031,CHENNAI,KANCHEEPURAM,"TAMIL NADU"
"CITY UNION BANK LIMITED",CIUB0000336,600054055,GUDUVANCHERY,"5,SRINIVASAPURAM,NANDHIVARAM,GUDUVANCHERY 603202 KANCHEEPURAM",9344085033,GUDUVANCHERY,KANCHEEPURAM,"TAMIL NADU"
"CITY UNION BANK LIMITED",CIUB0000335,600054054,PANRUTI,"NO 9,R C COMPLEX,KUMBAKONAM ROAD,PANRUTI607106 CUDDALORE",9344085030,PANRUTI,CUDDALORE,"TAMIL NADU"
"CITY UNION BANK LIMITED",CIUB0000334,600054053,DODDABALLAPUR,"1108 BY 1116 BY 925,HUNGI,COMPLEX,CINEMA STREET,DODDABALLAPUR 561 203 BANGALORE",27622082,DODDABALLAPUR,"BENGALURU URBAN",KARNATAKA
"CITY UNION BANK LIMITED",CIUB0000333,607054206,BOMMASANDRA,"NO 17,5TH CROSS,VIDYANAGAR,NEXT TO LARK HOTEL,HOSUR ROAD,BOMMASANDRA 560 099",27833200,BENGALURU,"BENGALURU RURAL",KARNATAKA
"CITY UNION BANK LIMITED",CIUB0000332,560054015,"TRICHY K K NAGAR","PLOT NO.379,RAJARAM SALAI,K.K.NAGAR,TRICHY",2456466,TRICHY,TIRUCHIRAPALLI,"TAMIL NADU"
"CITY UNION BANK LIMITED",CIUB0000331,560054014,MUSIRI,"PLOT NO.397,SALEM BYE PASS ROAD,NEAR NEW BUS STAND,MUSIRI",260090,MUSIRI,TIRUCHIRAPALLI,"TAMIL NADU"
"CITY UNION BANK LIMITED",CIUB0000330,620054012,KAVALI,"D.NO.10 15 39A,GROUND FLOOR,G.T.ROAD,NEAR R.D.O.OFFICE,KAVALI",242434,KAVALI,NELLORE,"ANDHRA PRADESH"
"CITY UNION BANK LIMITED",CIUB0000329,620054011,CHIRALA,"14 21 85,DHARBAV ROAD,OPP.STATE BANK OF INDIA,CHIRALA",238883,CHIRALA,PRAKASAM,"ANDHRA PRADESH"
"CITY UNION BANK LIMITED",CIUB0000328,524054202,SRIVILLIPUTHUR,"144 BY 2,SOUTH CAR STREET,SRIVILLIPUTHUR",262777,SRIVILLIPUTHUR,VIRUDHUNAGAR,"TAMIL NADU"
"CITY UNION BANK LIMITED",CIUB0000327,523054102,OTHAKADAI,"2 BY 109,MELUR MAIN ROAD,OTHAKADAI",9344023528,MADURAI,MADURAI,"TAMIL NADU"
"CITY UNION BANK LIMITED",CIUB0000326,626054505,ANAKAPUTHUR,"S NO 168 BY 3 D,KAMARAJAR SALAI,ANAKAPUTHUR",22483667,CHENNAI,KANCHEEPURAM,"TAMIL NADU"
"CITY UNION BANK LIMITED",CIUB0000325,625054011,SARAVANAMPATTI,"227 A,SATHY ROAD,SARAVANAMPATTI",9344023526,COIMBATORE,COIMBATORE,"TAMIL NADU"
"CITY UNION BANK LIMITED",CIUB0000324,600054052,KARAMADAI,"21 BY 23 1,SOUTH CAR STREET,KARAMADAI",9344023525,COIMBATORE,COIMBATORE,"TAMIL NADU"
"CITY UNION BANK LIMITED",CIUB0000323,641054019,TIRUPATHUR,"KAP TIRUNATHAR NAGAR,TIRUPATHUR",9344023524,TIRUPATHUR,VELLORE,"TAMIL NADU"
"CITY UNION BANK LIMITED",CIUB0000322,641054018,AMALAPURAM,"D NO 3 1 141,OPP HEAD POSTOFFICE,K AGRAHARAM,",9395361234,AMALAPURAM,"EAST GODAVARI","ANDHRA PRADESH"
"CITY UNION BANK LIMITED",CIUB0000321,635054102,PALANI,"72 A PALANI DINDIGUL MAIN ROAD,NEAR KV HOSPITAL,PALANI 624 601.DINDIGUL DIST",9344023519,PALANI,DINDIGUL,"TAMIL NADU"
"CITY UNION BANK LIMITED",CIUB0000320,533054302,ODDANCHATRAM,"DINDIGUL PALANI MAIN ROAD,NEAR GANDHI MARKET,OPP.TO BUS STAND,ODDANCHATRAM 624 619 DINDIGUL DIST",9344023518,ODDANCHATRAM,DINDIGUL,"TAMIL NADU"
"CITY UNION BANK LIMITED",CIUB0000319,624054104,KARAPAKKAM,"NO 1 BY 14,OMR ROAD,KARAPAKKAM,CHENNAI 600 097 KANCHEEPURAM DIST",24500116,CHENNAI,KANCHEEPURAM,"TAMIL NADU"
"CITY UNION BANK LIMITED",CIUB0000318,625054010,BANASWADI,"NO 6 GANESH CHAMBERS DODDA BANASWADI MAIN ROAD,BANASWADI,BANGALORE",9342448522,BENGALURU,"BENGALURU URBAN",KARNATAKA
"CITY UNION BANK LIMITED",CIUB0000317,600054051,TIRUVOTTIYUR,"NEW NO 645,OLD NO 336,T H ROAD,TIRUVOTTIYUR,CHENNAI 600 019",9344023516,CHENNAI,THIRUVALLUR,"TAMIL NADU"
"CITY UNION BANK LIMITED",CIUB0000316,560054013,MELVISHARAM,"C ABDUL HAKEEM COLLEGE OF ENGINEERING AND TECHNOLOGY,HAKEEM NAGAR,MELVISHARAM 632 509,VELLORE DIST",9344023517,VELLORE,VELLORE,"TAMIL NADU"
"CITY UNION BANK LIMITED",CIUB0000315,600054050,KOTTIVAKKAM,"OLD NO 1 BY 161,NEW NO 1 BY 618,EAST COAST ROAD,KOTTIVAKKAM,CHENNAI 600 041",24481557,CHENNAI,KANCHEEPURAM,"TAMIL NADU"
"CITY UNION BANK LIMITED",CIUB0000314,632054005,IDAPPADI,"NO 2,BAZAAR STREET,IDAPPADI 637 101 SALEM DIST",2223456,IDAPPADI,SALEM,"TAMIL NADU"
"CITY UNION BANK LIMITED",CIUB0000313,600054049,MADHAVARAM,"MADHAVARAM RED HILLS HIGH ROAD,BAZAAR STREET,MADHAVARAM,CHENNAI 600060 TIRUVALLUR DIST",2532992,CHENNAI,THIRUVALLUR,"TAMIL NADU"
"CITY UNION BANK LIMITED",CIUB0000312,636054010,KUNDRATHUR,"NO 16,THULUKA STREET,KUNDRATHUR,CHENNAI 600 069 KANCHEEPURAM DIST",9344023512,CHENNAI,KANCHEEPURAM,"TAMIL NADU"
"CITY UNION BANK LIMITED",CIUB0000311,600054048,SINGANALLUR,"NO.548 BY 1,TRICHY ROAD,NEAR AMBAL THEATRE,SINGANALLUR,COIMBATORE",9380351730,COIMBATORE,COIMBATORE,"TAMIL NADU"
"CITY UNION BANK LIMITED",CIUB0000310,600054047,NANMANGALAM,"1 BY 92A,GROUND FLOOR,MEDAVAKKAM MAIN ROAD",9382270055,CHENNAI,KANCHEEPURAM,"TAMIL NADU"
"CITY UNION BANK LIMITED",CIUB0000309,641054017,POLICHALUR,"PLOT NO.13,NEHRU NAGAR,POLICHALUR MAIN ROAD",9382270066,CHENNAI,KANCHEEPURAM,"TAMIL NADU"
"CITY UNION BANK LIMITED",CIUB0000308,600054044,SEMMANJERI,"3,OMR ROAD,SEMMENJERI",9382267678,CHENNAI,KANCHEEPURAM,"TAMIL NADU"
"CITY UNION BANK LIMITED",CIUB0000307,600054043,JALLADIAMPET,"1 BY 27,RICE MILL ROAD,JALLADIAMPET",9382270025,CHENNAI,KANCHEEPURAM,"TAMIL NADU"
"CITY UNION BANK LIMITED",CIUB0000306,600054046,SURAMPATTI,"NO 311,SKC ROAD,SURAMPATTI,ERODE",2273400,SURAMPATTI,ERODE,"TAMIL NADU"
"CITY UNION BANK LIMITED",CIUB0000305,600054045,MEDAVAKKAM,"9BY959,TAMBARAM VELACHERY MAIN ROAD,MEDAVAKKAM,CHENNAI",22771898,CHENNAI,KANCHEEPURAM,"TAMIL NADU"
"CITY UNION BANK LIMITED",CIUB0000304,638054011,GIRUGAMBAKKAM,"453BY1,KUNDRATHUR MAIN ROAD,GERUGAMBAKKAM,CHENNAI",9380351758,CHENNAI,KANCHEEPURAM,"TAMIL NADU"
"CITY UNION BANK LIMITED",CIUB0000303,600054042,PALAVATHANKATTALAI,"530,KARAIKKAL MAIN ROAD,PALAVATHANKATTALAI 612401",9382270306,KUMBAKONAM,THANJAVUR,"TAMIL NADU"
"CITY UNION BANK LIMITED",CIUB0000302,600054041,METTUPALAYAM,"20,PRASAD COMPLEX,RAILWAY STATION ROAD,METTUPALAYAM 641301",9382270627,METTUPALAYAM,COIMBATORE,"TAMIL NADU"
"CITY UNION BANK LIMITED",CIUB0000301,612054015,KOOTHANALLUR,"A R ROAD,NEAR MUNICIPALITYOFFICE,KOOTHANALLUR 614101",9380350731,KOOTHANALLUR,TIRUVARUR,"TAMIL NADU"
"CITY UNION BANK LIMITED",CIUB0000300,614054016,AYYAPPANTHANGAL,"D NO 1,RAMACHANDRA NAGAR,CHENNAI 600056",24765445,CHENNAI,KANCHEEPURAM,"TAMIL NADU"
"CITY UNION BANK LIMITED",CIUB0000299,614054006,VIRUDHACHALAM,"NO 701,JUNCTION ROAD,VIRUDHACHALAM 606001",9382267228,VIRUDHACHALAM,CUDDALORE,"TAMIL NADU"
"CITY UNION BANK LIMITED",CIUB0000298,600054038,TIRUNAGESWARAM,"15,NORTH STREET,THIRUNAGESWARAM 612204",2463678,THIRUNAGESWARAM,THANJAVUR,"TAMIL NADU"
"CITY UNION BANK LIMITED",CIUB0000297,606054202,TINDIVANAM,"NO 203,JAWAHARLAL NEHRU STREET,TINDIVANAM 604001",9382267333,TINDIVANAM,VILLUPURAM,"TAMIL NADU"
"CITY UNION BANK LIMITED",CIUB0000296,612054016,MUDICHUR,"NO 51,HABIBULLAH NAGAR,MUDICHUR,CHENNAI 600068",22760532,CHENNAI,KANCHEEPURAM,"TAMIL NADU"
"CITY UNION BANK LIMITED",CIUB0000295,605054007,CHITLAPAKKAM,"23A,GANDHI STREET,CHITLAPAKKAM,CHENNAI 600064",9380350736,CHENNAI,KANCHEEPURAM,"TAMIL NADU"
"CITY UNION BANK LIMITED",CIUB0000294,600054039,SATHUVACHERI,"631,PHASE II,SATHUVACHARI",2258999,VELLORE,VELLORE,"TAMIL NADU"
"CITY UNION BANK LIMITED",CIUB0000293,600054040,KATPADI,"VIT UNIVERSITY CAMPUS,KATPADI",2242344,VELLORE,VELLORE,"TAMIL NADU"
"CITY UNION BANK LIMITED",CIUB0000292,632054003,MANJAKKUDI,"OLD NO.222,AGRAHARAM,MANJAKKUDI 612610",262426,TIRUVARUR,TIRUVARUR,"TAMIL NADU"
"CITY UNION BANK LIMITED",CIUB0000291,632054004,MADUKKUR,"373BY4,MAS CITY TOWER,PATTUKOTTAI MANNARGUDI MAIN ROAD,MADUKKUR 614903",260026,MADUKKUR,THANJAVUR,"TAMIL NADU"
"CITY UNION BANK LIMITED",CIUB0000290,610054009,SAKKOTTAI,"5BY33,NEEDAMANGALAM MAIN ROAD,SAKKOTTAI PO,KUMBAKONAM 612401",9380351780,KUMBAKONAM,THANJAVUR,"TAMIL NADU"
"CITY UNION BANK LIMITED",CIUB0000289,614054104,SULUR,"3BY17C,TRICHY ROAD,SULUR 641402",2687007,SULUR,COIMBATORE,"TAMIL NADU"
"CITY UNION BANK LIMITED",CIUB0000288,612054014,BHUBANESWAR,"777,SAHEED NAGAR,BHUBANESWAR 751 007,ORISSA",2548430,BHUBANESWAR,KHURDA,ODISHA
"CITY UNION BANK LIMITED",CIUB0000287,641054015,RAIPUR,"ANAND TALKIES ROAD,BACK SIDE OF SBI MAIN BRANCH,JAISTAMB CHOWK,RAIPUR 492 001",2221963,RAIPUR,RAIPUR,CHANDIGARH
"CITY UNION BANK LIMITED",CIUB0000286,751054002,SELAIYUR,"NO.1,MADAMPAKKAM MAIN,ROAD,RAJAKILPAKKAM,SELAIYUR,CHENNAI 600 073",22282090,CHENNAI,KANCHEEPURAM,"TAMIL NADU"
"CITY UNION BANK LIMITED",CIUB0000285,492054002,POONAMALLEE,"OLD NO.776,NEW NO.70,TRUNK ROAD,POONAMALLEE,CHENNAI 600 056",26491235,CHENNAI,THIRUVALLUR,"TAMIL NADU"
"CITY UNION BANK LIMITED",CIUB0000284,600054037,NEYVELI,"13 A BY 1,40 FEET ROAD,GANDHIGRAMAM,GANDHI NAGAR POST,NEYVELI 607 308",251177,NEYVELI,CUDDALORE,"TAMIL NADU"
"CITY UNION BANK LIMITED",CIUB0000283,600054036,"MADURAI VILAKKUTHOON","168 A,EAST VELI STREET,VILAKKUTHOON,MADURAI 625 001",2330058,MADURAI,MADURAI,"TAMIL NADU"
"CITY UNION BANK LIMITED",CIUB0000282,607054102,"COIMBATORE PERUR","D.NO.3 BY 14 F TO 3 BY 14J,SIRUVANI MAIN ROAD,PERUR 641 010",2606680,COIMBATORE,COIMBATORE,"TAMIL NADU"
"CITY UNION BANK LIMITED",CIUB0000281,625054009,"MUMBAI CHEMBUR","349 A,S 1,SILVANTO,CENTRAL AVENUE ROAD,CHEMBUR,MUMBAI 400 071",25291075,MUMBAI,MUMBAI,MAHARASHTRA
"CITY UNION BANK LIMITED",CIUB0000280,641054014,"KUMBAKONAM DHARASURAM","42 BY 2,THANJAVUR MAIN ROAD,DHARASURAM 612 702",2416161,DHARASURAM,THANJAVUR,"TAMIL NADU"
"CITY UNION BANK LIMITED",CIUB0000279,400054011,"CHENNAI MYLAPORE","OLD NO.18 19,NEW NO.29,EAST MADA STREET,MYLAPORE,CHENNAI 600 004",24629353,CHENNAI,CHENNAI,"TAMIL NADU"
"CITY UNION BANK LIMITED",CIUB0000278,612054013,NAGORE,"NO 598,NAGAI MAIN ROAD,NAGORE 611 002",251852,NAGORE,NAGAPATTINAM,"TAMIL NADU"
"CITY UNION BANK LIMITED",CIUB0000277,600054035,"NERUL E NAVI MUMBAI","SHOP NO G 26B AND C HARDWARES,CENTURIAN,PLOT 88 BY 91,SECTOR 19A,NERUL E 400 706,NAVI MUMBAI",27703388,"NAVI MUMBAI",THANE,MAHARASHTRA
"CITY UNION BANK LIMITED",CIUB0000276,611054005,KEELAKARAI,"WARD NO OLD 1,NEW 21,NEAR CSI CHURCH,KONTHAKARUNAI APPA DARGAH VIA,KEELAKARAI 623 517",242010,KEELAKARAI,RAMANATHAPURAM,"TAMIL NADU"
"CITY UNION BANK LIMITED",CIUB0000275,400054010,VALLAM,"506 BY 11,DESIGA VINAYAGAR KOIL ST,VALLAM 613 403 THANJAVUR",266456,VALLAM,THANJAVUR,"TAMIL NADU"
"CITY UNION BANK LIMITED",CIUB0000274,623054003,VADAVALLI,"DOOR NO 3,SELVAM NAGAR,NEAR KARUPPARAYANKOIL,VADAVALLI,COIMBATORE 641 041",2423336,COIMBATORE,COIMBATORE,"TAMIL NADU"
"CITY UNION BANK LIMITED",CIUB0000273,613054007,THIRUMANGALAM,"1 3,CHRISTIAMANGALAM STREET,MADURAI ROAD,THIRUMANGALAM 625 706,MADURAI",282826,THIRUMANGALAM,MADURAI,"TAMIL NADU"
"CITY UNION BANK LIMITED",CIUB0000272,641054013,"THANJAVUR MEDICAL COLLEGE ROAD","SINDU COMPLEX,115,MEDICAL,COLLEGE ROAD,KENNEDY SQUARE,THANJAVUR 613 007",242999,THANJAVUR,THANJAVUR,"TAMIL NADU"
"CITY UNION BANK LIMITED",CIUB0000271,625054008,"SINGAPERUMAL KOIL","No.5/224, G.S.T.Road,Vinjiyambakkam,Singaperumalkoil,KANCHEEPURAM",27463995,CHENGALPAT,KANCHEEPURAM,"TAMIL NADU"
"CITY UNION BANK LIMITED",CIUB0000270,613054006,"MUMBAI KALYAN","RAMAKRISHNA,NAGAR NEAR OLD POORNIMA THEATRE,MURBAD ROAD,KALYAN WEST 421304,THANE,MAHARASTRA",2203222,MUMBAI,THANE,MAHARASHTRA
"CITY UNION BANK LIMITED",CIUB0000269,600054034,"MUMBAI ANDHERI EAST","MITTAL INDUSTRIAL ESTATE,SAKINAKA KURLA ANDHERI ROAD,ANDHERI EAST,MUMBAI 400059,MAHARASTRA",28599464,MUMBAI,MUMBAI,MAHARASHTRA
"CITY UNION BANK LIMITED",CIUB0000268,400054009,"MADURAI TVS NAGAR","OLD NO 9,NEW NO A 32,LAKSHMI STREET,NEAR TVS SCHOOLTVS NAGAR,MADURAI 625 003",2695500,MADURAI,MADURAI,"TAMIL NADU"
"CITY UNION BANK LIMITED",CIUB0000267,400054008,KADAYANALLUR,"264/A, Road No.11, Madurai Road,Krishnapuram,TIRUNELVELI",240550,KADAYANALLUR,TIRUNELVELI,"TAMIL NADU"
"CITY UNION BANK LIMITED",CIUB0000266,625054007,AVADI,"NO 246,NEW MILITARY ROAD,AVADI,CHENNAI 600 054",26558440,CHENNAI,THIRUVALLUR,"TAMIL NADU"
"CITY UNION BANK LIMITED",CIUB0000265,627054006,KHAMMAM,"1 7 64,64 BY 1,65,65 BY 1,TRUNK ROAD,KHAMMAM 507 003,ANDHRA PRADESH",238223,KHAMMAM,KHAMMAM,"ANDHRA PRADESH"
"CITY UNION BANK LIMITED",CIUB0000264,600054033,"HYDERABAD SIDDIAMBER BAZAAR","SHIKA ENCLAVE,1ST FLOOR,15 1 515 TO 521 AND 539,SIDDIAMBER BAZAAR,HYDERABAD 500 012,ANDHRA PRADESH",24730225,HYDERABAD,HYDERABAD,"ANDHRA PRADESH"
"CITY UNION BANK LIMITED",CIUB0000263,507054002,"THILLAI NAGAR","C 28,11TH CROSS,THILLAI NAGAR,TIRICHIRAPALLI 620 018",2742717,TIRUCHIRAPALLI,TIRUCHIRAPALLI,"TAMIL NADU"
"CITY UNION BANK LIMITED",CIUB0000262,500054008,VELACHERRY,"NO 1,ORANDIAMMAN KOIL STREET,VELACHERRY,CHENNAI 600 042",22550919,CHENNAI,CHENNAI,"TAMIL NADU"
"CITY UNION BANK LIMITED",CIUB0000261,620054010,PERAMBUR,"56 BY 127,MADAVARAM MAIN ROAD,PERAMBUR,CHENNAI 600 011",25517909,CHENNAI,CHENNAI,"TAMIL NADU"
"CITY UNION BANK LIMITED",CIUB0000260,600054032,AMBATTUR,"18 BY 6,MOUNASAMY MADAM STREET,AMBATTUR,CHENNAI 600 053",26575151,CHENNAI,THIRUVALLUR,"TAMIL NADU"
"CITY UNION BANK LIMITED",CIUB0000259,600054031,RANIPET,"DOOR NO 27A,M B T ROAD,RANIPET 632 402",272255,RANIPET,VELLORE,"TAMIL NADU"
"CITY UNION BANK LIMITED",CIUB0000258,600054030,VARANASI,"DOOR NO 35 BY 91 A,92,92A,JANGAMBARI ROAD,GODOWLIA,VARANASI 221 001",2450441,VARANASI,VARANASI,"UTTAR PRADESH"
"CITY UNION BANK LIMITED",CIUB0000257,632054102,THIRUTHURAIPOONDI,"DOOR NO 1 BY D,NORTH STREET,NAGAI ROAD,THIRUTHURAIPOONDI 614 713",221177,THIRUTHURAIPOONDI,TIRUVARUR,"TAMIL NADU"
"CITY UNION BANK LIMITED",CIUB0000256,221054002,NIZAMABAD,"NIZAMABAD NO 1 13 395 BY 4,VINAYAK NAGAR,HYDERABAD ROAD 503003",234100,NIZAMABAD,NIZAMABAD,"ANDHRA PRADESH"
"CITY UNION BANK LIMITED",CIUB0000255,614054202,PAMMAL,"NO 20,PAMMAL MAIN ROAD,MUTHAMIZH NAGAR,CHENNAI 600075",22486767,CHENNAI,CHENNAI,"TAMIL NADU"
"CITY UNION BANK LIMITED",CIUB0000254,503054002,VELLAKOVIL,"NO 210 BY D,MUTHAIAH TOWERS,MUTHUR ROAD,VELLAKOVIL,638 111",261561,VELLAKOVIL,TIRUPPUR,"TAMIL NADU"
"CITY UNION BANK LIMITED",CIUB0000253,600054029,"CHANDINI CHOWK","284,285 FATEH PURI,DELHI 110006",23929803,DELHI,DELHI,DELHI
"CITY UNION BANK LIMITED",CIUB0000252,638054010,ARANI,"NO 30,THATCHUR MAIN ROAD,KOSAPALAYAM",225775,ARANI,TIRUVANNAMALAI,"TAMIL NADU"
"CITY UNION BANK LIMITED",CIUB0000251,110054005,RENGARAJAPURAM,"99 BY 1,VISWANATHAPURAM MAIN ROAD,RENGARAJAPURAM,CHENNAI 600024",24844344,CHENNAI,CHENNAI,"TAMIL NADU"
"CITY UNION BANK LIMITED",CIUB0000250,632054202,BELLARY,"Bhushan Bhavana, T.S No.238/2A AND 28/1A,BALLARY - Bengaluru Road, Opp.KSRTC Bus stand,BALLARY",270199,BELLARY,BELLARY,KARNATAKA
"CITY UNION BANK LIMITED",CIUB0000249,600054028,BHAVANI,"176 178,BHAVANI MAIN ROAD,BHAVANI 638301",232033,BHAVAI,ERODE,"TAMIL NADU"
"CITY UNION BANK LIMITED",CIUB0000248,583054102,KALLAKURICHI,"SALEM MAIN ROAD,NEAR GOVINDARAJANTHEATREKALLAKURICHI 606202",224020,KALLAKURICHI,VILLUPURAM,"TAMIL NADU"
"CITY UNION BANK LIMITED",CIUB0000247,638054009,GUDIYATHAM,"NO 7,CONGRESS HOUSEROAD,PUDUPET,GUDIYATHAM 632602",223200,GUDIYATHAM,VELLORE,"TAMIL NADU"
"CITY UNION BANK LIMITED",CIUB0000246,606054102,MADURAVAYAL,"K R M TOWERS,4 A,PALLADAM NAGAR MAIN ROAD,SINGARAVELAN NAGAR,CHENNAI 600095",23781805,MADURAVOYAL,THIRUVALLUR,"TAMIL NADU"
"CITY UNION BANK LIMITED",CIUB0000245,632054302,JALANDHAR,"ES 245,JULKA ARCADE,NAKODAR ROAD,144001",2221046,JALANDHAR,JALANDHAR,PUNJAB
"CITY UNION BANK LIMITED",CIUB0000244,600054027,"ROHINI NEW DELHI","C 9 BY 123,SECTOR D,ROHINI,NEW DELHI 110085",27941336,DELHI,DELHI,DELHI
"CITY UNION BANK LIMITED",CIUB0000243,144054002,THIRUVALLUR,"14,J N ROAD,OPP TO REVENUEDIVISIONAL OFFICE",27666636,THIRUVALLUR,THIRUVALLUR,"TAMIL NADU"
"CITY UNION BANK LIMITED",CIUB0000242,110054004,MANALI,"Door.No.60, Parthasarathy Street,Chinnasekkadu,THIRUVALLUR",25940404,MANALI,THIRUVALLUR,"TAMIL NADU"
"CITY UNION BANK LIMITED",CIUB0000241,600054026,PERUNDURAI,"S.F.NO.823 BY 11,R.S.ROAD,OPP. TO GOVT.HOSPITAL",225233,PERUNDURAI,ERODE,"TAMIL NADU"
"CITY UNION BANK LIMITED",CIUB0000240,600054025,"KARIM NAGAR","2 BY 3 BY 184,KAMAN ROAD",2249990,"KARIM NAGAR","KARIM NAGAR","ANDHRA PRADESH"
"CITY UNION BANK LIMITED",CIUB0000239,638054008,CHITTOOR,"JAIL KHANNA STREET,NAIDU BUILDING,CHITTOOR 517 001",220022,CHITTOOR,CHITTOOR,"ANDHRA PRADESH"
"CITY UNION BANK LIMITED",CIUB0000238,505054002,ATTUR,"RAJKRISHNA RESIDENCY,664 BY 19,KAMARAJANAR ROAD,ATTUR 636 102",250733,SALEM,SALEM,"TAMIL NADU"
"CITY UNION BANK LIMITED",CIUB0000237,517054102,YELAHANKA,"NO 324,3RD A CROSS FIRST PHASE,YELAHANKA NEW TOWN,BANGALURU 560 106",28463272,BENGALURU,"BENGALURU RURAL",KARNATAKA
"CITY UNION BANK LIMITED",CIUB0000236,636054009,"J P NAGAR","DOOR NO 253,24TH MAIN,16TH CROSS,5TH PHASE,J P NAGAR,BANGALURU 560078",26581910,BENGALURU,"BENGALURU RURAL",KARNATAKA
"CITY UNION BANK LIMITED",CIUB0000235,560054012,SHEVAPET,"273,275,277,NAVALAR NEDUNCHEZIANSALAI,FORT MAIN ROAD,SHEVAPET,SALEM 636002",2223022,SALEM,SALEM,"TAMIL NADU"
"CITY UNION BANK LIMITED",CIUB0000234,560054009,"WHITE FIELD","295,MAIN ROAD,OPP MAYURA BAKERY,WHITE FIELD,BANGALORE,560066",28454282,BENGALURU,"BENGALURU URBAN",KARNATAKA
"CITY UNION BANK LIMITED",CIUB0000233,636054006,VIJAYNAGAR,"NO 23 BY 1,17TH CROSS,M C LAYOUT,NEAR MARUTHI MANDIR,VIJAYNAGAR,BANGALORE,560040",23504001,BENGALURU,"BENGALURU RURAL",KARNATAKA
"CITY UNION BANK LIMITED",CIUB0000232,560054011,JALAKANTAPURAM,"2 1 22 BY 1,THARAMANGALAM MAIN ROAD,JALAKANDAPURAM METTUR 636501",260678,METTUR,SALEM,"TAMIL NADU"
"CITY UNION BANK LIMITED",CIUB0000231,560054010,DHARMAPURI,"DOOR NO.14Q AND 14R,NETHAJI BYE PASS ROAD,DHARMAPURI 636 701",264477,DHARMAOURI,DHARMAPURI,"TAMIL NADU"
"CITY UNION BANK LIMITED",CIUB0000230,636054007,PALAYAMKOTTAI,"JESUS PLAZA,250,TIRUCHENDUR ROAD,MURUGAN KURICHI,PALAYAMKOTTAI 627002",2585700,TIRUNELVELI,TIRUNELVELI,"TAMIL NADU"
"CITY UNION BANK LIMITED",CIUB0000229,636054102,VEDARANYAM,"NO.4,NORTH STREET,VEDARANYAM 614810",252225,VEDARANYAM,NAGAPATTINAM,"TAMIL NADU"
"CITY UNION BANK LIMITED",CIUB0000228,627054005,ARAKKONAM,"NO.67 BY 189,GANTHI ROAD,SUVALPET,ARAKKONAM 631003",236283,ARAKKONAM,VELLORE,"TAMIL NADU"
"CITY UNION BANK LIMITED",CIUB0000227,NA,VEERAPANDY,"USHA COMPLEX,4 BY 9,PALLADAM ROAD,VEERAPANDY 641605,",2216124,TIRUPPUR,SALEM,"TAMIL NADU"
"CITY UNION BANK LIMITED",CIUB0000226,631054102,KULASEKARAM,"VPM HOSPITAL COMPLEX,SRI MOOGAMBIGAI MEDICAL COLLEGE CAMPUS,PADANILAM,KULASEKARAM 629161.",277737,KULASEKARAM,KANYAKUMARI,"TAMIL NADU"
"CITY UNION BANK LIMITED",CIUB0000225,641054105,"SURAT II","MEGH MAYUR PLAZA,NEAR RATAN BAUG,OPP TO JANIPARSAN MART,PARLE POINT SURAT 395007",2253914,SURAT,SURAT,GUJARAT
"CITY UNION BANK LIMITED",CIUB0000224,NA,BHAVNAGAR,"NO 1 AND 2 EVA,OPP GULISTA GROUND,WAGAHWADI ROAD,BHAVNAGAR 364001",2560113,BHAVNAGAR,BHAVNAGAR,GUJARAT
"CITY UNION BANK LIMITED",CIUB0000223,395054003,DOMBIVILI,"BUILDING NO 9,ELLORA COMPLEX 2,COOP HSG SOCIETY LTD,GHANSHYAM GUPTE ROAD,DOMBIVILI WEST 421201",2485680,"DOMBIVILI (WEST)",THANE,MAHARASHTRA
"CITY UNION BANK LIMITED",CIUB0000222,364054002,BHILWARA,"SHOP NO 3 7,SRINATH TOWER,GANGAPUR CHORAHA,PUR ROAD,BHILWARA 311001",247722,BHILWARA,BHILWARA,RAJASTHAN
"CITY UNION BANK LIMITED",CIUB0000221,400054007,JAIPUR,"PLOT NO 12 EMERALD HOTEL BUILDING,M I ROAD,JAIPUR302001",2378003,JAIPUR,JAIPUR,RAJASTHAN
"CITY UNION BANK LIMITED",CIUB0000220,311054002,INDORE,"6 BY 1,THE MAGNATE,NEW PALASIA,CURE WELL HOSPITAL ROAD,INDORE 452001",2530408,INDORE,INDORE,"MADHYA PRADESH"
"CITY UNION BANK LIMITED",CIUB0000219,302054002,LUDHIANA,"NO 925 A SALH COMPLEX,DASMESH NAGAR,GILL ROAD,LUDHIANA 141003",2540076,LUDHIANA,LUDHIANA,PUNJAB
"CITY UNION BANK LIMITED",CIUB0000218,452054002,VALASARAWALKAM,"NO 1,THANDAVAMOORTHY NAGAR,VALASARAWALKAM,CHENNAI600087",24869500,CHENNAI,CHENNAI,"TAMIL NADU"
"CITY UNION BANK LIMITED",CIUB0000217,141054002,THONDAMUTHUR,"189,GROUND FLOOR,MADHAVANPATTY MAIN ROAD,9TH WARD,THONDAMUTHUR 641109",2617797,THONDAMUTHUR,COIMBATORE,"TAMIL NADU"
"CITY UNION BANK LIMITED",CIUB0000216,600054023,KOLHAPUR,"520 BY 2,E WARD,SLBENADIKAR PATH,NEAR CBS,SHAHUPURIKOLHAPUR416001",2667607,KOLHAPUR,KOLHAPUR,MAHARASHTRA
"CITY UNION BANK LIMITED",CIUB0000215,641054009,KINATHUKADAVU,"COIMBATOREPOLLACHI MAIN ROAD,KINATHUKADAVU,POLLACHI642109",242190,KINATHUKADAVU,COIMBATORE,"TAMIL NADU"
"CITY UNION BANK LIMITED",CIUB0000214,416054002,RAMANATHAPURAM,"730,IST FLOOR,DIAMOND COMPLEX,TRICHY ROAD,RAMANATHAPURAM,COIMBATORE 621045",2322302,COIMBATORE,COIMBATORE,"TAMIL NADU"
"CITY UNION BANK LIMITED",CIUB0000213,641054012,AURANGABAD,"NO,6 ANNAPURNA TOWER,KUSHAL NAGAR,JALNA ROAD,AURANGABAD 431005",2364798,AURANGABAD,AURANGABAD,MAHARASHTRA
"CITY UNION BANK LIMITED",CIUB0000212,641054010,SRIPERUMBUDUR,"67,GANDHI ROAD,GROUND FLOOR,SRIPERUMBUDUR,CHENNAI 602105",27163996,SRIPERUMBUDUR,KANCHEEPURAM,"TAMIL NADU"
"CITY UNION BANK LIMITED",CIUB0000211,431054002,"SAIBABA COLONY COIMBATORE","THACHIL COMPLEX,10,ANNAMALAI ROAD,SAIBABA COLONY,COIMBATORE 641011",2444601,COIMBATORE,COIMBATORE,"TAMIL NADU"
"CITY UNION BANK LIMITED",CIUB0000210,600054022,THUVAKUDI,"OLD NO8 BY 55,ANNA SALAI,THUVAKUDI MALAI NORTH,NEAR ANNA ARCH,TIRUCHIRAPALLI 620022",2551100,TRICHY,TIRUCHIRAPALLI,"TAMIL NADU"
"CITY UNION BANK LIMITED",CIUB0000209,641054008,ALLAHABAD,"BHAGWAN RAM MANDIR MARG NEAR VISHAL MEGA MART,CIVIL LINES,ALLAHABAD UTTAR PRADESH 211001",2421098,ALLAHABAD,ALLAHABAD,"UTTAR PRADESH"
"CITY UNION BANK LIMITED",CIUB0000208,620054005,JANAKPURI,"GROUND FLOOR,DOOR NO30,BLOCKB1,JANAKPURI,NEW DELHI110058",25555343,"NEW DELHI",DELHI,DELHI
"CITY UNION BANK LIMITED",CIUB0000207,211054002,KUKATPALLY,"MIG 182 I PHASE,KPHB COLONY, KUKATPALLY,HYDERABAD 500072",23151515,HYDERABAD,RANGAREDDY,"ANDHRA PRADESH"
"CITY UNION BANK LIMITED",CIUB0000206,110054003,DILSUKHNAGAR,"SRI DATTA SAI COMPLEX,PLOT NO 14,GADDIANARAM,DILSUKHNAGAR,HYDERABAD 500060",24141900,HYDERABAD,RANGAREDDY,"ANDHRA PRADESH"
"CITY UNION BANK LIMITED",CIUB0000205,500054007,THINDAL,"SFNO15 BY 2A,PERUNDURAI ROAD,THINDAL,ERODE,TAMIL NADU 638002",2430111,ERODE,ERODE,"TAMIL NADU"
"CITY UNION BANK LIMITED",CIUB0000204,500054006,HINDUPUR,"D NO132C,SVR COMPLEX,PENUKONDA ROAD,HINDUPUR,ANATAPUR DIST,ANDHRA PRADESH 515201",221223,HINDUPUR,ANANTAPUR,"ANDHRA PRADESH"
"CITY UNION BANK LIMITED",CIUB0000203,638054007,BHANASHANKARI,"784,II PHASE,7TH BLOCK,BANASHANKARI,III STAGE,100 FT ROAD,BANGALORE KARNATAKA 560085",26423599,BENGALURU,"BENGALURU URBAN",KARNATAKA
"CITY UNION BANK LIMITED",CIUB0000202,515054102,SIRKALI,"GROUND FLOOR,PIDARI NORTH STREET,SIRKALI 609110",265145,SIRKALI,NAGAPATTINAM,"TAMIL NADU"
"CITY UNION BANK LIMITED",CIUB0000201,560054008,MADURAPURI,"TRICHY MAIN ROAD,OPP TO GANAPATHY THIRUMANAMANDAPAM,MATHURAPURI 621010",255777,MADURAPURI,TIRUCHIRAPALLI,"TAMIL NADU"
"CITY UNION BANK LIMITED",CIUB0000200,609054202,KOLLAM,"FIRST FLOOR,SAIT TOWER,BEACH ROAD,CHINAKKADA,KOLLAM 691001",2767622,KOLLAM,KOLLAM,KERALA
"CITY UNION BANK LIMITED",CIUB0000199,620054007,"RAJAJI NAGAR BANGALORE","1002 BY 55,KRK CHAMBERS,FIRST MAIN,FOURTH BLOCK,80 FEET DRRAJKUMAR ROAD,BANGALORE 560010",23155151,BENGALURU,"BENGALURU URBAN",KARNATAKA
"CITY UNION BANK LIMITED",CIUB0000198,691054002,"RAMANAGARA BANGALORE","BMROAD,316,IJOOR I STAGE,NEAR BUS STAND,BANGALORE MYSORE MAIN ROAD,RAMANAGARAKARNATAKA 571511",27276688,RAMANAGARA,"BENGALURU RURAL",KARNATAKA
"CITY UNION BANK LIMITED",CIUB0000197,560054007,PERAMBALUR,"GROUND FLOOR,25 BY 1,ELANGO STREET,TRICHY MAIN ROAD,PERAMBALUR 621 212",277233,PERAMBALUR,PERAMBALUR,"TAMIL NADU"
"CITY UNION BANK LIMITED",CIUB0000196,NA,NACHIARKOIL,"6 BY 116 NORTH STREET,NACHIARKOIL 612 602",2466222,"NACHIAR KOIL",THANJAVUR,"TAMIL NADU"
"CITY UNION BANK LIMITED",CIUB0000195,621054302,"ANNA NAGAR","80 FEET ROAD,OPP AMBIGA THEATRE,ANNA NAGAR,MADURAI 625020",2525485,MADURAI,MADURAI,"TAMIL NADU"
"CITY UNION BANK LIMITED",CIUB0000194,612054011,RASHBEHARI,"SURNA HOUSE,208 BY 1A,RASH BEHARI AVENUE,KOLKATA 700 029",24197193,KOLKATA,KOLKATA,"WEST BENGAL"
"CITY UNION BANK LIMITED",CIUB0000193,625054004,KELAMBAKKAM,"1 BY 61,KSSSTREET,KELAMBAKKAM,KANCHEEPURAM DISTRICT",27475925,CHENNAI,KANCHEEPURAM,"TAMIL NADU"
"CITY UNION BANK LIMITED",CIUB0000192,700054003,"RS PURAM COIMBATORE","79,VENKATASAMY ROAD WEST,R S PURAM,COIMBATORE 641002",2540647,COIMBATORE,COIMBATORE,"TAMIL NADU"
"CITY UNION BANK LIMITED",CIUB0000191,600054021,PALLIPALAYAM,"GROUND FLOOR,24,SANGAGIRI MAIN ROAD,PALLIPALAYAM PIN 638006",243533,PALLIPALAYAM,NAMAKKAL,"TAMIL NADU"
"CITY UNION BANK LIMITED",CIUB0000190,641054007,NADUKKADAI,"GROUND FLOOR,1 BY 114 MAIN ROAD,NADUKKADAI,THANJAVUR DISTRICT",261277,NADUKADAI,THANJAVUR,"TAMIL NADU"
"CITY UNION BANK LIMITED",CIUB0000189,638054006,ELLAMPILLAI,"14261 BY 489,D MAIN ROAD,NEAR BUS STAND,ELLAMPILLAI,SALEM DISTRICT",2491455,ELLAMPILLAI,SALEM,"TAMIL NADU"
"CITY UNION BANK LIMITED",CIUB0000188,613054005,"FAIRLANDS SALEM","GROUND FLOOR,44,BRINDAVAN ROAD,FAIRLANDS,SALEM PIN 636016",2333654,SALEM,SALEM,"TAMIL NADU"
"CITY UNION BANK LIMITED",CIUB0000187,636054003,CHENGALPET,"GROUND FLOOR,86,GST ROAD,THIMMAKULAM,CHENGALPET PIN 603001",27433393,CHENGALPET,KANCHEEPURAM,"TAMIL NADU"
"CITY UNION BANK LIMITED",CIUB0000186,636054004,UTHUKULI,"32 BY 6 TIRUPUR ROAD,UTHUKULI PIN 638751",260666,UTHUKULI,ERODE,"TAMIL NADU"
"CITY UNION BANK LIMITED",CIUB0000185,600054020,"MARAIMALAI NAGAR","GROUND FLOOR,1 BY 73,PAVENDAR STREET,MARAIMALAI NAGAR CHENGLEPUT DIST 603209",27454141,"MARAIMALAI NAGAR",KANCHEEPURAM,"TAMIL NADU"
"CITY UNION BANK LIMITED",CIUB0000184,641054104,"K K NAGAR","PLOTNO 590,DNO 30,OLD35,ALAGIRISAMI SALAI,K K NAGAR CHENNAIPIN 600078",23661477,CHENNAI,CHENNAI,"TAMIL NADU"
"CITY UNION BANK LIMITED",CIUB0000183,600054018,DEVAKOTTAI,"17, THIAGIGAL ROAD, DEVAKOTTAI",260155,DEVAKOTTAI,SIVAGANGA,"TAMIL NADU"
"CITY UNION BANK LIMITED",CIUB0000182,600054019,NASIK,"GROUND FLOOR,PATEL RETREAT,PATIL LANE4,NASHIK,422005",2313518,NASHIK,NASIK,MAHARASHTRA
"CITY UNION BANK LIMITED",CIUB0000181,630054102,RAJKOT,"I FLOOR, NAKSHATRA COMPLEX",2926724,RAJKOT,RAJKOT,GUJARAT
"CITY UNION BANK LIMITED",CIUB0000180,422054002,DHARMAVARAM,"D.No.9-98 to 101, Varalakshmi Theatre Road,Dharmavaram ,ANANTHAPURAMU",222199,DHARMAVARAM,ANANTAPUR,"ANDHRA PRADESH"
"CITY UNION BANK LIMITED",CIUB0000179,360054002,ANANTAPUR,"I FLOOR, M. C. H. NO. 18 BY 161 A",279777,ANATHAPUR,ANANTAPUR,"ANDHRA PRADESH"
"CITY UNION BANK LIMITED",CIUB0000178,515054202,NAGPUR,"I FLOOR, NO.73,KAMDAR COMPLEX",2720033,NAGPUR,NAGPUR,MAHARASHTRA
"CITY UNION BANK LIMITED",CIUB0000177,515054002,ICHALKARNJI,"10 BY 286, BUNGALOW ROAD",2422772,ICHALKARANJI,KOLHAPUR,MAHARASHTRA
"CITY UNION BANK LIMITED",CIUB0000176,440054002,THANE,"BUNGALOW NO 2, GAUTAMPARK",25384747,"THANE WEST",THANE,MAHARASHTRA
"CITY UNION BANK LIMITED",CIUB0000175,NA,RAMANATHAPURAM,"KTM CASIM CENTRE, DR NO 406 52 FIRST FLOOR, SALAI STREET , RAMANATHAPURAM",223088,RAMANATHAPURAM,RAMANATHAPURAM,"TAMIL NADU"
"CITY UNION BANK LIMITED",CIUB0000174,400054006,NANDYAL,"D.No.29/2, NK Road, Opp. to Gelvi School,Nandyal",220770,NANDYAL,KURNOOL,"ANDHRA PRADESH"
"CITY UNION BANK LIMITED",CIUB0000173,623054002,SIVAGANGAI,"DOOR NO 115,NEEDHIPATHI RAJASEKARAN ROAD SIVAGANGAI",242900,SIVAGANGAI,SIVAGANGA,"TAMIL NADU"
"CITY UNION BANK LIMITED",CIUB0000172,518054102,TIRUVANNAMALAI,"3, SOUTH OTHAVADAI STREET TIRUVANNAMALAI",223456,TIRUVANNAMALAI,TIRUVANNAMALAI,"TAMIL NADU"
"CITY UNION BANK LIMITED",CIUB0000171,630054202,"GANDHI NAGAR","16 77, 1ST CROSS,SRI NAGAR COLONY GANDHI NAGAR EAST",2412321,KUMBAKONAM,THANJAVUR,"TAMIL NADU"
"CITY UNION BANK LIMITED",CIUB0000170,606054002,WARANGAL,"9-10-2, JPN ROAD, WARANGAL",2421124,WARANGAL,WARANGAL,"ANDHRA PRADESH"
"CITY UNION BANK LIMITED",CIUB0000169,612054004,PRODDATUR,"GROUND FLOOR",255655,PRODATUR,CUDDAPAH,"ANDHRA PRADESH"
"CITY UNION BANK LIMITED",CIUB0000168,506054002,DAVENGERE,"GROUND FLOOR, 134 BY 17,MAHAVEERA ROAD, MANDIPET",275290,DEVENGERE,DAVANGERE,KARNATAKA
"CITY UNION BANK LIMITED",CIUB0000167,516054102,MANGALORE,"D.NO.4-9-857/8,9,10, AADHEESH AVENUE,KALAKUNJ ROAD, KODIALBAIL",24227175,MANGALORE,"DAKSHIN KANNAD",KARNATAKA
"CITY UNION BANK LIMITED",CIUB0000166,577054002,HUBLI,"GROUND FLOOR",2361208,HUBLI,BELGAUM,KARNATAKA
"CITY UNION BANK LIMITED",CIUB0000165,575054002,BELGAUM,"I FLOOR  G 5",2465564,BELGAUM,BELGAUM,KARNATAKA
"CITY UNION BANK LIMITED",CIUB0000164,580054002,PARAMAKUDI,"GROUND FLOOR, 4 BY 324, GANDHIJI ROAD",229955,PARAMAKUDI,RAMANATHAPURAM,"TAMIL NADU"
"CITY UNION BANK LIMITED",CIUB0000163,590054002,KRISHNAGIRI,"FIRST FLOOR, 14 14A, 4TH CROSS, CO OPERATIVE COLONY",235785,KRISHNAGIRI,KRISHNAGIRI,"TAMIL NADU"
"CITY UNION BANK LIMITED",CIUB0000162,623054102,SATTUR,"469,MAIN ROAD,SATTUR 636203",261966,SATTUR,VIRUDHUNAGAR,"TAMIL NADU"
"CITY UNION BANK LIMITED",CIUB0000161,635054002,DARAPURAM,"OLD NO 39,NEW NO 108 109, CHURCH ROAD DARAPURAM",227007,DHARAPURAM,ERODE,"TAMIL NADU"
"CITY UNION BANK LIMITED",CIUB0000160,626054402,TIRUKOILUR,"NORTH STREET, NORTH STREET",255333,TIRUKOILUR,VILLUPURAM,"TAMIL NADU"
"CITY UNION BANK LIMITED",CIUB0000159,638054302,RASIPURAM,"GROUND FLOOR, NO 12, C P KANNIAH STREET",220099,RASIPURAM,NAMAKKAL,"TAMIL NADU"
"CITY UNION BANK LIMITED",CIUB0000158,606054103,KANGAYAM,"BAZAR STREET, BAZAR STREET",220909,KANGEYAM,ERODE,"TAMIL NADU"
"CITY UNION BANK LIMITED",CIUB0000157,636054005,MACHILIPATNAM,"24 BY 32  MAIN ROAD",221861,MACHILIPATNAM,KRISHNA,"ANDHRA PRADESH"
"CITY UNION BANK LIMITED",CIUB0000156,638054005,SRIKAKULAM,"9 4 10  7 ROAD JUNCTION",228311,SRIKAKULAM,SRIKAKULAM,"ANDHRA PRADESH"
"CITY UNION BANK LIMITED",CIUB0000155,520054402,MALKAJGIRI,"I FLOOR, 292, RADHAKRISHNAN NAGAR COLONY MALKAJGIRI VALLABH NAGAR TALUK",27241102,HYDERABAD,RANGAREDDY,"ANDHRA PRADESH"
"CITY UNION BANK LIMITED",CIUB0000154,532054002,KOTTAYAM,"I FLOOR  CSI COMML  CENTRE",2300580,KOTTAYAM,KOTTAYAM,KERALA
"CITY UNION BANK LIMITED",CIUB0000153,500054005,"CONTONMENT TRICHY","26, WARNERS ROAD, CONTONMENT, TRICHY 620 00",2400046,TIRUCHIRAPALLI,TIRUCHIRAPALLI,"TAMIL NADU"
"CITY UNION BANK LIMITED",CIUB0000152,686054002,THORAIPAKKAM,"NO  1  CUSTOMERS COLONY",24580772,CHENNAI,CHENNAI,"TAMIL NADU"
"CITY UNION BANK LIMITED",CIUB0000151,620054004,MADIPAKKAM,"168  MEDAVAKKAM MAIN ROAD",22473456,CHENNAI,CHENNAI,"TAMIL NADU"
"CITY UNION BANK LIMITED",CIUB0000150,600054016,CHROMPET,"NO 77 STATION ROAD  I FLOOR",22233424,CHENNAI,CHENNAI,"TAMIL NADU"
"CITY UNION BANK LIMITED",CIUB0000149,600054015,MYSORE,"28 D  DEVARAJ URS ROAD",2449966,MYSORE,MYSORE,KARNATAKA
"CITY UNION BANK LIMITED",CIUB0000148,600054014,"JAYANAGAR BANGALORE","No.126, 33rd Cross, 11th Main, 4th Block,(Near A.V.R. Swarna Mahal Signal), Jayanagar,BANGALORE",26349771,BENGALURU,"BENGALURU RURAL",KARNATAKA
"CITY UNION BANK LIMITED",CIUB0000147,570054002,HOSUR,"12, 1ST FLOOR, SRI KRISHNA COMPLEX, TANK STREET",221034,HOSUR,KRISHNAGIRI,"TAMIL NADU"
"CITY UNION BANK LIMITED",CIUB0000146,560054006,CANNUR,"THE FORTE  I FLOOR",2700135,KANNUR,KANNUR,KERALA
"CITY UNION BANK LIMITED",CIUB0000145,635054402,"GUNTUR II","I FLOOR,D.NO.5 BY 37 BY 21, 4 BY 2 BRODIEPET, GUNTUR - 522 002",2219091,GUNTUR,GUNTUR,"ANDHRA PRADESH"
"CITY UNION BANK LIMITED",CIUB0000144,670054002,"VIJAYAWADA II","I FLOOR,11 BY 24 BY 29,BHAVANARAYANA ST, VIJAYAWADA 520 001",2566100,VIJAYAWADA,KRISHNA,"ANDHRA PRADESH"
"CITY UNION BANK LIMITED",CIUB0000143,520054104,THIRUCHENGODE,"I FLOOR,23 AND 24 GURUKKAL ST, SOUTH CAR STREET, THIRUCHANGODE 637 211",256356,TIRUCHENGODE,NAMAKKAL,"TAMIL NADU"
"CITY UNION BANK LIMITED",CIUB0000142,520054002,VASHI,"108,109,110, SHIVAJI MARKET, I FLOOR, PLOT NO 8 AND 9, SECTOR 19 D, VASHI, NAVI MUMBAI 400705",27836992,"NAVI MUMBAI",THANE,MAHARASHTRA
"CITY UNION BANK LIMITED",CIUB0000141,638054003,KURNOOL,"40 304, BAGHYA NAGAR, MOURIYA INN, KURNOOL 518004",276611,KRUNOOL,KURNOOL,"ANDHRA PRADESH"
"CITY UNION BANK LIMITED",CIUB0000140,400054005,CUDDAPAH,"I FLOOR, VCSR COMPLEX, RAILWAY STATION ROAD, CUDDAPAH 516001",246303,CUDDAPAH,CUDDAPAH,"ANDHRA PRADESH"
"CITY UNION BANK LIMITED",CIUB0000139,518054002,"INDIRA NAGAR","NO 194, I FLOOR, VII CROSS, I STAGE INDIRA NAGAR, BANGALORE 560038",25205030,BENGALURU,"BENGALURU URBAN",KARNATAKA
"CITY UNION BANK LIMITED",CIUB0000138,516054002,UDUMALPET,"120, UM Towers,Srinivasa street,Udumalpet",232384,UDUMALAIPET,COIMBATORE,"TAMIL NADU"
"CITY UNION BANK LIMITED",CIUB0000137,560054005,THENI,"I FLOOR, 914 915, CUMBUM ROAD, THENI 626531",255700,THENI,THENI,"TAMIL NADU"
"CITY UNION BANK LIMITED",CIUB0000136,642054102,ONGOLE,"MCBH COMPLEX, 3 2 19, KURNOOL ROAD, OPP RTC BUS STAND, ONGOLE 523002",282912,ONGOLE,PRAKASAM,"ANDHRA PRADESH"
"CITY UNION BANK LIMITED",CIUB0000135,625054102,ELURU,"AGRAJ PLAZA, NO 23 A 10 5, R R PET, ELURU 534002",240340,ELURU,"WEST GODAVARI","ANDHRA PRADESH"
"CITY UNION BANK LIMITED",CIUB0000134,523054002,NAGARCOIL,"THASOR PRESS BUILDING, NO 35, I FLOOR, CAPE ROAD, VEEPAMOODU JUNCTION, NAGARCOIL 629001",225353,NAGERCOIL,KANYAKUMARI,"TAMIL NADU"
"CITY UNION BANK LIMITED",CIUB0000133,534054002,KOZIKODE,"ESHA ARCADE, I FLOOR, AZHAKODY TEMPLE ROAD, OFF MAVOOR ROAD, OPP ASMA TOWER, KOZIKODE 673004",2727121,"KOZHICODE, CALICUT",KOZHIKODE,KERALA
"CITY UNION BANK LIMITED",CIUB0000132,629054002,MALLESWARAM,"82,VI CROSS, MALLESWARAM, BANGALORE 560053",23463636,BENGALURU,"BENGALURU RURAL",KARNATAKA
"CITY UNION BANK LIMITED",CIUB0000131,673054002,AMEERPET,"Shop No.4 AND 5, Meridian Plaza,Beside Lal Bunglow, Green Land,HYDERABAD",23738360,HYDERABAD,HYDERABAD,"ANDHRA PRADESH"
"CITY UNION BANK LIMITED",CIUB0000130,560054004,"ASHOK NAGAR","ASHOK MANASAROVER, 51 OLD NO 12, FIRST AVENUE, 100 FEET ROAD, ASHOK NAGAR, CHENNAI 600083",23717171,CHENNAI,CHENNAI,"TAMIL NADU"
"CITY UNION BANK LIMITED",CIUB0000129,500054004,"OPPANAKARA STREET","No.46, Variety Hall Road, OPANAKARA STREET,COIMBATORE DT",2306262,COIMBATORE,COIMBATORE,"TAMIL NADU"
"CITY UNION BANK LIMITED",CIUB0000128,600054013,KOILPATTI,"RAJAKUMARI TOWRS, 18 BY 40, AKS THEATRE ROAD, KOILPATTI 628 502",228954,KOVILPATTI,TOOTHUKUDI,"TAMIL NADU"
"CITY UNION BANK LIMITED",CIUB0000127,641054006,BHIMAVARAM,"17 BY 2 BY 50,REST HOUSE ROAD, BHIMAVARAM- 534 201",230280,BHIMAVARAM,"WEST GODAVARI","ANDHRA PRADESH"
"CITY UNION BANK LIMITED",CIUB0000126,627054004,PALAKAD,"13/697(7), Premier Tower,Opp. Sai Service, Coimbatore Road, Kalmadapam,PALAKKAD",2528151,PALAKKAD,PALGHAT,KERALA
"CITY UNION BANK LIMITED",CIUB0000125,534054402,TENALI,"NO.16-1-38, MAIN ROAD, TENALI 522 201",232216,TENALI,GUNTUR,"ANDHRA PRADESH"
"CITY UNION BANK LIMITED",CIUB0000124,678054002,KAKINADA,"NO.20-1-10 A, L TYPE, MAIN ROAD, SUPER BAZAR, KAKINADA- 533 001",2341124,KAKINADA,"EAST GODAVARI","ANDHRA PRADESH"
"CITY UNION BANK LIMITED",CIUB0000123,520054202,THRISSUR,"PATHAN S BUILDING COMPLEX, 25 BY 72, NEW NO 25 BY 121, ROUND SOUTH, THRISSUR 680 001",2442053,THRISSUR,THRISSUR,KERALA
"CITY UNION BANK LIMITED",CIUB0000122,533054002,"FORT BRANCH MUMBAI","101539 40BY1,MAIN ROAD,FORT GATE,RAJAHMUNDRY533101",2677376,MUMBAI,MUMBAI,MAHARASHTRA
"CITY UNION BANK LIMITED",CIUB0000120,400054004,RAJAHMUNDRY,"NO.10-15-39 AND 10-15-40 BY 1, MAIN ROAD, FORT GATE, RAJAMUNDRY - 533 101",2443360,RAJAHMUNDURY,"EAST GODAVARI","ANDHRA PRADESH"
"CITY UNION BANK LIMITED",CIUB0000119,600054001,TUMKUR,"PARIJATHA ARCADE, OPP TO GAYATHRI TALKIES, BH ROAD, TUMKUR- 572 101",2254343,TUMKUR,TUMKUR,KARNATAKA
"CITY UNION BANK LIMITED",CIUB0000118,533054102,THIRUVANMIYUR,"NO.9,SECOND EAST ST.,KAMARAJ NAGAR,THIRUVANMIYUR,CHENNAI600041",24423873,CHENNAI,CHENNAI,"TAMIL NADU"
"CITY UNION BANK LIMITED",CIUB0000117,572054002,"TAMBARAM CHENNAI","NO.19A,SIVASHANMUGAM ROAD,TAMBARAM WEST,TAMBARAM600045",22265220,CHENNAI,KANCHEEPURAM,"TAMIL NADU"
"CITY UNION BANK LIMITED",CIUB0000116,600054012,"SS COLONY MADURAI","NO.85L,VADAKKUVASAL STREET,S.S. COLONYMADURAI625010",2610973,MADURAI,MADURAI,"TAMIL NADU"
"CITY UNION BANK LIMITED",CIUB0000115,600054011,"SRI RANGAM TIRUCHIRAPPALLI","NO.29,EVS SCHARI ROAD,RANGANAGAR,SRIRANGAM,TIRUCHIRAPALLI620006",2436800,SRIRANGAM,TIRUCHIRAPALLI,"TAMIL NADU"
"CITY UNION BANK LIMITED",CIUB0000114,625054003,SIVAKASI,"NO.13,CHAIRMAN NPSN ARUMUGA NADAR ROAD,SIVAKASI626123",220181,SIVAKASI,VIRUDHUNAGAR,"TAMIL NADU"
"CITY UNION BANK LIMITED",CIUB0000113,620054003,"ANNA NAGAR CHENNAI","46,Ground Floor, 1st Avenue, Near Chinthamani, Anna Nagar East, Chennai 600102",26191120,CHENNAI,CHENNAI,"TAMIL NADU"
"CITY UNION BANK LIMITED",CIUB0000112,626054002,"PURASAWALKAM CHENNAI","NO.204,PURASAWALKAM HIGH RD,CHENNAIPO. PURASAWALKAM600007",26615817,CHENNAI,CHENNAI,"TAMIL NADU"
"CITY UNION BANK LIMITED",CIUB0000111,600054010,PUNE,"309,FIRST LANE,RASTAPETH,KESBETH,PUNE411011",26139034,PUNE,PUNE,MAHARASHTRA
"CITY UNION BANK LIMITED",CIUB0000110,600054009,KOLKATTA,"GROUND FLOOR,64 A, HEMANTA BASU SARANI,B B D BAG,KOLKATA,KOLKATA 700001",22107140,KOLKATA,KOLKATA,"WEST BENGAL"
"CITY UNION BANK LIMITED",CIUB0000109,411054002,"KORAMANGALA BANGALORE","75,INDUSTRIAL ESTATE LAYOUT,BANGALORE PO.,KORAMANGALA560095",25630439,BENGALURU,"BENGALURU URBAN",KARNATAKA
"CITY UNION BANK LIMITED",CIUB0000108,700054002,VADODARA,"33,SAMPATRAO COLONY,ALKAPURI,VADODARA390005",2330292,VADODARA,VADODARA,GUJARAT
"CITY UNION BANK LIMITED",CIUB0000107,560054003,THIRUVANANTHAPURAM,"TC 38BY553BY56. I FLOOR,POWER HOUSE ROAD,THIRUVANANTHAPURAM695036",2467303,THIRUVANANTHAPURAM,THIRUVANANTHAPURAM,KERALA
"CITY UNION BANK LIMITED",CIUB0000106,390054002,VISAKAPATNAM,"301239 FLOORI, MAIN ROAD,DABA GARDENS,VISHAKAPATNAM530020",2575772,VISHAKHAPATNAM,VISHAKHAPATNAM,"ANDHRA PRADESH"
"CITY UNION BANK LIMITED",CIUB0000105,695054002,VIJAYAWADA,"271415BY2 FLOOR 1,M.S.ROAD,GOVERNORPET,VIJAYAWADA500002",2432436,VIJAYAWADA,KRISHNA,"ANDHRA PRADESH"
"CITY UNION BANK LIMITED",CIUB0000104,530054001,"NANGANALLUR CHENNAI","SWARNAM COMPLEX,20A. 4TH MAIN ROAD,NANGANALLURCHENNAI600061",2243839,CHENNAI,CHENNAI,"TAMIL NADU"
"CITY UNION BANK LIMITED",CIUB0000103,520054001,KARAIKAL,"159-161, THIRUNALLAR ROAD, KARAIKKAL",221437,KARAIKKAL,KARAIKKAL,PUDUCHERRY
"CITY UNION BANK LIMITED",CIUB0000102,600054008,"NEW DELHI","1ST FL 18BY7,ARYA SAMAJ RD,KAROL BAGH,NEW DELHI110005",25788696,"NEW DELHI",DELHI,DELHI
"CITY UNION BANK LIMITED",CIUB0000101,609054102,AHMEDABAD,"G19 NIRMAN COMPLEX,BEHIND BUS STAND,AHMEDABAD380009",26448828,AHMEDABAD,AHMEDABAD,GUJARAT
"CITY UNION BANK LIMITED",CIUB0000100,110054002,SURAT,"I FLOOR BELGIUM CHAMBERS,RING ROAD,SURAT395003",2422877,SURAT,SURAT,GUJARAT
"CITY UNION BANK LIMITED",CIUB0000099,380054002,PALLADAM,"1ST FLOOR 3 BY 212 TIRUCHY ROAD, PALLADAM 641 664",253800,PALLADAM,COIMBATORE,"TAMIL NADU"
"CITY UNION BANK LIMITED",CIUB0000098,395054002,"MIRA ROAD MUMBAI","RASHMI PARK, SHOP NO.79 80,OPP. SHANTHI PARK,MTNL ROAD,MIRA ROAD E,MUMBAI401107",28119808,MUMBAI,THANE,MAHARASHTRA
"CITY UNION BANK LIMITED",CIUB0000097,641054103,SOMANUR,"1 FLOOR S.F NO.187, KARUMATHAMPATTI MAIN ROAD, SOMANUR - 641 668",2332993,SOMANUR,COIMBATORE,"TAMIL NADU"
"CITY UNION BANK LIMITED",CIUB0000096,400054003,THIRUVALLA,"ILLAMPALLIL TOWERS,M.C.ROAD,THIRUVALLA689101",2602650,THIRUVALLA,PATHANAMTHITTA,KERALA
"CITY UNION BANK LIMITED",CIUB0000095,641054005,CHAVAKKAD,"22/748-B, T T Complex, Ground Floor,North Bye Pass Road, Thrissur",2507884,CHAVAKKAD,THRISSUR,KERALA
"CITY UNION BANK LIMITED",CIUB0000094,689054002,GUDIVADA,"15BY36B IST FLOOR,PARK ROAD,GUDIVADA521301",243571,GUDIVADA,KRISHNA,"ANDHRA PRADESH"
"CITY UNION BANK LIMITED",CIUB0000093,680054102,TIPTUR,"721 BY 1 B H ROAD, CHANDRAMOULI COMPLEX, BANGALORE - HONNAVER ROAD, TIPTUR - 572 201",250282,TIPTUR,TUMKUR,KARNATAKA
"CITY UNION BANK LIMITED",CIUB0000092,520054502,GOPICHETTYPALAYAM,"25 RAJA STREET, PUDUPALAYAM, ERODE MAIN ROAD, GOBICHETTIPALAYAM- 638 476",223539,GOBICHETTIPALAYAM,ERODE,"TAMIL NADU"
"CITY UNION BANK LIMITED",CIUB0000091,572054202,VILLUPURAM,"DOOR NO8,CHAIRMAN SUBBARAYAN STREET WEST,VILLUPURAM605602",222313,VILLUPURAM,VILLUPURAM,"TAMIL NADU"
"CITY UNION BANK LIMITED",CIUB0000090,638054004,VIRUDUNAGAR,"DOOR NO.133,MADURAI RD.,VIRUDHUNAGAR626001",243962,VIRUDHUNAGAR,VIRUDHUNAGAR,"TAMIL NADU"
"CITY UNION BANK LIMITED",CIUB0000089,605054004,KARUR,"NAVARANG BUILDING,NO.18. RAMAKRISHNAPURAM,KARUR639001",230346,KARUR,KARUR,"TAMIL NADU"
"CITY UNION BANK LIMITED",CIUB0000088,626054302,NAMAKKAL,"DOOR NO.169C1,THURAIYUR RD.,NAMAKKAL637002",221096,NAMAKKAL,NAMAKKAL,"TAMIL NADU"
"CITY UNION BANK LIMITED",CIUB0000087,639054002,PONDICHERRY,"119, BUSSY STREET,PUDUCHERRY,PUDUCHERRY",2331272,PUDUCHERRY,PUDUCHERRY,PUDUCHERRY
"CITY UNION BANK LIMITED",CIUB0000086,636054008,ERNAKULAM,"RAM-MEENA BUILDINGS,1848F,39TH DIVISION,VALANJAMBALAM JUNCTION,S A ROAD,ERNAKULAM,ERNAKULAM-682016",2353383,ERNAKULAM,ERNAKULAM,KERALA
"CITY UNION BANK LIMITED",CIUB0000085,605054002,TUTICORIN,"103 A BY 56 IST FLOOR,V. E. ROAD,TUTICORIN,626002",2321343,TUTICORIN,TOOTHUKUDI,"TAMIL NADU"
"CITY UNION BANK LIMITED",CIUB0000084,682054002,"KHAR WEST MUMBAI","1FL.JAINS ARCADE,402. 14TH ROAD,CHUIM VILLAGE,KHAR WEST,MUMBAI400052",26463047,MUMBAI,MUMBAI,MAHARASHTRA
"CITY UNION BANK LIMITED",CIUB0000083,627054003,NELLORE,"13BY356,ACHARI ST.,PEDDA BAZAR,NELLORE524001",2326001,NELLORE,NELLORE,"ANDHRA PRADESH"
"CITY UNION BANK LIMITED",CIUB0000082,400054002,RTGS-HO,"City Union Bank Ltd No 48,Mahalakshmi Street,T.Nagar,Chennai 600017,TamilNadu",28297903,CHENNAI,CHENNAI,"TAMIL NADU"
"CITY UNION BANK LIMITED",CIUB0000081,524054002,THOGUR,"AGRAHARAM, THOGOOR - 613 102",2404025,THOGUR,TIRUCHIRAPALLI,"TAMIL NADU"
"CITY UNION BANK LIMITED",CIUB0000080,620054009,GUNTUR,"D.NO.23-6-122, Rama Enclave,PATNAM BAZAR, GUNTUR",222005,GUNTUR,GUNTUR,"ANDHRA PRADESH"
"CITY UNION BANK LIMITED",CIUB0000079,520054103,KULATHUR,"SY No.309/3B, Pudukottai  Trichy Main Road,Kulathur,PUDUKKOTTAI",262508,KULATHUR,PUDUKKOTTAI,"TAMIL NADU"
"CITY UNION BANK LIMITED",CIUB0000078,622054004,"PN PALAYAM COIMBATORE","63, Narayana swamy layout,New scheme road (Near GKNM Hospital signal),PAPANAICKEN PALAYAM, COIMBATORE,COIMBATOREi",214492,COIMBATORE,COIMBATORE,"TAMIL NADU"
"CITY UNION BANK LIMITED",CIUB0000077,641054003,RAJAPALAYAM,"406 . TENKASI ROAD,RAJAPALAYAM626117",230432,RAJAPALAYAM,VIRUDHUNAGAR,"TAMIL NADU"
"CITY UNION BANK LIMITED",CIUB0000076,626054102,SECUNDERABAD,"5494,M. G. ROAD,SECUNDERABADANDHRAPRADESH500003",27544334,SECUNDERABAD,HYDERABAD,"ANDHRA PRADESH"
"CITY UNION BANK LIMITED",CIUB0000075,500054003,MADAPATTU,"G S T ROAD, PADMINI BUILDINGS, MADAPATTU - 607 207",224229,MADAPATTU,VILLUPURAM,"TAMIL NADU"
"CITY UNION BANK LIMITED",CIUB0000074,NA,POLLACHI,"10, SHOPPING MALL, D.NO. 80-81/2, COIMBATORE ROAD, ,POLLACHI,COIMBATORE",227888,POLLACHI,COIMBATORE,"TAMIL NADU"
"CITY UNION BANK LIMITED",CIUB0000073,641054011,NADUPATTI,"D NO. 4 BY 221, DINDIGUL MAIN ROAD, VAIYAMPATTY BLOCK, NADUPATTI - 621 315",276222,NADUPATTY,TIRUCHIRAPALLI,"TAMIL NADU"
"CITY UNION BANK LIMITED",CIUB0000072,625054006,MANJANAIKANPATTI,"5-44 MAIN ROAD, MANJANAICKENPATTI- 624 614",220246,MANJANAYACKANPATTI,DINDIGUL,"TAMIL NADU"
"CITY UNION BANK LIMITED",CIUB0000071,624054102,KANCHIPURAM,"68,VALLAL PACHAIYAPPAN STREET,KANCHEEPURAM631501",27223883,KANCHEEPURAM,KANCHEEPURAM,"TAMIL NADU"
"CITY UNION BANK LIMITED",CIUB0000070,600054017,KURICHI,"D NO.50, MAIN ROAD, KURICHI- 612 504",2458453,KURICHI,THANJAVUR,"TAMIL NADU"
"CITY UNION BANK LIMITED",CIUB0000069,612054008,ATHANAKOTTAI,"BLOCK NO.3,TANJORE-PUDUKOTTAI ROAD, MAIN ROAD, ATHANKOTTAI- 622 203",241244,ATHANAKOTTAI,PUDUKKOTTAI,"TAMIL NADU"
"CITY UNION BANK LIMITED",CIUB0000068,622054005,ALANGUDI,"2 BY 58 BAZAAR STREET, ALANGUDI - 614 801",269434,ALANGUDI,TIRUVARUR,"TAMIL NADU"
"CITY UNION BANK LIMITED",CIUB0000067,612054007,"CHINMAYANAGAR CHENNAI","NO 26,I MAIN ROAD,SAYEE NAGARCHINMAYA NAGARCHENNAI600111",24871953,CHENNAI,CHENNAI,"TAMIL NADU"
"CITY UNION BANK LIMITED",CIUB0000066,600054007,TIRUPPUR,"94,941,COURT STREET,TIRUPPURCOIMBATORE DIST.641601",247248,TIRUPPUR,TIRUPPUR,"TAMIL NADU"
"CITY UNION BANK LIMITED",CIUB0000065,641054102,VELLORE,"138BY54,GANDHI ROAD,VELLORE632004",232564,VELLORE,VELLORE,"TAMIL NADU"
"CITY UNION BANK LIMITED",CIUB0000064,632054002,THIMMACHIPURAM,"2 BY 151-A, MELA KODI THERU, TRICHY-KARUR MAIN ROAD, THIMMACHIPURAM- 639 105",242242,THIMMACHIPURAM,KARUR,"TAMIL NADU"
"CITY UNION BANK LIMITED",CIUB0000063,620054008,VEERAPERUMANALLUR,"305 VEERARAGHAVA PERUMAL KOIL STREET, VEERAPERUMANALLUR- 607 101",247638,VEERAPERUMANALLUR,CUDDALORE,"TAMIL NADU"
"CITY UNION BANK LIMITED",CIUB0000062,607054204,VEPPAMPATTU,"61 RAILWAY STATION ROAD, VEPPAMPATTU- 602 024",27689762,VEPPAMPATU,THIRUVALLUR,"TAMIL NADU"
"CITY UNION BANK LIMITED",CIUB0000061,600054024,HYDERABAD,"SAMA TOWERS,LIBERTYXROADS,HIMAYATNAGAR,HYDERABADHYDERABAD500029",228358,HYDERABAD,HYDERABAD,"ANDHRA PRADESH"
"CITY UNION BANK LIMITED",CIUB0000060,500054002,SILATTUR,"3 BY 16 NORTH STREET, SILATTUR - 614 622",236287,SILLATUR,PUDUKKOTTAI,"TAMIL NADU"
"CITY UNION BANK LIMITED",CIUB0000059,622054003,ERODE,"DOOR NO.907. PANNER SELVAM PARK,BROUGH ROAD,ERODE638001",258821,ERODE,ERODE,"TAMIL NADU"
"CITY UNION BANK LIMITED",CIUB0000058,638054002,THALAIYUTHU,"M.P.M. Complex,,No.1/214, Palani  Udumalpet Main Road, Dindigul",230337,THALAIYUTHU,DINDIGUL,"TAMIL NADU"
"CITY UNION BANK LIMITED",CIUB0000057,624054103,MADURAPAKKAM,"2 BY 48 KAMMAVAR STREET, MADURAPAKKAM",2688486,MADURAPAKKAM,VILLUPURAM,"TAMIL NADU"
"CITY UNION BANK LIMITED",CIUB0000056,605054006,VEERAPANDI,"MUSLIM ST, VEERAPANDI - 605 758",221107,VEERAPANDI,VILLUPURAM,"TAMIL NADU"
"CITY UNION BANK LIMITED",CIUB0000055,607054203,SENGURICHI,"979 VINAYAKAR KOIL ST, SENGURICHI- 606 115",222229,SENGURICHI,VILLUPURAM,"TAMIL NADU"
"CITY UNION BANK LIMITED",CIUB0000054,607054202,"BANGALORE SULTANPET","NO 349, KOMARALA TOWERS, OTC ROAD,CHICKPET MAIN ROAD,BANGALORE",22870328,BENGALURU,"BENGALURU URBAN",KARNATAKA
"CITY UNION BANK LIMITED",CIUB0000053,560054002,"VILANKURICHI COIMBATORE","NO1638,AVANASHI ROAD,B R PURAMVILANKURICHI CBE641004",2574191,COIMBATORE,COIMBATORE,"TAMIL NADU"
"CITY UNION BANK LIMITED",CIUB0000052,641054004,RISHIVANDIYAM,"5 BY 63A NEW NO3 BY 110, MAHATMA GANDHI ROAD, RISHIVANDIYAM,- 606 205",243246,RISHIVANDIYAM,VILLUPURAM,"TAMIL NADU"
"CITY UNION BANK LIMITED",CIUB0000051,606054104,THAMARANGKOTTAI,"23 MUTHUPETTAI ROAD, MUTHUPETTAI ROAD, THAMARANGKOTTAI - 614 613",283441,THAMARANGKOTTAI,THANJAVUR,"TAMIL NADU"
"CITY UNION BANK LIMITED",CIUB0000050,614054103,KARAIKUDI,"KRISHNA ARCADE,333BY1. SEKKALAI ROAD,KARAIKUDI630001",236524,KARAIKUDI,SIVAGANGA,"TAMIL NADU"
"CITY UNION BANK LIMITED",CIUB0000049,630054002,"MOUNT ROAD CHENNAI","706,MOUNT ROAD,MOUNT ROADCHENNAI600006",28297321,CHENNAI,CHENNAI,"TAMIL NADU"
"CITY UNION BANK LIMITED",CIUB0000048,600054005,TIRUNELVELI,"I FLOOR,DOOR NO.10,NORTH CAR STREET,TIRUNELVELI627006",337349,TIRUNELVELI,TIRUNELVELI,"TAMIL NADU"
"CITY UNION BANK LIMITED",CIUB0000047,627054002,ULLIKKOTTAI,"1 BY 18 A-1 MAIN ROAD, ULLIKOTTAI- 614 018",270445,ULLOKOTTAI,TIRUVARUR,"TAMIL NADU"
"CITY UNION BANK LIMITED",CIUB0000046,614054004,TIRUMARUGAL,"1 BY 74, WEST STREET, TIRUMARUGAL - 609 702",270433,TIRUMARUGAL,NAGAPATTINAM,"TAMIL NADU"
"CITY UNION BANK LIMITED",CIUB0000045,611054003,TIRUNELLIKAVAL,"2 BY 128 EAST STREET, TIRUNELLIKAVAL- 610 205, NEEDAMANGALAM TK.",9237443,TIRUNELLIKAVAL,TIRUVARUR,"TAMIL NADU"
"CITY UNION BANK LIMITED",CIUB0000044,610054004,TIRUPOONDI,"3 BY 61, B-1 MAIN ROAD, TIRUPOONDI - 611 110, KEEVALUR T.K",265423,TIRUPOONDI,NAGAPATTINAM,"TAMIL NADU"
"CITY UNION BANK LIMITED",CIUB0000043,611054004,"Chennai George Town","OLD NO 154, NEW NO 319,THAMBU CHETTY STREET,GEORGE TOWN,CHENNAI-600001",25342340,CHENNAI,CHENNAI,"TAMIL NADU"
"CITY UNION BANK LIMITED",CIUB0000042,600054006,SALEM,"96,98,100,ARUNACHALA ACHARI STREET,SALEM636001",260134,SALEM,SALEM,"TAMIL NADU"
"CITY UNION BANK LIMITED",CIUB0000041,636054002,CHIDAMBARAM,"164 WEST CAR STREET, CHIDAMBARAM - 608 001",222114,CHIDAMBARAM,CUDDALORE,"TAMIL NADU"
"CITY UNION BANK LIMITED",CIUB0000040,605054005,PUDUKOTTAI,"T S NO 3182,NELLUMANDI STREET,PUDUKKOTTAI622001",267133,PUDUKKOTTAI,PUDUKKOTTAI,"TAMIL NADU"
"CITY UNION BANK LIMITED",CIUB0000039,622054002,CUDDALORE,"22,NETHAJI ROAD,CUDDALORE607001",230467,CUDDALORE,CUDDALORE,"TAMIL NADU"
"CITY UNION BANK LIMITED",CIUB0000038,605054003,"TRIPLICANE CHENNAI","SHREYANS BHAVAN,OLD NO.5762.NEW NO.111,WALLAJAH ROAD,TRIPLICANE,CHENNAI600002",28524262,CHENNAI,CHENNAI,"TAMIL NADU"
"CITY UNION BANK LIMITED",CIUB0000037,600054004,PATTUKOTTAI,"42 BY A FIRST FLOOR, THALAYARI STREET, PATTUKOTTAI - 614 601",252293,PATTUKOTTAI,THANJAVUR,"TAMIL NADU"
"CITY UNION BANK LIMITED",CIUB0000036,614054102,"MANDAVELI CHENNAI","KEERTHIS,NO.67. MANDAVELI STREET,MANDAVELI CHENNAI600028",24937874,CHENNAI,CHENNAI,"TAMIL NADU"
"CITY UNION BANK LIMITED",CIUB0000035,600054002,PERIYAKULAM,"VAIGAIDAM ROAD, THENKARAI,PERIYAKULAM626501",231330,PERIYAKULAM,THENI,"TAMIL NADU"
"CITY UNION BANK LIMITED",CIUB0000034,625054202,"RAM NAGAR COIMBATORE","2730. SAROJINI STREET,RAMNAGARCOIMBATORE641009",2232393,COIMBATORE,COIMBATORE,"TAMIL NADU"
"CITY UNION BANK LIMITED",CIUB0000033,641054002,"TIRUVARUR  TOWN","GRT BUILDING 45 BY F, SOUTH MAIN STREET, TIRUVARUR TOWN- 610 002",242224,TIRUVARUR,TIRUVARUR,"TAMIL NADU"
"CITY UNION BANK LIMITED",CIUB0000032,610054003,"CENTRAL OFFICE","149, TSR BIG STREET, KUMBAKONAM 612001",2402322,KUMBAKONAM,THANJAVUR,"TAMIL NADU"
"CITY UNION BANK LIMITED",CIUB0000031,614054005,KOTTUR,"3 BY 551 MAIN ROAD, KOTTUR- 614 708",279440,KOTTUR,TIRUVARUR,"TAMIL NADU"
"CITY UNION BANK LIMITED",CIUB0000030,614054003,TIRUMAKKOTTAI,"NO.1 BY 85 MAIN ROAD, THIRUMAKOTTAI- 614 017",272437,TIRUMAKOTTAI,TIRUVARUR,"TAMIL NADU"
"CITY UNION BANK LIMITED",CIUB0000029,621054003,KEELAPALUVUR,"TRICHY-CHIDAMBARAM MAIN ROAD, KEELAPALUR - 621 707",247221,KEELAPALUVUR,ARIYALUR,"TAMIL NADU"
"CITY UNION BANK LIMITED",CIUB0000028,625054005,DINDIGUL,"22BY23,CHATRAM STREET UPSTAIRDINDIGUL624001",2434487,DINDIGUL,DINDIGUL,"TAMIL NADU"
"CITY UNION BANK LIMITED",CIUB0000027,625054002,"MADURAI MAIN","GR.FL,NO.70,TAMIL SANGAM ROAD,MADURAI625001",2348886,MADURAI,MADURAI,"TAMIL NADU"
"CITY UNION BANK LIMITED",CIUB0000026,620054006,MANAPPARAI,"GROUND FLOOR, NO.115 NEW ST, MANAPPARAI- 612 306",260649,MANAPPARAI,TIRUCHIRAPALLI,"TAMIL NADU"
"CITY UNION BANK LIMITED",CIUB0000025,621054004,JAYANKONDAM,"63A SANNATHI STREET, JAYAMKONDAM - 621 802",250268,JAYANKONDAM,ARIYALUR,"TAMIL NADU"
"CITY UNION BANK LIMITED",CIUB0000024,621054002,ARIYALUR,"6A, Mela Agraharam,ARIYALUR",222073,ARIYALUR,ARIYALUR,"TAMIL NADU"
"CITY UNION BANK LIMITED",CIUB0000023,620054002,TIRUCHIRAPPALLI,"KALIAMHAN KOIL ST,INDIRA GANDHI COLLEGE COMPUS,TRICHY620002",2704180,TIRUCHIRAPALLI,TIRUCHIRAPALLI,"TAMIL NADU"
"CITY UNION BANK LIMITED",CIUB0000022,612054006,VALANGAIMAN,"SRIRAM NIVAS, DOOR NO.27, KAILASANATHAR SOUTH ST, VALANGAIMAN - 612 804",264422,VALANGAIMAN,TIRUVARUR,"TAMIL NADU"
"CITY UNION BANK LIMITED",CIUB0000021,612054005,THIRUVIDAIMARUTHUR,"103 NORTH STREET, TIRUVIDAIMARDUR - 612 104.",2460124,TIRUVIDAIMARUTHUR,THANJAVUR,"TAMIL NADU"
"CITY UNION BANK LIMITED",CIUB0000020,612054012,TIRUPANANDAL,"No.9, South Car Street, TIRUPANANDAL,THANJAVUR",2456444,TIRUPANANDAL,THANJAVUR,"TAMIL NADU"
"CITY UNION BANK LIMITED",CIUB0000019,613054004,TIRUKKATTUPALLI,"30 BAZAAR STREET, THIRUKATTUPALLI",280461,TIRUKATTUPALLI,THANJAVUR,"TAMIL NADU"
"CITY UNION BANK LIMITED",CIUB0000018,609054004,SEMBANARKOIL,"1 BY 34 MAIN ROAD, SEMBARNARKOIL",282438,SEMBANARKOIL,NAGAPATTINAM,"TAMIL NADU"
"CITY UNION BANK LIMITED",CIUB0000017,609054103,PORAYAR,"SHANDEVELI STREET, PORAYAR",289431,PORAYAR,NAGAPATTINAM,"TAMIL NADU"
"CITY UNION BANK LIMITED",CIUB0000016,610054008,SANNANALLUR,"32 BY 2, GROUND FLOOR, NAGAPATTINAM MAIN ROAD, SANANALLUR",230512,SANNANALLUR,TIRUVARUR,"TAMIL NADU"
"CITY UNION BANK LIMITED",CIUB0000015,610054006,NANNILAM,"53-B BAZAAR STREET, NANILLAM - 610 105",230437,NANNILAM,TIRUVARUR,"TAMIL NADU"
"CITY UNION BANK LIMITED",CIUB0000014,609054003,KUTTALAM,"67, MELACHETTY ST, KUTTALAM - 609 801",234024,KUTTALAM,NAGAPATTINAM,"TAMIL NADU"
"CITY UNION BANK LIMITED",CIUB0000013,610054007,KODAVASAL,"45 MAIN ROAD, KODAVASAL - 612 601",262033,KODAVASAL,TIRUVARUR,"TAMIL NADU"
"CITY UNION BANK LIMITED",CIUB0000012,610054005,KORADACHERRY,"220 VKM BUILDINGS, KAMRAJ SALAI, KORADACHERY- 613 703",232422,KORADACHERY,TIRUVARUR,"TAMIL NADU"
"CITY UNION BANK LIMITED",CIUB0000011,612054010,ERAVANCHERRY,"DOOR NO.2 BY 332, MAIN ROAD, ERAVANCHERY - 609 501",273429,ERAVANCHERY,TIRUVARUR,"TAMIL NADU"
"CITY UNION BANK LIMITED",CIUB0000010,613054003,AYYEMPETTAI,"240, SALAI STREET, MAIN ROAD, AYYAMPET -614 201",242287,AYYEMPETTAI,THANJAVUR,"TAMIL NADU"
"CITY UNION BANK LIMITED",CIUB0000009,612054009,ADUTHURAI,"No. 22/40-41, Tharangampadi Road,ADUTHURAI,THANJAVUR",2472174,ADUTHURAI,THANJAVUR,"TAMIL NADU"
"CITY UNION BANK LIMITED",CIUB0000008,610054002,"TIRUVARUR  VIJAYAPURAM","MUTHU SHOPPING COMPLEX, GROUND FLOOR, 84 MARKET ROAD, VIJAYPURAM - 610 001",223197,TIRUVARUR,TIRUVARUR,"TAMIL NADU"
"CITY UNION BANK LIMITED",CIUB0000007,614054002,MANNARGUDI,"174 GANDHI ROAD, MANNARGUDI- 614001",252815,MANNARGUDI,TIRUVARUR,"TAMIL NADU"
"CITY UNION BANK LIMITED",CIUB0000006,611054002,NAGAPATINAM,"39 NEELA,SOUTH STREET,NAGAPATTINAM611001",242852,NAGAPATTINAM,NAGAPATTINAM,"TAMIL NADU"
"CITY UNION BANK LIMITED",CIUB0000005,609054002,MAYILADUTHURAI,"No.45,Pattamangala Street,Mayiladuthurai",222156,MAYILADUTHURAI,NAGAPATTINAM,"TAMIL NADU"
"CITY UNION BANK LIMITED",CIUB0000004,612054002,"KUMBAKONAM MO","149 BIG STREET,KUMBAKONAM MAIN612001",2421058,KUMBAKONAM,THANJAVUR,"TAMIL NADU"
"CITY UNION BANK LIMITED",CIUB0000003,612054003,"KUMBAKONAM TOWN","NO.42. MUTT STREET,KUMBAKONAM TOWN612001",2421176,KUMBAKONAM,THANJAVUR,"TAMIL NADU"
"CITY UNION BANK LIMITED",CIUB0000002,613054002,THANJAVUR,"16091611,SOUTH MAIN STREET,THANJAVUR613009",230943,THANJAVUR,THANJAVUR,"TAMIL NADU"
"CITY UNION BANK LIMITED",CIUB0000001,600054003,"TNAGAR CHENNAI","19,MAHALAKSHMI STREET,CHENNAI600017",24340010,CHENNAI,CHENNAI,"TAMIL NADU"
