"BANK ","IFSC CODE","MICR CODE","BRANCH NAME",ADDRESS,CONTACT,CITY,DISTRICT,STATE
"GURGAON GRAMIN BANK",GGBK0000001,110025279,"HEAD OFFICE GURGAON","PRAGATI BHAWAN,P36, SECTOR 44, GURGAON",9310898326,GURGAON,GURGAON,HARYANA
"GURGAON GRAMIN BANK",GGBK0001101,,ABHEYPUR,"VPO :DAMDAMA, DISTRICT GURGAON, HARYANA",0124-2363503,ABHEYPUR,GURGAON,HARYANA
"GURGAON GRAMIN BANK",GGBK0001102,,AHARWAN,VPO:AHERWAN," 01275-270302",AHARWAN,FARIDABAD,HARYANA
"GURGAON GRAMIN BANK",GGBK0001103,,AKODA,"VPO:AKODA,DISTRICT-MAHENDERGARH,STATE-HARYANA,PINCODE-123029.",01285-230505,AKODA,MAHENDRAGARH,HARYANA
"GURGAON GRAMIN BANK",GGBK0001104,,ALDUKA,"VILL. ALDUKA, PO:KURTHALA",01267-272128,ALDUKA,GURGAON,HARYANA
"GURGAON GRAMIN BANK",GGBK0001105,,ALIKA,"VPO:ALLIKA,DISTRICT-PALWA,STATE-HARYANA.PINCODE-121002.",01275-276427,ALIKA,FARIDABAD,HARYANA
"GURGAON GRAMIN BANK",GGBK0001106,,AURANGABAD,VPO:AURANGABAD,01275-263648,AURANGABAD,FARIDABAD,HARYANA
"GURGAON GRAMIN BANK",GGBK0001107,,BACHHOD,"VPO:BACHHOD, DISTRICT MAHENDERGARH, HARYANA"," 01282-248441",BACHHOD,MAHENDRAGARH,HARYANA
"GURGAON GRAMIN BANK",GGBK0001108,,BADED,VPO:BADED,"9416577241/ 9050024640",BADED,GURGAON,HARYANA
"GURGAON GRAMIN BANK",GGBK0001109,,BADOLI,"GURGAON GRAMIN BANK.VPO:BADOLI,DISTRICT-PALWAL,STATE-HARYANA.PINCODE-121102.",01275-267375,BADOLI,FARIDABAD,HARYANA
"GURGAON GRAMIN BANK",GGBK0001110,110025261,BADSHAHPUR,"VPO:BADSHAHPUR. DISTRICT GURGAON, HARYANA",0124-2361259,BADSHAHPUR,GURGAON,HARYANA
"GURGAON GRAMIN BANK",GGBK0001111,,BAHIN,VPO:BAHIN,9315044111,BAHIN,FARIDABAD,HARYANA
"GURGAON GRAMIN BANK",GGBK0001112,,"BALAHA KALAN","GURGAON GRAMIN BANK.VILL. BALAHKALAN POST OFFICE :KRISHNA NAGAR,DISTRICT-MAHENDERGARH,STATE-HARYANA.PINCODE-123001.",01282-244858,"BALAHA KALAN",MAHENDRAGARH,HARYANA
"GURGAON GRAMIN BANK",GGBK0001113,110025257,BALLABGARH,"CHAWLA COLONY, BALLABHGARH, FARIDABAD, HARYANA",0129-2241809,BALLABGARH,FARIDABAD,HARYANA
"GURGAON GRAMIN BANK",GGBK0001114,,BANCHARI,VPO:BANCHARI,01275-237485,BANCHARI,FARIDABAD,HARYANA
"GURGAON GRAMIN BANK",GGBK0001115,110025265,BEEWAN,VPO:BEEWAN,9315751115,BEEWAN,GURGAON,HARYANA
"GURGAON GRAMIN BANK",GGBK0001116,,BERLIKALAN,"VILL.BERLI KALAN, PO:MUSEPUR",01281-232044,BERLIKALAN,REWARI,HARYANA
"GURGAON GRAMIN BANK",GGBK0001118,,BHARAWAS,"VPO:BHARAWAS,DISTRICT-REWARI,STATE-HARYANA.PINCODE-123401.",01274-246669,BHARAWAS,REWARI,HARYANA
"GURGAON GRAMIN BANK",GGBK0001119,,BEDUKI,VPO:BHEDUKI,01275-272221,BEDUKI,FARIDABAD,HARYANA
"GURGAON GRAMIN BANK",GGBK0001120,,BHINGURI,"VILL.BHINGURI, PO:HATHIN",01275-261296,BHINGURI,FARIDABAD,HARYANA
"GURGAON GRAMIN BANK",GGBK0001121,,BHOJAWAS,"VPO:BHOJAWAS,DISTRICT-MAHENDERGARH,STATE-HARYANA.PINCODE-123034.",01285-244553,BHOJAWAS,MAHENDRAGARH,HARYANA
"GURGAON GRAMIN BANK",GGBK0001122,,"BAHORA KALAN","VPO:BHORAKALAN, DISTRICT GURGAON, HARYANA",0124-2379533,"BAHORA KALAN",GURGAON,HARYANA
"GURGAON GRAMIN BANK",GGBK0001123,,BICHHOR,VPO:BICHHORE,01268-275278,BICHHOR,GURGAON,HARYANA
"GURGAON GRAMIN BANK",GGBK0001124,,BISRU,"VPO:BISRU, DISTRICT MEWAT, HARYANA",01268-205202,BISRU,GURGAON,HARYANA
"GURGAON GRAMIN BANK",GGBK0001125,,BUDHWAL,VPO:BUDHWAL,01282-221355,BUDHWAL,MAHENDRAGARH,HARYANA
"GURGAON GRAMIN BANK",GGBK0001126,110025253,CARTERPURI,"PO:PALAM VIHAR, GURGAON PALAM ROAD, HANS PARK, NEAR ACP OFFICE,DISTRICT-GURGAON,STATE-HARYANA,PINCODE-122017.",0124-2368085,CARTERPURI,GURGAON,HARYANA
"GURGAON GRAMIN BANK",GGBK0001127,,CHANDAT,"VPO:CHANDHAT,DISTRICT PALWAL, HARYANA"," 01275-264207",CHANDAT,FARIDABAD,HARYANA
"GURGAON GRAMIN BANK",GGBK0001129,,DHANI-BHATHOTHA,"VPO:DHANI BHATOTA,DISTRICT-MAHENDERGARH,STATE-HARYANA.PINCODE-123001.",01282-206267,DHANI-BHATHOTHA,MAHENDRAGARH,HARYANA
"GURGAON GRAMIN BANK",GGBK0001130,,DHANKOT,"VPO:DHANKOT,DISTRICT-GURGAON,STATE-HARYANA,PINCODE-122505.",0124-2278160,DHANKOT,GURGAON,HARYANA
"GURGAON GRAMIN BANK",GGBK0001131,,DHANODA,"VILL.DHANONDA, P.O.ATELI,NARNAUL,DISTRICT-MAHENDERGARH,STATE-HARYANA,PINCODE-123021.",01282-276190,DHANODA,MAHENDRAGARH,HARYANA
"GURGAON GRAMIN BANK",GGBK0001132,,DHATIR,"VPO DHATIR, TEHSIL PALWAL,DIST-PALWAL,STATE-HARYANA,PINCODE-121102.",9315801132,DHATIR,FARIDABAD,HARYANA
"GURGAON GRAMIN BANK",GGBK0001133,,DHAUJ,"V.PO.DHAUJ, DISTRICT PALWAL, HARYANA"," 0129-2206573",DHAUJ,FARIDABAD,HARYANA
"GURGAON GRAMIN BANK",GGBK0001134,,DHOLEHRA,"VPO:DHOLERA,NARNAUL,DISTRICT-MAHENDERGARH,STATE-HARYANA.PINCODE-123001.",01282-273838,DHOLEHRA,MAHENDRAGARH,HARYANA
"GURGAON GRAMIN BANK",GGBK0001135,,DIGHOT,"VPO:DIGHOT,DISTRICT-PALWA,STATE-HARYANA.PINCODE-121005.",9315371135,DIGHOT,FARIDABAD,HARYANA
"GURGAON GRAMIN BANK",GGBK0001136,,DUDHOLA,"VILL.DUDHOLA, PO:BAGHOLA,DISTRICT-PALWAL,STATE-HARYANA.PINCODE-121102.",01275-262342,DUDHOLA,FARIDABAD,HARYANA
"GURGAON GRAMIN BANK",GGBK0001137,,DULOTHAHIR,"VPO:DULOTH AHIR,DISTRICT-MAHENDERGARH,STATE-HARYANA.PINCODE-123029.",01285-242038,DULOTH,MAHENDRAGARH,HARYANA
"GURGAON GRAMIN BANK",GGBK0001138,110025251,FARIDABAD,"NEAR ARYA SAMAJ MANDIR, MAIN MARKET , OLD FARIDABAD",0129-2501230,FARIDABAD,FARIDABAD,HARYANA
"GURGAON GRAMIN BANK",GGBK0001139,,"GANGIACHA AHIR","VILL.G.AHIR, PO.BIKANER,DISTRICT-REWARI,STATE-HARYANA.PINCODE-123401.",01274-247881,"GANGIACHA AHIR",REWARI,HARYANA
"GURGAON GRAMIN BANK",GGBK0001140,,BOLANI,"VILL.BOLNI, PO:GARHI BOLNI,DISTRICT-REWARI,STATE-HARYANA.PINCODE-123401.",01274-267126,BOLANI,REWARI,HARYANA
"GURGAON GRAMIN BANK",GGBK0001141,110025273,"GARHI HARSARU","VPO:GARHI HARSRU",0124-2276595,"GARHI HARSARU",GURGAON,HARYANA
"GURGAON GRAMIN BANK",GGBK0001142,,GHAMROJ,VPO:GHAMROJ,0124-2393395,GHAMROJ,GURGAON,HARYANA
"GURGAON GRAMIN BANK",GGBK0001143,,GHANGOLA,VPO:GHANGOLA,0124-2318495,GHANGOLA,GURGAON,HARYANA
"GURGAON GRAMIN BANK",GGBK0001144,,GHARODA,"VILLAGE GHARODA,POST OFFICE:ALIPUR, DISTRICT FARIDABAD, HARYANA",0129-2402926,GHARODA,FARIDABAD,HARYANA
"GURGAON GRAMIN BANK",GGBK0001145,,GHAROT,VPO:GHAROT,9050684568,GHAROT,FARIDABAD,HARYANA
"GURGAON GRAMIN BANK",GGBK0001146,,GHASEDA,VPO:GHASEDA,01267-276524,GHASEDA,GURGAON,HARYANA
"GURGAON GRAMIN BANK",GGBK0001147,,GURAWADA,"VPO:GURAWARA, DISTRICT REWARI, HARYANA",01281-245737,GURAWADA,REWARI,HARYANA
"GURGAON GRAMIN BANK",GGBK0001148,110025251,"GURGAON MAIN","NEAR ARYAN HOSPITAL, OLD RAILWAY ROAD,DIST-GURGAON,STATE-HARYANA.PINCODE-122001.",9310371148,GURGAON,GURGAON,HARYANA
"GURGAON GRAMIN BANK",GGBK0001149,,"HAILEY MANDI","VPO: HAILY MANDI,PATAUDI,,DISTRICT-GURGAON,STATE-HARYANA,PINCODE-122504.",0124-2670667,"HAILEY MANDI",GURGAON,HARYANA
"GURGAON GRAMIN BANK",GGBK0001150,,HANSAKA,"VILL.HANSAKA, PO:SHEORAJ MAJRA,DISTRICT-REWARI.STATE-HARYANA,PINCODE-123401.",9315531150,HANSAKA,REWARI,HARYANA
"GURGAON GRAMIN BANK",GGBK0001151,110025266,INDRI,"VPO:INDRI, DISTRICT MEWAT, HARYANA",9355051151,INDRI,GURGAON,HARYANA
"GURGAON GRAMIN BANK",GGBK0001152,,JAINABAD,"VILL.JAINABAD, PO.DAHINA,DISTRICT-REWARI,STATE-HARYANA.PINCODE-123411.",01281-248979,JAINABAD,REWARI,HARYANA
"GURGAON GRAMIN BANK",GGBK0001153,,JASANA,"POST OFFICE:BADARPUR SAYEED",9310171153,JASANA,FARIDABAD,HARYANA
"GURGAON GRAMIN BANK",GGBK0001154,,JATUSANA,"VPO:JATUSANA, DISTRICT REWARI, HARYANA"," 01281-242016",JATUSANA,REWARI,HARYANA
"GURGAON GRAMIN BANK",GGBK0001155,110025255,JHARSA,"VPO:JHARSA,DISTRICT-GURGAON,STATE-HARYANA,PINCODE-122003.",0124-2380265,JHARSA,GURGAON,HARYANA
"GURGAON GRAMIN BANK",GGBK0001156,,KALWADI,"VPO:KALWARI, DISTRICT MEWAT, HARYANA"," 01267-278328",KALWADI,GURGAON,HARYANA
"GURGAON GRAMIN BANK",GGBK0001157,,KANINA,"VPO:KANINA, DISTRICT MAHENDERGARH, HARYANA",01285-235178,KANINA,MAHENDRAGARH,HARYANA
"GURGAON GRAMIN BANK",GGBK0001158,,KANTI,VPO:KANTI," 01282-274387",KANTI,MAHENDRAGARH,HARYANA
"GURGAON GRAMIN BANK",GGBK0001159,,KAPRIWAS,"VILL.KAPRIWAS, PO:INDUSTRIAL AREA DHARUHERA,DISTRICT-REWARI.STATE-HARYANA,PINCODE-123110.",01274-242879,KAPRIWAS,REWARI,HARYANA
"GURGAON GRAMIN BANK",GGBK0001160,,KASAN,"VPO:KASAN,DISTRICT-GURGAON,STATE-HARYANA,PINCODE-122050.",0124-2290379,KASAN,GURGAON,HARYANA
"GURGAON GRAMIN BANK",GGBK0001161,,KHAMBI,VPO:KHAMBI," 01275-273317",KHAMBI,FARIDABAD,HARYANA
"GURGAON GRAMIN BANK",GGBK0001162,110025254,KHANDSA,"VPO:KHANDSA, DISTRICT GURGAON, HARYANA",0124-2372616,KHANDSA,GURGAON,HARYANA
"GURGAON GRAMIN BANK",GGBK0001163,,"KHERI KALAN","VPO-KHERI KALAN, DISTRICT FARIDABAD, HARYANA"," 0129-2202687","KHERI KALAN",FARIDABAD,HARYANA
"GURGAON GRAMIN BANK",GGBK0001164,,KHOL,"VPO:KHOL, DISTRICT REWARI, HARYANA",01281-240435,KHOL,REWARI,HARYANA
"GURGAON GRAMIN BANK",GGBK0001165,,"JAMALPUR CHOWK","VPO:JAMALPUR CHOWK,DISTRICT-GURGAON,STATE-HARYANA,PINCODE-123504.",0124-2280159,JAMALPUR,GURGAON,HARYANA
"GURGAON GRAMIN BANK",GGBK0001166,,KONDAL,"VPO:KONDAL, DISTRICT PALWAL, HARYANA"," 01275-261271",KONDAL,FARIDABAD,HARYANA
"GURGAON GRAMIN BANK",GGBK0001167,,KUSHAK,"VILL.KUSHAK, POST OFFICE:TAPPA,DISTRICT-PALWAL,STATE-HARYANA.PINCODE-121107.",01275-207866,KUSHAK,FARIDABAD,HARYANA
"GURGAON GRAMIN BANK",GGBK0001168,,LUKHI,"VPO:LUKHI,DISTRICT-REWARI.STATE-HARYANA,PINCODE-123303.",01259-271483,LUKHI,REWARI,HARYANA
"GURGAON GRAMIN BANK",GGBK0001169,,MADHOGARH,"VPO:MADHOGARH, DISTRICT MAHENDERGARH, HARYANA",01285-241160,MADHOGARH,MAHENDRAGARH,HARYANA
"GURGAON GRAMIN BANK",GGBK0001170,,MALAB,VPO:MALAB,,GURGAON,GURGAON,HARYANA
"GURGAON GRAMIN BANK",GGBK0001171,,MALAI,VPO:MALAI,9671041902,MALAI,FARIDABAD,HARYANA
"GURGAON GRAMIN BANK",GGBK0001172,,MANDOLA,"VPO:MANDOLA, DISTRICTB REWARI, HARYANA",01281-220444,MANDOLA,REWARI,HARYANA
"GURGAON GRAMIN BANK",GGBK0001173,,"MOHMMEDPUR AHIR","VPO:MOHD.PUR AHIR"," 01267-278100","MOHMMEDPUR AHIR",GURGAON,HARYANA
"GURGAON GRAMIN BANK",GGBK0001174,,MOHNA,"VPO- MOHNA, DISTRICT FARIDABAD, HARYANA"," 01275-266526",MOHNA,FARIDABAD,HARYANA
"GURGAON GRAMIN BANK",GGBK0001175,,MUSHEDPUR,"PO:SHIVADI,",0124-2375653,MUSHEDPUR,GURGAON,HARYANA
"GURGAON GRAMIN BANK",GGBK0001176,,NAGINA,VPO:NAGINA,01268-273241,NAGINA,GURGAON,HARYANA
"GURGAON GRAMIN BANK",GGBK0001177,110025274,NAKHROLA,"VPO:NAKHROLA,DISTRICT-GURGAON,STATE-HARYANA,PINCODE-122001.",0124-2290032,NAKHROLA,GURGAON,HARYANA
"GURGAON GRAMIN BANK",GGBK0001178,,NANDRAMPURBAS,"VPO:NAND RAM PUR WAS, DISTRICT REWARI, HARYANA"," 01274-245764",NANDRAMPURBAS,REWARI,HARYANA
"GURGAON GRAMIN BANK",GGBK0001180,,"NANGAL SHAHBAZPUR","VPO NANGAL SHAHBAJPUR",01284-294241,"NANGAL SHAHBAZPUR",REWARI,HARYANA
"GURGAON GRAMIN BANK",GGBK0001181,,NANUKALAN,"VPO:NANUKALAN, DISTRICT GURGAON, HARYANA"," 0124-2264021",NANUKALAN,GURGAON,HARYANA
"GURGAON GRAMIN BANK",GGBK0001182,,NARNAUL,"POST OFFICE:NARNAUL, SINGHANA ROAD, (SARASWATI COMPLEX) NEAR PETROL PUMP,NARNAUL,DISTRICT-MAHENDERGARH,STATE-HARYANA,PINCODE-123001.",01282-254785,NARNAUL,MAHENDRAGARH,HARYANA
"GURGAON GRAMIN BANK",GGBK0001183,,NIWASNAGAR,"VILL.NIWAS NAGAR, PO:DHARSU",01282-260088,NIWASNAGAR,MAHENDRAGARH,HARYANA
"GURGAON GRAMIN BANK",GGBK0001184,,NIZAMPUR,"VPO:NIZAMPUR,NARNAUL,DISTRICT-MAHENDERGARH,STATE-HARYANA.PINCODE-123001.",01282-242321,NIZAMPUR,MAHENDRAGARH,HARYANA
"GURGAON GRAMIN BANK",GGBK0001185,,PACHGAON,"VPO:PACHGAON, DISTRIC GURGAON, HARYANA",9310371185,PACHGAON,GURGAON,HARYANA
"GURGAON GRAMIN BANK",GGBK0001186,,PALI,"VPO-PALI, DISTRICT FARIDABAD, HARYANA"," 0129-2480289",PALI,FARIDABAD,HARYANA
"GURGAON GRAMIN BANK",GGBK0001188,110025258,PALLA,"12/5, BUNTI WALI GALI, POST OFFICE-AMAR NAGAR,"," 0129-2275093",PALLA,FARIDABAD,HARYANA
"GURGAON GRAMIN BANK",GGBK0001189,,PALWAL,"POST OFFICE:PALWAL, AGRA CHOWK, G.T.ROAD",01275-246832,PALWAL,FARIDABAD,HARYANA
"GURGAON GRAMIN BANK",GGBK0001190,,PALWALI,"VPO-KHERI KALAN, DISTRICT FARIDABAD, HARYANA",0129-2202598,PALWALI,FARIDABAD,HARYANA
"GURGAON GRAMIN BANK",GGBK0001191,110025269,PATAUDI,"VPO:PATAUDI, DISTRICT GURGAON, HARYANA",0124-2672626,PATAUDI,GURGAON,HARYANA
"GURGAON GRAMIN BANK",GGBK0001192,,PINANGWAN,"VPO:PINANGWAN, DISTRICT MEWAT,HARYANA",01268-279140,PINANGWAN,GURGAON,HARYANA
"GURGAON GRAMIN BANK",GGBK0001193,,"NANGAL TEJU","VPO:NANGAL TEJU,BAWAL,DISTRICT-REWARI,STATE-HARYANA.PINCODE-123501.",01284-265762,"NANGAL TEJU",REWARI,HARYANA
"GURGAON GRAMIN BANK",GGBK0001194,,PIRTHALA,"VPO:PRITHALA,DISTRICT-PALWAL,STATE-HARYANA.PINCODE-121102.",01275-362213,PIRTHALA,FARIDABAD,HARYANA
"GURGAON GRAMIN BANK",GGBK0001195,,PUNHANA,VPO:PUNHANA,01268-272600,PUNHANA,GURGAON,HARYANA
"GURGAON GRAMIN BANK",GGBK0001196,,"RATA KALAN",VPO:RATANKALAN," 01282-277510","RATA KALAN",MAHENDRAGARH,HARYANA
"GURGAON GRAMIN BANK",GGBK0001197,,RAWLI,"VPO:RAWALI, DISTRICT MEWAT, HARYANA",/01268-277887,RAWLI,GURGAON,HARYANA
"GURGAON GRAMIN BANK",GGBK0001198,110025288,REWARI,"PO:REWARI, NEAR RADHIKA CINEMA, CIRCULAR ROAD, REWARI",01274-253227,REWARI,REWARI,HARYANA
"GURGAON GRAMIN BANK",GGBK0001199,,SAKRAS,VPO:SAKRAS,01268-205906,SAKRAS,GURGAON,HARYANA
"GURGAON GRAMIN BANK",GGBK0001200,,SANGWARI,"VPO:SANGWARI,DISTRICT-REWARI,STATE-HARYANA.PINCODE-123401.",01274-249337,SANGWARI,REWARI,HARYANA
"GURGAON GRAMIN BANK",GGBK0001201,,"SROHI BHALI","VPO:SIROHI BHALI, DISTRICT MAHENDERGARH, HARYANA"," 01282-246308","SROHI BHALI",MAHENDRAGARH,HARYANA
"GURGAON GRAMIN BANK",GGBK0001202,,SEEHMA,"VPO:SEEHMA, DISTRICT MAHENDERGARH, HARYANA"," 01282-240403",SEEHMA,MAHENDRAGARH,HARYANA
"GURGAON GRAMIN BANK",GGBK0001203,,SEHLONG,"VPO:SEHLONG, DISTRICT MAHENDERGARH, HARYANA"," 01285-234303",SEHLONG,MAHENDRAGARH,HARYANA
"GURGAON GRAMIN BANK",GGBK0001204,,SHERPUR,VPO:SHERPUR,0124-2270436,SHERPUR,GURGAON,HARYANA
"GURGAON GRAMIN BANK",GGBK0001205,,SIKRAWA,"VPO:SHIKRAWA, DISTRICT MEWAT, HARYANA",01268-274278,SIKRAWA,GURGAON,HARYANA
"GURGAON GRAMIN BANK",GGBK0001206,,SHINGAR,VPO:SHINGAR,01268-201300,SHINGAR,GURGAON,HARYANA
"GURGAON GRAMIN BANK",GGBK0001207,,SIDHRAWALI,"VPO:SIDHRAWLI,,DISTRICT-GURGAON,STATE-HARYANA,PINCODE-122413.",0124-2679001,SIDHRAWALI,GURGAON,HARYANA
"GURGAON GRAMIN BANK",GGBK0001208,,SIHA,"VPO:SIHA, DISTRICT REWARI, HARYANA",01281-230512,SIHA,REWARI,HARYANA
"GURGAON GRAMIN BANK",GGBK0001209,110025259,SIHI,"SCF-45,SECTOR-3,AT-SHI,DISTRICT-FARIDABAD,STATE-HARYANA,PINCODE-121004.",0129-2240847,FARIDABAD,FARIDABAD,HARYANA
"GURGAON GRAMIN BANK",GGBK0001210,110025256,SIKANDERPUR,"VILL.SIKANDERPUR, PO:DLF, PHASE-1,DISTRICT-GURGAON,STATE-HARYANA,PINCODE-122002.",9310171210,"SIKANDERPUR GHOSI",GURGAON,HARYANA
"GURGAON GRAMIN BANK",GGBK0001211,,SIKRONA,"POST OFFICE-FATEHPUR TAGA, DISTRICT FARIDABAD, HARYANA"," 0129-2205077",SIKRONA,FARIDABAD,HARYANA
"GURGAON GRAMIN BANK",GGBK0001212,110025262,SOHNA,"POST OFFICE :SOHNA,DISTRICT-GURGAON,STATE-HARYANA,PINCODE-122013.",9310371212,SOHNA,GURGAON,HARYANA
"GURGAON GRAMIN BANK",GGBK0001213,,SONDHAD,"VPO:SONDHAD, DISTRICT PALWAL, HARYANA"," 01275-236922",SONDHAD,FARIDABAD,HARYANA
"GURGAON GRAMIN BANK",GGBK0001214,,SULTANPUR,"VPO:SULTANPUR, DISTRICT GURGAON, HARYANA",9310371214,SULTANPUR,GURGAON,HARYANA
"GURGAON GRAMIN BANK",GGBK0001215,,"KHERI KALAN","VPO-KHERI KALAN",01267-201277,"KHERI KALAN",FARIDABAD,HARYANA
"GURGAON GRAMIN BANK",GGBK0001216,,SUNPED,"POST OFFICE-BALLABHGARH"," 0129-2208252",SUNPED,FARIDABAD,HARYANA
"GURGAON GRAMIN BANK",GGBK0001217,,TANKRI,"VPO:TANKRI, DISTRICT REWARI, HARYANA"," 01284-267907",TANKRI,REWARI,HARYANA
"GURGAON GRAMIN BANK",GGBK0001218,,TAURU,"VPO:TAURU, REWARI SOHNA ROAD,DISTRICT-MEWAT,STATE-HARYANA.PINCODE-122105.",01267-282341,TAURU,GURGAON,HARYANA
"GURGAON GRAMIN BANK",GGBK0001220,110025264,TIGAON,VPO-TIGAON,0129-2402673,TIGAON,FARIDABAD,HARYANA
"GURGAON GRAMIN BANK",GGBK0001221,,HODAL,"VPO:HODAL,DISTRICT-PALWA,STATE-HARYANA.PINCODE-121106.",9355231221,HODAL,FARIDABAD,HARYANA
"GURGAON GRAMIN BANK",GGBK0001222,,MAHENDRAGARH,"POST OFFICE:MAHENDERGARH, SHOPPING COMPLEX,DISTRICT-MAHENDERGARH,STATE-HARYANA,PINCODE-123029.",01285-221428,MAHENDRAGARH,MAHENDRAGARH,HARYANA
"GURGAON GRAMIN BANK",GGBK0001223,,"NANGAL CHOWDHARY","VPO:NANGAL CHAUDHARY, BDPO-COMPLEX,NARNAUL,,DISTRICT-MAHENDERGARH,STATE-HARYANA,PINCODE-123023.",01282-278839,"NANGAL CHOWDHARY",MAHENDRAGARH,HARYANA
"GURGAON GRAMIN BANK",GGBK0001224,110025263,"GURGAON-(SEC 4)","SCO-33,SECTOR-4, MARKET GURGAON,"," 0124-2326534",GURGAON,GURGAON,HARYANA
"GURGAON GRAMIN BANK",GGBK0001225,110025260,"NIT FARIDABAD","C/1 A, NEHRU GROUND FARIDABAD,DIST-FARIDABAD,STATE-HARYANA.PINCODE-121001.",9310171225,FARIDABAD,FARIDABAD,HARYANA
"GURGAON GRAMIN BANK",GGBK0001226,110025271,DHARUHERA,"VPO:DHARUHERA, NEAR HARYANA TOURIST COMPLEX, SOHNA REWARI ROAD,DISTRICT-REWARI.STATE-HARYANA,PINCODE-123303.",9315431226,DHARUHERA,REWARI,HARYANA
"GURGAON GRAMIN BANK",GGBK0001227,,HATHIN,"VPO:HATHIN, OPP.GOVT.HIGH SCHOOL, HATHIN GAHLAB ROAD,DISTRICT-PALWAL,STATE-HARYANA.PINCODE-121103.",01275-261428,HATHIN,FARIDABAD,HARYANA
"GURGAON GRAMIN BANK",GGBK0001228,,KOSLI,"VPO:KOSLI, TEHSIL ROAD, RAILWAY STATION:KOSLI,DISTRICT-REWARI.STATE-HARYANA,PINCODE-123302.",01259-276552,KOSLI,REWARI,HARYANA
"GURGAON GRAMIN BANK",GGBK0001229,110025266,WAZIRABAD,"VPO-WAZIRABAD, OPPOSITE SENIOR SECONDARY SCHOOL, WAZIRABAD,DISTRICT-GURGAON,STATE-HARYANA,PINCODE-122002.",0124-2765036,GURGAON,GURGAON,HARYANA
"GURGAON GRAMIN BANK",GGBK0001230,,SILANI,"VPO:SILANI, LOCATION:SOHNA PALWAL ROAD",0124-2013002,GURGAON,GURGAON,HARYANA
"GURGAON GRAMIN BANK",GGBK0001231,,HASANPUR,"VPO:HASSANPUR, NEAR BUS STAND/POLICE STATION"," 01275-271494",HASSANPUR,FARIDABAD,HARYANA
"GURGAON GRAMIN BANK",GGBK0001232,,REWARI,"VPO:ROHRAI , LOCATION;ROHRAI MORE,DISTRICT-REWARI,STATE-HARYANA.PINCODE-123401.",01281-204112,REWARI,REWARI,HARYANA
"GURGAON GRAMIN BANK",GGBK0001233,,KHEWRA,"VPO:KHEWRA, GREAT MISSION SCHOOL, BAHALGARH MERRUT ROAD",0130-2110020,SONIPAT,SONIPAT,HARYANA
"GURGAON GRAMIN BANK",GGBK0001234,,QUAMASPUR,VPO:QUAMASPUR," 0130-2100060",SONIPAT,SONIPAT,HARYANA
"GURGAON GRAMIN BANK",GGBK0001235,,KAKROI,"VPO:KAKROI, DISTRICT SONEPAT, HARYANA","  0130-2564926",SONIPAT,SONIPAT,HARYANA
"GURGAON GRAMIN BANK",GGBK0001236,,"PANCHI JATAN","VILL.PANCHHI JATAN, PO:PURKHAS",0130-2425124,SONIPAT,SONIPAT,HARYANA
"GURGAON GRAMIN BANK",GGBK0001237,,ROHAT,"VPO:ROHAT, DISTRICT SONEPAT, HARYANA"," 0130-2525526",SONIPAT,SONIPAT,HARYANA
"GURGAON GRAMIN BANK",GGBK0001238,110025265,BAHALGARH,"VPO:BAHALGARH, N H-1,DISTRICT-RONEPAT.STATE-HARYANA,PINCODE-131021.",9315641238,BAHALGARH,SONIPAT,HARYANA
"GURGAON GRAMIN BANK",GGBK0001239,,RATHDHANA,"VPO:RATHDHANA, DISTRICT"," 0130-2110090",SONIPAT,SONIPAT,HARYANA
"GURGAON GRAMIN BANK",GGBK0001240,110025268,DAULATABAD,"VPO:DAULATABAD,DISTRICT-GURGAON,STATE-HARYANA.PINCODE-122006.",0124-2468308,GURGAON,GURGAON,HARYANA
"GURGAON GRAMIN BANK",GGBK0001241,,BHONDSI,VPO:BHONDSI,0124-2265296,BHONDSI,GURGAON,HARYANA
"GURGAON GRAMIN BANK",GGBK0001242,,KATESRA,"VPO:KATESRA, PALWAL MOHNA ROAD",01275-206872,FARIDABAD,FARIDABAD,HARYANA
"GURGAON GRAMIN BANK",GGBK0001243,,"CHAND PURA","VPO:CHANDPURA, REWARI NARNAUL ROAD,DISTRICT-MAHENDERGARH,STATE-HARYANA.PINCODE-123021.",01282-204399,MAHENDRAGARH,MAHENDRAGARH,HARYANA
"GURGAON GRAMIN BANK",GGBK0001244,110025275,KUNDLI,"VPO:KUNDLI,DISTRICT-SONEPAT.STATE-HARYANA,PINCODE-131028.",9355421244,KUNDLI,SONIPAT,HARYANA
"GURGAON GRAMIN BANK",GGBK0001245,,UJINA,"VPO:UJINA, DISTRICT MEWAT, HARYANA",01267-275150,UJINA,GURGAON,HARYANA
"GURGAON GRAMIN BANK",GGBK0001246,,RAI,"VPO:RAI, DISTRICT SONEPAT, HARYANA"," 0130-2111203",RAI,SONIPAT,HARYANA
"GURGAON GRAMIN BANK",GGBK0001247,,MANDKOLA,"VPO:MANDKOLA, MAIN BUS STAND,DISTRICT-MEWAT,STATE-HARYANA.PINCODE-121103.",9354221247,MANDKOLA,FARIDABAD,HARYANA
"GURGAON GRAMIN BANK",GGBK0001248,110025278,GANAUR,"VILL & P.O GANNAUR ,NEAR BDPO OFFICE, TEHSIL GANNAUR,DISTRICT SONEPAT,STATE-HARYANA,PIN-131101",0130-2460332,GANAUR,SONIPAT,HARYANA
"GURGAON GRAMIN BANK",GGBK0001249,,GOHANA,"VPO:GOHANA, TEHSIL ROAD, MAIN BAZAR",01263-256113,GOHANA,SONIPAT,HARYANA
"GURGAON GRAMIN BANK",GGBK0001250,110025270,FARRUKHNAGAR,"VPO:FARUKH NAGAR, WARD NO.7, PATAUDI ROAD, NEAR BUS STAND, FARUKH NAGAR,DISTRICT-GURGAON,STATE-HARYANA,PINCODE-122506.",0124-2275156,FARRUKHNAGAR,GURGAON,HARYANA
"GURGAON GRAMIN BANK",GGBK0001251,,"FIROZE PUR JHIRKA","VPO:FIROJPUR JHIRKA, NEAR POLICE STATION",01268-278813,FEROJEPUR,GURGAON,HARYANA
"GURGAON GRAMIN BANK",GGBK0001252,,KHARKHODA,"VPO;KHARKHODA, WARD NO.5, ROHTAK ROAD"," 0130-2584700",KHARKHODA,SONIPAT,HARYANA
"GURGAON GRAMIN BANK",GGBK0001253,,BAGHPUR,"VPO:BAGPUR, MAIN BUS STAND,DISTRICT-PALWA,STATE-HARYANA.PINCODE-121002.",01275-207324,FARIDABAD,FARIDABAD,HARYANA
"GURGAON GRAMIN BANK",GGBK0001254,,REWARI,"VPO:KARNAWAS,DISTRICT-REWARI.STATE-HARYANA,PINCODE-123401.",9354831254,REWARI,REWARI,HARYANA
"GURGAON GRAMIN BANK",GGBK0001255,,PATLI,"VPO:PATLI,FARUKH NAGAR,DISTRICT-GURGAON,STATE-HARYANA.PINCODE-122506.",0124-2015929,GURGAON,GURGAON,HARYANA
"GURGAON GRAMIN BANK",GGBK0001256,,NUH,"VPO:NUH,DISTRICT-MEWAT,STATE-HARYANA,PINCODE-122107.",01267-274725,NUH,GURGAON,HARYANA
"GURGAON GRAMIN BANK",GGBK0001257,,BICHPURI,VPO:BICHPARI,01263-286222,SONIPAT,SONIPAT,HARYANA
"GURGAON GRAMIN BANK",GGBK0001258,,"KHANPUR KALAN","VPO:KHANPUR KALAN, NEAR UNIVERSITY GATE",01263-283015,"KHANPUR KALAN",SONIPAT,HARYANA
"GURGAON GRAMIN BANK",GGBK0001259,110025272,MANESAR,"VPO:MANESAR, MANESAR KHOH ROAD,DISTRICT-GURGAON,STATE-HARYANA,PINCODE-122050.",9310371259,MANESAR,GURGAON,HARYANA
"GURGAON GRAMIN BANK",GGBK0001260,110025267,SONIPAT,"GURDWARA ROAD, NEAR S.D. SCHOOL,DIST-SONEPAT,STATE-HARYANA,PINCODE-131001.",9315531260,SONIPAT,SONIPAT,HARYANA
"GURGAON GRAMIN BANK",GGBK0001261,,MUNDIA-KHERA,"AT-MUNDIA KHERA,NEAR, KANINA, KANINA-ATELI ROAD 8KM FROM KANINA",9354551261,MAHENDRAGARH,MAHENDRAGARH,HARYANA
"GURGAON GRAMIN BANK",GGBK0001262,,ATERNA,"AT-ATERNA,NEAR, KUNDALI, DISTT. SONEPAT, HARYANA",0130-2315266,SONIPAT,SONIPAT,HARYANA
"GURGAON GRAMIN BANK",GGBK0001263,110025276,TIKRI,"SOUTH CITY-II, B-BLOCK,AT-TIKRI, POST OFFICE:FAZILPUR,DISTRICT-GURGAON,STATE-HARYANA,PINCODE-122002.",9810162805,GURGAON,GURGAON,HARYANA
"GURGAON GRAMIN BANK",GGBK0001264,,NAHAR,"VPO:NAHAR,DISTRICT-REWARI.STATE-HARYANA,PINCODE-123303.",01259-271683,NAHAR,REWARI,HARYANA
"GURGAON GRAMIN BANK",GGBK0001265,,ATALI,"V PO - ATALI,DISTRICT-FARIDABAD,STATE-HARYANA.PINCODE-121004.",0129-2207350,FARIDABAD,FARIDABAD,HARYANA
"GURGAON GRAMIN BANK",GGBK0001266,,NAHARI,"VPO:NAHARI,DISTRICT-REWARI.STATE-HARYANA,PINCODE-131103.",0130-2573831,SONIPAT,SONIPAT,HARYANA
"GURGAON GRAMIN BANK",GGBK0001267,,JUAN,"VPO:JUAN,,DISTRICT-SONEPAT.STATE-HARYANA,PINCODE-131024.",0130-2530303,SONIPAT,SONIPAT,HARYANA
"GURGAON GRAMIN BANK",GGBK0001268,110025277,"SECTOR-44 GURGAON","PLOT NO.36 P, PRAGATI BHAWAN, POST OFFICE, SECTOR-44,DIST-GURGAON,STATE-HARYANA,PINCODE-122002.",9310011268,GURGAON,GURGAON,HARYANA
"GURGAON GRAMIN BANK",GGBK0001269,110025279,"PATAUDI ROAD GURGAON","CRS COMPLEX, 55/3/23, NEAR TIKONA PARK,
LAXMI GARDEN, PATAUDI ROAD,GURGAON,DISTRICT-GURGAON,STATE-HARYANA,PINCODE-122001.
",0124-2220647,GURGAON,GURGAON,HARYANA
"GURGAON GRAMIN BANK",GGBK0001270,110025280,MURTHAL,"VPO:MURTHAL,DISTRICT-SONEPAT.STATE-HARYANA,PINCODE-131027.",0130-2482354,MURTHAL,SONIPAT,HARYANA
"GURGAON GRAMIN BANK",GGBK0001271,110025282,SHIKOHPUR,VPO:SHIKOHPUR,9717261992,GURGAON,GURGAON,HARYANA
"GURGAON GRAMIN BANK",GGBK0001272,,MAHRA,VPO:MAHRA,01263-289150,SONIPAT,SONIPAT,HARYANA
"GURGAON GRAMIN BANK",GGBK0001273,,"MODEL TOWN, REWARI","126 L-II, NEAR PUBLIC HEALTH OFFICE REWARI,DISTRICT-REWARI.STATE-HARYANA,PINCODE-123401.",9728161698,REWARI,REWARI,HARYANA
"GURGAON GRAMIN BANK",GGBK0001274,110025281,"DABUA COLONY","C/50, AIR FORCE ROAD, NIT FARIDABAD",9871547117,FARIDABAD,FARIDABAD,HARYANA
"GURGAON GRAMIN BANK",GGBK0001275,110025286,BAJGHERA,"VPO: BAJGHERA,DISTRICT-GURGAON,STATE-HARYANA,PINCODE-123504.",9899968809,GURGAON,GURGAON,HARYANA
"GURGAON GRAMIN BANK",GGBK0001276,110025283,DUNDAHERA,"VPO: DUNDAHERA,DISTRICT-GURGAON,STATE-HARYANA,PINCODE-122016.",9868834823,DUNDAHAIRA,GURGAON,HARYANA
"GURGAON GRAMIN BANK",GGBK0001277,110025284,"RAJENDRA PARK","MAIN BAJGHERA ROAD, NEAR PARVESH GARDEN BLOCK,GURGAON,DISTRICT-GURGAON,STATE-HARYANA,PINCODE-122001."," 09311991277",GURGAON,GURGAON,HARYANA
"GURGAON GRAMIN BANK",GGBK0001278,,PUGHTHALA,"VPO: PUGHTHALA,DISTRICT-SONEPAT,.STATE-HARYANA,PINCODE-131102."," 09991506619",SONIPAT,SONIPAT,HARYANA
"GURGAON GRAMIN BANK",GGBK0001279,,BAWAL,"VILL. BAWAL, DISTT. REWARI (REWARI-BAWAL ROAD)",01284-260202,BAWAL,REWARI,HARYANA
"GURGAON GRAMIN BANK",GGBK0001280,,BAWANIA,"AT-BAWANIA,NEAR, KANINA, KANINA-MAHENDERGARH ROAD, 8KM FROM KANINA",9991570049,BAWANA,MAHENDRAGARH,HARYANA
"GURGAON GRAMIN BANK",GGBK0001281,110025280,BHANGROLA,"AT BHANGROLA,NEAR, GARHI HARSARU, GURGAON PATAUDI ROAD, 8KM FROM GURGAON",9311121633,GURGAON,GURGAON,HARYANA
"GURGAON GRAMIN BANK",GGBK0001282,,BADWASANI,"VILL BADWASANI,DISTRICT-SONEPAT,STATE-HARYANA-130001.",9355099101,SONIPAT,SONIPAT,HARYANA
"GURGAON GRAMIN BANK",GGBK0001283,,"NANGAL SAROHI","KHERKI MORE, VILL.NANGAL SAROHI,DISTRICT-MAHENDERGARH,STATE-HARYANA-124001.",9354451301,MAHENDRAGARH,MAHENDRAGARH,HARYANA
"GURGAON GRAMIN BANK",GGBK0001284,,SEKA,"VILL SEKA,PO-MADHANA,DISTRICT-MAHENDERGARH,STATE-HARYANA-124001.",9354451301,MAHENDRAGARH,MAHENDRAGARH,HARYANA
"GURGAON GRAMIN BANK",GGBK0001285,,SEHJADPUR,"GURGAON GRAMIN BANK SEHJADPUR, P.O. SANDAL KALAN, TEHSIL & DIST. SONEPAT,STATE-HARYANA.PINCODE-130001",9355099102,SONIPAT,SONIPAT,HARYANA
"GURGAON GRAMIN BANK",GGBK0001286,110025287,HAYATPUR,"VILL HAYATPUR PO GARHI HARSARU,DISTRICT-GURGAON,STATE-HARYANA-122001.",9310370901,GURGAON,GURGAON,HARYANA
"GURGAON GRAMIN BANK",GGBK0001287,,SEHATPUR,"PALLA SEHAT PUR ROAD, VILLAGE:SEHATPUR POST OFFICE:TILPAT, DISTRICT FARIDABAD",9355982101,FARIDABAD,FARIDABAD,HARYANA
"GURGAON GRAMIN BANK",GGBK0001288,,LAKARPUR,"VILL. LAKARPUR,DISTRICT-FARIDABAD,STATE-HARYANA-121003.",9355982101,FARIDABAD,FARIDABAD,HARYANA
"GURGAON GRAMIN BANK",GGBK0001289,,PINANA,"GURGAON GRAMIN BANK PINANA, VPO PINANA, GOHANA-SONEPAT ROAD, TEHSIL & DIST. SONEPAT,STATE-HARYANA.PINCODE-130001",9355099101,SONIPAT,SONIPAT,HARYANA
"GURGAON GRAMIN BANK",GGBK0001290,,KHORI,"GURGAON GRAMIN BANK KHORI, VPO KHORI, TEHSIL & P. O KHORI, TEHSIL & DIST. REWARI,,STATE-HARYANA.PINCODE-123101",9355799201,KHORI,REWARI,HARYANA
"GURGAON GRAMIN BANK",GGBK0001291,,SAHARANWAS,"VPO SAHARANWAS, DISTRICT REWARI, HARYANA",9416743948,KHORI,REWARI,HARYANA
"GURGAON GRAMIN BANK",GGBK0001292,,SATNALI,"VPO SATNALI,",01285-231021,SATNALI,MAHENDRAGARH,HARYANA
"GURGAON GRAMIN BANK",GGBK0001293,,SEWALI,"VPO SEWALI",9813034636,SONIPAT,SONIPAT,HARYANA
"GURGAON GRAMIN BANK",GGBK0001294,,"LULA AHIR","GURGAON GRAMIN BANK LULA AHIR, VPO LULA AHIR, TEHSIL KOSLI, DIST. REWARI,STATE-HARYANA.PINCODE-123302",9355799201,REWARI,REWARI,HARYANA
"GURGAON GRAMIN BANK",GGBK0001295,,SHAMRI,VPO:SHAMRI,9416779902,SONIPAT,SONIPAT,HARYANA
"GURGAON GRAMIN BANK",GGBK0001296,,DHANANA,VPO:DHANANA,9728984868,SONIPAT,SONIPAT,HARYANA
"GURGAON GRAMIN BANK",GGBK0001297,,KATHURA,VPO:KATHURA,9991591230,KATHURA,SONIPAT,HARYANA
"GURGAON GRAMIN BANK",GGBK0001298,,SARMATHALA,VPO:SARMATHLA,9812858679,GURGAON,GURGAON,HARYANA
"GURGAON GRAMIN BANK",GGBK0001299,,DAULAH,VPO:DAULAH,9992778448,GURGAON,GURGAON,HARYANA
"GURGAON GRAMIN BANK",GGBK0001300,,JAURASI,VPO:JAURASI,9416318929,FARIDABAD,FARIDABAD,HARYANA
"GURGAON GRAMIN BANK",GGBK0001301,,KHUSALIPR,"VPO:KUSHLIPUR, PALWAL HASANPUR ROAD",9416633184,FARIDABAD,FARIDABAD,HARYANA
"GURGAON GRAMIN BANK",GGBK0001302,,"SECTOR-23 FARIDABAD","22 FOOT ROAD, SANJAY COLONY, SECTOR-23 A, NIT-FARIDABAD",9810901580,FARIDABAD,FARIDABAD,HARYANA
"GURGAON GRAMIN BANK",GGBK0001303,,"SGM NAGAR FARIDABAD","SGM NAGAR, A-335, BADKHAL ROAD",9810347532,FARIDABAD,FARIDABAD,HARYANA
"GURGAON GRAMIN BANK",GGBK0001304,,RASULPUR,"VPO:RASULPUR, PALWAL HASANPUR ROAD",9992224767,FARIDABAD,FARIDABAD,HARYANA
"GURGAON GRAMIN BANK",GGBK0001305,,"MIRPUR KURALI","VILLAGE:MIRPUR KAURALI, PO:GULAWAD",9896656768,FARIDABAD,FARIDABAD,HARYANA
"GURGAON GRAMIN BANK",GGBK0001306,,SEEKRI,VPO-SIKRI,9818033423,SEEKRI,FARIDABAD,HARYANA
"GURGAON GRAMIN BANK",GGBK0001307,,LOKRA,VPO:LOKRA,9671601327,GURGAON,GURGAON,HARYANA
"GURGAON GRAMIN BANK",GGBK0001308,,MAUJABAD,"VILLAGE:MAUJABAD, PO:JAITPUR",9315887419,GURGAON,GURGAON,HARYANA
"GURGAON GRAMIN BANK",GGBK0001309,,SUDAKA,"VPO SUDAKA",9812673669,GURGAON,GURGAON,HARYANA
"GURGAON GRAMIN BANK",GGBK0001310,,SALAMBA,"VPO SALAMBA",9996292578,GURGAON,GURGAON,HARYANA
"GURGAON GRAMIN BANK",GGBK0001311,,AKERA,"VPO AKEDA",9992832840,GURGAON,GURGAON,HARYANA
"GURGAON GRAMIN BANK",GGBK0001312,,MEWLI,"VPO MEWLI",991119305,"MEWLA MAHARAJPUR",FARIDABAD,HARYANA
"GURGAON GRAMIN BANK",GGBK0001313,,DOHA,"VPO DOHA",9991326069,GURGAON,GURGAON,HARYANA
"GURGAON GRAMIN BANK",GGBK0001314,,NAI,"POST PUNHANA",9416511884,GURGAON,GURGAON,HARYANA
"GURGAON GRAMIN BANK",GGBK0001315,,SAHSOLA,"VPO SAHSOLA",8930458492,GURGAON,GURGAON,HARYANA
"GURGAON GRAMIN BANK",GGBK0001330,,BAGHTHALA,"VILLAGE , POST OFFICE - BAGHTHALA, BLOCK, TAHSIL - BAWAL, DISTRICT - REWARI, PIN - 123501, HARYANA",,BAWAL,REWARI,HARYANA
"GURGAON GRAMIN BANK",GGBK0001336,,"KHATOTI SULTANPUR","VILLAGE KHATOTI SULTANPUR, POST HAMIDPUR, TAHSIL NARNAUL, PIN 123001",01282-204399,MAHENDRAGARH,MAHENDRAGARH,HARYANA
"GURGAON GRAMIN BANK",GGBK0001316,123842029,LILOTH,"GURGAON GRAMIN BANK, LILOD, PIN 123303",,JHOLARI,REWARI,HARYANA
"GURGAON GRAMIN BANK",GGBK0001317,123842068,"NASIBPUR ","GURGAON GRAMIN BANK, NASIBPUR, MAHENDERGARH ROAD, BARKODA, PIN 123001",,NARNAUL,MAHENDRAGARH,HARYANA
"GURGAON GRAMIN BANK",GGBK0001318,,"NOORGARH CHOWK ","GURGAON GRAMIN BANK, NOORGARH CHOWK, HAILY MANDI, PALHAWAS ROAD, NOORGARH, PIN 123504",,PATAUDI,GURGAON,HARYANA
"GURGAON GRAMIN BANK",GGBK0001319,,BIRHERA,"VILLAGE BIRHERA, PO KAROLA, TEHSIL FARUKHNAGAR, PINCODE 123504",,FARRUKHNAGAR,GURGAON,HARYANA
"GURGAON GRAMIN BANK",GGBK0001320,123842113,BASSAI,"VILLAGE AND POST BASSAI, BLOCK, TEHSIL AND DISTRICT - MAHENDERGARH, PINCODE 123029",9416818439,MAHENDRAGARH,MAHENDRAGARH,HARYANA
"GURGAON GRAMIN BANK",GGBK0001321,123842114,"PALI (M)","VILLAGEM, POST OFFICE - PALI, BLOCK, TEHSIL AND DISTRICT - MAHENDERGARH, PINCODE 123029",9416382154,MAHENDRAGARH,MAHENDRAGARH,HARYANA
"GURGAON GRAMIN BANK",GGBK0001322,123842069,"HASSANPUR CHOWK, KORIAWAS","VILLAGE, POST OFFICE - KORIAWAS, BLOCK, TEHSIL - NARNAUL, DISTRICT - MAHENDERGARH, PIN - 123001",9466063334,NARNAUL,MAHENDRAGARH,HARYANA
"GURGAON GRAMIN BANK",GGBK0001323,,NIMOT,"VILLAGE - NIMOT, POST OFFICE - LALA KHERLI, BLOCK AND TEHSIL - SOHNA, DISTRICT - GURGAON, PIN CODE - 122103",,SOHNA,GURGAON,HARYANA
"GURGAON GRAMIN BANK",GGBK0001324,,"GWAL PAHARI","VILLAGE AND PO - GWAL PAHARI, BLOCK, TEHSIL AND DISTRICT - GURGAON, PIN CODE 122003",,GURGAON,GURGAON,HARYANA
"GURGAON GRAMIN BANK",GGBK0001325,1100252420,"DLF PHASE IV","VILLAGE AND POST OFFICE CHAKARPUR, NEAR SIDDHI VINAYAK MANDIR, BLOCK TAHSIL AND DISTRICT GURGAON, PIN 122002, HARYANA",9466063334,GURGAON,GURGAON,HARYANA
"GURGAON GRAMIN BANK",GGBK0001326,,KHOR,"VILLAGE, POST OFFICE - KHOR, BLOCK, TAHSIL - PATAUDI, DISTRICT - GURGAON, PIN 123414, HARYANA",,PATAUDI,GURGAON,HARYANA
"GURGAON GRAMIN BANK",GGBK0001327,110025419,"BHARAT COLONY","SECTOR-16 A, SHOP NO 5,6 KHERI ROAD FARIDABAD, PIN 121002, HARYANA",9416818439,FARIDABAD,FARIDABAD,HARYANA
"GURGAON GRAMIN BANK",GGBK0001328,123842032,"HASSANPUR TAURU","VILLAGE, POST OFFICE - HASSANPUR TAURU, DISTRICT - MEWAT, PIN - 122105, HARYANA",,TAURU,GURGAON,HARYANA
"GURGAON GRAMIN BANK",GGBK0001329,123842030,AKERA,"VILLAGE, POST OFFICE - AKERA, BLOCK - REWARI, TEHSIL - DHARUHERA, DISTRICT - REWARI, PIN - 123106, HARYANA",,REWARI,REWARI,HARYANA
"GURGAON GRAMIN BANK",GGBK0001331,123842115,"DHANONDA (KANINA)","VILLAGE, POST OFFICE - DHANONDA, BLOCK, TAHSIL - KANINA, DISTRICT - MAHENDERGARH, PIN - 123027, HARYANA",,DHANODA,MAHENDRAGARH,HARYANA
"GURGAON GRAMIN BANK",GGBK0001332,123842116,JHAGROLI,"VILLAGE, POST OFFICE - JHAGROLI, BLOCK, TAHSIL - KANINA, DISTRICT - MAHENDERGARH, PIN - 123034, HARYANA",,KANINA,MAHENDRAGARH,HARYANA
"GURGAON GRAMIN BANK",GGBK0001333,,KAILANA,"VILLAGEM, POST OFFICE - KAILANA, BLOCK & TAHSIL GANNAUR, DISTRICT SONIPAT, PIN 131102, HARYANA",9416382154,GANAUR,SONIPAT,HARYANA
"GURGAON GRAMIN BANK",GGBK0001334,,SILANA,"VILLAGE, POST OFFICE - SILANA, BLOCK & TAHSIL - KHARKHODA, DISTRICT SONIPAT, PIN 131408, HARYANA",9466063334,KHARKHODA,SONIPAT,HARYANA
"GURGAON GRAMIN BANK",GGBK0001335,,"NUREN KHERA","VILLAGEM, POST OFFICE - NUREN KHERA, BLOCK MUNDLANA, TAHSIL GOHANA, DISTRICT SONIPAT, PIN 131302, HARYANA",9416382154,MUNDLANA,SONIPAT,HARYANA
"GURGAON GRAMIN BANK",GGBK0001337,"NEW MANDI, NARNAUL",,"BLOCK TAHSIL NARNAUL, DISTRICT MAHENDERGARH, PIN 123001, HARYANA",1282255189,MAHENDRAGARH,MAHENDRAGARH,HARYANA
"GURGAON GRAMIN BANK",GGBK0001338,"BASS DOODHA",,"VILLAGE POST BASS DOODHA,BLOCK TAHSIL REWARI, DISTRICT REWARI, PIN 123102, HARYANA ",1274253227,REWARI,REWARI,HARYANA
"GURGAON GRAMIN BANK",GGBK0001339,GOKALGARH,,"VILAGE POST GOKALGARH, BLOCK TAHSIL REWARI, DISTRICT REWARI, HARYANA, PIN 123401",1274253227,REWARI,REWARI,HARYANA
"GURGAON GRAMIN BANK",GGBK0001340,MANPUR,,"VILLAGE POST MANPUR, BLOCK TAHSIL HATHIN, DISTRICT PALWAL, PIN 121105, HARYANA",1275252832,PALWAL,PALWAL,HARYANA
"GURGAON GRAMIN BANK",GGBK0001341,DATAULI,,"VILLAGE POST DATAULI, BLOCK TEHSIL GANNAUR, DISTRICT SONEPAT, PIN 131101, HARYANA",1302200517,SONIPAT,SONIPAT,HARYANA
