BANK,IFSC,MICR,BRANCH,ADDRESS,CONTACT,CITY,DISTRICT,STATE
"MAHANAGAR COOPERATIVE BANK",MCBL0VYAPAR,NA,"CARNAC BUNDER BRANCH","VYAPAR BHAVAN, 1ST FLOOR,49,P D MELLO ROAD,MUMBAI 400 009",0,MUMBAI,MUMBAI,MAHARASHTRA
"MAHANAGAR COOPERATIVE BANK",MCBL0CARNAC,NA,"HEAD OFFICE","1ST FLOOR, VYAPAR BHAVAN ,49, P.DMELLO ROAD,CARNAC BUNDER, MUMBAI - 400 009.",0,MUMBAI,MUMBAI,MAHARASHTRA
"MAHANAGAR COOPERATIVE BANK",MCBL0960103,NA,"PIPELINE ROAD","S.NO.24/1A/2B/1A7,PLOT NO.1,HOTEL RUCHIRA,PIPELINE ROAD,AHMADNAGAR-414003",2427268,AHMADNAGAR,AHMADNAGAR,MAHARASHTRA
"MAHANAGAR COOPERATIVE BANK",MCBL0960102,411096003,WAGHOLI,"DR KOLTE'S HOSPITAL, PUNE-NAGAR ROAD, WAGHOLI, PUNE-411014",27052349,PUNE,PUNE,MAHARASHTRA
"MAHANAGAR COOPERATIVE BANK",MCBL0960079,411096501,ALEPHATA,"ONKAR PLAZA,1ST FLOOR,GAT NO.2982 AND 2983,KALYAN NAGAR ROAD,ALEPHATA,TAL.JUNNAR,DIST.PUNE 412411",24710821,PUNE,PUNE,MAHARASHTRA
"MAHANAGAR COOPERATIVE BANK",MCBL0960078,431096002,"WALUNJ MIDC","PLOT NO.X326,MINATAI THAKARE MARKET,PRATAP CHOWK,BAJAJ NAGAR,WALUNJ MIDC,AURANGABAD",24710821,AURANGABAD,AURANGABAD,MAHARASHTRA
"MAHANAGAR COOPERATIVE BANK",MCBL0960077,NA,"NAGAPUR AHMEDNAGAR","PLOT NO A2,3,4,6 SURVEY NO1,2,NEAR AHMEDNAGAR MANMAD ROAD,NAGAPUR",24710821,AHMEDNAGAR,AHMEDNAGAR,MAHARASHTRA
"MAHANAGAR COOPERATIVE BANK",MCBL0960076,411096015,CHAKAN,"RIDHI SIDHI BULDING,GROUND FLOOR,SURVEY NO.1171/A,MILKAT NO.5365,CHAKAN SHIKRAPUR ROAD,CHAKAN",24710821,CHAKAN,PUNE,MAHARASHTRA
"MAHANAGAR COOPERATIVE BANK",MCBL0960075,411096013,LOHAGAON,"CLASSIC PLAZA, CITY SERVEY NO. 1958, VADGAON SHINDE ROAD, SHOP NO. 21, 22, 23, 24 A 7 B, LOHAGAON, PUNE PIN 411047",26685030,PUNE,PUNE,MAHARASHTRA
"MAHANAGAR COOPERATIVE BANK",MCBL0960074,411096014,WAKAD,"TULJA BHAVANI PLAZA, THERGAON ROAD, S. NO. 17/4, WAKAD, PUNE PIN 411057",20276474,PUNE,PUNE,MAHARASHTRA
"MAHANAGAR COOPERATIVE BANK",MCBL0960073,411096012,SHIKRAPUR,"AMRUTWEL BUILDING GALA NO. 1575/2, CHAKAN CHOWK, SHIKRAPUR, TALUKA- SHIRUR, DIST- PUNE PIN 412208",272010,SHIKRAPUR,PUNE,MAHARASHTRA
"MAHANAGAR COOPERATIVE BANK",MCBL0960072,422096004,"NASHIK CIDCO","PLOT NO. A. S. L. 10, ASHWIN NAGAR, OPP HOTEL SEVEN HEVAN, PATHARADI FATA, MUMBAI NASHIK HIGHWAY, CIDCO, NASHIK 422 009",2390255,NASIK,NASHIK,MAHARASHTRA
"MAHANAGAR COOPERATIVE BANK",MCBL0960071,NA,BARAMATI,"RUDRA, PLOT NO. 05, ADARSHA  S. T. KAMGAR HOUSING SOCIETY, BHIGWAN ROAD, BARAMATI . PIN  413102 MHARASHTRA.",225100,BARAMATI,PUNE,MAHARASHTRA
"MAHANAGAR COOPERATIVE BANK",MCBL0960070,NA,AURANGABAD,"KAKADE CHAMBER, SHOP NO. 1, 2 & 3, GR. FLOOR, JYOTI NAGAR,  SHAHANUR WADI, HOTEL AMARDEEP ROAD,PLOT NO. 87 & 91, CTS NO. 16035 -A-67 & A-80. AURANGABAD, 431001",2361511,AURANGABAD,AURANGABAD,MAHARASHTRA
"MAHANAGAR COOPERATIVE BANK",MCBL0960069,NA,NANDED,"BHORE COMPLEX, CTS NO. 3070 M. NO. 3/5/245 TO 248, STATION RAOD, NANDED, NANDED CITY, PIN. 431601. MAHARASHTRA",237755,NANDED,NANDED,MAHARASHTRA
"MAHANAGAR COOPERATIVE BANK",MCBL0960068,423096001,KOPARGAON,"KASLIWAL TOWERS GR. FLOOR PLOT NO,15, HISSA NO.13, SERVE NO.215/143/1, KOPARGAON, DIST. AHMEDNAGAR. PIN. 423601. MAHARASHTRA.",224900,KOPARGAON,AHMADNAGAR,MAHARASHTRA
"MAHANAGAR COOPERATIVE BANK",MCBL0960067,411096011,ALANDI,"SHRIMAN BASTIMAL SARDA CHARITABLE TRUST, GR. FLOOR, GOPAL PURA MARG, CTS NO.802 SERVE NO. 234/12 ALANDI, DISTRICT. PUNE. PIN 412105. MAHARASHTRA",232044,ALANDI,PUNE,MAHARASHTRA
"MAHANAGAR COOPERATIVE BANK",MCBL0960066,401096001,BOISAR,"SHOP NO 1,2,3,4 OPP. BOISAR RAILWAY STATION, BOISAR PALGHAR MAIN ROAD, BOISAR (WEST) DIST. THANE",270232,BOISAR,THANE,MAHARASHTRA
"MAHANAGAR COOPERATIVE BANK",MCBL0960065,411096010,"TALEGAON DABHADE","SHOP NO. 6, 7, 8, A, GR. FLOOR, SARAS PLAZA APARTMENT, SAMSAN NAGAR CHS LTD, PLOT NO. 9A, TALEGAON CHAKAN HIGHWAY , TALEGAON DABHADE, DIST. PUNE.",222045,"TALEGAON DABHADE",PUNE,MAHARASHTRA
"MAHANAGAR COOPERATIVE BANK",MCBL0960064,411096009,BHOSARI,"SHELAR COMPLEX, RANJAN BAKERY, JAI MAHARASHTRA CHOWK, PUNE NASIK HIGHWAY, BHOSARI, PUNE.",27110088,PUNE,PUNE,MAHARASHTRA
"MAHANAGAR COOPERATIVE BANK",MCBL0960063,NA,SHIRDI,"CTS NO. 905, SURVEY NO. 5/7, MUNCIPAL HOUSE NO. 1238/1, BHAGCHAND APARTMENTS, SHIRDI, TALUKA. RAHURI, DIST. AHMEDNAGAR.",256866,SHIRDI,AHMADNAGAR,MAHARASHTRA
"MAHANAGAR COOPERATIVE BANK",MCBL0960062,NA,SANGAMNER,"HOTEL KARMA BLDG. GR. FLOOR, GALA NO. 2 & 3, OPP S. T. STAND. SANGAMNER. DIST. AHMADNAGAR.",225701,SANGAMNER,AHMADNAGAR,MAHARASHTRA
"MAHANAGAR COOPERATIVE BANK",MCBL0960061,NA,NEPTI-KEDGAON,"APMC MARKET YARD, GALA NO. 387,388,326.327, NEPTI, KEDGAON, DIST. AHMADNAGAR.",221189,AHMADNAGAR,AHMADNAGAR,MAHARASHTRA
"MAHANAGAR COOPERATIVE BANK",MCBL0960060,411096008,"RAVIWAR PETH","1 ST, FLOOR, 921, NAVI BUDHWAR PETH, (OLD RAVIWAR PETH) BOHARE ALI, PUNE. 411002.",24434499,PUNE,PUNE,MAHARASHTRA
"MAHANAGAR COOPERATIVE BANK",MCBL0960059,411096007,"MARKET YARD","652, MARKET YARD, GULTEKDI, PUNE, 411037.",24268000,PUNE,PUNE,MAHARASHTRA
"MAHANAGAR COOPERATIVE BANK",MCBL0960058,411096006,YERAWADA,"52, P. S. PLAZA, YERAWADA BAZAR, YERAWADA, PUNE. 411066.",26699067,PUNE,PUNE,MAHARASHTRA
"MAHANAGAR COOPERATIVE BANK",MCBL0960057,422096003,"NASIK ROAD","PRATIBHA SANKUL, GALA NO. 5 TO 10, OPP. TARAN TALAW, NASIK ROAD, NASIK. PIN. 422101.PH. NO. 0253 2451846",2451846,NASIK,NASIK,MAHARASHTRA
"MAHANAGAR COOPERATIVE BANK",MCBL0960056,411096005,"NAVI SANGVI","SHITOLE EMPIRE , GALA NO. 18 TO 23, FAMOUS CHOWK, NAVI SANGVI, PUNE. PIN. 411027 PH. NO. 020 27280350",27280350,PUNE,PUNE,MAHARASHTRA
"MAHANAGAR COOPERATIVE BANK",MCBL0960055,411096004,TALWADE,"VISHWAMALA SAHAKARI GRUH RACHANA MARYADI,PLOT NO.10,TRIVENI NAGAR,TALWADEPIMPARI CHINCHWAD -411014",27691577,PUNE,PUNE,MAHARASHTRA
"MAHANAGAR COOPERATIVE BANK",MCBL0960054,NA,SHIRUR,"LILAMOTI TOWER,OPP SHIVSENA MANDAL COM,PUNE-NAGAR ROAD,SHIRUR-412210",222070,SHIRUR,PUNE,MAHARASHTRA
"MAHANAGAR COOPERATIVE BANK",MCBL0960053,422096053,"NASIK BRANCH","MIRANDA APARTMENT, TOWN PLANNING SCHEME NO.2, PLOT NO.29, GANGAPUR ROAD, NASIK-422005.",2346011,NASIK,NASIK,MAHARASHTRA
"MAHANAGAR COOPERATIVE BANK",MCBL0960052,411096002,PUNE,"48/1, CHANDAN NAGAR, SHRI BUILDING, PUNE NAGAR ROAD, PUNE-411014",27019453,PUNE,PUNE,MAHARASHTRA
"MAHANAGAR COOPERATIVE BANK",MCBL0960051,414096051,AHMEDNAGAR,"KRUSHI UTPANNA BAZAAR SAMITEE MARKET YARD, FRUIT & VEGETABLE SECTION, 1ST FLOOR, AHMEDNAGAR-414001",2343089,AHMADNAGAR,AHMADNAGAR,MAHARASHTRA
"MAHANAGAR COOPERATIVE BANK",MCBL0960039,400096039,ULWE,"SHOP NO 3 AND 4 GRND FLOOR RAJ HERITAGE PLOT NO 183 SECTOR 19 ULWE NAVI MUMBAI 400706",24710821,NAVIMUMBAI,RAIGAD,MAHARASHTRA
"MAHANAGAR COOPERATIVE BANK",MCBL0960038,400096038,KAMOTHE,"OFFICE NO 9 TO 13 PARVATI ANGAN PLOT NO 66 SECTOR 21 KAMOTHE NAVI MUMBAI 410209",24710821,NAVIMUMBAI,RAIGAD,MAHARASHTRA
"MAHANAGAR COOPERATIVE BANK",MCBL0960037,400096037,BHIWANDI,"SHOP NO 8 9 AND 10 GRND FLOOR ASHOK HOTEL BLDG KALYAN BHIWANDI RD DIST THANE 421302",24710821,THANE,THANE,MAHARASHTRA
"MAHANAGAR COOPERATIVE BANK",MCBL0960036,400096036,DADAR,"OFFICE NO 44 AND GA 4 OM SHRI SWATI MANOR CO OP HSG SOCIETY LTD J K SAWANT MARG DADAR WEST MUMBAI 400028",24710821,MUMBAI,MUMBAI,MAHARASHTRA
"MAHANAGAR COOPERATIVE BANK",MCBL0960035,400096035,WORLI,"131/C,GROUND FLOOR,RAJPUTANA,DR.ANNIE BESANT ROAD,WORLI,MUMBAI 400018.",24710821,MUMBAI,MUMBAI,MAHARASHTRA
"MAHANAGAR COOPERATIVE BANK",MCBL0960034,400096034,KOPARKHAIRANE,"SHOP NO 1,2,3 AND 11, GROUND FLOOR,RAJ PALACE CHS,PLOT NO.16,SECTOR NO.2,KOPARKHAIRANE,NAVIMUMBAI 400 709",24710821,NAVIMUMBAI,"NAVI MUMBAI",MAHARASHTRA
"MAHANAGAR COOPERATIVE BANK",MCBL0960033,400096033,BHANDUP,"SACHDEV COMPLEX,SHOP NO.12,GROUND FLOOR,AND BASEMENT,CTS NO.163,163/17 TO 89, KANJURGOAN,J.M.ROAD,BHANDUP WEST",24710821,MUMBAI,MUMBAI,MAHARASHTRA
"MAHANAGAR COOPERATIVE BANK",MCBL0960032,400096032,"KHANDA COLONY PANVEL","SAI SHARAN CO OP HSG SOCIETY OFFICE NO 3,4,5,5A AND 6, PLOT NO.15,SECTOR NO.8,KHANDA COLONY,NEW PANVEL WEST",24710821,PANVEL,RAIGAD,MAHARASHTRA
"MAHANAGAR COOPERATIVE BANK",MCBL0960031,400096031,"THANE, NARALIPADA","SHOP NO. 2, GR. FLOOR, SANKALP HIGHT BUILDING, MUMBAI NASIK HIGHWAY, OPP JUPITER HOSPITAL, NARALI PADA, RUNWAL NAGAR, THANE.",25475240,THANE,THANE,MAHARASHTRA
"MAHANAGAR COOPERATIVE BANK",MCBL0960029,400096029,URAN,"SHOP NO. 14 TO 19, GROUND FLOOR, AUDHYA SAHAKARI GRIHANIRMAN SANSTHA, SURVEY NO. 79A, HISSA NO. 1/B, CHANGEGAON, TALUKA URAN, DIST. RAIGAD.",27220541,URAN,RAIGAD,MAHARASHTRA
"MAHANAGAR COOPERATIVE BANK",MCBL0960028,400096028,BADLAPUR,"OFFICE NO 1 & 2, TIRUPATI KUNJ APARMENTS, GR. FLOOR, BEHIND VAISHALI CINEMA, BADLAPUR {WEST} DIST. THANE",2676002,THANE,THANE,MAHARASHTRA
"MAHANAGAR COOPERATIVE BANK",MCBL0960027,400096027,PANVEL,"BANTHIYA HOUSE, SHOP NO. 1 & 2, HOME NO. 903. M. G. ROAD, PANVEL, DIST. RAIGAD.",27467387,PANVEL,RAIGAD,MAHARASHTRA
"MAHANAGAR COOPERATIVE BANK",MCBL0960026,400096026,KALYAN,"TRIVENI PARK CHS. GALA NO. 1/5 & 6, WAYLE NAGAR, BHIWANDI KALYAN HIGHWAY, TALUKA, KALYAN DIST THANE, PIN 400301.PH. NO. 0251 2205016",2205016,KALYAN,THANE,MAHARASHTRA
"MAHANAGAR COOPERATIVE BANK",MCBL0960025,400096025,CLOABA,"KASTURI BUILDING, GROUND FLOOR, HOM RASJI STREET, COLABA, MUMBAI PIN. 400005. PH. NO. 022 22821856",22821856,MUMBAI,MUMBAI,MAHARASHTRA
"MAHANAGAR COOPERATIVE BANK",MCBL0960024,400096024,KHARGHAR,"F/85, SANYUKTA CHS. SECTOR 12, KHARGHAR, NAVI MUMBAI, PIN 410210.PH. NO. 022 27746364",27746364,"NAVI MUMBAI",THANE,MAHARASHTRA
"MAHANAGAR COOPERATIVE BANK",MCBL0960023,400096023,GHANSOLI,"BALAJI CO OP HOUSING SOCIETY LTD,SHOP NO 6,7,&8, SECTOR 4,PLOT NO 528,GHANSOLI,NAVI MUMBAI-400701",27540155,"NEW MUMBAI",THANE,MAHARASHTRA
"MAHANAGAR COOPERATIVE BANK",MCBL0960022,400096022,"SAVARKAR NAGAR","LOKMANYA SHIKSHAN MANDAL,VEER SAVARKAR NAGAR,THANE WEST-400606",25802012,THANE,THANE,MAHARASHTRA
"MAHANAGAR COOPERATIVE BANK",MCBL0960021,400096021,"NCRD NERUL","NCRD NUTAN VIDYALAYA, SECTOR-19, NERUL, NAVI MUMBAI-400706",27714813,"NEW MUMBAI",THANE,MAHARASHTRA
"MAHANAGAR COOPERATIVE BANK",MCBL0960020,400096020,VIKHROLI,"UTKARSHA BAL MANDIR, KANNAMWAR NAGAR, VIKHROLI, MUMBAI-400083",25796873,MUMBAI,"GREATER MUMBAI",MAHARASHTRA
"MAHANAGAR COOPERATIVE BANK",MCBL0960019,400096019,"BORIVALI MAGATHANE","MAGATHANE BUS DEPOT BUILDING, BORIVALI (EAST), MUMBAI-400066",28861861,MUMBAI,"GREATER MUMBAI",MAHARASHTRA
"MAHANAGAR COOPERATIVE BANK",MCBL0960018,400096018,SEWRI,"SHOP NO.15 & 16, REGAL BUSINESS COMPLEX, REGAL INDUSTRIAL ESTATE, 101, ACHARYA DONDE MARG, SEWRI (W), MUMBAI-400015",24112005,MUMBAI,"GREATER MUMBAI",MAHARASHTRA
"MAHANAGAR COOPERATIVE BANK",MCBL0960017,400096017,NERUL,"PLOT NO.5, SECTOR-1, OPP.D.Y.PATIL COLLEGE, NERUL, NAVI MUMBAI-400706",27709663,"NEW MUMBAI",THANE,MAHARASHTRA
"MAHANAGAR COOPERATIVE BANK",MCBL0960016,400096016,KALAMBOLI,"PLOT NO.119, BIMA OFFICE PREMISES CO-OP.SOC.LTD., KALAMBOLI WARE HOUSING COMPLEX, ROAD NO.N.H.4, KALAMBOLI- 410218",27420510,KALAMBOLI,RAIGAD,MAHARASHTRA
"MAHANAGAR COOPERATIVE BANK",MCBL0960015,400096015,KANDIVALI,"HARSHADA SUMAN CO-OP.HSG.SOC.LTD., SHOP NO.1 TO 4, PRABODHANKAR THAKRE NAGAR, C.H.K.12, MUMBAI-400067",28685965,MUMBAI,"GREATER MUMBAI",MAHARASHTRA
"MAHANAGAR COOPERATIVE BANK",MCBL0960014,400009614,ULHASNAGAR,"SONA MARKET, JAPANI BAZAR, U.NO.94, SHEET NO.63, ULHASNAGAR-421002",2707533,THANE,THANE,MAHARASHTRA
"MAHANAGAR COOPERATIVE BANK",MCBL0960013,400096013,AIROLI,"SHIVAM SHOPPING CENTRE, SECTOR NO.2, AIROLI, NAVI MUMBAI-400708",27793650,"NEW MUMBAI",THANE,MAHARASHTRA
"MAHANAGAR COOPERATIVE BANK",MCBL0960012,400096012,BORIVALI,"LAXMI NIWAS, PLOT NO.4, S.V.ROAD, DAULAT NAGAR, BORIVALI(EAST), MUMBAI-400066",28953586,MUMBAI,"GREATER MUMBAI",MAHARASHTRA
"MAHANAGAR COOPERATIVE BANK",MCBL0960011,400096011,VARTAKANAGAR,"JAGDISH ASSOCIATES, GR.FLOOR, GALA NO.4 & 5, VARTAKNAGAR NAKA, THANE-400606",25883142,THANE,THANE,MAHARASHTRA
"MAHANAGAR COOPERATIVE BANK",MCBL0960010,400096010,TURBHE,"KRISHI UTPANNA BAZAR SAMITTEE, GR.FLOOR, CENTRAL BUILDING, TURBHE, NAVI MUMBAI-400705",27841298,"NEW MUMBAI",THANE,MAHARASHTRA
"MAHANAGAR COOPERATIVE BANK",MCBL0960008,400096008,MULUND,"KARACHI KACCHI LOHANA NARAYAN SARVOPAYA & LOKPATIA TRUST, J.N.ROAD, MULUND (WEST), MUMBAI-400080",25681951,MUMBAI,"GREATER MUMBAI",MAHARASHTRA
"MAHANAGAR COOPERATIVE BANK",MCBL0960007,400096007,LALBAUG,"HIRAMANI SUPER MARKET BLDG., DR.B.A.ROAD, LALBAUG, MUMBAI-400012.",24710519,MUMBAI,"GREATER MUMBAI",MAHARASHTRA
"MAHANAGAR COOPERATIVE BANK",MCBL0960006,400096006,KALACHOWKI,"MAZHE MAHER, PAREL TANK ROAD, ABHYUDAYA NAGAR, KALACHOWKI, MUMBAI-400033",24710942,MUMBAI,"GREATER MUMBAI",MAHARASHTRA
"MAHANAGAR COOPERATIVE BANK",MCBL0960005,400096005,CHEMBUR,"82-C, RAJASHRI BUILDING, N.G.ACHARYA MARG, CHEMBUR GOVANDI ROAD, MUMBAI-400071",25212086,MUMBAI,"GREATER MUMBAI",MAHARASHTRA
"MAHANAGAR COOPERATIVE BANK",MCBL0960004,400096004,GHATKOPAR,"GANESH BAUG CO-OP.HSG.SOCIETY, R.B.KADAM MARG, BHATWADI, GHATKOPAR, MUMBAI-400084",25113117,MUMBAI,"GREATER MUMBAI",MAHARASHTRA
"MAHANAGAR COOPERATIVE BANK",MCBL0960003,400096003,FORT,"UNIT NO.1 &2, GROUND FLOOR, S.P.CENTRE BUILDING, 68/70, NAGINDAS MASTER ROAD, FORT, MUMBAI-400023.",22612795,MUMBAI,"GREATER MUMBAI",MAHARASHTRA
"MAHANAGAR COOPERATIVE BANK",MCBL0960002,400096002,"CARNAC BUNDER","NAVRATAN BUILDING, 59, D'MELLO ROAD, CARNAC BUNDER, MUMBAI-400009",23481731,MUMBAI,"GREATER MUMBAI",MAHARASHTRA
