BANK,IFSC,MICR,BRANCH,ADDRESS,CONTACT,CITY,DISTRICT,STATE
"PUNJAB AND MAHARSHTRA COOPERATIVE BANK",PMCB00CARDS,NA,"CREDIT CARD DIVISION","OFFICE NO 4 AND 5 3RD FLOOR DREAMS MALL LBS MARG BHANDUP MUMBAI 400078",9920607052,MUMBAI,"GREATER BOMBAY",MAHARASHTRA
"PUNJAB AND MAHARSHTRA COOPERATIVE BANK",PMCB0000607,110328007,"KAROLBAUG NEW DELHI","1247 53 4 NANIWALA KAROL BAUG NEW DELHI 110005",9711535509,"NEW DELHI",DELHI,DELHI
"PUNJAB AND MAHARSHTRA COOPERATIVE BANK",PMCB0000606,110328006,"RAJOURI GARDEN",J-9/21,65446333,"NEW DELHI",DELHI,DELHI
"PUNJAB AND MAHARSHTRA COOPERATIVE BANK",PMCB0000605,110328005,"MALVIYA NAGAR",80/20-AB,26685507,"NEW DELHI",DELHI,DELHI
"PUNJAB AND MAHARSHTRA COOPERATIVE BANK",PMCB0000604,110328004,"UTTAM NAGAR",B-15,28567094,"NEW DELHI",DELHI,DELHI
"PUNJAB AND MAHARSHTRA COOPERATIVE BANK",PMCB0000603,110328003,"TILAK NAGAR",1967/06/01,65027869,"NEW DELHI",DELHI,DELHI
"PUNJAB AND MAHARSHTRA COOPERATIVE BANK",PMCB0000602,110328002,"AMAR COLONY","SHOP NO. C-32 TO 33",26221400,"NEW DELHI",DELHI,DELHI
"PUNJAB AND MAHARSHTRA COOPERATIVE BANK",PMCB0000572,452328002,"VIJAYNAGAR INDORE","SHOP NO UG 10 OM GURUDEV COMPLEX SECTOR E SCHEME NO 54 VIJAY NAGAR INDORE MADHYA PRADESH 452010",9425913134,INDORE,INDORE,"MADHYA PRADESH"
"PUNJAB AND MAHARSHTRA COOPERATIVE BANK",PMCB0000571,452328001,"BHANWARKUA INDORE","9 ASHOK NAGAR BHAWARKUA MAIN ROAD INDORE MADHYA PRADESH  452001",9406631862,INDORE,INDORE,"MADHYA PRADESH"
"PUNJAB AND MAHARSHTRA COOPERATIVE BANK",PMCB0000513,395328003,"PAL ADAJAN","SHOP NO 15 SIDDCHAKRA APARTMENT GALAXY CIRCLE GREEN CITY ROAD PAL ADAJAN SURAT",9712929806,SURAT,SURAT,GUJARAT
"PUNJAB AND MAHARSHTRA COOPERATIVE BANK",PMCB0000512,395328002,"SURAT MAIN BRANCH","PRAHAR BUILDING NO 60 GROUND FLOOR SUBHASH NAGAR SOCIETY GHOD DOD ROAD SURAT 395003",8000078694,SURAT,SURAT,GUJARAT
"PUNJAB AND MAHARSHTRA COOPERATIVE BANK",PMCB0000502,396328031,VAPI,"SHOP NUMBER 2 SITARAM SQUARE SURVEY NO 368 A 1 VAPI DAMAN MAIN ROAD CHALA ROAD VAPI 396191",8380013518,VAPI,VALSAD,GUJARAT
"PUNJAB AND MAHARSHTRA COOPERATIVE BANK",PMCB0000331,560328011,MALLESHWARAM,"GROUND FLOOR SHANTALA PLAZA 14TH CROSS 8TH MAIN MALLESWARAM BENGALURU 560003",9448466472,BENGALURU,"BANGALORE URBAN",KARNATAKA
"PUNJAB AND MAHARSHTRA COOPERATIVE BANK",PMCB0000330,560328010,"KUMARASWAMY LAYOUT","1067 KUMARASWAMY LAYOUT FIRST STAGE BANGALORE KARNATAKA 560078",26669618,BANGALORE,"BANGALORE URBAN",KARNATAKA
"PUNJAB AND MAHARSHTRA COOPERATIVE BANK",PMCB0000329,560328009,"ANNAPURNESHWARI NAGAR","289,GR FLOOR ANNAPURNESHWARI NAGAR, M AND F LAYOUT,SRIGANDADA KAVAL 560091",9892656139,BANGALORE,"BANGALORE URBAN",KARNATAKA
"PUNJAB AND MAHARSHTRA COOPERATIVE BANK",PMCB0000328,560328007,ATTIBELE,"SRI JAYABHARATI SCHOOL COMPLEX,HOSUR ROAD,ATTIBELE BANGALORE 562107",27804446,BANGALORE,BANGALORE,KARNATAKA
"PUNJAB AND MAHARSHTRA COOPERATIVE BANK",PMCB0000327,560328008,"HEGGANAHALLI MAIN ROAD","332,HEGGANAHALLI MAIN ROAD,OPP GOVT SCHOOL PEENYA II STAGE BANGLAORE 560091",28369533,BANGALORE,BANGALORE,KARNATAKA
"PUNJAB AND MAHARSHTRA COOPERATIVE BANK",PMCB0000326,560328006,HESSARGHATTA,NO.1,28370530,BENGALURU,BENGALURU,KARNATAKA
"PUNJAB AND MAHARSHTRA COOPERATIVE BANK",PMCB0000325,560328005,"BASAVESHWAR NAGAR",487,23239966,BENGALURU,BENGALURU,KARNATAKA
"PUNJAB AND MAHARSHTRA COOPERATIVE BANK",PMCB0000324,560328004,"VIJAY NAGAR","OFFICE NO 2034/37",23300205,BENGALURU,BENGALURU,KARNATAKA
"PUNJAB AND MAHARSHTRA COOPERATIVE BANK",PMCB0000323,560328003,"MAHALAXMI LAYOUT","SHOP NO.-149",23479277,BENGALURU,BENGALURU,KARNATAKA
"PUNJAB AND MAHARSHTRA COOPERATIVE BANK",PMCB0000322,560328002,"RAJAJI NAGAR",M.G.COMPLEX,23423152,BENGALURU,BENGALURU,KARNATAKA
"PUNJAB AND MAHARSHTRA COOPERATIVE BANK",PMCB0000315,580328003,DHARWAD,"ELITE BUSINESS CENTRE",2448445,DHARWAD,DHARWAD,KARNATAKA
"PUNJAB AND MAHARSHTRA COOPERATIVE BANK",PMCB0000314,580328002,HUBLI,"ELITE BUSINESS CENTRE",272001,HUBLI,HUBLI,KARNATAKA
"PUNJAB AND MAHARSHTRA COOPERATIVE BANK",PMCB0000313,577328202,SHIMOGA,"NEW: VADIRAJ COMPLEX",272001,SHIMOGA,SHIMOGA,KARNATAKA
"PUNJAB AND MAHARSHTRA COOPERATIVE BANK",PMCB0000308,NA,SAGAR,"ASHOK ROAD,SAGAR 577401,DIST SHIMOGA",0,SAGAR,SAGAR,KARNATAKA
"PUNJAB AND MAHARSHTRA COOPERATIVE BANK",PMCB0000304,581328501,YELLAPUR,"BASWESHWAR HEIGHTS SHOP NO 18 FIRST FLOOR YELLAPUR BUS STAND ROAD YELLAPUR KARNATAKA",9481463505,YELLAPUR,"UTTAR KANNAD",KARNATAKA
"PUNJAB AND MAHARSHTRA COOPERATIVE BANK",PMCB0000302,581328402,SIRSI,"C P BAZAR SIRSI DIST NORTH CANARA  KARNATAKA 581",228514,SIRSI,SIRSI,KARNATAKA
"PUNJAB AND MAHARSHTRA COOPERATIVE BANK",PMCB0000297,403328007,DABOLIM,"SHOP NO 22 23 24 25 BUILDING NO 4 PRABHUS SKY PANAROMICS ALTO DABOLIM MORMUGAO GOA 403801",9930368808,DABOLIM,"SOUTH GOA",GOA
"PUNJAB AND MAHARSHTRA COOPERATIVE BANK",PMCB0000296,403328006,MARGAO,"SHOPS ON LOWER GROUND & UPPER GROUND",8380013521,MARGAO,GOA,GOA
"PUNJAB AND MAHARSHTRA COOPERATIVE BANK",PMCB0000295,403328005,"MAPUSA - PEDEM","SHOP NO S-4A",2252214,"MAPUSA - PEDEM",GOA,GOA
"PUNJAB AND MAHARSHTRA COOPERATIVE BANK",PMCB0000294,403328004,PORVORIM,"SOCOILEM GALUEM",8380013517,PORVORIM,GOA,GOA
"PUNJAB AND MAHARSHTRA COOPERATIVE BANK",PMCB0000293,403328003,PONDA,"SHOP NO 1",2311354,PONDA,GOA,GOA
"PUNJAB AND MAHARSHTRA COOPERATIVE BANK",PMCB0000292,403328002,CARANZALEM,"HERITAGE SYMPHONY",2463131,CARANZALEM,GOA,GOA
"PUNJAB AND MAHARSHTRA COOPERATIVE BANK",PMCB0000262,415328051,RATNAGIRI,"VYANKATESH EXECUTIVE",2352270202,RATNAGIRI,RATNAGIRI,MAHARASHTRA
"PUNJAB AND MAHARSHTRA COOPERATIVE BANK",PMCB0000253,422328003,"SHIVAJI NAGAR","SHOP NO. G-10A &10B. SUYOGIT ARCADE",2415968,NASHIK,NASHIK,MAHARASHTRA
"PUNJAB AND MAHARSHTRA COOPERATIVE BANK",PMCB0000252,422328002,"CANADA CORNER","SHOP NO.15 TO 18 GOOLMOHAR SOCIETY",6577018,NASHIK,NASHIK,MAHARASHTRA
"PUNJAB AND MAHARSHTRA COOPERATIVE BANK",PMCB0000251,411328011,"SPINE CITY MOSHI","SHOP NO 20 AND 21, A WING, GROUND FLOOR, SPINE CITY, PLOT NO LC 1, SECTOR 9 ,PCNDTA, MOSHI PUNE 412105",7506251180,PUNE,PUNE,MAHARASHTRA
"PUNJAB AND MAHARSHTRA COOPERATIVE BANK",PMCB0000250,411328010,"KASPHATE VASTI","SHOP NO 201 3 SUKHWANI CALLISTO,NEAR PUMPKIN PATCH SCHOOL,KASPHATE VASTI,WAKAD PUNE 411057",9960033368,PUNE,PUNE,MAHARASHTRA
"PUNJAB AND MAHARSHTRA COOPERATIVE BANK",PMCB0000249,411328009,KALEWADI,"SAI SANKUL,OPP DHANGAR BABA MANDIR,KALEWADI MAIN ROAD KALEWADI PIMPRI PUNE 411017",65101185,PUNE,PUNE,MAHARASHTRA
"PUNJAB AND MAHARSHTRA COOPERATIVE BANK",PMCB0000248,411328008,WAKAD,"SHRI KRIPA",65115444,PUNE,PUNE,MAHARASHTRA
"PUNJAB AND MAHARSHTRA COOPERATIVE BANK",PMCB0000247,411328007,RAVET,"SHOP NO-2 TO 5",9890640090,PUNE,PUNE,MAHARASHTRA
"PUNJAB AND MAHARSHTRA COOPERATIVE BANK",PMCB0000246,411328006,HINJEWADI,"HINJEWADI -- SURVEY NO-145",65310666,PUNE,PUNE,MAHARASHTRA
"PUNJAB AND MAHARSHTRA COOPERATIVE BANK",PMCB0000245,411328005,PASHAN,"GROUND FLOOR",65212777,PUNE,PUNE,MAHARASHTRA
"PUNJAB AND MAHARSHTRA COOPERATIVE BANK",PMCB0000244,411328004,BANER,"SANSKRUTI HOMES",65111617,PUNE,PUNE,MAHARASHTRA
"PUNJAB AND MAHARSHTRA COOPERATIVE BANK",PMCB0000243,411328003,RAHATANI,"SHOP NO. 9 TO 10",65108112,PUNE,PUNE,MAHARASHTRA
"PUNJAB AND MAHARSHTRA COOPERATIVE BANK",PMCB0000242,411328002,"DANGE CHAWK","SHOP NO. 1 TO 4",65108109,PUNE,PUNE,MAHARASHTRA
"PUNJAB AND MAHARSHTRA COOPERATIVE BANK",PMCB0000232,431328102,NANDED,"SHOP NO. 3-6-281",232544,NANDED,NANDED,MAHARASHTRA
"PUNJAB AND MAHARSHTRA COOPERATIVE BANK",PMCB0000223,431328003,"OSMANPURA AURANGABAD","PLOT NO-1",6420555,AURANGABAD,AURANGABAD,MAHARASHTRA
"PUNJAB AND MAHARSHTRA COOPERATIVE BANK",PMCB0000222,431328002,"JALANA ROAD AURANGABAD","BAGGA CHAMBERS",2320111,AURANGABAD,AURANGABAD,MAHARASHTRA
"PUNJAB AND MAHARSHTRA COOPERATIVE BANK",PMCB0000214,416328006,"PSMB KOLHAPUR","1061 WARD A PRINCE SHIVAJI MARATHA BOARDING NEW COLLEGE ROAD SHIVAJI PETH KOLHAPUR 416012",6454451,KOLHAPUR,KOLHAPUR,MAHARASHTRA
"PUNJAB AND MAHARSHTRA COOPERATIVE BANK",PMCB0000211,416328007,"KIT KOLHAPUR","KIT COLLEGE GOKUL SHIRGAON TALUKA KARVEER DIST KOLHAPUR 416234",6454453,KOLHAPUR,KOLHAPUR,MAHARASHTRA
"PUNJAB AND MAHARSHTRA COOPERATIVE BANK",PMCB0000207,416328005,"SHIVAJI PETH",2402,6456318,KOLHAPUR,KOLHAPUR,MAHARASHTRA
"PUNJAB AND MAHARSHTRA COOPERATIVE BANK",PMCB0000205,416328004,"RUIKAR COLONY","PLOT NO. 135",6624600,KOLHAPUR,KOLHAPUR,MAHARASHTRA
"PUNJAB AND MAHARSHTRA COOPERATIVE BANK",PMCB0000204,416328002,RAJARAMPURI,1783,6624500,KOLHAPUR,KOLHAPUR,MAHARASHTRA
"PUNJAB AND MAHARSHTRA COOPERATIVE BANK",PMCB0000203,416328003,"STATION ROAD",511,231,KOLHAPUR,KOLHAPUR,MAHARASHTRA
"PUNJAB AND MAHARSHTRA COOPERATIVE BANK",PMCB0000152,410328101,KHOPOLI,"PLOT CTS NO. 3553 & 3554",265756,KHOPOLI,RAIGAD,MAHARASHTRA
"PUNJAB AND MAHARSHTRA COOPERATIVE BANK",PMCB0000075,400328075,"YESHWANT NAGAR VIRAR WEST","HOUSE NO B SURVEY NO 343 GROUND FLOOR AMEYA CLASSIC CLUB YESHWANT NAGAR VILLAGE BOLINJ VIRAR WEST TAL VASAI DIST PALGHAR 401303",9930368823,VIRAR,PLAGHAR,MAHARASHTRA
"PUNJAB AND MAHARSHTRA COOPERATIVE BANK",PMCB0000074,400328074,DHARAVI,"FIRST FLOOR DHURI TOWERS BUILDING NO 1 WING A 90 FT ROAD DHARAVI MUMBAI 400017",9619850487,MUMBAI,"GREATER BOMBAY",MAHARASHTRA
"PUNJAB AND MAHARSHTRA COOPERATIVE BANK",PMCB0000073,400328073,"DOMBIVLI WEST","GROUND FLOOR SHRI RAJENDRA CHS LTD SHASTRI NAGAR PANDIT DEENDAYAL ROAD DOMBIVLI WEST DIST THANE 421202",9969138805,DOMBIVLI,THANE,MAHARASHTRA
"PUNJAB AND MAHARSHTRA COOPERATIVE BANK",PMCB0000072,400328072,"NERUL EAST","SHOP NO 1 AND 2 F-1 PLOT NO 3 SECTOR 11 NEUL EAST NAVI MUMBAI-400706",9930368830,"NAVI MUMBAI",THANE,MAHARASHTRA
"PUNJAB AND MAHARSHTRA COOPERATIVE BANK",PMCB0000071,400328071,"BOISAR EAST","SHOP NO 21 TO 25 OSTWAL WONDER CITY BUILDING NO A1 BHUMAPAN GUT NO 172 158 AND 156 WONDER CITY BOISAR EAST TALUKA PALGHAR 401501",9903068823,BOISAR,THANE,MAHARASHTRA
"PUNJAB AND MAHARSHTRA COOPERATIVE BANK",PMCB0000070,400328070,ULWE,"SHOP NO 6 7 8 SAI SAPHIRE PLOT NO 178 AND 180 SECTOR 20 ULWE NAVI MUMBAI 410206",7045598362,"NAVI MUMBAI",RAIGAD,MAHARASHTRA
"PUNJAB AND MAHARSHTRA COOPERATIVE BANK",PMCB0000069,400328069,KALWA,"SHOP NO 2 3 4 5 SHIV ASHISH COOP HSG SOC LTD OLD BELAPUR ROAD KALWA THANE 400605",7045685947,THANE,THANE,MAHARASHTRA
"PUNJAB AND MAHARSHTRA COOPERATIVE BANK",PMCB0000068,400328068,"MALAD EAST","SHOP NO 4 SHAH NO 4 HOUSECON COMPOSITE NO 10 BASEMENT AND GROUND FLOOR RANI SATI MARG KURAR VILLAGE MALAD EAST MUMBAI 400097",9920710033,MUMBAI,"GREATER BOMBAY",MAHARASHTRA
"PUNJAB AND MAHARSHTRA COOPERATIVE BANK",PMCB0000067,400328067,TALOJA,"SHOP NO 1 2 3 KEYSTONE ARISTA PLOT NO 149 SECTOR 10 PANCHNAND NAGAR TALOJA NAVI MUMBAI DIST RAIGAD 410208",9987664949,TALOJA,RAIGAD,MAHARASHTRA
"PUNJAB AND MAHARSHTRA COOPERATIVE BANK",PMCB0000066,400328066,BHIWANDI,"BLOCK NO 2 GROUND FLOOR PAVANPUTRA ENCLAVE THANE BHWANDI ROAD KALHER BHIWANDI THANE 421302",9892696072,BHIWANDI,THANE,MAHARASHTRA
"PUNJAB AND MAHARSHTRA COOPERATIVE BANK",PMCB0000065,400328065,"DIVA EAST","SHOP NO 1 2 AND 3 SHREEKRISHNA PARK GROUND FLOOR C WING DIVA SHIL ROAD DIVA EAST THANE 400612",9886480670,THANE,THANE,MAHARASHTRA
"PUNJAB AND MAHARSHTRA COOPERATIVE BANK",PMCB0000064,400328064,"MALAD WEST","SHOP NO 5 AND 6 GROUND FLOOR A WING NAZARENE APARTMENT MARVE ROAD KHARODI MALAD WEST MUMBAI 400095",9892873242,MUMBAI,"GREATER BOMBAY",MAHARASHTRA
"PUNJAB AND MAHARSHTRA COOPERATIVE BANK",PMCB0000063,400328063,"ADIVALI DHAKOLI KALYAN EAST","SHOP NUMBER 5 AND 6 PARVATI PLAZA ADIVALI DHOKALI MALANG ROAD KALYAN EAST THANE 421306",9019085223,KALYAN,THANE,MAHARASHTRA
"PUNJAB AND MAHARSHTRA COOPERATIVE BANK",PMCB0000062,400328062,"BORIVALI WEST","SHOP NO 2 AHCL HOMES BUILDING LINK ROAD BORIVALI W MUMBAI 400092",9930368818,MUMBAI,"GREATER BOMBAY",MAHARASHTRA
"PUNJAB AND MAHARSHTRA COOPERATIVE BANK",PMCB0000061,400328061,"BHAYNDER EAST","SHOP NO 3 TO 9 SHIV PRASAD 1 INDRALOK PHASE II A BHAYNDER EAST 401105",9930100497,MUMBAI,"GREATER BOMBAY",MAHARASHTRA
"PUNJAB AND MAHARSHTRA COOPERATIVE BANK",PMCB0000060,400328060,"GHATKOPAR WEST","SHOP NO 6 7 8 GROUND FLOOR KARAN APARTMENT PLOT NO B2 AMRUT NAGAR GHATKOPAR WEST MUMBAI 400086",9930812299,MUMBAI,"GREATER BOMBAY",MAHARASHTRA
"PUNJAB AND MAHARSHTRA COOPERATIVE BANK",PMCB0000059,400328059,"MAROL ANDHERI EAST","SHOP NUMBER 1 GROUND FLOOR A WING TWIN C 1 BUILDING ORCHID BUSINESS PARK MILITARY ROAD MAROL ANDHERI EAST MUMBAI 400093",9004299992,MUMBAI,"GREATER BOMBAY",MAHARASHTRA
"PUNJAB AND MAHARSHTRA COOPERATIVE BANK",PMCB0000058,400328058,"GURUDWARA RAOLI CAMP","GROUND FLOOR GURUDWARA RAOLI CAMP GTB NAGAR SION EAST MUMBAI 400037",24010268,MUMBAI,"GREATER BOMBAY",MAHARASHTRA
"PUNJAB AND MAHARSHTRA COOPERATIVE BANK",PMCB0000057,400328057,"VIKHROLI EAST","BUILDING NO 30 31 A B C,KANNAMWAR NAGAR,VIKHROLI EAST,MUMBAI 400083",9833846966,"GREATER BOMBAY","GREATER BOMBAY",MAHARASHTRA
"PUNJAB AND MAHARSHTRA COOPERATIVE BANK",PMCB0000056,400328056,"BHANDUP WEST","GROUND FLR AND FIRST FLR, SHOP NO 102 103, THAKKAR HEIGHTS, NEAR NAHUR STATTION VILLAGE ROAD,BHANDUP WEST MUMBAI 400078",9870302113,MUMBAI,"GREATER BOMBAY",MAHARASHTRA
"PUNJAB AND MAHARSHTRA COOPERATIVE BANK",PMCB0000055,400328055,"BORIVALI EAST","SHOP NO 1 TO 5 GROUND FLOOR, GANGADHAR NAGAR CHS LTD, SHRI KRISHNA NAGAR BORIVALI EAST MUMBAI 400066",9820808284,MUMBAI,"GREATER BOMBAY",MAHARASHTRA
"PUNJAB AND MAHARSHTRA COOPERATIVE BANK",PMCB0000054,400328054,"GOREGAON EAST","6 B1 SUPRIYA HOUSE GAGAN SHOPPING COMPLEX,GOKULDHAM ROAD GOREGAON EAST MUMBAI 400063",8879785252,MUMBAI,"GREATER BOMBAY",MAHARASHTRA
"PUNJAB AND MAHARSHTRA COOPERATIVE BANK",PMCB0000053,400328053,"GOREGAON WEST","SHOP NO 66 AND 69 GROUND FLOOR AND FIRST FLOOR, HARMONY LINK ROAD, GOREGAON WEST,MUMBAI 400104",9167015757,MUMBAI,"GREATER BOMBAY",MAHARASHTRA
"PUNJAB AND MAHARSHTRA COOPERATIVE BANK",PMCB0000052,400328052,"KASHI VILLAGE THANE","MANSHI CLASSICS, SURVEY NO 6 1, HISSA NO 1, ZARI MARI ROAD NEAR TALAB, KASHI VILLAGE THANE 401107",9323375087,THANE,THANE,MAHARASHTRA
"PUNJAB AND MAHARSHTRA COOPERATIVE BANK",PMCB0000051,400328051,ULHASNAGAR,"BAHRANI PRIDE, SHOP NO A,STATION ROAD,NEAR CHM COLLEGE,ULHASNAGAR THANE 421003",2734832,ULHASNAGAR,THANE,MAHARASHTRA
"PUNJAB AND MAHARSHTRA COOPERATIVE BANK",PMCB0000050,400328050,"J B NAGAR ANDHERI","UNIT NO G1 AND G2, A WING, SILVER ASTRA,CTS NO 468 C, J B NAGAR,ANDHERI EAST MUMBAI 400059",8879619603,MUMBAI,"GREATER MUMBAI",MAHARASHTRA
"PUNJAB AND MAHARSHTRA COOPERATIVE BANK",PMCB0000049,400328049,"WAGHLE ESTATE THANE","SHOP NO 4 AND 5,QUANTUM IT PARK,ROAD NO 16,NEAR KISAN NAGAR WAGHLE ESTATE THNAE WEST 400610",25806270,THANE,THANE,MAHARASHTRA
"PUNJAB AND MAHARSHTRA COOPERATIVE BANK",PMCB0000048,400328048,"MAJIWADE THANE","ASHER RESIDENCY,POKHRAN ROAD,MAJIWADE THANE WEST 400610",21719941,THANE,THANE,MAHARASHTRA
"PUNJAB AND MAHARSHTRA COOPERATIVE BANK",PMCB0000047,400328047,"MIRA ROAD","SHOP NO.- 5",28120059,"MIRA ROAD",THANE,MAHARASHTRA
"PUNJAB AND MAHARSHTRA COOPERATIVE BANK",PMCB0000046,400328046,"VILLAGE NARANGI","GR. FLOOR",9223653500,VIRAR,THANE,MAHARASHTRA
"PUNJAB AND MAHARSHTRA COOPERATIVE BANK",PMCB0000045,400328045,"KASARVADAVALI THANE","GROUND FLOOR",65180246,THANE,THANE,MAHARASHTRA
"PUNJAB AND MAHARSHTRA COOPERATIVE BANK",PMCB0000044,400328044,"KAVESAR THANE","SHOP NO- 10A",65180319,THANE,THANE,MAHARASHTRA
"PUNJAB AND MAHARSHTRA COOPERATIVE BANK",PMCB0000043,400328043,GHANSOLI,"SHOP NO. 1 TO 16",65271423,GHANSOLI,THANE,MAHARASHTRA
"PUNJAB AND MAHARSHTRA COOPERATIVE BANK",PMCB0000042,400328042,KHARGHAR,"SHOP NO. 1",60026337,KHARGHAR,RAIGAD,MAHARASHTRA
"PUNJAB AND MAHARSHTRA COOPERATIVE BANK",PMCB0000041,400328041,KANJURMARG,"SHRI CUTCHHI BRAHMAKSHATRIYA PANCHAYAT TRUST",25779221,MUMBAI,"GREATER MUMBAI",MAHARASHTRA
"PUNJAB AND MAHARSHTRA COOPERATIVE BANK",PMCB0000040,400328040,DAHISAR,"SHREE BHASKAR APARTMENT",60022016,DAHISAR,THANE,MAHARASHTRA
"PUNJAB AND MAHARSHTRA COOPERATIVE BANK",PMCB0000039,400328039,ROADPALI,"SHOP NO. 12A & 14",60026334,ROADPALI,RAIGAD,MAHARASHTRA
"PUNJAB AND MAHARSHTRA COOPERATIVE BANK",PMCB0000038,400328038,"ANDHERI EAST","KALEDONIA COMM COMPLEX,KOLDONGRI ROAD, VIJAY NAGAR, ANDHERI EAST , MUMBAI 400058",2683347,MUMBAI,"GREATER BOMBAY",MAHARASHTRA
"PUNJAB AND MAHARSHTRA COOPERATIVE BANK",PMCB0000037,400328037,"BRAHMAND SOCIETY THANE","SHOP NO. 5 & 6",25841530,THANE,THANE,MAHARASHTRA
"PUNJAB AND MAHARSHTRA COOPERATIVE BANK",PMCB0000036,400328036,"SAKI VIHAR","SUN SHRISHTI ""A"" CHS LTD SHOP 1",28571473,MUMBAI,"GREATER MUMBAI",MAHARASHTRA
"PUNJAB AND MAHARSHTRA COOPERATIVE BANK",PMCB0000035,400328035,NERUL,"SHOP NO 26",27721012,NERUL,THANE,MAHARASHTRA
"PUNJAB AND MAHARSHTRA COOPERATIVE BANK",PMCB0000034,400328034,"THAKURLI EAST","RIDDHI PARK B/2",2470211,THAKURLI,THANE,MAHARASHTRA
"PUNJAB AND MAHARSHTRA COOPERATIVE BANK",PMCB0000033,400328033,"SANTACRUZ W NORTN AVENUE","GROUND FLOOR",26489385,MUMBAI,"GREATER MUMBAI",MAHARASHTRA
"PUNJAB AND MAHARSHTRA COOPERATIVE BANK",PMCB0000032,400328032,"SANTACRUZ W DAULAT NAGAR","GROUND FLOOR",26606730,MUMBAI,"GREATER MUMBAI",MAHARASHTRA
"PUNJAB AND MAHARSHTRA COOPERATIVE BANK",PMCB0000031,400328031,"KALYAN E","MONARCH CRYSTAL",6535266,KALYAN,THANE,MAHARASHTRA
"PUNJAB AND MAHARSHTRA COOPERATIVE BANK",PMCB0000030,400328030,DADAR,"FIRST FLR",65180355,MUMBAI,"GREATER MUMBAI",MAHARASHTRA
"PUNJAB AND MAHARSHTRA COOPERATIVE BANK",PMCB0000029,400328029,AMBERNATH,"SHOP NO. 7",2683800,AMBERNATH,THANE,MAHARASHTRA
"PUNJAB AND MAHARSHTRA COOPERATIVE BANK",PMCB0000028,400328028,PALGHAR,"SHOP NO. 9",5645844,PALGHAR,THANE,MAHARASHTRA
"PUNJAB AND MAHARSHTRA COOPERATIVE BANK",PMCB0000027,400328027,BADLAPUR,"YASHWANT PLAZA",2696941,BADLAPUR,THANE,MAHARASHTRA
"PUNJAB AND MAHARSHTRA COOPERATIVE BANK",PMCB0000026,400328026,"PANVEL W","SHOP NO.3 TO 6",27480461,PANVEL,RAIGAD,MAHARASHTRA
"PUNJAB AND MAHARSHTRA COOPERATIVE BANK",PMCB0000025,400328025,"KURLA W","WHITE HOUSE",65738011,MUMBAI,"GREATER MUMBAI",MAHARASHTRA
"PUNJAB AND MAHARSHTRA COOPERATIVE BANK",PMCB0000024,400328024,NALLASOPARA,"SHOP NO. 1 TO 4",2439075,NALLASOPARA,THANE,MAHARASHTRA
"PUNJAB AND MAHARSHTRA COOPERATIVE BANK",PMCB0000023,400328023,"KOLSHET RD THANE","SHOP NO 13 TO 18",25899174,THANE,THANE,MAHARASHTRA
"PUNJAB AND MAHARSHTRA COOPERATIVE BANK",PMCB0000022,400328022,"SHIVAJI TALAO BHANDUP","SAAZ CINEMA BUILDING",25954547,MUMBAI,"GREATER MUMBAI",MAHARASHTRA
"PUNJAB AND MAHARSHTRA COOPERATIVE BANK",PMCB0000021,400328021,VIRAR,"SHOP NO. 6/7/8 AND 9",2528238,VIRAR,THANE,MAHARASHTRA
"PUNJAB AND MAHARSHTRA COOPERATIVE BANK",PMCB0000020,400328020,"KALYAN W","SHOP NO. B/5 AND B/13",6459017,"KALYAN W",THANE,MAHARASHTRA
"PUNJAB AND MAHARSHTRA COOPERATIVE BANK",PMCB0000019,400328019,KAMOTHE,"SHOP NO.7 & 9",27430872,KAMOTHE,RAIGAD,MAHARASHTRA
"PUNJAB AND MAHARSHTRA COOPERATIVE BANK",PMCB0000018,400328018,AIROLI,"SHREEJI DHAM",27604968,AIROLI,THANE,MAHARASHTRA
"PUNJAB AND MAHARSHTRA COOPERATIVE BANK",PMCB0000017,400328017,VASHI,"PLOT NO. 51",27833727,VASHI,THANE,MAHARASHTRA
"PUNJAB AND MAHARSHTRA COOPERATIVE BANK",PMCB0000016,400328016,CHEMBUR,"OFFICE NO.1",25209216,MUMBAI,"GREATER MUMBAI",MAHARASHTRA
"PUNJAB AND MAHARSHTRA COOPERATIVE BANK",PMCB0000015,400328015,BANDRA,"DHEERAJ CORNER",26551383,MUMBAI,"GREATER MUMBAI",MAHARASHTRA
"PUNJAB AND MAHARSHTRA COOPERATIVE BANK",PMCB0000014,400328014,FORT,"1ST FLOOR",66202401,MUMBAI,"GREATER MUMBAI",MAHARASHTRA
"PUNJAB AND MAHARSHTRA COOPERATIVE BANK",PMCB0000013,400328013,VASAI,"LINK ROAD",6457860,VASAI,THANE,MAHARASHTRA
"PUNJAB AND MAHARSHTRA COOPERATIVE BANK",PMCB0000012,400328012,KOPARKHAIRANE,"PLOT NO. 88",27546539,KOPARKHAIRANE,RAIGAD,MAHARASHTRA
"PUNJAB AND MAHARSHTRA COOPERATIVE BANK",PMCB0000011,400328011,OSHIWARA,"27 & 28",26302426,MUMBAI,"GREATER MUMBAI",MAHARASHTRA
"PUNJAB AND MAHARSHTRA COOPERATIVE BANK",PMCB0000010,400328010,CARNAC,"OFFICE AT 66B",23483905,MUMBAI,"GREATER MUMBAI",MAHARASHTRA
"PUNJAB AND MAHARSHTRA COOPERATIVE BANK",PMCB0000009,400328009,KANDIVALI,"NEAR MAHENDRA &  MAHENDRA YELLOW GATE",29651720,MUMBAI,"GREATER MUMBAI",MAHARASHTRA
"PUNJAB AND MAHARSHTRA COOPERATIVE BANK",PMCB0000008,400328008,VERSOVA,"SHOP NO. 1/FLAT NO. 7",26373841,MUMBAI,"GREATER MUMBAI",MAHARASHTRA
"PUNJAB AND MAHARSHTRA COOPERATIVE BANK",PMCB0000007,400328007,BHANDUP,"SHOP NO. L31 TO L35",66892000,MUMBAI,"GREATER MUMBAI",MAHARASHTRA
"PUNJAB AND MAHARSHTRA COOPERATIVE BANK",PMCB0000006,400328006,GHATKOPAR,"GURU NANAK ENGLISH HIGH SCHOOL",283705,MUMBAI,"GREATER MUMBAI",MAHARASHTRA
"PUNJAB AND MAHARSHTRA COOPERATIVE BANK",PMCB0000005,400328005,MULUND,35-5,25906235,MUMBAI,"GREATER MUMBAI",MAHARASHTRA
"PUNJAB AND MAHARSHTRA COOPERATIVE BANK",PMCB0000004,400328004,"ANDHERI E","MAJAS EVERGREEN HSG SOCIETY",28203196,MUMBAI,"GREATER MUMBAI",MAHARASHTRA
"PUNJAB AND MAHARSHTRA COOPERATIVE BANK",PMCB0000003,400328003,VIKHROLI,25,25746984,MUMBAI,"GREATER MUMBAI",MAHARASHTRA
"PUNJAB AND MAHARSHTRA COOPERATIVE BANK",PMCB0000002,400328002,SION,240,24014190,MUMBAI,"GREATER MUMBAI",MAHARASHTRA
