BANK,IFSC,MICR,BRANCH,ADDRESS,CONTACT,CITY,DISTRICT,STATE
"KARUR VYSYA BANK",KVBL0009999,NA,"KARUR VYSYA BANK TREASURY","POST BOX NO. 21, ERODE ROAD, KARUR-639002",0,KARUR,KARUR,"TAMIL NADU"
"KARUR VYSYA BANK",KVBL0007777,NA,"DATA CENTRE ACC","D BLOCK,NORTH WING,6TH FLOORTIDEL,PARK,TARAMANI,CHENNAI 600113",22665914,CHENNAI,CHENNAI,"TAMIL NADU"
"KARUR VYSYA BANK",KVBL0004871,NA,"KAKINADA- BHANUGUDI JUNCTION","D NO 2-27-14/1 GOKULA STREET SRINAGAR KAKINADA ANDHRA PRADESH 533003",22654260,"EAST GODAVARI","EAST GODAVARI","ANDHRA PRADESH"
"KARUR VYSYA BANK",KVBL0004870,NA,RAZOLE,"S NO 145/1 MAIN ROAD RAZOLE EAST GODAVARI DISTRICT ANDHRA PRADESH 533242",22654260,"EAST GODAVARI","EAST GODAVARI","ANDHRA PRADESH"
"KARUR VYSYA BANK",KVBL0004869,NA,NAIDUPET,"OLD GNT ROAD OPP R AND B GUEST HOUSE NELLORE DISTRICT NAIDUPET ANDHRA PRADESH 524126",22654260,NELLORE,NELLORE,"ANDHRA PRADESH"
"KARUR VYSYA BANK",KVBL0004868,NA,"VIJAYAWADA-BENZ CIRCLE","D.NO 40-9-99,RAMA KRUPA COMPLEX,SAINAGAR,KRISHNA DISTRICT,VIJAYAWADA ANDHRA PRADESH 520008",22654260,VIJAYAWADA,VIJAYAWADA,"ANDHRA PRADESH"
"KARUR VYSYA BANK",KVBL0004867,NA,JADCHERLA,"PLOT NO 3B 4,SY NO 74,BLOCK NO 13 BIJINEPALLY,NEAR SIGNAL GADDA CROSS RD BADEPALLY JADCHERLA MAHABOOBNAGAR TELANGANA 509301",22654260,MAHABOOBNAGAR,MAHABOOBNAGAR,TELANGANA
"KARUR VYSYA BANK",KVBL0004866,NA,"TIRUPATI M R PALLI","PLOT NO 158 NEW BALAJI COLONY M R PILLAI TIRUPATI CHITOOR ANDHRA PRADESH 517502",22654260,CHITOOR,CHITOOR,"ANDHRA PRADESH"
"KARUR VYSYA BANK",KVBL0004865,NA,KADIRI,"D NO 1 1169 BYEPASS ROAD KADIRI ANANTAPUR ANDHRA PRADESH 515591",22654260,ANANTAPUR,ANANTAPUR,"ANDHRA PRADESH"
"KARUR VYSYA BANK",KVBL0004864,NA,CHINAAMIRAM,"D NO 7 9 JUVVALAPALEM ROAD CHINAAMIRAM WEST GODAVARI DISTRICT ANDHRA PRADESH 534204",22654260,CHINAAMIRAM,"WEST GODAVARI","ANDHRA PRADESH"
"KARUR VYSYA BANK",KVBL0004863,NA,YADAGIRIGUTTA,"DOWNHILLS VYKUNTA DWARAM OPP SHOPPING COMPLEX 1 SHOP NO 15 MAIN ROAD YADAGIRIGUTTA TELANGANA 508115",22654260,YADAGIRIGUTTA,YADAGIRIGUTTA,TELANGANA
"KARUR VYSYA BANK",KVBL0004862,NA,"HYDERABAD ALWAL","H NO 1 4 173/1/3 NEW NO 5-72/4 SATYA COMPLEX GROUND FLOOR LOYOLA COLLEGE ROAD OLD ALWAL SECUNDERABAD TELANGANA 50010",22654260,SECUNDERABAD,HYDERABAD,TELANGANA
"KARUR VYSYA BANK",KVBL0004861,NA,VENKATAPALEM,"2-42 VENKATAPALEM TULLUR MANDAL GUNTUR ANDHRA PRADESH 522503",22837668,GUNTUR,GUNTUR,"ANDHRA PRADESH"
"KARUR VYSYA BANK",KVBL0004860,NA,"TIRUPATHI DO","6-8-1250,KT ROAD,NGOS COLONY, THIRUPATHI,CHITTOOR,AP",22654260,CHITTOOR,CHITTOOR,"ANDHRA PRADESH"
"KARUR VYSYA BANK",KVBL0004859,NA,"G ARAHARAM","D NO 2 10 MAIN ROAD G AGRAHARAM CHIPURUPALLI MANDAL VIZIANAGARAM",22665914,"G AGRAHARAM",VIZIANAGARAM,"ANDHRA PRADESH"
"KARUR VYSYA BANK",KVBL0004858,NA,ARYAVATAM,"D NO 1 127 MAIN ROAD ARYAVATAM KAJULURU MANDAL EASTGODAVARI",22665914,ARYAVATAM,KAJULURU,"ANDHRA PRADESH"
"KARUR VYSYA BANK",KVBL0004857,NA,VIJAYAWADA-SATYANARAYANAPURAM,"DOOR NO 23 22 60 SIVALAYAM STREET SATYANARAYANAPURAM VIJAYAWADA ANDHRA PRADESH 520011",22665914,SATYANARAYANAPURAM,VIJAYAWADA,"ANDHRA PRADESH"
"KARUR VYSYA BANK",KVBL0004856,NA,GUNTUR-GUJJANAGUNDLA,"D NO B 62 SRINIVASA NAGAR COLONY MAIN ROAD GUJJANAGUNDLA GUNTUR",22665914,GUNTUR,GUNTUR,"ANDHRA PRADESH"
"KARUR VYSYA BANK",KVBL0004855,NA,"VIZAG MVP COLONY","D NO 1 83 43 PLOT NO HIG 204 4 DOUBLE ROAD MVP COLONY VISAKHAPATNAM ANDHRAPRADESH 530017",22665914,VISAKHAPATNAM,VISAKHAPATNAM,"ANDHRA PRADESH"
"KARUR VYSYA BANK",KVBL0004854,NA,KADUMUR,"5 23 GROUND FLOOR KADUMURU VILLAGE KURNOOL ANDHRAPRADHESH 518452",22665914,KURNOOL,KURNOOL,"ANDHRA PRADESH"
"KARUR VYSYA BANK",KVBL0004853,NA,BUDAWADA,"SURVEY NO 72 2 2C MAIN ROAD BUDAWADA VILLAGE CHIMAKURTH MANDAL PRAKASAM ANDHRA PRADESH 523169",22665914,BUDAWADA,BUDAWADA,"ANDHRA PRADESH"
"KARUR VYSYA BANK",KVBL0004852,NA,SIDDIPET,"DOOR NO 8 4 70 AND 71 GROUND FLOOR NEAR BURJ SIDDIPET MEDAK TELANGANA",22665914,SIDDIPET,MEDAK,TELANGANA
"KARUR VYSYA BANK",KVBL0004851,NA,BUDDHAM,"216 HIGH WAY BAPATLA VELLATURU ROAD BESIDES VETERINARY HOSPITAL BUDDAM VILLAGE KARLAPALEM MANDAL",22665914,BUDDHAM,GUNTUR,"ANDHRA PRADESH"
"KARUR VYSYA BANK",KVBL0004850,NA,"VIZAG - MADHURAWADA","PLOT NO HIG 128 VUDA COLONY MADHURAWADA",22665914,MADHURAWADA,VISAKHAPATNAM,"ANDHRA PRADESH"
"KARUR VYSYA BANK",KVBL0004849,NA,AKIVIDU,"BESIDE DEVELOPMENT CREDIT BANK MAIN ROAD AKIVIDU",22665914,AKIVIDU,"WEST GODAVARI","ANDHRA PRADESH"
"KARUR VYSYA BANK",KVBL0004848,NA,GUNTAKAL,"D NO 18/55, MAIN ROAD, OPP BHARATH PETROL BUNK, NEAR (RTC BUST STN), GUNTAKAL, ANANTAPUR, ANDHRA PRADESH, 515801",22665914,GUNTAKAL,ANANTAPUR,"ANDHRA PRADESH"
"KARUR VYSYA BANK",KVBL0004847,NA,PUTTUR,"SRI VASAVI KANYAKA PARAMESWARI DEVASTHANAM,D NO 6/70, ESWARAGUDI TREET, PUTTUR, CHITTOR, ANDHRA PRADESH - 517583",22665914,CHITTOOR,CHITTOOR,"ANDHRA PRADESH"
"KARUR VYSYA BANK",KVBL0004846,NA,MANGALAGIRI,"7-402,S V COMPLEX,GOWTHAM BUDDHA ROAD,MANGALAGIRI,GUNTUR DT,AP-522503",22665914,MANGALAGIRI,GUNTUR,"ANDHRA PRADESH"
"KARUR VYSYA BANK",KVBL0004845,NA,PITHAPURAM,"NO 4,SRIVALLI SUBRAMYESHAWARA TEMPLE STRRE, EAST GODAVARI, PITHAPURAM,ANDHRA PRADESH 533450",22665914,PITHAPURAM,"EAST GODAVARI","ANDHRA PRADESH"
"KARUR VYSYA BANK",KVBL0004844,NA,MAYALURU,"NO 158,163 9, NOSSAM ROAD,MAYALURU VILLAGE GRAMPANCHAYAT ,UYYALAWADA MANDAL KURNOOL, ANDHRA PRADESH",22665914,UYYALAWADA,KURNOOL,"ANDHRA PRADESH"
"KARUR VYSYA BANK",KVBL0004843,NA,"SRI KALAHASTI","D NO 4 12,CAR STREET, SRI KALAHASTI, TIRUPATHI,CHITTOOR,ANDHRA PRADESH 517644",22665914,CHITTOOR,CHITTOOR,"ANDHRA PRADESH"
"KARUR VYSYA BANK",KVBL0004842,NA,"SEETHAMMADHARA- VISHAKAPATTINAM","NO 15,TPT COLONY,AB EMP COOP HOUSING SOCIETY MAIN ROAD,ANDHRA PRADESH 530013",22665914,VISHAKAPATINAM,VISHAKAPATTINAM,"ANDHRA PRADESH"
"KARUR VYSYA BANK",KVBL0004841,NA,BOMMURU,"NO 54,BOMMURU VILLAGE AND PANCHAYAT6,BALAJI PETA,RAJAHMUNDRY MAIN ROAD,EAST GODAVARI,AP 533124",22665914,RAJAHMUNDRY,"EAST GODAVARI","ANDHRA PRADESH"
"KARUR VYSYA BANK",KVBL0004840,NA,NARSIPATNAM,"DNO 8 71,GROUND FLOOR,NEAR KRISHNA TEMPLE,KRISHNA BAZAR,NARSIPATNAM",22665914,COIMBATORE,VISHAKHAPATNAM,"ANDHRA PRADESH"
"KARUR VYSYA BANK",KVBL0004839,NA,JAMMIKUNTA,"SY.NO 660 AND 661,AGRICULTURE MARKET ROAD,PLOT NO.S 69,70,89,90,JAMMIKUNTA",22665914,JAMMIKUNTA,KARIMNAGAR,"ANDHRA PRADESH"
"KARUR VYSYA BANK",KVBL0004838,NA,SANGAREDDY,"PLOT NO5 88,89 NELOS COMMERCIALCOMPLEX,OPPOSITE COLLECTORATE,SANGAREDDY,ANDHRA PRADESH",22665914,SANGAREDDY,MEDAK,"ANDHRA PRADESH"
"KARUR VYSYA BANK",KVBL0004837,NA,MEDAK,"D.NO 1 3 29 BY O,P,Q,Q1,Q2,WARD NO.1,BLOCK 3,NEAR RAMALAYAM TEMPLE,MEDAK",22665914,MEDAK,MEDAK,"ANDHRA PRADESH"
"KARUR VYSYA BANK",KVBL0004836,NA,"VIZAG - RLPC","D.NO.30-10-1, FIRST FLOOR, PIDAPARTHI VARI STREET, DABA GARDENS, VISAKHAPATNAM",0,VISAKHAPATNAM,VISHAKHAPATNAM,"ANDHRA PRADESH"
"KARUR VYSYA BANK",KVBL0004835,NA,"VIJAYAWADA - RLPC","GAYATHRI NILIYAM, I FLOOR, 38-8-46, LABBIPET, M.G.ROAD, VIJAYAWADA",0,VIJAYAWADA,KRISHNA,"ANDHRA PRADESH"
"KARUR VYSYA BANK",KVBL0004834,NA,HAYATHNAGAR,"NO.4 7 234,MAIN ROAD,PADMAVATHY COLONY PHASE II",22665915,HAYATNAGAR,RANGAREDDY,"ANDHRA PRADESH"
"KARUR VYSYA BANK",KVBL0004833,NA,GANNAVARAM,"HOTEL PLAZA,TANAKPUR ROAD,CHANDRA BHAG PO AICHOLI 262530 UTTARAKAND",0,GANNAVARAM,KRISHNA,"ANDHRA PRADESH"
"KARUR VYSYA BANK",KVBL0004832,NA,"VIJAYAWADA - CPC","GAYATHRI NILIYAM,I FLOOR, 38-8-46,LABBIPET, M.G.ROAD,VIJAYAWADA,ANDHRA PRADESH- 520010",0,VIJAYAWADA,VIJAYAWADA,"ANDHRA PRADESH"
"KARUR VYSYA BANK",KVBL0004831,NA,CHILAKALURIPET,"D.NO:31-155, K.B ROAD,  CHILAKALURIPET",0,CHILAKALURIPET,GUNTUR,"ANDHRA PRADESH"
"KARUR VYSYA BANK",KVBL0004830,NA,"VISAKHAPATNAM - CPC","D.NO.30-10-1, FIRST FLOOR,PIDAPARTHI VARI STREET,DABA GARDENS,VISAKHAPATNAM,ANDHRA PRADESH",0,VISAKHAPATNAM,VISAKHAPATNAM,"ANDHRA PRADESH"
"KARUR VYSYA BANK",KVBL0004829,NA,"RAJAHMUNDRY - TILAK ROAD","NO: 79-7-16/1  SYAMALA NAGAR RAJAHMUNDRYANDHRA PRADESH",0,RAJAHMUNDRY,"EAST GODAVARI","ANDHRA PRADESH"
"KARUR VYSYA BANK",KVBL0004828,NA,"HYDERABAD - RLPC","5-8-363 TO 365 (FIRST FLOOR) CHIRAG ALI LANE ABIDS HYDERABAD ANDHRA PRADESH",0,HYDERABAD,HYDERABAD,"ANDHRA PRADESH"
"KARUR VYSYA BANK",KVBL0004827,NA,"WARANGAL - KAZIPET","GROUND FLOOR,VISHNUPURI ANDHRA PRADESH",0,KAZIPET,WARANGAL,"ANDHRA PRADESH"
"KARUR VYSYA BANK",KVBL0004826,NA,"VIZAG - GOPALAPATNAM","T SREE RAMA MURTHY AND VARALAXMI MAIN ROAD, 10-149,10-150 GOPALAPATNAM VISAKHAPATNAM ANDHRA PRADESH",0,GOPALAPATNAM,VISHAKHAPATNAM,"ANDHRA PRADESH"
"KARUR VYSYA BANK",KVBL0004825,NA,"HYDERABAD - L.B.NAGAR","MADHURA ARCADE,MANSOORBAD LB NAGAR RING ROAD,LB NAGAR HYDERABAD",0,L.B.NAGAR,RANGAREDDY,"ANDHRA PRADESH"
"KARUR VYSYA BANK",KVBL0004824,NA,CHINTALAPUDI,"D. NO: 169-2, MAIN ROAD  PONNUR(M), GUNTUR DISTRICTCHINTALAPUDI",0,CHINTALAPUDI,"WEST GODAVARI","ANDHRA PRADESH"
"KARUR VYSYA BANK",KVBL0004823,NA,VALLURU,"OPPOSITE WATER TANK NEAR VALLURAMMA TEMPLE SITE VALLURU VILLAGE,NEAR ONGOLE PRAKASAM DISTRICT ANDHRA PRADESH",0,ONGOLE,PRAKASAM,"ANDHRA PRADESH"
"KARUR VYSYA BANK",KVBL0004822,NA,SAMALKOT,"D NO: 11-2-2,MAIN ROAD OPP: HEAD POST OFFICE PEDDAPURAM ROAD SAMALKOT ANDHRA PRADESH",0,SAMALKOT,"EAST GODAVARI","ANDHRA PRADESH"
"KARUR VYSYA BANK",KVBL0004821,NA,NARASANNAPETA,"D.NO 21-268,S.NO 215/1 G.T.ROAD SRIKAKULAM DIST NARASANNAPETA ANDHRA PRADESH",0,SRIKAKULAM,KRISHNA,"ANDHRA PRADESH"
"KARUR VYSYA BANK",KVBL0004820,NA,MARKAPUR,"DNO:6/7,8,9, NAIDU STREET PRAKASAM DT",0,MARKAPUR,PRAKASAM,"ANDHRA PRADESH"
"KARUR VYSYA BANK",KVBL0004819,NA,NALGONDA,"6-2-659 AND 6-2-660,GROUND FLOOR, BLOCK NO2,JAGINI ARCADE, HYDERABAD ROAD",0,NALGONDA,NALGONDA,"ANDHRA PRADESH"
"KARUR VYSYA BANK",KVBL0004818,NA,RAJAMPET,"6-127/B(1),R.S ROAD, KADAPA DIST",0,RAJAMPET,ADILABAD,"ANDHRA PRADESH"
"KARUR VYSYA BANK",KVBL0004817,NA,ICHCHAPURAM,"DNO:12-8-38  RADHAM VEEDHIICHAPURAM MUNICIPALITY  SRIKAKULAM DISTRICTICHCHAPURAM",0,ICHAPURAM,SRIKAKULAM,"ANDHRA PRADESH"
"KARUR VYSYA BANK",KVBL0004816,NA,YELAMANCHILI,"DNO.16-271MAIN ROAD  YELLAMANCHILI",0,YELAMANCHILLI,"WEST GODAVARI","ANDHRA PRADESH"
"KARUR VYSYA BANK",KVBL0004815,NA,DWARKANAGAR,"A.G AVENUE,SHOP NO 1GROUND FLOOR  OPP AXIS BANK  DWARKANAGAR",0,VISAKHAPATNAM,VISHAKHAPATNAM,"ANDHRA PRADESH"
"KARUR VYSYA BANK",KVBL0004814,NA,MAHABUBNAGAR,"PLOT NO.1 AND 2,SURVEY NO.280, OPP:IOC PETROL BUNK, SRINIVASA NAGAR COLONY,YENUGONDA",0,MAHBUBNAGAR,MAHBUBNAGAR,"ANDHRA PRADESH"
"KARUR VYSYA BANK",KVBL0004813,NA,MURAKAMBATTU,"CHITTOOR - TIRUPATHI HIGHWAY ROAD MURAKAMBATTU CHITTOOR DISTRICT MURAKAMBATTU ANDHRA PRADESH",0,CHITTOOR,CHITTOOR,"ANDHRA PRADESH"
"KARUR VYSYA BANK",KVBL0004812,NA,KAMAREDDY,"H.NO.5-6-126,OLD N.H 7 ROAD, NIZAMABAD DISTRICT",0,KAMAREDDY,NIZAMABAD,"ANDHRA PRADESH"
"KARUR VYSYA BANK",KVBL0004811,NA,PALWANCHA,"DNO:19-1-69,HARIDAMA STREET, NEW PALWANCHA, KHAMMAM DISTRICT",0,PALWANCHA,NIZAMABAD,"ANDHRA PRADESH"
"KARUR VYSYA BANK",KVBL0004810,NA,KOTHAGUDEM,"HNO:6-12-43,44 GV BUILDING,GANESH BASTHI KHAMMAM DT KOTHAGUDEM",0,KOTHAGUDEM,KHAMMAM,"ANDHRA PRADESH"
"KARUR VYSYA BANK",KVBL0004809,NA,MANCHERIAL,"SY.NO.414,H.NO.4-101 TO 103, J.B NAGAR NEAR BELLAMPALLY X ROAD, ADILABAD DISTRICT",0,MANCHERIYAL,ADILABAD,"ANDHRA PRADESH"
"KARUR VYSYA BANK",KVBL0004808,NA,JAGTIAL,"H.NO.1-6-149,YAWAR ROAD, OPP: SRINIVASA THEATRE, KARIMNAGAR DIST",0,JAGTIAL,KARIMNAGAR,"ANDHRA PRADESH"
"KARUR VYSYA BANK",KVBL0004807,500053029,"HYDERABAD - BANJARA HILLS","8-2-686/B/10, PLOT NO-542,ROAD NO. 12, BANJARA HILLS",0,HYDERABAD,HYDERABAD,"ANDHRA PRADESH"
"KARUR VYSYA BANK",KVBL0004806,NA,NUZVID,"DNO:13-387(NEAR DOOR NO)  NEAR VENKATESWARASWAMY TEMPLE  POTTI SRIRAMULU BOMMA CENTRE  NUZVID",0,NUZVID,KRISHNA,"ANDHRA PRADESH"
"KARUR VYSYA BANK",KVBL0004805,NA,NARASAPUR,"KOTIPALLIVARI STREET,NARASAPUR - 534 275.",0,NARASAPURAM,CUDDAPAH,"ANDHRA PRADESH"
"KARUR VYSYA BANK",KVBL0004804,NA,PENDURTHI,"DR.NO.6-28,6-29,CHINAMUSHIDIVADA VILLAGE,PENDURTHI MAIN ROAD,VISAKHAPATNAM - 531173",0,PENDURTI,VISHAKHAPATNAM,"ANDHRA PRADESH"
"KARUR VYSYA BANK",KVBL0004803,NA,GAJAPATHINAGARAM,"D.NO.5/843,GROUND FLOOR, MENTADA ROAD, GAJAPATHINAGARAM - 535270",0,GAJAPATHINAGARAM,VIZIANAGARAM,"ANDHRA PRADESH"
"KARUR VYSYA BANK",KVBL0004802,NA,TANUKU,"20-10-12,13 AND 14,ACHANTAVARI STREET, TANUKU - 534211",0,TANUKU,"WEST GODAVARI","ANDHRA PRADESH"
"KARUR VYSYA BANK",KVBL0004801,NA,"HYDERABAD - KONDAPUR","P.NO.4(P),5,6 OF KOTHAGUDA,KONDAPUR,HYDERABAD-500084",0,HYDERABAD,HYDERABAD,"ANDHRA PRADESH"
"KARUR VYSYA BANK",KVBL0004702,NA,JAMSHEDPUR,"H.NO:479,KASIDIH AREA,P.S.SAKCHI EAST SINGHBHUM DIST JAMSHEDPUR JHARKHAND",0,JAMSHEDPUR,"PURBI SINGHBHUM",JHARKHAND
"KARUR VYSYA BANK",KVBL0004701,NA,RANCHI,"GURUDWARA BUILDING,FIRST FLOOR,MAIN ROAD,,RANCHI,RANCHI,JHARKHAND,834001",0,RANCHI,RANCHI,JHARKHAND
"KARUR VYSYA BANK",KVBL0004601,492053002,RAIPUR,"EPI CENTRE NEAR YASHWANT HOSPITAL, G E ROAD TATYA PARA, RAIPUR , RAIPUR-492001",0,RAIPUR,JALANDHAR,PUNJAB
"KARUR VYSYA BANK",KVBL0004503,NA,BHIWADI,"A-100-103 AND 118-121 INDUSTRIAL AREA RIICO CHOWK BHIWADI ALWAR RAJASTHAN 301019",22665914,BHIWADI,ALWAR,RAJASTHAN
"KARUR VYSYA BANK",KVBL0004502,NA,BHILWARA,"SHREEJI TOWER,SHOP NO 1,2,3 GROUND FLOOR,PUR ROAD,OPPO YES BANK,GANDHI NAGAR",0,BHILWARA,BHILWARA,RAJASTHAN
"KARUR VYSYA BANK",KVBL0004501,302053002,JAIPUR,"P-5/2 DURGA BUSINESS CENTER, M I ROAD OPP GANGAUR HOTEL, NEAR PIN CITY PETROL PUMP, JAIPUR-302001",0,JAIPUR,JAIPUR,RAJASTHAN
"KARUR VYSYA BANK",KVBL0004406,NA,GHAZIABAD,"PLOT NOS:9,10,23 AND 24  ADVOCATE CHAMBERS,RDC,RAJ NAGAR  GHAZIABAD",0,GHAZIABAD,GHAZIABAD,"UTTAR PRADESH"
"KARUR VYSYA BANK",KVBL0004405,NA,VARANASI,"H.NO: D.35/223 ANDD.40/56, JANGAMBARI,VARANASI, UTTAR PRADESH - 201 001",0,VARANASI,VARANASI,"UTTAR PRADESH"
"KARUR VYSYA BANK",KVBL0004404,NA,KANPUR,"GANGA TOWER,H.NO:18/179,MALL ROAD, KANPUR",0,KANPUR,CUTTACK,ODISHA
"KARUR VYSYA BANK",KVBL0004403,250053002,MEERUT,"G-4 KUMAR PLAZA,OPP. GOVT. INTER COLLEGE BEGUM BRIDGE ROAD, MEERUT-250002",0,MEERUT,MEERUT,"UTTAR PRADESH"
"KARUR VYSYA BANK",KVBL0004402,226053002,LUCKNOW,"SECTOR NO 4/46 , VIVEK KHAND, GOMATHI NAGAR , LUCKNOW , 226 010 -PH 0522 -- 2300110 ,2300111",0,LUCKNOW,LUCKNOW,"UTTAR PRADESH"
"KARUR VYSYA BANK",KVBL0004401,110053008,NOIDA,"A - 354, SECTOR 19, NEAR ATTA CHOWK, NOIDA - 201301",0,NOIDA,"GAUTAM BODDA NAGAR","UTTAR PRADESH"
"KARUR VYSYA BANK",KVBL0004307,NA,PHAGWARA,"780,HARGOBIND NAGAR PHAGWARA  DISTRICT - KAPURTHALA  PUNJAB",0,PHAGWARA,KAPURTHALA,PUNJAB
"KARUR VYSYA BANK",KVBL0004306,NA,HARDASPUR,"BLOCK NO:4L-A LOVELY PROFESSIONAL UNIVERSITY  HARDASPUR(GRAMPANCHAYAT)",0,HARDASPUR,BAREILLY,"UTTAR PRADESH"
"KARUR VYSYA BANK",KVBL0004305,NA,"MANDI GOBINDGARH","PLOT BEARING NO: 270 BLOCK B,NEAR MAIN CHOWK, G T ROAD,MANDI GOBINDGARH,PATIALA DISTRICT,PUNJAB,PINCODE 147301",0,"GOBIND GARH","FATEHGARH SAHIB",PUNJAB
"KARUR VYSYA BANK",KVBL0004304,147053002,PATIALA,"SHOP NO. 8-9, LEELA BHAWAN MARKET, NEAR GOPAL SWEETS, PATIALA-147001",0,PATIALA,PATIALA,PUNJAB
"KARUR VYSYA BANK",KVBL0004303,144053002,JALANDHAR,"MIDAS CORPORATE PARK, GROUND FLOOR, NO. 37 G.T.ROAD, JALANDHAR-144 001",0,JALANDHAR,JALANDHAR,PUNJAB
"KARUR VYSYA BANK",KVBL0004302,143053002,AMRITSAR,"CITY MALL, NO.4, LAWRENCE ROAD, AMRITSAR - 143001",0,AMRITSAR,AMRITSAR,PUNJAB
"KARUR VYSYA BANK",KVBL0004301,141053002,LUDHIANA,"BRAR COMPLED, N0.830/2, BLOCK- 18, MAIN DUGRI ROAD, MODEL TOWN, LUDHIANA - 141 002, PUNJAB.",0,LUDHIANA,LUDHIANA,PUNJAB
"KARUR VYSYA BANK",KVBL0004205,132053102,KARNAL,"181-182, OLD G.T. ROAD,NEAR CLOCK TOWER, KARNAL HARYANA.",0,KARNAL,KARNAL,HARYANA
"KARUR VYSYA BANK",KVBL0004204,110053010,FARIDABAD,"1-E/20, B.P. NIT, 1-2 CHOWK, NIT FARIDABAD-121 001",0,FARIDABAD,FARIDABAD,HARYANA
"KARUR VYSYA BANK",KVBL0004203,132053002,PANIPAT,"NO 932 - 935 WARD NO 8 CITY CENTRE G T KARNAL  MAIN ROAD  OPP IB COLLEGE PANIPET  132103",0,PANIPAT,PANIPAT,HARYANA
"KARUR VYSYA BANK",KVBL0004202,160053002,CHANDIGARH,"SCO NO:52 & 53, KRIBHCO BHAWAN, SECTOR 34 A, CHANDIGARH - 160 022 (HARYANA)",0,CHANDIGARH,CHANDIGARH,CHANDIGARH
"KARUR VYSYA BANK",KVBL0004201,110053004,GURGAON,"P.B.NO.35 PAYAL CINEMA COMPLEX,SECTOR- 14,GURGAN-122001",0,GURGAON,GURGAON,HARYANA
"KARUR VYSYA BANK",KVBL0004118,NA,"NEW DELHI - OKHLA","C-159 OKHLA PHASE - I NEW DELHI 110020",22665914,OKHLA,"NEW DELHI",DELHI
"KARUR VYSYA BANK",KVBL0004117,NA,"NEW DELHI - PASCHIM VIHAR","A-18 MEERA BAGH PACHIM VIHAR NEW DELHI 110087",22665914,"NEW DELHI","NEW DELHI",DELHI
"KARUR VYSYA BANK",KVBL0004116,NA,"DELHI - RLPC","822 PRITHVINATH MARG, EAST PARK ROAD, KAROLBAGH, DELHI",0,DELHI,DELHI,DELHI
"KARUR VYSYA BANK",KVBL0004115,NA,"DELHI - KAMLANAGAR","10D,KAMLA NAGAR  DELHI",0,DELHI,DELHI,DELHI
"KARUR VYSYA BANK",KVBL0004114,NA,"DELHI - JANAKPURI","B-1/513,JANAKPURINEW DELHI",0,DELHI,DELHI,DELHI
"KARUR VYSYA BANK",KVBL0004113,NA,"DELHI - LAXMINAGAR","U-38A,SHAKARPUR DELHI",0,DELHI,DELHI,DELHI
"KARUR VYSYA BANK",KVBL0004112,NA,"DELHI ┬û PITAMPURA","OPP. METRO PILLAR NO 347,15, VAISHALI,PITAMPURA,NEW DELHI 110034",0,DELHI,DELHI,DELHI
"KARUR VYSYA BANK",KVBL0004111,110053012,"DELHI-CONNAUGHT CIRCUS","H-17, GOBIND MANSION,CONNAUGHT CIRCLE,,NEW DELHI,NEW DELHI,DELHI,110001",0,DELHI,DELHI,DELHI
"KARUR VYSYA BANK",KVBL0004109,110053011,"DELHI- CHANDNI CHOWK","D.NO.241-242, FATHEPURI, CHANDNI CHOWK, DELHI-110 006",0,DELHI,DELHI,DELHI
"KARUR VYSYA BANK",KVBL0004108,110053009,"DELHI RAMESH NAGAR","B-97 SHARADAPURI RADHEY SHYAM MANDIR CHOWK, RAMESH NAGAR, NEW DELHI, NEW DELHI-1100015",0,DELHI,"NEW DELHI",DELHI
"KARUR VYSYA BANK",KVBL0004107,110053000,"DELHI DO","59/31 1ST FLOOR, POONAM PLAZA NEW ROHTAK ROAD, NEAR LIBERTY CINEMA KAROLBAGH, NEW DELHI-110005",0,DELHI,DELHI,DELHI
"KARUR VYSYA BANK",KVBL0004106,110053001,"DELHI CCO","THE KARUR VYSYA BANK LTD, NEW DELHI CCO,POONAM CHAMBERS,2645 BANK STREET KAROL BAGH,NEW DELHI-110005",0,DELHI,"NEW DELHI",DELHI
"KARUR VYSYA BANK",KVBL0004105,110053007,"NEW DELHI GREATER KAILASH","3, SANT NAGAR,EAST OF KAILASH,NEW DELHI-110065",0,DELHI,"NEW DELHI",DELHI
"KARUR VYSYA BANK",KVBL0004104,110053006,"NEW DELHI ROHINI","C-3/10 PRASHANTH VIHAR,NIRULAS LANE SECTOR-14 ROHINI,NEW DELHI-110085",0,DELHI,"NEW DELHI",DELHI
"KARUR VYSYA BANK",KVBL0004103,110053005,"NEW DELHI KASHMERE GATE","3538  NICHOLSON ROAD,MORI GATE,KASHMEREGATE-0",0,DELHI,"NEW DELHI",DELHI
"KARUR VYSYA BANK",KVBL0004102,110053003,"NEW DELHI LAWRENCE ROAD","B-3,TYAGI PUBLIC SCHOOL COMPLEX,LAWRENCE ROAD-110035",0,DELHI,"NEW DELHI",DELHI
"KARUR VYSYA BANK",KVBL0004101,110053002,KAROLBAGH,"NO.- 882, MASTER PRITHVINATH MARG (EAST PARK ROAD), KAROLBAGH, NEW DELHI-110005",0,"NEW DELHI","NEW DELHI",DELHI
"KARUR VYSYA BANK",KVBL0003205,NA,ROURKELA,"GROUND FLOOR,ANANDI NIWAS BUILDING ROURKELA  ORISSA",0,RAURKELA,SUNDARGARH,ODISHA
"KARUR VYSYA BANK",KVBL0003204,NA,ASKA,"WARD NO -12,GANJAM DIST,ASIKA,ASIKA,ORISSA,761110",0,ASKA,GANJAM,ODISHA
"KARUR VYSYA BANK",KVBL0003203,753053002,CUTTACK,"MAYUR COMPLEX,GROUND FLOOR,PLOT NO.1250,BAJRAKABATI ROAD,RANIHAT,CUTTACK  - 753001",0,CUTTACK,CUTTAK,ODISHA
"KARUR VYSYA BANK",KVBL0003202,760053002,BERHAMPUR,"D NO 1920/13 CITY HIGH SCHOOL ROAD ,BERHAMPUR",0,BERHAMPUR,BALASORE,ODISHA
"KARUR VYSYA BANK",KVBL0003201,751053002,BHUBANESHWAR,"168 B PRASANTI SISUBHAWAN CHOWK , BAPUJI NAGAR, BHUBANESWAR, BHUBANESWAR-751 009",0,BHUBANESWAR,KHURDA,ODISHA
"KARUR VYSYA BANK",KVBL0003117,NA,UTTARPARA,"ESHITA APARTMENT 258 2 JOY KISSEN STREET PO AND P S UTTARPARA HOOGHLY",22665914,UTTARPARA,HOOGHLY,"WEST BENGAL"
"KARUR VYSYA BANK",KVBL0003116,NA,"KOLKATA - BANGUR AVENUE","BROJYOTI APARTMENT , 29/294, BANGUR AVENUE, GROUND FLOOE, BLOCK- B,KOLKATA - 700055",22665914,KOLKATA,KOLKATA,"WEST BENGAL"
"KARUR VYSYA BANK",KVBL0003115,NA,DURGAPUR,"188/181,NACHAN ROADBENACHITY  DISTT - BURDWAN DURGAPUR",0,DURGAPUR,BARDDHAMAN,"WEST BENGAL"
"KARUR VYSYA BANK",KVBL0003114,NA,"KOLKATA - N.S.ROAD","14,N.S.ROAD KOLKATA",0,KOLKATA,KOLKATA,"WEST BENGAL"
"KARUR VYSYA BANK",KVBL0003113,NA,"KOLKATA DIVISIONAL OFFICE","DIVISIONAL OFFICE KOLKATA DO",0,KOLKATA,KOLKATA,"WEST BENGAL"
"KARUR VYSYA BANK",KVBL0003112,NA,GHOSHPARA,"SUPERMARKET, GHOSHPARA, HOWRAH - 711227",0,GHOSHPARA,HAORA,"WEST BENGAL"
"KARUR VYSYA BANK",KVBL0003111,NA,BAGNAN,"BAGNAN,OT ROAD NEAR (BAGNAN PS),KHADINAN BAGNAN,HOWRAH, 711303",0,BAGNAN,HAORA,"WEST BENGAL"
"KARUR VYSYA BANK",KVBL0003110,NA,DAKSHINESHWAR,"DAKSHINESHWA,9 AC SARKAR ROAD,DAKSHINESHWAR,700076",0,DAKSHINESHWAR,"NORTH 24 PARGANAS","WEST BENGAL"
"KARUR VYSYA BANK",KVBL0003109,NA,BARUIPUR,"MENOKA BHAWAN, 33 KULPI ROAD, PADMAPUKUR, 24 SOUTH PARAGANAS, BARUIPUR - 700144.",0,BARUIPUR,"SOUTH 24 PARGANAS","WEST BENGAL"
"KARUR VYSYA BANK",KVBL0003108,NA,JOKA,"JOKA & JEMS LINE CROSSING,J L NO.21, POST THAKUR PUKUR,JOKA,KOLKATTA",0,JOKA,"SOUTH 24 PARGANAS","WEST BENGAL"
"KARUR VYSYA BANK",KVBL0003107,NA,KHARAGPUR,"418/1, MALANCHA ROAD,KHARAGPUR -721 304,WEST BENGAL",0,KHARAGPUR,MEDINIPUR,"WEST BENGAL"
"KARUR VYSYA BANK",KVBL0003106,NA,"KOLKATTA SALT LAKE","PLOT NO: 47,  BLOCK A A SECTOR : 1 SALT LAKE CITY KOLKATTA - 700 064",0,KOLKATA,KOLKATA,"WEST BENGAL"
"KARUR VYSYA BANK",KVBL0003105,NA,JAGACHA,"ASHIRBAD  DHARSA VIVEK VILL GIP COLONY JAGACHA HOWRAH  - 711 112",0,JAGACHA,HAORA,"WEST BENGAL"
"KARUR VYSYA BANK",KVBL0003104,NA,GARIA,"III - B, RAJA S C MULLICK ROAD GARIA KOLKATTA - 700 047",0,GARIA,"SOUTH 24 PARGANAS","WEST BENGAL"
"KARUR VYSYA BANK",KVBL0003103,700053004,"KOLKATTA BALIGUNJ","NO 13 BONDEL ROAD , KOLKATTA 700019",0,KOLKATA,KOLKATA,"WEST BENGAL"
"KARUR VYSYA BANK",KVBL0003102,700053003,"KOLKATA SHAKESPEARE SARANI","NO 20 SHAKESPEARE SERRANI,PARK STREET,KOLKATA-700005",0,KOLKATA,KOLKATA,"WEST BENGAL"
"KARUR VYSYA BANK",KVBL0003101,700053002,"KOLKATA BURRA BAZAAR","9 RAM SEVAK MULLICK LANE,(OFF) 43  STRAND ROAD,KOLKATA-700007",0,KOLKATA,KOLKATA,"WEST BENGAL"
"KARUR VYSYA BANK",KVBL0002401,403053002,PANAJI,"A G1 AND G2  CAMPEL TRADE CENTRE,B B BREGENZA ROAD ,NEXT TO MILITARY HOSPITAL,PANAJI,GOA ┬û 403 601",0,PANAJI,"NORTH GOA",GOA
"KARUR VYSYA BANK",KVBL0002304,NA,JABALPUR,"PLOT NO 399/1-2-3 AND 400/1-2 OLD YOGI HOTEL,MARTHAL NAPIER TOWN NAUDRA BRIDGE TO JYANTI TALKIES RD JABALPUR MADHYA PRADESH 482001",22654260,JABALPUR,JABALPUR,"MADHYA PRADESH"
"KARUR VYSYA BANK",KVBL0002303,474053002,GWALIOR,"NEAR SURABHI HOTEL, NAYA BAZAR, LASHKAR, GWALIOR, MADHYA PRADESH",0,GWALIOR,GWALIOR,"MADHYA PRADESH"
"KARUR VYSYA BANK",KVBL0002302,462053002,BHOPAL,"12-B, ZONE II, M.P. NAGAR, BHOPAL- 462011, MADHYA PRADESH",0,BHOPAL,BHOPAL,"MADHYA PRADESH"
"KARUR VYSYA BANK",KVBL0002301,452053002,INDORE,"2-B RAJGARH KOTHI,A.B.ROAD,INDORE-452001",0,INDORE,INDORE,"MADHYA PRADESH"
"KARUR VYSYA BANK",KVBL0002219,NA,"AHMEDABAD - CPC","FIRST FLOOR MOTILAL CENTRE,NEAR SALES INDIA SHOW ROOM,ASHRAM ROAD,AHMEDABAD,GUJARAT",0,AHMEDABAD,AHMEDABAD,GUJARAT
"KARUR VYSYA BANK",KVBL0002218,NA,"AHMEDABAD - RLPC","FIRST FLOOR,MOTILAL CENTRE, NEAR INCOME TAX CROSSING, ASHRAM ROAD, AHMEDABAD",0,AHMEDABAD,AHMADABAD,GUJARAT
"KARUR VYSYA BANK",KVBL0002217,NA,MAHESANA,"RAJKAMAL CITY MALL, RAJKAMAL COMPOUND MAHESANA HIGHWAY MAHESANA",0,MAHESANA,MAHESANA,GUJARAT
"KARUR VYSYA BANK",KVBL0002216,NA,"AHMEDABAD DIVISIONAL OFFICE","DIVISIONAL OFFICE AHMEDABAD DO",0,AHMEDABAD,AHMEDABAD,GUJARAT
"KARUR VYSYA BANK",KVBL0002215,NA,"SURAT - UM ROAD","X 1-2 K.N PARK SOCIETY,OPP. SUTEX CO. OP BANK LTD,UDHNA MAGDALLA MAIN ROAD,SURAT - 395017",0,SURAT,SURAT,GUJARAT
"KARUR VYSYA BANK",KVBL0002214,NA,BHARUCH,"PLOT 12 & 13,GROUND FLOOR,LABHESHWAR COMPLEX,NEAR CHAMUNDA TEMPLE,JHADESHWAR ROAD, BHARUCH - 392002.",0,BHARUCH,BHARUCH,GUJARAT
"KARUR VYSYA BANK",KVBL0002213,NA,BHUJ,"SIDDHACHAL,DOOR NO:186, VIJAYNAGAR,OPP: SBI_NRI BRANCH,HOSPITAL ROAD,BHUJ- 370 001",0,BHUJ,KACHCHH,GUJARAT
"KARUR VYSYA BANK",KVBL0002212,NA,"AHMEDABAD - NARODA","HIMALAYA SQUARE,NEAR GALAXY CINEMA, NO.8, FINAL PLOT 33, NEAR MAIN BUS STAND & NARODA LAKE, NARODA, AHMEDABAD ┬û 382330",0,AHMEDABAD,AHMEDABAD,GUJARAT
"KARUR VYSYA BANK",KVBL0002211,380053005,SANAND,"NO: 6 SARVODAYA CO-OPERATVIE HOUSING SOCIETY, SARKHEJ SANAND HIGHWAY",0,SANAND,AHMADABAD,GUJARAT
"KARUR VYSYA BANK",KVBL0002210,338053002,ANAND,"ROYAL CITADEL 5,KEVAL BUNGALOWS SOCIETY, ANANAD-VALLABH VIDYANAGAR ROAD ANAND-338001",0,ANAND,ANAND,GUJARAT
"KARUR VYSYA BANK",KVBL0002209,370053001,GANDHIDHAM,"PLOT NO.300 WARD 12-B, AMBIKA ARCADE, OPP C G HIGH SCHOOL, GANDHIDHAM-370201",0,GANDHIDHAM,KACHCHH,GUJARAT
"KARUR VYSYA BANK",KVBL0002208,380053004,"AHMEDABAD SATELLITE TOWN","SHILP COMPLEX,OPP. RATNAMANI TOWER SATELLITE ROAD,AHMEDABAD-0",0,AHMEDABAD,AHMEDABAD,GUJARAT
"KARUR VYSYA BANK",KVBL0002207,380053003,"AHMEDABAD EC","GUJARAT LAW SOCIETY COMPOUND, ELLIS BRIDGE, AHMEDABAD - 380 006.",0,AHMEDABAD,AHMEDABAD,GUJARAT
"KARUR VYSYA BANK",KVBL0002205,384053002,UNJHA,"P.B.NO 147 PATEL BUILDING,STATION ROAD,UNJHA-384170",0,UNJHA,PATAN,GUJARAT
"KARUR VYSYA BANK",KVBL0002204,390053002,VADODARA,"P.B.NO 3725  13  SIDCUP TOWER,RACE COURCE CIRCLE,VADADARA-390007",0,VADODARA,VADODARA,GUJARAT
"KARUR VYSYA BANK",KVBL0002203,360053002,"RAJKOT MAIN","P.B.NO 342 R.G.C.COMPLEX,TRIKON BAUG,RAJKOT-360001",0,RAJKOT,RAJKOT,GUJARAT
"KARUR VYSYA BANK",KVBL0002202,395053002,SURAT,"P.B.NO. 208 NO. 103- 114 SILVER PLAZA COMPLEX,BELGIUM SQUARE RING ROAD,SURAT-39",0,SURAT,SURAT,GUJARAT
"KARUR VYSYA BANK",KVBL0002201,380053002,AHMEDABAD,"PLOT 503 504 1 SAKAR VII,  B  BLOCK NEHRU BRIDGE CORNER, ASHRAM ROAD, AHMEDABAD 380009",0,AHMEDABAD,AHMEDABAD,GUJARAT
"KARUR VYSYA BANK",KVBL0002131,NA,DOMBIVALI,"SHOP NO 4 AND 5,KETKAR RESIDENCY,TILAK ROAD,OFF PHADKE ROAD,DOMBIVALI,THANE MAHARASHTRA 421021",22654260,THANE,THANE,MAHARASHTRA
"KARUR VYSYA BANK",KVBL0002130,NA,"MUMBAI - RLPC","276/286 KILACHAND MANSION, KALBADEVI MAIN ROAD, KALBADEVI, MUMBAI",0,MUMBAI,"GREATER BOMBAY",MAHARASHTRA
"KARUR VYSYA BANK",KVBL0002129,NA,AMRAVATI,"AMAR ARCADE PHASE III,GROUND FLOOR OPP.RAJPETH POLICE STATION  NEAR VANDU INTERNATIONAL HOTEL  AMRAVATI",0,AMRAVATI,AMRAVATI,MAHARASHTRA
"KARUR VYSYA BANK",KVBL0002127,NA,NANDED,"BALAJI TOWER,PLOT NO.1,GROUND FLOOR WARDNO.1,BLOCK NO.1-17,VISAVA NAGAR VIP ROAD NANDED",0,NANDED,JALGAON,MAHARASHTRA
"KARUR VYSYA BANK",KVBL0002126,NA,"MUMBAI - MATUNGA","TEJ-GAURAV HOUSE PLOT NO 109 TELANG ROAD MATUNGA MUMBAI MAHARASHTRA",0,MUMBAI,"GREATER BOMBAY",MAHARASHTRA
"KARUR VYSYA BANK",KVBL0002125,NA,"MUMBAI - GHATKOPAR","UNIVERSAL SCHOOL GHATKOPARPLOT NO.17,TPS -5960B TILAK ROADNEAR VIKRANT CIRCLE GHATKOPAR EAST MUMBAI",0,MUMBAI,"GREATER BOMBAY",MAHARASHTRA
"KARUR VYSYA BANK",KVBL0002124,NA,BHIWANDI,"DURGA KRUPA GROUND FLOOR , 223 TELIPADA AGRA ROAD, DHAMANKAR NAKA",0,BHIWANDI,THANE,MAHARASHTRA
"KARUR VYSYA BANK",KVBL0002123,NA,"MUMBAI - BANDRA","BANDRA,GROUND FLOOR,NEW COMMONWEALTH,COOP.SOCIETY,229,LINKING ROADOPP.SHOPPER STOP,400050",0,MUMBAI,"GREATER BOMBAY",MAHARASHTRA
"KARUR VYSYA BANK",KVBL0002122,411053003,"PUNE CAMP-AREA","SHOP NO.1 AND 2, GULMOHAR APARTMENTS, EAST STREET CAMP, PUNE-411001",0,PUNE,PUNE,MAHARASHTRA
"KARUR VYSYA BANK",KVBL0002120,416053002,KOLHAPUR,"1759 E KHUSHI SANKUL, GROUND FLOOR, RAJARAMPURI 4TH LANE, KOLHAPUR-416 008",0,KOLHAPUR,KOLHAPUR,MAHARASHTRA
"KARUR VYSYA BANK",KVBL0002119,400053012,"MUMBAI - KALBADEVI","276/286 KILACHAND MANSION, KALBADEVI MAIN ROAD, KALBADEVI. MUMBAI, MUMBAI-400002",0,MUMBAI,"GREATER MUMBAI",MAHARASHTRA
"KARUR VYSYA BANK",KVBL0002118,416053002,ICHALKARNJI,"BHAVANI TOWER,'D.NO:427, GROUND FLOOR, SHAHU CORNER,",0,ICHALKARNJI,KOLHAPUR,MAHARASHTRA
"KARUR VYSYA BANK",KVBL0002117,413053002,SOLAPUR,"95/1 RAILWAY LINES, OPP ST JOSEPH SCHOOL, SOLAPUR-413001",0,SOLAPUR,SOLAPUR,MAHARASHTRA
"KARUR VYSYA BANK",KVBL0002116,431053002,AURANGABAD,"FLAT NO.1 & 2 DEEPA APARTMENT, NEXT TO SPENCER'S DAILY SAVARKAR CHOWK, SAMARTH NAGAR, AURANGABAD-431001",0,AURANGABAD,AURANGABAD,MAHARASHTRA
"KARUR VYSYA BANK",KVBL0002115,400053011,"ANDHERI EAST","UNIT NO. 1 AND 2 , EVEREST GRANDE , MAHAKALI CAVES ROAD ANDHERI EAST MUMBAI 400093",0,MUMBAI,"GREATER MUMBAI",MAHARASHTRA
"KARUR VYSYA BANK",KVBL0002114,440053002,NAGPUR,"740 DALMIA SADAN , SEVA SADAN SQUARE, CENTRAL AVENUE, NAGPUR-440018",0,NAGPUR,NAGPUR,MAHARASHTRA
"KARUR VYSYA BANK",KVBL0002113,414053002,"AHMED NAGAR","CTS NO.2178 & 2179 MANAS SAROVAR, KARSHETHJI ROAD, RAMCHANDRA KHUNT, AHMEDNAGAR -414001",0,AHMADNAGAR,AHMEDNAGAR,MAHARASHTRA
"KARUR VYSYA BANK",KVBL0002112,400053009,"MUMBAI CHEMBUR","KASHI NIKETANNO 83, N.G.ACHARYA MARG, NEAR RAILWAY STATION CHEMBUR (EAST), MUMBAI-400 071",0,MUMBAI,"GREATER MUMBAI",MAHARASHTRA
"KARUR VYSYA BANK",KVBL0002111,400053010,"MUMBAI MULAND","SHOP NO 6 & 11 NEW HAPPY LIFE CO-OP HSG SOCIETY LTD, R H B ROAD, MULUND WEST, MUMBAI-400080",0,MUMBAI,"GREATER MUMBAI",MAHARASHTRA
"KARUR VYSYA BANK",KVBL0002110,422053002,NASIK,"3,VISHWANATH SANKUL, OPP.VIJAN HOSPITALNEAR BIG BAZAR, COLLEGE ROAD, NASIK-422005",0,NASHIK,NASHIK,MAHARASHTRA
"KARUR VYSYA BANK",KVBL0002109,400053008,MUMBAINERUL,"SHOP NOS. 12, 13 & 14, AMBIKA APTS, SECTOR 42-A, SEAWOODS, NERUL(W), NAVI MUMBAI - 400706",0,"NEW MUMBAI",THANE,MAHARASHTRA
"KARUR VYSYA BANK",KVBL0002108,400053007,"MUMBAI THANE","VIHAN VIHAR CO-OPERATIVE HOUSING SOCIETY LTD SHOP NO:123,OPP. GOWTHAM PARK SOCI",0,THANE,THANE,MAHARASHTRA
"KARUR VYSYA BANK",KVBL0002107,400053001,"MUMBAI CCO","THE KARUR VYSYA BANK LTD, MUMBAI CCO,THE KARUR VYSYA BANK LTD  CENTRAL CLEARING OFFICE,KAMANWALA CHAMBERS  SIR PM ROAD  FORT,MUMBAI-400001",0,MUMBAI,"GREATER MUMBAI",MAHARASHTRA
"KARUR VYSYA BANK",KVBL0002106,400053006,"MUMBAI BORIVALI","SUNRISE VIEW  SHOP NO.4 TO 7 EKSAR VILLAGE,NEAR VAZIARA NAKA BUS-STOP BORIVALI",0,MUMBAI,"GREATER MUMBAI",MAHARASHTRA
"KARUR VYSYA BANK",KVBL0002105,400053004,"MUMBAI PRABHADEVI","GAYATHRI TOWERS,954  APPA SAHEB MARATHE MARG PRABHADEVI,MUMBAI-400025",0,MUMBAI,"GREATER MUMBAI",MAHARASHTRA
"KARUR VYSYA BANK",KVBL0002104,400053005,"MUMBAI VASHI EC","ICL HIGH SCHOOL, SECTOR 15/16, VASHI, NAVI MUMBAI, 400705.",0,"NEW MUMBAI",THANE,MAHARASHTRA
"KARUR VYSYA BANK",KVBL0002103,411053002,PUNE,"BAKRE APARTMENTS,BUILDING NO 5 NEAR SIVAJI CHOWK KOTHRUD,PUNE-411038",0,PUNE,PUNE,MAHARASHTRA
"KARUR VYSYA BANK",KVBL0002102,400053003,"VASHI NAVI MUMBAI","E-40 A.P.M.C. MARKET- I,PHASE- II  VASHI,NAVIMUMBAI-400705",0,"NEW MUMBAI",THANE,MAHARASHTRA
"KARUR VYSYA BANK",KVBL0002101,400053002,"MUMBAI FORT","P.B.NO. 1414 KAMANWALA CHAMBERS,SIR. P.M.ROAD  FORT,MUMBAI-400001",0,MUMBAI,"GREATER MUMBAI",MAHARASHTRA
"KARUR VYSYA BANK",KVBL0001838,NA,"OMEGA SCHOOL E C","NO 79 PALLAVARAM ROAD KOLAPAKKAM KANCHEEPURAM DISTRICT CHENNAI TAMIL NADU 600122",22654260,CHENNAI,KANCHEEPURAM,"TAMIL NADU"
"KARUR VYSYA BANK",KVBL0001837,NA,"PERUNDURAI REGULATED MARKET EC","ERODE MARKET COMMITTEE PERUNDURAI TURMERIC COMPLEX KARUMANDISELLIPALAYAM 638052",22654260,ERODE,ERODE,"TAMIL NADU"
"KARUR VYSYA BANK",KVBL0001836,NA,ORICHERI,"S F NO 189 SATHY MAIN ROAD ORICHERI THALAVAIPETTAI POST ERODE DISTRICT TAMIL NADU 638 327",22654260,ERODE,ERODE,"TAMIL NADU"
"KARUR VYSYA BANK",KVBL0001835,NA,"CHENNAI-PERIYAR NAGAR","PLOT NO 154 GROUND FLOOR JAGANATHAN SALAI CHENNAI TAMIL NADU 600082",22654260,CHENNAI,CHENNAI,"TAMIL NADU"
"KARUR VYSYA BANK",KVBL0001834,NA,PONGALUR,"S F NO 126/2A 1B TRICHY MAIN ROAD PONGALUR PALLADAM T K TIRUPUR DISTRICT TAMIL NADU 641667",22654260,TIRUPUR,TIRUPUR,"TAMIL NADU"
"KARUR VYSYA BANK",KVBL0001833,NA,IDAICHIVILAI,"13/71 RATHINAPURI UDANGUDI MAIN ROAD IDAICHIVILAI SANTANKULAM TALUK TUTICORIN 628656",22654260,TUTICORIN,TUTICORIN,"TAMIL NADU"
"KARUR VYSYA BANK",KVBL0001832,NA,MARUNDANDAPALLI,"S.NO 361/3A1C, NH7 ROAD,MARUDANDAPALLI,SHOOLAGIRI TK,KRISHNAGIRI DT TAMIL NADU 635 117",22654260,KRISHNAGIRI,KRISHNAGIRI,"TAMIL NADU"
"KARUR VYSYA BANK",KVBL0001831,NA,VAZHAVALLAN,"6/68-18,MUKKANI ROAD,POONJOLAI STREET,AMMAL THOPPU,VAZHAVALLAN PANCHAYAT TUTICORIN TAMIL NADU 628801",22654260,TUTICORIN,TUTICORIN,"TAMIL NADU"
"KARUR VYSYA BANK",KVBL0001830,NA,"RAMANATHAPURAM-BHARATHI NAGAR","OLD D.NO.1/338, NEAR THANGAM MAHAL BHARATHI NAGAR,MADURAI RAMESWARAM MAIN ROAD,PATTINAMKATHAN VILLAGE RAMANATHAPURAM TAMIL NADU 623503",22654260,RAMANATHAPURAM,RAMANATHAPURAM,"TAMIL NADU"
"KARUR VYSYA BANK",KVBL0001829,NA,"MADURAI BIBIKULAM","69 PT RAJAN MAIN ROAD OPP KENDIRA VIDHYALAYA SCHOOL BIBIKULAM MADURAI TAMIL NADU 625002",22654260,MADURAI,MADURAI,"TAMIL NADU"
"KARUR VYSYA BANK",KVBL0001828,NA,"MADURAI THIRUMANGALAM","485 MADURAI MAIN ROAD THIRUMANGALAM MADURAI TAMIL NADU 625706",22654260,MADURAI,MADURAI,"TAMIL NADU"
"KARUR VYSYA BANK",KVBL0001827,NA,"THANJAVUR RR NAGAR","NO 110/2A1 PUDUKOTTAI ROAD NEAR BUS STAND OPP TO RENAULT CAR SHOW ROOM THANJAVUR TAMIL NADU 613005",22654260,THANJAVUR,THANJAVUR,"TAMIL NADU"
"KARUR VYSYA BANK",KVBL0001826,NA,PULIANTHOPPU,"NO 10 VICTORY NAGAR PULIANTHOPPU VILLAGE MARIYAMAN KOIL PANCHAYAT THANJAVUR TAMIL NADU 613501",22654260,THANJAVUR,THANJAVUR,"TAMIL NADU"
"KARUR VYSYA BANK",KVBL0001825,NA,VENKATESAPURAM,"NO 1/117 VENKATESAPURAM THURAIYUR TRICHY TAMIL NADU 621001",22654260,TRICHY,TRICHY,"TAMIL NADU"
"KARUR VYSYA BANK",KVBL0001824,NA,REDDIYARPALAYAM,"PLOT NO 21/22NH 45A VILLUPURAM ROAD RASATHIAMMAL NAGAR REDDIYARPALAYAM PONDICHERRY 605010",22654260,PONDICHERRY,PONDICHERRY,PUDUCHERRY
"KARUR VYSYA BANK",KVBL0001823,NA,ERAIYUR,"RS NO 171/15,171/16 MAIN ROAD ERAIYUR VILLAGE PENNADAM POST THITTAKUDI CUDDALORE TAMIL NADU 606111",22654260,CUDDALORE,CUDDALORE,"TAMIL NADU"
"KARUR VYSYA BANK",KVBL0001822,NA,NARIYANERI,"D NO 1 116 NEW NO 99 NARIYANERI TIRUPATHUR TALUK VELLORE DISTRICT TAMIL NADU 635901",22654260,NARIYANERI,VELLORE,"TAMIL NADU"
"KARUR VYSYA BANK",KVBL0001821,NA,PERUMUCHI,"NO 273 MAIN ROAD PERUMUCHI VILLAGE ARAKKONAM TALUK  VELLORE DISTRICT PERUMUCHI TAMIL NADU 631002",22654260,PERUMUCHI,VELLORE,"TAMIL NADU"
"KARUR VYSYA BANK",KVBL0001820,NA,VIRUPAKSHIPURAM,"NO 14 2 VIRUPAKSHIPURAM VILLAGE PANCHAYAT VELLORE DISTRICT VELLORE TAMIL NADU 632002",22654260,VELLORE,VELLORE,"TAMIL NADU"
"KARUR VYSYA BANK",KVBL0001819,NA,MADHAVARAM,"PLOT NO 229 MADHAVARAM-REDHILLS HIGH ROAD MADHAVARAM CHENNAI TAMIL NADU 600060",22837668,CHENNAI,CHENNAI,"TAMIL NADU"
"KARUR VYSYA BANK",KVBL0001818,NA,"KALASALINGAM UNIVERSITY-EC","KALASALINGAM UNIVERSITY ANAND NAGAR KRISHNAKOIL VIRUDHUNAGAR TAMIL NADU 626126",22837668,VIRUDHUNAGAR,VIRUDHUNAGAR,"TAMIL NADU"
"KARUR VYSYA BANK",KVBL0001817,NA,SENDURAI,"NO 624/15 GROUND FLOOR SIVAN KOIL BACKSIDE NEIVANAM SENDURAI ARIYALUR TAMIL NADU 621714",22837668,ARIYALUR,ARIYALUR,"TAMIL NADU"
"KARUR VYSYA BANK",KVBL0001816,NA,"TRICHY WEST BOULIWAR ROAD","109 WEST BOULIWAR ROAD TRICHY TAMIL NADU 620008",22837668,TRICHY,TRICHY,"TAMIL NADU"
"KARUR VYSYA BANK",KVBL0001815,NA,"VILLUPURAM DO","OLD R.SNO.530/A, NEW R.S.NO.530/1A,1A2,530/1B,D.NO15,WARD NO 18,VILLUPURAM",22654260,VILLUPURAM,VILLUPURAM,"TAMIL NADU"
"KARUR VYSYA BANK",KVBL0001814,NA,"COIMBATORE - NEW SIDDHAPUDUR","NEW NO 226, OLD NO 12 TO 14, SAROJINI ROAD, OPP SRI RAMAKRISHNA HOSPITAL, NEW SIDDHAPUR, COIMBATORE",22654260,COIMBATORE,COIMBATORE,"TAMIL NADU"
"KARUR VYSYA BANK",KVBL0001813,NA,AGARAM,"2 248 AGARAM VILLAGE I FLOOR POCHAMPALLI TK KRISHNAGIRI",22665914,POCHAMPALLI,KRISHNAGIRI,"TAMIL NADU"
"KARUR VYSYA BANK",KVBL0001812,NA,KITTAMPALAYAM,"AMMAN KOIL THOTTAM NALL ROAD KARUMATHAMPATTI PO SULUR TALUK KITTAMPALAYAM COIMBATORE",22665914,KITTAMPALAYAM,COIMBATORE,"TAMIL NADU"
"KARUR VYSYA BANK",KVBL0001811,NA,"OLD PERUNGALATHUR","NO 7 KAMARAJ HIGH ROAD OLD PERUNGALATHUR KANCHEEPURAM",22665914,"OLD PERUNGALATHUR",KANCHEEPURAM,"TAMIL NADU"
"KARUR VYSYA BANK",KVBL0001810,NA,"S N PURAM","NO 3 121 A SRB COMPLEX VISALACHI NAGAR SNPURAM THIRUTHANGAL VIRUDHUNAGAR TAMILNADU 626130",22665914,VIRUDHUNAGAR,VIRUDHUNAGAR,"TAMIL NADU"
"KARUR VYSYA BANK",KVBL0001809,NA,"TIRUPUR S R NAGAR","PLOT NO A 3 OPP TO KUMARAN COLLEGE FOR WOMEN MANGALAM MAIN ROAD TIRUPUR  TAMILNADU 641604",22665914,TIRUPUR,TIRUPUR,"TAMIL NADU"
"KARUR VYSYA BANK",KVBL0001808,NA,"CHENNAI-BESANT NAGAR","T 27 7TH AVENUE BESANT NAGAR CHENNAI TAMILNADU 600090",22665914,CHENNAI,CHENNAI,"TAMIL NADU"
"KARUR VYSYA BANK",KVBL0001807,NA,THAMBIKOTTAI,"NEW SNO 25-13A,25-13B,THAMBIKOTTAI,KEELAKADU,NO-82,DURAIKADU REVENUE VILLAGE, THIRUTHURAIPOONDI TALUK, THIRUVARUR,TN - 614704",22665914,TIRUVARUR,THIRUVARUR,"TAMIL NADU"
"KARUR VYSYA BANK",KVBL0001806,NA,"TIRUNELVELI JUNCTION","2G MADURAI ROAD OPP OLD BUS STAND TIRUNELVELI",22665914,"TIRUNELV JUN",TIRUNELVELI,"TAMIL NADU"
"KARUR VYSYA BANK",KVBL0001805,NA,"CHENNAI - NELSON MANICKAM ROAD","OLD NO 2 NEW NO 3 GROUND FLOOR RAILWAY COLONY 3RD STREET OFF NELSON MANICKAM AMJIKARAI",22665914,CHENNAI,CHENNAI,"TAMIL NADU"
"KARUR VYSYA BANK",KVBL0001804,NA,SRIVILLLIPUTTUR,"NO 73 E 1 RAMAKRISHNAPURAM BYE PASS ROAD SRIVILLIPUTTUR",22665914,SRIVILLLIPUTTUR,VIRUDHUNAGAR,"TAMIL NADU"
"KARUR VYSYA BANK",KVBL0001803,NA,ARCOT,"NO 46 1 VELLORE MAIN ROAD ARCOT",22665914,ARCOT,VELLORE,"TAMIL NADU"
"KARUR VYSYA BANK",KVBL0001802,NA,DEVAKOTTAI,"300 H THIRUPPATHUR MAIN ROAD OPP TO INDIAN OIL PETROL BUNK NEAR VR LODGE DEVAKOTTAI SIVAGANGAI",22665914,DEVAKOTTAI,SIVAGANGAI,"TAMIL NADU"
"KARUR VYSYA BANK",KVBL0001801,NA,"MADURAI - K.PUDUR","PLOT NO 8 AND 9 PART KARPAGA NAGAR 8TH STREET K.PUDUR MADURAI",22665914,MADURAI,MADURAI,"TAMIL NADU"
"KARUR VYSYA BANK",KVBL0001800,NA,"MADURAI - VILLAPURAM","NO 95 1 CD SRI GURU MAHAL ARUPPUKOTTAI MAIN ROAD GANAPATHY NAGAR VILLAPURAM MADURAI",22665914,MADURAI,MADURAI,"TAMIL NADU"
"KARUR VYSYA BANK",KVBL0001799,NA,SAKKOTTAI,"18 D SAKKOTTAI MAIN ROAD OPP NEW BUSSTAND PUDUVAYAL SIVAGANGAI",22665914,SAKKOTTAI,SIVAGANGAI,"TAMIL NADU"
"KARUR VYSYA BANK",KVBL0001798,NA,NAKKENERI,"3 22 7A RAJAPALAYAM MAIN ROAD DHALAVAIPURAM VIRUDHUNAGAR",22665914,NAKKENERI,VIRUDHUNAGAR,"TAMIL NADU"
"KARUR VYSYA BANK",KVBL0001797,NA,COIMBATORE-SUNDARAPURAM,"5-J, MADUKKARAI ROAD, OPP TO SBT BANK, SUNDARAPURAM, COIMBATORE, TAMILNADU",22665914,COIMBATORE,COIMBATORE,"TAMIL NADU"
"KARUR VYSYA BANK",KVBL0001796,NA,MANACHANALLUR,"SF NO.109/3A1, PLOT 7B, D.NO.39/3C1, ANNAPOORNA NAGAR, EDUMALAI ROAD, MANACHANALLUR, TRICHY, TAMILNADU 621005",22665914,MANACHANALLUR,TIRUCHIRAPALLI,"TAMIL NADU"
"KARUR VYSYA BANK",KVBL0001795,NA,MUTHANAMBPALAYAM,"4/527A, ALAGU TOWER, NEAR VIVEKANADHA SCHOOL,KRISHNA NGR, DHARAPURAM ROAD, MUTHANAMPLAYAM VILLAGE, TIRUPUR - 641606",22665914,TIRUPUR,COIMBATORE,"TAMIL NADU"
"KARUR VYSYA BANK",KVBL0001794,NA,MOOVANUR,"NO 1/128, THURAIYUR MAIN ROAD, VENGAIMANDALAM, MOOOVANUR, MUSIRI TALUK,TRICHY - 621006",22665914,MUSIRI,TIRUCHIRAPALLI,"TAMIL NADU"
"KARUR VYSYA BANK",KVBL0001793,NA,ALAVAYAL,"DNO 143A, ALAVAYAL POST, PONNAMARAVATHI TALUK, KOPPANAPATTI ROAD, PUDUKOTTAI - 622401",22665914,PUDUKKOTTAI,PUDUKKOTTAI,"TAMIL NADU"
"KARUR VYSYA BANK",KVBL0001792,NA,KURUVIKONDANPATTI,"NAGARATHAR NADAPPU KARAIKAARAR, KURUVIKONDANPATTI, PUDUKOTTAI - 622409",22665914,PUDUKKOTTAI,PUDUKKOTTAI,"TAMIL NADU"
"KARUR VYSYA BANK",KVBL0001791,NA,"DINDIGUL - RM COLONY","R M COLONY, PLOT H-68 C, T.S.NO 532/3 PT, 533/4 PT, WARD NO.2, BLOCK NO.13, R M COLONY, DINDIGUL, TAMIL NADU  624001",22665914,DINDIGUL,DINDIGUL,"TAMIL NADU"
"KARUR VYSYA BANK",KVBL0001790,NA,MINJUR,"S.NO 213/17, T H ROAD,MINJUR, THIRUVALLUR - 601203",22665914,MINJUR,THIRVALLUR,"TAMIL NADU"
"KARUR VYSYA BANK",KVBL0001789,NA,NANMANGALAM,"OLD NO 16A,NEW NO 1/56A, MEDAVAKKAM MAIN ROAD,NANMANGALAM,KANCHIPURAM - 600129",22665914,KANCHIPURAM,KANCHEEPURAM,"TAMIL NADU"
"KARUR VYSYA BANK",KVBL0001788,NA,POOTUTHAKKU,"NO 96, BIG STREET, POOTUTHAKKU TALUK, VELLORE DIST, TAMIL NADU - 632517",22665914,VELLORE,VELLORE,"TAMIL NADU"
"KARUR VYSYA BANK",KVBL0001787,NA,"CHENNAI - KILPAUK","NO 49, KELLYS ROAD, KILPAUK,CHENNAI 600010",22665914,CHENNAI,CHENNAI,"TAMIL NADU"
"KARUR VYSYA BANK",KVBL0001786,NA,NADUKUPPAM,"PLOT NO 2, ARNI PADAVEDUROAD, NADUKUPPAM VILLAGE, ARNI TK, TIRUVANNAMALI DT",22665914,TIRUVANNAMALAI,TIRUVANNAMALAI,"TAMIL NADU"
"KARUR VYSYA BANK",KVBL0001785,NA,"SALEM - KONDALAMPATTI","163/1, WARD NO 3, KALIKOTTAI MAIN ROAD, JARIKONDALAMPATTI, SALEM, TMAIL NADU 636010",22665914,SALEM,SALEM,"TAMIL NADU"
"KARUR VYSYA BANK",KVBL0001784,NA,CHEMMANCHERY,"PLOT NO 713,SRI GANAPATHY SYNDICAT CHEMMANCHERY, KANCHEEPURAM DT, CHENNAI - 600119",22665914,KANCHIPURAM,KANCHEEPURAM,"TAMIL NADU"
"KARUR VYSYA BANK",KVBL0001783,NA,NEMILICHERRY,"NO 50/67, CTH ROAD, BALAJI NAGAR, NEMILICHERRU, THIRUNINRAVUR, CHENNAI 602024",22665914,THIRUNINRAVUR,THIRUVALLUR,"TAMIL NADU"
"KARUR VYSYA BANK",KVBL0001782,NA,PILLAYARKUPPAM,"R S NO 88/12A, PLOT NO D, CUDDALORE MAIN RD, MURUGAIYAN - KAMALA AVENUE, PILLAYARKUPPAM, BAHOUR CMMUNR PUDUCHERRY",22665914,BAHOUR,PONDICHERRY,PUDUCHERRY
"KARUR VYSYA BANK",KVBL0001781,NA,NALLATTIPALAYAM,"SF NO 86 2B, KOVAI MAIN ROAD, NALLATTIPALAYAM VILLAGE, THAMARAIKULAM, KINATHUKADAVU TK, COIMBATORE 642109",22665914,COIMBATORE,COIMBATORE,"TAMIL NADU"
"KARUR VYSYA BANK",KVBL0001780,NA,PADIRIPATTI,"NO 5 26, PATHIPATTI POST, OPP TO MILK PRODUCERS COOP STY BLDG, THOGAIMALAI BLOCK,  KULITHALAI TK, KARUR, TAMIL NADU 621313",22665914,KARUR,KARUR,"TAMIL NADU"
"KARUR VYSYA BANK",KVBL0001779,NA,VELAMPALAYAM,"33, PADMAVATHIPURAM, AVINASHI ROAD, VELMAPALAYAM, TAMIL NADU 641603",22665914,TIRUPUR,TIRUPUR,"TAMIL NADU"
"KARUR VYSYA BANK",KVBL0001778,NA,VILANKURICHI,"NO 7, JEEVA NAGAR, VILANKURICHI, TAMIL NADU 641035",22665914,COIMBATORE,COIMBATORE,"TAMIL NADU"
"KARUR VYSYA BANK",KVBL0001777,NA,MUDALIPALAYAM,"SF NO.254/2, SRI VENKATACHALAPATHY NAGAR, KANGEYAM ROAD, TIRUPUR - 641606.",22665914,TIRUPUR,TIRUPUR,"TAMIL NADU"
"KARUR VYSYA BANK",KVBL0001776,NA,SOBANAPURAM,"S.NO.756 -1B4,MAIN ROAD,SOBANAPURAM, THURAIYUR TK,TRICHY-621011.",22665914,TRICHY,TRICHY,"TAMIL NADU"
"KARUR VYSYA BANK",KVBL0001775,NA,THORAIPAKKAM,"NO-32/2,200 FEET RING ROAD, THORAIPAKKAM, CHENNAI -600097.",22665914,CHENNAI,CHENNAI,"TAMIL NADU"
"KARUR VYSYA BANK",KVBL0001774,NA,TIRUTTANI,"S.F.NO 107, M.P.S. SALAI, TIRUTTANI, TIRUVALLUR DIST, TIRUVALLUR - 631209",22665914,TIRUVALLUR,TIRUVALLUR,"TAMIL NADU"
"KARUR VYSYA BANK",KVBL0001773,NA,"EAST - TAMBARAM","PLOT NO 61,D.NO 3A/3B, BHARATHA MATHA STREET, EAST TAMBRM, KANCHEEPURAM,TAMIL NADU.",22665914,TAMBARAM,KANCHEEPURAM,"TAMIL NADU"
"KARUR VYSYA BANK",KVBL0001772,NA,VALLIYUR,"NO 77G,1ST FLOOR,HOTEL SELVI COMPLEX,MAIN ROAD, OPP. TO NEW BUS STAND, TIRUNELVELI - 627117",22665914,TIRUNELVELI,TIRUNELVELI,"TAMIL NADU"
"KARUR VYSYA BANK",KVBL0001771,NA,KONGARPALAYAM,"S F NO12/1, VANIPUTHUR VILLAGE, GOBI TALUK, ERODE DT,TAMIL NADU-638506",22665914,ERODE,ERODE,"TAMIL NADU"
"KARUR VYSYA BANK",KVBL0001770,NA,MADURVOYIL,"NO 4/250,MMDA FIRST COLONY, MADURAVOYIL,CHENNAI-TN 600087",22665914,CHENNAI,CHENNAI,"TAMIL NADU"
"KARUR VYSYA BANK",KVBL0001769,NA,"CHENNAI - RAMAPURAM","NO 4/24,THIRUVALLUVAR SALAI,RAMAPURAM,CHENNAI,TN-600089",22665914,CHENNAI,CHENNAI,"TAMIL NADU"
"KARUR VYSYA BANK",KVBL0001768,NA,MARTHANDAM,"DOOR NO 1 , MAIN ROAD, PAMMAM,MARTHANDAM,KANNIYAKUMARI",22665914,MARTHANDAM,KANYAKUMARI,"TAMIL NADU"
"KARUR VYSYA BANK",KVBL0001767,NA,"MADURAI - NORTH","NO 24A,PECHI AMMAN PADIDURAI ROAD, MADURAI,TAMIL NADU  625001",22665914,MADURAI,MADURAI,"TAMIL NADU"
"KARUR VYSYA BANK",KVBL0001766,NA,ACHARAPAKKAM,"PLOT NO 223 1A 1B AND 224 97 GST ROAD ACHARAPAKKAM KANCHEEPURAM TAMIL NADU",22665914,ACHARAPAKKAM,KANCHEEPURAM,"TAMIL NADU"
"KARUR VYSYA BANK",KVBL0001765,NA,PANANKUPPAM,"EAST PONDI ROAD NEAR KOLLANUR ROAD PANANKUPPAM VILLAGE VILLUPURAM TAMIL NADU",22665914,VILLUPURAM,VILLIPURAM,"TAMIL NADU"
"KARUR VYSYA BANK",KVBL0001764,NA,RANIPET,"NO 17 C 3A M.F ROAD RANIPET VELLORE TMAIL NADU",22665914,VELLORE,VELLORE,"TAMIL NADU"
"KARUR VYSYA BANK",KVBL0001763,NA,"CHENNAI - RECONCILATION CELL","NO 29 BASEMENT FLOOR RANGAN STREET T NAGAR CHENNAI TAMILNADU",22665914,CHENNAI,CHENNAI,"TAMIL NADU"
"KARUR VYSYA BANK",KVBL0001762,NA,YANAM,"SNO A8 16 2 4 PT. METTACUR VILLAGE,YANAM MUNICIPALITY,YANAM,PONDICHERRY 533464",22665914,YANAM,YANAM,PUDUCHERRY
"KARUR VYSYA BANK",KVBL0001761,NA,KOTTAMANGALAM,"SF NO 152 BY 2,MAIN ROAD,KOTTAMANGALAM,P.VELUR TK",22665915,PARAMATHI,NAMAKKAL,"TAMIL NADU"
"KARUR VYSYA BANK",KVBL0001760,NA,KUNDRATHUR,"NO.37,THULUKKA STREET,KUNDRATHUR",22665918,KUNRATHUR,KANCHEEPURAM,"TAMIL NADU"
"KARUR VYSYA BANK",KVBL0001759,NA,PERIYANAICKENPALAYAM,"NO 16 422 METTUPALAYAM ROAD PERIYANAYAKENPALAYAM COIMBATORE, TAMIL NADU",22665914,METTUPALYAM,COIMBATORE,"TAMIL NADU"
"KARUR VYSYA BANK",KVBL0001758,NA,VAZHAPADI,"74 BY 76,CUDDALORE MAIN ROAD,VAZHAPADI,SALEM",22665914,VALAPADI,SALEM,"TAMIL NADU"
"KARUR VYSYA BANK",KVBL0001757,NA,OMALUR,"DHARMAPURI MAIN ROAD,NEAR BUS STAND,WARD NO.1",22665917,OMALUR,SALEM,"TAMIL NADU"
"KARUR VYSYA BANK",KVBL0001756,NA,PAPPIREDDIPATTI,"NEW NO 224,OLDNO 66 D2,DHARMAPURI MAIN ROAD",22665916,PAPPIREDDIPATTI,DHARMAPURI,"TAMIL NADU"
"KARUR VYSYA BANK",KVBL0001755,NA,"GODOWN STREET","NEW NO.37,OLD NO.13,GODOWN STREET",22665919,CHENNAI,CHENNAI,"TAMIL NADU"
"KARUR VYSYA BANK",KVBL0001754,NA,PADI,"NO 127,YADAVAL ST,PADI,CHENNAI",22665914,PADI,CHENNAI,"TAMIL NADU"
"KARUR VYSYA BANK",KVBL0001753,NA,KUNNATHUR,"1 BY 198 C,SATHY MAIN ROAD KUNNATHUR,GANESHAPURAM,COIMBATORE,TAMIL NADU",22665914,COIMBATORE,COIMBATORE,"TAMIL NADU"
"KARUR VYSYA BANK",KVBL0001752,NA,"CHENNAI NUNGAMBAKKAM","1 NEW NO 17 BY 1 DR MGR COMPLEX,ANNA MAIN ROAD,MGR NAGAR,CHENNAI 600078",0,CHENNAI,CHENNAI,"TAMIL NADU"
"KARUR VYSYA BANK",KVBL0001751,NA,"TRANSACTION BANKING GROUP","KVB TOWERS,SECOND FLOOR,568 ANNA SALAI,TEYNAMPET,TEYNAMPET",0,CHENNAI,CHENNAI,"TAMIL NADU"
"KARUR VYSYA BANK",KVBL0001750,NA,POTHUMBU,"NO 155 5, NEW ALANGANALLUR ROAD, POTHUMBU, MADURAI 625017, TAMIL NADU.",22665914,MADURAI,MADURAI,"TAMIL NADU"
"KARUR VYSYA BANK",KVBL0001749,NA,THIRUVIDAIMARUDUR,"NO.19A,WEST STREET,THIRUVIDAIMARUDUR,THANJAVUR DISTRICT,THIRUVIDAIMARUDUR",0,THANJAVUR,THANJAVUR,"TAMIL NADU"
"KARUR VYSYA BANK",KVBL0001748,NA,"COIMBATORE SARAVANAMPATTI MAIN","SY.NO 660 AND 661,AGRICULTURE MARKET ROAD,PLOT NO.S 69,70,89,90,JAMMIKUNTA",0,COIMBATORE,COIMBATORE,"TAMIL NADU"
"KARUR VYSYA BANK",KVBL0001747,NA,"KARUR - RLPC","68, ERODE ROAD,FIRST FLOOR,L.N.S. POST,KARUR",0,KARUR,KARUR,"TAMIL NADU"
"KARUR VYSYA BANK",KVBL0001746,NA,"COIMBATORE - RLPC","577 OPPANAKARA STREET, SECOND FLOOR, COIMBATORE",0,COIMBATORE,COIMBATORE,"TAMIL NADU"
"KARUR VYSYA BANK",KVBL0001745,NA,"TAMBARAM - RLPC","27-A, VENKATESA CHOUDRY STREET, FIRST FLOOR, WEST TAMBARAM, CHENNAI",0,TAMBARAM,KANCHEEPURAM,"TAMIL NADU"
"KARUR VYSYA BANK",KVBL0001744,NA,"TAMBARAM - CPC","27-A, VENKATESA CHOUDRY STREET, FIRST FLOOR, WEST TAMBARAM, CHENNAI",0,TAMBARAM,KANCHEEPURAM,"TAMIL NADU"
"KARUR VYSYA BANK",KVBL0001743,NA,SEETHANCHERI,"OLD S NO.224,NEW NO.224 BY 13,NO.6,SEETHANCHERI",22665914,UTHUKOTTAI,THIRUVALLUR,"TAMIL NADU"
"KARUR VYSYA BANK",KVBL0001742,NA,"HOSUR BATHALAPALLI","NO 44 BY 44 BY 2 A BY B,MORANAPALLI,BATHALAPALLI POST,KRISHNAGIRI BYEPASS ROAD,HOSUR",0,HOSUR,KRISHNAGIRI,"TAMIL NADU"
"KARUR VYSYA BANK",KVBL0001741,NA,"CHENNAI - PERUNGUDI","PLOT NO:45,FIRST MAIN ROAD, THIRUMALAI NAGAR ANNEX, PERUNGUDI, CHENNAI",0,PERUNGUDI,KANCHEEPURAM,"TAMIL NADU"
"KARUR VYSYA BANK",KVBL0001740,NA,MANNARAI,"NO 8A, VM HOUSE, UTHUKULI ROAD, MANNARAI, TIRUPUR, TAMIL NADU",22665914,TIRUPUR,TIRUPUR,"TAMIL NADU"
"KARUR VYSYA BANK",KVBL0001739,NA,"COIMBATORE - SINGANALLUR","NO.342-343,TRICHY ROAD,SINGANALLUR,COIMBATORE",0,SINGANALLUR,COIMBATORE,"TAMIL NADU"
"KARUR VYSYA BANK",KVBL0001738,NA,PONNAMARAVATHI,"NEW NO.3,OLD NO.2,POSALA THEVAR AMBALAM STREET,PON PUDUPATTI,PONNAMARAVATHI ,TAMIL NADU",0,PONNAMARAVATHY,PUDUKKOTTAI,"TAMIL NADU"
"KARUR VYSYA BANK",KVBL0001737,NA,BRAHMAPURAM,"NO:334/1C10,CHENNAI SALAI,BRAHMAPURAM,KATPADI TALUK,VELLORE,TAMIL NADU,632014",0,"KATPADI TALUK",VELLORE,"TAMIL NADU"
"KARUR VYSYA BANK",KVBL0001736,NA,KOOTHANUR,"AGRAHARAM SOUTH STREET, SARASWATHI AMMAN SANNATHI, NANILUM TALUK,KOOTHANUR, TAMIL NADU",0,KOOTHANUR,VILLUPURAM,"TAMIL NADU"
"KARUR VYSYA BANK",KVBL0001735,NA,SHOLINGUR,"NO:74,SOUTH VANNIER STREET,SHOLINGUR,VELLORE DISTRICT,VELLORE,TAMIL NADU",0,SHOLINGHUR,VELLORE,"TAMIL NADU"
"KARUR VYSYA BANK",KVBL0001734,NA,GUDIYATHAM,"NO:4-5-6-7,ARJUNA MUDALI STREET,GUDIYATHAM,TAMIL NADU",0,GUDIYATHAM,VELLORE,"TAMIL NADU"
"KARUR VYSYA BANK",KVBL0001733,NA,NAMBIYUR,"KOVAI MAIN ROAD,OPP TO SBI,NAMBIYUR,ERODE DISTRICT,ERODE,TAMIL NADU",0,NAMBIYUR,ERODE,"TAMIL NADU"
"KARUR VYSYA BANK",KVBL0001732,NA,PODATURPET,"NO:156-B,NADU STREET,PODATURPET,TIRUVALLUR DISTRICT,PODATURPET,TAMIL NADU",0,PODDATTURUPETA,THIRUVALLUR,"TAMIL NADU"
"KARUR VYSYA BANK",KVBL0001731,NA,SINGAMPUNERI,"D.NO 16.6/64,DINDIGUAL ROAD,SIVAGANGA DIST,SINGAMPUNERI,TAMIL NADU",0,SINGAMPUNARI,TIRUVANNAMALAI,"TAMIL NADU"
"KARUR VYSYA BANK",KVBL0001730,NA,"KARUR - CPC","CPC (LOANS),1ST FLOOR,68 ERODE ROAD,LNS POST,KARUR,TAMIL NADU",0,KARUR,KARUR,"TAMIL NADU"
"KARUR VYSYA BANK",KVBL0001729,NA,SALAI,"NO:222,SHOLINGUR,ARAKONAM MAIN ROAD,SALAI,KAILASAPURAM,ARAKONNAM TALUK,VELLORE DISTRICT,VELLORE,TAMIL NADU",0,VELLORE,VELLORE,"TAMIL NADU"
"KARUR VYSYA BANK",KVBL0001728,NA,ADAMANGALAM,"NEW NO:3/81-A,OLD NO:3/414 ROAD STREET,ADAMANGALAM PUDURKALASAPAKKAM TK,TIRUVANAMALAI DISTADAMANGALAM TAMIL NADU",0,ADAMANGALAM,TIRUVANNAMALAI,"TAMIL NADU"
"KARUR VYSYA BANK",KVBL0001727,NA,KORUKKATHUR,"NO:432,BHARATHIYAR STREET KORUKKATHUR VILLAGE CHEYYAR TALUK KORUKKATHUR TAMIL NADU",0,TIRUVATTIPURAM(CHEYYAR),TIRUVANNAMALAI,"TAMIL NADU"
"KARUR VYSYA BANK",KVBL0001726,NA,KOOMBUR,"SF NO.689/3A4, KARUR MAIN ROAD KOOMBUR - KOOMBUR PANCHAYAT GUZILLIAMPARAI BLOCK,VEDASANDUR TK KOOMBUR TAMIL NADU",0,VEDASANDUR,DINDIGUL,"TAMIL NADU"
"KARUR VYSYA BANK",KVBL0001725,NA,SAMAYAPURAM,"MANACHANALLUR (TK) TRICHY TAMIL NADU",0,SAMAYAPURAM,TIRUCHIRAPALLI,"TAMIL NADU"
"KARUR VYSYA BANK",KVBL0001724,NA,ARANTHANGI,"NO.9,KAMARAJAR STREET ARANTHANGI TAMIL NADU",0,ARANTANGI,PUDUKKOTTAI,"TAMIL NADU"
"KARUR VYSYA BANK",KVBL0001723,NA,MOHANUR,"NO.128/1 RASIPALAYAM VILLAGE NAMAKKAL DIST MOHANUR TAMIL NADU",0,MOHANUR,NAMAKKAL,"TAMIL NADU"
"KARUR VYSYA BANK",KVBL0001722,NA,"CHENNAI - RLPC","SOUTHWING FIRST FLOOR NO.37 WHITES ROAD ROYAPETTAH CHENNAI TAMIL NADU",0,CHENNAI,CHENNAI,"TAMIL NADU"
"KARUR VYSYA BANK",KVBL0001721,NA,"COIMBATORE - THUDIYALUR","VIP COLONY,SITE NO.46  K.VADAMADURAI THUDIYALUR",0,THUDIYALOOR,COIMBATORE,"TAMIL NADU"
"KARUR VYSYA BANK",KVBL0001720,NA,"CHENNAI - SALIGRAMAM","FIRST FLOOR 44 A, ARCOT ROAD SALIGRAMAM CHENNAI",0,CHENNAI,CHENNAI,"TAMIL NADU"
"KARUR VYSYA BANK",KVBL0001719,NA,AVADI,"PLOT NO:6/PC,2/360 FEET WIDE ROAD,T.N.H.B  AVADI",0,AVADI,THIRUVALLUR,"TAMIL NADU"
"KARUR VYSYA BANK",KVBL0001718,NA,PATTANAM,"4/143,PATTANAM MAIN ROAD PATTANAM (PO),ONDIPUDUR (VIA)",0,COIMBATORE,COIMBATORE,"TAMIL NADU"
"KARUR VYSYA BANK",KVBL0001717,NA,"MADURAI - KAMARAJAR SALAI","DOOR NO. 162/A/1 KAMARAJAR SALAI MADURAI TAMIL NADU",0,MADURAI,MADURAI,"TAMIL NADU"
"KARUR VYSYA BANK",KVBL0001716,NA,"T. VELLODE","NO.10A-GANDHI NAGAR  CHENNIMALAI ROAD  PERUNDURAI TALUK- ERODE DIST",0,PERUNDURAI,ERODE,"TAMIL NADU"
"KARUR VYSYA BANK",KVBL0001715,NA,VILPATTI,"W 4-609 ,LOURDHUPURAM  VILPATTY PACHAYAT,ATTUVANPATTY POST  KODAIKANAL,DINDIGUL DIST",0,KODAIKANAL,DINDIGUL,"TAMIL NADU"
"KARUR VYSYA BANK",KVBL0001714,NA,JAYANKONDAM,"NO 28. CHIDAMBARAM ROAD ARIYALUR DISTRICT JAYAKONDAM",0,ARIYALUR,PERAMBALUR,"TAMIL NADU"
"KARUR VYSYA BANK",KVBL0001713,NA,KADAYANALLUR,"BAJANAI MANDAPAMDOOR NO.347A1,EAST WEST BAZAAR ROAD KADAYANALLUR",0,KADAYANALLUR,TIRUNELVALI,"TAMIL NADU"
"KARUR VYSYA BANK",KVBL0001712,NA,DEVIYAKURICHI,"DOOR NO 2/117 - DSALEM - CHENNAI HIGHWAY, NH 79  DEVIYAKURICHI",0,SALEM,SALEM,"TAMIL NADU"
"KARUR VYSYA BANK",KVBL0001711,NA,TIRUKKOYILUR,"NO:53A,SOUTH STREET TIRUKKOYILUR TAMIL NADU",0,TIRUKOILUR,VILLUPURAM,"TAMIL NADU"
"KARUR VYSYA BANK",KVBL0001710,NA,VILLIANUR,"NO:9,THENGOPURAVEETHI  VILLIANUR PONDICHERRY",0,VILLIANUR,PONDICHERRY,PUDUCHERRY
"KARUR VYSYA BANK",KVBL0001709,NA,ARUPPUKOTTAI,"SRI JAYAVILAS COMPLEX FIRST FLOOR 141, SATHIYAMOORTHY BAZAAR ARUPPUKOTTAI",0,ARUPPUKOTTAI,VIRUDHUNAGAR,"TAMIL NADU"
"KARUR VYSYA BANK",KVBL0001708,NA,PRITHIVIMANGALAM,"R.S.NO.60/3A,ANNA NAGAR  SALEM MAIN ROAD THIYAGADHURUGAM PO PRITHIVIMANGALAM",0,VILLUPURAM,VILLUPURAM,"TAMIL NADU"
"KARUR VYSYA BANK",KVBL0001707,NA,MURARBADU,"MIDDLE STREET SANKARAPURAM TALUK  VILLUPURAM DISTRICT MURARBADU",0,VILLUPURAM,VILLUPURAM,"TAMIL NADU"
"KARUR VYSYA BANK",KVBL0001706,NA,VADASITHUR,"NO 3/151,VADASITHUR  POLLACHI TALUK VADASITHUR COIMBATORE",0,COIMBATORE,COIMBATORE,"TAMIL NADU"
"KARUR VYSYA BANK",KVBL0001704,NA,NILAKOTTAI,"NO. 6-2-36A, PERIYAR COLONY MADURAI MAIN ROAD  DINDIGUL DT  NILAKOTTAI",0,NILAKKOTTAI,DINDIGUL,"TAMIL NADU"
"KARUR VYSYA BANK",KVBL0001703,NA,P.KOMARAPALAYAM,"NO.5, P. KOMARAPALAYAM POST NATHAKADAIYUR (VIA)  ERODE",0,NATHAKADAIYUR,ERODE,"TAMIL NADU"
"KARUR VYSYA BANK",KVBL0001702,NA,KARUMANDAMPALAYAM,"RS NO471/2B ERODE-KARUR MAIN ROAD KARUMANDAMPALAYAM ERODE",0,ERODE,ERODE,"TAMIL NADU"
"KARUR VYSYA BANK",KVBL0001701,NA,VILLAR,"SURVEY NO.14, D.NO.424 QUIIDE MILLETH NAGAR VILAR",0,THANJAVUR,THANJAVUR,"TAMIL NADU"
"KARUR VYSYA BANK",KVBL0001700,NA,THENUR,"NEW.RS.NO.201/16D,MAIN ROAD, THENUR",0,MADURAI,MADURAI,"TAMIL NADU"
"KARUR VYSYA BANK",KVBL0001699,NA,SURANDAI,"10-9-37 S-NO.217/4  KAMARAJAR SALAI OPPOSITE TO BUS STAND  SURANDAI PO V.K.PUDUR TK TIRUNELVELI-627859",0,TIRUNELVELI,TIRUNELVALI,"TAMIL NADU"
"KARUR VYSYA BANK",KVBL0001698,NA,PERAVURANI,"DOOR NO 2 FIRST FLOOR VANIGAVALAGAM ARANTHANGI ROAD, NEAR BUS STAND  PERAVURANI THANJAVUR DISTRICT -614 804",0,PERAVURANI,THANJAVUR,"TAMIL NADU"
"KARUR VYSYA BANK",KVBL0001697,NA,PUNJAIPULIAMPATTI,"FASHION POINT COMMERCIAL COMPLEX  ULTAN ROAD,(BAVANI SAGAR DAM ROAD) PUNJAIPULIAMPATTI",0,"PUNJAI PULIAMPATTI",ERODE,"TAMIL NADU"
"KARUR VYSYA BANK",KVBL0001696,NA,VEDASANDUR,"165 G,SRIPATHY COMPLEX, VADAMADURAI MAIN ROAD, DINDIGUL DISTRICT, VEDASANDUR",0,VEDASANDUR,DINDIGUL,"TAMIL NADU"
"KARUR VYSYA BANK",KVBL0001695,NA,CHINNASALEM,"NEXT TO DR.MANIVANNAN HOUSE 471,SALEM MAIN ROAD  CHINNASALEM",0,CHINNASALEM,VILLUPURAM,"TAMIL NADU"
"KARUR VYSYA BANK",KVBL0001694,NA,PUTHAGARAM,"S.NO.52, PUTHAGARAM TO SURAPET MAIN ROAD NEAR VELAMMAL ENGINEERING COLLEGE PUTHAGARAM",0,VELLORE,VELLORE,"TAMIL NADU"
"KARUR VYSYA BANK",KVBL0001693,NA,BARGUR,"NEAR CANARA BANK  KRISHNAGIRI MAIN ROAD  BARGUR",0,BARGUR,TUMKUR,KARNATAKA
"KARUR VYSYA BANK",KVBL0001692,NA,THEETHIPALAYAM,"SIRUVANI MAIN ROAD KALAMPALAYAM",0,KALAMPALAYAM,COIMBATORE,"TAMIL NADU"
"KARUR VYSYA BANK",KVBL0001691,NA,MADUKKUR,"MAIN ROAD,MUKKOOTTU SALAIMADUKKUR",0,MADUKKUR,THANJAVUR,"TAMIL NADU"
"KARUR VYSYA BANK",KVBL0001690,NA,SEYDUNGANALLUR,"M.M.KUDIL,KALAYANI COMPLEX, FIRST FLOOR, TIRUCHENDUR MAIN ROAD",0,SEITHUNGANALLUR,TOOTHUKUDI,"TAMIL NADU"
"KARUR VYSYA BANK",KVBL0001689,NA,ULUNDURPET,"426/2,NEXT TO BSNL OFFICE  VRIDDHACHALAM ROADULUNDURPET",0,ULUNDURPET,VILLUPURAM,"TAMIL NADU"
"KARUR VYSYA BANK",KVBL0001688,NA,THIRUMANGALAM,"SURVEY NO.40/7A,1ST CROSS, PUDUNAGAR, VILLUPURAM DISTRICT, THIRUMANGALAM",0,THIRUMANGALAM,THIRUVALLUR,"TAMIL NADU"
"KARUR VYSYA BANK",KVBL0001687,NA,APPANALLUR,"B-50,MUSIRI TO PAVITHRAM MAIN ROAD APPANALLUR (APPANANALLUR)  THOTTIAM TALUK",0,THOTTIYAM,VILLUPURAM,"TAMIL NADU"
"KARUR VYSYA BANK",KVBL0001686,NA,"ERODE - CHINNAIAMPALAYAM","NO. 43,THACHANGATTUTHOTTAM BUS STOP CHINNAIAMPALAYAM POST",0,ERODE,ERODE,"TAMIL NADU"
"KARUR VYSYA BANK",KVBL0001685,NA,MULLAMPARAPPU,"NO 147, MULLAMPARUPPU  AVALPOONDURAI MAIN ROAD  NATHAGOUNDAMPALAYAM",0,ERODE,ERODE,"TAMIL NADU"
"KARUR VYSYA BANK",KVBL0001684,NA,SANKARI,"5B,SALEM MAIN ROAD  SALEM LORRY URIMAIYALARGAL SANGAM  SANKARI TALUK,SALEM DISTRICT",0,SANKARI,SALEM,"TAMIL NADU"
"KARUR VYSYA BANK",KVBL0001683,NA,LALGUDI,"S.F.NO.136/7 AND 136/8 LALGUDI - TRICHY MAIN ROAD  SIRUDAYUR",0,LALGUDI,TIRUCHIRAPALLI,"TAMIL NADU"
"KARUR VYSYA BANK",KVBL0001682,NA,MADURANTAKAM,"96/A, G.S.T.ROAD, KANCHIPURAM DISTRICT, MADURANTAKAM",0,MADURANTAKAM,KANCHEEPURAM,"TAMIL NADU"
"KARUR VYSYA BANK",KVBL0001681,NA,"PONDICHERRY - LAWSPET","PLOT NO.NO.14 AND 15,BASS TOWERS (GROUND FLOOR),ECR,KARUVADIKUPPAM,LAWSPET",0,PONDICHERRY,PONDICHERRY,PUDUCHERRY
"KARUR VYSYA BANK",KVBL0001680,NA,HARUR,"7/22 BYPASS ROAD,NEAR STATE BANK OF INDIA",0,HARUR,DHARMAPURI,"TAMIL NADU"
"KARUR VYSYA BANK",KVBL0001679,NA,OTHAKADAI,"SF NO.148/4,MOLANKADU  KARUR MAIN ROAD OTHAKADI",0,ERODE,ERODE,"TAMIL NADU"
"KARUR VYSYA BANK",KVBL0001678,NA,SOUNDAPUR,"GOBI-ATHANI MAIN ROAD SAVANDAPUR, GOBI TK  ERODE DT",0,GOBICHETTIPALAYAM,ERODE,"TAMIL NADU"
"KARUR VYSYA BANK",KVBL0001677,641053021,CHINNIAMPALAYAM,"2/166,AVINASHI ROAD, CHINNIAMPALAYAM, COIMBATORE",0,CHENNIYAMPALAYAM,COIMBATORE,"TAMIL NADU"
"KARUR VYSYA BANK",KVBL0001676,NA,KANAKAMPALAYAM,"S.A.B MAIN ROAD  KALLIPATTI KANAKKAMPALAYAM (PO),GOBI(T.K)",0,KALLIPATTI,ERODE,"TAMIL NADU"
"KARUR VYSYA BANK",KVBL0001675,NA,"COIMBATORE - GOUNDAMPALAYAM","5/23,SKS BUILDING, GOUNDAMPALAYAM, METTUPALAYAM ROAD",0,KAVUNDAPALAYAM,COIMBATORE,"TAMIL NADU"
"KARUR VYSYA BANK",KVBL0001674,NA,"COIMBATORE - SIVANANDA COLONY","164,RAJU NAIDU STREET SIVANANDA COLONY COIMBATORE",0,COIMBATORE,COIMBATORE,"TAMIL NADU"
"KARUR VYSYA BANK",KVBL0001673,NA,UDHAGAMANDALAM,"420,SMRR PLAZA, ETTINES ROAD",0,UDHAGAMANDAL,NILGIRIS,"TAMIL NADU"
"KARUR VYSYA BANK",KVBL0001672,NA,TIRUVALLUR,"170,J N ROAD  M S K COMPLEX,OIL MILL  TIRUVALLUR",0,TIRUVALLUR,TIRUVALLUR,"TAMIL NADU"
"KARUR VYSYA BANK",KVBL0001671,NA,"TAMBARAM DIVISIONAL OFFICE","27-A, VENKATESA CHOUDRY STREET",0,TAMBARAM,KANCHEEPURAM,"TAMIL NADU"
"KARUR VYSYA BANK",KVBL0001670,NA,"KARUR DIVISIONAL OFFICE","68, ERODE ROAD,FIRST FLOOR L.N.S. POST  KARUR",0,KARUR,KARUR,"TAMIL NADU"
"KARUR VYSYA BANK",KVBL0001669,NA,THAMMAMPATTI,"THAMMAMPATTI,14/166, MIDDLE STREET,THAMMAMPATTI,636113",0,TAMAPATTI,SALEM,"TAMIL NADU"
"KARUR VYSYA BANK",KVBL0001668,NA,ARAKKONAM,"ARAKKONAM,NO.208,5TH GANDHI ROAD,SUVALPET  ARAKKONAM,631001",0,ARKONAM,VELLORE,"TAMIL NADU"
"KARUR VYSYA BANK",KVBL0001667,NA,AYOTHIAPATTINAM,"VENGAI COMPLEX,ATTUR MAIN ROAD,OPP.JAYALAKSHMI NURSING HOME,SALEM",0,SALEM,SALEM,"TAMIL NADU"
"KARUR VYSYA BANK",KVBL0001666,NA,THIRUPPALAI,"NO. 1/44, TWAD BOARD,THIRD COLONY,THIRUPPALAI,MADURAI - 625 014",0,COIMBATORE,COIMBATORE,"TAMIL NADU"
"KARUR VYSYA BANK",KVBL0001665,NA,SULUR,"5 J,TRICHY RD,NEAR KANNAN DEPT STORE,SULUR",0,SULUR,COIMBATORE,"TAMIL NADU"
"KARUR VYSYA BANK",KVBL0001664,NA,"CHENNAI RED HILLS","5/2, SRI SUBHASANI COMPLEX,VALLALAR STREET,KAMARAJ NAGAR, REDHILLS, CHENNAI - 600052",0,CHENNAI,CHENNAI,"TAMIL NADU"
"KARUR VYSYA BANK",KVBL0001663,600053048,SITHALAPAKKAM,"NO 2/970 A , OTTIYAMBAKKAM MAIN ROAD, SITHALAPAKKAM , CHENNAI 600126",0,CHENNAI,CHENNAI,"TAMIL NADU"
"KARUR VYSYA BANK",KVBL0001662,NA,"COIMBATORE - KALAPATTI","13/76 A,SITRA ROAD, NEHRU NAGAR, CIVIL AERODROME POST, KALAPATTI, COIMBATORE - 641014.",0,KALAPATTI,COIMBATORE,"TAMIL NADU"
"KARUR VYSYA BANK",KVBL0001661,NA,KARUMANDAPAM,"6/9, GROUND FLOOR,JAYANAGAR II STREET,KARUMANDAPAM,TRICHY ┬û 620 001.",0,TIRUCHIRAPPALLI,TIRUCHIRAPALLI,"TAMIL NADU"
"KARUR VYSYA BANK",KVBL0001660,NA,"COIMBATORE - AVINASHI ROAD","1391 E, 1391 F, 1393/1,AVINASHI ROAD,PEELAMEDU,COIMBATORE-641 004",0,MADURAI,MADURAI,"TAMIL NADU"
"KARUR VYSYA BANK",KVBL0001659,641053015,METTUPALAYAM,"NO. 4, RAILWAY STATION ROAD,KRG COMPLEX,METTUPALAYAM  641 301",0,METTUPALAYAM,COIMBATORE,"TAMIL NADU"
"KARUR VYSYA BANK",KVBL0001658,625053008,AMBASAMUDRAM,"58, SANJEEVI VILAS COMPOUND, TILAKAPURAM MAIN ROAD, AMBASAMUDRAM ┬û 627 401",0,AMBASAMUDRAM,TIRUNELVALI,"TAMIL NADU"
"KARUR VYSYA BANK",KVBL0001657,600053047,"CHENNAI - GUDUVANCHERRY","NO 29, LAKSHMI NAGAR, I FLOOR,GUDUVANCHERRY,CHENNAI ┬û 603 202.",0,CHENNAI,CHENNAI,"TAMIL NADU"
"KARUR VYSYA BANK",KVBL0001656,625053009,PARAMAKUDI,"NO. 6/262C, RAILWAY FEEDER ROAD ,NSC BOSE ROAD,PARAMKUDI 623707",0,PARAMAGUDI,RAMANATHAPURAM,"TAMIL NADU"
"KARUR VYSYA BANK",KVBL0001655,625053009,THIRUNAGAR,"133, GST ROAD, THIRUNAGAR 1ST STOP, THIRUNAGAR, MADURAI ┬û 625 006",0,MADURAI,MADURAI,"TAMIL NADU"
"KARUR VYSYA BANK",KVBL0001654,NA,PALLIPALAYAM,"NO. 2, SANGAKIRI BYE PASS ROAD, PALLIPALAYAM ┬û 638 006 TIRUCHENGODE TALUK, NAMAKKAL DT",0,PALLIPALAYAM,ERODE,"TAMIL NADU"
"KARUR VYSYA BANK",KVBL0001653,636053017,"SALEM - GUGAI","445 TIRUCHY MAIN ROAD GUGAI,SALEM,TAMIL NADU,636006",0,SALEM,SALEM,"TAMIL NADU"
"KARUR VYSYA BANK",KVBL0001652,NA,MELUR,"NO1 SSV SALAI ,MELUR,TAMIL NADU,625106",0,MELUR,MADURAI,"TAMIL NADU"
"KARUR VYSYA BANK",KVBL0001651,600053046,"CHENNAI - SAIDAPET","NEW NO.22/2, POTTERS STREET,SAIDAPET,CHENNAI,CHENNAI,TAMIL NADU,600015",0,CHENNAI,CHENNAI,"TAMIL NADU"
"KARUR VYSYA BANK",KVBL0001650,600053045,"CHENNAI - PALLAVARAM","66C, PAMMAL MAIN ROAD,PALLAVARAM,CHENNAI ┬û 600 043.",0,CHENNAI,CHENNAI,"TAMIL NADU"
"KARUR VYSYA BANK",KVBL0001649,641053014,"COIMBATORE ┬û KUNIAMUTHUR","8/450 A, PALAKKAD MAIN ROAD, KUNIYAMUTHUR, COIMBATORE ┬û 641 008",0,KUNIAMUTHUR,COIMBATORE,"TAMIL NADU"
"KARUR VYSYA BANK",KVBL0001648,NA,MANNARGUDI,"D.NO:236, GANDHI ROAD, MANNARGUDI, TIRUVARUR DT",0,MANNARGUDI,THIRUVARUR,"TAMIL NADU"
"KARUR VYSYA BANK",KVBL0001647,620053011,MANAPPARAI,"77-G, MADURAI ROAD, KANKANIAR PETTAI, MANAPPARAI ┬û 621 306",0,MANAPPARAI,TIRUCHIRAPALLI,"TAMIL NADU"
"KARUR VYSYA BANK",KVBL0001646,NA,THURAIYUR,"SF. 235/7B, THURAIYUR _ TRICHY MAIN ROAD, THURAIYUR TK, THURAIYUR ┬û 621010, TRICHY DT",0,TURAIYUR,TIRUCHIRAPALLI,"TAMIL NADU"
"KARUR VYSYA BANK",KVBL0001645,NA,PANRUTI,"NO: 5/2,SRI RAMACHANDRA COMPLEX,OPP:BUS STAND,CUDDALORE ROAD,PANRUTI,PANRUTI,TAMIL NADU,607106",0,PANRUTI,CUDDALORE,"TAMIL NADU"
"KARUR VYSYA BANK",KVBL0001644,NA,"PARAMATHI VELUR","D.NO:311 B, OLD BY PASS ROAD, OPP: K.K. MATRICULATION HIGHER SECONDARY SCHOOL, PARAMATHY VELUR.",0,PARAMATHI,NAMAKKAL,"TAMIL NADU"
"KARUR VYSYA BANK",KVBL0001643,NA,AVINASHI,"NEW NO - 5/129,OLD NO. 2/39, B.S SUNDHARAM ST, AVINASHI - 641 654, TIRUPUR DIST.",0,AVANASHI,COIMBATORE,"TAMIL NADU"
"KARUR VYSYA BANK",KVBL0001642,638053020,ANTHIYUR,"294, BHAVANI ROAD, ANTHIYUR, ERODE DT ┬û 638 501",0,ANTHIYUR,ERODE,"TAMIL NADU"
"KARUR VYSYA BANK",KVBL0001641,638053019,CHENNIMALAI,"NO.12 ARUNAGIRINATHAR STREET, NEAR BUS STAND, CHENNIMALAI, ERODE",0,CHENNIMALAI,ERODE,"TAMIL NADU"
"KARUR VYSYA BANK",KVBL0001640,600053009,"KARUR THANTHONIMALAI","NO 520 C, DINDIGUL ROAD,OPP THANTHONIMALAI TEMPLE,THANTHONIMALAI,KARUR",0,KARUR,KARUR,"TAMIL NADU"
"KARUR VYSYA BANK",KVBL0001639,605053009,"CCO - PONDICHERRY","NO 74 THYAGARAJA STREET, FIRST FLOOR , PONDICHERRY 605001",0,PONDICHERRY,PONDICHERRY,PUDUCHERRY
"KARUR VYSYA BANK",KVBL0001638,NA,ARAVAKURICHI,"NO 28/1, DHARAPURAM ROAD,OPP TO BUS STAND,ARAVAKURICHI,KARUR ┬û 639201.",0,ARAVAKURICHI,KARUR,"TAMIL NADU"
"KARUR VYSYA BANK",KVBL0001637,635053102,TIRUPATHUR,"NO.2/15 PUDUPET ROAD,VELLORE DIST,TIRUPATTUR-635 601.",0,TIRUPATTUR,VELLORE,"TAMIL NADU"
"KARUR VYSYA BANK",KVBL0001636,627053007,SANKARANKOIL,"191A/266RAJAPALAYAM MAIN ROAD, SANKARANKOIL, SANKARANKOIL-627756",0,SANKARANKOIL,TIRUNELVALI,"TAMIL NADU"
"KARUR VYSYA BANK",KVBL0001635,620053010,"TRICHY - SRINIVASA NAGAR","SRINIVASA NAGAR BRANCH ,NO. 66 1D, KUMARAN NAGAR,VAYALUR MAIN ROAD,TRICHY - 620017.",0,TIRUCHIRAPPALLI,TIRUCHIRAPALLI,"TAMIL NADU"
"KARUR VYSYA BANK",KVBL0001634,722053002,ARIYALUR,"NO 25 D , MELA AGRAHARAM STREET, TRICHY MAIN ROAD, ARIYALUR-621704",0,ARIYALUR,VILLUPURAM,"TAMIL NADU"
"KARUR VYSYA BANK",KVBL0001633,NA,CHENGAM,"NEW NO,224 OLD NO,32/B,RAJA STREET,TIRUVANNAMALAI DT,CHENGAM-606701.",0,CHENGAM,TIRUVANNAMALAI,"TAMIL NADU"
"KARUR VYSYA BANK",KVBL0001632,600053043,CHENGALPATTU,"NO 17 DR.VARADARAJAN STREET, VEDACHALAM NAGAR, CHENGALPATTU-603001",0,CHENGALPATTU,KANCHEEPURAM,"TAMIL NADU"
"KARUR VYSYA BANK",KVBL0001631,639053008,"KARUR - VENGAMEDU","433 SALEM MAIN ROAD, VENGAMEDU, KARUR-639006",0,VENGAMEDU,KARUR,"TAMIL NADU"
"KARUR VYSYA BANK",KVBL0001630,636053009,JALAKANDAPURAM,"75 & 76, THARAMANGALAM MAIN ROAD,JALAKANDAPURAM,PIN 636501",0,JALAKANTAPURAM,SALEM,"TAMIL NADU"
"KARUR VYSYA BANK",KVBL0001629,600053044,"CHENNAI - PORUR","NO: 65/1, KUNDRATHUR ROAD, MADANANDAPURAM, PORUR, CHENNAI-600116",0,CHENNAI,CHENNAI,"TAMIL NADU"
"KARUR VYSYA BANK",KVBL0001628,641053013,ANNUR,"SF NO: 350/ 1 B, AVINASHI ROAD, ANNUR 641653",0,ANNUR,COIMBATORE,"TAMIL NADU"
"KARUR VYSYA BANK",KVBL0001627,624053501,ODDANCHATRAM,"369/10 DHARAPURAM ROAD, NEAR SRIKARTHI THEATER,ODDANCHATRAM, 624619",0,ODDANCHATRAM,DINDIGUL,"TAMIL NADU"
"KARUR VYSYA BANK",KVBL0001626,625053007,"MADURAI - PALANGANATHAM","67-68 TIRUPARANKUNDRAM ROAD, VASANTHA NAGAR NEAR AGRINI APARTMENTS, PALANGANATHAM, MADURAI-625003",0,MADURAI,MADURAI,"TAMIL NADU"
"KARUR VYSYA BANK",KVBL0001625,621053002,PERAMBALUR,"VENKATESAPURAM COLONY ,TIRUCHY MAIN ROAD,PERAMBALUR",0,PERAMBALUR,PERAMBALUR,"TAMIL NADU"
"KARUR VYSYA BANK",KVBL0001624,620053009,"TIRUCHY - TIRUVERUMBUR","2A, MULLAIVASAL,TRICHY - THANJAVUR MAIN ROAD,TIRUVERUMBUR,TRICHY - 620 013.",0,THIRUVERAMBUR,TIRUCHIRAPALLI,"TAMIL NADU"
"KARUR VYSYA BANK",KVBL0001623,614053102,PATTUKOTTAI,"148/6 BIG STREET , PATTUKKOTTAI , THANJAVUR DISTRICT , -614 601",0,PATTUKOTTAI,THANJAVUR,"TAMIL NADU"
"KARUR VYSYA BANK",KVBL0001622,636053008,RASIPURAM,"197BIG BAZAAR STREET, RASIPURAM, NAMAKKAL DT.-637408",0,RASIPURAM,NAMAKKAL,"TAMIL NADU"
"KARUR VYSYA BANK",KVBL0001621,600053041,"CHENNAI - PALAVAKKAM","1/180 SENTHUR COMPLEX, ANNA SALAI, PALAVAKKAM CHENNAI, CHENNAI-600041",0,CHENNAI,CHENNAI,"TAMIL NADU"
"KARUR VYSYA BANK",KVBL0001620,641053011,"COIMBATORE - RAMANATHAPURAM","D.NO.753TRICHY ROAD , NEAR IYYAPPAN TEMPLE, RAMANATHAPURAM , COIMBATORE-641045",0,COIMBATORE,COIMBATORE,"TAMIL NADU"
"KARUR VYSYA BANK",KVBL0001619,638053018,VEERAPPANCHATIRAM,"173/2 SATHY MAIN ROAD, NEAR GOVT GIRLS HIGHER SECONDARY SCHOOL, VEERAPPANCHATIRAM, ERODE-638004",0,"VEERAPPAN CHATRAM",ERODE,"TAMIL NADU"
"KARUR VYSYA BANK",KVBL0001617,600053039,"CHENNAI - SELAIYUR","85, VELACHERY MAIN ROAD ,NEXT TO IOC PETROL BUNK,RAJAKILPAKAM,CHENNAI - 600 073.",0,CHENNAI,CHENNAI,"TAMIL NADU"
"KARUR VYSYA BANK",KVBL0001616,600053038,"CHENNAI KK NAGAR","PLOT NO 777 DO NO :9, MUNUSAMY SALAI ( NEAR PONDICHERRY GUEST HOUSE), K K NAGAR WEST, CHENNAI-600078",0,CHENNAI,CHENNAI,"TAMIL NADU"
"KARUR VYSYA BANK",KVBL0001615,NA,"CHENNAI TAX CELL","37 I FLOOR, WHITES ROAD, CHENNAI-600 014",0,CHENNAI,CHENNAI,"TAMIL NADU"
"KARUR VYSYA BANK",KVBL0001614,600053042,"CHENNAI - MADIPAKKAM","NO.37/8, GOVINDH COMPLEX,GROUND FLOOR, MEDAVAKKAM MAIN ROAD,MADIPAKKAM,CHENNAI - 600 091",0,CHENNAI,CHENNAI,"TAMIL NADU"
"KARUR VYSYA BANK",KVBL0001613,436053102,DHARMAPURI,"NO.90-91 NETHAJI BYE-PASS ROAD, OPPOSITE TO HOTEL ADHIYAMAN PALACE, DHARMAPURI, -636701",0,DHARMAPURI,DHARMAPURI,"TAMIL NADU"
"KARUR VYSYA BANK",KVBL0001612,NA,"COCC CHENNAI","NO. 37, I FLOOR, WHITES ROAD,CHENNAI - 600 014",0,CHENNAI,CHENNAI,"TAMIL NADU"
"KARUR VYSYA BANK",KVBL0001611,610053002,THIRUVARUR,"19A EAST STREET, ., TIRUVARUR-610001",0,TIRUVARUR,TIRUVARUR,"TAMIL NADU"
"KARUR VYSYA BANK",KVBL0001610,600053037,"CHENNAI MEDAVAKKAM","248/1 A MEDAVAKKAM KOOT ROAD, NEAR IOC PETROL BUNK, VELACHERY TAMBARAM MAIN ROAD, CHENNAI-600100",0,CHENNAI,CHENNAI,"TAMIL NADU"
"KARUR VYSYA BANK",KVBL0001609,808053002,CHEYYAR,"NO. 43/7, ARCOT ROAD, (NEAR GOVT. HOSPITAL), CHEYYAR - 604 407",0,TIRUVATTIPURAM(CHEYYAR),TIRUVANNAMALAI,"TAMIL NADU"
"KARUR VYSYA BANK",KVBL0001608,625053006,"MADURAI ANNA NAGAR","HIG 42 (EIGHTY FEET ROAD), NEAR SUGUNA STORES, ANNANAGAR, MADURAI-625 020",0,MADURAI,MADURAI,"TAMIL NADU"
"KARUR VYSYA BANK",KVBL0001607,740053002,HOSUR,"S.N0 688(P), BYE PASS ROAD, HOSUR, KRISHNAGIRI DISTRICT 635 109",0,HOSUR,KRISHNAGIRI,"TAMIL NADU"
"KARUR VYSYA BANK",KVBL0001606,906053102,KALLAKURICHI,"NO 11, KUTCHEERY ROAD, KALLAKURICHI - 606 202,VILLUPURAM DISTRICT",0,KALLAKURICHI,VILLUPURAM,"TAMIL NADU"
"KARUR VYSYA BANK",KVBL0001605,641053010,"COIMBATORE VADAVALLI","R.K COMPLEX, 3/35-A MARUTHAMALAI MAIN ROAD, VADAVALLI, COIMBATORE-641 041",0,COIMBATORE,COIMBOTORE,"TAMIL NADU"
"KARUR VYSYA BANK",KVBL0001604,NA,"CHENNAI CLPC","SOUTHWING FIRST FLOOR, NO.37 WHITES ROAD, CHENNAI-600014",0,CHENNAI,CHENNAI,"TAMIL NADU"
"KARUR VYSYA BANK",KVBL0001603,804053002,GINGEE,"230-231, TIRUVANNAMALAI ROAD, NEAR TAMIL THIRUMAGAL THIRUMANA MANDABAM, GINGEE - 604202.",0,GINGEE,VILLUPURAM,"TAMIL NADU"
"KARUR VYSYA BANK",KVBL0001602,620053007,SURIYUR,"NEW ACADEMIC BLOCK, ANNA UNIVERSITY TRICHY CAMPUS, SURIYUR, TIRUCHIRAPALLI-620024",0,SURIYUR,TIRUCHIORAPPALLI,"TAMIL NADU"
"KARUR VYSYA BANK",KVBL0001601,638053001,"ERODE CCO","24. 1ST FLOOR, MUTHURANGAM STREET, ERODE, ERODE-638002",0,ERODE,ERODE,"TAMIL NADU"
"KARUR VYSYA BANK",KVBL0001519,NA,ANGAMALY,"NO VII 415 J21 TO J26 VIP TOWER T B JUNCTION ANGAMALY ERNAKULAM KERALA 683572",22654260,ERNAKULAM,ERNAKULAM,KERALA
"KARUR VYSYA BANK",KVBL0001518,NA,ERNAKULAM-PALARIVATTOM,"NO 40 1121 AND 40 1121A BETHESDA BUILDING OPP ST MARTIN DE PORRES CHURCH PALARIVATTOM ERNAKULAM KERALA",22665914,PALARIVATTOM,ERNAKULAM,KERALA
"KARUR VYSYA BANK",KVBL0001517,NA,IRINJALAKUDA,"KEEZHARA HOUSE,OPP TO PRIVATE BUS STAND,IRINJALAKUDA,THRISSUR,KERALA",22665914,THRISSUR,THRISSUR,KERALA
"KARUR VYSYA BANK",KVBL0001516,NA,"ERNAKULAM DIVISIONAL OFFICE","40/0145C, I FLOOR,AMIRTHA TOWERS,CONGRESS HOUSE JUNCTION,ERNAKULAM,KERALA",0,KOCHI,ERNAKULAM,KERALA
"KARUR VYSYA BANK",KVBL0001515,NA,THALASSERY,"BIG BAZZARSAIDAR PALLI ROAD  THALASSERY  KERALA",0,THALASSERY,CANNUR,KERALA
"KARUR VYSYA BANK",KVBL0001514,NA,KANNUR,"P.K.COMMERCIAL COMPLEX  OLD SUBWAY ROAD  MUNISHWARAN TEMPLE ROADKANNUR",0,CANNUR,CANNUR,KERALA
"KARUR VYSYA BANK",KVBL0001513,NA,PATHANAMTHITTA,"BUILDING NO.887/09-10,ST. PETERS JUNCTION, TK ROAD, PATHANAMTHITTA",0,PATHANAMTHITTA,PATHANAMTHITTA,KERALA
"KARUR VYSYA BANK",KVBL0001512,NA,TRIPUNITHURA,"PARAMESHWARA ENCLAVE,S N JUNCTION,VAIKOM RD, THRIPUNITHURA,ERNAKULAM-628 301",0,TRIPPUNITHURA,ERNAKULAM,KERALA
"KARUR VYSYA BANK",KVBL0001511,NA,EDAPALLY,"JACOB BUILDING,SURVEY NO. 696/6, 696/7,TOLL JUNCTION (NEAR CITY SILKS) EDAPALLI, ERNAKULAM ┬û 682 021",0,EDAPALLY,ERNAKULAM,KERALA
"KARUR VYSYA BANK",KVBL0001510,989053002,TIRUVALLA,"RELISH TOWERS GROUND FLOOR, S.C.S JUNCTION M.C ROAD, TIRUVALLA-689101, TIRUVALLA-689101",0,THIRUVALLA,PATHANAMTHITTA,KERALA
"KARUR VYSYA BANK",KVBL0001509,678053001,PALAKKAD,"KRISHNA TOWERS, S.NO 2851/ WARD NO 2 BLOCK NO 68,VELLAN STREET, SULTANPET,PALAG",0,PALAKKAD,PALAKKAD,KERALA
"KARUR VYSYA BANK",KVBL0001507,680053002,THRISSUR,"P.B.NO 171 NO. 25/1530  SMIS COMPLEX,KURUPPAM ROAD,THRISSUR-680001",0,THRISSUR,TRISSUR,KERALA
"KARUR VYSYA BANK",KVBL0001506,691053002,KOLLAM,"P.B.NO.371 XVII/2516 MOHAN├åS ENTERPRISES BUILDING,I FLOOR  MAIN ROAD,KOLLAM-691",0,KOLLAM,KOLLAM,KERALA
"KARUR VYSYA BANK",KVBL0001505,686053002,KOTTAYAM,"P.B. NO. 158  VIII/93  M.C. ROAD,BAKER JN.,KOTTAYAM-686001",0,KOTTAYAM,KOTTAYAM,KERALA
"KARUR VYSYA BANK",KVBL0001504,689053002,CHENGANNUR,"P.B. NO. 50  XIX/836  CMC,M.C.ROAD,CHENGANNUR-689121",0,CHENGANNUR,ALAPUZZHA,KERALA
"KARUR VYSYA BANK",KVBL0001503,682053002,ERNAKULAM,"P.B.NO.1704 40/1045C  I FLOOR,AMIRTHA TOWERS CONGRESS HOUSE JUNCTION,ERNAKULAM-",0,KOCHI,ERNAKULAM,KERALA
"KARUR VYSYA BANK",KVBL0001502,695053002,THIRUVANANTHAPURAM,"TC  25/1437  S.S.KOIL ROAD,THAMPANOOR,THIRUVANANTHAPURAM-695001",0,THIRUVANANTHAPURAM,TRIVANDRUM,KERALA
"KARUR VYSYA BANK",KVBL0001501,673053002,KOZHIKODE,"P.B. NO. 33 11/128  PROMOD BUILDINGS,GROUND. FLOOR CHEROOTY ROAD,KOZHIKODE-6730",0,CALICUT,KOZHIKODE,KERALA
"KARUR VYSYA BANK",KVBL0001500,NA,MADANAPALLE,"D.NO: 9-151,152,153,154,KAMMA STREET,OPP READING ROOM STREET,MADANAPALLE - 517 325 CHITTOOR DIST",0,MADANAPALLE,CHITTOOR,"ANDHRA PRADESH"
"KARUR VYSYA BANK",KVBL0001499,NA,"KURNOOL ┬û VENKATARAMANA COLONY","DOOR NO : 45/503/A1-A, ASHOK NAGAR, VENKATA RAMANA COLONY, KURNOOL - 518003",0,KURNOOL,KURNOOL,"ANDHRA PRADESH"
"KARUR VYSYA BANK",KVBL0001498,NA,"HYDERABAD - SANTHOSH NAGAR","PLOT NO. 9-6-195/1/1,SANTOSH NAGAR MAIN ROAD, NEAR TO YADAGIRI CINEMA TALKIES ,SANTOSH NAGAR ,HYDERABAD.A.P.",0,HYDERABAD,HYDERABAD,"ANDHRA PRADESH"
"KARUR VYSYA BANK",KVBL0001497,NA,BOBBILI,"D.NO.11-65& 11-66/1 AND 11-66/2,WARD NO.3,VAISHNAVA ST,BOBBILI",0,BOBBILI,VIZIANAGARAM,"ANDHRA PRADESH"
"KARUR VYSYA BANK",KVBL0001496,NA,KAVALI,"D.NO. 3-12-100, FIVE LAMP CENTRE, G.T. ROAD, KAVALI ┬û 524201. NELLORE DIST",0,KAVALI,NELLORE,"ANDHRA PRADESH"
"KARUR VYSYA BANK",KVBL0001495,NA,PARVATHIPURAM,"S.NO:425/4P, WARD NO:14, BESIDE MORE DEPARTMENTAL STORES, OPP: A P G V BANK, MAIN ROAD, PARVATHIPURAM ┬û 535 502., VIZIANAGARAM DT",0,PARVATHIPURAM,VIZIANAGARAM,"ANDHRA PRADESH"
"KARUR VYSYA BANK",KVBL0001494,NA,BHAVANIPURAM,"D.NO: 76-7-18 & 76-8-1,SWATHI ROAD,BHAVANIPURAM,VIJAYAWADA - 520 012 KRISHNA DIST",0,BHAVANIPURAM,KRISHNA,"ANDHRA PRADESH"
"KARUR VYSYA BANK",KVBL0001493,NA,TUNI,"SURVEY NO : 268/22, 1 A3,BALAJI ROAD,TUNI - 533 401",0,TUNI,"EAST GODAVARI","ANDHRA PRADESH"
"KARUR VYSYA BANK",KVBL0001492,NA,BAPATLA,"NO 10-2-134, GBC ROAD, OLD BUS STAND CENTRE, BAPATLA - 522101",0,BAPATLA,GUNTUR,"ANDHRA PRADESH"
"KARUR VYSYA BANK",KVBL0001491,NA,MIRYALGUDA,"H.NO 18 -1634, HANUMANPET SAGAR ROAD, MIRYALAGUDA, NALGONDA - 508207",0,MIRYALGUDA,NALGONDA,"ANDHRA PRADESH"
"KARUR VYSYA BANK",KVBL0001490,500053025,"HYDERABAD ┬û AMEERPET","H.NO.8-3-945, SHOP NO. G1, CHERMAS LANE, AMEERPET, HYDERABAD ┬û 73.",0,HYDERABAD,HYDERABAD,"ANDHRA PRADESH"
"KARUR VYSYA BANK",KVBL0001489,500053026,HYDERABAD-VANASTHALIPURAM,"GROUND FLOOR,SAKETH PLAZA,BLOCK NO.5 IN PRASANTH NAGAR,VANASTHALIPURAM,HYDERABAD,VANASTHALIPURAM,HYDERABAD,ANDHRA PRADESH,500070",0,HYDERABAD,HYDERABAD,"ANDHRA PRADESH"
"KARUR VYSYA BANK",KVBL0001488,NA,"D.O - VISAKHAPATNAM","DIVISIONAL OFFICE. FIRST FLOOR, D.NO: 30-10-1 PIDAPARTHI VARI STREET, DABA GARDENS, VISAKHAPATNAM-530 020",0,VISAKHAPATNAM,VISHAKHAPATNAM,"ANDHRA PRADESH"
"KARUR VYSYA BANK",KVBL0001487,NA,VUYYURU,"D.NO.8-151/1,GROUND FLOOR,OPP CHAITANYA TECHNO SCHOOL,KATURU ROAD,VUYYURU,VUYYURU,ANDHRA PRADESH,521165",0,VUYYURU,KRISHNA,"ANDHRA PRADESH"
"KARUR VYSYA BANK",KVBL0001486,532053102,PALASA,"PALASA CASHEW  MANUFACTURES ASSOCIATION BULG,INDIRA CHOWK, MAIN ROAD",0,PALASA,SRIKAKULAM,"ANDHRA PRADESH"
"KARUR VYSYA BANK",KVBL0001485,432053152,RAJAM,"OPP VASAVI NURSING HOUSE, SRIKAKULAM ROAD, RAJAM, SRIKAKULAM-532127",0,RAJAM,SRIKAKULAM,"ANDHRA PRADESH"
"KARUR VYSYA BANK",KVBL0001484,500053022,"HYDERABAD - MIYAPUR","PLOT NOS.46 TO 49, MADHAVA NAGAR COLONY KANDI COMPLEX, NEAR SAI RANGA THEATRE MIYAPUR, HYDERABAD-500049",0,HYDERABAD,HYDERABAD,"ANDHRA PRADESH"
"KARUR VYSYA BANK",KVBL0001483,500053024,"HYDERABAD - HABSIGUDA","D NO 1-3-20 SAIBABA MANSION, HABSIGUDA MAIN ROAD , HABSIGUDA, HYDERABAD-500007",0,HYDERABAD,HYDERABAD,"ANDHRA PRADESH"
"KARUR VYSYA BANK",KVBL0001482,500053023,"HYDERABAD - CHANDANAGAR","D NO 4-84FIRST FLOOR OPP. SWAGATH HOTEL, CHANDANAGAR SERILINGAMPALLI MANDAL, RANGA REDDY DISTRICT, HYDERABAD",0,HYDERABAD,HYDERABAD,"ANDHRA PRADESH"
"KARUR VYSYA BANK",KVBL0001481,500053021,"HYDERABAD - MEERPET","GROUND FLOOR S.NO.52 D-NO 4-202 TEEGALA RAM REDDY COLLEGE OF PHARMACY, BLOCK II MEERPET SAROOR NAGAR MANDAL",0,HYDERABAD,HYDERABAD,"ANDHRA PRADESH"
"KARUR VYSYA BANK",KVBL0001480,500053020,"HYDERABAD - MEHADIPATNAM","NO 12-2-799/8 ZAMA APARTMENTS,RATHI BOWLI, GUDI MALKAPUR PVR FLYOVER ,PILLAR NO . 26, MEHDIPATNAM, HYDERABAD-500028",0,HYDERABAD,HYDERABAD,"ANDHRA PRADESH"
"KARUR VYSYA BANK",KVBL0001479,539053202,SALUR,"D NO 28-6-335, MAIN ROAD, SALUR, SALUR-535591",0,SALUR,VIZIANAGARAM,"ANDHRA PRADESH"
"KARUR VYSYA BANK",KVBL0001478,930053302,AMALAPURAM,"DNO.3-2-136/1 AND 2 WARD NO.24, K N F ROAD , COLLEGE ROAD, AMALAPURAM,EAST GODAVARI DIST-533201",0,AMALAPURAM,"EAST GODAVARI","ANDHRA PRADESH"
"KARUR VYSYA BANK",KVBL0001477,522053602,NARASARAOPET,"D.NO: 9-10-5, BANK STREET, ARUNDEL PET, NARASARAOPET-522 601",0,NARASARAOPET,"BANGALORE RURAL",KARNATAKA
"KARUR VYSYA BANK",KVBL0001476,500053019,"HYDERABAD - HIMAYAT NAGAR","D NO 3-5-927, OPP TO CHAITANYA COLLEGE MAIN ROAD, HIMAYAT NAGAR, HYDERABAD-500 029",0,HYDERABAD,HYDERABAD,"ANDHRA PRADESH"
"KARUR VYSYA BANK",KVBL0001474,500053018,"HYDERABAD - NIZAMPET","PLOT NO: 21 AND 22 SY NO: 254, GOKUL CLASSIC NIZAMPET VILLAGE, QUTHBULLAPUR MANDALR.R.DISTRICT, HYDERABAD-500090",0,HYDERABAD,HYDERABAD,"ANDHRA PRADESH"
"KARUR VYSYA BANK",KVBL0001473,517053702,KUPPAM,"D.NO: 14-113/11 & 14-105/1, VAJRAVEL CHETTY STREET , KUPPAM",0,KUPPAM,CHITTOOR,"ANDHRA PRADESH"
"KARUR VYSYA BANK",KVBL0001472,530053003,VISAKHAPATNAM-GAJUWAKA,"D NO 8-13-1, RAVI SHANKAR ARCADE, NH-5 OLD GAJUWAKA, VISAKHAPATNAM-530 026",0,GAJUWAKA,VISHAKAPATNAM,"ANDHRA PRADESH"
"KARUR VYSYA BANK",KVBL0001471,500053016,BODUPPAL,"PLOT NO 2 GOVIND TOWERS, EAST HANUMAN NAGAR OPP HANUMAN TEMPLE, BODUPPAL MAIN ROAD, BODUPPAL-500039",0,BODUPPAL,"RANGA REDDY","ANDHRA PRADESH"
"KARUR VYSYA BANK",KVBL0001470,NA,KADIAM,"D NO 114/3, HIGH SCHOOL ROAD, KADIYAM, KADIYAM-533126",0,KADIAM,"EAST GODAVARI","ANDHRA PRADESH"
"KARUR VYSYA BANK",KVBL0001469,508053302,KODADA,"NEAR HUZURNAGAR CROSS ROAD, NH-9, KODADA-508206",0,KODADA,KRISHNA,"ANDHRA PRADESH"
"KARUR VYSYA BANK",KVBL0001468,821053402,MACHILIPATNAM,"D.NO.11/304, SIVALAYAM STREET, CHEMMANAGIRIPET, MACHILIPATNAM-521001",0,MACHILIPATNAM,KRISHNA,"ANDHRA PRADESH"
"KARUR VYSYA BANK",KVBL0001467,500053015,KUKATPALLY,"M I G - 190, IKON MANOR, K P H B COLONY, HYDERABAD-500072",0,KUKATPALLY,"RANGA REDDY","ANDHRA PRADESH"
"KARUR VYSYA BANK",KVBL0001466,500053016,"HYDERABAD PARAGATHI NAGAR","PLOT NO. 1256 & 1259, "" SATYABHAMA SRINILAYAM"", PRAGATHI NAGAR OPP: KUKATPALLY J.N.T.U. LANE, HYDERABAD-500 072.",0,HYDERABAD,"HYDERABAD URBAN","ANDHRA PRADESH"
"KARUR VYSYA BANK",KVBL0001465,500053014,"HYDERABAD AS RAO NAGAR","PLOT NO 1,2 PARGATHI NAGAR (KAPRA , HYDERABAD ,500032",0,HYDERABAD,"HYDERABAD URBAN","ANDHRA PRADESH"
"KARUR VYSYA BANK",KVBL0001464,NA,RAVULAPALEM,"MUDUNURI SURAPARAJU COMPLEX, NH 5 ROAD, RAVULAPALEM-533238 PH - 08855 255466",0,RAVULAPALEM,"EAST GODAVARI","ANDHRA PRADESH"
"KARUR VYSYA BANK",KVBL0001463,520053004,PORANKI,"NO 13-146 MG ROAD PORANKI CENTRE , PENAMALURU MANDALAM , PORANKI",0,PORANKI,KRISHNA,"ANDHRA PRADESH"
"KARUR VYSYA BANK",KVBL0001462,520053005,KANIKAPADU,"D.NO 2-104,MAIN ROAD , KANKIPADU 521151",0,KANKIPADU,KRISHNA,"ANDHRA PRADESH"
"KARUR VYSYA BANK",KVBL0001461,500053012,"HYDERABAD MANIKONDA","PLOT NO.33 FRIENDS COLONY, NEAR SEVEN TOMBS BEHIND DREAM VALLEY, PUPPALAGUDA MANIKONDA, HYDERABAD-500075",0,HYDERABAD,"HYDERABAD URBAN","ANDHRA PRADESH"
"KARUR VYSYA BANK",KVBL0001460,500053013,"HYDERABAD MALKAJGIRI","26-28CHANIKYAPURI COLONY ,SAFIGUDA , MALKAJGIRI HYDERABAD",0,HYDERABAD,"HYDERABAD URBAN","ANDHRA PRADESH"
"KARUR VYSYA BANK",KVBL0001459,504053002,ADILABAD,"DOOR NO. 3-2-24, STATION ROAD, ADILABAD-504001",0,ADILABAD,ADILABAD,"ANDHRA PRADESH"
"KARUR VYSYA BANK",KVBL0001458,532053002,SRIKAKULAM,"6-1-57&58,MURTHY NIVAS,PALAKONDA ROAD,NEAR KRISHNA PARK,SRIKAKULAM-532001",0,SRIKAKULAM,SRIKAKULAM,"ANDHRA PRADESH"
"KARUR VYSYA BANK",KVBL0001457,718053002,ADONI,"20/28-10, BESIDE RAJASHRI HOTEL,RAILWAY STATION ROAD,ADONI, KURNOOL - 518301",0,ADONI,KURNOOL,"ANDHRA PRADESH"
"KARUR VYSYA BANK",KVBL0001456,500053011,"HYDERABAD DILSUKH NAGAR","FLAT NO.G-789, GROUND FLOOR A BLOCK SRINAGAR COLONY, C B EASTERN HOMES DILSUKH NAGR, HYDERABAD-500060",0,HYDERABAD,"HYDERABAD URBAN","ANDHRA PRADESH"
"KARUR VYSYA BANK",KVBL0001455,500053000,"HYDERABAD DO","5-8-363 TO 365 IIND FLOOR, CHIRAG ALI LANE , ABIDS, HYDERABAD-500001",0,HYDERABAD,HYDERABAD,"ANDHRA PRADESH"
"KARUR VYSYA BANK",KVBL0001454,NA,"DISASTER RECOVERY SITE HYDERABAD","V FLOOR UNIT 3 BLOCK 1 CYBER PEARL HI TECH CITY MADHAPUR HYDERABAD",23122313,HYDERABAD,HYDERABAD,TELANGANA
"KARUR VYSYA BANK",KVBL0001453,520053103,"GUNTUR LAXMIPURAM","5-87-2 MAIN ROAD BESIDES E-SEVA,LAXMIPURAM,GUNTUR-522007",0,GUNTUR,GUNTUR,"ANDHRA PRADESH"
"KARUR VYSYA BANK",KVBL0001452,505053002,"KARIM NAGAR","DOOR NO. 2-6-283 & 284,C.V.R.N. ROAD KARIM NAGAR,KARIM NAGAR DISTRICT-1",0,KARIMNAGAR,"KARIM NAGAR","ANDHRA PRADESH"
"KARUR VYSYA BANK",KVBL0001451,500053009,"HYDERABAD JUBILEE HILLS","PLOT NO.265J,KEERTHI MANSION,ROAD NO. 10,JUBILEE HILLS BRANCH,HYDERABAD-500033",0,HYDERABAD,"HYDERABAD URBAN","ANDHRA PRADESH"
"KARUR VYSYA BANK",KVBL0001450,520053098,"VIJAYAWADA CCO","THE KARUR VYSYA BANK LTD, VIJAYAWADA CCO,27-16-81 BESANT ROAD,GOVERNORPET,VIJAYAWADA-520002",0,VIJAYAWADA,KRISHNA,"ANDHRA PRADESH"
"KARUR VYSYA BANK",KVBL0001449,503053002,NIZAMABAD,"7-1-61/1-H RAM GOPAL STREET,GODOWN ROAD,NIZAMABAD-1",0,NIZAMABAD,NIZAMABAD,"ANDHRA PRADESH"
"KARUR VYSYA BANK",KVBL0001448,500053008,"HYDERABAD KALYAN NAGAR","132  1448  PLOT NO.20 KALYAN NAGAR,PHASE III BORA BANDA,HYDERABAD-500018",0,HYDERABAD,"HYDERABAD URBAN","ANDHRA PRADESH"
"KARUR VYSYA BANK",KVBL0001446,500053005,"HYDERABAD SRNAGAR","ST.VINCENT HIGH SCHOOL,7-1-621/9  I FLOOR  SANJEEV REDDY NAGAR,HYDERABAD-500038",0,HYDERABAD,"HYDERABAD URBAN","ANDHRA PRADESH"
"KARUR VYSYA BANK",KVBL0001445,506053003,"WARANGAL HANAMKONDA","6-2-177 & 178  I FLOOR SAI KRISHNA COMPLEX,MAIN ROAD HANAMKONDA,WARANGAL-506001",0,WARANGAL,WARANGAL,"ANDHRA PRADESH"
"KARUR VYSYA BANK",KVBL0001443,500053007,"HYDERABAD ABIDS","5-9-208  ANAND COMPLEX,CHIRAG ALI LANE  ABIDS,HYDERABAD-500001",0,HYDERABAD,"HYDERABAD URBAN","ANDHRA PRADESH"
"KARUR VYSYA BANK",KVBL0001442,500053001,"HYDERABAD CCO","THE KARUR VYSYA BANK LTD, HYDERABAD CCO,1-2-597/2 LOWER TANK BUND ROAD,HYDERABAD,HYDERABAD-500029",0,HYDERABAD,"HYDERABAD URBAN","ANDHRA PRADESH"
"KARUR VYSYA BANK",KVBL0001441,520053002,"VIJAYAWADA BUNDER ROAD","38-8-46  M.G.ROAD,LABBIPET,VIJAYAWADA-520010",0,VIJAYAWADA,KRISHNA,"ANDHRA PRADESH"
"KARUR VYSYA BANK",KVBL0001440,517053003,"TIRUPATHI KHADHI COLONY","18-3-53/11  KHADHI COLONY,SHANTHI NAGAR,TIRUPATHI-517501",0,TIRUPATI,CHITTOR,"ANDHRA PRADESH"
"KARUR VYSYA BANK",KVBL0001439,500053006,"HYDERABAD NALLAKUNTA","D.NO.2-2-647/A-3 SAI BABA NAGAR COLONY,SHIVAM ROAD NEW NALLAKUNTA,HYDERABAD-500",0,HYDERABAD,"HYDERABAD URBAN","ANDHRA PRADESH"
"KARUR VYSYA BANK",KVBL0001438,934053002,ELURU,"D.NO.228-5-28  NERELLA RAJA├åS BUILDING,KANUKOLARAIVARI STREET POWERPET,ELURU-53",0,ELURU,"WEST GODAVARI","ANDHRA PRADESH"
"KARUR VYSYA BANK",KVBL0001437,520053202,TENALI,"P.B.NO. 22 2-20-5  NEHRU ROAD,GANDHI CHOWK,TENALI-522201",0,TENALI,GUNTUR,"ANDHRA PRADESH"
"KARUR VYSYA BANK",KVBL0001436,535053002,VIZIANGARAM,"P.B.NO.123 16-1-31 GROUND FLOOR,M.G.ROAD,VIZIANAGARAM-535002",0,VIZIANAGARAM,VIZIANAGARAM,"ANDHRA PRADESH"
"KARUR VYSYA BANK",KVBL0001435,818053002,NANDYAL,"P.B.NO.23  PLOT NO.2.41 SRINIVASA NAGAR,MAIN ROAD,NANDYAL-518501",0,NANDYAL,KURNOOL,"ANDHRA PRADESH"
"KARUR VYSYA BANK",KVBL0001434,515053002,ANANTAPUR,"P.B. NO. 48 11/170  SUBASH ROAD,,ANANTAPUR-515001",0,ANANTAPUR,ANANTPUR,"ANDHRA PRADESH"
"KARUR VYSYA BANK",KVBL0001433,507053002,KHAMMAM,"9-7-52  IST FLOOR,SURYA COMPLEX KAMAN BAZAAR,KHAMMAM-507001",0,KHAMMAM,KHAMMAM,"ANDHRA PRADESH"
"KARUR VYSYA BANK",KVBL0001432,530053001,"VISAKHAPATNAM MAIN","D.NO. 30-15-166 HIRAWAT CENTRE,DABA GARDENS,VISAKHAPATNAM-530020",0,VISAKHAPATNAM,VISHAKAPATNAM,"ANDHRA PRADESH"
"KARUR VYSYA BANK",KVBL0001431,834053002,BHIMAVARAM,"NO. 17-6-1  I FLOOR,NEW RTC COMPLEX ROAD,BHIMAVARAM-534201",0,BHIMAVARAM,"WEST GODAVARI","ANDHRA PRADESH"
"KARUR VYSYA BANK",KVBL0001430,833053002,MANDAPETA,"9-1-6  KAPILESWARAPURAM ROAD,RATHAM CENTRE,MANDAPETA-533308",0,MANDAPETA,"EAST GODAVARI","ANDHRA PRADESH"
"KARUR VYSYA BANK",KVBL0001429,736053002,JANGAREDDIGUDEM,"25-108/A  J.P.CENTRE,,JANGAREDDYGUDEM-534447",0,JANGAREDDIGUDEM,"WEST GODAVARI","ANDHRA PRADESH"
"KARUR VYSYA BANK",KVBL0001428,733053002,PEDDAPURAM,"19-1-217  MAIN ROAD,,PEDDAPURAM-533437",0,PEDDAPURAM,"EAST GODAVARI","ANDHRA PRADESH"
"KARUR VYSYA BANK",KVBL0001427,735053002,NIDADAVOLE,"11-5-11/1  RANGA COMPLEX,BUS STAND ROAD,NIDADAVOLU-534301",0,NIDADAVOLE,"WEST GODAVARI","ANDHRA PRADESH"
"KARUR VYSYA BANK",KVBL0001426,533053002,KAKINADA,"15 -26-1-15 16  TEMPLE STREET,,KAKINADA-533001",0,KAKINADA,"EAST GODAVARI","ANDHRA PRADESH"
"KARUR VYSYA BANK",KVBL0001425,520053099,"VIJAYAWADA DO","GAYATHRI NILIYAM, I FLOOR 38-8-46, LABBIPET M.G.ROAD, VIJAYAWADA-520010",0,VIJAYAWADA,KRISHNA,"ANDHRA PRADESH"
"KARUR VYSYA BANK",KVBL0001424,534053002,TADEPALLIGUDEM,"2-6-2/5 K.N.ROAD,,TADEPALLIGUDEM-534101",0,TADEPALLIGUDEM,"WEST GODAVARI","ANDHRA PRADESH"
"KARUR VYSYA BANK",KVBL0001423,915053002,HINDUPUR,"P.B.NO.21 16-1-25  M.F.ROAD,T.T.COMPLEX,HINDUPUR-515201",0,HINDUPUR,ANANTPUR,"ANDHRA PRADESH"
"KARUR VYSYA BANK",KVBL0001422,823053002,ONGOLE,"37-1-172  KURNOOL ROAD,I FLOOR  SARAVANA COMPLEX,ONGOLE-523002",0,ONGOLE,PRAKASAM,"ANDHRA PRADESH"
"KARUR VYSYA BANK",KVBL0001421,523053002,CHIRALA,"P.B. NO. 11  I FLOOR,NAVAYUGA COMPLEX R.R. ROAD,CHIRALA-523155",0,CHIRALA,PRAKASAM,"ANDHRA PRADESH"
"KARUR VYSYA BANK",KVBL0001420,531053002,ANAKAPALLE,"P.B. NO. 22 ANAKAPALLE MERCHANTS,ASSOCIATION BUILDINGS SRI KANYAKAPARAMESWARI T",0,ANAKAPALLE,VISHAKAPATNAM,"ANDHRA PRADESH"
"KARUR VYSYA BANK",KVBL0001419,734053002,PALAKOL,"P.B.NO.32 13-1-11/9  JETTY TANK ROAD,,PALAKOL-534260",0,PALAKOL,"WEST GODAVARI","ANDHRA PRADESH"
"KARUR VYSYA BANK",KVBL0001418,521053002,GUDIVADA,"P.B.NO. 18  9/309  R.K.COMPLEX,ELURU ROAD,GUDIVADA-521301",0,GUDIVADA,KRISHNA,"ANDHRA PRADESH"
"KARUR VYSYA BANK",KVBL0001417,530053002,"VISAKHAPATNAM PEDAWALTAIR","1-1-114/22  RAMALAKSHMI ESTATES,PEDAWALTAIR SHIVAJIPALEM ROAD,VISAKHAPATNAM-530",0,VISAKHAPATNAM,VISHAKAPATNAM,"ANDHRA PRADESH"
"KARUR VYSYA BANK",KVBL0001416,516053002,CUDDAPAH,"P.B.NO.26 19/59 CHENNAI TRUNK ROAD,,CUDDAPAH-516001",0,CUDDAPAH,CUDDAPAH,"ANDHRA PRADESH"
"KARUR VYSYA BANK",KVBL0001415,506053002,"WARANGAL MAIN","P.B.NO.19 12-1-21 22&23 S.V.N.ROAD,,WARANGAL-506002",0,WARANGAL,WARANGAL,"ANDHRA PRADESH"
"KARUR VYSYA BANK",KVBL0001414,520053003,"VIJAYAWADA I TOWN","P.B.NO.79 11-13-24  SUMMETAVARI STREET,,VIJAYAWADA-520001",0,VIJAYAWADA,KRISHNA,"ANDHRA PRADESH"
"KARUR VYSYA BANK",KVBL0001413,520053001,"VIJAYAWADA GOWERNORPET","P.B.NO.439 27-16-81 BESENT ROAD,GOVERNORPET,VIJAYAWADA-520002",0,VIJAYAWADA,KRISHNA,"ANDHRA PRADESH"
"KARUR VYSYA BANK",KVBL0001412,517053002,"TIRUPATHI MAIN","NO 631,MOSQUE ROAD,TIRUPATHI-517501",0,TIRUPATI,CHITTOR,"ANDHRA PRADESH"
"KARUR VYSYA BANK",KVBL0001411,817053002,"NAGARI  SATHRAWADA","NO.9-135(NEW NO.9/160) OPP TO JILLA PARSHID GIRLS HR. SEC SCHOOL,NEAR BUS STAND",0,NAGARI,CHITTOR,"ANDHRA PRADESH"
"KARUR VYSYA BANK",KVBL0001410,500053003,SECUNDERABAD,"NO 6549,RASHTRAPATHI ROAD,SECUNDERABAD-500003",0,"SECUNDERABAD CANTONMENT","HYDERABAD URBAN","ANDHRA PRADESH"
"KARUR VYSYA BANK",KVBL0001409,717053002,RALLABUDUGUR,"2-116  GANDHI ROAD,KUPPAM TK,RALLABUDUGUR-517423",0,RALLABADUGUR,CHITTOR,"ANDHRA PRADESH"
"KARUR VYSYA BANK",KVBL0001408,933053002,RAJAHMUNDRY,"10/7/25,RANGREEZPET,RAJAHMUNDRY-533101",0,RAJAHMUNDRY,"EAST GODAVARI","ANDHRA PRADESH"
"KARUR VYSYA BANK",KVBL0001407,816053002,PRODDATUR,"P.B.NO.7 8/137  GANDHI ROAD,,PRODDATUR-516360",0,PRODDATUR,CUDDAPAH,"ANDHRA PRADESH"
"KARUR VYSYA BANK",KVBL0001406,524053002,NELLORE,"P.B.NO. 37 15/78  BRINDAVANAM,,NELLORE-524001",0,NELLORE,NELLORE,"ANDHRA PRADESH"
"KARUR VYSYA BANK",KVBL0001405,518053002,KURNOOL,"P.B. NO. 40 42/116A  GOWL STREET,,KURNOOL-518001",0,KURNOOL,KURNOOL,"ANDHRA PRADESH"
"KARUR VYSYA BANK",KVBL0001404,500053002,"HYDERABAD MAIN","P.B.NO.517 5-2-972/1  NIZAMSHAHI ROAD,OSMANGUNJ,HYDERABAD-500195",0,HYDERABAD,"HYDERABAD URBAN","ANDHRA PRADESH"
"KARUR VYSYA BANK",KVBL0001403,520053102,GUNTUR,"P.B.NO 135 24-4-39  ELURU BAZAAR,,GUNTUR-522003",0,GUNTUR,GUNTUR,"ANDHRA PRADESH"
"KARUR VYSYA BANK",KVBL0001402,815053002,DHARMAVARAM,"P.B.NO 10  11/427  I FLOOR,SALE STREET JANARDHANA COMPLEX,DHARMAVARAM-515671",0,DHARMAVARAM,ANANTPUR,"ANDHRA PRADESH"
"KARUR VYSYA BANK",KVBL0001401,917053002,CHITTOOR,"P.B. NO. 63  VCR COMPLEX,D. NO.10-423 SESHAPIRAN STREET,CHITTOOR-517001",0,CHITTOOR,CHITTOR,"ANDHRA PRADESH"
"KARUR VYSYA BANK",KVBL0001354,NA,"BANGALORE YESHWANTHPUR","NO 50 1ST MAIN ROAD MATHIKERE ROAD YESHWANTHPUR BENGALURU KARNATAKA 560022",22654260,BANGALORE,BENGALURU,KARNATAKA
"KARUR VYSYA BANK",KVBL0001353,NA,"BANGALORE RAJA RAJESHWARI NAGAR","NO 471 B E M L 3RD STAGE HALLEGAVEDRA HALLI RAJA RAJESWARI NAGAR BENGALURU KARNATAKA 560098",22654260,BANGALORE,BENGALURU,KARNATAKA
"KARUR VYSYA BANK",KVBL0001352,NA,GAURIBIDANUR,"NVR COMPLEX OPP INDIAN OIL PETROL BUNK NO 938 836 BANGALORE HIGH ROAD GAURIBIDANUR CHIKBALLAPUR",22665914,GAURIBIDANUR,CHIKBALLAPUR,KARNATAKA
"KARUR VYSYA BANK",KVBL0001351,NA,CHINTAMANI,"DOOR NO 236 BANGALORE HIGH ROAD DOUBLE ROAD NEXT ANJANI THEATRE CHINTHAMANI",22665914,CHINTAMANI,KOLAR,KARNATAKA
"KARUR VYSYA BANK",KVBL0001350,NA,"BANGALORE-CHANDRA LAYOUT","NO 41 BASAVESHWARA HSBCS 2ND STAGE NEAR BMTC BUS DEPOT OF CHANDRA LAY OUT WARD NO 40",22665914,BANGALORE,BANGALORE,KARNATAKA
"KARUR VYSYA BANK",KVBL0001349,NA,"HOSKOTE E C","M V J MEDICAL COLLEGE AND HOSPITAL DANDUPALYA N H 4 30TH KM MILESTONE KOLATHUR P O HOSKOTE BANGALORE",22665914,HOSKOTE,HOSKOTE,KARNATAKA
"KARUR VYSYA BANK",KVBL0001348,NA,"BANGALORE - BANASHANKARI","PRABHA ARCADE NO 45 46 47 KATRIGUPPA MAIN ROAD VIVEKANANDA NAGAR BSK 3RD STAGE BANGALORE URBAN",22665914,BANASHANKARI,"BANGALORE URBAN",KARNATAKA
"KARUR VYSYA BANK",KVBL0001347,NA,DEVANAHALLI,"2161/920/3737/3737/25A, SANTHI NAGAR, 22ND WARD, DEVANAHALLI TOWN, BANGALORE RURAL, KARNATAKA, 562110",22665914,DEVANAHALLI,"BANGALORE RURAL",KARNATAKA
"KARUR VYSYA BANK",KVBL0001346,NA,"BANGALORE KENGERI","NO 9 OUTER RING ROAD SIRKI APARTMENTS SATELLITE TOWN BANGALORE URBAN",22665914,BANGALORE,"BANGAORE URBAN",KARNATAKA
"KARUR VYSYA BANK",KVBL0001345,NA,"BANGALORE - VIDYARANYAPURA","NO 707,HMT LAYOUT, MAIN ROAD, VIDYARANYAPURAM,BANGALORE  - 560097",22665914,BANGALORE,BANGALORE,KARNATAKA
"KARUR VYSYA BANK",KVBL0001344,NA,"BANGALORE - JP NAGAR","NO. 448, 9 TH CROSS, J P  NAGAR SECOND PHASE,BANGALORE URBAN,KARNATAKA",22665914,BANGALORE,BANGALORE,KARNATAKA
"KARUR VYSYA BANK",KVBL0001343,NA,"BANGALORE - V V PURAM","NO.6, SHRI VASAVI TEMPLE ROAD, VISWESHWARAM, NEAR SAJJA RAO CIRCLE, BANGALORE,KARNATAKA 560004",22665914,BANGALORE,BANGALORE,KARNATAKA
"KARUR VYSYA BANK",KVBL0001342,NA,"BANGALORE - RLPC","230/2, I FLOOR, 15TH CROSS, SAMPIGE ROAD,MALLESWARAM",0,BANGALORE,"BANGALORE URBAN",KARNATAKA
"KARUR VYSYA BANK",KVBL0001341,NA,NELAMANGALA,"SY NO:2060/2310,SUBHASH NAGAR NELAMANGALA NELAMANGALA TALUK BANGALORE KARNATAKA",0,NELAMANGALA,"BANGALORE RURAL",KARNATAKA
"KARUR VYSYA BANK",KVBL0001340,NA,"BANGALORE WHITEFILED","186, THUBRAHALLI MAIN ROAD, WHITEFIELD, BANGALORE-560066",0,BANGALORE,"BANGALORE URBAN",KARNATAKA
"KARUR VYSYA BANK",KVBL0001339,NA,HIRUYUR,"BALAJI PLAZA , MAIN ROAD, HIRIYUR, CHITRADURGA DISTRICT.",0,HIRIYUR,CHITRADURGA,KARNATAKA
"KARUR VYSYA BANK",KVBL0001337,NA,CHIKKABANAVARA,"MAIN ROAD NEAR KRISHNA COLLEGE OPP JINDAL SCHOOL  CHIKKABANAVARA",0,BANGALORE,"BANGALORE URBAN",KARNATAKA
"KARUR VYSYA BANK",KVBL0001336,NA,"BANGALORE - R T NAGAR","DOOR NO 5,6,DINNUR MAIN ROAD  R T NAGAR",0,BANGALORE,"BANGALORE URBAN",KARNATAKA
"KARUR VYSYA BANK",KVBL0001335,NA,CHITRADURGA,"CHITRADURGA,OPP.NEELAKANTESWARA TEMPLE, HOLALAKERE ROAD , 577501",0,CHITRADURGA,CHITRADURGA,KARNATAKA
"KARUR VYSYA BANK",KVBL0001334,NA,HEBBAGODI,"SY. NO. 71/2, GURUKRUPA COMPLEX,BHAVANI ROAD,HEBBAGODI - 560099",0,BANGALORE,"BANGALORE URBAN",KARNATAKA
"KARUR VYSYA BANK",KVBL0001333,560053017,"BANGALORE - HSR LAYOUT","NO.387,SRI RAJ ARCADE, 9TH MAIN,7TH SECTOR,HSR LAYOUT,BANGALORE",0,BANGALORE,"BANGALORE URBAN",KARNATAKA
"KARUR VYSYA BANK",KVBL0001332,NA,"BANGALORE - INDIRA NAGAR","NO.316,100 FEET ROAD,INDIRA NAGAR,BANGALORE-560038",0,BANGALORE,"BANGALORE URBAN",KARNATAKA
"KARUR VYSYA BANK",KVBL0001331,560053016,"BTM LAYOUT BANGALORE","NO. 12,""SHRAVANTHI BLUE CHIPS"",100 FT. RING ROAD,BTM LAYOUT I STAGE,BANGALORE - 560076.",0,BANGALORE,"BANGALORE URBAN",KARNATAKA
"KARUR VYSYA BANK",KVBL0001330,560053014,ATTIBELE,"NO.8 384/3A , OPP. KEB OFFICE SARJAPUR ROAD, ATTIBELE-562107",0,ATTIBELE,"BANGALORE URBAN",KARNATAKA
"KARUR VYSYA BANK",KVBL0001329,NA,CHANDAPUR,"SY NO:76,K.H.NO:1195/970,HOSUR ROAD,CHANDAPURA,ANEKKAL TALUK,BANGALORE,BANGALORE,KARNATAKA,560081",0,CHANDAPUR,GONDA,"UTTAR PRADESH"
"KARUR VYSYA BANK",KVBL0001328,583053002,HOSPET,"#241,  KLS COMPLEX, BELLARY ROAD CIRCLE, HOSPET - 583201.",0,HOSPET,BELLARY,KARNATAKA
"KARUR VYSYA BANK",KVBL0001327,571053552,RAMANAGARAM,"NO. 370/2806 & 371/2807 A,COURT ROAD,RAMANAGARA, 571511.",0,RAMANAGARAM,"BANGALORE RURAL",KARNATAKA
"KARUR VYSYA BANK",KVBL0001326,573053302,HASSAN,"NO.366 OPP.HOTEL SOUTHERN STAR, B.M.ROAD, HASSAN-573201",0,HASSAN,HASSAN,KARNATAKA
"KARUR VYSYA BANK",KVBL0001325,560053013,"BANGALORE BASAVANAGUDI","NO: 54 NAGASANDRA CIRCLE, SOUTH END ROAD, BASAVANGUDI, BANGALORE-560004",0,BANGALORE,"BANGALORE URBAN",KARNATAKA
"KARUR VYSYA BANK",KVBL0001324,585053002,GULBARGA,"NO. 76,77 SUPER MARKET AREA,GULBARGA,585 101",0,GULBARGA,GULBERGA,KARNATAKA
"KARUR VYSYA BANK",KVBL0001323,584053002,RAICHUR,"RAICHUR RICE MILLERS ASSOCIATION BUILDING, NEAR GANDHI CHOWK, LINGASUGUR ROAD, RAICHUR, KARNATAKA.-584102",0,RAICHUR,RAICHUR,KARNATAKA
"KARUR VYSYA BANK",KVBL0001322,560053012,HOSKOTE,"J.C.CIRCLE, K.R.ROAD , HOSKOTE - 562 114, HOSKOTE-562 114",0,HOSKOTE,"BANGALORE RURAL",KARNATAKA
"KARUR VYSYA BANK",KVBL0001321,560053011,DODDABALLAPUR,"#1 MUNICIPAL SHOPPING COMPLEX, OLD BUS STAND, DODDABALLAPUR, BANGALORE-561203",0,DODDABALLAPUR,"BANGALORE RURAL",KARNATAKA
"KARUR VYSYA BANK",KVBL0001320,983053002,GANGAVATHI,"ARIKERE RUDRAPPA COMPLEX , GROUND FLOOR , VEERSAVARKAR MARG , GANAGAVATHI , 583227",0,GANGAVATHI,KOPPAL,KARNATAKA
"KARUR VYSYA BANK",KVBL0001319,590053002,BELGAUM,"CTS NO 1835 SAI GANESH PLAZA, HANS TALKIS ROAD , BELGAUM 590002",0,BELGAUM,BELGAUM,KARNATAKA
"KARUR VYSYA BANK",KVBL0001318,977053002,SHIMOGA,"NO.509/1, BEDRE COMPLEX, NEHRU ROAD, SHIMOGA - 577201.",0,SHIMOGA,SHIMOGA,KARNATAKA
"KARUR VYSYA BANK",KVBL0001317,560053010,"BANGALORE KORAMANGALA","NO.46 6 TH BLOCK, 6 TH CROSS 100 FEET ROAD, KORAMANGALA, BANGALORE-560034",0,BANGALORE,"BANGALORE URBAN",KARNATAKA
"KARUR VYSYA BANK",KVBL0001316,583053002,BELLARY,"DR.S.K.PANDURANGA RAO BUILDING, 148 (1&2) BANGALORE ROAD, KALAMMA STREET, BELLARY-583101 08392 273876, 273878",0,BELLARY,BELLARY,KARNATAKA
"KARUR VYSYA BANK",KVBL0001315,560053009,"BANGALORE JAYANAGAR","396/85  SUBHASHRI BUILDING,GROUND FLOOR  3RD BLOCK 11TH MAIN  JAYANAGAR,BANGA",0,BANGALORE,"BANGALORE URBAN",KARNATAKA
"KARUR VYSYA BANK",KVBL0001314,575053002,MANGALORE,"P.B. NO. 748 4-6-535/536  ESSEL CHAMBERS,K.R.RAO ROAD KARANGALPADY,MANGALORE-57",0,MANGALORE,"DAKSHINA KANNADA",KARNATAKA
"KARUR VYSYA BANK",KVBL0001313,560053008,"BANGALORE ISRO LAYOUT","253  3RD MAIN  8TH CROSS,ISRO LAYOUT,BANGALORE-560078",0,BANGALORE,"BANGALORE URBAN",KARNATAKA
"KARUR VYSYA BANK",KVBL0001312,560053001,"BANGLORE CCO","THE KARUR VYSYA BANK LTD, BANGALORE CCO,1/1 STK PLAZA,HOSPITAL ROAD,BANGALORE-560053",0,BANGALORE,"BANGALORE URBAN",KARNATAKA
"KARUR VYSYA BANK",KVBL0001311,580053002,HUBLI,"P.B.NO. 45 2921/B UMACHAGI COMPLEX,KOPPIKAR ROAD,HUBLI-580020",0,HUBLI-DHARWAD,DHARWAD,KARNATAKA
"KARUR VYSYA BANK",KVBL0001310,560053007,"BANGLORE DO","230/2 I FLOOR, 15TH CROSS SAMPIGE ROAD, MALLESWARAM, BANGALORE-560003",0,BANGALORE,"BANGALORE URBAN",KARNATAKA
"KARUR VYSYA BANK",KVBL0001309,572053002,TUMKUR,"P.B.NO 48  I FLOOR,SANTRUPTI COMPLEX  VIVEKANANDA RD.,TUMKUR-572101",0,TUMKUR,TUMKUR,KARNATAKA
"KARUR VYSYA BANK",KVBL0001308,560053005,"BANGALORE RAJAJI NAGAR","869/C  17TH G MAIN ROAD,V BLOCK  RAJAJI NAGAR,BANGALORE-560010",0,BANGALORE,"BANGALORE URBAN",KARNATAKA
"KARUR VYSYA BANK",KVBL0001307,570053002,MYSORE,"P.B.NO.14 67-68  I FLOOR,DEVARAJ URS ROAD,MYSORE-570001",0,MYSORE,MYSORE,KARNATAKA
"KARUR VYSYA BANK",KVBL0001306,563053002,"KOLAR GOLD FIELDS","996 SOORAJ MULL CIRCLE,ROBERTSONPET,KOLAR GOLD FIELDS-563122",0,"KOLAR GOLD FIELDS",KOLAR,KARNATAKA
"KARUR VYSYA BANK",KVBL0001305,577053002,DAVANGERE,"P.B.NO 50  179/10  NARASARAJA ROAD,,DAVANGERE-577001",0,DAVANGERE,DAVANAGARE,KARNATAKA
"KARUR VYSYA BANK",KVBL0001304,560053006,"BANGALORE ULSOOR","P.B. NO. 881  13  SESHA SADAN,CAMBRIDGE ROAD  ULSOOR,BANGALORE-560008",0,BANGALORE,"BANGALORE URBAN",KARNATAKA
"KARUR VYSYA BANK",KVBL0001303,560053004,"BANGALORE MALLESWARAM","230/2  15TH CROSS,SAMPIGE ROAD MALLESWARAM,BANGALORE-560003",0,BANGALORE,"BANGALORE URBAN",KARNATAKA
"KARUR VYSYA BANK",KVBL0001302,560053003,"BANGALORE JCROAD","25,J.C.ROAD,BANGALORE-560002",0,BANGALORE,"BANGALORE URBAN",KARNATAKA
"KARUR VYSYA BANK",KVBL0001301,560053002,"BANGALORE MAIN","549,AVENUE ROAD,BANGALORE-560002",0,BANGALORE,"BANGALORE URBAN",KARNATAKA
"KARUR VYSYA BANK",KVBL0001298,622053002,PUDUKOTTAI,"SHREE BHAVAN , NO.5504/ P5505/ P , MARTHANDAPURAM FIRST STREET , PUDUKOTTAI-622001",0,PUDUKOTTAI,THOOTHKUDI,"TAMIL NADU"
"KARUR VYSYA BANK",KVBL0001297,636053006,ELAMPILLAI,"10-283/1, THIRUMALAI GOUNDER STREET, NEAR SANDHA PETTAI IDAPPADI ROAD, ELAMPILLAI-637 502",0,ELAMPILLAI,SALEM,"TAMIL NADU"
"KARUR VYSYA BANK",KVBL0001296,638053016,SIVAGIRI,"D.NO. 124 (OLD NO: 96), ANNA STREET MAIN ROAD, ERODE DISTRICT, SIVAGIRI-638109",0,SIVAGIRI,ERODE,"TAMIL NADU"
"KARUR VYSYA BANK",KVBL0001295,638053017,VELLAKOVIL,"NO 28, TRICHY KOVAI MAIN ROAD, VELLAKOVIL-638111",0,VELLAKOVIL,ERODE,"TAMIL NADU"
"KARUR VYSYA BANK",KVBL0001294,641053011,KOVAIPUDUR,"PLOT NO 10 N BLOCK, CBM COLLEGE MAIN ROAD, KOVAIPUDUR, COIMBATORE-641042",0,COIMBATORE,COIMBOTORE,"TAMIL NADU"
"KARUR VYSYA BANK",KVBL0001293,600053035,KELLAMBAKKAM,"PLOT NO. 12, MALAYAPPA MUDALI STREET, KELLAMBAKKAM , CHENNAI-603103",0,KELAMBAKKAM,KANCHEEPURAM,"TAMIL NADU"
"KARUR VYSYA BANK",KVBL0001292,NA,"DEMAT CELL","FIRST FLOOR,SOUTH WING,37,WHITES ROAD,CHENNAI 600014",22665914,CHENNAI,CHENNAI,"TAMIL NADU"
"KARUR VYSYA BANK",KVBL0001291,600053034,SRIPERUMPUDUR,"OLD NO: 77 NEW NO: 317, GANDHI ROAD, SRIPERUMPUDUR-602105",0,SRIPERUMBUDUR,KANCHEEPURAM,"TAMIL NADU"
"KARUR VYSYA BANK",KVBL0001289,600053033,"CHENNAI - ARUMBAKKAM","NO. 528, PH ROAD, ARUMBAKKAM,  CHENNAI-600 106. PHONE : 24759206, 24750067",0,CHENNAI,CHENNAI,"TAMIL NADU"
"KARUR VYSYA BANK",KVBL0001288,641053106,PALLADAM,"111/C TIRUCHY MAIN ROAD, OPP POLICE QUARTERS, PALLADAM , 641664",0,PALLADAM,COIMBOTORE,"TAMIL NADU"
"KARUR VYSYA BANK",KVBL0001287,620053006,"TRICHY-K.K NAGAR","NO 1&2 MANGAMMA SALAI , K.K.NAGAR , TIRUCHIRAPALLI , 620 021",0,TIRUCHIRAPPALLI,TIRUCHIORAPPALLI,"TAMIL NADU"
"KARUR VYSYA BANK",KVBL0001286,600053030,"CHENNAI SIGNAPERUMAL KOIL","23/13/B1 & 23/12/A2, G.S.T. ROAD, SINGAPERUMAL KOIL-603 204",0,SINGAPERUMALOIL,KANCHEEPURAM,"TAMIL NADU"
"KARUR VYSYA BANK",KVBL0001285,600053032,"CHENNAI RAJAANNAMALAIPURMA","17/5 KAMARAJAR SALAI, SRINIVASA AVENUE, RAJA ANNAMALAIPURAM, CHENNAI-600028",0,CHENNAI,CHENNAI,"TAMIL NADU"
"KARUR VYSYA BANK",KVBL0001284,600053031,"CHENNAI SHOLINGANALLUR","NO 52 IT HIGHWAY  SHOLINGANALLUR CHENNAI 600119",0,SHOLINGANALLUR,KANCHEEPURAM,"TAMIL NADU"
"KARUR VYSYA BANK",KVBL0001283,600053029,"CHENNAI EGMORE","THIRU COMPLEX,44/1, PANTHEON ROAD,EGMORE, CHENNAI - 600008",0,CHENNAI,CHENNAI,"TAMIL NADU"
"KARUR VYSYA BANK",KVBL0001282,638053004,"ERODE SAMPATH NAGAR","DNO : 45/2, PERUNDURI RD, OPPO RANA KALAYNA MANDAPAM, SAMPATH NAGAR, ERODE - 638011.",0,ERODE,ERODE,"TAMIL NADU"
"KARUR VYSYA BANK",KVBL0001281,600053028,"CHENNAI URAPAKKAM","OLD NO. 159 A, I A PART, NEW S NO 193/16, G S T ROAD, URAPAKKAM - 603202",0,TAMBARAM,KANCHEEPURAM,"TAMIL NADU"
"KARUR VYSYA BANK",KVBL0001280,600053027,"CHENNAI AMBATTUR","NO. 47, NORTH PARK STREET,VENKATAPURAM, AMBATTUR, CHENNAI - 600 053.",0,AMBATTUR,TIRUVALLUR,"TAMIL NADU"
"KARUR VYSYA BANK",KVBL0001279,641053009,SOMANUR,"272/1KARUMATHAMPATTI MAIN ROAD, SOMANUR, COIMBATORE-641668",0,SOMANUR,COIMBOTORE,"TAMIL NADU"
"KARUR VYSYA BANK",KVBL0001278,600053026,"CHENNAIASHOK NAGAR","22A, 7TH AVENUE, ASHOK NAGAR, CHENNAI - 600083",0,CHENNAI,CHENNAI,"TAMIL NADU"
"KARUR VYSYA BANK",KVBL0001277,335053002,KRISHNAGIRI,"48 ┬û L,  'K' THEATRE ROAD, OFF BANGALORE MAIN ROAD, KRISHNAGIRI - 635001",0,KRISHNAGIRI,KRISHNAGIRI,"TAMIL NADU"
"KARUR VYSYA BANK",KVBL0001276,620053005,TRICHYSRIRANGAM,"B-14/27,E.V.S. STREET, RENGA NAGAR, SRIRANGAM, TRICHY - 620006",0,TIRUCHIRAPPALLI,TIRUCHIORAPPALLI,"TAMIL NADU"
"KARUR VYSYA BANK",KVBL0001274,625053001,"MADURAI CCO","THE KARUR VYSYA BANK LTD, MADURAI GNANAOLIVUPURAM,""16  A.A. ROAD  ┬ôGAYATHRI ILLAM"",GNANAOLIVUPURAM,MADURAI-625016",0,MADURAI,MADURAI,"TAMIL NADU"
"KARUR VYSYA BANK",KVBL0001273,927053002,TENKASI,"156/43 A, RAHMANS PLAZA,NORTH MASI STREET, UTCHI MAKA KALIAMMAN KOIL WEST,TENKA",0,TENKASI,TIRUNELVELI,"TAMIL NADU"
"KARUR VYSYA BANK",KVBL0001272,639053001,"KARUR CCO","THE KARUR VYSYA BANK LTD, KARUR CCO,65 JAWAHAR BAZAAR,KARUR,KARUR-639001",0,KARUR,KARUR,"TAMIL NADU"
"KARUR VYSYA BANK",KVBL0001271,941053104,"TIRUPUR CCO","THE KARUR VYSYA BANK LTD, TIRUPUR CCO,315 I FLOOR,KUMARAN ROAD,TIRUPPUR-641601",0,TIRUPUR,COIMBOTORE,"TAMIL NADU"
"KARUR VYSYA BANK",KVBL0001270,641053007,"COIMBATORE GANAPATHY","VIGNESH TOWERS,1391- A  SATHY ROAD GANAPATHY,COIMBATORE-641002",0,COIMBATORE,COIMBOTORE,"TAMIL NADU"
"KARUR VYSYA BANK",KVBL0001269,620053001,"TIRUCHIRAPALLI CCO","THE KARUR VYSYA BANK LTD, TIRUCHIRAPALLI CCO,C-18 THIRD CROSS SRIRAM TOWERS,THILLAI NAGAR,TIRUCHIRAPALLI-620018",0,TIRUCHIRAPPALLI,TIRUCHIORAPPALLI,"TAMIL NADU"
"KARUR VYSYA BANK",KVBL0001268,636053001,"SALEM CCO","THE KARUR VYSYA BANK LTD, SALEM CCO,I FLOOR,45-46 CAR STREET,SALEM-0",0,SALEM,SALEM,"TAMIL NADU"
"KARUR VYSYA BANK",KVBL0001267,608053003,"CHIDAMBARAM EC","26, GOWTHAM COMPLEX, UNIV. MAIN RD, ANNAMALAI NGR, CHIDAMBARAM - 608002",0,CHIDAMBARAM,CUDDALORE,"TAMIL NADU"
"KARUR VYSYA BANK",KVBL0001266,607053002,NEYVELI,"BLOCK NO 16 AMARAVATHI BAZAAR COMPLEX,NEYVELI,NEYVELI-607801",0,NEYVELI,CUDDALORE,"TAMIL NADU"
"KARUR VYSYA BANK",KVBL0001265,600053025,"CHENNAI VELACHERY","SURVEY NO 344/11 & 12,,VELLACHERY TAMBARAM MAIN RD VELACHERY,CHENNAI-0",0,CHENNAI,CHENNAI,"TAMIL NADU"
"KARUR VYSYA BANK",KVBL0001264,600053024,"CHENNAI VALASARAVAKKAM","DOOR NO 138, ARCOD ROAD,,EAST KAMAKODI NAGAR EXTN, VALASARAVAKKAM,CHENNAI-60008",0,CHENNAI,CHENNAI,"TAMIL NADU"
"KARUR VYSYA BANK",KVBL0001263,600053023,"CHENNAI MOHAPPAIR","G-3, AMM TOWERS, PLOT NO 40 TIRUVALLUVAR RD,NEAR D.A.V SCHOOL, MOHAPPAIR,CHENNA",0,CHENNAI,CHENNAI,"TAMIL NADU"
"KARUR VYSYA BANK",KVBL0001262,620053004,"TIRUCHIRAPALLI THILLAI NAGAR","C-18 III CROSS SRIRAM TOWERS,THILLAI NAGAR,TIRUCHIRAPALLI-620018",0,TIRUCHIRAPPALLI,TIRUCHIORAPPALLI,"TAMIL NADU"
"KARUR VYSYA BANK",KVBL0001261,626053001,SIVAKASI,"34 NEW STREET,SIVAKASI,SIVAKASI-626123",0,SIVAKASI,VIRUDHUNAGAR,"TAMIL NADU"
"KARUR VYSYA BANK",KVBL0001259,639053004,"KARUR GANDHIGRAMAM","B-3  MAIN ROAD,,KARUR-639004",0,KARUR,KARUR,"TAMIL NADU"
"KARUR VYSYA BANK",KVBL0001258,625053005,"MADURAI TALLAKULAM","149  A & B  ALAYAM KOIL ROAD,TALLAKULAM,MADURAI-625002",0,MADURAI,MADURAI,"TAMIL NADU"
"KARUR VYSYA BANK",KVBL0001257,600053022,"CHENNAI ADYAR","154  LATTICE BRIDGE ROAD,ADYAR,CHENNAI-600020",0,CHENNAI,CHENNAI,"TAMIL NADU"
"KARUR VYSYA BANK",KVBL0001255,600053021,"CHENNAI NANGANALLUR","NO.7  48TH STREET,NANGANALLUR,CHENNAI-600061",0,CHENNAI,CHENNAI,"TAMIL NADU"
"KARUR VYSYA BANK",KVBL0001254,NA,"ATM CELL","338 UFFIZI COMPLEX - BASEMENT, AVINASHI ROAD, PEELAMEDU, COIMBATORE-641004",0,CHENNAI,CHENNAI,"TAMIL NADU"
"KARUR VYSYA BANK",KVBL0001253,641053006,"COIMBATORE SAIBABA COLONY","S.F.NO. 399 & 407 SUNDARAM ARCADE,N.S.R. ROAD  SAIBABA COLONY,COIMBATORE-6410",0,COIMBATORE,COIMBOTORE,"TAMIL NADU"
"KARUR VYSYA BANK",KVBL0001252,738053002,KANGEYAM,"P.B.NO.20 716 TIRUPUR ROAD,,KANGAYAM-638701",0,KANGEYAM,ERODE,"TAMIL NADU"
"KARUR VYSYA BANK",KVBL0001251,636053010,"SALEM DO","I FLOOR, 269-A BHARATHI STREET, SWARNAPURI ALAGAPURAM, SALEM-636 004",0,SALEM,SALEM,"TAMIL NADU"
"KARUR VYSYA BANK",KVBL0001250,600053020,"CHENNAI TEYNAMPET","KVB TOWERS GROUNT FLOOR,568  ANNA SALAI,CHENNAI-600018",0,CHENNAI,CHENNAI,"TAMIL NADU"
"KARUR VYSYA BANK",KVBL0001249,627053003,"TIRUNELVELI TOWN","156 157  I FLOOR  PREYAM PLAZA,WEST CAR STREET (GANDHI SQUARE),TIRUNELVELITOW",0,TIRUNELVELI,TIRUNELVELI,"TAMIL NADU"
"KARUR VYSYA BANK",KVBL0001248,600053019,"CHENNAI VELAPPAN CHAVADI","SAVEETHA DENTAL COLLEGE & HOSPITAL,112  POONAMALLE HIGH ROAD VELAPPAN CHAVADI,C",0,TIRUVERKADU,TIRUVALLUR,"TAMIL NADU"
"KARUR VYSYA BANK",KVBL0001247,638053006,"PERUNDURAI EC","KONGU ENGG.COLLEGE, THOPPUPALAYAM, PERUNDURAI - 638052.",0,PERUNDURAI,ERODE,"TAMIL NADU"
"KARUR VYSYA BANK",KVBL0001246,636053003,"SALEM ALAGAPURAM","4/41 BHARATHI STREET,SWARNAPURI,SALEM-636004",0,SALEM,SALEM,"TAMIL NADU"
"KARUR VYSYA BANK",KVBL0001245,641053005,"COIMBATORE KCT EC","KUMARAGURU COLLEGE OF TECHNOLOGY, CHINNAVEDAMPATTI, COIMBATORE - 641006.",0,COIMBATORE,COIMBOTORE,"TAMIL NADU"
"KARUR VYSYA BANK",KVBL0001244,600053018,"CHENNAI ST THOMAS MOUNT","ST. THOMAS HOSPITAL DEFENCE COLONY ROAD,ST. THOMAS MOUNT,CHENNAI-600016",0,"ST.THOMAS MNT.PALLAVARAM",KANCHEEPURAM,"TAMIL NADU"
"KARUR VYSYA BANK",KVBL0001241,641053102,"COIMBATORE CCO","577 I FLOOR, OPPANAKARA STREET, COIMBATORE-641001",0,COIMBATORE,COIMBOTORE,"TAMIL NADU"
"KARUR VYSYA BANK",KVBL0001240,609053001,KARAIKAL,"56  CHURCH STREET,I FLOOR,KARAIKAL-609602",0,KARAIKAL,KARAIKAL,PUDUCHERRY
"KARUR VYSYA BANK",KVBL0001239,600053017,"CHENNAI USMAN ROAD","107  USMAN ROAD,T.NAGAR,CHENNAI-600017",0,CHENNAI,CHENNAI,"TAMIL NADU"
"KARUR VYSYA BANK",KVBL0001238,826053002,RAJAPALAYAM,"P.B.NO.42 33  RAILWAY FEEDER ROAD,,RAJAPALAYAM-626117",0,RAJAPALAIYAM,VIRUDHUNAGAR,"TAMIL NADU"
"KARUR VYSYA BANK",KVBL0001237,926053002,VIRUDHUNAGAR,"DOOR NO.66,P.S.CHIDAMBARAM STREET, VIRUDHUNAGAR - 626 001",0,VIRUDHUNAGAR,VIRUDHUNAGAR,"TAMIL NADU"
"KARUR VYSYA BANK",KVBL0001236,400053000,"MUMBAI DO","954 APPA SAHEB MARATHE MARG, PRABHADEVI, MUMBAI-400025",0,MUMBAI,"GREATER MUMBAI",MAHARASHTRA
"KARUR VYSYA BANK",KVBL0001235,941053103,"TIRUPUR PNROAD BRANCH","NO 282, P.N.ROAD,TIRUPUR-641602",0,TIRUPUR,COIMBOTORE,"TAMIL NADU"
"KARUR VYSYA BANK",KVBL0001234,941053102,"TIRUPUR OVERSEAS BRANCH","P.B.NO 6 315  I FLOOR,KUMARAN ROAD,TIRUPUR-641601",0,TIRUPUR,COIMBOTORE,"TAMIL NADU"
"KARUR VYSYA BANK",KVBL0001233,630053002,KARAIKUDI,"NO. 167  SEKKALAI ROAD,NEAR HEAD POSTOFFICE,KARAIKUDI-630001",0,KARAIKUDI,SIVAGANGA,"TAMIL NADU"
"KARUR VYSYA BANK",KVBL0001232,809053002,MAYILADUTHURAI,"P.B.NO 11  I FLOOR A.R.NAJEEM COMPLEX,28/5  TOWN EXTENSION,MAYILADUTHURAI-60900",0,MAYURAM(MAYILADUTHURAI),NAGAPATTINAM,"TAMIL NADU"
"KARUR VYSYA BANK",KVBL0001231,604053002,TINDIVANAM,"16  PERUMAL KOIL SANNATHI STREET,,TINDIVANAM-604001",0,TINDIVANAM,VILLUPURAM,"TAMIL NADU"
"KARUR VYSYA BANK",KVBL0001230,605053002,PONDICHERRY,"P.B.NO 501 30  JAWAHARLAL NEHRU ST,,PONDICHERRY-605001",0,PONDICHERRY,PONDICHERRY,PUDUCHERRY
"KARUR VYSYA BANK",KVBL0001229,600053015,"CHENNAI PURASAWALKAM","51  GANGADEESWARAR KOIL STREET,PURASAWALKAM,CHENNAI-600084",0,CHENNAI,CHENNAI,"TAMIL NADU"
"KARUR VYSYA BANK",KVBL0001228,921053002,KANNANUR,"3/71 MAIN ROAD,,KANNANUR-621206",0,KANNANUR,TIRUCHIORAPPALLI,"TAMIL NADU"
"KARUR VYSYA BANK",KVBL0001227,931053002,ULLAVUR,"243  CHENGALPET- KANCHEEPURAM MAIN RD.,PALAYASEEVARAM - POST,ULLAVUR-631606",0,ULLAVUR,TIRUVALLUR,"TAMIL NADU"
"KARUR VYSYA BANK",KVBL0001226,324053002,ELUMALAI,"12-6-47A MAIN BAZAAR,,ELUMALAI-625535",0,ELUMALAI,MADURAI,"TAMIL NADU"
"KARUR VYSYA BANK",KVBL0001225,914053002,NEERMULAI,"D.NO. 181/273-12  MAIN ROAD,,NEERMULAI-614711",0,NEERMULAI,NAGAPATTINAM,"TAMIL NADU"
"KARUR VYSYA BANK",KVBL0001224,814053002,KOTHAMANGALAM,"2/222/6  KEERAMANGALAM ROAD,,KOTHAMANGALAM-614624",0,KOTHAMANGALAM,PUDUKKOTTAI,"TAMIL NADU"
"KARUR VYSYA BANK",KVBL0001223,625053007,"MADURAI DO","GAYATHRI ILLAM, 16 A.A.ROAD I FLOOR, GNANAOLIVUPURAM",0,MADURAI,MADURAI,"TAMIL NADU"
"KARUR VYSYA BANK",KVBL0001222,641053008,"COIMBATORE DO","577 OPPANAKARA STREET, II FLOOR, COIMBATORE-641001",0,COIMBATORE,COIMBATORE,"TAMIL NADU"
"KARUR VYSYA BANK",KVBL0001221,600053001,"CHENNAI CCO","KARUR VYSYA BANK, CENTRAL CLEARING OFFICE, 766 ANNA SALAISAKTHI TOWERS 6TH FLOOR, CHENNAI-600002",0,CHENNAI,CHENNAI,"TAMIL NADU"
"KARUR VYSYA BANK",KVBL0001220,925053003,UPPUKOTTAI,"D NO 144 BAZAAR STREET, UPPUKOTTAI 625534, THENI-625531",0,THENI,THENI,"TAMIL NADU"
"KARUR VYSYA BANK",KVBL0001219,600053014,"CHENNAI WHITES ROAD","P.B. NO. 5565 37  WHITES ROAD,,CHENNAI-600014",0,CHENNAI,CHENNAI,"TAMIL NADU"
"KARUR VYSYA BANK",KVBL0001218,339053002,VEERARAKKIYAM,"P.B.NO 1 316/10 KARUR-TRICHY MAIN ROAD,,VEERARAKKIYAMRS-639114",0,KARUR,KARUR,"TAMIL NADU"
"KARUR VYSYA BANK",KVBL0001217,998053002,METTUKADAI,"69  NALL ROAD,,METTUKADAI-638107",0,ERODE,ERODE,"TAMIL NADU"
"KARUR VYSYA BANK",KVBL0001214,851053002,PAPPANKULAM,"D.NO.803,,PAPPANKULAM-642204",0,PAPPANKULAM,COIMBOTORE,"TAMIL NADU"
"KARUR VYSYA BANK",KVBL0001213,600053012,"CHENNAI TNAGAR","62  SIR THEAGARAYA ROAD,T.NAGAR,CHENNAI-600017",0,CHENNAI,CHENNAI,"TAMIL NADU"
"KARUR VYSYA BANK",KVBL0001212,742053002,ERISANAMPATTY,"1/175 ANAIMALAI MAIN ROAD,DEVANURPUDUR EXCHANGE,ERISANAMPATTI-642207",0,ERISANAMPATTY,COIMBOTORE,"TAMIL NADU"
"KARUR VYSYA BANK",KVBL0001211,635053002,PERUMALPET,"17/44 BYE PASS ROAD,THENDRAL NAGAR  NEW TOWN PERUMALPET,VANIYAMBADI-635752",0,VANIYAMBADI,VELLORE,"TAMIL NADU"
"KARUR VYSYA BANK",KVBL0001210,806053002,VRIDHACHALAM,"P.B.NO.4 90  BAZAAR STREET,,VRIDHACAHLAM-606001",0,VRIDHACHALAM,CUDDALORE,"TAMIL NADU"
"KARUR VYSYA BANK",KVBL0001209,832053003,VRINCHIPURAM,"5/41  MAIN ROAD,,VIRINCHIPURAM-632104",0,VRINCHIPURAM,VELLORE,"TAMIL NADU"
"KARUR VYSYA BANK",KVBL0001208,805053002,VILLUPURAM,"P.B.NO.4 283  KAMARAJ STREET,,VILLUPURAM-605602",0,VILLUPURAM,VILLUPURAM,"TAMIL NADU"
"KARUR VYSYA BANK",KVBL0001206,832053002,VELLORE,"P.B.NO.438 72  MAIN BAZAAR,,VELLORE-638004",0,VELLORE,VELLORE,"TAMIL NADU"
"KARUR VYSYA BANK",KVBL0001205,437053002,VALAYAPATTI,"TRICHY MAIN ROAD,,VALAYAPATTI-637020",0,VALAYAPATTI,NAMAKKAL,"TAMIL NADU"
"KARUR VYSYA BANK",KVBL0001204,NA,THIRUPALATHURAI,"D NO 38/2,FURST FLOOR, RASTHA MUSLIM STREET, PAPANASAM TALUK, THANJAVUR DT, TAMIL NADU",22665914,PAPANASAM,THANJAVUR,"TAMIL NADU"
"KARUR VYSYA BANK",KVBL0001203,942053002,UDAMALPET,"2/3  KALPANA ROAD,COIMBATOREDIST .TN,UDAMALAPET-642126",0,UDUMALPET,COIMBOTORE,"TAMIL NADU"
"KARUR VYSYA BANK",KVBL0001202,628053002,TUTICORIN,"NO 159,VICTORIA STREET,TUTICORIN-628001",0,TUTICORIN,THOOTHKUDI,"TAMIL NADU"
"KARUR VYSYA BANK",KVBL0001201,206053002,THOTTIYAM,"440  MAIN ROAD,KALLAKURICHI - TK. (CHINNASELAM EXCHANGE),THOTTIYAM-606201",0,THOTTIYAM,VILLUPURAM,"TAMIL NADU"
"KARUR VYSYA BANK",KVBL0001199,600053016,"CHENNAI TIRUVERKADU","189  SANNATHI STREET,TIRUVERKADU,CHENNAI-600077",0,TIRUVERKADU,TIRUVALLUR,"TAMIL NADU"
"KARUR VYSYA BANK",KVBL0001198,606053002,TIRUVANNAMALAI,"P.B.NO. 3 22 SANNATHI STREET,,TIRUVANNAMALAI-606601",0,TIRUVANNAMALAI,TIRUVANNAMALAI,"TAMIL NADU"
"KARUR VYSYA BANK",KVBL0001197,941053101,"TIRUPUR MAIN","P.B.NO.113 315  KUMARAN ROAD,,TIRUPUR-641601",0,TIRUPUR,COIMBOTORE,"TAMIL NADU"
"KARUR VYSYA BANK",KVBL0001196,620053003,"TIRUCHIRAPALLI CANTONMENT","P.B.NO 157 5  BHARATHIAR SALAI,JENNE PLAZA  CONTONMENT,TIRUCHIRAPALLI-620001",0,TIRUCHIRAPPALLI,TIRUCHIORAPPALLI,"TAMIL NADU"
"KARUR VYSYA BANK",KVBL0001195,620053002,"TIRUCHIRAPALLI MAIN","P.B.NO 301 20 - 24 THERADIKADAI STREET,,TIRUCHIRAPALLI-620002",0,TIRUCHIRAPPALLI,TIRUCHIORAPPALLI,"TAMIL NADU"
"KARUR VYSYA BANK",KVBL0001194,937053002,TIRUCHENGODU,"P.B.NO 3 77&78 TEPPAKULAM STREET,SANKARI ROAD,TIRUCHENGODE-637211",0,TIRUCHENGODU,NAMAKKAL,"TAMIL NADU"
"KARUR VYSYA BANK",KVBL0001193,925053002,THENI,"P.B.NO 5 54 & 55I FLOOR,N.A.P.COMPLEX MADURAI ROAD,THENI-625531",0,THENI,THENI,"TAMIL NADU"
"KARUR VYSYA BANK",KVBL0001192,721053002,THATHAYYANGARPET,"4 NAMAKKAL ROAD,,THATHIENGARPET-621214",0,THATHAYYANGARPET,TIRUCHIORAPPALLI,"TAMIL NADU"
"KARUR VYSYA BANK",KVBL0001191,613053002,THANJAVUR,"P.B.NO.306 1460/2  SOUTH MAIN STREET,,THANJAVUR-613009",0,THANJAVUR,THANJAVUR,"TAMIL NADU"
"KARUR VYSYA BANK",KVBL0001190,600053011,"CHENNAI TAMBARAM","27-A  VENKATESA CHOUDRY STREET,WEST TAMBARAM,CHENNAI-600045",0,TAMBARAM,KANCHEEPURAM,"TAMIL NADU"
"KARUR VYSYA BANK",KVBL0001189,835053002,SAMALPATTI,"415  KRISHNAGIRI MAIN ROAD,,SAMALPATTI-635306",0,SAMALPATTI,KRISHNAGIRI,"TAMIL NADU"
"KARUR VYSYA BANK",KVBL0001188,238053002,SATHYAMANGALAM,"P.B.NO 1 112  BAZAAR STREET,,SATHYAMANGALAM-638401",0,SATHYAMANGALAM,ERODE,"TAMIL NADU"
"KARUR VYSYA BANK",KVBL0001187,636053002,"SALEM SHEVAPET","P.B.NO.- 296 322/323  MAIN ROAD,SHEVAPET,SALEM-636002",0,SALEM,SALEM,"TAMIL NADU"
"KARUR VYSYA BANK",KVBL0001186,636053005,"SALEM MAIN","P.B.NO.3 45-46 CAR STREET,,SALEM-636001",0,SALEM,SALEM,"TAMIL NADU"
"KARUR VYSYA BANK",KVBL0001185,623053002,RAMANATHAPURAM,"P.B.NO.5 SALAI STREET,,RAMANATHAPURAM-623501",0,RAMANATHAPURAM,RAMANATHAPURAM,"TAMIL NADU"
"KARUR VYSYA BANK",KVBL0001184,996053002,PUDUCHATRAM,"2/24  SRI RAJA MURUGAN COMPLEX,SALEM MAIN ROAD,PUDUCHATRAM-637018",0,PUDUCHATRAM,NAMAKKAL,"TAMIL NADU"
"KARUR VYSYA BANK",KVBL0001183,704053002,VANDAVASI,"NO.46  SANNATHI STREET,,VANDAVASHI-604408",0,VANDAVASI,TIRUVANNAMALAI,"TAMIL NADU"
"KARUR VYSYA BANK",KVBL0001182,706053002,POLUR,"41/2  3&4 CUDDALORE- CHITTOOR ROAD,,POLUR-606803",0,POLUR,TIRUVANNAMALAI,"TAMIL NADU"
"KARUR VYSYA BANK",KVBL0001181,642053002,POLLACHI,"81-A  VENKATRAMANAN IYER STREET,I FLOOR,POLLACHI-642001",0,POLLACHI,COIMBOTORE,"TAMIL NADU"
"KARUR VYSYA BANK",KVBL0001180,106053002,PERUNDURAIPATTU,"16  PILLAIYAR KOIL ST,,PERUNDURAIPATTU-606753",0,PERUNDURAIPATTU,TIRUVANNAMALAI,"TAMIL NADU"
"KARUR VYSYA BANK",KVBL0001179,638053003,PERUNDURAI,"155,ERODE ROAD,PERUNDURAI-638052",0,PERUNDURAI,ERODE,"TAMIL NADU"
"KARUR VYSYA BANK",KVBL0001177,637053003,"NAMAKKAL WEST","6/68  ANNA NAGAR,PARAMATHY ROAD,NAMAKKAL-637002",0,NAMAKKAL,NAMAKKAL,"TAMIL NADU"
"KARUR VYSYA BANK",KVBL0001176,825053002,PERIYAKULAM,"P.B.NO.9 FIRST FLOOR,NO.3  VASANTH VIHAR BUILDING CUMBUM ROAD,PERIYAKULAM-62560",0,PERIYAKULAM,THENI,"TAMIL NADU"
"KARUR VYSYA BANK",KVBL0001175,837053002,PANDAMANGALAM,"JEDARPALAYAM MAIN ROAD,,PAUNDAMANGALAM-637208",0,PANDAMANGALAM,NAMAKKAL,"TAMIL NADU"
"KARUR VYSYA BANK",KVBL0001174,627053001,PALAYAMKOTTAI,"NO 30,TRIVANDRUM ROAD,PALAYAMKOTTAI-627002",0,PALAYAMKOTTAI,TIRUNELVELI,"TAMIL NADU"
"KARUR VYSYA BANK",KVBL0001173,924053002,PALANI,"3 GANDHI ROAD,,PALANI-624601",0,PALANI,DINDIGUL,"TAMIL NADU"
"KARUR VYSYA BANK",KVBL0001172,337053002,"VELLA PILLAIYAR KOIL","155 MAIN ROAD,ALAVAIPAAY (PO.) RASIPURAM TK,VELLAPILLAIYARKOIL-637505",0,NAMAKKAL,NAMAKKAL,"TAMIL NADU"
"KARUR VYSYA BANK",KVBL0001171,424053002,NEIKARAPATTI,"6 BAZAAR STREET,,NEIKARAPATTY-624615",0,NEIKARAPATTI,DINDIGUL,"TAMIL NADU"
"KARUR VYSYA BANK",KVBL0001170,637053002,"NAMAKKAL MAIN","P.B. NO. 4 52  RENGAR SANNATHI ST,,NAMAKKAL-637001",0,NAMAKKAL,NAMAKKAL,"TAMIL NADU"
"KARUR VYSYA BANK",KVBL0001169,537053002,NAMAGIRIPETTAI,"469/1  ATTUR MAIN ROAD,,NAMAGIRPET-637406",0,NAMAGIRIPETTAI,NAMAKKAL,"TAMIL NADU"
"KARUR VYSYA BANK",KVBL0001168,629053002,NAGERCOIL,"47 COURT ROAD,KALLUVEETTIL SHYRAS CENTER,NAGERCOIL-629001",0,NAGERCOIL,KANNIYAKUMARI,"TAMIL NADU"
"KARUR VYSYA BANK",KVBL0001167,611053002,NAGAPATTINAM,"5/1  GROUND FLOOR,NADUVAR KEELA VEETHI,NAGAPATTINAM-611001",0,NAGAPATTINAM,NAGAPATTINAM,"TAMIL NADU"
"KARUR VYSYA BANK",KVBL0001166,621053002,MUSIRI,"P.B.NO. 4 6  THURAIYUR ROAD,,MUSIRI-621211",0,MUSIRI,TIRUCHIORAPPALLI,"TAMIL NADU"
"KARUR VYSYA BANK",KVBL0001165,538053002,MULANUR,"155  KARUR MAIN ROAD,,MULANUR-638106",0,MULANUR,ERODE,"TAMIL NADU"
"KARUR VYSYA BANK",KVBL0001164,936053002,"METTUR DAM","P.B.NO. 6  I FLOOR EMKEYES COMPLEX,14-1/77 B  SALEM MAIN ROAD RAMAN NAGAR- POST",0,METTUR,SALEM,"TAMIL NADU"
"KARUR VYSYA BANK",KVBL0001162,336053002,MANGALAPURAM,"1/7  ATTUR - RASIPURAM MAIN ROAD,,MANGALAPURAM-636202",0,MANGALAPURAM,NAMAKKAL,"TAMIL NADU"
"KARUR VYSYA BANK",KVBL0001161,625053003,"MADURAI SOUTH","P.B. NO. 174 159  SOUTH MASI STREET,,MADURAI-625001",0,MADURAI,MADURAI,"TAMIL NADU"
"KARUR VYSYA BANK",KVBL0001160,625053004,"MADURAI GNANAOLIVUPURAM","16  A.A. ROAD  GAYATHRI ILLAM"""""",GNANAOLIVUPURAM,MADURAI-625016",0,MADURAI,MADURAI,"TAMIL NADU"
"KARUR VYSYA BANK",KVBL0001159,625053002,"MADURAI MAIN","P.B. NO. 28 74  AMMAN SANNATHI STREET,,MADURAI-625001",0,MADURAI,MADURAI,"TAMIL NADU"
"KARUR VYSYA BANK",KVBL0001158,600053013,"CHENNAI TRIPLICANE","205  TRIPLICANE HIGH ROAD,TRIPLICANE,CHENNAI-600005",0,CHENNAI,CHENNAI,"TAMIL NADU"
"KARUR VYSYA BANK",KVBL0001157,600053009,"CHENNAI ROYAPURAM","NO. 2  MANNARSWAMY KOVIL STREET,ROYAPURAM,CHENNAI-600013",0,CHENNAI,CHENNAI,"TAMIL NADU"
"KARUR VYSYA BANK",KVBL0001156,600053008,"CHENNAI MYLAPORE","P.B. NO. 607 85  KUTCHERRY ROAD,MYLAPORE,CHENNAI-600004",0,CHENNAI,CHENNAI,"TAMIL NADU"
"KARUR VYSYA BANK",KVBL0001155,600053007,"CHENNAI KODAMBAKKAM","23  UNITED INDIA COLONY,IST MAIN ROAD KODAMBAKKAM,CHENNAI-600024",0,CHENNAI,CHENNAI,"TAMIL NADU"
"KARUR VYSYA BANK",KVBL0001154,600053005,"CHENNAI ANNA NAGAR","NO.6 AC BLOCK NEXT TO RASI SILKS, II AVENUE ANNA NAGAR,CHENNAI-600040",0,CHENNAI,CHENNAI,"TAMIL NADU"
"KARUR VYSYA BANK",KVBL0001153,600053010,"CHENNAI MAIN","P.B. NO.1980 46  ARMENIAN STREET,,CHENNAI-600001",0,CHENNAI,CHENNAI,"TAMIL NADU"
"KARUR VYSYA BANK",KVBL0001152,639053003,"KARUR WEST LNS","68  ERODE ROAD,L.N.S.POST,KARUR-639002",0,KARUR,KARUR,"TAMIL NADU"
"KARUR VYSYA BANK",KVBL0001151,612053002,KUMBAKONAM,"129,T.S.R.BIG STREET,KUMBAKONAM-612001",0,KUMBAKONAM,THANJAVUR,"TAMIL NADU"
"KARUR VYSYA BANK",KVBL0001150,839053002,KULITHALAI,"P.B. NO. 3 4  ANDAR MAIN ROAD,,KULITHALAI-639104",0,KULITHALAI,KARUR,"TAMIL NADU"
"KARUR VYSYA BANK",KVBL0001149,928053002,KOVILPATTI,"P.B. NO. 27 868  MAIN ROAD,,KOVILPATTI-628501",0,KOVILPATTI,THOOTHKUDI,"TAMIL NADU"
"KARUR VYSYA BANK",KVBL0001148,425053002,KOMBAI,"P.B. NO. 3 60-A  GANDHIJI STREET,,KOMBAI-625522",0,KOMBAI,THENI,"TAMIL NADU"
"KARUR VYSYA BANK",KVBL0001147,838053002,KOMARAPALAYAM,"P.B.NO.202 155-156  SALEM MAIN ROAD,,KOMARAPALAYAM-638183",0,KOMARAPALAYAM,NAMAKKAL,"TAMIL NADU"
"KARUR VYSYA BANK",KVBL0001146,442053002,KOZHUMAM,"8/24 NEHRU STREET,COIMBATORE DIST. TN,KOLUMAM-642204",0,KOZHUMAM,COIMBOTORE,"TAMIL NADU"
"KARUR VYSYA BANK",KVBL0001145,995053002,KOLATHUPALAYAM,"80 BHAGAVATHI AMMAN KOIL STREET,KOLATHUPALAYAM,UNJALUR-638152",0,KOLATHUPALAYAM,ERODE,"TAMIL NADU"
"KARUR VYSYA BANK",KVBL0001144,338053002,KAVINDAPADY,"8 SATHY ROAD,KAVINDAPADI,KAVINDAPADI-638455",0,KAVINDAPADY,ERODE,"TAMIL NADU"
"KARUR VYSYA BANK",KVBL0001143,639053005,"KARUR CENTRAL","P.B.NO.92 65  JAWAHAR BAZAAR,,KARUR-639001",0,KARUR,KARUR,"TAMIL NADU"
"KARUR VYSYA BANK",KVBL0001142,639053002,"KARUR MAIN","P.B.NO 91 633-637  JAWAHAR BAZAAR,,KARUR-639001",0,KARUR,KARUR,"TAMIL NADU"
"KARUR VYSYA BANK",KVBL0001141,536053002,KARUPPUR,"5/3-29-B MAIN ROAD,,KARUPPUR-636012",0,KARUPPUR,SALEM,"TAMIL NADU"
"KARUR VYSYA BANK",KVBL0001140,236053002,KARIPATTI,"1/50  CUDDALORE MAIN ROAD,SALEMDIST,TN,KARIPATTI-636106",0,KARIPATTI,SALEM,"TAMIL NADU"
"KARUR VYSYA BANK",KVBL0001139,932053002,KANIYAMBADI,"232  BAZAAR STREET,,KANIYAMBADI-632102",0,KANIYAMBADI,VELLORE,"TAMIL NADU"
"KARUR VYSYA BANK",KVBL0001138,631053002,KANCHEEPURAM,"P.B.NO. 15  18&18-A T.K.NAMBI STREET,,KANCHEEPURAM-631501",0,KANCHIPURAM,KANCHEEPURAM,"TAMIL NADU"
"KARUR VYSYA BANK",KVBL0001137,935053002,KAMBAINALLUR,"37  BAZAAR STREET,,KAMBAINALLORE-635202",0,KAMBAINALLUR,DHARMAPURI,"TAMIL NADU"
"KARUR VYSYA BANK",KVBL0001136,137053002,KALAPPANAICKENPATTI,"42  MAIN ROAD,,KALAPPANAICKENPATTI-637404",0,KALAPPANAICKENPATTI,NAMAKKAL,"TAMIL NADU"
"KARUR VYSYA BANK",KVBL0001135,705053002,KADUVANUR,"1/68-A SIVANKOIL STREET,KADUVANUR- 605 801,SANKARAPURAMTK-0",0,KADUVANUR,VILLUPURAM,"TAMIL NADU"
"KARUR VYSYA BANK",KVBL0001134,739053002,JEEYAPURAM,"4/30-2 WEST ST.,THIRUPARAITHURAI EXCHANGE,JEEYAPURAM-639101",0,SIRUGAMANI,TIRUCHIORAPPALLI,"TAMIL NADU"
"KARUR VYSYA BANK",KVBL0001133,737053002,IDAPPADI,"P.B.NO.8 35  BAZAAR STREET,,IDAPPADI-637101",0,IDAPPADI,SALEM,"TAMIL NADU"
"KARUR VYSYA BANK",KVBL0001132,525053002,GUDALUR,"32  MAIN BAZAR,,GUDALUR-625518",0,GUDALUR,THENI,"TAMIL NADU"
"KARUR VYSYA BANK",KVBL0001131,938053002,GOBICHETTIPALAYAM,"P.B.NO.29 21 CUTCHERY ROAD,,GOBICHETTIPALAYAM-638452",0,GOBICHETTIPALAYAM,ERODE,"TAMIL NADU"
"KARUR VYSYA BANK",KVBL0001130,850053002,GANAPATHIPALAYAM,"4/90 NAAL ROAD,PASUR EXCHANGE,GANAPATHIPALAYAM-638153",0,GANAPATHIPALAYAM,ERODE,"TAMIL NADU"
"KARUR VYSYA BANK",KVBL0001129,638053002,ERODE,"24  MUTHURANGAM STREET,,ERODE-638001",0,ERODE,ERODE,"TAMIL NADU"
"KARUR VYSYA BANK",KVBL0001128,624053002,DINDIGUL,"P.B.NO.21 NO.7  VARADARAJ COMPLEX,MAIN ROAD,DINDIGUL-624001",0,DINDIGUL,DINDIGUL,"TAMIL NADU"
"KARUR VYSYA BANK",KVBL0001127,642053102,DHULLY,"5/70 THIRUMOORTHI MALAI ROAD, DHULLY - 642 112, UDAMALPET TALUK TIRUPUR DISTRICT, DHULLY-642112",0,UDUMALPET,COIMBATORE,"TAMIL NADU"
"KARUR VYSYA BANK",KVBL0001126,138053002,DHARAPURAM,"NO  139,BIG BAZAAR STREET,DHARAPURAM-638656",0,DHARAPURAM,ERODE,"TAMIL NADU"
"KARUR VYSYA BANK",KVBL0001125,325053002,CUMBUM,"P.B. NO.9  I FLOOR,47  VELAPPAR KOIL ST.,CUMBUM-625516",0,CUMBUM,THENI,"TAMIL NADU"
"KARUR VYSYA BANK",KVBL0001124,807053002,CUDDALORE,"P.B.NO.5 30  CAR STREET,,CUDDALORE-607002",0,CUDDALORE,CUDDALORE,"TAMIL NADU"
"KARUR VYSYA BANK",KVBL0001123,643053002,COONOOR,"6  ALLAI SAIT COMPOUND,NEAR LAWLEY HOSPITAL MOUNT ROAD,COONOOR-643102",0,COONOOR,NILGIRIS,"TAMIL NADU"
"KARUR VYSYA BANK",KVBL0001122,641053004,"COIMBATORE RSPURAM","P.B. NO. 1033 249-A  THIRUVENKATASAMY ROAD (EAST),R.S.PURAM,COIMBATORE-641002",0,COIMBATORE,COIMBOTORE,"TAMIL NADU"
"KARUR VYSYA BANK",KVBL0001121,641053003,"COIMBATORE DR NANJAPPA ROAD","P.B. NO. 3825 483  DR. NANJAPPA ROAD,,COIMBATORE-641018",0,COIMBATORE,COIMBOTORE,"TAMIL NADU"
"KARUR VYSYA BANK",KVBL0001120,641053002,"COIMBATORE MAIN","577  OPPANAKARA STREET,,COIMBATORE-641001",0,COIMBATORE,COIMBOTORE,"TAMIL NADU"
"KARUR VYSYA BANK",KVBL0001119,600053006,"CHENNAI CHROMEPET","117  STATION ROAD,CHROMEPET,CHENNAI-600044",0,TAMBARAM,KANCHEEPURAM,"TAMIL NADU"
"KARUR VYSYA BANK",KVBL0001118,225053002,CHINNAMANUR,"215/275  MAIN ROAD,,CHINNAMANUR-625515",0,CHINNAMANUR,THENI,"TAMIL NADU"
"KARUR VYSYA BANK",KVBL0001117,724053002,CHINNALAPATTI,"P.B. NO. 13 11-3-36  KAMARAJAR STREET,,CHINNALAPATTI-624301",0,CHINNALAPATTI,DINDIGUL,"TAMIL NADU"
"KARUR VYSYA BANK",KVBL0001116,608053002,CHIDAMBARAM,"36/1,WEST CAR STREET,CHIDAMBARAM-608001",0,CHIDAMBARAM,CUDDALORE,"TAMIL NADU"
"KARUR VYSYA BANK",KVBL0001115,725053002,BODINAYAKANUR,"P.B. NO. 14 22/73  KAMARAJ BAZAAR,I FLOOR,BODINAYAKANUR-625513",0,BODINAYAKANUR,THENI,"TAMIL NADU"
"KARUR VYSYA BANK",KVBL0001114,438053002,BHAVANI,"P.B. NO. 2 190  I FLOOR SAKTHI PLAZA,MAIN ROAD,BHAVANI-638301",0,BHAVANI,ERODE,"TAMIL NADU"
"KARUR VYSYA BANK",KVBL0001113,237053002,BELUKURICHI,"5/101  PALANIAPPAR KOVIL ST.,,BELUKURICHI-637402",0,BELUKURICHI,SALEM,"TAMIL NADU"
"KARUR VYSYA BANK",KVBL0001112,824053002,BATLAGUNDU,"13-1-207  MAIN ROAD,,BATLAGUNDU-624202",0,BATLAGUNDU,DINDIGUL,"TAMIL NADU"
"KARUR VYSYA BANK",KVBL0001111,224053002,KATHIRNARASINGAPURAM,"193  3RD WARD  MAIN ROAD,RAJADHANI P.O.,KATHIRNARASINGAPURAM-625512",0,"ANDIPATTI JAKKAMPATTI",THENI,"TAMIL NADU"
"KARUR VYSYA BANK",KVBL0001110,125053002,AUNDIPATTI,"P.B. NO. 1 9-1-68-W 1ST FLOOR,THENI ROAD,AUNDIPATTI-625512",0,"ANDIPATTI JAKKAMPATTI",THENI,"TAMIL NADU"
"KARUR VYSYA BANK",KVBL0001109,836053002,ATTUR,"P.B. NO. 6 767  RANIPET MAIN ROAD,,ATTUR-636102",0,ATTUR,SALEM,"TAMIL NADU"
"KARUR VYSYA BANK",KVBL0001108,632053002,ARNI,"22,SRINIVASAN STREET,ARNI-632301",0,ARNI,TIRUVANNAMALAI,"TAMIL NADU"
"KARUR VYSYA BANK",KVBL0001107,842053002,ANAIMALAI,"34  PALANIYANDI PILLAI ST.,,ANAIMALAI-642104",0,ANAIMALAI,COIMBOTORE,"TAMIL NADU"
"KARUR VYSYA BANK",KVBL0001105,997053002,ALANGANALLUR,"5-1/87  MAIN ROAD,,ALANGANALLUR-625501",0,ALANGANALLUR,MADURAI,"TAMIL NADU"
"KARUR VYSYA BANK",KVBL0001104,600053004,"CHENNAI ALANDUR","269  M.K.N.ROAD,ALANDUR,CHENNAI-600016",0,ALANDUR,KANCHEEPURAM,"TAMIL NADU"
"KARUR VYSYA BANK",KVBL0001103,600053003,"INTERNATIONAL DIVISION","THE KARUR VYSYA BANK LTD, CHENNAI INTERNATIONAL DIVISION,KVB TOWERS II FLOOR,568 ANNA SALAI TEYNAMPET,CHENNAI-600018",0,CHENNAI,CHENNAI,"TAMIL NADU"
"KARUR VYSYA BANK",KVBL0001102,600053003,"CHENNAI DO","KVB TOWERS, I FLOOR 568 ANNA SALAI, TEYNAMPET, CHENNAI-600018",0,CHENNAI,CHENNAI,"TAMIL NADU"
"KARUR VYSYA BANK",KVBL0001101,639053006,"CENTRAL OFFICE","THE KARUR VYSYA BANK LTD, CENTRAL OFFICE ,ERODE ROAD,,KARUR-639002",0,KARUR,KARUR,"TAMIL NADU"
