BANK,IFSC,MICR,BRANCH,ADDRESS,CONTACT,CITY,DISTRICT,STATE
"KERALA GRAMIN BANK",KLGB0040732,WAITING,THIRUNELLY,"AMRUTHA BUILDING THIRUNELLY TEMPLE POST MANANTHAVADY WAYANAD-670646",242434,MANANTHAVADY,WAYANAD,KERALA
"KERALA GRAMIN BANK",KLGB0040726,WAITING,VADAKKETHARA,"KERELA GRAMIN BANK,VALSA SHOPPING COMPLEX,BLDNG NO 1/804,VADAKKETHARA ,PAZHAYANNUR(P)THRISSUR",2704810,THALAPPALLY,THRISSUR,KERALA
"KERALA GRAMIN BANK",KLGB0040725,WAITING,"PERUVALATH PARAMBA","KERELA GRAMIN BANK,PERUVALATHA PARAMBA,IP-II/245,IRIKKUR,KANNUR",2704810,IRIKKUR,KANNUR,KERALA
"KERALA GRAMIN BANK",KLGB0040724,WAITING,"NADUVIL TOWN","KERELA GRAMIN BANK,NADUVIL TOWN BRANCH,ANTONY COMPLEX KUDIYANMALA ROAD NADUVIL, KANNUR 670586",2704810,NADUVIL,KANNUR,KERALA
"KERALA GRAMIN BANK",KLGB0040723,WAITING,KANICHAR,"PADICKAL COMPLEX KANICHAR PO KANNUR-670674",416723,THALASSERY,KANNUR,KERALA
"KERALA GRAMIN BANK",KLGB0040722,685480619,VATTAVADA,"PANCHAYATH OFFICE COMPLEX, VATTAVADA,SANTHANPARA IDUKKI DT, KERALA PIN 685619",2704810,IDUKKI,IDUKKI,KERALA
"KERALA GRAMIN BANK",KLGB0040721,673480453,KATTIPPARA,"IC AGRI TRADE CENTRE, KATTIPPARA PO KOZHIKKODE DT PIN 673573",2270777,KOZHIKKODE,KOZHIKKODE,KERALA
"KERALA GRAMIN BANK",KLGB0040720,683480006,KURUMASSERY,"MALIYAKKAL BUILDING, ALUVA ROAD, KURUMASSERY, PIN-683579",2704810,ALUVA,ERNAKULAM,KERALA
"KERALA GRAMIN BANK",KLGB0040719,WAITING,VELLARIMALA,"VELLARIMALA PO, MEPPADI, WAYANAD-673577",2704810,KALPETTA,WAYANAD,KERALA
"KERALA GRAMIN BANK",KLGB0040718,WAITING,PALLUR,"VADAKKEKKARA BUILDING, KODAPARA KONDAYUR, PALLUR PO, DESAMANGALAM, PIN-679532",704810,THRISSUR,THRISSUR,KERALA
"KERALA GRAMIN BANK",KLGB0040717,695480037,KALLIKKAD,"THOPPIL COMPLEX KALLIKKAD MAILAKKARA P.O.TRIVANDRUM",704810,KALLIKKAD,THIRUVANANTHAPURAM,KERALA
"KERALA GRAMIN BANK",KLGB0040716,671480828,SHENI,"MAIRE PO,(VIA) PERLA,KASARAGOD DT",9496832378,MAIRE,KASARAGOD,KERALA
"KERALA GRAMIN BANK",KLGB0040715,670480119,KANNAVAM,"KOLLIYIL COMPLEX,KANNAVAM,PO KANNOTH,DIST KANNUR",9496423953,KANNAVAM,KANNUR,KERALA
"KERALA GRAMIN BANK",KLGB0040714,WAITING,IRAVON,"KOTTOOR PATHALIL BUILDINGS,PAYYANAMON PO,KONNI,PATHANAMTHITTA",2242829,IRAVON,PATHANAMTHITTA,KERALA
"KERALA GRAMIN BANK",KLGB0040713,680480203,VALLIVATTOM,"VAZHAPPULLY BUILDING,BRALAM JUNCTION,VALLIVATTOM PO,THRISSUR DIST",9846692411,VALLIVATTOM,THRISSUR,KERALA
"KERALA GRAMIN BANK",KLGB0040712,670480019,AZHIKODE,"MARWA TOWERS,VANKULATHUVAYAL,AZHIKODE PO,KANNUR DIST",9961114685,AZHIKODE,KANNUR,KERALA
"KERALA GRAMIN BANK",KLGB0040711,680480028,PULAKODE,"MANGALATH BUILDING,NEAR ALP SCHOOL,PULAKODE PO,THRISSUR",9947827950,PULAKODE,THRISSUR,KERALA
"KERALA GRAMIN BANK",KLGB0040710,680480027,MANALITHARA,"SHEETAL SHOAPING COMPLEX MALAKKA CENTRE MANALITHARA P.O.NEAR MALAKKA HOMEO DISPENSARY PIN 680589 THRISSUR DISTRICT",9946394889,MANALITHARA,THRISSUR,KERALA
"KERALA GRAMIN BANK",KLGB0040709,680480026,KILLIMANGALAM,"HARITHA TOWER,UDUVADY CENTRE,KILLIMANGALAM (PO),THRISSUR DIST",252393,KILLIMANGALAM,THRISSUR,KERALA
"KERALA GRAMIN BANK",KLGB0040708,673480063,CHERUVANNUR,"BAVUKKA SQUARE, KUNDAYITHODE,KOLATHARA PO,PIN-673655",2485383,KOZHIKODE,KOZHIKODE,KERALA
"KERALA GRAMIN BANK",KLGB0040707,670480118,KAVUMBHAGAM,"8/488/M VELANDY PLAZA KAVUMBHAGAM PO KANNUR DT PIN 670649",2704810,KANNUR,KANNUR,KERALA
"KERALA GRAMIN BANK",KLGB0040706,680480025,THIRUVILWAMALA,"RENUKA COMPLEX,NEAR GRAMA  PANCHAYAT OFFICE ,THIRUVILWAMALA PO,THRISSUR DT. PIN-680588",4281800,THRISSUR,THRISSUR,KERALA
"KERALA GRAMIN BANK",KLGB0040705,678480805,KADAMPAZHIPURAM,"AR COMPLEX,HOSPITAL JUNCTION,KADAMPAZHIPURAM PO,PALAKKAD DT PIN-678633",2268705,PALAKKAD,PALAKKAD,KERALA
"KERALA GRAMIN BANK",KLGB0040704,678480804,PERINGODE,"SRUTHI BUILDING,NEAR KSEB OFFICE,PERINGODE P.O, PALAKKAD DT. PIN-679535",2370198,PALAKKAD,PALAKKAD,KERALA
"KERALA GRAMIN BANK",KLGB0040703,673480062,MAVOOR,"PVM BUILDING,MAVOOR PO,KOZHIKODE DT,PIN-673661",2884999,KOZHIKODE,KOZHIKODE,KERALA
"KERALA GRAMIN BANK",KLGB0040702,676480009,PATTARNADAKKAVU,"THOYALIL COMPLEX PATTARNADAKKAVU,ANANTHAVOOR PO,MALAPPURAM DT",9446631968,ANANTHAVOOR,MALAPPURAM,KERALA
"KERALA GRAMIN BANK",KLGB0040701,695480036,PAPPANAMCODE,"ANUKUTTANMAVILA,PAPPANAMCODE PO,THIRUVANANTHPURAM DT",2495701,PAPPANAMCODE,THIRUVANANTHPURAM,KERALA
"KERALA GRAMIN BANK",KLGB0040700,695480256,PUTHENCHANTHAI,"AR PLAZA,PUTHENCHANTHAI,VARKALA PO,TRIVANDRUM DT.",704810,TRIVANDRUM,TRIVANDRUM,KERALA
"KERALA GRAMIN BANK",KLGB0040699,682480017,VARAPPUZHA,"THOMAS ARCADE,CHELAKKADAN BUILDING,CHIRAKKAKOM PO,VARAPPUZHA,ERNAKULAM DT",704810,ERNAKULAM,ERNAKULAM,KERALA
"KERALA GRAMIN BANK",KLGB0040698,688480003,KALAVOOR,"PARATHARA TOWERS,KALAVOOR PO,MANNANCHERRY,ALAPPUZHA DT",704810,ALAPPUZHA,ALAPPUZHA,KERALA
"KERALA GRAMIN BANK",KLGB0040697,670480117,MAMBARAM,"M R COMPLEX,KANNUR ROAD,MAMBARAM PO,KANNUR DT,PIN-670741",2384303,KANNUR,KANNUR,KERALA
"KERALA GRAMIN BANK",KLGB0040696,678480005,KODUNTHIRAPULLY,"HARE KRISHNA COMPLEX,PUDUR-KOTTAYI ROAD,KODUNTHIRAPULLY,PALAKKAD DIST",2508696,KODUNTHIRAPULLY,PALAKKAD,KERALA
"KERALA GRAMIN BANK",KLGB0040695,695480034,ARUVIKKARA,"A R BUILDING ARUVIKKARA, ARUVIKKARA PO, THIRUVANANTHAPURAM DT.",2889900,THIRUVANANTHAPURAM,THIRUVANANTHAPURAM,KERALA
"KERALA GRAMIN BANK",KLGB0040694,695480035,NANTHANCODE,"ANANDA BHAVAN,CLIFF HOUSE ROAD KOWDIAR PO, TRIVANDRUM DT.",727694,TRIVANDRUM,TRIVANDRUM,KERALA
"KERALA GRAMIN BANK",KLGB0040693,671480016,CHATTANCHAL,"CITY CENTRE BUILDING, CHATTANCHAL, PO-KASARAGOD DT-KASARAGOD",4282053,CHATTANCHAL,KASARAGOD,KERALA
"KERALA GRAMIN BANK",KLGB0040692,686480504,KODUNGOOR,"CITY BLDG,PALAI ROAD,KODUNGOOR PO,KOTTAYAM DT.",455900,KOTTAYAM,KOTTAYAM,KERALA
"KERALA GRAMIN BANK",KLGB0040691,686480354,NEENDOOR,"MANAPPATTU PARAMBIL BUILDINGS,VADAKKENADA,PRAVATTOM,PO-NEENDOOR,DIST-KOTTAYAM, PINCODE -686601",2704810,KOTTAYAM,KOTTAYAM,KERALA
"KERALA GRAMIN BANK",KLGB0040690,686480505,KOOROPPADA,"LAKSHMI KESAV TOWER,KOOROPPADA PO,KOTTAYAM DT.",703350,KOTTAYAM,KOTTAYAM,KERALA
"KERALA GRAMIN BANK",KLGB0040689,678480155,ALANALLUR,"P.K. COMPLEX,ALANALLUR,PO-ALANALLUR,DIST-PALAKKAD",262689,PALAKKAD,PALAKKAD,KERALA
"KERALA GRAMIN BANK",KLGB0040688,678480505,PERINGOTTUKURISSI,"A M S COMPLEX, OPP. VICTORY THEATRE, NEAR PETROL PUMP, PERINGOTTUKURISSI,PIN - 678573",704810,PALAKKAD,PALAKKAD,KERALA
"KERALA GRAMIN BANK",KLGB0040687,676480008,ALATHIYUR,"DARUSSALAM COMPLEX TRIPRANGODE ROAD ALATHIYUR PO,PIN-676102",2566767,MALAPPURAM,MALAPPURAM,KERALA
"KERALA GRAMIN BANK",KLGB0040686,686480753,KANAKKARY,"MINIS ARCADE, KANAKKARY, KOTTAYAM 686632",2533555,KOTTAYAM,KOTTAYAM,KERALA
"KERALA GRAMIN BANK",KLGB0040685,WAITING,CHINGAVANAM,"OLD KELACHANDRA HOSPITAL BUILDING,CHINGAVANAM,KOTTAYAM,PIN 686531",704810,KOTTAYAM,KOTTAYAM,KERALA
"KERALA GRAMIN BANK",KLGB0040684,WAITING,AVINISSERY,"VICTORY COMPLEX, ANAKKALLU JN,AVINISSERY,THRISSUR",704810,THRISSUR,THRISSUR,KERALA
"KERALA GRAMIN BANK",KLGB0040683,WAITING,AZHIYOOR,"JP COMPLEX,KOROTH ROAD PO,AZHIYOOR,KOZHIKODE DT-673309",704810,KOZHIKODE,KOZHIKODE,KERALA
"KERALA GRAMIN BANK",KLGB0040682,WAITING,NELLIMOODE,"NELLIMOODE SERVICE CO-OP. BANK SHOPPING COMPLEX,NELLIMOODE PO,THIRUVANANTHAPURAM DT. _x0013_ 695 524",704810,THIRUVANANTHAPURAM,THIRUVANANTHAPURAM,KERALA
"KERALA GRAMIN BANK",KLGB0040681,WAITING,POOCHAKKAL,"KAILAS HEIGHTS,LYCEUM JUNCTION,POOCHAKKAL PO,ALAPPUZHA DT. _x0013_ 688 526",704810,ALAPPUZHA,ALAPPUZHA,KERALA
"KERALA GRAMIN BANK",KLGB0040680,WAITING,MOOKKANNOOR,"KALAMPARAMBAN TOWERS,PALA JUNCTION,MOOKKANNOOR PO,ERNAKULAM DT. _x0013_ 683 577",704810,ERNAKULAM,ERNAKULAM,KERALA
"KERALA GRAMIN BANK",KLGB0040679,WAITING,MEPPAYYUR,"T.K. COMPLEX,PAYYOLI ROAD,MEPPAYYUR PO,KOZHIKODE DT. _x0013_ 673524",704810,KOZHIKODE,KOZHIKODE,KERALA
"KERALA GRAMIN BANK",KLGB0040678,WAITING,"PATTIKKAD CHUNGAM","YOUSAF HAJI BUILDING,CHUNGAM,PATTIKKAD PO,MALAPPURAM DT. _x0013_ 679 325",704810,MALAPPURAM,MALAPPURAM,KERALA
"KERALA GRAMIN BANK",KLGB0040677,WAITING,MADATHARA,"KERALA TOWER,MADATHARA PO,KOLLAM DT. _x0013_ 691541",704810,KOLLAM,KOLLAM,KERALA
"KERALA GRAMIN BANK",KLGB0040676,WAITING,KOTTOOR,"BAVA TOWER,KOTTOOR PO,THIRUVANANTHAPURAM DT. _x0013_ 695 574",704810,THIRUVANANTHAPURAM,THIRUVANANTHAPURAM,KERALA
"KERALA GRAMIN BANK",KLGB0040675,WAITING,ELANTHOR,"CHETTUKADAVIL BUILDINGS,PARIYARAM JUNCTION,NELLIKKALA PO,ELANTHOR,PATHANAMTHITTA DT-689643",704810,PATHANAMTHITTA,PATHANAMTHITTA,KERALA
"KERALA GRAMIN BANK",KLGB0040674,WAITING,PATTIMATTAM,"THOMSON COMPLEX,PP ROAD, PATTIMATTAM PO,ERNAKULAM DT. - 683 562",704810,ERNAKULAM,ERNAKULAM,KERALA
"KERALA GRAMIN BANK",KLGB0040673,WAITING,PATTOM,"K S N TOWERS,MURINJAPALAM,PATTOM, MEDICAL COLLEGE PO,THIRUVANANTHAPURAM DT. _x0013_ 695011",704810,THIRUVANANTHAPURAM,THIRUVANANTHAPURAM,KERALA
"KERALA GRAMIN BANK",KLGB0040672,WAITING,NEDUMKANDAM,"ANJU KANDATHIL PLAZA,NEAR PRIVATE BUS STAND,NEDUMKANDAM PO,IDUKKI DT. _x0013_ 685 553",704810,IDUKKI,IDUKKI,KERALA
"KERALA GRAMIN BANK",KLGB0040671,WAITING,PURAMERI,"AL. SANAFER COMPLEX,KUNINGAD ROAD,PURAMERI PO,KOZHIKODE DT. _x0013_ 673 503",704810,KOZHIKODE,KOZHIKODE,KERALA
"KERALA GRAMIN BANK",KLGB0040670,WAITING,CHERANELLUR,"POST OFFICE BUILDING,PALLIKKAVALA,CHERANALLUR PO, ERNAKULAM DT. _x0013_ 682 034",704810,ERNAKULAM,ERNAKULAM,KERALA
"KERALA GRAMIN BANK",KLGB0040669,WAITING,MANHODI,"CPC COMPLEX,THIRUVANGAD PO,THALASSERY,KANNUR DT - 670103",704810,THALASSERY,KANNUR,KERALA
"KERALA GRAMIN BANK",KLGB0040668,WAITING,POONJAR,"VADAKARAYIL,NEAR PRIVATE BUS STAND,POONJAR THEKKEKARA PO,KOTTAYAM DT-686582",704810,ERATTUPETTA,KOTTAYAM,KERALA
"KERALA GRAMIN BANK",KLGB0040667,WAITING,KADAPPADY,"PAZHERI COMPLEX, KADAPPADY, PERUVALLUR PO, VIA KONDOTTY, MALAPPURAM - 673638",704810,MALAPPURAM,MALAPPURAM,KERALA
"KERALA GRAMIN BANK",KLGB0040666,WAITING,AGASTIANMOOZHY,"EM TOWER,AGASTIANMOOZHY,MUKKOM PO,KOZHIKODE DIST",704810,KOZHIKODE,KOZHIKODE,KERALA
"KERALA GRAMIN BANK",KLGB0040665,WAITING,MAYYIL,"KRIPA COMPLEX, MP VI/258 P, MAYYIL P.O. , KANNUR DIST",704810,KANNUR,KANNUR,KERALA
"KERALA GRAMIN BANK",KLGB0040664,WAITING,ALUNGAL,"PULIKKAL COMPLEX, VII/393 G, 394 H, ALUNGAL JUNCTION, KARKITAMKUNNU P.O. ,PALAKKAD DIST",704810,PALAKKAD,PALAKKAD,KERALA
"KERALA GRAMIN BANK",KLGB0040663,WAITING,RAJAPURAM,"ETTAKKAL BUILDERS, KP VIII/111 F, 111 G RAJAPURAM P.O. , KASARAGOD DIST",704810,KASARGOD,KASARGOD,KERALA
"KERALA GRAMIN BANK",KLGB0040662,673480060,PALAZHY,"POYILIL BUILDING,GA COLLEGE POST,KOZHIKODE-673014",2433533,KOZHIKODE,KOZHIKODE,KERALA
"KERALA GRAMIN BANK",KLGB0040661,NA,KALIKKADAVU,"KALIKADAVU,PP/II 800(H),FIVE STAR BUILDING,PILICODE,KASARGOD 67101551",2262345,KASARAGOD,KASARAGOD,KERALA
"KERALA GRAMIN BANK",KLGB0040660,NA,"KOTTAYAM RO","KGB TOWERS,SAMKRANTHI JUNCTION,PERUMBAIKKAD,KOTTAYAM DT-6806016",2598690,KOTTAYAM,KOTTAYAM,KERALA
"KERALA GRAMIN BANK",KLGB0040659,686480005,KUMARENALLOOR,"KUMARANALLOOR,KOTTAYAM DT-6806016",2598695,KOTTAYAM,KOTTAYAM,KERALA
"KERALA GRAMIN BANK",KLGB0040658,679480107,MOOTHEDAM,"MOOTHEDAM,MOOTHEDAM PO,MALAPPURAM DT-PIN 679 331",276999,MOOTHEDAM,MALAPPURAM,KERALA
"KERALA GRAMIN BANK",KLGB0040657,670480115,MANGATTIDAM,"MANGATT,NIRMALAGIRI COLLEGE PO,MANGATTIDAM KANNUR 67 01194",2369966,KANNUR,KANNUR,KERALA
"KERALA GRAMIN BANK",KLGB0040656,670480844,MAKKIYAD,"MAKKIYAD P.O,WAYANAD DT,PIN-67073",2598695,WAYANAD,WAYANAD,KERALA
"KERALA GRAMIN BANK",KLGB0040655,695480028,VATTAPPARA,"D.S TOWERS,VATTAPPARA P.O,TRIVANDRUM,PIN -695 028",2587899,TRIVANDRUM,TRIVANDRUM,KERALA
"KERALA GRAMIN BANK",KLGB0040654,695480026,MARUTHAMKUZHI,"T.C 7/925-11,SREEKRISHNA,KANJIRAMPARA P.O,TRIVANDRUM DIST,PIN -695 030",2364199,TRIVANDRUM,TRIVANDRUM,KERALA
"KERALA GRAMIN BANK",KLGB0040653,695480024,CHENGOTTUKONAM,"NIKUNJAM,CHEMPAZHANTHY P.O,TRIVANDRUM,PIN -695 587",2712250,TRIVANDRUM,TRIVANDRUM,KERALA
"KERALA GRAMIN BANK",KLGB0040652,676480106,THENNALA,"SALMA MANZIL,THENNALA PO,MALAPPURAM DT,PIN 676508",2495959,MALAPPURAM,MALAPPURAM,KERALA
"KERALA GRAMIN BANK",KLGB0040651,670480114,"KOTTAYAM MALABAR","KMP 7/381 H,6TH MILE,KOTTAYAM POIL P.O,VIA PATHAYAKUNNU,KANNUR DIST 670 691",2361455,KANNUR,KANNUR,KERALA
"KERALA GRAMIN BANK",KLGB0040650,676480007,VETTOM,"AMBATT BUILDING,PARIYAPURAM,PACHATTIRI P.O,MALAPPURAM DIST,PIN 676 105",2631188,MALAPPURAM,MALAPPURAM,KERALA
"KERALA GRAMIN BANK",KLGB0040649,676480205,OZHUR,"K C BUILDING,OPP.PANCHAYAT OFFICE,PULPARAMBA,OZHUR P.O,MALAPPURAM DIST,PIN -676 307",2581800,MALAPPURAM,MALAPPURAM,KERALA
"KERALA GRAMIN BANK",KLGB0040648,679480304,KALADY,"KP IX/187-F,KANDANAKAM,KALADY-MALAPPURAM P.O,MALAPPURAM DISTRICT,PIN -679582",2699990,MALAPPURAM,MALAPPURAM,KERALA
"KERALA GRAMIN BANK",KLGB0040647,676480257,EDAYUR,"MADATHIL COMPLEX,VAYANASALA,EDAYUR NORTH P.O,MALAPPURAM DISTRICT,PIN 676 552",2648080,MALAPPURAM,MALAPPURAM,KERALA
"KERALA GRAMIN BANK",KLGB0040646,680480023,MATTAM,"MALIYAMAVU, MATTAM ,THRISSUR DT,PIN 680602",239239,THRISSUR,THRISSUR,KERALA
"KERALA GRAMIN BANK",KLGB0040645,670480058,PATTUVAM,"PP V/133-134,MURIYATHODU,ARIYIL P.O,KANNUR DIST,PIN 670 143",2221230,KANNUR,KANNUR,KERALA
"KERALA GRAMIN BANK",KLGB0040644,686480053,RAMANKARI,"SREE DEVI COMPLEX,MAMPUZHAKKARI,RAMANKARI P.O,ALAPPUZHA DIST,PIN 689 595",2702524,ALAPPUZHA,ALAPPUZHA,KERALA
"KERALA GRAMIN BANK",KLGB0040643,690480104,MUTHUKULAM,"THUSHARA ENCLAVE,MUTHUKULAM,CHEPPAD P.O,ALAPPUZHA DIST,PIN -690 507",2472242,ALAPPUZHA,ALAPPUZHA,KERALA
"KERALA GRAMIN BANK",KLGB0040642,673480057,NANMINDA,"NP 9/454-A,NANMINDA P.O,KOZHIKODE DIST,PIN -673 613",2855515,KOZHIKODE,KOZHIKODE,KERALA
"KERALA GRAMIN BANK",KLGB0040641,695480029,MUKKOLAKKAL,"KP -6/286-A,MUKKOLA,KALLAYAM P.O,TRIVANDRUM DIST,PIN -695 043",2534399,TRIVANDRUM,TRIVANDRUM,KERALA
"KERALA GRAMIN BANK",KLGB0040640,680480022,KATTOOR,"VATHEDATH SHOPPING COMPLEX,NEAR BUS STAND,KATTOOR P.O,THRISSUR DIST,PIN 680 702",2872434,THRISSUR,THRISSUR,KERALA
"KERALA GRAMIN BANK",KLGB0040639,690480203,BHARANIKKAVU,"TAJMAHAL SHOPPING COMPLEX,SASTHAMKOTTA PO, KOLLAM DT, PIN 690521",2833552,KOLLAM,KOLLAM,KERALA
"KERALA GRAMIN BANK",KLGB0040638,695480027,PERINGAMALA,"KKN BUILDING,PERINGAMMALA,KALLIYOOR P.O,TRIVANDRUM DIST,PIN -695 042",2404480,TRIVANDRUM,TRIVANDRUM,KERALA
"KERALA GRAMIN BANK",KLGB0040637,695480025,ATTIPRA,"THIRUVONAM COMPLEX,ARASUMMOODU,KULATHOOR P.O,TRIVANDRUM,PIN -695 583",2599696,TRIVANDRUM,TRIVANDRUM,KERALA
"KERALA GRAMIN BANK",KLGB0040636,690480102,KAYAMKULAM,"SAYAFA COMPLEX,PRATHANGAMOOD JUNCTION,MARKET ROAD",2444212,ALAPPUZHA,ALAPPUZHA,KERALA
"KERALA GRAMIN BANK",KLGB0040635,690480002,HARIPPAD,"KOTTINATT KG MADHAVAN PILLAI SMARAKA MANDIRAM,MADHAVA JUNCTION",2418155,ALAPPUZHA,ALAPPUZHA,KERALA
"KERALA GRAMIN BANK",KLGB0040634,682480015,THRIKKAKARA,"TM -884 A/IV,JUDGEMUKKU,THRIKKAKKARA,ERNAKULAM DIST,PIN 682 021",2575399,ERNAKULAM,ERNAKULAM,KERALA
"KERALA GRAMIN BANK",KLGB0040633,680480021,POOVATHUR,"RAIHANA COMPLEX,POOVATHUR P.O,THRISSUR DIST,PIN -680 508",2640080,THRISSUR,THRISSUR,KERALA
"KERALA GRAMIN BANK",KLGB0040632,685480009,PAINGOTTOOR,"THEKKE THOTTIYIL BUILDING,PAINGOTTOOR P.O,ERNAKULAM DIST,PIN -686 671",2562166,KOTTAYAM,KOTTAYAM,KERALA
"KERALA GRAMIN BANK",KLGB0040631,673480059,PERUMANNA,"BHAGAVATHI PARAMBATH BUILDING,PERUMANNA P.O,KOZHIKODE DIST,PIN -673 019",2430040,KOZHIKODE,KOZHIKODE,KERALA
"KERALA GRAMIN BANK",KLGB0040630,671480015,KUNDAMKUZHI,"PERIYATH COMPLEX,P.O KUNDAMKUZHI,KASARAGOD DIST,PIN -671 541",210050,KASARAGOD,KASARAGOD,KERALA
"KERALA GRAMIN BANK",KLGB0040629,680480020,PARAPPUR,"GOLDEN CASTLE,MAIN ROAD,PARAPPUR P.O,THRISSUR DIST,PIN -680 552",2285230,THRISSUR,THRISSUR,KERALA
"KERALA GRAMIN BANK",KLGB0040628,680480019,KAIPARAMBA,"BRIGHT TRADE CENTRE,KAIPARAMBA P.O,THRISSUR,PIN -680 546",2210230,THRISSUR,THRISSUR,KERALA
"KERALA GRAMIN BANK",KLGB0040627,673480058,"FEROKE CHUNGAM","PALOT BUILDING,FAROOK COLLEGE ROAD,FEROKE CHUNGAM,FEROKE P.O,KOZHIKODE DIST,PIN -673 631",2481884,KOZHIKODE,KOZHIKODE,KERALA
"KERALA GRAMIN BANK",KLGB0040626,685480008,MELUKAVU,"POOVELIL BUILDINGS,MELUKAVU MATTOM P.O,KOTTAYAM DIST,PIN -686 652",219626,ERNAKULAM,ERNAKULAM,KERALA
"KERALA GRAMIN BANK",KLGB0040625,679480160,MELATTUR,"BUILDING NO X/15,SOORYA ARCADE,OPP.SHINEY THEATRE,MELATTUR P.O,MALAPPURAM DIST -679 326",277265,MALAPPURAM,MALAPPURAM,KERALA
"KERALA GRAMIN BANK",KLGB0040624,673480056,VAZHAKKAD,"DOOR NO.16/269,REHMANIA TOWER,CHEENI BAZAR,VAZHAKKAD P.O,MALAPPURAM DISTRICT -673 640",2727100,MALAPPURAM,MALAPPURAM,KERALA
"KERALA GRAMIN BANK",KLGB0040623,676480157,KOOTTILANGADI,"KADAVATH COMPLEX,KOOTTILANGADI P.O,MALAPPURAM DISTRICT -676 506",285000,MALAPPURAM,MALAPPURAM,KERALA
"KERALA GRAMIN BANK",KLGB0040622,691480006,ANCHALUMOODU,"MOTHAKADA BUILDING,VETTUVILA ROAD,P.O.PERINAD,KOLLAM,KERALA,PIN -691601",2700268,KOLLAM,KOLLAM,KERALA
"KERALA GRAMIN BANK",KLGB0040621,691480106,KADAKKAL,"PULIMATH BUILDINGS,P.O.KADAKKAL,KOLLAM,KERALA,PIN -691536",2425221,KOLLAM,KOLLAM,KERALA
"KERALA GRAMIN BANK",KLGB0040620,691480105,PUTHOOR,"VALIYAKAMPIYIL PLAZA,BSNL JUNCTION,P.O.PUTHOOR,KOLLAM,KERALA,PIN -691507",2416299,KOLLAM,KOLLAM,KERALA
"KERALA GRAMIN BANK",KLGB0040619,682480014,PUTHENVELIKARA,"1598 NO NSS KARAYOGAM BUILDING,P.O.PUTHENVELIKARA,ERNAKULAM,KERALA,PIN -683594",2485234,ERNAKULAM,ERNAKULAM,KERALA
"KERALA GRAMIN BANK",KLGB0040618,686480306,KADANAD,"PEEDIKAMALAYIL BUILDINGS,P.O.KADANAD,KOTTAYAM,KERALA,PIN -686653",246440,KOTTAYAM,KOTTAYAM,KERALA
"KERALA GRAMIN BANK",KLGB0040617,671480014,BADIYADKA,"SREE GURUVAYOORAPPAN SHOPPING COMPLEX,BADIADKA,P.O.PERDALA,KASARAGOD,KERALA,PIN -671551",284217,KASARAGOD,KASARAGOD,KERALA
"KERALA GRAMIN BANK",KLGB0040616,691480104,KUNNIKODE,"ADV.P.RAVINDRAN PILLAI MEMORIAL BUILDING,P.O.KUNNIKODE,KOLLAM,KERALA,PIN -691508",2325522,KOLLAM,KOLLAM,KERALA
"KERALA GRAMIN BANK",KLGB0040615,691480005,KUNNANALLOOR,"LEBBAS TOWER,P.O.KANNANALLOOR,KOLLAM,KERALA,PIN -691576",2501735,KOLLAM,KOLLAM,KERALA
"KERALA GRAMIN BANK",KLGB0040614,686480004,VAKATHANAM,"ONATT TRADE CENTRE,NJALIAKUZHI JUNCTION,P.O.VAKATHANAM,KOTTAYAM,KERALA,PIN -686538",2460214,KOTTAYAM,KOTTAYAM,KERALA
"KERALA GRAMIN BANK",KLGB0040612,682480013,PALLURUTHY,"V.T.CHAMBERS,P.O.PALLURUTHY,ERNAKULAM,KERALA,PIN -682006",2236088,ERNAKULAM,ERNAKULAM,KERALA
"KERALA GRAMIN BANK",KLGB0040611,686480203,ADIVAD,"MADINA TOWERS,(VIA ) KOTHAMANGALAM,P.O.PALLARIMANGALAM,ERNAKULAM,KERALA,PIN -686671",2563555,ERNAKULAM,ERNAKULAM,KERALA
"KERALA GRAMIN BANK",KLGB0040610,686480305,PAIKA,"KOCHUPARAMBIL BUILDINGS,PAIKA,P.O.POOVARANI,KOTTAYAM,KERALA,PIN -686577",225080,KOTTAYAM,KOTTAYAM,KERALA
"KERALA GRAMIN BANK",KLGB0040609,691480103,PATTAZHI,"K.R.M.BUILDINGS,P.O.PATTAZHI,KOLLAM,KERALA,PIN -691522",2398788,KOLLAM,KOLLAM,KERALA
"KERALA GRAMIN BANK",KLGB0040608,686480453,ELANJI,"POONTHOTTAM BUILDINGS,P.O.ELANJI,ERNAKULAM,KERALA,PIN -686665",2257322,ERNAKULAM,ERNAKULAM,KERALA
"KERALA GRAMIN BANK",KLGB0040607,683480004,KALADY,"SYAM TOWER,NEAR SREESANKARA BRIDGE,P.O.KALADY,ERNAKULAM,KERALA,PIN -683574",2244099,ERNAKULAM,ERNAKULAM,KERALA
"KERALA GRAMIN BANK",KLGB0040606,671480827,PAVOOR,"PAVOOR,P.O.PAVOOR,KASARAGOD,KERALA,PIN -671323",272322,KASARAGOD,KASARAGOD,KERALA
"KERALA GRAMIN BANK",KLGB0040605,683480003,MANJAPRA,"IST FLOOR,MANGALY TOWERS,P.O.MANJAPRA,ERNAKULAM,KERALA,PIN -683581",2690790,ERNAKULAM,ERNAKULAM,KERALA
"KERALA GRAMIN BANK",KLGB0040604,682480012,THIRUVAMKULAM,"IST FLOOR,KARODAN CENTRE,P.O.THIRUVAMKULAM,ERNAKULAM,KERALA,PIN -682305",2786209,ERNAKULAM,ERNAKULAM,KERALA
"KERALA GRAMIN BANK",KLGB0040603,682480011,PUKKATTUPADY,"IST FLOOR,MUDAVATHIL BUILDING,P.O.EDATHALA,ERNAKULAM,KERALA,PIN -683561",2686203,ERNAKULAM,ERNAKULAM,KERALA
"KERALA GRAMIN BANK",KLGB0040602,670480113,PANOOR,"CHAMPAD ROAD,P.O.PANOOR,KANNUR,KERALA,PIN -670692",2310065,KANNUR,KANNUR,KERALA
"KERALA GRAMIN BANK",KLGB0040601,686480154,ERUMELY,"KATTUPALAM BUILDING,P.O.ERUMELI,KOTTAYAM,KERALA,PIN -686509",213201,KOTTAYAM,KOTTAYAM,KERALA
"KERALA GRAMIN BANK",KLGB0040600,686480304,UZHAVOOR,"UZHAVOOR,P.O.UZHAVOOR,KOTTAYAM,KERALA,PIN -686634",240210,KOTTAYAM,KOTTAYAM,KERALA
"KERALA GRAMIN BANK",KLGB0040599,670480843,CHERUPUZHA,"PUNCHAKUNNEL BUILDINGS,MAIN ROAD,P.O.CHERUPUZHA,KANNUR,KERALA,PIN -670511",240040,KANNUR,KANNUR,KERALA
"KERALA GRAMIN BANK",KLGB0040598,691480803,KULATHUPPUZHA,"KUNNUMPURATH COMMERCIAL COMPLEX,P.O.KULATHUPUZHA,KOLLAM,KERALA,PIN -691310",2317002,KOLLAM,KOLLAM,KERALA
"KERALA GRAMIN BANK",KLGB0040597,670480112,CHOKLI,"KHADEEJA COMPLEX,PONDY BAZAR,P.O.CHOKLI,KANNUR,KERALA,PIN -670672",2330422,KANNUR,KANNUR,KERALA
"KERALA GRAMIN BANK",KLGB0040596,671480826,MULLERIA,"ARAMANADKA COMPLEX,BADIYADKA ROAD,P.O.MULLERIA,KASARAGOD,KERALA,PIN -671543",260009,KASARAGOD,KASARAGOD,KERALA
"KERALA GRAMIN BANK",KLGB0040595,671480825,CHITTARIKKAL,"VELLIAPPALLIL COMPLEX,P.O.CHITTARIKKAL,KASARAGOD,KERALA,PIN -671326",2222300,KASARAGOD,KASARAGOD,KERALA
"KERALA GRAMIN BANK",KLGB0040594,686480253,VAZHAKULAM,"GREEN VILLA COMPLEX,CARMEL JUNCTIONMUVATTUPUZHA,P.O.VAZHAKULAM,ERNAKULAM,KERALA,PIN -686670",2263128,ERNAKULAM,ERNAKULAM,KERALA
"KERALA GRAMIN BANK",KLGB0040593,686480353,KIDANGOOR,"THEKKUMKATTIL CITY PLAZA,P.O.KIDANGOOR,KOTTAYAM,KERALA,PIN -686572",256725,KOTTAYAM,KOTTAYAM,KERALA
"KERALA GRAMIN BANK",KLGB0040592,686480003,MANARCAD,"NO.642-NSS KARAYOGAM BUILDING,P.O.MANARCAD,KOTTAYAM,KERALA,PIN -686019",2373192,KOTTAYAM,KOTTAYAM,KERALA
"KERALA GRAMIN BANK",KLGB0040591,686480704,AYAMKUDY,"ST.THERESAS SHOPPING CENTRE,MUTTUCHIRA ( VIA),P.O.AYAMKUDY,KOTTAYAM,KERALA,PIN -686613",288549,KOTTAYAM,KOTTAYAM,KERALA
"KERALA GRAMIN BANK",KLGB0040590,686480703,PERUVA,"PERUVA,P.O.PERUVA,KOTTAYAM,KERALA,PIN -686610",252976,KOTTAYAM,KOTTAYAM,KERALA
"KERALA GRAMIN BANK",KLGB0040589,691480802,AYOOR,"CHRISTURAJ SHOPPING COMPLEX,P.O.AYOOR,KOLLAM,KERALA,PIN -691533",2292606,KOLLAM,KOLLAM,KERALA
"KERALA GRAMIN BANK",KLGB0040588,690480802,CHERUTHANA,"KOYPPALLIL BUILDING,AYAPARAMBA,KARUVATTA ( VIA),P.O.CHERUTHANA,ALAPUZHA,KERALA,PIN -690615",2410561,ALAPPUZHA,ALAPPUZHA,KERALA
"KERALA GRAMIN BANK",KLGB0040587,690480801,ATHIKATTUKULANGARA,"SUBY PLAZA,NOORANAD,P.O.ATHIKKATTUKULANGARA,ALAPUZHA,KERALA,PIN -690504",2388332,ALAPPUZHA,ALAPPUZHA,KERALA
"KERALA GRAMIN BANK",KLGB0040586,670480017,CHERUKUNNU,"NEAR CANOSSIAN CONVENT,(VIA ) KANNAPURAM,P.O.CHERUKUNNU,KANNUR,KERALA,PIN -670301",2862862,KANNUR,KANNUR,KERALA
"KERALA GRAMIN BANK",KLGB0040585,691480154,PATHANAPURAM,"PLAVILAYIL BUILDING,P.O.PATHANAPURAM,KOLLAM,KERALA,PIN -689695",2352066,KOLLAM,KOLLAM,KERALA
"KERALA GRAMIN BANK",KLGB0040584,686480726,KARUKACHAL,"PALAKUNNEL BUILDING,MALLAPPALLY ROAD,P.O.KARUKACHAL,KOTTAYAM,KERALA,PIN -686540",2488543,KOTTAYAM,KOTTAYAM,KERALA
"KERALA GRAMIN BANK",KLGB0040583,671480724,PERLA,"S.H.BUILDING,OPP.PERLA BUS STAND,P.O.PERLA,KASARAGOD,KERALA,PIN -671552",225999,KASARAGOD,KASARAGOD,KERALA
"KERALA GRAMIN BANK",KLGB0040582,690480153,KOLLAKKADAVU,"KAVALAKKAL PLAZA,DOOR NO.CP-VIII-393J,P.O.KOLLAKKADAVU,ALAPUZHA,KERALA,PIN -690509",2353955,ALAPPUZHA,ALAPPUZHA,KERALA
"KERALA GRAMIN BANK",KLGB0040581,686480503,PALLIKKATHODE,"PANICKER S ARCADE,DOOR NO.PPIV-70E(7),P.O.ANICKAD,KOTTAYAM,KERALA,PIN -686503",2553051,KOTTAYAM,KOTTAYAM,KERALA
"KERALA GRAMIN BANK",KLGB0040580,686480153,MANIMALA,"NEAR POLICE STATION,DOOR NO.VP-1-576-CMOONGANI,P.O.MANIMALA,KOTTAYAM,KERALA,PIN -686543",248751,KOTTAYAM,KOTTAYAM,KERALA
"KERALA GRAMIN BANK",KLGB0040579,670480841,PERAVOOR,"PERAVOOR COMPLEX,DOOR NO.PP-V-2 T11NEAR NEW BUS STAND,P.O.PERAVOOR,KANNUR,KERALA,PIN -670673",2443228,KANNUR,KANNUR,KERALA
"KERALA GRAMIN BANK",KLGB0040578,691480152,PUNALUR,"CHAWKA ROAD,P.O.PUNALUR,KOLLAM,KERALA,PIN -691305",2229760,KOLLAM,KOLLAM,KERALA
"KERALA GRAMIN BANK",KLGB0040577,691480004,KOTTIYAM,"BLDG.NO.A.P.XVIII-359& 360,P.O.KOTTIYAM,KOLLAM,KERALA,PIN -691571",2534500,KOLLAM,KOLLAM,KERALA
"KERALA GRAMIN BANK",KLGB0040576,670480010,SREEPURAM,"SREEPURAM,P.O.PALLIKUNNU,KANNUR,KERALA,PIN -670004",2708277,KANNUR,KANNUR,KERALA
"KERALA GRAMIN BANK",KLGB0040575,682480010,KADAVANTHRA,"MIRADOR,MUTTATHIL LANE,NEAR KADAVANTHRA JUNCTION,P.O.COCHIN,ERNAKULAM,KERALA,PIN -682020",2205353,ERNAKULAM,ERNAKULAM,KERALA
"KERALA GRAMIN BANK",KLGB0040574,691480202,KUNDARA,"CSI SHOPPING COMPLEX,P.O.KUNDARA,KOLLAM,KERALA,PIN -691501",2581122,KOLLAM,KOLLAM,KERALA
"KERALA GRAMIN BANK",KLGB0040573,691480801,PARAVUR,"SAHIL COMPLEX,THEKKUMBHAGHAM ROAD,P.O.PARAVUR,KOLLAM,KERALA,PIN -691301",2514605,KOLLAM,KOLLAM,KERALA
"KERALA GRAMIN BANK",KLGB0040572,691480102,KOTTARAKKARA,"A.U.TOWER,CHANDAMUKKU,P.O.KOTTARAKKARA,KOLLAM,KERALA,PIN -691506",2453334,KOLLAM,KOLLAM,KERALA
"KERALA GRAMIN BANK",KLGB0040571,691480003,CHATHANNUR,"N.H.47,P.O.CHATHANNUR,KOLLAM,KERALA,PIN -691572",2595222,KOLLAM,KOLLAM,KERALA
"KERALA GRAMIN BANK",KLGB0040570,670480840,KADAVATHUR,"KADAVATHUR,P.O.KADAVATHUR,KANNUR,KERALA,PIN -670676",2392600,KANNUR,KANNUR,KERALA
"KERALA GRAMIN BANK",KLGB0040569,686480303,RAMAPURAM,"NEW MICHAEL PLAZA,OPP.AUGUSTINE FORANE CHURCH,P.O.RAMAPURAM BAZAR,KOTTAYAM,KERALA,PIN -686576",262727,KOTTAYAM,KOTTAYAM,KERALA
"KERALA GRAMIN BANK",KLGB0040568,686480052,CHANGANASSERY,"ASSISSI BUILDING,MARKET ROAD,CHANGANASSERY,KOTTAYAM,KERALA,PIN -686101",2422798,KOTTAYAM,KOTTAYAM,KERALA
"KERALA GRAMIN BANK",KLGB0040567,682480008,ELAMAKKARA,"PATHIYASSERIL BUILDINGS,NEAR PUNNAKKAL TEMPLE,P.O.ELAMAKKARA,ERNAKULAM,KERALA,PIN -682026",2530701,ERNAKULAM,ERNAKULAM,KERALA
"KERALA GRAMIN BANK",KLGB0040566,682480201,KOLENCHERRY,"ELLORA TOWERS,ELAMKULAMKARA,P.O.KOLENCHERY,ERNAKULAM,KERALA,PIN -682311",2765983,ERNAKULAM,ERNAKULAM,KERALA
"KERALA GRAMIN BANK",KLGB0040565,690480052,KARUNAGAPALLY,"ZAINA BUILDINGS,H.S.JUNCTION,ALUMKADAVU ROAD,P.O.KARUNAGAPPALLY,KOLLAM,KERALA,PIN -690518",2626252,KOLLAM,KOLLAM,KERALA
"KERALA GRAMIN BANK",KLGB0040564,691480153,ANCHAL,"AL-AMEEN BUILDING,RANGE OFFICE JUNCTION,P.O.ANCHAL,KOLLAM,KERALA,PIN -691306",2270445,KOLLAM,KOLLAM,KERALA
"KERALA GRAMIN BANK",KLGB0040563,691480002,KOLLAM,"SREE VIGNESWARA BHAVAN,KOLLAM CHENGOTTA ROAD,P.O.KADAPPAKADA,KOLLAM,KERALA,PIN -691008",2764212,KOLLAM,KOLLAM,KERALA
"KERALA GRAMIN BANK",KLGB0040562,686480752,KURUPANTHARA,"KURUPANTHARA,P.O.MANJOOR,KOTTAYAM,KERALA,PIN -686603",243170,KOTTAYAM,KOTTAYAM,KERALA
"KERALA GRAMIN BANK",KLGB0040561,682480007,KAKKANAD,"111/291A,THAZHTHEDATH BUILDINGS,CHEMBUMUKKU,P.O.KAKKANAD,ERNAKULAM,KERALA,PIN -682030",2425734,ERNAKULAM,ERNAKULAM,KERALA
"KERALA GRAMIN BANK",KLGB0040560,670480008,PODIKUNDU,"PODIKKUNDU,P.O.PALLIKUNNU,KANNUR,KERALA,PIN -670004",2748550,KANNUR,KANNUR,KERALA
"KERALA GRAMIN BANK",KLGB0040559,689480052,THIRUVANVANDOOR,"VIA ) CHENGANNUR,P.O.KALLISSERY,ALAPUZHA,KERALA,PIN -689124",2429400,ALAPPUZHA,ALAPPUZHA,KERALA
"KERALA GRAMIN BANK",KLGB0040558,688480052,CHERTHALA,"S.K.M.COMPLEX,NADAKAV ROAD,P.O.CHERTHALA,ALAPUZHA,KERALA,PIN -688524",2816254,ALAPPUZHA,ALAPPUZHA,KERALA
"KERALA GRAMIN BANK",KLGB0040557,689480452,MANNAR,"PULIMOOTTIL BUILDING,KURATTIYIL TEMPLE JUNCTION N/R POST OFFICE,P.O.MANNAR,ALAPUZHA,KERALA,PIN -689622",2313755,ALAPPUZHA,ALAPPUZHA,KERALA
"KERALA GRAMIN BANK",KLGB0040556,690480152,MAVELIKKARA,"CORAL HOUSE,PUTHIYAKAVU,P.O.MAVELIKKARA,ALAPUZHA,KERALA,PIN -690101",2340755,ALAPPUZHA,ALAPPUZHA,KERALA
"KERALA GRAMIN BANK",KLGB0040555,690480103,KATTANAM,"PALAVILAYIL BUILDING,P.O.PALLIKKAL,ALAPUZHA,KERALA,PIN -690503",2334010,ALAPPUZHA,ALAPPUZHA,KERALA
"KERALA GRAMIN BANK",KLGB0040554,690480252,OCHIRA,"NEAR PREMIER THEATRE JUNCTION,OCHIRA,P.O.KRISHNAPURAM,ALAPUZHA,KERALA,PIN -690533",2697372,ALAPPUZHA,ALAPPUZHA,KERALA
"KERALA GRAMIN BANK",KLGB0040553,688480002,ALAPPUZHA,"SREE PECHI ANKALAMMAN KOVIL TRUST,P.O.PAZHAVANGADI,ALAPUZHA,KERALA,PIN -688001",237557,ALAPPUZHA,ALAPPUZHA,KERALA
"KERALA GRAMIN BANK",KLGB0040552,683480052,PERUMBAVOOR,"COURT JUNCTION,M.C.ROAD,P.O.PERUMBAVOOR,ERNAKULAM,KERALA,PIN -683542",2590828,ERNAKULAM,ERNAKULAM,KERALA
"KERALA GRAMIN BANK",KLGB0040551,682480005,TRIPUNITHURA,"STATUE JUNCTION,P.O.TRIPUNITHURA,ERNAKULAM,KERALA,PIN -682301",2785547,ERNAKULAM,ERNAKULAM,KERALA
"KERALA GRAMIN BANK",KLGB0040550,686480732,PIRAVAM,"MATHA COMPLEX,THREE ROAD,JUNCTION,P.O.PIRAVOM,ERNAKULAM,KERALA,PIN -686664",2241880,ERNAKULAM,ERNAKULAM,KERALA
"KERALA GRAMIN BANK",KLGB0040549,682480009,MULAMTHURUTHY,"PALAL BUILDINGS,P.O.MULAMTHURUTHY,ERNAKULAM,KERALA,PIN -682314",2743851,ERNAKULAM,ERNAKULAM,KERALA
"KERALA GRAMIN BANK",KLGB0040548,682480006,"NORTH PARAVOOR","R.K.BUILDING,K.M.K.JUNCTION,P.O.NORTH PARAVOOR,ERNAKULAM,KERALA,PIN -683513",2441410,ERNAKULAM,ERNAKULAM,KERALA
"KERALA GRAMIN BANK",KLGB0040547,686480202,KOTHAMANGALAM,"26 820,MARKE ESTATES,P.O.KOTHAMANGALAM,ERNAKULAM,KERALA,PIN -686691",2823430,ERNAKULAM,ERNAKULAM,KERALA
"KERALA GRAMIN BANK",KLGB0040546,686480152,KANJIRAPPALLY,"KURISINKAL,P.O.KANJIRAPPALLY,KOTTAYAM,KERALA,PIN -686507",203757,KOTTAYAM,KOTTAYAM,KERALA
"KERALA GRAMIN BANK",KLGB0040545,686480102,ERATTUPETTA,"PULICKAL PALACE,P.O.ERATTUPETTA,KOTTAYAM,KERALA,PIN -686121",277263,KOTTAYAM,KOTTAYAM,KERALA
"KERALA GRAMIN BANK",KLGB0040544,686480652,MUNDAKKAYAM,"CSI CHURCH BUILDINGS,K.K.ROAD,P.O.MUNDAKKAYAM,KOTTAYAM,KERALA,PIN -686513",273264,KOTTAYAM,KOTTAYAM,KERALA
"KERALA GRAMIN BANK",KLGB0040543,686480452,KOOTHATTUKULAM,"PADINJARAYIL BUILDINGS,M.C.ROAD,P.O.KOOTHATTUKULAM,ERNAKULAM,KERALA,PIN -686662",2253703,ERNAKULAM,ERNAKULAM,KERALA
"KERALA GRAMIN BANK",KLGB0040542,686480502,PAMPADY,"VADAKARA BUILDING,K.K.ROAD,P.O.PAMPADY,KOTTAYAM,KERALA,PIN -686502",2508966,KOTTAYAM,KOTTAYAM,KERALA
"KERALA GRAMIN BANK",KLGB0040541,686480702,THALAYOLAPARAMBU,"ANAPPARAMBIL SHOPPING COMPLEX,NEAR BUS STAND,P.O.THALAYOLAPARAMBU,KOTTAYAM,KERALA,PIN -686605",237766,KOTTAYAM,KOTTAYAM,KERALA
"KERALA GRAMIN BANK",KLGB0040540,682480004,ALUVA,"KAKKAT BUILDING,MARKET ROAD,OPP FIRE STATION,P.O.ALUVA,ERNAKULAM,KERALA,PIN -683101",2620825,ERNAKULAM,ERNAKULAM,KERALA
"KERALA GRAMIN BANK",KLGB0040539,683480002,ANGAMALY,"KALLOOKKARAN TOWERS,P.O.ANGAMALY,ERNAKULAM,KERALA,PIN -683572",2459610,ERNAKULAM,ERNAKULAM,KERALA
"KERALA GRAMIN BANK",KLGB0040538,670480110,KUTHUPARAMBA,"PUTHANPURA BUILDING,KANNUR ROAD,P.O.KUTHUPARAMBA,KANNUR,KERALA,PIN -670643",2365399,KANNUR,KANNUR,KERALA
"KERALA GRAMIN BANK",KLGB0040537,682480003,KALOOR,"PUTHUSSERY BUILDINGS,P.O.KALOOR,ERNAKULAM,KERALA,PIN -682017",539191,ERNAKULAM,ERNAKULAM,KERALA
"KERALA GRAMIN BANK",KLGB0040536,686480002,KOTTAYAM,"PULIMOOTTIL ARCADE,K.K.ROAD,P.O.MUTTAMBALAM,KOTTAYAM,KERALA,PIN -686004",570194,KOTTAYAM,KOTTAYAM,KERALA
"KERALA GRAMIN BANK",KLGB0040535,686480352,ETTUMANOOR,"EDENS SHOPPING CENTRE,CENTRAL JUNCTION,PALA ROAD,P.O.ETTUMANOOR,KOTTAYAM,KERALA,PIN -686631",2530538,KOTTAYAM,KOTTAYAM,KERALA
"KERALA GRAMIN BANK",KLGB0040534,686480302,PALAI,"AVANTHI COMPLEX,THODUPUZHA ROAD,P.O.PALAI,KOTTAYAM,KERALA,PIN -686575",2200833,KOTTAYAM,KOTTAYAM,KERALA
"KERALA GRAMIN BANK",KLGB0040533,686480252,MUVATTUPUZHA,"YAS BUILDING,NEAR NEHRU PARK,MARKET,P.O.MUVATTUPUZHA,ERNAKULAM,KERALA,PIN -686673",2836777,ERNAKULAM,ERNAKULAM,KERALA
"KERALA GRAMIN BANK",KLGB0040532,682480002,"ERNAKULAM MAIN","ENSIGN ENCLAVE,M.G.ROAD,P.O.ERNAKULAM,ERNAKULAM,KERALA,PIN -682011",2375217,ERNAKULAM,ERNAKULAM,KERALA
"KERALA GRAMIN BANK",KLGB0040531,670480163,TRIKARIPUR,"TRIKARIPUR,P.O.TRIKARIPUR,KASARAGOD,KERALA,PIN -671310",2215190,KASARAGOD,KASARAGOD,KERALA
"KERALA GRAMIN BANK",KLGB0040530,670480016,PAPPINISSERY,"NEAR RAILWAY GATE,P.O.PAPPINISSERY,KANNUR,KERALA,PIN -670561",2787320,KANNUR,KANNUR,KERALA
"KERALA GRAMIN BANK",KLGB0040529,671480823,UPPALA,"OPP.BUS STAND,P.O.UPPALA,KASARAGOD,KERALA,PIN -671322",241975,KASARAGOD,KASARAGOD,KERALA
"KERALA GRAMIN BANK",KLGB0040528,673480052,NEWMAHE,"AMJAD COMPLEX,P.O.NEW MAHE,KANNUR,KERALA,PIN -673311",2337494,KANNUR,KANNUR,KERALA
"KERALA GRAMIN BANK",KLGB0040527,670480208,PANAMARAM,"PANAMARAM,P.O.PANAMARAM,WYNAD,KERALA,PIN -670721",220975,WAYANAD,WAYANAD,KERALA
"KERALA GRAMIN BANK",KLGB0040526,671480003,VIDYANAGAR,"VIDYANAGAR,P.O.VIDYANAGAR,KASARAGOD,KERALA,PIN -671123",255152,KASARAGOD,KASARAGOD,KERALA
"KERALA GRAMIN BANK",KLGB0040525,670480839,ULIKKAL,"ULIKKAL,P.O.ULIKKAL,KANNUR,KERALA,PIN -670705",2228560,KANNUR,KANNUR,KERALA
"KERALA GRAMIN BANK",KLGB0040524,671480822,HOSANGADI,"HOSANGADI,P.O.MANJESWAR,KASARAGOD,KERALA,PIN -671323",273050,KASARAGOD,KASARAGOD,KERALA
"KERALA GRAMIN BANK",KLGB0040523,670480838,MATTANNOOR,"MATTANNUR,P.O.MATTANNUR,KANNUR,KERALA,PIN -670702",2472125,KANNUR,KANNUR,KERALA
"KERALA GRAMIN BANK",KLGB0040522,670480837,KATTIMOOLA,"KATTIMOOLA,P.O.VALAD,WYNAD,KERALA,PIN -670644",266047,WAYANAD,WAYANAD,KERALA
"KERALA GRAMIN BANK",KLGB0040521,670480057,KOYYAM,"KOYYAM,P.O.CHENGALAYI,KANNUR,KERALA,PIN -670631",2231268,KANNUR,KANNUR,KERALA
"KERALA GRAMIN BANK",KLGB0040520,670480836,KOZHICHAL,"KOZHICHAL,P.O.KOZHICHAL,KANNUR,KERALA,PIN -670511",212215,KANNUR,KANNUR,KERALA
"KERALA GRAMIN BANK",KLGB0040519,671480821,PERALADKAM,"PERALADKAM,P.O.KOLATHUR,KASARAGOD,KERALA,PIN -671541",210303,KASARAGOD,KASARAGOD,KERALA
"KERALA GRAMIN BANK",KLGB0040518,671480058,NILESHWAR,"NILESHWAR,P.O.NILESHWAR,KASARAGOD,KERALA,PIN -671314",2280905,KASARAGOD,KASARAGOD,KERALA
"KERALA GRAMIN BANK",KLGB0040517,671460013,KUMBALA,"GOKUL BUILDING,MAIN JUNCTION,P.O.KUMBALA,KASARAGOD,KERALA,PIN -671321",213272,KASARAGOD,KASARAGOD,KERALA
"KERALA GRAMIN BANK",KLGB0040516,671480057,PADNEKAT,"OPP.NEHRU COLLEGE,P.O.PADNEKAT,KASARAGOD,KERALA,PIN -671328",2281370,KASARAGOD,KASARAGOD,KERALA
"KERALA GRAMIN BANK",KLGB0040515,671480012,EDNEER,"EDNEER,P.O.EDNEER,KASARAGOD,KERALA,PIN -671541",280932,KASARAGOD,KASARAGOD,KERALA
"KERALA GRAMIN BANK",KLGB0040514,670480835,THILLANKERI,"THILLANKERI,P.O.THILLANKERI-,KANNUR,KERALA,PIN -670702",2405362,KANNUR,KANNUR,KERALA
"KERALA GRAMIN BANK",KLGB0040513,670480007,PUTHIYATHERU,"PUTHIYATHERU,P.O.CHIRAKKAL,KANNUR,KERALA,PIN -670011",2776264,KANNUR,KANNUR,KERALA
"KERALA GRAMIN BANK",KLGB0040512,670480162,PERALAM,"PERALAM,P.O.KOZHUMMAL,KANNUR,KERALA,PIN -670522",260469,KANNUR,KANNUR,KERALA
"KERALA GRAMIN BANK",KLGB0040511,671480820,VELLARIKUNDU,"VELLARIKKUNDU,P.O.VELLARIKKUNDU,KASARAGOD,KERALA,PIN -671533",2242270,KASARAGOD,KASARAGOD,KERALA
"KERALA GRAMIN BANK",KLGB0040510,671480819,VANINAGAR,"VANINAGAR,P.O.VANINAGAR,KASARAGOD,KERALA,PIN -671552",266110,KASARAGOD,KASARAGOD,KERALA
"KERALA GRAMIN BANK",KLGB0040509,671480818,DELAMPADY,"DELAMPADY PARAPPA,P.O.PARAPPA,KASARAGOD,KERALA,PIN -671543",270303,KASARAGOD,KASARAGOD,KERALA
"KERALA GRAMIN BANK",KLGB0040508,670480056,CHORKALA,"POKKUNDU,P.O.KURUMATHUR,KANNUR,KERALA,PIN -670142",2224674,KANNUR,KANNUR,KERALA
"KERALA GRAMIN BANK",KLGB0040507,670480834,UDAYAGIRI,"UDAYAGIRI,P.O.UDAYAGIRI,KANNUR,KERALA,PIN -670571",2286380,KANNUR,KANNUR,KERALA
"KERALA GRAMIN BANK",KLGB0040506,671480817,BELLUR,"KINNINGAR,P.O.KINNINGAR,KASARAGOD,KERALA,PIN -671543",266120,KASARAGOD,KASARAGOD,KERALA
"KERALA GRAMIN BANK",KLGB0040505,670480002,"KANNUR MAIN","HAJEE BUILDING,FORT ROAD,P B NO.83,P.O.KANNUR,KANNUR,KERALA,PIN -670001",2712377,KANNUR,KANNUR,KERALA
"KERALA GRAMIN BANK",KLGB0040504,671480053,RAMNAGAR,"MAVUNKAL,P.O.ANANDASHRAM,KASARAGOD,KERALA,PIN -671531",2203065,KASARAGOD,KASARAGOD,KERALA
"KERALA GRAMIN BANK",KLGB0040503,670480006,PALLIKUNNU,"OPP.KOYILI HOSPITAL,P.O.PALLIKUNNU,KANNUR,KERALA,PIN -670004",2707604,KANNUR,KANNUR,KERALA
"KERALA GRAMIN BANK",KLGB0040502,670480109,EDAKKAD,"EDAKKAD,P.O.EDAKKAD,KANNUR,KERALA,PIN -670663",2832921,KANNUR,KANNUR,KERALA
"KERALA GRAMIN BANK",KLGB0040501,670480005,"THAZHE CHOVVA","THAZHECHOVVA,P.O.THAZHE CHOVVA,KANNUR,KERALA,PIN -670006",2727905,KANNUR,KANNUR,KERALA
"KERALA GRAMIN BANK",KLGB0040500,671480816,BANDIYODE,"BANDIYODU,P.O.MANGALPADY,KASARAGOD,KERALA,PIN -671324",240984,KASARAGOD,KASARAGOD,KERALA
"KERALA GRAMIN BANK",KLGB0040499,670480015,VELLACHAL,"VELLACHAL,P.O.MAKRERI,KANNUR,KERALA,PIN -670622",2827328,KANNUR,KANNUR,KERALA
"KERALA GRAMIN BANK",KLGB0040498,670480833,TRIKADARIPOYIL,"TRIKADARIPOIL,P.O.THOLAMBRA,KANNUR,KERALA,PIN -670673",2400530,KANNUR,KANNUR,KERALA
"KERALA GRAMIN BANK",KLGB0040497,670480832,MOKERI,"MOKERI,P.O.MOKERI,KANNUR,KERALA,PIN -670692",2311940,KANNUR,KANNUR,KERALA
"KERALA GRAMIN BANK",KLGB0040496,670480108,CHAMPAD,"CHAMPAD,P.O.CHAMPAD,KANNUR,KERALA,PIN -670694",2311010,KANNUR,KANNUR,KERALA
"KERALA GRAMIN BANK",KLGB0040495,670480819,ERUVESSY,"ERUVASSY,P.O.CHEMPERI,KANNUR,KERALA,PIN -670632",2212397,KANNUR,KANNUR,KERALA
"KERALA GRAMIN BANK",KLGB0040494,670480161,KUNHIMANGALAM,"EDAT,P.O.EDAT,KANNUR,KERALA,PIN -670327",2805676,KANNUR,KANNUR,KERALA
"KERALA GRAMIN BANK",KLGB0040493,670480055,KARIMBAM,"KARIMBAM,P.O.KARIMBAM,KANNUR,KERALA,PIN -670142",2203254,KANNUR,KANNUR,KERALA
"KERALA GRAMIN BANK",KLGB0040492,671480815,PANATHUR,"PANATHUR,P.O.PANATHUR,KASARAGOD,KERALA,PIN -671532",2227360,KASARAGOD,KASARAGOD,KERALA
"KERALA GRAMIN BANK",KLGB0040491,670480831,ANGADIKADAVU,"ANGADIKADAVU,P.O.ANGADIKADAVU,KANNUR,KERALA,PIN -670706",2426160,KANNUR,KANNUR,KERALA
"KERALA GRAMIN BANK",KLGB0040490,670480152,PAYYANNUR,"PAYYANNUR,P.O.PAYYANNUR,KANNUR,KERALA,PIN -670307",229101,KANNUR,KANNUR,KERALA
"KERALA GRAMIN BANK",KLGB0040489,670480830,NEENDUNOKKI,"NEENDUNOKKI,P.O.KOTTIYOOR,KANNUR,KERALA,PIN -670674",2430860,KANNUR,KANNUR,KERALA
"KERALA GRAMIN BANK",KLGB0040488,670480207,KELLUR,"MANANTHAVADY,P.O.NALLOORNADU,WYNAD,KERALA,PIN -670645",244151,WAYANAD,WAYANAD,KERALA
"KERALA GRAMIN BANK",KLGB0040487,670480829,IRITTY,"IRITTY,P.O.IRITTY,KANNUR,KERALA,PIN -670703",2491469,KANNUR,KANNUR,KERALA
"KERALA GRAMIN BANK",KLGB0040486,670480828,THERTHALLY,"THERTHALLY,P.O.THERTHALLY,KANNUR,KERALA,PIN -670571",2285292,KANNUR,KANNUR,KERALA
"KERALA GRAMIN BANK",KLGB0040485,671480814,SAJANKILA,"SAJANKILA,P.O.BAYAR,KASARAGOD,KERALA,PIN -671322",205738,KASARAGOD,KASARAGOD,KERALA
"KERALA GRAMIN BANK",KLGB0040484,670480827,"PADIYUR KALLIAD","PADIYUR,P.O.PADIYUR,KANNUR,KERALA,PIN -670703",2273011,KANNUR,KANNUR,KERALA
"KERALA GRAMIN BANK",KLGB0040483,671480813,KODLAMOGARU,"VIA.MANJESWAR,P.O.KODLAMOGARU,KASARAGOD,KERALA,PIN -671323",202180,KASARAGOD,KASARAGOD,KERALA
"KERALA GRAMIN BANK",KLGB0040482,670480826,PATHIRIYAD,"PATHIRIYAD PALA,P.O.SHANKARANELLUR,KANNUR,KERALA,PIN -670643",2362461,KANNUR,KANNUR,KERALA
"KERALA GRAMIN BANK",KLGB0040481,670480206,KALLODI,"KALLODI,P.O.EDAVAKA,WYNAD,KERALA,PIN -670645",241781,WAYANAD,WAYANAD,KERALA
"KERALA GRAMIN BANK",KLGB0040480,670480825,CHITTARIPARAMBA,"CHITTARIPARAMBA,P.O.CHITTARIPPARAMBA,KANNUR,KERALA,PIN -670650",2300530,KANNUR,KANNUR,KERALA
"KERALA GRAMIN BANK",KLGB0040479,670480014,KANNADIPPARAMBA,"KANNADIPPARAMBA,P.O.KANNADIPARAMABA,KANNUR,KERALA,PIN -670604",2796750,KANNUR,KANNUR,KERALA
"KERALA GRAMIN BANK",KLGB0040478,670480205,THAVINHAL,"THAVINHAL,P.O.THALAPPUZHA,WYNAD,KERALA,PIN -670644",256306,WAYANAD,WAYANAD,KERALA
"KERALA GRAMIN BANK",KLGB0040477,670480013,CHAKKARAKKAL,"CHAKKARAKKAL,P.O.MOWANCHERRY,KANNUR,KERALA,PIN -670613",2851733,KANNUR,KANNUR,KERALA
"KERALA GRAMIN BANK",KLGB0040476,670480202,MANANTHAVADY,"MANANTHAVADY,P.O.MANANTHAVADY,WYNAD,KERALA,PIN -670645",246547,WAYANAD,WAYANAD,KERALA
"KERALA GRAMIN BANK",KLGB0040475,671480011,MADHUR,"MADHUR,P.O.MADHUR,KASARAGOD,KERALA,PIN -671124",240456,KASARAGOD,KASARAGOD,KERALA
"KERALA GRAMIN BANK",KLGB0040474,670480160,PAYANGADI,"PAYANGADI,P.O.PAYANGADI R.S,KANNUR,KERALA,PIN -670358",2870660,KANNUR,KANNUR,KERALA
"KERALA GRAMIN BANK",KLGB0040473,671480010,BOVIKANAM,"BOVIKANAM,P.O.MULIYAR,KASARAGOD,KERALA,PIN -671542",250104,KASARAGOD,KASARAGOD,KERALA
"KERALA GRAMIN BANK",KLGB0040472,670480102,THALASSERY,"THALASSERY,P.O.THALASSERY,KANNUR,KERALA,PIN -670101",2322790,KANNUR,KANNUR,KERALA
"KERALA GRAMIN BANK",KLGB0040471,671480002,KASARAGOD,"TIGER HILLS,MUNICIPAL OFFICE ROAD,P.O.KASARAGOD,KASARAGOD,KERALA,PIN -671121",231941,KASARAGOD,KASARAGOD,KERALA
"KERALA GRAMIN BANK",KLGB0040470,671480812,JODUKKALLU,"JODUKKALLU,P.O.KAYYAR,KASARAGOD,KERALA,PIN -671322",205110,KASARAGOD,KASARAGOD,KERALA
"KERALA GRAMIN BANK",KLGB0040469,671480009,TRIKKANAD,"TRIKKANNAD,P.O.UDUMA,KASARAGOD,KERALA,PIN -671319",2236618,KASARAGOD,KASARAGOD,KERALA
"KERALA GRAMIN BANK",KLGB0040468,670480824,CHAVASSERY,"CHAVASSERY,P.O.CHAVASSERY,KANNUR,KERALA,PIN -670702",2433842,KANNUR,KANNUR,KERALA
"KERALA GRAMIN BANK",KLGB0040467,670480107,POOKODE,"POOKODE,P.O.POOKODE,KANNUR,KERALA,PIN -670691",2362011,KANNUR,KANNUR,KERALA
"KERALA GRAMIN BANK",KLGB0040466,670480823,CHEMPANTHOTTY,"CHEMPANTHOTTY,P.O.CHEMPANTHOTTY,KANNUR,KERALA,PIN -670631",2267273,KANNUR,KANNUR,KERALA
"KERALA GRAMIN BANK",KLGB0040465,670480822,CHUZHALI,"CHUZHALI,P.O.CHUZHALI,KANNUR,KERALA,PIN -670631",2268434,KANNUR,KANNUR,KERALA
"KERALA GRAMIN BANK",KLGB0040464,671480052,KANHANGAD,"KOTTACHERY,P.O.KANHANGAD,KASARAGOD,KERALA,PIN -671315",209804,KASARAGOD,KASARAGOD,KERALA
"KERALA GRAMIN BANK",KLGB0040463,670480821,THONDIYIL,"THONDIYIL,P.O.THONDIYIL,KANNUR,KERALA,PIN -670673",2444773,KANNUR,KANNUR,KERALA
"KERALA GRAMIN BANK",KLGB0040462,670480820,PADIYOTCHAL,"PADIYOTCHAL,P.O.PADIYOTCHAL,KANNUR,KERALA,PIN -670307",240073,KANNUR,KANNUR,KERALA
"KERALA GRAMIN BANK",KLGB0040461,670480845,KARUVANCHAL,"KARUVANCHAL,P.O.KARUVANCHAL,KANNUR,KERALA,PIN -670571",2245579,KANNUR,KANNUR,KERALA
"KERALA GRAMIN BANK",KLGB0040460,670480111,"WEST PONNIAM","WESTPONNIAM,P.O.WEST PONNIAM,KANNUR,KERALA,PIN -670641",2306141,KANNUR,KANNUR,KERALA
"KERALA GRAMIN BANK",KLGB0040459,671480811,KUNJATHUR,"UDYAVAR,P.O.KUNJATHUR,KASARAGOD,KERALA,PIN -671323",278871,KASARAGOD,KASARAGOD,KERALA
"KERALA GRAMIN BANK",KLGB0040458,671480810,MUNNAD,"MUNNAD,P.O.MUNNAD,KASARAGOD,KERALA,PIN -671541",205448,KASARAGOD,KASARAGOD,KERALA
"KERALA GRAMIN BANK",KLGB0040457,671480056,MADIYAN,"MADIYAN,P.O.MANIKOTH,KASARAGOD,KERALA,PIN -671329",2267557,KASARAGOD,KASARAGOD,KERALA
"KERALA GRAMIN BANK",KLGB0040456,670480054,EZHOME,"EZHOME,P.O.EZHOME,KANNUR,KERALA,PIN -670334",2816395,KANNUR,KANNUR,KERALA
"KERALA GRAMIN BANK",KLGB0040455,670480105,PARAL,"PARAL,P.O.PARAL,KANNUR,KERALA,PIN -670671",2356131,KANNUR,KANNUR,KERALA
"KERALA GRAMIN BANK",KLGB0040454,671480008,MELPARAMBA,"MELPARAMBA,P.O.KALNAD,KASARAGOD,KERALA,PIN -671317",237305,KASARAGOD,KASARAGOD,KERALA
"KERALA GRAMIN BANK",KLGB0040453,670480817,OLAYAMPADY,"OLAYAMPADY,P.O.OLAYAMPADY,KANNUR,KERALA,PIN -670306",251110,KANNUR,KANNUR,KERALA
"KERALA GRAMIN BANK",KLGB0040452,670480052,TALIPARAMBA,"TALIPARAMBA,P.O.TALIPARAMBA,KANNUR,KERALA,PIN -670141",2203375,KANNUR,KANNUR,KERALA
"KERALA GRAMIN BANK",KLGB0040451,671480007,"ADOOR KASARGODE","ADOOR,P.O.URDOOR,KASARAGOD,KERALA,PIN -671543",270156,KASARAGOD,KASARAGOD,KERALA
"KERALA GRAMIN BANK",KLGB0040450,670480816,KEEZHPALLY,"KEEZHPALLY,P.O.KEEZHPALLY,KANNUR,KERALA,PIN -670704",2454503,KANNUR,KANNUR,KERALA
"KERALA GRAMIN BANK",KLGB0040449,671480809,MEEYAPADAVU,"MEEYAPADAVU,P.O.MEEYAPADAVU,KASARAGOD,KERALA,PIN -671323",252122,KASARAGOD,KASARAGOD,KERALA
"KERALA GRAMIN BANK",KLGB0040448,670480818,MANAKKADAVU,"MANAKKADAVU,P.O.MANAKKADAVU,KANNUR,KERALA,PIN -670571",2286721,KANNUR,KANNUR,KERALA
"KERALA GRAMIN BANK",KLGB0040447,670480053,CHAPPARAPADAVU,"CHAPPARAPADAVU,P.O.CHAPPARAPADAVU,KANNUR,KERALA,PIN -670581",2270244,KANNUR,KANNUR,KERALA
"KERALA GRAMIN BANK",KLGB0040446,670480106,KALLIKANDY,"KALLIKANDY,P.O.KALLIKANDY,KANNUR,KERALA,PIN -670693",2462095,KANNUR,KANNUR,KERALA
"KERALA GRAMIN BANK",KLGB0040445,670480009,KUNHIPPALLY,"KUNHIPPALLY,P.O.KOTTALI,KANNUR,KERALA,PIN -670005",2707544,KANNUR,KANNUR,KERALA
"KERALA GRAMIN BANK",KLGB0040444,670480815,KARETTA,"URUVACHAL,P.O.URUVACHAL,KANNUR,KERALA,PIN -670702",2477727,KANNUR,KANNUR,KERALA
"KERALA GRAMIN BANK",KLGB0040443,670480814,PERATTA,"PERATTA,P.O.KOOTUPUZHA,KANNUR,KERALA,PIN -670706",2420757,KANNUR,KANNUR,KERALA
"KERALA GRAMIN BANK",KLGB0040442,671480055,"PERIYA BAZAR","PERIYABAZAR,P.O.PERIYA,KASARAGOD,KERALA,PIN -671316",2234050,KASARAGOD,KASARAGOD,KERALA
"KERALA GRAMIN BANK",KLGB0040441,670480813,KELAKAM,"KELAKAM,P.O.KELAKAM,KANNUR,KERALA,PIN -670674",2412047,KANNUR,KANNUR,KERALA
"KERALA GRAMIN BANK",KLGB0040440,670480812,CHERUVANCHERRY,"CHERUVANCHERY,P.O.CHERUVANCHERRY,KANNUR,KERALA,PIN -670650",2304403,KANNUR,KANNUR,KERALA
"KERALA GRAMIN BANK",KLGB0040439,670480104,PINARAYI,"PINARAYI,P.O.PINARAYI,KANNUR,KERALA,PIN -670741",2382739,KANNUR,KANNUR,KERALA
"KERALA GRAMIN BANK",KLGB0040438,671480808,PARAPPA,"PARAPPA,P.O.PARAPPA,KASARAGOD,KERALA,PIN -671533",2254202,KASARAGOD,KASARAGOD,KERALA
"KERALA GRAMIN BANK",KLGB0040437,671480054,AMBALATHARA,"AMBALATHARA,(VIA ) ANANDASHRAM,P.O.PULLUR,KASARAGOD,KERALA,PIN -671531",2243680,KASARAGOD,KASARAGOD,KERALA
"KERALA GRAMIN BANK",KLGB0040436,670480159,CHERUVATHUR,"CHERUVATHUR,P.O.CHERUVATHUR,KASARAGOD,KERALA,PIN -671313",2260260,KASARAGOD,KASARAGOD,KERALA
"KERALA GRAMIN BANK",KLGB0040435,671480807,VALLIKADAVU,"VALLIKADAVU,VETTIKALOLIKAL BUILDING,PARAPPA ( VIA),P.O.VALLIKKADAVU,KASARAGOD,KERALA,PIN -671533",2247470,KASARAGOD,KASARAGOD,KERALA
"KERALA GRAMIN BANK",KLGB0040434,670480811,KOLAYAD,"KOLAYAD,P.O.KOLAYAD,KANNUR,KERALA,PIN -670643",2302412,KANNUR,KANNUR,KERALA
"KERALA GRAMIN BANK",KLGB0040433,670480158,VALIYAPARAMBA,"VALIYAPARAMBA,P.O.VALIYAPARAMBA,KASARAGOD,KERALA,PIN -671312",2258358,KASARAGOD,KASARAGOD,KERALA
"KERALA GRAMIN BANK",KLGB0040432,671480806,KALCHANADKA,"KALCHANADKA,(VIA ) NILESWAR,P.O.KALCHANADKA,KASARAGOD,KERALA,PIN -671314",2256110,KASARAGOD,KASARAGOD,KERALA
"KERALA GRAMIN BANK",KLGB0040431,670480004,THAYYIL,"THAYYIL,P.O.THAYYIL,KANNUR,KERALA,PIN -670003",2731456,KANNUR,KANNUR,KERALA
"KERALA GRAMIN BANK",KLGB0040430,670480810,VATTIANTHODU,"VATTIAMTHODU,P.O.VATTIAMTHODU,KANNUR,KERALA,PIN -670705",2216029,KANNUR,KANNUR,KERALA
"KERALA GRAMIN BANK",KLGB0040429,671480006,CHENGALA,"CHERKALA,P.O.CHENGALA,KASARAGOD,KERALA,PIN -671541",280283,KASARAGOD,KASARAGOD,KERALA
"KERALA GRAMIN BANK",KLGB0040428,670480103,PERINGATHUR,"PERINGATHUR,P.O.PERINGATHUR,KANNUR,KERALA,PIN -670675",2393055,KANNUR,KANNUR,KERALA
"KERALA GRAMIN BANK",KLGB0040427,670480157,CHEEMENI,"CHEEMENI,P.O.CHEEMENI,KASARAGOD,KERALA,PIN -671313",2250345,KASARAGOD,KASARAGOD,KERALA
"KERALA GRAMIN BANK",KLGB0040426,670480809,KARIKOTTAKARI,"KARIKKOTTAKARI,P.O.KOOMANTHODE,KANNUR,KERALA,PIN -670704",2454566,KANNUR,KANNUR,KERALA
"KERALA GRAMIN BANK",KLGB0040425,670480808,KAKKENGAD,"KAKKENGAD,P.O.KAKKENGAD,KANNUR,KERALA,PIN -670673",2457930,KANNUR,KANNUR,KERALA
"KERALA GRAMIN BANK",KLGB0040424,670480012,KUDUKKIMOTTA,"KUDUKKIMOTTA,P.O.KOODALI,KANNUR,KERALA,PIN -670592",2857949,KANNUR,KANNUR,KERALA
"KERALA GRAMIN BANK",KLGB0040423,670480156,CHERUTHAZHAM,"PILATHARA,P.O.PILATHARA,KANNUR,KERALA,PIN -670501",2800210,KANNUR,KANNUR,KERALA
"KERALA GRAMIN BANK",KLGB0040422,670480003,THANA,"THANA,P.O.THANA,KANNUR,KERALA,PIN -670012",2704341,KANNUR,KANNUR,KERALA
"KERALA GRAMIN BANK",KLGB0040421,670480807,MATTOOL,"MATTOOL,P.O.MATTOOL,KANNUR,KERALA,PIN -670302",2842087,KANNUR,KANNUR,KERALA
"KERALA GRAMIN BANK",KLGB0040420,671480805,BANDADKA,"BANDADKA,P.O.BANDADKA,KASARAGOD,KERALA,PIN -671541",200210,KASARAGOD,KASARAGOD,KERALA
"KERALA GRAMIN BANK",KLGB0040419,670480806,PALAVAYAL,"PALAVAYAL,P.O.PALAVAYAL,KASARAGOD,KERALA,PIN -670511",212225,KASARAGOD,KASARAGOD,KERALA
"KERALA GRAMIN BANK",KLGB0040418,670480805,PAYYAVOOR,"PAYYAVOOR,P.O.PAYYAVOOR,KANNUR,KERALA,PIN -670633",2210143,KANNUR,KANNUR,KERALA
"KERALA GRAMIN BANK",KLGB0040417,671480005,PUTHIGE,"SEETHANGOLI,P.O.EDANAD,KASARAGOD,KERALA,PIN -671321",245224,KASARAGOD,KASARAGOD,KERALA
"KERALA GRAMIN BANK",KLGB0040416,671480804,PANATHADY,"PANATHADY,P.O.KOLICHAL,KASARAGOD,KERALA,PIN -671532",2228370,KASARAGOD,KASARAGOD,KERALA
"KERALA GRAMIN BANK",KLGB0040415,671480803,PERMUDE,"PERMUDE,P.O.PERMUDE,KASARAGOD,KERALA,PIN -671324",245205,KASARAGOD,KASARAGOD,KERALA
"KERALA GRAMIN BANK",KLGB0040414,670480155,UDINUR,"UDINUR,P.O.EDACHAKAI,KASARAGOD,KERALA,PIN -671310",2211250,KASARAGOD,KASARAGOD,KERALA
"KERALA GRAMIN BANK",KLGB0040413,671480802,JAYANAGARA,"JAYANAGARA,P.O.KUMBDAJE,KASARAGOD,KERALA,PIN -671551",260206,KASARAGOD,KASARAGOD,KERALA
"KERALA GRAMIN BANK",KLGB0040412,671480004,"MOGRAL PUTHUR","MOGRALPUTHUR,P.O.MOGRAL PUTHUR,KASARAGOD,KERALA,PIN -671124",233457,KASARAGOD,KASARAGOD,KERALA
"KERALA GRAMIN BANK",KLGB0040411,670480204,VELLAMUNDA,"VELLAMUNDA,P.O.KATTAYAD,WYNAD,KERALA,PIN -670731",230331,WAYANAD,WAYANAD,KERALA
"KERALA GRAMIN BANK",KLGB0040410,670480804,KUDIYANMALA,"KUDIYANMALA,P.O.KUDIYANMALA,KANNUR,KERALA,PIN -670582",2218666,KANNUR,KANNUR,KERALA
"KERALA GRAMIN BANK",KLGB0040409,670480154,MATHIL,"MATHIL,P.O.MATHIL,KANNUR,KERALA,PIN -670343",280520,KANNUR,KANNUR,KERALA
"KERALA GRAMIN BANK",KLGB0040408,670480153,RAMANTHALI,"RAMANTHALI,P.O.RAMANTHALI,KANNUR,KERALA,PIN -670308",222548,KANNUR,KANNUR,KERALA
"KERALA GRAMIN BANK",KLGB0040407,670480803,VENGAD,"VENGAD,P.O.VENGAD,KANNUR,KERALA,PIN -670612",2308572,KANNUR,KANNUR,KERALA
"KERALA GRAMIN BANK",KLGB0040406,671480801,NARKILAKKAD,"NARKILAKAD,P.O.KOTTAMALA,KASARAGOD,KERALA,PIN -671314",2241348,KASARAGOD,KASARAGOD,KERALA
"KERALA GRAMIN BANK",KLGB0040405,670480802,PERIYA,"PERIYA,P.O.PERIYA,WYNAD,KERALA,PIN -670644",260070,WAYANAD,WAYANAD,KERALA
"KERALA GRAMIN BANK",KLGB0040404,670480203,KARTIKULAM,"KARTIKULAM,P.O.KARTIKULAM,WYNAD,KERALA,PIN -670646",250441,WAYANAD,WAYANAD,KERALA
"KERALA GRAMIN BANK",KLGB0040403,670480801,KOLASSERY,"KAMBIL,P.O.KOLASSERY,KANNUR,KERALA,PIN -670601",240550,KANNUR,KANNUR,KERALA
"KERALA GRAMIN BANK",KLGB0040402,670480011,CHALA,"CHALA,P.O.CHALA EAST,KANNUR,KERALA,PIN -670621",2820733,KANNUR,KANNUR,KERALA
"KERALA GRAMIN BANK",KLGB0040401,670480842,EDAYANNUR,"CHALOD,P.O.EDAYANNUR,KANNUR,KERALA,PIN -670595",2484241,KANNUR,KANNUR,KERALA
"KERALA GRAMIN BANK",KLGB0040400,NA,"THRISSUR RO","SUN TOWER,EAST FORT PO,THRISSUR -680005",2446826,THRISSUR,THRISSUR,KERALA
"KERALA GRAMIN BANK",KLGB0040399,NA,"THIRUVANANTHAPURAM RO","TC 5/1089/3,RJ TOWERS,PEROORKADA,TRIVANDRUM -695005",2434303,TRIVANDRUM,TRIVANDRUM,KERALA
"KERALA GRAMIN BANK",KLGB0040398,NA,"THALASSERY RO","44/331,SUDAYA COMPLEX,MM ROAD,THALASSERY,KANNUR DISTRICT -670101",2341303,KANNUR,KANNUR,KERALA
"KERALA GRAMIN BANK",KLGB0040397,NA,"PERINTHALMANNA RO","THARAYIL TRADE CENTRE,BYE PASS BUS STAND,PERINTHALMANNA -679332",229660,MALAPPURAM,MALAPPURAM,KERALA
"KERALA GRAMIN BANK",KLGB0040396,NA,"KOZHIKODE RO","CYMA BUILDING,KANNUR ROAD,KOZHIKODE -673101",2761540,KOZHIKODE,KOZHIKODE,KERALA
"KERALA GRAMIN BANK",KLGB0040395,NA,"KASARAGOD RO","TIGER HILLS,VII/3K/C,KASARGOAD -671121",222053,KASARAGOD,KASARAGOD,KERALA
"KERALA GRAMIN BANK",KLGB0040394,NA,"KANNUR RO","KGB TOWERS,PALLIKUNNU,KANNUR DISTRICT -670004",2712377,KANNUR,KANNUR,KERALA
"KERALA GRAMIN BANK",KLGB0040393,NA,"KALPETTA RO","AMMOOS COMPLEX,KALPETTA -673 121",204309,WAYANAD,WAYANAD,KERALA
"KERALA GRAMIN BANK",KLGB0040392,NA,"ERNAKULAM RO","48/24A-3,DANFOSS ARCADE,PERANDOOR ROAD,POTTAKUZHI JN,KALOOR,COCHIN,ERNAKULAM -682026",2536302,ERNAKULAM,ERNAKULAM,KERALA
"KERALA GRAMIN BANK",KLGB0040391,685480203,UPPUTHARA,"UPPUTHARA METHRAN PARAMBIL BUILDING,UPPUTHARA ( PO),IDUKKI DISTRICT 685505",9244940,IDUKKI,IDUKKI,KERALA
"KERALA GRAMIN BANK",KLGB0040390,695480023,PERUMKUZHI,"PERUNGUZHI USHA BUILDINGS,PERUNGUZHI ( PO),TRIVANDRUM DISTRICT 695305",2634066,TRIVANDRUM,TRIVANDRUM,KERALA
"KERALA GRAMIN BANK",KLGB0040389,685480204,KUMILI,"KUMILI PARUNTHRICKAL BUILDING,KUMILI(PO),IDUKKY DISTRICT 685509",9222490,IDUKKI,IDUKKI,KERALA
"KERALA GRAMIN BANK",KLGB0040388,689480479,KULANADA,"KULANADA SAJ COMPLEX,M C ROAD,KULANADA ( PO),PATHANAMTHITTA DISTRICT 689503",4208400,PATHANAMTHITTA,PATHANAMTHITTA,KERALA
"KERALA GRAMIN BANK",KLGB0040387,673480051,KATTANGAL,"KATTANGAL OP BUILDING,NIT CAMPUS ( PO),KOZHIKODE DISTRICT 673601",2287188,KOZHIKODE,KOZHIKODE,KERALA
"KERALA GRAMIN BANK",KLGB0040386,689480478,ELAVUMTHITTA,"ELAVUMTHITTA KAMAL TOWER,ELAVUMTHITTA ( PO),PATHANAMTHITTA DISTRICT 689625",2257307,PATHANAMTHITTA,PATHANAMTHITTA,KERALA
"KERALA GRAMIN BANK",KLGB0040385,685480202,ELAPPARA,"ELAPPARA MATHA BUILDINGS,NEAR BUS STAND,ELAPPARA ( PO),IDUKKI DISTRICT 685501",242055,IDUKKI,IDUKKI,KERALA
"KERALA GRAMIN BANK",KLGB0040384,679480159,ANGADIPPURAM,"ANGADIPPURAM ROYAL COMPLEX,ANGADIPPURAM ( PO),MALAPPURAM DISTRICT 679321",253284,MALAPPURAM,MALAPPURAM,KERALA
"KERALA GRAMIN BANK",KLGB0040383,679480355,ARANGOTTUKARA,"ARANGOTTUKARA EZHUMANGAD,PALLATH BUILDING,ARANGOTTUKARA ( PO),PALAKKAD DISTRICT 679532",2258130,PALAKKAD,PALAKKAD,KERALA
"KERALA GRAMIN BANK",KLGB0040382,679480106,KALIKAVU,"KALIKAVU VAYALIL POINT,KALIKAVU ( PO),MALAPPURAM DISTRICT 676525",258781,MALAPPURAM,MALAPPURAM,KERALA
"KERALA GRAMIN BANK",KLGB0040381,695480021,PRAVACHAMBALAM,"PRAVACHAMBALAM THEKKINAKATH BUILDING,NEMOM ( PO),TRIVANDRUM DISTRICT 695020",2390992,TRIVANDRUM,TRIVANDRUM,KERALA
"KERALA GRAMIN BANK",KLGB0040380,695480802,VELLARADA,"VELLARADA MIHAS BUILDING,ANAPPARA ROAD,VELLARADA ( PO),TRIVANDRUM DISTRICT 695505",2241067,TRIVANDRUM,TRIVANDRUM,KERALA
"KERALA GRAMIN BANK",KLGB0040379,695480022,VELLAR,"VELLAR NS BUILDING,KOVALAM ( PO),TRIVANDRUM DISTRICT 695527",2488379,TRIVANDRUM,TRIVANDRUM,KERALA
"KERALA GRAMIN BANK",KLGB0040378,680480801,MATTATHUR,"MATTATHUR CC TOWER,KODALY JN,PADY ( PO),THRISSUR DISTRICT 680699",2742121,THRISSUR,THRISSUR,KERALA
"KERALA GRAMIN BANK",KLGB0040377,695480019,MARANELLUR,"MARANALLOOR MAHADEVA SHOPPING COMPLEX,KUVALASSERY ( PO),TRIVANDRUM DISTRICT 695512",2297311,TRIVANDRUM,TRIVANDRUM,KERALA
"KERALA GRAMIN BANK",KLGB0040376,678480153,THACHAMPARA,"THACHAMPARA MS PLAZA,THACHAMPARA ( PO),PALAKKAD DISTRICT 678593",243121,PALAKKAD,PALAKKAD,KERALA
"KERALA GRAMIN BANK",KLGB0040375,680480303,ERUMAPETTY,"ERUMAPETTY MUSCAT SHOPPING COMPLEX,KADANGODE ROAD JN,ERUMAPETTY(PO),THRISSUR DISTRICT 680584",262563,THRISSUR,THRISSUR,KERALA
"KERALA GRAMIN BANK",KLGB0040374,679480354,KOPPAM,"KOPPAM ATHIRA COMPLEX,MULAYANKAVU ROAD,PULASSERI ( PO),KOPPAM,PALAKKAD DISTRICT 679307",2262071,PALAKKAD,PALAKKAD,KERALA
"KERALA GRAMIN BANK",KLGB0040373,689480106,MALAYALAPPUZHA,"MALAYALAPUZHA ARATTUKARA BUILDING,MANNARAKULANHI ROAD,THAZHAM(PO),PATHANAMTHITTA DISTRICT 689666",2300155,PATHANAMTHITTA,PATHANAMTHITTA,KERALA
"KERALA GRAMIN BANK",KLGB0040372,695480020,MALAYANKEEZHU,"AAIKZUKRISAGIRIBUIDIGS,AAIKZU(PO),TRIVADRU695571",2280009,TRIVANDRUM,TRIVANDRUM,KERALA
"KERALA GRAMIN BANK",KLGB0040371,689480253,CHALAPALLY,"CHALAPPALLY VALAVUMGAL BUILDING,PO.CHALAPPALLY,PATHANAMTHITTA DT,PIN 689586",2794142,PATHANAMTHITTA,PATHANAMTHITTA,KERALA
"KERALA GRAMIN BANK",KLGB0040370,689480477,THUMPAMON,"THUMBAMON PARUMALA MAR GREGORIOS DEATH CENTENARY MEMORIAL BUILDING,PO.THUMBAMON,PATHANAMTHITTA DT,PIN - 689502",266678,PATHANAMTHITTA,PATHANAMTHITTA,KERALA
"KERALA GRAMIN BANK",KLGB0040369,689480254,CHUNGAPARA,"CHUNGAPPARA THADATHIL BUILDINGS,PO.CHUNGAPPARA,PATHANAMTHITTA DT,PIN -686547",2696131,PATHANAMTHITTA,PATHANAMTHITTA,KERALA
"KERALA GRAMIN BANK",KLGB0040368,680480018,ANNAMANADA,"ANNAMANADA ROYAL PLAZA,OPP GOVT U.P.SCHOOL,(PO ) ANNAMANADA,THRISSUR DIST,PIN 680741",2771433,THRISSUR,THRISSUR,KERALA
"KERALA GRAMIN BANK",KLGB0040367,680480017,KOLAZHI,"KOLAZHI RASVI PLAZA,SHORNUR ROAD,(PO ) KOLAZHI,THRISSUR DIST,PIN-680010",2204033,THRISSUR,THRISSUR,KERALA
"KERALA GRAMIN BANK",KLGB0040366,680480016,MUTHUVARA,"MUTHUVARA ALAPPAT BUILDINGS,NO.VII/27,MUTHUVARA,PUZHAKKAL ( PO),THRISSUR DIST,PIN 680553",2309833,THRISSUR,THRISSUR,KERALA
"KERALA GRAMIN BANK",KLGB0040365,691480056,EZHAMKULAM,"EZHAMKULAM BRANCH CHENNIKKARETH COMPLEX,P.O.PARAKKODE,PATHANAMTHITTA DISTRICT -691554",240688,PATHANAMTHITTA,PATHANAMTHITTA,KERALA
"KERALA GRAMIN BANK",KLGB0040364,695480017,NAGAROOR,"NAGAROOR BRANCH NEAR KSEB OFFICE,P.O.ALTHARAMOOO,VIA ALAMCODE,TRIVANDRUM DISTRICT -695102",2678454,TRIVANDRUM,TRIVANDRUM,KERALA
"KERALA GRAMIN BANK",KLGB0040363,685480803,KANJAR,"KANJAR BRANCH VYAPARA BHAVAN P.O,KANJAR,IDUKKI DISTRICT -685592",252580,IDUKKI,IDUKKI,KERALA
"KERALA GRAMIN BANK",KLGB0040362,685480007,KALAYANTHANI,"KALAYANTHANI BAANCH KAITHAPARAMBIL BUILDING.P.O.KALAYANTHANI,IDUKKI DISTRICT -685588",276433,IDUKKI,IDUKKI,KERALA
"KERALA GRAMIN BANK",KLGB0040361,695480016,MANGALAPURAM,"MANGALAPURAM BRANCH KOORAVEETTIL BUILDING,MANGALAPURAM,P.O.THONNACKAL,TRIVANDRUM DISTRICT -695317",2617875,TRIVANDRUM,TRIVANDRUM,KERALA
"KERALA GRAMIN BANK",KLGB0040360,689480803,VENNIKULAM,"VENNIKULAM BRANCH CHANDRAVILASAM BUILDING,P.O.VENNIKULAM,PATHANAMTHITTA DISTRICT -689544",2650087,PATHANAMTHITTA,PATHANAMTHITTA,KERALA
"KERALA GRAMIN BANK",KLGB0040359,689480104,OMALLOOR,"OMALLOOR BRANCH OPP.VEDA HOSPITAL,P.O.OMALLOOR,PATHANAMTHITTA DISTRICT,PIN -689647",2350532,PATHANAMTHITTA,PATHANAMTHITTA,KERALA
"KERALA GRAMIN BANK",KLGB0040358,689480105,KIDANGANNUR,"KIDANGANNUR BRANCH KUMBAZHETHU BUILDING,P.O.KIDANGANNUR,PATHANAMTHITTA DISTRICT,PIN -689514",286269,PATHANAMTHITTA,PATHANAMTHITTA,KERALA
"KERALA GRAMIN BANK",KLGB0040357,685480006,VAZHITHALA,"VAZHITHALA BRANCH KURIANAL BUILDING,P.O.VAZHITHALA,IDUKKI DISTRICT,PIN -685583",274500,IDUKKI,IDUKKI,KERALA
"KERALA GRAMIN BANK",KLGB0040356,685480802,UDUMBANNOOR,"UDUMBANNOOR BRANCH NADUKKUDIYIL BUILDING,P.O.UDUMBANNOOR,IDUKKI DISTRICT,PIN -685595",272555,IDUKKI,IDUKKI,KERALA
"KERALA GRAMIN BANK",KLGB0040355,685480801,VANNAPURAM,"VANNAPURAM BRANCH PULICKIYIL SHOPPING COMPLEX,P.O.VANNAPURAM,IDUKKI DISTRICT,PIN -685607",245656,IDUKKI,IDUKKI,KERALA
"KERALA GRAMIN BANK",KLGB0040354,695480015,VELLANAD,"VELLANAD BRANCH MANNUVEETTIL SHOPPING COMPLEX,P.O.VELLANAD,TRIVANDRUM DISTRICT,PIN -695543",2883400,TRIVANDRUM,TRIVANDRUM,KERALA
"KERALA GRAMIN BANK",KLGB0040353,695480018,KALLARA,"KALLARA BRANCH LOVELY BUILDING,P.O.KALLARA,TRIVANDRUM DISTRICT,PIN -695608",2863022,TRIVANDRUM,TRIVANDRUM,KERALA
"KERALA GRAMIN BANK",KLGB0040352,695480255,KALLAMBALAM,"KALLAMBALAM BRANCH KALATHOOR BUILDINGS,P.O.KALLAMBALAM,TRIVANDRUM DISTRICT,PIN - 695605",2690007,TRIVANDRUM,TRIVANDRUM,KERALA
"KERALA GRAMIN BANK",KLGB0040351,695480254,NADAYARA,"NADAYARA BRANCH KALLUVILAKAM BUILDING,P.O.NADAYARA,TRIVANDRUM DISTRICT,PIN -695141",2610111,TRIVANDRUM,TRIVANDRUM,KERALA
"KERALA GRAMIN BANK",KLGB0040350,695480014,VITHURA,"VITHURA BRANCH SAFA BUILDING,VITHURA ( PO),TRIVANDRUM 695551",2857575,TRIVANDRUM,TRIVANDRUM,KERALA
"KERALA GRAMIN BANK",KLGB0040349,695480013,ARYANADU,"ARYANAD ULHAS PLAZA,ARYANAD ( PO),TRIVANDRUM 695542",2851700,TRIVANDRUM,TRIVANDRUM,KERALA
"KERALA GRAMIN BANK",KLGB0040348,695480012,UDIYANKULANGARA,"UDIYANKULANGARA BRANCH MORIAH BUILDING,UDIYANKULANGARA,P.O.AMARAVILA,TRIVANDRUM DISTRICT,PIN -695122",2230433,TRIVANDRUM,TRIVANDRUM,KERALA
"KERALA GRAMIN BANK",KLGB0040347,695480011,KANIYAPURAM,"KANIYAPURAM BRANCH SHIBI NIVAS,P.O.KANIYAPURAM,TRIVANDRUM DISTRICT,PIN -695301",2757875,TRIVANDRUM,TRIVANDRUM,KERALA
"KERALA GRAMIN BANK",KLGB0040346,695480010,POTHENKODE,"POTHENCODE BRANCH CHANTHAYIL KADAYIL BUILDING,NEAR TOWN MASJID,MELEMUKKU,P.O.POTHENCODE,TRIVANDRUM DT,PIN - 695584",2410144,TRIVANDRUM,TRIVANDRUM,KERALA
"KERALA GRAMIN BANK",KLGB0040345,695480253,KADAKKAVUR,"KADAKKAYUR BRANCH ACHUTHAM,CHEKKALA VILAKAM,P.O.KADAKKAVUR,TRIVANDRUM DISTRICT,PIN -695306",2656020,TRIVANDRUM,TRIVANDRUM,KERALA
"KERALA GRAMIN BANK",KLGB0040344,695480009,PANAVOOR,"PANAVUR BRANCH ARS BUILDING,P.O.PANAVOOR,TRIVANDRUM DISTRICT,PIN - 695568",2867260,TRIVANDRUM,TRIVANDRUM,KERALA
"KERALA GRAMIN BANK",KLGB0040343,695480008,KARETTE,"KARETTE PPK BUILDING,MC ROAD,KARETTE,PULIMATH,P.O.VAMANAPURAM,TRIVANDRUM DT,PIN - 695606",2836095,TRIVANDRUM,TRIVANDRUM,KERALA
"KERALA GRAMIN BANK",KLGB0040342,695480001,"TB CELL","KGB TOWERS,PALLIKUNNU,KANNUR DISTRICT -670004",2704810,KANNUR,KANNUR,KERALA
"KERALA GRAMIN BANK",KLGB0040341,695480007,"PANAVILA BRANCH","PANAVILA TC 26/859(14),FIRST FLOOR,TWINKLE PLAZA,PANAVILA JUNCTION P.O,THYCAUD,TRIVANDRUM -695014",2320199,TRIVANDRUM,TRIVANDRUM,KERALA
"KERALA GRAMIN BANK",KLGB0040340,695480801,"PALODE BRANCH","PALODE ABHI PLAZA,KARIMANKODE POST THIRUVANANDAPURAM PIN 695562",2840184,TRIVANDRUM,TRIVANDRUM,KERALA
"KERALA GRAMIN BANK",KLGB0040339,685480005,KARIMANNUR,"KARIMANNUR PARAYANILAMSHOPPIN-GCOMPLEXP.O.KARIMANNUR IDUKKI DT,PIN-685581",262020,IDUKKI,IDUKKI,KERALA
"KERALA GRAMIN BANK",KLGB0040338,695480006,VENJARAMOODU,"VENJARAMOOD S.N.COMPLEX,ATTINGALROAD,P.O.VENJARAMOODU,TRIVANDRUM DT,PIN-695607",2875455,TRIVANDRUM,TRIVANDRUM,KERALA
"KERALA GRAMIN BANK",KLGB0040337,695480005,KATTAKADA,"KATTAKADA WILLSBUILDING,COLLEGEROADP.O.KATTAKADA TRIVANDRUM DT,PIN-695572",2294080,TRIVANDRUM,TRIVANDRUM,KERALA
"KERALA GRAMIN BANK",KLGB0040336,691480052,ADOOR,"ADOOR,NADACKAVILGALAXY,OPP.GOVT.HOSPITAL,ADOOR.P.O,PATHANAMTHITTA DT,PIN-691523",223393,PATHANAMTHITTA,PATHANAMTHITTA,KERALA
"KERALA GRAMIN BANK",KLGB0040335,680480001,"SERVICE BRANCH THRISSUR","SUN TOWER,EAST FORT PO,THRISSUR -680005",2427750,THRISSUR,THRISSUR,KERALA
"KERALA GRAMIN BANK",KLGB0040334,695480004,SREEKARIYAM,"SREEKARYAM SREEVIJAYAM COMPLEX,PONGUMOODU,P.O.MEDICALCOLLEGE,TRIVANDRUM DT,PIN-695011",2558767,TRIVANDRUM,TRIVANDRUM,KERALA
"KERALA GRAMIN BANK",KLGB0040333,685480004,MUTTOM,"MUTTOM P.O.MUTTOMIDUKKI DT,PIN-685587",255888,IDUKKI,IDUKKI,KERALA
"KERALA GRAMIN BANK",KLGB0040332,679480204,"PONNANI SOUTH","PONNANISOUTH NEARPONNANIMUNCIPALOFFICEP.O.PONNANI SOUTH MALAPPURAM DT,PIN-679586",2667512,MALAPPURAM,MALAPPURAM,KERALA
"KERALA GRAMIN BANK",KLGB0040331,685480003,KARIMKUNNAM,"KARIMKUNNAM MUGALELBUILDING,P.O.KARIMKUNNAM IDUKKI DT,PIN-685586",243888,IDUKKI,IDUKKI,KERALA
"KERALA GRAMIN BANK",KLGB0040330,673480001,"SERVICE BRANCH KOZHIKODE","LAKSHMI BUILDING,KANNUR ROAD,KOZHIKODE DISTRICT -6731001",2768003,KOZHIKODE,KOZHIKODE,KERALA
"KERALA GRAMIN BANK",KLGB0040329,673480045,THIRUVAMBADY,"THIRUVAMBADY RAFI COMPLEX,THIRUVAMBADI.P.OIST FLOOR,KOZHIKODE DT,PIN-673603",2255725,KOZHIKODE,KOZHIKODE,KERALA
"KERALA GRAMIN BANK",KLGB0040328,685480002,THODUPUZHA,"THODUPUZHA KALARIKKAL BUILDING,NEAR PRIVATEBUS STAND,P.O.THODUPUZHA IDUKKI DT,PIN-685584",2224050,IDUKKI,IDUKKI,KERALA
"KERALA GRAMIN BANK",KLGB0040326,695480152,NEDUMANGAD,"NEDUMANGAD P.O.PAZHAKUTTY.NEDUMANGA D TRIVANDRUM DT,PIN-695561",2804646,TRIVANDRUM,TRIVANDRUM,KERALA
"KERALA GRAMIN BANK",KLGB0040325,695480102,BALARAMAPURAM,"BALARAMAPURAM SREEKRISHNA COMPLEXMAIN ROAD,BALARAMAPURAM.P.O.TRIVANDRUM DT,PIN-695501",2399155,TRIVANDRUM,TRIVANDRUM,KERALA
"KERALA GRAMIN BANK",KLGB0040324,695480052,ATTINGAL,"ATTINGAL SHINECOMPLEX,NEARKSRTCSTAND,THIRUVANANTHAPURAN DT,PIN-695101",2623930,TRIVANDRUM,TRIVANDRUM,KERALA
"KERALA GRAMIN BANK",KLGB0040323,695480002,PEROORKADA,"PEROORKKADA SANGEETH P.O.PEROORKKADA TRIVANDRUM DT,PIN-695005",2437322,TRIVANDRUM,TRIVANDRUM,KERALA
"KERALA GRAMIN BANK",KLGB0040322,695480003,MANACAUD,"MANACAUD NEHMATHPLAZA,P.O.MANACAUD TRIVANDRUM DT,PIN-695009",2465699,TRIVANDRUM,TRIVANDRUM,KERALA
"KERALA GRAMIN BANK",KLGB0040321,680480006,KUTTANELLUR,"KUTTANALLURT HAIVALAPPILBUILDING,THOTTAPPADY,P.O.KUTTANALLUR THRISSUR DT,PIN-680014",2354050,THRISSUR,THRISSUR,KERALA
"KERALA GRAMIN BANK",KLGB0040320,680480009,KANJANI,"KANHANI ANTHIKKAD ROAD,P.O.KANHANI.THRISSUR DT,PIN-682612",2631666,THRISSUR,THRISSUR,KERALA
"KERALA GRAMIN BANK",KLGB0040319,689480005,VALLAMKULAM,"VALLAMKULAM OORAYIL BUILDING,VENNIKULAM P.O.VALLAMKULAM PATHANAMTHITTA DT,PIN-689514",2609599,PATHANAMTHITTA,PATHANAMTHITTA,KERALA
"KERALA GRAMIN BANK",KLGB0040318,689480802,CHITTAR,"CHITTAR,MEMANABUILDING,CHITTAR.P.OPATHANAMTHITTA DT,PIN-689663",256800,PATHANAMTHITTA,PATHANAMTHITTA,KERALA
"KERALA GRAMIN BANK",KLGB0040317,689480003,KUNNAMTHANAM,"KUNNAMTHANAM MULLAPPALLY BUILDING,P.O.KUNNAMTHANAM. PATHANAMTHITTA DT,PIN-689581",2690400,PATHANAMTHITTA,PATHANAMTHITTA,KERALA
"KERALA GRAMIN BANK",KLGB0040316,689480476,PANDALAM,"PANDALAM RUBBER MARKETING SOCIETY BUILDINGMC ROAD,PANDALAM.P.O. PATHANAMTHITTA DT,689501",256440,PATHANAMTHITTA,PATHANAMTHITTA,KERALA
"KERALA GRAMIN BANK",KLGB0040315,691480055,CHANDANAPALLY,"CHANDANAPPALLY P.O.CHANDANAPPALLY PATHANAMTHITTA DT,PIN-689648",2255990,PATHANAMTHITTA,PATHANAMTHITTA,KERALA
"KERALA GRAMIN BANK",KLGB0040314,691480053,KADAMBANAD,"KADAMBANAD MALANKARA CATHOLIC CHURCH SHOPPING COMPLEX,KADAMBANAD SOUTH.P.O.PATHANAMTHITTA DT,PIN-691553",281900,PATHANAMTHITTA,PATHANAMTHITTA,KERALA
"KERALA GRAMIN BANK",KLGB0040313,689480103,VADASSERIKKARA,"VADASSERIKKARA THAZHATHILLATHUBUILDING,CHITTARROADP.O.VADASSERIKKARA PATHANAMTHITTA DT,PIN-689662",252330,PATHANAMTHITTA,PATHANAMTHITTA,KERALA
"KERALA GRAMIN BANK",KLGB0040312,689480153,AYIROOR,"AYIROOR,NSS PRADESHIKA UNION BUILDING,P.O.AYROORSOUTH,CHERUKOLPUZHA PATHANAMTHITTA DT,PIN-689611",230190,PATHANAMTHITTA,PATHANAMTHITTA,KERALA
"KERALA GRAMIN BANK",KLGB0040311,689480801,KALANJOOR,"KALANJOOR P.O.KALNJOOR PATHANAMTHITTA DT,PIN-689694",272336,PATHANAMTHITTA,PATHANAMTHITTA,KERALA
"KERALA GRAMIN BANK",KLGB0040310,691480054,ENATHU,"ENATHU KUNJUMONBUILDING,MANNADY ROAD,P.O.ENATHU,PATHANAMTHITTA DT,PIN-671526",211246,PATHANAMTHITTA,PATHANAMTHITTA,KERALA
"KERALA GRAMIN BANK",KLGB0040309,689480004,"KOYIPURAM PULLAD","KOIPPURAM(PULLAD ) PAZHAMPALLIL BUILDING,PULLAD.P.O PATHANAMTHITTA DT,PIN-689548",2661533,PATHANAMTHITTA,PATHANAMTHITTA,KERALA
"KERALA GRAMIN BANK",KLGB0040308,689480352,KONNI,"KONNI CHINAJUNCTION,MAINROAD,KONNI.P.O PATHANAMTHITTA DT,PIN-689691",2340740,PATHANAMTHITTA,PATHANAMTHITTA,KERALA
"KERALA GRAMIN BANK",KLGB0040307,689480102,PATHANAMTHITTA,"PATHANAMTHITTA SHAJITOWERS,OPP.KSRTC BUS STAND P.O.PATHANAMTHITTA PATHANAMTHITTA DT,PIN-689645",2322575,PATHANAMTHITTA,PATHANAMTHITTA,KERALA
"KERALA GRAMIN BANK",KLGB0040306,689480252,"PAZHAVANGADI RANNI","RANNI(PAZHAVANGADI ) P.O.PAZHAVANGADI,RANNI PATHANAMTHITTA DT,PIN-689673",229450,PATHANAMTHITTA,PATHANAMTHITTA,KERALA
"KERALA GRAMIN BANK",KLGB0040305,689480002,THIRUVALLA,"THIRUVALLA PULIMUTTATHU BUILDING,RAMANCHIRA P.O.MUTHUR. PATHANAMTHITTA DT,PIN-689107",2602485,PATHANAMTHITTA,PATHANAMTHITTA,KERALA
"KERALA GRAMIN BANK",KLGB0040304,680480052,GURUVAYUR,"GURUVAYOOR CITY PLAZA,WEST NADA,GURUVAYOOR.P.O.THRISSUR DT PIN-.680101",2553857,THRISSUR,THRISSUR,KERALA
"KERALA GRAMIN BANK",KLGB0040303,680480005,KURIACHIRA,"KURIACHIRA K.P.KCENTRE P.O.KURIACHIRA.THRISSUR DT,PIN-680006",2254126,THRISSUR,THRISSUR,KERALA
"KERALA GRAMIN BANK",KLGB0040302,680480007,PERUMPILLISSERY,"PERUMPILLISSERY P.O.CHERPU THRISSUR DT,PIN-680561",2342874,THRISSUR,THRISSUR,KERALA
"KERALA GRAMIN BANK",KLGB0040301,680480008,CHOONDAL,"CHOONDAL CHITTILAPPILLY SHOPPING COMPLEX,P.O.CHOONDAL,THRISSUR DT,PIN-680502",221815,THRISSUR,THRISSUR,KERALA
"KERALA GRAMIN BANK",KLGB0040300,678480801,KALLADIKODE,"KALLADIKODE BHADRABUILDINIGS,MAIN ROAD,PO.KALLADIKODE PALAKKAD- DT,PIN-678596",247066,PALAKKAD,PALAKKAD,KERALA
"KERALA GRAMIN BANK",KLGB0040299,676480155,MAKKARAPARAMBA,"MAKKARAPPARAMBA PERINCHEERIBUILDING,MAINROADP.O.MAKKARAPPARAMABA MALAPPURAM DT,PIN-676507",281992,MALAPPURAM,MALAPPURAM,KERALA
"KERALA GRAMIN BANK",KLGB0040298,678480253,THATHAMANGALAM,"THATHAMANGALAM SAFNA COMPLEX,CHENTHAMARA NAGAR,PALLIMUKKU,THATHMANGALAM.P.O,PALAKKAD DT,PIN-678102",228105,PALAKKAD,PALAKKAD,KERALA
"KERALA GRAMIN BANK",KLGB0040297,679480003,PATHIRIPALA,"PATHIRIPPALA NARIKOT BUILDING,NAGARIPURAM.P.O PALAKKAD DT,PIN-678642",2874392,PALAKKAD,PALAKKAD,KERALA
"KERALA GRAMIN BANK",KLGB0040296,680480015,VADAKKEKAD,"VADAKKEKKAD MAS SHOPPING COMPLEX,PONNANIROAD.P.O.VADAKKEKKAD,THRISSUR DT,PIN-679562",2541093,THRISSUR,THRISSUR,KERALA
"KERALA GRAMIN BANK",KLGB0040295,678480004,KODUVAYUR,"KODUVAYUR SIVASAKTHI COMPLEX,KOTTAPPADI P.O.KODUVAYOOR PALAKKAD DT,PIN-678501",252645,PALAKKAD,PALAKKAD,KERALA
"KERALA GRAMIN BANK",KLGB0040294,678480802,KOYALMANNAM,"COYALMANNAM N.R.COMPLEX,CHANDAPPURA P.O.COYALMANNAM PALAKKAD DT,PIN-678702",273932,PALAKKAD,PALAKKAD,KERALA
"KERALA GRAMIN BANK",KLGB0040293,680480011,ALUR,"ALUR,KAINADATHUPARAMBILBUILDING,ALURJUNCTION,ALUR.P.O,THRISSUR DT,PIN-680683",2724090,THRISSUR,THRISSUR,KERALA
"KERALA GRAMIN BANK",KLGB0040292,680480352,AMBALLUR,"AMBALLUR,SREEKRISHNABUILDING,AMBALLURJUNCTION,PUDUKKAD.P.O,THRISSUR DT,PIN-680301",2755002,THRISSUR,THRISSUR,KERALA
"KERALA GRAMIN BANK",KLGB0040291,673480012,KUNNAMANGALAM,"KUNNAMANGALAM NEAR NEW BUS STAND,MM SHOPPING COMPLEX,OPP.KUNNAMANGALAM U.P.SCHOOL,P.O.KUNNAMANGALAM,KOZHIKODE DT PIN-673571",2802090,KOZHIKODE,KOZHIKODE,KERALA
"KERALA GRAMIN BANK",KLGB0040290,680480013,PATTIKKAD,"PATTIKKAD MUTHUVANCHIRA TOWERS,NH ROAD P.O.PATTIKKAD THRISSUR DT,PIN-680652",2283526,THRISSUR,THRISSUR,KERALA
"KERALA GRAMIN BANK",KLGB0040289,680480010,MALA,"MALA ANUGRAHAMCOMPLEX,MALA.P.O THIRSSUR DT,PIN-680732",2894362,THRISSUR,THRISSUR,KERALA
"KERALA GRAMIN BANK",KLGB0040288,680480012,KAIPAMANGALAM,"KAIPAMANGALAM ALJADIRBUILDING,MOONNUPEEDIKABEACH ROAD,KAIPAMANGALAM.P.O.THRISSUR DT,PIN-680681",2841212,THRISSUR,THRISSUR,KERALA
"KERALA GRAMIN BANK",KLGB0040287,679480302,EDAPPAL,"EDAPPAL AMANAMALL,THRISSUR ROAD,P.O.EDAPPAL MALAPPURAM DT,PIN-679576",2684303,MALAPPURAM,MALAPPURAM,KERALA
"KERALA GRAMIN BANK",KLGB0040286,680480402,"WADKKANCHERY TSR","WADAKKANCHERY(THRISSUR),TAZ COMPLEX,OTTUPARA P.O,WADAKKANCHERY,THRISSUR DT,PIN-680582",231918,THRISSUR,THRISSUR,KERALA
"KERALA GRAMIN BANK",KLGB0040285,679480103,CHUNGATHARA,"CHUNGATHARA P.O.CHUNGATHARA MALAPPURAM DT,PIN-679334",231760,MALAPPURAM,MALAPPURAM,KERALA
"KERALA GRAMIN BANK",KLGB0040284,679480052,SHORNUR,"SHORNUR THADATHIL BUILDING,MAIN ROAD P.O.SHORNUR PALAKKAD DT,679121",2224884,PALAKKAD,PALAKKAD,KERALA
"KERALA GRAMIN BANK",KLGB0040283,680480153,KORATTY,"KORATTY A.V.M.COMPLEX,CHIRANGARA,PO.KORATTYSOUTH,THRISSUR DT,PIN-680308",2731116,THRISSUR,THRISSUR,KERALA
"KERALA GRAMIN BANK",KLGB0040282,680480452,THRIPRAYAR,"THRIPRAYAR NIDHUNSHOPPING COMPLEX,NATTIKA.P.OTHRISSUR DT,PIN-680566",2397006,THRISSUR,THRISSUR,KERALA
"KERALA GRAMIN BANK",KLGB0040281,680480103,VADANAPPILLY,"VADANAPPILLY OMANSHOPPING COMPLEX,P.O.VADANAPPILLY.THRISSUR DT,PIN-680614",2605857,THRISSUR,THRISSUR,KERALA
"KERALA GRAMIN BANK",KLGB0040280,679480353,KOOTTANAD,"KOOTTANAD ISTFLOOR,RAMACHANDRA BUILDINGP.O.KOOTTANAD,PALAKKAD DT,PIN-679533",2370634,PALAKKAD,PALAKKAD,KERALA
"KERALA GRAMIN BANK",KLGB0040279,679480252,CHERPULASSERY,"CHERPULASSERY PATTAMBIROAD,CHERPULASSERY.P.O.PALAKKAD DT,PIN-679503",2281932,PALAKKAD,PALAKKAD,KERALA
"KERALA GRAMIN BANK",KLGB0040278,680480014,CHELAKKARA,"CHELAKKARA MUSCATSHOPPIN-GCOMPLEX,PO.CHELAKKARA THRISSUR DT,PIN-680586",250373,THRISSUR,THRISSUR,KERALA
"KERALA GRAMIN BANK",KLGB0040277,680480004,OLARIKKARA,"OLARIKKARA EASYTOWER,KANJANI ROAD,P.O.PULLAZHI,OLARIKKARA,THRISSUR DT,PIN-680012",2360456,THRISSUR,THRISSUR,KERALA
"KERALA GRAMIN BANK",KLGB0040276,678480803,VADAKKENCHERY,"VADAKKANCHERY(PALAKKAD ) SHA TOWERS,VADAKKANCHERY.P.O.PALAKKAD DT,PIN-678683",256575,PALAKKAD,PALAKKAD,KERALA
"KERALA GRAMIN BANK",KLGB0040275,676480302,CHEMMAD,"CHEMMAD CITY TOWER BUILDING,THIRURANGADI.PO MALAPPURAM DT,PIN-676306",2464550,MALAPPURAM,MALAPPURAM,KERALA
"KERALA GRAMIN BANK",KLGB0040274,673480011,RAMANATTUKARA,"RAMANATTUKARA RAHMATHBUILDING,RAMANATTUKARA.P.O KOZHIKODE DT,PIN-673633",2442285,KOZHIKODE,KOZHIKODE,KERALA
"KERALA GRAMIN BANK",KLGB0040273,680480003,"THRISSUR EAST FORT","THRISSUR-EASTFORT SUNTOWERS,EAST FORT.P.O.THRISSUR DT,PIN-680005",2443365,THRISSUR,THRISSUR,KERALA
"KERALA GRAMIN BANK",KLGB0040272,679480352,PATTAMBI,"PATTAMBI SREEVILASBUILDING,P.O.MELEPATTAMBI PALAKKAD DT,PIN-679306",2214613,PALAKKAD,PALAKKAD,KERALA
"KERALA GRAMIN BANK",KLGB0040271,680480302,KUNNAMKULAM,"KUNNAMKULAM MODERN TOWERS,WADAKKENCHERY ROADP.O. KUNNAMKULAM.THRISSUR DT,PIN-680503",228654,THRISSUR,THRISSUR,KERALA
"KERALA GRAMIN BANK",KLGB0040270,673480256,MEENANGADI,"MEENANGADI NEERAMPUZHA SHOPPING COMPLEXP.O.MEENANGADI WYNAD DT,PIN-673592",248310,WAYANAD,WAYANAD,KERALA
"KERALA GRAMIN BANK",KLGB0040269,673480452,THAMARASSERY,"THAMARASSERY K.C.TOWERS,THAMARASSERY.P.O KOZHIKODE DT,PIN-673573",2225340,KOZHIKODE,KOZHIKODE,KERALA
"KERALA GRAMIN BANK",KLGB0040268,679480002,OTTAPPALAM,"OTTAPPALAM KVMPLAZA,MAIN ROAD OTTAPPALAM P.O . PALAKKAD DT,PIN-679101",2247647,PALAKKAD,PALAKKAD,KERALA
"KERALA GRAMIN BANK",KLGB0040267,678480152,MANNARKKAD,"MANNARKKAD KAUNDATHCITYCENTRE,PALLIPPADYP.O.MANNARKKAD PALAKKAD DT,PIN-678582",224178,PALAKKAD,PALAKKAD,KERALA
"KERALA GRAMIN BANK",KLGB0040266,678480003,"PUTHUR PALAKKAD","PUTHUR PALAKKA DTHRIVENIBUILDING,PALAKKAD.P.O.PALAKKAD DT,PIN-678001",2547482,PALAKKAD,PALAKKAD,KERALA
"KERALA GRAMIN BANK",KLGB0040265,680480152,CHALAKKUDY,"CHALAKKUDY KSRTCROAD,K.K.TOWERS,PO.CHALAKKUDY THRISSUR DT,PIN-680307",2709594,THRISSUR,THRISSUR,KERALA
"KERALA GRAMIN BANK",KLGB0040264,680480252,KODUNGALLUR,"KODUNGALLUR KUNNILATH SHOPPING COMPLEX,NORTH NADAP.O,KODUNGALLUR,THRISSUR DT,PIN-680664",2810460,THRISSUR,THRISSUR,KERALA
"KERALA GRAMIN BANK",KLGB0040263,678480002,"PALAKKAD MAIN","PALAKKAD MAINSUNSHINESHOPPING COMPLEX,T.B.ROAD,PALAKKADP.O,PALAKKAD DT,PIN-678014",2535811,PALAKKAD,PALAKKAD,KERALA
"KERALA GRAMIN BANK",KLGB0040262,680480202,IRINJALAKUDA,"IRINJALAKUDA BUSSTANDSHOPPING COMPLEX,P.O.IRINJALAKKUDA,THRISSUR DT PIN-.680121",2820603,THRISSUR,THRISSUR,KERALA
"KERALA GRAMIN BANK",KLGB0040261,680480002,THRISSUR,"THRISSURMAIN SREEKRISHNANTOWERS,NADUVILALMGROAD,THRISSUR DT,PIN-680001",2334053,THRISSUR,THRISSUR,KERALA
"KERALA GRAMIN BANK",KLGB0040260,673480003,KALLAI,"KALLAI PARCOCOMPLEX,KANDAMKULAMCROSSROADP.O.CHALAPPURAM,KOZHIKODE-PIN-673002",2702020,KOZHIKODE,KOZHIKODE,KERALA
"KERALA GRAMIN BANK",KLGB0040259,673480009,NADAKKAVU,"NADAKKAVU JASLUCENTRE,WESTHILL.P.O KOZHIKODE DT,PIN-673005",2383300,KOZHIKODE,KOZHIKODE,KERALA
"KERALA GRAMIN BANK",KLGB0040258,673480008,"MEDICAL COLLEGE","MEDICALCOLLEGE KOVOOR,CHEVAYOOR.P.O.KOZHIKODE DT,PIN-673017",2353365,KOZHIKODE,KOZHIKODE,KERALA
"KERALA GRAMIN BANK",KLGB0040257,673480005,MALAPARAMBA,"MALAPARAMBA SOUPARNIKA COMPLEX,FLORICANHILL ROAD,P.O.MALAPPARAMABA KOZHIKODE DT,PIN-673009",2374677,KOZHIKODE,KOZHIKODE,KERALA
"KERALA GRAMIN BANK",KLGB0040256,673480007,"MAVOOR ROAD","MAVOORROAD INDIRA GANDHI ROAD P.O,HEAD POST OFFICE,KOZHIKODE DT,PIN-673001",2727909,KOZHIKODE,KOZHIKODE,KERALA
"KERALA GRAMIN BANK",KLGB0040255,676480102,KOTTAKKAL,"KOTTAKKAL SMART TRADE CITY,1ST FLOOR,NEAR BUS STAND P.O,KOTTAKKAL,MALAPPURAM DT,PIN-676503",2745037,MALAPPURAM,MALAPPURAM,KERALA
"KERALA GRAMIN BANK",KLGB0040254,676480252,VALANCHERY,"VALANCHERY P.O.VALANCHERY MALAPPURAM DT,PIN-676552",2642442,MALAPPURAM,MALAPPURAM,KERALA
"KERALA GRAMIN BANK",KLGB0040253,676480002,TIRUR,"TIRUR TOWNHALLRAOD.TIRUR.P.O MALAPPURAM DT,PIN-676101",2421141,MALAPPURAM,MALAPPURAM,KERALA
"KERALA GRAMIN BANK",KLGB0040252,673480402,KONDOTTY,"KONDOTTY P.O.KONDOTTY MALAPPURAM DT,PIN-673638",2715474,MALAPPURAM,MALAPPURAM,KERALA
"KERALA GRAMIN BANK",KLGB0040251,673480804,KUTTIADY,"KUTTIADY SWADESHIBUILDING,WYNADROAD,P.O.KUTTIADY KOZHIKODE DT,PIN-673508",2596571,KOZHIKODE,KOZHIKODE,KERALA
"KERALA GRAMIN BANK",KLGB0040250,673480820,KALLACHI,"KALLACHI CITYTOWER,COURTROAD,KALLACHI.P.O.KOZHIKODE DT,PIN-673506",2552920,KOZHIKODE,KOZHIKODE,KERALA
"KERALA GRAMIN BANK",KLGB0040249,673480302,VADAKARA,"VATAKARA HIGHWAY TRADE CENTRE,NH BYE-PASS ROAD,VATAKARA.P.O,KOZHIKODE DT,PIN-673101",2526622,KOZHIKODE,KOZHIKODE,KERALA
"KERALA GRAMIN BANK",KLGB0040248,676480304,ACHANAMBALAM,"ACHANAMBALAM,P.O.KANNAMANGALAM,MALAPPURAM DT,PIN-676318",2490772,MALAPPURAM,MALAPPURAM,KERALA
"KERALA GRAMIN BANK",KLGB0040247,676480306,VALIYORA,"VALIYORA P.O.VALIYORA MALAPPURAM DT,PIN-676308",2452314,MALAPPURAM,MALAPPURAM,KERALA
"KERALA GRAMIN BANK",KLGB0040246,673480821,IRULAM,"IRULAM P.O.MANALVAYAL,VIA.PULPALLY,WYNAD DT,PIN-673579",238951,WAYANAD,WAYANAD,KERALA
"KERALA GRAMIN BANK",KLGB0040245,679480156,PUZHAKKATTIRI,"PUZHAKKATTIRI VIA.ANGADIPPURAM.PUZHAKKATTIRI.P.O.MALAPPURAM DT,PIN-679321",254360,MALAPPURAM,MALAPPURAM,KERALA
"KERALA GRAMIN BANK",KLGB0040244,676480256,VALIYAKUNNU,"VALIYAKUNNU P.O.VALIYAKUNNU EAST MALAPPURAM DT,PIN-676552",2620003,MALAPPURAM,MALAPPURAM,KERALA
"KERALA GRAMIN BANK",KLGB0040243,673480817,CHAKKITTAPARA,"CHAKKITTAPARA P.O.CHAKKITTAPARA KOZHIKODE DT,PIN-673526",2662341,KOZHIKODE,KOZHIKODE,KERALA
"KERALA GRAMIN BANK",KLGB0040242,673480352,BALUSSERY,"BALUSSERY SREEDHAR ARCADE,BALUSSERY.P.O,KOZHIKODE DT,PIN-673612",2640090,KOZHIKODE,KOZHIKODE,KERALA
"KERALA GRAMIN BANK",KLGB0040241,673480028,MUCHUKUNNU,"MUCHUKUNNU P.O.MUCHUKUNNU,VIA.QUILANDY KOZHIKODE DT,PIN-673307",2690771,KOZHIKODE,KOZHIKODE,KERALA
"KERALA GRAMIN BANK",KLGB0040239,673480809,ONCHIYAM,"ONCHIYAM P.O.ORKKATTERI,VIA.VADAKARA KOZHIKODE DT,PIN-673501",2521017,KOZHIKODE,KOZHIKODE,KERALA
"KERALA GRAMIN BANK",KLGB0040238,679480803,CHOKKAD,"CHOKKAD P.O.CHOKKAD MALAPPURAM DT,PIN-679355",260383,MALAPPURAM,MALAPPURAM,KERALA
"KERALA GRAMIN BANK",KLGB0040237,673480803,KUNINGAD,"KUNINGAD P.O.KUNINGAD KOHIKODE DT,PIN-673503",2551350,KOZHIKODE,KOZHIKODE,KERALA
"KERALA GRAMIN BANK",KLGB0040236,673480252,"SULTHAN BATHERY","SULTHANBATHERY VANITHAGOLDENTOWERP.O.SULTHAN BATHERY WYNAD DT,PIN-673592",220482,WAYANAD,WAYANAD,KERALA
"KERALA GRAMIN BANK",KLGB0040235,673480021,CHENGOTTUKAVU,"CHENGOTTUKAVU P.O.EDAKKULAM KOZHIKODE DT,PIN-673306",2630108,KOZHIKODE,KOZHIKODE,KERALA
"KERALA GRAMIN BANK",KLGB0040234,673480031,OMASSERI,"OMASSERY P.O.OMASSERY,VIA.KODUVALLY KOZHIKODE DT,PIN-673572",2811310,KOZHIKODE,KOZHIKODE,KERALA
"KERALA GRAMIN BANK",KLGB0040233,676480254,KUTTIPPURAM,"KUTTIPURAM ARAFACOMPLEX,P.O.KUTTIPPURAM MALAPPURAM DT,PIN-679571",2608465,MALAPPURAM,MALAPPURAM,KERALA
"KERALA GRAMIN BANK",KLGB0040232,673480808,NARIPPATTA,"NARIPPATTA P.O.CHEEKKONNUWEST,VIA.KAKKATTIL KOZHIKODE DT,PIN-673507",2445711,KOZHIKODE,KOZHIKODE,KERALA
"KERALA GRAMIN BANK",KLGB0040231,673480826,VADUVANCHAL,"VADUVANCHAL P.O.VADUVANCHAL WYNAD DT,PIN-673581",217454,WAYANAD,WAYANAD,KERALA
"KERALA GRAMIN BANK",KLGB0040230,673480824,NADAVAYAL,"NADAVAYAL P.O.NADAVAYAL,VIA.PANAMARAM WYNAD DT,PIN-670721",211145,WAYANAD,WAYANAD,KERALA
"KERALA GRAMIN BANK",KLGB0040229,673480825,POZHUTHANA,"POZHUTHANA P.O.POZHUTHANA WYNAD DT,PIN-673575",255380,WAYANAD,WAYANAD,KERALA
"KERALA GRAMIN BANK",KLGB0040228,676480804,AREACODE,"AREACODE,MAINROAD,AREACODE.P.O MALAPPURAM DT,PIN-673639",2850616,MALAPPURAM,MALAPPURAM,KERALA
"KERALA GRAMIN BANK",KLGB0040227,673480814,VANIMEL,"VANIMEL P.O.KODIYURA,VIA.KALLACHI KOZHIKODE DT,PIN-673515",2560355,KOZHIKODE,KOZHIKODE,KERALA
"KERALA GRAMIN BANK",KLGB0040226,673480049,THALAYAD,"THALAYAD P.O.THALAYAD KOZHIKODE DT,PIN-673574",2270263,KOZHIKODE,KOZHIKODE,KERALA
"KERALA GRAMIN BANK",KLGB0040225,679480801,VATTAMKULAM,"VATTAMKULAM P.O.VATTAMKULAM MALAPPURAM DT,PIN-679578",2680941,MALAPPURAM,MALAPPURAM,KERALA
"KERALA GRAMIN BANK",KLGB0040224,673480034,PURAKKATTIRI,"PURAKKATTIRI PARAMBATH,THALAKKULATHUR.P.O.KOZHIKODE DT,PIN-673317",2852263,KOZHIKODE,KOZHIKODE,KERALA
"KERALA GRAMIN BANK",KLGB0040223,673480037,KEEZHARIYOOR,"KEEZHARIYOOR VIA.QUILANDY,P.O.KEEZHARIYOOR KOZHIKODE DT,PIN-673324",2676841,KOZHIKODE,KOZHIKODE,KERALA
"KERALA GRAMIN BANK",KLGB0040222,673480027,MOODADI,"MOODADI P.O.MOODADINORTH KOZHIKODE DT,PIN-673325",2690122,KOZHIKODE,KOZHIKODE,KERALA
"KERALA GRAMIN BANK",KLGB0040221,673480032,POOKAD,"POOKKAD AISWARYABUILDING,CHEMANCHERY.P.O KOZHIKODE DT,PIN-673304",2687163,KOZHIKODE,KOZHIKODE,KERALA
"KERALA GRAMIN BANK",KLGB0040220,676480203,PARAPPANANGADI,"PARAPPANANGADI CPARCADE,TANURROADP.O.PARAPPANANGADI MALAPPURAM DT,PIN-676303",2410316,MALAPPURAM,MALAPPURAM,KERALA
"KERALA GRAMIN BANK",KLGB0040219,679480806,KOLATHUR,"KOLATHUR P.O.KOLATHUR MALAPPURAM DT,PIN-679338",203264,MALAPPURAM,MALAPPURAM,KERALA
"KERALA GRAMIN BANK",KLGB0040218,679480154,ELAMKULAM,"ELAMKULAM P.O.KUNNAKKAVU,VIA.CHERUKARA MALAPPURAM DT,PIN-679340",230230,MALAPPURAM,MALAPPURAM,KERALA
"KERALA GRAMIN BANK",KLGB0040217,676480803,THIRUVALI,"THIRUVALI P.O.THIRUVALI MALAPPURAM DT,PIN-679348",2721177,MALAPPURAM,MALAPPURAM,KERALA
"KERALA GRAMIN BANK",KLGB0040216,676480305,CHELARI,"CHELARI P.O.VELIMUKKU MALAPPURAM DT,PIN-676317",240084,MALAPPURAM,MALAPPURAM,KERALA
"KERALA GRAMIN BANK",KLGB0040215,673480819,KAKKATTIL,"KAKKATTIL P.O.KAKKATTIL KOZHIKODE DT,PIN-673507",2445109,KOZHIKODE,KOZHIKODE,KERALA
"KERALA GRAMIN BANK",KLGB0040214,673480041,CHAMAL,"CHAMAL P.O.CHAMAL KOZHIKODE DT,PIN-673573",2270106,KOZHIKODE,KOZHIKODE,KERALA
"KERALA GRAMIN BANK",KLGB0040213,679480152,PERINTHALMANNA,"PERINTHALMANNA NEAR MOULANA HOSPITAL,OOTTY ROADP.O.PERINTHALMANNA,MALAPPURAM DT,PIN-679322",227535,MALAPPURAM,MALAPPURAM,KERALA
"KERALA GRAMIN BANK",KLGB0040212,673480818,EDACHERY,"EDACHERY P.O.EDACHERY KOZHIKODE DT,PIN-673502",2547333,KOZHIKODE,KOZHIKODE,KERALA
"KERALA GRAMIN BANK",KLGB0040211,673480257,VAKERY,"VAKERY P.O.VAKERY WYNAD DT,PIN-673592",229018,WAYANAD,WAYANAD,KERALA
"KERALA GRAMIN BANK",KLGB0040210,673480816,VILANGAD,"VILANGAD P.O.VILANGAD,VIAKALLACHI KOZHIKODE DT,PIN-673506",2467624,KOZHIKODE,KOZHIKODE,KERALA
"KERALA GRAMIN BANK",KLGB0040209,673480048,"PAYYOLI BAZAR","PAYYOLIBAZAR P.O.PAYYOLIANGADI KOZHIKODE DT,PIN-673523",2470114,KOZHIKODE,KOZHIKODE,KERALA
"KERALA GRAMIN BANK",KLGB0040208,676480052,MANJERI,"MANJERI C.K.M.COMPLEX,PO.MANJERI COLLEGE MALAPPURAM DT,PIN-676122",2763388,MALAPPURAM,MALAPPURAM,KERALA
"KERALA GRAMIN BANK",KLGB0040207,679480158,THIRURKKAD,"TIRURKKAD P.O.TIRURKKAD,VIA.ANGADIPPURAM MALAPPURAM DT,PIN-679321",239307,MALAPPURAM,MALAPPURAM,KERALA
"KERALA GRAMIN BANK",KLGB0040206,676480005,PURATHUR,"PURATHUR P.O.PURATHUR MALAPPURAM DT,PIN-676102",2563432,MALAPPURAM,MALAPPURAM,KERALA
"KERALA GRAMIN BANK",KLGB0040205,673480202,KALPETTA,"KALPETTA P.O.KALPETTA,VYPANASHOPPING COMPLEX,MAINROAD,WYNAD DT,PIN-673121",202509,WAYANAD,WAYANAD,KERALA
"KERALA GRAMIN BANK",KLGB0040204,679480811,TUVVUR,"TUVVUR P.O.TUVVUR MALAPPURAM DT,PIN-679327",284113,MALAPPURAM,MALAPPURAM,KERALA
"KERALA GRAMIN BANK",KLGB0040203,673480102,PERAMBRA,"PERAMBRA T.B.ROAD,PERAMBRAP.O.KOZHIKODE DT,PIN-673525",2610509,KOZHIKODE,KOZHIKODE,KERALA
"KERALA GRAMIN BANK",KLGB0040202,676480255,PUTHANATHANI,"PUTHANATHANI P.O.PUNNATHALA MALAPPURAM DT,PIN-676552",2547175,MALAPPURAM,MALAPPURAM,KERALA
"KERALA GRAMIN BANK",KLGB0040201,673480015,NEDIYIRUPPU,"NEDIYIRUPPU COLONYROADJN.KONDOTTY.P.O MALAPPURAM DT,PIN-673638",2710344,MALAPPURAM,MALAPPURAM,KERALA
"KERALA GRAMIN BANK",KLGB0040200,673480152,QUILANDY,"QUILANDY P.O.QUILANDY KOZHIKODE DT,PIN-673305",2620445,KOZHIKODE,KOZHIKODE,KERALA
"KERALA GRAMIN BANK",KLGB0040199,679480102,NILAMBUR,"NILMBUR P.O.NILAMBUR MALAPPURAM DT,PIN-679329",221123,MALAPPURAM,MALAPPURAM,KERALA
"KERALA GRAMIN BANK",KLGB0040198,676480105,VENNIYUR,"VENNIYUR P.O.VENNIYUR MALAPPURAM DT,PIN-676508",2480718,MALAPPURAM,MALAPPURAM,KERALA
"KERALA GRAMIN BANK",KLGB0040197,679480155,KEEZHATTUR,"KEEZHATTUR AKKAPPARAMBA,CHOLAKKALBUILDING,P.O.POONTHAVANAM,VIA.PATTIKKAD,MALAPPURAM DT,PIN-679325",270711,MALAPPURAM,MALAPPURAM,KERALA
"KERALA GRAMIN BANK",KLGB0040196,679480815,VENGAD,"VENGAD P.O.VENGAD MALAPPURAM DT,PIN-679338",264340,MALAPPURAM,MALAPPURAM,KERALA
"KERALA GRAMIN BANK",KLGB0040195,673480026,MANNUR,"MANNUR P.O.MANNUR,VIA.KADALUNDI KOZHIKODE DT,PIN-673328",2470458,KOZHIKODE,KOZHIKODE,KERALA
"KERALA GRAMIN BANK",KLGB0040194,673480004,KARAPARAMBA,"KARAPARAMBA BUTANARCADE,KARAPARAMBA.P.OKOZHIKODE DT,PIN-673010",2374277,KOZHIKODE,KOZHIKODE,KERALA
"KERALA GRAMIN BANK",KLGB0040193,676480054,ELANKUR,"ELANKUR P.O.MANHAPPATTA MALAPPURAM DT,PIN-676123",2707736,MALAPPURAM,MALAPPURAM,KERALA
"KERALA GRAMIN BANK",KLGB0040192,679480205,THAVANUR,"THAVANNUR MARAVANCHERY,KADANCHERI.P.O.MALAPPURAM DT,PIN-679582",2686350,MALAPPURAM,MALAPPURAM,KERALA
"KERALA GRAMIN BANK",KLGB0040191,679480802,CHERUCODE,"CHERUCODE P.O.CHATHANGOTTUPURAM MALAPPURAM DT,PIN-679328",248336,MALAPPURAM,MALAPPURAM,KERALA
"KERALA GRAMIN BANK",KLGB0040190,673480828,PADICHIRA,"PADICHIRA P.O.PADICHIRA,VIA.PULPALLY WYNAD DT,PIN-673579",234330,WAYANAD,WAYANAD,KERALA
"KERALA GRAMIN BANK",KLGB0040189,673480024,KURUVATTUR,"KURUVATTUR P.O.KURUVATTUR KOZHIKODE DT,PIN-673611",2810951,KOZHIKODE,KOZHIKODE,KERALA
"KERALA GRAMIN BANK",KLGB0040188,676480058,PANDIKKAD,"PANDIKKAD P.O.PANDIKKAD MALAPPURAM DT,PIN-676521",2783246,MALAPPURAM,MALAPPURAM,KERALA
"KERALA GRAMIN BANK",KLGB0040187,673480029,"NANDI BAZAR","NANDIBAZAR P.O.KATALOOR KOZHIKODE DT,PIN-673531",2691241,KOZHIKODE,KOZHIKODE,KERALA
"KERALA GRAMIN BANK",KLGB0040186,676480204,TANALUR,"TANALUR P.O.TANALUR MALAPPURAM DT,PIN-676307",2582060,MALAPPURAM,MALAPPURAM,KERALA
"KERALA GRAMIN BANK",KLGB0040185,673480815,VELOM,"VELOM P.O.POOLAKKOOL,KOZHIKODE DT,PIN-673507",2770165,KOZHIKODE,KOZHIKODE,KERALA
"KERALA GRAMIN BANK",KLGB0040184,673480040,ANAKKAMPOYIL,"ANAKKAMPOYIL,ANAKKAMPOYIL.P.O.VIA.THIRUVAMBADY,KOZHIKODE DT,PIN-673603",2276560,KOZHIKODE,KOZHIKODE,KERALA
"KERALA GRAMIN BANK",KLGB0040183,673480043,MARANCHATTY,"MARANCHATTY P.O.KOOMPARA KOZHIKODE DT,PIN-673604",2277370,KOZHIKODE,KOZHIKODE,KERALA
"KERALA GRAMIN BANK",KLGB0040182,673480019,ARIKKULAM,"ARIKKULAM,P.O.ARIKKULAM,KOZHIKODE DT,PIN-673620",2695021,KOZHIKODE,KOZHIKODE,KERALA
"KERALA GRAMIN BANK",KLGB0040181,676480057,TRIPPANACHI,"TRIPPANACHI P.O.TRIPPANACHI MALAPPURAM DT,PIN-673641",2820950,MALAPPURAM,MALAPPURAM,KERALA
"KERALA GRAMIN BANK",KLGB0040180,673480042,KOODARANHI,"KOODARANHI P.O.KOODARANHI KOZHIKODE DT,PIN-673604",2252087,KOZHIKODE,KOZHIKODE,KERALA
"KERALA GRAMIN BANK",KLGB0040179,673480255,KALLOOR,"KALLOOR P.O.NOOLPUZHA,WYNAD DT,PIN-673592",270760,WAYANAD,WAYANAD,KERALA
"KERALA GRAMIN BANK",KLGB0040178,673480022,KAKKUR,"KAKKOOR P.O.KAKKOOR,KOZHIKODE DT,PIN-673613",2260066,KOZHIKODE,KOZHIKODE,KERALA
"KERALA GRAMIN BANK",KLGB0040177,673480006,MANKAVU,"MANKAVE P.O.MANKAVE KOZHIKODE DT,PIN-673007",2331514,KOZHIKODE,KOZHIKODE,KERALA
"KERALA GRAMIN BANK",KLGB0040176,673480033,PUDUPPADY,"PUDUPPADY P.O.PUDUPPADY KOZHIKODE DT,PIN-673586",2235282,KOZHIKODE,KOZHIKODE,KERALA
"KERALA GRAMIN BANK",KLGB0040175,673480017,"PALLIKKAL BAZAR","PALLIKKALBAZAR P.O.PALLIKKAL MALAPPURA DT,PIN-673653",2790479,MALAPPURAM,MALAPPURAM,KERALA
"KERALA GRAMIN BANK",KLGB0040174,676480103,EDARIKODE,"EDARIKODE P.O.EDARIKODE MALAPPURAM DT,PIN-676501",2644719,MALAPPURAM,MALAPPURAM,KERALA
"KERALA GRAMIN BANK",KLGB0040173,673480050,CHALIKKARA,"CHALIKKARA VELLIYOORP.O.NOCHAD KOZHIKODE DT,PIN-673614",2610369,KOZHIKODE,KOZHIKODE,KERALA
"KERALA GRAMIN BANK",KLGB0040172,673480023,KODIYATHUR,"KODIYATHUR P.O.KODIYATHUR,VIA.MUKKOM KOZHIKODE DT,PIN-673602",2209388,KOZHIKODE,KOZHIKODE,KERALA
"KERALA GRAMIN BANK",KLGB0040171,679480104,ERANHIMANGAD,"ERANHIMANGAD P.O.ERANHIMANGAD MALAPPURAM DT,PIN-679343",206472,MALAPPURAM,MALAPPURAM,KERALA
"KERALA GRAMIN BANK",KLGB0040170,673480254,CHEERAL,"CHEERAL P.O.CHEERAL WYNAD DT,PIN-673595",262234,WAYANAD,WAYANAD,KERALA
"KERALA GRAMIN BANK",KLGB0040169,679480303,CHANGARAMKULAM,"CHANGARAMKULAM P.O.NANNAMUKKU MALAPPURAM DT,PIN-679575",2654888,MALAPPURAM,MALAPPURAM,KERALA
"KERALA GRAMIN BANK",KLGB0040168,679480812,VANIYAMBALAM,"VANIYAMBALAM P.O.VANIYAMBALAM MALAPPURAM DT,PIN-679339",236213,MALAPPURAM,MALAPPURAM,KERALA
"KERALA GRAMIN BANK",KLGB0040167,676480253,KADAMPUZHA,"KADAMPUZHA P.O.KADAMPUZHA MALAPPURAM DT,PIN-676553",2615688,MALAPPURAM,MALAPPURAM,KERALA
"KERALA GRAMIN BANK",KLGB0040166,679480157,THAZHEKODE,"THAZHEKODE P.O.THAZHEKODE WEST,MALAPPURAM DT,PIN-679322",251440,MALAPPURAM,MALAPPURAM,KERALA
"KERALA GRAMIN BANK",KLGB0040165,676480154,KODUR,"KODUR P.O.KODUR,THANIKKALMALAPPURAM DT,PIN-676504",2868535,MALAPPURAM,MALAPPURAM,KERALA
"KERALA GRAMIN BANK",KLGB0040164,673480802,KAYAKODY,"KAYAKKODY VIA.KUTTIADY,P.O.KAYAKKODY KOZHIKODE DT,PIN-673508",2587341,KOZHIKODE,KOZHIKODE,KERALA
"KERALA GRAMIN BANK",KLGB0040163,679480105,MAMPAD,"MAMPAD K.P.S.COMPLEX,MAMPAD.P.O MALAPPURAM DT,PIN-676542",200271,MALAPPURAM,MALAPPURAM,KERALA
"KERALA GRAMIN BANK",KLGB0040162,673480036,ULLERY,"ULLIYERI P.O.ULLIYERI KOZHIKODE DT,PIN-673323",2654286,KOZHIKODE,KOZHIKODE,KERALA
"KERALA GRAMIN BANK",KLGB0040161,673480035,THIRUVANGOOR,"THIRUVANGOOR P.O.THIRUVANGOOR KOZHIKODE DT,PIN-673318",2633898,KOZHIKODE,KOZHIKODE,KERALA
"KERALA GRAMIN BANK",KLGB0040160,679480804,KARULAI,"KARULAI P.O.KARULAI MALPPURAM DT,PIN-679344",270227,MALAPPURAM,MALAPPURAM,KERALA
"KERALA GRAMIN BANK",KLGB0040159,676480303,"ABDURAHIMAN NAGAR","ABDULRAHIMANNAGAR,P.O.ABDULRAHIMANNAGAR,MALAPPURAM DT,PIN-676305",2490645,MALAPPURAM,MALAPPURAM,KERALA
"KERALA GRAMIN BANK",KLGB0040158,679480808,"NETTIKULAM BAZAR","NETTIKKULAMBAZAR P.O.UPPADA MALAPPURAM DT,PIN-679354",243424,MALAPPURAM,MALAPPURAM,KERALA
"KERALA GRAMIN BANK",KLGB0040157,676480004,KOOTTAYI,"KOOTTAYI TIPPUSULTHANROAD,KODAPPARAMBA P.O,KOOTTAYI,MALAPPURAM DT,PIN-676562",2631787,MALAPPURAM,MALAPPURAM,KERALA
"KERALA GRAMIN BANK",KLGB0040156,673480014,CHELEMBRA,"CHELEMBRA P.O.CHELEMBRA MALAPPURAM DT,PIN-673634",2891153,MALAPPURAM,MALAPPURAM,KERALA
"KERALA GRAMIN BANK",KLGB0040155,673480039,UNNIKULAM,"UNNIKULAM P.O.EKAROOL KOZHIKODE DT,PIN-673574",2647236,KOZHIKODE,KOZHIKODE,KERALA
"KERALA GRAMIN BANK",KLGB0040154,673480013,AZHINHILAM,"AZHINHILAM P.O.AZHINHILAM,VIA.FEROKE COLLEGE MALAPPURAM DT,PIN-673632",2830539,MALAPPURAM,MALAPPURAM,KERALA
"KERALA GRAMIN BANK",KLGB0040153,673480016,OMANOOR,"OMANOOR P.O.OMANOOR MALAPPURAM DT,PIN-673645",2725325,MALAPPURAM,MALAPPURAM,KERALA
"KERALA GRAMIN BANK",KLGB0040152,673480806,MARUTHOMKARA,"MARUTHOMKARA P.O.KAVILUMPARA,MARUTHOMKARA KOZHIKODE DT,PIN-673513",2666878,KOZHIKODE,KOZHIKODE,KERALA
"KERALA GRAMIN BANK",KLGB0040151,676480056,KAVANOOR,"KAVANOOR P.O.KAVANOOR MALAPPURAM DT,PIN-673644",2862813,MALAPPURAM,MALAPPURAM,KERALA
"KERALA GRAMIN BANK",KLGB0040150,676480055,PANDALLUR,"PANDALLUR P.O.KADAMBODE MALAPPURAM DT,PIN-676121",2782520,MALAPPURAM,MALAPPURAM,KERALA
"KERALA GRAMIN BANK",KLGB0040149,676480104,OTHUKKUNGAL,"OTHUKKUNGAL P.O.OTHUKKUNGAL MALAPPURAM DT,PIN-676528",2838168,MALAPPURAM,MALAPPURAM,KERALA
"KERALA GRAMIN BANK",KLGB0040148,673480203,KANIYAMBETTA,"KANIYAMBETTA P.O.KANIYAMBETTA WYNAD DT,PIN-673124",286606,WAYANAD,WAYANAD,KERALA
"KERALA GRAMIN BANK",KLGB0040147,676480003,CHAMRAVATTOM,"CHAMRAVATTOM P.O.CHAMRAVATTOM MALAPPURAM DT,PIN-676110",2562534,MALAPPURAM,MALAPPURAM,KERALA
"KERALA GRAMIN BANK",KLGB0040146,676480156,POOKKOTTOOR,"POOKKOTTOOR K.I.BUILDING,POOKKOTTOOR.P.O.MALAPPURAM DT,PIN-676517",2772070,MALAPPURAM,MALAPPURAM,KERALA
"KERALA GRAMIN BANK",KLGB0040145,673480044,KANNOTH,"KANNOTH P.O.KANNOTH,VIA,KODENCHERY KOZHIKODE DT,PIN-673580",2236295,KOZHIKODE,KOZHIKODE,KERALA
"KERALA GRAMIN BANK",KLGB0040144,673480047,KOOTTALIDA,"KOOTTALIDA P.O.AVITANELLUR KOZHIKODE DT,PIN-673618",2657233,KOZHIKODE,KOZHIKODE,KERALA
"KERALA GRAMIN BANK",KLGB0040143,679480814,VELLILA,"VELLILA KOZHIKKOTTUPARAMBA,VELLILA.P.O.MALAPPURAM DT,PIN-679324",239264,MALAPPURAM,MALAPPURAM,KERALA
"KERALA GRAMIN BANK",KLGB0040142,679480202,PONNANI,"PONNANI CENTRALPLAZA,CHAMRAVATTOMJN.P.O.PONNANI MALAPPURAM DT,PIN-679577",2666817,MALAPPURAM,MALAPPURAM,KERALA
"KERALA GRAMIN BANK",KLGB0040141,673480205,PINANGODE,"PINANGODE P.O.PIN-ANGODE WYNAD DT,PIN-673121",204221,WAYANAD,WAYANAD,KERALA
"KERALA GRAMIN BANK",KLGB0040140,676480153,IRUMBUZHI,"IRUMBUZHI P.O.IRUMBUZHI MALAPPURAM DT,PIN-676513",2739002,MALAPPURAM,MALAPPURAM,KERALA
"KERALA GRAMIN BANK",KLGB0040139,676480806,KUNIYIL,"KUNIYIL P.O.KEEZHUPARAMBA MALAPPURAM DT,PIN-673639",2858735,MALAPPURAM,MALAPPURAM,KERALA
"KERALA GRAMIN BANK",KLGB0040138,673480827,VAZHAVATTA,"VAZHAVATTA P.O.VAZHAVATTA WYNAD DT,PIN-673122",247317,WAYANAD,WAYANAD,KERALA
"KERALA GRAMIN BANK",KLGB0040137,673480025,MANIPURAM,"MANIPURAM MANIPURAM ARCADE,P.O.MANIPURAM,KODUVALLY VIA,KOZHIKODE DT,PIN-673 572",2211165,KOZHIKODE,KOZHIKODE,KERALA
"KERALA GRAMIN BANK",KLGB0040136,673480807,"NADAPURAM ROAD","NADAPURAMROAD P.O.MADAPPALLY COLLEGE KOZHIKODE DT,PIN-673102",2513030,KOZHIKODE,KOZHIKODE,KERALA
"KERALA GRAMIN BANK",KLGB0040135,679480816,VETTATHUR,"VETTATHUR P.O.THELAKKAD,VIA.PATTIKKAD MALAPPURAM DT,PIN-679325",245410,MALAPPURAM,MALAPPURAM,KERALA
"KERALA GRAMIN BANK",KLGB0040134,673480812,TUNERI,"TUNERI P.O.TUNERI,VIA.NADAPURAM KOZHIKODE DT,673504",2550298,KOZHIKODE,KOZHIKODE,KERALA
"KERALA GRAMIN BANK",KLGB0040133,673480018,PULIKKAL,"PULIKKAL P.O.PULIKKAL MALAPPURAM DT,PIN-673637",2790125,MALAPPURAM,MALAPPURAM,KERALA
"KERALA GRAMIN BANK",KLGB0040132,679480809,POOKKOTTUMPADAM,"POOKKOTTUMPADAM P.O.POOKKOOTTUMPADAM MALAPPURAM DT,PIN-679332",260113,MALAPPURAM,MALAPPURAM,KERALA
"KERALA GRAMIN BANK",KLGB0040131,679480807,MORAYUR,"MORAYUR P.O.MORAYUR MALAPPURAM DT,PIN-673642",2772799,MALAPPURAM,MALAPPURAM,KERALA
"KERALA GRAMIN BANK",KLGB0040130,673480206,VYTHIRI,"VYTHIRI P.O.VYTHIRIWYNAD DT,PIN-673576",255280,WAYANAD,WAYANAD,KERALA
"KERALA GRAMIN BANK",KLGB0040129,679480153,ANAMANGAD,"ANAMANGAD,P.O.ANAMANGAD,MALAPPURAM DT,PIN-679357",205219,MALAPPURAM,MALAPPURAM,KERALA
"KERALA GRAMIN BANK",KLGB0040128,673480805,MANIYUR,"MANIYUR P.O.PALAYADNADA KOZHIKODE DT,PIN-673530",2536222,KOZHIKODE,KOZHIKODE,KERALA
"KERALA GRAMIN BANK",KLGB0040127,679480813,VAZHIKKADAVU,"VAZHIKKADAVU P.O.VAZHIKKADAVU MALAPPURAM DT,PIN-679333",276074,MALAPPURAM,MALAPPURAM,KERALA
"KERALA GRAMIN BANK",KLGB0040125,673480813,VALAYAM,"VALAYAM P.O.VALAYAM,VIA.KALLACHIKOZHIKODE DT,PIN-673517",2460011,KOZHIKODE,KOZHIKODE,KERALA
"KERALA GRAMIN BANK",KLGB0040124,673480810,PANDEERKARA,"PANDEERKKARA P.O.AVADUKKA,VIA.PERUVANNAMUZHI KOZHIKODE DT,PIN-673528",2668151,KOZHIKODE,KOZHIKODE,KERALA
"KERALA GRAMIN BANK",KLGB0040123,673480204,KAVUMANNAM,"KAVUMANNAM P.O.KAVUMANNAMWYNAD DT,PIN-673121",250457,WAYANAD,WAYANAD,KERALA
"KERALA GRAMIN BANK",KLGB0040122,679480203,PERUMPADAPPA,"PERUMPADAPPU P.O.PERUMPADAPPUMALAPPURAM DT,PIN-679590",2672220,MALAPPURAM,MALAPPURAM,KERALA
"KERALA GRAMIN BANK",KLGB0040121,673480822,KENICHIRA,"KENICHIRA P.O.KENICHIRA,WYNAD DT,PIN-673596",211536,WAYANAD,WAYANAD,KERALA
"KERALA GRAMIN BANK",KLGB0040120,673480002,"CALICUT CITY","CALICUTCITY LAKSHMIBUILDING,KANNURROAD,KOZHIKODE DT,PIN-673001",2361474,KOZHIKODE,KOZHIKODE,KERALA
"KERALA GRAMIN BANK",KLGB0040119,676480801,ARIYALLUR,"ARIYALLUR,P.O.ARIYALLUR,MALAPPURAM DT,PIN-676312",2470259,MALAPPURAM,MALAPPURAM,KERALA
"KERALA GRAMIN BANK",KLGB0040118,676480202,TANUR,"TANUR P.O.TANURMALAPPURAM DT,PIN-676302",2440219,MALAPPURAM,MALAPPURAM,KERALA
"KERALA GRAMIN BANK",KLGB0040117,673480811,THODANNUR,"THODANNUR P.O.THODANNUR KOZHIKODE DT,PIN-673104",2592052,KOZHIKODE,KOZHIKODE,KERALA
"KERALA GRAMIN BANK",KLGB0040116,673480823,MULLANKOLLY,"MULLANKOLLY P.O.MULLANKOLLY WYNAD DT,PIN-673579",240351,WAYANAD,WAYANAD,KERALA
"KERALA GRAMIN BANK",KLGB0040115,673480801,AYANCHERY,"AYANCHERY P.O.AYANCHERY KOZHIKODE DT,PIN-673 541",2592120,KOZHIKODE,KOZHIKODE,KERALA
"KERALA GRAMIN BANK",KLGB0040114,673480038,MELADY,"MELADY P.O.PAYYOLI KOZHIKODE DT,PIN-673522",2602016,KOZHIKODE,KOZHIKODE,KERALA
"KERALA GRAMIN BANK",KLGB0040113,676480805,KIZHISSERY,"KIZHISSERY P.O.KUZHIMANNA MALAPPURAM DT,PIN-673641",2756325,MALAPPURAM,MALAPPURAM,KERALA
"KERALA GRAMIN BANK",KLGB0040112,676480152,MALAPPURAM,"MALAPPURAM P.O.DOWNHILL MALAPPURAM DT,PIN-676519",2735106,MALAPPURAM,MALAPPURAM,KERALA
"KERALA GRAMIN BANK",KLGB0040111,673480030,NARIKKUNI,"NARIKKUNI P.O.NARIKKUNI KOZHIKODE DT,PIN-673585",2246150,KOZHIKODE,KOZHIKODE,KERALA
"KERALA GRAMIN BANK",KLGB0040110,676480802,VENGARA,"VENGARA P.O.VENGARA MALAPPURAM DT,PIN-676304",2450323,MALAPPURAM,MALAPPURAM,KERALA
"KERALA GRAMIN BANK",KLGB0040109,673480010,PERUVAYAL,"PERUVAYAL P.O.POOVATTUPARAMBA KOZHIKODE DT,PIN-673008",2490234,KOZHIKODE,KOZHIKODE,KERALA
"KERALA GRAMIN BANK",KLGB0040108,673480046,KOORACHUND,"KOORACHUNDU P.O.KOORACHUNDU KOZHIKODE DT,PIN-673527",2660221,KOZHIKODE,KOZHIKODE,KERALA
"KERALA GRAMIN BANK",KLGB0040107,676480053,EDAVANNA,"EDAVANNA P.O.EDAVANNA MALAPPURAM DT,PIN-676541",2700464,MALAPPURAM,MALAPPURAM,KERALA
"KERALA GRAMIN BANK",KLGB0040106,679480810,PULAMANTHOLE,"PULAMANTHOLE BUS STAND BUILDINGP.O.PULAMANTHOLE MALAPPURAM DT,PIN-679323",267458,MALAPPURAM,MALAPPURAM,KERALA
"KERALA GRAMIN BANK",KLGB0040105,676480006,THIRUNAVAYA,"THIRUNAVAYA FAMACOMPLEX,KUTTIPPURAMROAD,P.O.THIRUNAVAYA MALAPPURAM DT,PIN-676301",2602058,MALAPPURAM,MALAPPURAM,KERALA
"KERALA GRAMIN BANK",KLGB0040104,679480805,KARUVARAKUNDU,"KARUVARAKUNDU P.O.THARIS,MALAPPURAM DT,PIN-676573",280251,MALAPPURAM,MALAPPURAM,KERALA
"KERALA GRAMIN BANK",KLGB0040103,673480020,ATHOLI,"ATHOLI P.O.ATHOLI,KOZHIKODE, DT,PIN-673315",2672299,KOZHIKODE,KOZHIKODE,KERALA
"KERALA GRAMIN BANK",KLGB0040102,673480253,AMBALAVAYAL,"AMBALAVAYAL,P.O.AMBALAVAYAL,WYNAD DT,PIN-673593",260479,WAYANAD,WAYANAD,KERALA
"KERALA GRAMIN BANK",KLGB0040101,480000,"HEAD OFFICE","KGB TOWERS,A K ROAD,P.O.MALAPPURAM,PIN-676505",2101253,MALAPPURAM,MALAPPURAM,KERALA
