BANK,IFSC,MICR,BRANCH,ADDRESS,CONTACT,CITY,DISTRICT,STATE
"BANDHAN BANK LIMITED",BDBL0001851,400750019,PANVEL,"SHOP NO.1 AND 4,GROUND AND MEZZAINE FLOOR,SUNDARAM BUILDING,128,MIDDLE CLASS CHSL,OLD PANVEL,DIST.RAIGAD,MAHARASHTRA,PIN-410206",66090909,MUMBAI,MUMBAI,MAHARASHTRA
"BANDHAN BANK LIMITED",BDBL0001850,400750018,GOREGAON,"GROUND FLOOR,MEZZANINE AND BASEMENT,WALFORT HOUSE,SV ROAD,GOREGAON WEST,MUMBAI,MAHARASHTRA,PIN-400062",66090909,MUMBAI,MUMBAI,MAHARASHTRA
"BANDHAN BANK LIMITED",BDBL0001849,411750008,HINJEWADI,"ALFA,SHOWROOM NO-2,SRNO-18/4,TALUKA MULSHI,HINJEWADI,PUNA,MAHARASHTRA,PIN-411057",66090909,PUNA,PUNE,MAHARASHTRA
"BANDHAN BANK LIMITED",BDBL0001848,400750017,MIRA-BHAYANDAR,"G-4,POONAM RESIDENCY,BUILDING NO 97-98 AND 103-104,CO-OPERATIVE HOUSING SOCIETY,SHANTI PARK,MIRA ROAD,THANE,MAHARASHTRA,PIN-401107",66090909,THANE,THANE,MAHARASHTRA
"BANDHAN BANK LIMITED",BDBL0001847,600750007,NUNGAMBAKKAM,"NEW NO.48,OLD NO - 151,KODAMBAKKAM HIGH ROAD,NUNGAMBAKKAM,CHENNAI,TAMILNADU,PIN-600034",66090909,CHENNAI,CHENNAI,"TAMIL NADU"
"BANDHAN BANK LIMITED",BDBL0001846,759750102,ANGUL,"GROUND AND FRIST FLOOR, 147,OM TOWER,SANKAR CINEMA ROAD,NEAR ICICI BANK,ANGUL,DIST-ANGUL,ORISSA,PIN-759122",66090909,ANGUL,ANGUL,ODISHA
"BANDHAN BANK LIMITED",BDBL0001845,222750002,JAUNPUR,"GROUND FLOOR,HOUSE NO 130A,HUSSENABAD,NEAR WAZIDPUR TIRAHA,PS-LINE BAZAR JAUNPUR,UTTAR PRADESH,PIN-222002",66090909,LUCKNOW,KANPUR,"UTTAR PRADESH"
"BANDHAN BANK LIMITED",BDBL0001844,500750006,"SECUNDERABAD CANTONMENT","PREMISES NO.10-3-18,ROAD TO TUKURAM GATE,EAST MARADPALLY,SECUNDERABAD,TELANGANA,PIN-500026",66090909,SECUNDERABAD,"RANGA REDDY",TELANGANA
"BANDHAN BANK LIMITED",BDBL0001843,700750128,"CIT ROAD","GROUND FLOOR AND FIRST FLOOR,P 8,NANIGOPAL ROY CHOUDHURY AVENUE,CIT ROAD,KOLKATA,PIN 700014",66090909,KOLKATA,KOLKATA,"WEST BENGAL"
"BANDHAN BANK LIMITED",BDBL0001842,302750002,JAIPURC-SCHEME,"GROUND FLOOR,GT GALLERIA,ASHOK MARG,C-SCHEME,JAIPUR,RAJASTHAN,PIN-302001",66090909,JAIPUR,JAIPUR,RAJASTHAN
"BANDHAN BANK LIMITED",BDBL0001841,600750006,ADYAAR,"GROUND FLOOR,122 KAMRAJ AVENUE,2ND STREET,ADYAR,CHENNAI,TAMILNADU,PIN -600020",66090909,CHENNAI,CHENNAI,"TAMIL NADU"
"BANDHAN BANK LIMITED",BDBL0001840,722750503,CHURAMANIPUR,"CHURAMANIPUR GRAM PANCHAYAT,VILL - BHULANPUR,PO-JAMGURI,PS-ONDA,BANKURA,WEST BENGAL,PIN 722144",66090909,BANKURA,BANKURA,"WEST BENGAL"
"BANDHAN BANK LIMITED",BDBL0001839,731750501,LOBA,"TARULIYA MORE,LOBA GRAM PANCHAYAT,PO JHIRUL,PS DUBRAJPUR,DIST-BRIBHUM,WEST BENGAL,PIN-731124",66090909,BIRBHUM,BIRBHUM,"WEST BENGAL"
"BANDHAN BANK LIMITED",BDBL0001838,400750012,BORIVALI,"GROUND FLOOR,TIARA,OFF CHANDAVARKAR LANE,OFF I T ROAD,MAHARASTRA LANE,BORIVALI WEST,MUMBAI,MAHARASTRA,PIN 400092",66090909,MUMBAI,MUMBAI,MAHARASHTRA
"BANDHAN BANK LIMITED",BDBL0001837,387750002,NADIAD,"SHOP NO 1 AND 2,BEVERLY ARCADE,NR.MAHA GUJARAT CIRCLE COLLEGE ROAD,NADIAD,KHEDA,GUJARAT,PIN 387001",66090909,KHEDA,KHEDA,GUJARAT
"BANDHAN BANK LIMITED",BDBL0001836,360750002,RAJKOT,"GROUND FLOOR,MAKER1,JAWAHAR MAIN ROAD,NEAR GALAXY HOTEL,RAJKOT,GUJARAT,PIN 360001",66090909,RAJKOT,RAJKOT,GUJARAT
"BANDHAN BANK LIMITED",BDBL0001835,632750002,VELLORE,"18 B/OLD NO,71/NEW NO,ANNA SALAI,VELLORE,TAMILNADU,PIN 632001",66090909,VELLORE,VELLORE,"TAMIL NADU"
"BANDHAN BANK LIMITED",BDBL0001834,560750008,WHITEFIELD,"GROUND FLOOR,UNIT-G2/2,ANMOLCARLSON COURT,NO1,WHITEFIELD,MAIN ROAD,BANGALORE,KARNATAKA,PIN-560066",66090909,BANGALORE,"BANGALORE URBAN",KARNATAKA
"BANDHAN BANK LIMITED",BDBL0001833,575750002,MANGALURU,"GROUND FLOOR,EXCEL MISCHIEF MALL,K S RAO ROAD,MANGALORE,KARNATAKA,PIN-575001",66090909,"DAKSHIN KANNAD","DAKSHIN KANNAD",KARNATAKA
"BANDHAN BANK LIMITED",BDBL0001832,520750002,VIJAYAWADA,"D.NO-32-22-7,R-3,NO-151,N.T. HANUMAN STREET,SHIVALAYAN STREET,SATYANARYANPURA,VIJAYWADA,PIN-520011",66090909,VIJAYAWADA,KRISHNA,"ANDHRA PRADESH"
"BANDHAN BANK LIMITED",BDBL0001831,142750002,MOGA,"KHASRA NO-2467-2471,KHEVAT NO-555,GT ROAD,OPP - NEW GRAIN MARKET,MOGA,PUNJAB,PIN-142001",66090909,MOGA,MOGA,PUNJAB
"BANDHAN BANK LIMITED",BDBL0001830,144750252,KAPURTHALA,"SCF-13& 14 C,NEXT TO LONDON HOTEL,SULTANPUR ROAD,KAPURTHALA,PUNJAB-144601",66090909,KAPURTHALA,KAPURTHALA,PUNJAB
"BANDHAN BANK LIMITED",BDBL0001829,144750402,NAKODAR,"GROUND FLOOR,SHANKAR ROAD,OPPOSITE-ARYA SCHOOL,NAKODAR,DIST-JALANDHAR,PUNJAB,PIN-144040",66090909,JALANDHAR,JALANDHAR,PUNJAB
"BANDHAN BANK LIMITED",BDBL0001828,160750004,"SAS NAGAR MOHALI","GROUND FLOOR AND FIRST FLOOR,SCF-11,PHASE-3 B 2,SECTOR-60,MOHALI,PUNJAB,PIN 160059",66090909,"SAHIBZADA AJIT SINGH NAGAR","SAHIBZADA AJIT SINGH NAGAR",PUNJAB
"BANDHAN BANK LIMITED",BDBL0001827,176750052,DHARMSALA,"GROUND FLOOR AND FIRST FLOOR,OBC BANK BUILDING,KATWALI BAZAR,DHARAMSHALA,HIMACHAL PRADESH,PIN 176215",66090909,KANGRA,KANGRA,"HIMACHAL PRADESH"
"BANDHAN BANK LIMITED",BDBL0001826,125750052,HISAR,"SCF,39,URBAN ESTATE-II,HISAR,HARYANA,PIN 125001",66090909,HISAR,HISAR,HARYANA
"BANDHAN BANK LIMITED",BDBL0001825,124750002,ROHTAK,"GROUND FLOOR,ANAND PLAZA,DELHI ROAD,ROHTAK,HARYANA,PIN-124001",66090909,ROHTAK,ROHTAK,HARYANA
"BANDHAN BANK LIMITED",BDBL0001824,700750130,DOMJUR,"DOMJUR HOUSE,VILL AND PO DAKSHIN JHAPARDAHA,LAND MARK DOMJUR BAZAR,DIST HOWRAH,WEST BENGAL,PIN 711405",66090909,HOWRAH,HOWRAH,"WEST BENGAL"
"BANDHAN BANK LIMITED",BDBL0001823,700750129,SINTHEE,"24 A,KALICHARAN GHOSH ROAD,PO-SINTHEE,PS -SINTHEE,KOLKATA,WEST BENGAL,PIN-700050",66090909,KOLKATA,KOLKATA,"WEST BENGAL"
"BANDHAN BANK LIMITED",BDBL0001822,NA,TOPSIA,"TIRUMALA 22,EAST TOPSIA ROAD,KOLKATA,PS-TILJALA,WEST BENGAL,PIN-700046",66090909,KOLKATA,KOLKATA,"WEST BENGAL"
"BANDHAN BANK LIMITED",BDBL0001821,826750003,SARAIDHELA,"SWASTIKA COMPLEX,NEAR PRAGATI NURSING HOME,MAIN ROAD,SARAIDHELA,DHANBAD,JHARKHAND,PIN 828127",66090909,DHANBAD,DHANBAD,JHARKHAND
"BANDHAN BANK LIMITED",BDBL0001820,814750002,DUMKA,"BHAGALPUR ROAD,DUDHANI,DUMKA,JHARKHAND,PIN - 814101",66090909,DUMKA,DUMKA,JHARKHAND
"BANDHAN BANK LIMITED",BDBL0001819,822750002,DALTONGANJ,"MAHENDRA ARCADE,POST OFFICE ROAD,ZILA SCHOOL CHOWK,DALTONGANJ,PALAMU,JHARKHAND,PIN 822101",66090909,PALAMU,PALAMU,JHARKHAND
"BANDHAN BANK LIMITED",BDBL0001818,821750202,SASARAM,"J.P.S.BUILDING OLD GT ROAD,NEAR SAHU TALKIES,SARARAM,SASARAM,ROHTAS,BIHAR,PIN 821115",66090909,ROHTAS,ROHTAS,BIHAR
"BANDHAN BANK LIMITED",BDBL0001817,785750203,SIBSAGAR,"SANKARLAL AGARWALLA,TEMPLE ROAD,SIBSAGAR,WARD NO-12,SIBSAGAR,ASSAM,PIN 785640",66090909,SIBSAGAR,SIBSAGAR,ASSAM
"BANDHAN BANK LIMITED",BDBL0001816,110750020,GHAZIABAD,"ORANGE COURT SQUARE,UPPER GROUND FLOOR,SHOP NO 25/26,INDIRAPURAM,GHAZIABAD,UTTARPRADESH,PIN-201014",66090909,GHAZIABAD,GHAZIABAD,RAJASTHAN
"BANDHAN BANK LIMITED",BDBL0001815,482750001,JABALPUR,"990/991,OPP -D.N.JAIN COLLEGE,WRIGHT TOWN,JABALPUR,MADHYA PRADESH,PIN-482002",66090909,JABALPUR,JABALPUR,"MADHYA PRADESH"
"BANDHAN BANK LIMITED",BDBL0001814,NA,"DAK BUNGLOW","PATNA MALL,1ST FLOOR,NEAR DAK BUNGLOW CHAURAHA,KOTWALI,PATNA,BIHAR,PIN 800001",66090909,PATNA,PATNA,BIHAR
"BANDHAN BANK LIMITED",BDBL0001813,NA,DHADKA,"DHADKA GRAM PANCHAYET,PO DHADKA,P.S BUNDWAN,DIST PURULIA,PIN 723129",66090909,MIDNAPORE,PURULIA,"WEST BENGAL"
"BANDHAN BANK LIMITED",BDBL0001812,723750503,GURUR,"GURUR GRAM PANCHAYET,PO - HETYAKOLE,PS BUNDWAN,DIST - PURULIA,WEST BENGAL,PIN - 723129",66090909,PURULIA,PURULIA,"WEST BENGAL"
"BANDHAN BANK LIMITED",BDBL0001811,370750052,BALADIA,"REVENUE SUR NO.282,PLOT NO.3,OPP.BANK OF INDIA,AT.BALADIA,BHUJ,DIST.-KUTCH,GUJARAT,PIN-370427",66090909,KACHCHH,KACHCHH,GUJARAT
"BANDHAN BANK LIMITED",BDBL0001810,560750009,BASAVESHWARNAGAR,"106,BHIMAJYOTHI HOUSING SOCIETY LTD,WEST OF CHORD ROAD,BASAVESHWARNAGAR,NEAR SHANKAR MUTT,BANGALORE,KARNATAKA,PIN 560079",66090909,BANGALORE,"BANGALORE URBAN",KARNATAKA
"BANDHAN BANK LIMITED",BDBL0001809,400750014,GHATKOPAR,"SHOP NO-1& 2 TRIKAL,BUILDING NO.309,90 FT ROAD,GHATKOPAR-EAST,MUMBAI,MAHARASHTRA,PIN-400077",66090909,MUMBAI,MUMBAI,MAHARASHTRA
"BANDHAN BANK LIMITED",BDBL0001808,400750013,DHARAVI,"GROUND FLOOR,UNIT NO-12& 13,SUBHASH CHANDRA BOSE CHS,OPP-ONGC 11/HIGH,SION BANDRA LINK ROAD,DHARAVI,MUMBAI,MAHARASHTRA,PIN-400017",66090909,MUMBAI,MUMBAI,MAHARASHTRA
"BANDHAN BANK LIMITED",BDBL0001807,400750015,ULHASNAGAR,"MURLIWALA COMPLEX,KALYAN-AMBERNATH ROAD,SHIVAJI CHOWK,NEAR ASHOK ANIL THEATRE,ULHASNAGAR,DIST.-THANE,MAHARASHTRA,PIN-421003",66090909,THANE,THANE,MAHARASHTRA
"BANDHAN BANK LIMITED",BDBL0001806,360750121,PORBANDAR,"KUSUM VATIKA RAILWAY STATION ROAD,NEAR ANANAD HOSPITAL,PORBANDAR,GUJARAT,PIN - 360575",66090909,VADODARA,PORBANDAR,GUJARAT
"BANDHAN BANK LIMITED",BDBL0001805,370750002,GANDHIDHAM,"SONA TOWER,PLOT NO.254,WARD - 10/B,GANDHIDHAM,KACHCHH,GUJRAT,PIN-370201",66090909,VADODARA,KACHCHH,GUJARAT
"BANDHAN BANK LIMITED",BDBL0001804,403750003,MARGAO,"SHOP NO 4,5,6,PACHECOS LOTUS CITY CENTRE,BEHIND MARGAON POLICE STATION,MARGAON,SOUTH GOA,GOA,PIN 403601",66090909,MARGAO,"SOUTH GOA",GOA
"BANDHAN BANK LIMITED",BDBL0001803,403750002,PANAJI,"OFF 18TH JUNE ROAD,NEAR MATHIAS PLAZA,PANAJI,NORTH GOA,GOA,PIN 403001",66090909,PANAJI,"NORTH GOA",GOA
"BANDHAN BANK LIMITED",BDBL0001802,689750002,THIRUVALLA,"CHERIANS BULDING,CROSS JUNCTION,THIRUVALLA,PATHANAMTHITTA,KERALA,PIN-689101",66090909,PATHANAMTHITTA,PATHANAMTHITTA,KERALA
"BANDHAN BANK LIMITED",BDBL0001801,691750002,KOLLAM,"CHIRAYIL TOWER,RESIDENCY ROAD,PO-KADAPPAKADA,KOLLAM,KERLA,PIN-691008",66090909,KOLLAM,KOLLAM,KERALA
"BANDHAN BANK LIMITED",BDBL0001800,576750002,UDUPI,"ROYAL AVENUE,OLD POST OFFICE ROAD,DIANA CIRCLE,UDUPI,DIST - UDUPI,KARNATAKA,PIN.576101",66090909,UDIPI,UDIPI,KARNATAKA
"BANDHAN BANK LIMITED",BDBL0001799,110750019,"CHANDNI CHOWK","GROUND FLOOR,BILDING NO.235,FATEPURI,CHANDNI CHOWK,DELHI,PIN-110006",66090909,DELHI,"NEW DELHI",DELHI
"BANDHAN BANK LIMITED",BDBL0001798,713750004,BURNPUR,"GROUND FLOOR AND FIRST FLOOR,24 STATION ROAD,BURNPUR,PS HIRAPUR,DIST BARDHAMAN,WEST BENGAL,PIN 713325",66090909,BURDWAN,BARDHAMAN,"WEST BENGAL"
"BANDHAN BANK LIMITED",BDBL0001797,570750002,MYSURU,"FIRST FLOOR,NO.2767,NEW NO D 4,TEMPLE ROAD,VANI VILAS MOHALLA,MYSORE,KARNATAKA,PIN 570002",66090909,BANGALORE,MYSORE,KARNATAKA
"BANDHAN BANK LIMITED",BDBL0001796,500750005,DILSUKHNAGAR,"11-9-7/A/1 LAXMI NAGAR,NAGOLE ROAD,SAROOR NAGAR,HYDERABAD,RANGA REDDY,TELANGANA,PIN 500035",66090909,"RANGA REDDY","RANGA REDDY",TELANGANA
"BANDHAN BANK LIMITED",BDBL0001795,721750303,BHARATPUR,"BHARATPUR GRAM PANCHAYET,P O BOULASINI,PS DEBRA,DIST WEST MEDINIPUR,WEST BENGAL,PIN 721156",66090909,MIDNAPORE,"WEST MIDNAPORE","WEST BENGAL"
"BANDHAN BANK LIMITED",BDBL0001794,NA,HIJOL,"GROUND FLOOR,VILL AND PO-NATUNGRAM,PS-KANDI,DIST-MURSHIDABAD,WESTBENGAL,PIN-742140",66090909,BERHAMPORE,MURSHIDABAD,"WEST BENGAL"
"BANDHAN BANK LIMITED",BDBL0001793,NA,CHANDPUR,"GROUND FLOOR,VILL AND PO-CHANDPUR,PS-NOWDA,DIST-MURSHIDABAD,PIN-742121",66090909,BERHAMPORE,MURSHIDABAD,"WEST BENGAL"
"BANDHAN BANK LIMITED",BDBL0001792,625750002,MADURAI,"DOOR NO 38,1,GROUND AND FIRST FLOOR,SRI LAKSHMI NIVAS,KRISHNA RAO TANK STREET,MADURAI,TAMILNADU,PIN 625001",66090909,CHENNAI,MADURAI,"TAMIL NADU"
"BANDHAN BANK LIMITED",BDBL0001791,605750002,PUDUCHERRY,"315,MMA SALAI,NALLITHOPPU,DIST PUDUCHERRY,PUDUCHERRY,PIN 605005",66090909,PUDUCHERRY,PUDUCHERRY,PUDUCHERRY
"BANDHAN BANK LIMITED",BDBL0001790,686750002,KOTTAYAM,"GROUND FLOOR,CENTURY TOWERS,NEAR YMCA,MC ROAD KOTTAYAM,KOTTAYAM WEST,KERALA,PIN 686001",66090909,KOTTAYAM,KOTTAYAM,KERALA
"BANDHAN BANK LIMITED",BDBL0001789,713750402,KATWA,"27/1 CIRCUS MAIDAN KATWA,LANDMARK ABHINAV CLOTHING SHOP,PS-KATWA,DISTRICT-BARDHAMAN,WEST BENGAL,PIN - 713130",66090909,BURDWAN,BARDHAMAN,"WEST BENGAL"
"BANDHAN BANK LIMITED",BDBL0001788,700750127,LILUAH,"GROUND FLOOR,265/A/2 G T ROAD,LILUAH,BALLY,HOWRAH,WEST BENGAL,PIN -711204",66090909,HOWRAH,HOWRAH,"WEST BENGAL"
"BANDHAN BANK LIMITED",BDBL0001787,411750007,AUNDH,"LOTUS COURT 127,1,7,OFF ITI ROAD,OPP HOTEL SARJA,ANUDH,PUNE,MAHARASHTRA,PIN 411007",66090909,PUNE,PUNE,MAHARASHTRA
"BANDHAN BANK LIMITED",BDBL0001786,560750007,BASAVANAGUDI,"NO-52,SUBBRAM SHETTY ROAD,NETKALLAPA CIRCLE,BASAVANAGUDI,BANGALORE,KARNATAKA,PIN-560004",66090909,BANGALORE,"BANGALORE URBAN",KARNATAKA
"BANDHAN BANK LIMITED",BDBL0001785,580750002,HUBBALLI,"SATELLITE COMPLEX,SHOP NO A1,A2,A3,A4,KOPPIKAR ROAD,HUBLI,DHARWAD,KARNATAKA,PIN 580020",66090909,BANGALORE,DHARWAD,KARNATAKA
"BANDHAN BANK LIMITED",BDBL0001784,143750202,GURDASPUR,"GROUND FLOOR,HOUSH NO - 646/7,TIBRI ROAD,PO - GURDASPUR,GURDASPUR,PUNJAB,PIN 143521",66090909,GURDASPUR,GURDASPUR,PUNJAB
"BANDHAN BANK LIMITED",BDBL0001783,146750002,HOSHIARPUR,"UNIT NO.UGF-1 AND UNIT NO.F.F.1A,THE MALL COMPLEX SUTEHRI ROAD,HOSHIARPUR,PUNJAB,PIN 146001",66090909,HOSHIARPUR,HOSHIARPUR,PUNJAB
"BANDHAN BANK LIMITED",BDBL0001782,144750202,PHAGWARA,"HANDA CITY CENTRE,OPPOSITE BUS STAND,G.T.ROAD,PHAGWARA,PUNJAB,PIN 144401",66090909,KAPURTHALA,KAPURTHALA,PUNJAB
"BANDHAN BANK LIMITED",BDBL0001781,135750002,YAMUNANAGAR,"GROUND FLOOR,GANPATI BUILDING,YAMUNANAGAR MAIN ROAD,OPP HOTEL MADHU,YAMUNANAGAR,HARYANA,PIN 135001",66090909,YAMUNANAGAR,YAMUNANAGAR,HARYANA
"BANDHAN BANK LIMITED",BDBL0001780,160750003,"PANCHKULA URBAN ESTATE","SCO 51,SECTOR 11,PANCHKULA,HARYANA,PIN 134109",66090909,PANCHKULA,PANCHKULA,HARYANA
"BANDHAN BANK LIMITED",BDBL0001779,110750013,FARIDABAD,"GROUND FLOOR, SCO-32, SECTOR 16, HUDA MARKET, FARIDABAD, HARYANA, PIN-121002",66090909,FARIDABAD,FARIDABAD,HARYANA
"BANDHAN BANK LIMITED",BDBL0001778,110750016,"VASANT KUNJ","PAWA PRESIDENTIAL BUSINESS PARK,TOWER NO6,LSC,C9,VASANT KUNJ ,NEW DELHI, PIN 110070",66090909,"SOUTH WEST DELHI","SOUTH WEST DELHI",DELHI
"BANDHAN BANK LIMITED",BDBL0001777,110750015,"PUNJABI BAGH","GROUND FLOOR,PLOT NO 56,ROAD NO 43,NEAR CENTRAL MARKET,PUNJABI BAGH,NEW DELHI 110026",66090909,DELHI,"WEST DELHI",DELHI
"BANDHAN BANK LIMITED",BDBL0001776,110750017,"MODEL TOWN","HOUSE NO.9 BLOCK -B,GUJRANWALA TOWN PART 1,NEAR MODEL TOWN METRO STATION,MODEL TOWN,NEW DELHI,PIN 110009",66090909,DELHI,"NORTH WEST DELHI",DELHI
"BANDHAN BANK LIMITED",BDBL0001775,110750014,"MAYUR VIHAR","P 9 AND P 10,PANDAV NAGAR,MAYUR VIHAR,PHASE 1,NEW DELHI 110091",66090909,DELHI,"EAST DELHI",DELHI
"BANDHAN BANK LIMITED",BDBL0001774,110750018,"LAJPATH NAGAR","B-25,LAJPAT NAGAR-II,NEW DELHI,PIN-110024",66090909,DELHI,"SOUTH DELHI",DELHI
"BANDHAN BANK LIMITED",BDBL0001773,700750126,DAKSHINESWAR,"1,RAMKRISHNA PARAMHANSADEB ROAD,DAKSHINESWAR,KOLKATA,WEST BENGAL,PIN-700035",66090909,BARASAT,KOLKATA,"WEST BENGAL"
"BANDHAN BANK LIMITED",BDBL0001772,700750125,BALLY,"50,GHOSES LANE,BELURMATH,PS-BALLY,HOWRAH,WEST BENGAL-711202",66090909,HOWRAH,HOWRAH,"WEST BENGAL"
"BANDHAN BANK LIMITED",BDBL0001771,732750103,MOKDUMPUR,"11,11,10 B D G ROAD,WARD NO 8,PO MOKDUMPUR,PS ENGLISH BAZAR,DISTRICT MALDA,WEST BENGAL,PIN 732101",66090909,MALDA,MALDA,"WEST BENGAL"
"BANDHAN BANK LIMITED",BDBL0001770,769750002,ROURKELA,"SAHEJ SUCCESS,GROUND FLOOR,NEAR NEW COURT,UDIT NAGAR,PS UDIT NAGAR,DIST-SUNDARGARH,ROURKELA,ODISHA,PIN 769012",66090909,SUNDARGARH,SUNDARGARH,ODISHA
"BANDHAN BANK LIMITED",BDBL0001769,781750007,SURVEY,"FIRST FLOOR,A G TOWER,BASISTHA BELTOLA ROAD,DISPUR,ASSAM,PIN 781006",66090909,GUWAHATI,KAMRUP,ASSAM
"BANDHAN BANK LIMITED",BDBL0001768,781750006,HATIGAON,"HATIGAON ROAD,NEAR HATIGAON POLICE STATION,DIST - KAMRUP,ASSAM,PIN - 781038",66090909,GUWAHATI,"KAMRUP,METRO",ASSAM
"BANDHAN BANK LIMITED",BDBL0001767,781750005,"G. S. ROAD","FIRST FLOOR,BIBEKANANDA COMPLEX,F-02,G.S ROAD,OPP.RAJIV BHAWAN,BHANGAGARH,GUWAHATI,ASSAM,PIN-781005",66090909,GUWAHATI,KAMRUP,ASSAM
"BANDHAN BANK LIMITED",BDBL0001766,274750503,DEORIA,"BARHAJ ROAD,NEAR AXIS BANK,P.S.KOTWALI,DEORIA,UTTAR PRADESH,PIN 274001",66090909,DEORIA,DEORIA,"UTTAR PRADESH"
"BANDHAN BANK LIMITED",BDBL0001765,474750001,GWALIOR,"GROUND FLOOR,THE EMPIRE,G-2,33-CITY CENTRE,GWALIOR,MADHYA PRADESH,PIN-474011",66090909,INDORE,GWALIOR,"MADHYA PRADESH"
"BANDHAN BANK LIMITED",BDBL0001764,470750001,SAGAR,"H.NO-18,KALI TIGADDA,GOPALGANJ,SAGAR MADHYA PRADESH,PIN 470001",66090909,SAGAR,SAGAR,"MADHYA PRADESH"
"BANDHAN BANK LIMITED",BDBL0001763,490750001,BHILAI,"GROUND FLOOR, SHIVNATH COMPLEX, PLOT NO -32, G.E.ROAD, SUPELA, BHILAI, CHHATTISGARH, PIN-490023",66090909,RAIPUR,DURG,CHHATTISGARH
"BANDHAN BANK LIMITED",BDBL0001762,411750005,KOTHRUD,"GROUND & MEZZANINE FLOOR,SURVEY NO.1/2,DHANUKAR COLONY ROAD, KOTHRUD,PUNE,MAHARASHTRA,PIN-411038",66090909,PUNE,PUNE,MAHARASHTRA
"BANDHAN BANK LIMITED",BDBL0001761,370750051,BHUJ,"M.B BHAGAT COMPLEX,LAL TEKRY,BHUJ-KUTCH,GUJARAT,PIN-370001",66090909,VADODARA,KACHCHH,GUJARAT
"BANDHAN BANK LIMITED",BDBL0001760,700750123,KHARDAHA,"HEMMANSION,27/16,IC ROAD,RAHARA,KHARDAHA,PO-RAHARA.PS-KHARDAHA,WESTBENGAL,PIN-700118",66090909,BARASAT,NORTH24PRAGANAS,"WEST BENGAL"
"BANDHAN BANK LIMITED",BDBL0001759,700750124,"KADAMTALA ,PANCHANANTALA","GROUND FLOOR,56,60/1,KANTAPUKUR 3RD BYE LANE,BANTRA,HOWRAH,WEST BENGAL,PIN - 711101",66090909,HOWRAH,HOWRAH,"WEST BENGAL"
"BANDHAN BANK LIMITED",BDBL0001758,731750103,RAMPURHAT,"305/905,NEAR NEW BUS STAND,PO - RAMPURHAT,PS - RAMPURHAT,DISTRICT - BIRBHUM,WEST BENGAL,PIN-731224",66090909,SHANTINIKETAN,BIRBHUM,"WEST BENGAL"
"BANDHAN BANK LIMITED",BDBL0001757,713750612,LODNA,"COMMUNITY HALL,LODNA GP BUILDING,VILL KAPSIT,PO KHANDOGHOSH,DIST BURDWAN,WEST BENGAL,PIN 713142",66090909,BURDWAN,BARDHAMAN,"WEST BENGAL"
"BANDHAN BANK LIMITED",BDBL0001756,411750006,"PIMPRI CHINCHWAD","CST NO-3187,S NO-186,SHOP NO-11,12,15,16,17,18,19,20,GOKHALE PLAZA,OPP RAMAKRISHAN MORE,NATYAGRUH CHINCHWAD,PUNE,MAHARASHTRA,PIN-411033",66090909,PUNE,PUNE,MAHARASHTRA
"BANDHAN BANK LIMITED",BDBL0001755,388750004,"VALLABH VIDYANAGAR","INAMDAR HOUSE,OPP BHAIKAKA STATUE,NEAR ICICI BANK,MOTA BAZAR,VALLABH VIDYA NAGAR,DIST ANAND,GUJARAT,PIN 388120",66090909,ANAND,ANAND,GUJARAT
"BANDHAN BANK LIMITED",BDBL0001754,396750111,SILVASSA,"GRFLOOR,SHOPNO-20,21,85 AND 86.LANDMARK-BULDING-A2 SRNO-1/2/2.TOKARKHADA,SILVASSA,DADRA AND NAGAR HAVELI,GUJARAT,PIN-396230",66090909,VADODARA,"DADRA AND NAGAR HAVELI",GUJARAT
"BANDHAN BANK LIMITED",BDBL0001753,600750005,"ANNA NAGAR","NEW NO-Q60,OLD NO-Q99,THIRD AVENUE,Q BLOCK,ANNA NAGAR,CHENNAI,TAMILNADU,PIN-600040",66090909,CHENNAI,CHENNAI,"TAMIL NADU"
"BANDHAN BANK LIMITED",BDBL0001752,680750002,THRISSUR,"GROUND FLOOR,SREE LAXMI BUIDING,SHORNUR ROAD,PO-THIRUVAMBODY,THRISSUR,KERALA,PIN-680022",66090909,CHENNAI,THRISSUR,KERALA
"BANDHAN BANK LIMITED",BDBL0001751,560750006,"CHANDRA LAYOUT","UJJINI PEGASUS,1557,8TH CROSS CHANDRA LAYOUT,BANGALORE,KARNATAKA,PIN-560041",66090909,BANGALORE,"BANGALORE URBAN",KARNATAKA
"BANDHAN BANK LIMITED",BDBL0001750,560750005,MALLESWARAM,"GROUND FLOOR,NO 223,G.R ARCAADE,SAMPIGEROAD,14TH CROSS,MALLESWARAM,BANGALORA,KARNATAKA,PIN-560003.",66090909,BANGALORE,"BANGALORE URBAN",KARNATAKA
"BANDHAN BANK LIMITED",BDBL0001749,700750121,DHAKURIA,"14 B,GARIAHAT ROAD S,NEXT TO STATE BANK OF INDIA,PS LAKE PS,KOLKATA,WEST BENGAL,PIN 700031",66090909,KOLKATA,KOLKATA,"WEST BENGAL"
"BANDHAN BANK LIMITED",BDBL0001748,721750251,JHARGRAM,"RAGHUNATHPUR,MAIN ROAD,PS-JHARGRAM,WEST BENGAL,PIN721507",66090909,MIDNAPORE,"WEST MIDNAPORE","WEST BENGAL"
"BANDHAN BANK LIMITED",BDBL0001747,768750202,JHARSUGUDA,"UPPER GROUNDFLOOR,SHREEJI CITY COMPLEX,NEAR DURGA MANDIR,BEHERAMALL,JHARSUGUDA.ODISHA,PIN-768203",66090909,JHARSUGUDA,JHARSUGUDA,ODISHA
"BANDHAN BANK LIMITED",BDBL0001746,768750002,SAMBALPUR,"SHOP NO 101,104 AND 105,SAHEJ PLAZA,GOLE BAZAR,GAIETY ROAD,SAMBALPUR,ODISHA,PIN-768001",66090909,SAMBALPUR,SAMBALPUR,ODISHA
"BANDHAN BANK LIMITED",BDBL0001745,834750003,"MAIN ROAD","GROUND FLOOR,BLOCK-B,UNIT II,CITADEL,BESIDE ICICI BANK,MAINROAD,RANCHI,JHARKHAND,PIN-834001",66090909,RANCHI,RANCHI,JHARKHAND
"BANDHAN BANK LIMITED",BDBL0001744,786750302,DULIAJAN,"T.M TOWER GROUND FLOOR,STATION ROAD,DAILY BAZAR,DULIAJAN,DIST-DIBRUGARH,ASSAM,PIN-786602",66090909,JORHAT,DIBRUGARH,ASSAM
"BANDHAN BANK LIMITED",BDBL0001743,282750002,AGRA,"4/S-118/8,MARUTI TOWER,SANJAY PLACE,AGRA,PS-HARI PARVAT,UTTAR PRADESH.PIN-282003",66090909,MORADABAD,AGRA,"UTTAR PRADESH"
"BANDHAN BANK LIMITED",BDBL0001742,276750002,AZAMGARH,"312-2,PANDIT DEEN DAYAL CHOWK CIVIL LINES,AZAMGARH,KOTWALI-AZAMGARH,UTTAR PRADESH,PIN-276001",66090909,VARANASI,AZAMGARH,"UTTAR PRADESH"
"BANDHAN BANK LIMITED",BDBL0001741,202750002,ALIGARH,"PLOT NO 2,494,PATELMARG,RAMGHATRAD,ALIGARH,UTTARRADESH,IN202001",66090909,MORADABAD,ALIGARH,"UTTAR PRADESH"
"BANDHAN BANK LIMITED",BDBL0001740,110750012,ROHINI,"GROUND FLOOR,BLOCK A,UNIT NO 25,NORTH EX MALL,SECTOR 09,ROHINI,DELHI 110085",66090909,DELHI,"WEST DELHI",DELHI
"BANDHAN BANK LIMITED",BDBL0001739,797750102,KOHIMA,"ANGAMI PUBLIC ORGANISATION BUILDING,PHULBARI,OPPOSITE OKING HOSPITAL,KOHIMA,NAGALAND,PIN-797001",66090909,NAGAON,KOHIMA,NAGALAND
"BANDHAN BANK LIMITED",BDBL0001738,741750612,CHAKDAHA,"CHAKDAHA,LALPUR,NEAR NABIN SANGHA,PO - CHAKDAHA,PS - CHAKDAHA,DISTRICT - NADIA,WEST BENGAL,PIN-741222",66090909,KRISHNANAGAR,NADIA,"WEST BENGAL"
"BANDHAN BANK LIMITED",BDBL0001737,713750704,BORJORA,"FIRST FLOOR, VILL PO-BARJORA, DIST-BANKURA, WEST BENGAL,PIN-722202",66090909,BURDWAN,BARDHAMAN,"WEST BENGAL"
"BANDHAN BANK LIMITED",BDBL0001736,NA,KALIKAPUR,"GROUND FLOOR&FRIST FLOOR,1188/A/1,PURBACHAL MAIN ROAD,KOLKATA,PS-GARFA,WESTBENGAL,PIN-700078",66090909,KOLKATA,KOLKATA,"WEST BENGAL"
"BANDHAN BANK LIMITED",BDBL0001735,NA,EGARA,"COMMUNITY HALL,CHOWMATHA,NEW├╜EGARA,LAND MARK KALI MONDIR, PS- RANIGANJ, DIST-BARDHAMAN, WEST BENGAL, PIN- 713323",66090909,BURDWAN,BARDHAMAN,"WEST BENGAL"
"BANDHAN BANK LIMITED",BDBL0001734,641750002,COIMBATORE,"GROUND FLOOR,SRINIVASA TOWERS,45 DR.RAJENDRA PRASAD ROAD,100 FEET ROAD,GANDHIPURAM,COIMBATORE,TAMILNADU PIN-641012",66090909,CHENNAI,COIMBATORE,"TAMIL NADU"
"BANDHAN BANK LIMITED",BDBL0001733,733750802,TEPAGAON,"GROUND FLOOR,VILL TEPAGAON,PO DASPARA,NORTH DINAJPUR,WEST BENGAL,PIN-733206",66090909,KOLKATA,"NORTH DINAJPUR","WEST BENGAL"
"BANDHAN BANK LIMITED",BDBL0001732,733750801,BALIGUDA,"GROUND FLOOR,PO VILL-CHAKULIYA,NORTH DINAJPUR,WEST BENGAL,PIN-733211",66090909,KOLKATA,"NORTH DINAJPUR","WEST BENGAL"
"BANDHAN BANK LIMITED",BDBL0001731,171750002,SHIMLA,"FRIST FLOOR,CHHAJTA HEIGHTS,SANJAULI CHOWK,SHIMLA,HIMACHAL PARDESH PIN-1710006",66090909,CHANDIGARH,SHIMLA,"HIMACHAL PRADESH"
"BANDHAN BANK LIMITED",BDBL0001730,180750001,JAMMU,"SHOP NO 2 GROUND AND FIRST FLOOR,NEW K.C COMPLEX,RESIDENCY ROAD, JAMMU,JAMMU AND KASHIMR,PIN-180001",66090909,DELHI,JAMMU,"JAMMU AND KASHMIR"
"BANDHAN BANK LIMITED",BDBL0001729,110750011,"GREATER NOIDA","KASANA TOWERS,B 1,ALPHA COMMERCIAL BUILDING,GROUND AND FIRST FLOOR,ALPHA 1 GREATER NOIDA,UTTAR PRADESH,PIN 201308",66090909,"GREATER NOIDA","GAUTAM BUDDHA NAGAR","UTTAR PRADESH"
"BANDHAN BANK LIMITED",BDBL0001728,110750008,JANAKPURI,"GROUND FLOOR,BLOCK A3, HOUSE NO34,JANKPURI,NEW DELHI,DELHI,PIN-110058",66090909,"NEW DELHI","WEST DELHI",DELHI
"BANDHAN BANK LIMITED",BDBL0001727,110750009,"GREATER KAILASH","19-GROUND FLOOR,KAILASH ENCLAVE,NEAR EAST OF KAILASH METRO STATION IN FORNT OF PILLAR NO 76,SOUTH DELHI, DELHI,PIN-110048",66090909,DELHI,"SOUTH DELHI",DELHI
"BANDHAN BANK LIMITED",BDBL0001726,110750010,DWARKA,"PLOT NO 48, SEC 12B, DWARKA, NEW DELHI, PIN-110075",66090909,DELHI,"SOUTH WEST DELHI",DELHI
"BANDHAN BANK LIMITED",BDBL0001725,395750002,ADAJAN,"GROUND FLOOR SHOP NO 1 TO 6 OM SHOPPING COMPLEX, OPP PRIME ARCADE ANAND MAHAL ROAD, ADAJAN, SURAT, GUJARAT-395009",66090909,VADODARA,SURAT,GUJARAT
"BANDHAN BANK LIMITED",BDBL0001724,380750005,"SHYAMAL CROSS ROAD","GR. FLOOR, 22,23 AND 24, THE GRAND MONARCH COMPLEX, ANAND NAGAR ROAD, SATELLITE, AHMEDABAD, GUJARAT, PIN-380015",66090909,VADODARA,AHMEDABAD,GUJARAT
"BANDHAN BANK LIMITED",BDBL0001723,221750003,MAHMOORGANJ,"GROUND FLOOR, B 37/117-H, BLOCK-B, SHAPURI HEIGHTS,MAHMOORGANJ,VARANASI,UTTAR PRADESH, PIN-221010",66090909,VARANASI,VARANASI,"UTTAR PRADESH"
"BANDHAN BANK LIMITED",BDBL0001722,700750118,ASOKNAGAR,"BUILDING MORE,ASOKNAGAR,PO ASOKNAGAR,DIST NORTH 24 PARGANAS,WEST BENGAL,PIN 743222",66090909,KOLKATA,"NORTH 24 PARGANAS","WEST BENGAL"
"BANDHAN BANK LIMITED",BDBL0001721,700750117,GORABAZAR,"GROUND FLOOR, 39/1 POST OFFICE ROAD, DUM DUM, NORTH 24 PARGANAS, WEST BENGAL, PIN-700028",66090909,BARASAT,"NORTH 24 PARGANAS","WEST BENGAL"
"BANDHAN BANK LIMITED",BDBL0001720,700750116,HATISHALA,"P O-HATISHALA,PS-KOLKATA LEATHER COMPLEX DIST SOUTH24 PARGANAS,WEST BENGAL PIN 700135",66090909,BARASAT,"SOUTH24 PARGANAS","WEST BENGAL"
"BANDHAN BANK LIMITED",BDBL0001719,731750701,JIKODDA,"VILL-KRISHNANAGAR,PO MAHURA DIST-BIRBHUM,WEST BENGAL,PIN-731216",66090909,SHATINIKETAN,BIRBHUM,"WEST BENGAL"
"BANDHAN BANK LIMITED",BDBL0001718,713750611,KURMUN,"KURMUN GP, BALGONA, BURDWAN, KALITALA PANCHAYAT ROAD, HATTALA DURGA MANDIR, BARDHAMAN, WEST BENGAL, PIN 713407",66090909,BURDWAN,BARDHAMAN,"WEST BENGAL"
"BANDHAN BANK LIMITED",BDBL0001717,741750610,HINGHNARA,"IOU,S,ISNI,WESBENG,IN741223",66090909,KRISHNANAGAR,I,"WEST BENGAL"
"BANDHAN BANK LIMITED",BDBL0001716,713750801,HIJALGORA,"GROUND FLOOR, HIJALGORA GRAM PANCHAYAT, VILL & PO - HIJALGORA, PS - JAMURIA, DISTRICT -BURDWAN, WEST BENGAL, PIN-713362",66090909,BURDWAN,BARDHAMAN,"WEST BENGAL"
"BANDHAN BANK LIMITED",BDBL0001715,700750115,"GOPALPUR II",IOGPPRSRNRTH24RGNSWESTBENGIN743445,66090909,BARASAT,OT4PAAGANAS,"WEST BENGAL"
"BANDHAN BANK LIMITED",BDBL0001714,741750103,BHATJANGLA,IOBJNGSOIRISNNGRDISNDIWESBENGIN741102,66090909,KRISHNANAGAR,I,"WEST BENGAL"
"BANDHAN BANK LIMITED",BDBL0001712,713750003,"APCAR GARDEN","EHINANDANENCLAVE,SENRALEIGHROAD,NEAAILWAYBIDGE,BEIDEEVELANDNUINGHOME,APCAGADEN,AANOL,BADHAMAN,WETBENGAL,PIN713304",66090909,BURDWAN,ADAA,"WEST BENGAL"
"BANDHAN BANK LIMITED",BDBL0001711,713750703,SRIRAMPUR,"SRIRAMPUR GP,VILL SRIRAMPUR,PO PLUS PS ANDAL,DISTRICT BARDHAMAN,WEST BENGAL,PIN 713321",66090909,BURDWAN,BARDHAMAN,"WEST BENGAL"
"BANDHAN BANK LIMITED",BDBL0001710,741750609,SREERAMPUR,"GROUND FLOOR,VILL SREERAMPUR,PO RAJARMATH,PS CHAKDAHA,NADIA,WEST BENGAL,PIN 741222",66090909,KRISHNANAGAR,NADIA,"WEST BENGAL"
"BANDHAN BANK LIMITED",BDBL0001709,713750610,SANKO,"OLD GP OFFICE,VILL KULGORIA,PO SANKO,DISTRICT BARDHAMAN,WEST BENGAL,PIN 713141",66090909,BURDWAN,BARDHAMAN,"WEST BENGAL"
"BANDHAN BANK LIMITED",BDBL0001708,841750506,NAUTAN,"1ST FLOOR, NARAYAN BHAWAN, VILL. PO NAUTAN, PS. MARHOURA, DIST. SARAN, BIHAR, PIN. 841401",66090909,SIWAN,SARAN,BIHAR
"BANDHAN BANK LIMITED",BDBL0001707,713750702,MADANPUR,"MADANPUR,MAHESHVIDYA MANDIR,PO PLUS PS ANDAL,DISTRICT BARDHAMAN,WEST BENGAL,PIN 713321",66090909,BURDWAN,BARDHAMAN,"WEST BENGAL"
"BANDHAN BANK LIMITED",BDBL0001706,841750601,KUCHAIKOTE,"JAGPATI COMPLEX, GROUND FLOOR, VILL PO. KUCHAIKOTE, DIST. GOPALGANJ, BIHAR, PIN. 841501",66090909,SIWAN,GOPALGANJ,BIHAR
"BANDHAN BANK LIMITED",BDBL0001705,700750114,KESTOPUR,"TULSI BHAWAN,GROUND FLOOR,BE 7,RABINDRAPALLY,KRISHNAPUR,PO PRAFULLAKANAN,PS. BAGUIHATI,KOLKATA,WEST BENGAL,PIN 700101",66090909,BARASAT,"NORTH 24 PARGANAS","WEST BENGAL"
"BANDHAN BANK LIMITED",BDBL0001704,791750002,ITANAGAR,"E SECTOR, OPP CIVIL SECRETARIAT, ITANAGAR, DIST PAPUM PARE, ARUNACHAL PRADESH, PIN 791111",66090909,TEZPUR,"PAPUM PARE","ANDHRA PRADESH"
"BANDHAN BANK LIMITED",BDBL0001703,273750002,GORAKHPUR,"GROUND FLOOR,TRIMURTI PLAZA,OPPOSITE RAM PRASAD BISMIL PARK,9 PARK ROAD,GORAKHPUR,PIN-273001",66090909,VARANASI,OAHU,"UTTAR PRADESH"
"BANDHAN BANK LIMITED",BDBL0001702,741750608,FULIA,"PO VILL-BELEMATH,PS SANTIPUR,NADIA,WEST BENGAL,PIN 741402",66090909,KRISHNANAGAR,NADIA,"WEST BENGAL"
"BANDHAN BANK LIMITED",BDBL0001701,841750505,EKMA,"1ST FLOOR, BLOCK ROAD, EKMA, DIST SARAN, BIHAR, PIN-841208",66090909,SIWAN,SARAN,BIHAR
"BANDHAN BANK LIMITED",BDBL0001700,713750951,"BOHAR I","BOHAR I GRAM PANCHAYAT,HARINDANGA,SONTALA,DISTRICT BARDHAMAN,WEST BENGAL,PIN 713422",66090909,BURDWAN,BARDHAMAN,"WEST BENGAL"
"BANDHAN BANK LIMITED",BDBL0001699,700750113,BALLYGUNGE,"RUD&FIRSTFLR,59A,BALLYGUGECIRCULARRAD,KLKATA,WESTBEGAL,PI-700019",66090909,DHAKURIA,OKT,"WEST BENGAL"
"BANDHAN BANK LIMITED",BDBL0001698,741750506,BADKULLA,"FIRST FLOOR,DIGNAGAR ROAD,GHOSH PARA,PO BADKULLA STATION ROAD,PS-TAHERPUR,NADIA,WEST BENGAL,PIN 741121",66090909,KRISHNANAGAR,NADIA,"WEST BENGAL"
"BANDHAN BANK LIMITED",BDBL0001697,796750002,AIZAWL,"E-5,PETERS STREET,KHATLA,PS-AIZAWL,DIST-AIZAWL,MIZORAM,PIN-796001",66090909,AIZAWL,AIZAWL,MIZORAM
"BANDHAN BANK LIMITED",BDBL0001696,713750609,JAMALPUR,"VILLAGE HALARA,P.O AND P.S.JAMALPUR,NEAR JAMALPUR BDO OFFICE,DIST BARDHAMAN,WEST BENGAL,PIN 713408",66090909,BURDWAN,BARDHAMAN,"WEST BENGAL"
"BANDHAN BANK LIMITED",BDBL0001695,826750102,KATRASGARH,"FIRST FLOOR,KALALI PHATAK,KATRAS,P.O-KATRASGARH,DHANBAD,JHARKHAND 828114",66090909,RANCHI,DHANBAD,JHARKHAND
"BANDHAN BANK LIMITED",BDBL0001694,833750102,SARAIKELA,"FIRST FLOOR,WARD NO.-7,LAHRITOLA,SARAIKELA,JHARKHAND-833219",66090909,RANCHI,SARAIKELA,JHARKHAND
"BANDHAN BANK LIMITED",BDBL0001693,835750302,KHUNTI,"FIRST FLOOR,BASANT COMPLEX,NETAJI CHOWK,MAIN ROAD KHUNTI,P.S-KHUNTI,JHARKHAND,PIN 835210",66090909,RANCHI,KHUNTI,JHARKHAND
"BANDHAN BANK LIMITED",BDBL0001692,742750514,LALBAGH(MURSHIDABAD),"First Floor, 328 No. Kalandarbag.(Golabag), P.O.- Murshidabad, Lalbag, Pin-742149, West Bengal",66090909,BERHAMPORE,MURSHIDABAD,"WEST BENGAL"
"BANDHAN BANK LIMITED",BDBL0001691,NA,DUBOPARA,"VILL-DUBOPARA,PO-CHONYA,HARIHARPARA PIN-742185,WEST BENGAL",66090909,BERHAMPORE,MURSHIDABAD,"WEST BENGAL"
"BANDHAN BANK LIMITED",BDBL0001690,742750512,AZIMGANJ,"GROUND FLOOR,VILL PO-AZIMGANJ,PS-JIAGANJ,DIST-MURSHIDABAD,PIN-742122",66090909,BERHAMPORE,MURSHIDABAD,"WEST BENGAL"
"BANDHAN BANK LIMITED",BDBL0001689,736750516,"KHALISA GOSANIMARI","GROUND FLOOR,VILL -KHALISA GOSANIMARI,P.O -GOSANIMARI,P.S DINHATA,DIST.- COOCHBEHAR,WEST BENGAL,PIN 736145",66090909,COOCHBEHAR,COOCHBEHAR,"WEST BENGAL"
"BANDHAN BANK LIMITED",BDBL0001688,736750515,"CHARALJANI NATABARI","GROUND FLOOR,VILL P.O -CHARALJANI,P.S TUFANGANJ,DIST.- COOCHBEHAR,WEST BENGAL,PIN 736156",66090909,COOCHBEHAR,COOCHBEHAR,"WEST BENGAL"
"BANDHAN BANK LIMITED",BDBL0001687,736750801,BARANACHINA,"GROUND FLOOR,VILL P.O -BARANACHINA,ANCHAL PUTIMARI - 2.P.S DINHATA,DIST.- COOCHBEHAR,WEST BENGAL,PIN 736174",66090909,COOCHBEHAR,COOCHBEHAR,"WEST BENGAL"
"BANDHAN BANK LIMITED",BDBL0001686,741750607,GAYESHPUR,UF1APEHUPSKDNP71WEBE.,66090909,BARASAT,NADIA,"WEST BENGAL"
"BANDHAN BANK LIMITED",BDBL0001685,713750505,"DISERGARH GHAT","GROUND FLOOR,DISERGARH GHAT,KILLBURN MORE,KULTI,DIST BURDWAN,PIN 713333",66090909,BURDWAN,BURDWAN,"WEST BENGAL"
"BANDHAN BANK LIMITED",BDBL0001684,713750506,RUPNARAYANPUR,"GROUND FLOOR KAAJALI APARTMENT HCL ROAD NEAR KALI MANDIR PS SALANPUR DIST BARDHAMAN WEST BENGAL PIN 713386",66090909,BURDWAN,BARDHAMAN,"WEST BENGAL"
"BANDHAN BANK LIMITED",BDBL0001683,713750351,MEMARI,"GROUND FLOOR PO AND PS MEMARI MEMARI KALITALA DIST BARDHAMAN WEST BENGAL PIN 713146",66090909,BURDWAN,BARDHAMAN,"WEST BENGAL"
"BANDHAN BANK LIMITED",BDBL0001682,742750515,RAMBAG,"VILL-RAMBAG,PO - BHAGAWANGOLA,PIN-742135,WEST BENGAL",66090909,BERHAMPORE,MURSHIDABAD,"WEST BENGAL"
"BANDHAN BANK LIMITED",BDBL0001681,721750601,KESHIARY,"VILL& PO-KESHIARY,P.S.-KESHIARY,DIST-PASCHIM MEDINIPUR",66090909,MEDINIPUR,"WEST MEDINIPUR","WEST BENGAL"
"BANDHAN BANK LIMITED",BDBL0001680,700750110,"CHARIAL BAZAR","FIRST FLOOR,224,MG ROAD,WARD NO - 18,BUDGE BUDGE,WEST BENGAL,PIN - 700137",66090909,DHAKURIA,"SOUTH 24 PARGANAS","WEST BENGAL"
"BANDHAN BANK LIMITED",BDBL0001679,700750106,BARGRAM,"FIRST FLOOR MAMTAJ BHAVAN VILL AND PO BARGRAM PS SHYAMPUR DIST HOWRAH WEST BENGAL PIN 711312",66090909,HOWRAH,HOWRAH,"WEST BENGAL"
"BANDHAN BANK LIMITED",BDBL0001678,700750105,PURASH,"FIRST FLOOR VILLAGE PURASH PO KANPUR PS AMTA DISTRICT HOWRAH WEST BENGAL PIN 711410",66090909,HOWRAH,HOWRAH,"WEST BENGAL"
"BANDHAN BANK LIMITED",BDBL0001677,700750104,PAIKBASHA,"FIRST FLOOR VILL PAIKBASHA PO JHIKIRA PS JOYPUR DIST HOWRAH WEST BENGAL PIN 711401",66090909,HOWRAH,HOWRAH,"WEST BENGAL"
"BANDHAN BANK LIMITED",BDBL0001676,700750108,"KANTAGACHI RAIDIGHI","FIRST FLOOR VILL KANTAGACHI RAIDIGHI PO NAUL PS SHYAMPUR BLOCK SHYAMPUR 2 DIST HOWRAH WEST BENGAL PIN 711312",66090909,HOWRAH,HOWRAH,"WEST BENGAL"
"BANDHAN BANK LIMITED",BDBL0001675,700750096,JAGATBALLAVPUR,"ALAMEEN MARKET 1ST FLOOR VILL AND PO BARGACHIA PS JAGATBALLAVPUR DIST HOWRAH WEST BENGAL PIN 711404",66090909,HOWRAH,HOWRAH,"WEST BENGAL"
"BANDHAN BANK LIMITED",BDBL0001674,700750111,MANKUNDU,"18,MANKUNDU STATION ROAD SHAMBHUR MORE PO-CHANDANNAGORE HOOGHLY-712136",66090909,HOOGHLY,HOOGHLY,"WEST BENGAL"
"BANDHAN BANK LIMITED",BDBL0001673,700750109,BANDEL,UDF1SSIRDMNDUPIUG7113.,66090909,HOOGHLY,HOOGHLY,"WEST BENGAL"
"BANDHAN BANK LIMITED",BDBL0001672,736750705,SHILBARIHAT,"GROUND FLOOR VILL SHILBARIHAT PO SHILBARIHAT PS ALIPURDUAR DIST ALIPURDUAR WEST BENGAL PIN 736204",66090909,DHUPGURI,ALIPURDUAR,"WEST BENGAL"
"BANDHAN BANK LIMITED",BDBL0001671,736750704,SALKUMARHAT,"VILL - MUNSHIPARA,PO - SALKUMARHAT,DIST ALIPURDUAR,PIN - 736204",66090909,DHUPGURI,ALIPURDUAR,"WEST BENGAL"
"BANDHAN BANK LIMITED",BDBL0001670,736750517,KALJANI,"GROUND FLOOR,VILL.P.O-KALJANI,DIST.- COOCHBEHAR,P.S-KOTWALI,WEST BENGAL 736133",66090909,DHUPGURI,COOCHBEHAR,"WEST BENGAL"
"BANDHAN BANK LIMITED",BDBL0001669,736750518,GOSAIRHAT,"GROUND FLOOR CHHOTO DHAPER CHATRA P O GOSSAIRHAT BANDAR P S SITALKUCHI DIST COOCHBEHAR WEST BENGAL PIN 736172",66090909,DHUPGURI,COOCHBEHAR,"WEST BENGAL"
"BANDHAN BANK LIMITED",BDBL0001668,713750504,DOMAHANI,"GROUND FLOOR VILL AND PO DOMANI BAZAR DIST BURDWAN WEST BENGAL PIN 713334",66090909,BURDWAN,BURDWAN,"WEST BENGAL"
"BANDHAN BANK LIMITED",BDBL0001667,700750100,"GOPALPUR MORE","GROUND FLOOR GOPALPUR MORE PO SIKRIA KULINGRAM PS BASIRHAT NORTH 24 PARGANAS WEST BENGAL PIN 743428",66090909,HABRA,"NORTH 24 PARAGANAS","WEST BENGAL"
"BANDHAN BANK LIMITED",BDBL0001666,713750503,UKHRA,SLRANANABHAWANANANDAMREMGRADUKHRADISBURDWANWESBENGALPIN73363,66090909,BURDWAN,BURDWAN,"WEST BENGAL"
"BANDHAN BANK LIMITED",BDBL0001665,700750088,NEPALGANJ,"FIRST FLOOR,VILL.-RAGHABPUR,PO -NEPALGANJ,P.S-BISHNUPUR,DIST.-SOUTH24 PARGANAS,WEST BENGAL,PIN 700103",66090909,DHAKURIA,"SOUTH 24 PARGANAS","WEST BENGAL"
"BANDHAN BANK LIMITED",BDBL0001664,700750089,"KHAGRAMURI - MAHISGOT","FIRST FLOOR,VILL. & PO -NAHAZARI,KHAGRAMURI GRAM PANCHAYAT,P.S-BISHNUPUR,DIST.-SOUTH24 PARGANAS,WEST BENGAL,PIN 700104",66090909,DHAKURIA,"SOUTH 24 PARGANAS","WEST BENGAL"
"BANDHAN BANK LIMITED",BDBL0001663,700750091,SAHARARHAT,"FIRST FLOOR,VILL. & PO -SAHARARHAT,BELSINGHA GRAM PANCHAYAT ( II),P.S-FALTA,DIST.-SOUTH 24 PARGANAS,WEST BENGAL,PIN 743504",66090909,DHAKURIA,"SOUTH 24 PARGANAS","WEST BENGAL"
"BANDHAN BANK LIMITED",BDBL0001662,700750090,JHINKIRHAT,"GROUND FLOOR,VILL. & PO -MOHANPUR,MOHANPUR GRAM PANCHAYAT,P.S-MOGRAHAT,DIST - SOUTH24 PARGANAS,WEST BENGAL,PIN 743610",66090909,DHAKURIA,"SOUTH 24 PARGANAS","WEST BENGAL"
"BANDHAN BANK LIMITED",BDBL0001661,700750087,SARISHAHAT,"FIRST FLOOR,VILL. & PO -SARISHA,P.S DIAMOND HARBOUR,DIST.-SOUTH 24 PARGANAS,WEST BENGAL,PIN 743368",66090909,DHAKURIA,"SOUTH 24 PARGANAS","WEST BENGAL"
"BANDHAN BANK LIMITED",BDBL0001660,700750086,BAKRAHAT,"FIRST FLOOR,VILL. & PO -BAKRAHAT,P.S BISHNUPUR,DIST.-SOUTH 24 PARGANAS,WEST BENGAL,PIN 743377",66090909,DHAKURIA,"SOUTH 24 PARGANAS","WEST BENGAL"
"BANDHAN BANK LIMITED",BDBL0001659,700750107,RAMCHANDRAKHALI,"VILL -RAMCHANDRAKHALI,PO -SONAKHALI,PS - BASANTI,DIST SOUTH 24 PARGANAS,WEST BENGAL,PIN -743312",66090909,BARUIPUR,"SOUTH 24 PARGANAS","WEST BENGAL"
"BANDHAN BANK LIMITED",BDBL0001658,700750098,DHOSHA,"VILL - CHANDENESWAR DHOSA,PO - DHOSA,PS -JOYNAGAR,DIST SOUTH 24 PARGANAS,WEST BENGAL,PIN-743396",66090909,BARUIPUR,"SOUTH 24 PARGANAS","WEST BENGAL"
"BANDHAN BANK LIMITED",BDBL0001657,700750097,CHAMPAHATI,OCPDSO4GNWEBENGN40,66090909,BARUIPUR,"SOUTH 24 PARGANAS","WEST BENGAL"
"BANDHAN BANK LIMITED",BDBL0001656,713750701,PRATAPPUR,"PRATAPPUR GP,VILL KHATGORIA,PO JAMGORA,DIST BURDWAN,PIN 713385",66090909,BURDWAN,BURDWAN,"WEST BENGAL"
"BANDHAN BANK LIMITED",BDBL0001655,741750702,BOGPUR,"BOGPUR,PO -CHAKBAMAN GORIA,DIST -BURDWAN,WEST BENGAL,PIN -713513",66090909,BURDWAN,BURDWAN,"WEST BENGAL"
"BANDHAN BANK LIMITED",BDBL0001654,713750501,"NEAMATPUR BAZAR","GROUND FLOOR,JOG PHARMACY,G T ROAD,NEAMATPUR,SITARAMPUR,DIST - BURDWAN,WEST BENGAL,PIN 713359",66090909,BURDWAN,BURDWAN,"WEST BENGAL"
"BANDHAN BANK LIMITED",BDBL0001653,713750502,"BARAKAR BAZAR","GROUND FLOOR,G T ROAD,HANUMAN CHARAI,BARAKAR,KULTI,BURDWAN,WEST BENGAL,PIN 713324",66090909,BURDWAN,BURDWAN,"WEST BENGAL"
"BANDHAN BANK LIMITED",BDBL0001652,700750103,"AMINPUR BAZAR","GROUND FLOOR,AMINPUR BAZAR,PO SONDALIA,PS SASHAN,BLOCK 2,FALTI,BELIAGHATA GRAM PANCHAYAT,NORTH 24 PARAGANAS,WEST BENGAL,PIN 743423",66090909,BARASAT,"NORTH 24 PARAGANAS","WEST BENGAL"
"BANDHAN BANK LIMITED",BDBL0001651,700750102,"RAMPUR MORE","GROUND FLOOR,VILL-RAMPUR,PO -ARKHALI AMDANGA,PS-AMDANGA,SADHANPUR GRAM PANCHAYAT,NORTH 24 PARAGANAS,WEST BENGAL,PIN-743221",66090909,BARASAT,"NORTH 24 PARAGANAS","WEST BENGAL"
"BANDHAN BANK LIMITED",BDBL0001650,700750101,DARIAPUR,"FIRST FLOOR,VILL. & PO -DARIAPUR,CHANDIGARH GRAM PANCHAYAT,PS-AMDANGA,NORTH 24 PARAGANAS,WEST BENGAL,PIN-743711",66090909,BARASAT,"NORTH 24 PARAGANAS","WEST BENGAL"
"BANDHAN BANK LIMITED",BDBL0001649,743750507,MASLANDAPUR,"FIRST FLOOR,VILL-SADPUR,PO -MASLANDAPUR,PS HABRA,DIST NORTH 24 PARAGANAS,WEST BENGAL,PIN 743289",66090909,HABRA,"NORTH 24 PARAGANAS","WEST BENGAL"
"BANDHAN BANK LIMITED",BDBL0001648,700750099,GUMA,"GROUND FLOOR GUMA CHOWMATHA NORTH 24 PARAGANAS WEST BENGAL PIN 743704",66090909,HABRA,"NORTH 24 PARAGANAS","WEST BENGAL"
"BANDHAN BANK LIMITED",BDBL0001647,700750094,BAGANDA,"GROUND FLOOR,VILL-RANMAHAL,PO -DHULASIMLA,PS-ULUBERIA,NEAR BAGANDA,DIST.-HOWRAH,WEST BENGAL,PIN -711315",66090909,HOWRAH,HOWRAH,"WEST BENGAL"
"BANDHAN BANK LIMITED",BDBL0001646,700750095,RANIHATI,"FIRST FLOOR,ROYAL COMPLEX,VILL RANIHATI,PO -JOY NAGAR,PS PANCHLA,HOWRAH,WEST BENGAL,PIN-711322",66090909,HOWRAH,HOWRAH,"WEST BENGAL"
"BANDHAN BANK LIMITED",BDBL0001645,700750093,BHANDARHATI,"GROUND FLLOOR,VILL& PO -BHANDARHATI,P.S DHANIAKHALI DIST-HOOGHLY,WEST BENGAL,PIN-712301",66090909,HOOGHLY,HOOGHLY,"WEST BENGAL"
"BANDHAN BANK LIMITED",BDBL0001644,700750092,JANGIPARA,"FIRST FLOOR,VILL& PO -JANGIPARA,NEAR LIC OFFICE DIST HOOGHLY,WEST BENGAL,PIN-712404",66090909,HOOGHLY,HOOGHLY,"WEST BENGAL"
"BANDHAN BANK LIMITED",BDBL0001643,700750084,"NICCO PARK","JHEEL MEEL,SECTOR IV,SALT LAKE CITY,KOLKATA,WEST BENGAL,PIN 700106",66090909,KOLKATA,"NORTH 24 PARGANAS","WEST BENGAL"
"BANDHAN BANK LIMITED",BDBL0001642,799750152,KHOWAI,"SUBHASH PARK,P.O& P.S KHOWAI,DIST WEST TRIPURA,TRIPURA,PIN-799201",66090909,KHOWAI,"WEST TRIPURA",TRIPURA
"BANDHAN BANK LIMITED",BDBL0001641,530750002,"DWARKA NAGAR","DOOR NO 47-10-26,RAMS PLAZA,2ND LANE,DWARKA NAGAR,VISHAKAPATTANAM,ANDHRA PRADESH.PIN-530016",66090909,"DWARKA NAGAR",VISHAKAPATTANAM,"ANDHRA PRADESH"
"BANDHAN BANK LIMITED",BDBL0001640,700750083,"PARK STREET","HALL AND ANDERSON LTD,BANGUR BFL ESTATE,31,CHOWRANGHEE ROAD,KOLKATA,WEST BENGAL.PIN-700016",66090909,KOLKATA,KOLKATA,"WEST BENGAL"
"BANDHAN BANK LIMITED",BDBL0001639,380750004,GANDHINAGAR,"GROUNDR FLOOR,MANILAL CHAMBER,PLOT NO 282,SECTOR 16,GH ROAD NR TORRENT POWER OFFICE,GANDHINAGAR,GUJARAT,PIN - 382016",66090909,VADODARA,GANDHINAGAR,GUJARAT
"BANDHAN BANK LIMITED",BDBL0001638,110750001,"PREET VIHAR","80,DEFENCE ENCLAVE,VIKAS MARG,NEW DELHI -110092",66090909,DELHI,"EAST DELHI",DELHI
"BANDHAN BANK LIMITED",BDBL0001637,392750002,MADHAVPURA,"VILL MADHAVPURA,P.O.RAJPARDI,TALUKA JHAGADIA,SHOP NO-10,11,BUIILDING A B,RAJPARDI GUJRAT,PIN-393115",66090909,AHMEDABAD,ANAND,GUJARAT
"BANDHAN BANK LIMITED",BDBL0001636,781750004,"ZOO ROAD, GUWAHATI","TRISUL TOWER,Z.N.ROAD ZOO NARENGI ROAD,GUWAHATI,PIN - 781021",66090909,GUWAHATI,KAMRUP,ASSAM
"BANDHAN BANK LIMITED",BDBL0001635,500750004,"S R NAGAR","26 A MIG,MUNICIPAL NO.7 1 397 5 A,SANJEEVA REDDY NAGAR COLONY,HYDERABAD,TELENGANA,PIN 500038",66090909,HYDERABAD,HYDERABAD,TELANGANA
"BANDHAN BANK LIMITED",BDBL0001634,242750003,BAREILLY,"GROUND FLOOR,R S TOWERS,165,CIVIL LINES,STATION ROAD,OPP HOTEL BAREILLY PALACE,BAREILLY,UTTAR PRADESH,PIN 243001",66090909,MORADABAD,BAREILLY,"UTTAR PRADESH"
"BANDHAN BANK LIMITED",BDBL0001633,713750103,BAJEPRATAPPUR,"BAJEPRATAPPUR,KATWA ROAD,P.O.BAJRPRATAPPUR NDDF,WEST BENGAL,PIN - 713101",66090909,KOLKATA,BARDHAMAN,"WEST BENGAL"
"BANDHAN BANK LIMITED",BDBL0001632,741750505,SHONDANGA,"VILL SHONDANGA,P.O.SHONDANGA,DIST.NADIA,WEST BENGAL,PIN 741125",66090909,KRISHNANAGAR,NADIA,"WEST BENGAL"
"BANDHAN BANK LIMITED",BDBL0001631,721750804,"KUSPATA GHATAL","VILL KUSHPATA,P.O.GHATAL,DIST.PASCHIM MEDINIPUR,WEST BENGAL,PIN-721212",8103174584,KOLKATA,"EAST MEDINIPUR","WEST BENGAL"
"BANDHAN BANK LIMITED",BDBL0001630,700750122,BRAHMAPUR,"530,BRAHMAPUR ROAD,PO-BRAMHAPUR, PS-BANSDRONI,SOUTH 24 PARGANAS,WEST BENGAL, PIN-700096",66090909,DHAKURIA,"SOUTH 24 PARGANAS","WEST BENGAL"
"BANDHAN BANK LIMITED",BDBL0001629,400750016,"NARIMAN POINT","UNIT NO G-5,GROUND FLOOR,DALAMAL TOWER,PLOT NO-211,FREE PRESS JOURNAL MARG,NARIMAN POINT,MUMBAI-400021",66090909,MUMBAI,MUMBAI,MAHARASHTRA
"BANDHAN BANK LIMITED",BDBL0001628,797750002,DIMAPUR,"CITY TOWER BUILDING,NEAR CITY TOWER CIRCULAR ROAD,DIMAPUR,NAGALAND-797112",879473342,GUWAHATI,DIMAPUR,NAGALAND
"BANDHAN BANK LIMITED",BDBL0001627,795750002,IMPHAL,"HOTEL WHITE PALACE BUILDING,113,M.G AVENUE,THANGAL BAZAR,DISTRICT -IMPHAL WEST,MANIPUR,PIN-795001",66090909,IMPHAL,"IMPHAL WEST",MANIPUR
"BANDHAN BANK LIMITED",BDBL0001626,713750203,"DURGAPUR CITY CENTER","HOTEL CITI RESIDENCY,SAHID KHUDIRAM SARANI,P.O.CITY CENTRE,DURGAPUR,WEST BENGAL,PIN 713216",66090909,BURDWAN,BARDHAMAN,"WEST BENGAL"
"BANDHAN BANK LIMITED",BDBL0001625,700750025,DALHOUSIE,"6,N.S ROAD,BCCI BUILDING,KOLKATA,WEST BENGAL,PIN-700001",9830050027,KOLKATA,KOLKATA,"WEST BENGAL"
"BANDHAN BANK LIMITED",BDBL0001624,500750002,SECUNDERABAD,"LEGEND CRYSTAL,SHOP NO.3,GROUND FLOOR,PERNDERGHAST ROAD,SECUNDERABAD,TELENGANA,PIN 500003",66090909,"ANDHRA PRADESH",HYDERABAD,TELANGANA
"BANDHAN BANK LIMITED",BDBL0001623,560750004,KORAMANGALA,"MOKSHA MANSION,NO.151,SARJAPURA,NEAR JAKKASAN DRA BUS STOP,KORAMANGALA,1ST BLOCK,BANGALORE,KARNATAKA,PIN-560034",9886718867,BANGALORE,BANGALORE,KARNATAKA
"BANDHAN BANK LIMITED",BDBL0001622,673750002,KOZHIKODE,"GROUND FLOOR,METRO MAGNA,PARAYANCHERY,KUTHIRAVATTOM POST,MAVOOR ROAD,KOZHIKODE,KERALA,PIN - 673016",66090909,KOZHIKODE,KOZHIKODE,KERALA
"BANDHAN BANK LIMITED",BDBL0001621,695750002,THIRUVANANTHAPURAM,"GROUND FLOOR,ESCUBE,TC 40 / 1710-1,ATTANKULANGARA,MANACAUD,P.O - THIRUVANANTHAPURAM,KERALA,PIN - 695009",66090909,KERALA,THIRUVANANTHAPURAM,KERALA
"BANDHAN BANK LIMITED",BDBL0001620,620750002,TRICHY,"NO.M-4,THILLAINAGAR MAIN ROAD,THILLAI NAGAR,TRICHY,TAMIL NADU,PIN - 620018",66090909,TRICHY,TIRUCHIRAPPALLI,"TAMIL NADU"
"BANDHAN BANK LIMITED",BDBL0001619,440750002,NAGPUR,"PLOT NO.12,C A ROAD,NEAR L G SHOW ROOM,NAGPUR,MAHARASHTRA,PIN 440002",66090909,MUMBAI,NAGPUR,MAHARASHTRA
"BANDHAN BANK LIMITED",BDBL0001618,422750002,NASIK,"NEXUS POINT,RAMRAJYA,COLLEGE ROAD,NEAR BHONSLA MILITARY SCHOOL,NASIK,MAHARASHTRA,PIN -422005",9890290474,MUMBAI,NASHIK,MAHARASHTRA
"BANDHAN BANK LIMITED",BDBL0001617,144750002,JALANDHAR,"MULTANI TOWERS,SCO 33,COURT ROAD,PUDA COMPLEX,JALANDHAR,PUNJAB,PIN - 144 008",66090909,CHANDIGARH,JALANDHAR,PUNJAB
"BANDHAN BANK LIMITED",BDBL0001616,143750002,AMRITSAR,"BURJ PUNJAB SCO - 9,DISTRICT SHOPPING COMPLEX,RANJIT AVENUE,AMRITSAR,CIVIL LINES,PUNJUB,PIN -143 001",8288010237,CHANDIGARH,AMRITSAR,PUNJAB
"BANDHAN BANK LIMITED",BDBL0001615,400750009,KHARGHAR,"SHOP NO.7 AND 8,PLOT NO 29,RADHA KRISHNA COMPLEX,SECTOR 11,KHARGAHAR,DIST RAIGAD,MAHARASHTRA",66090909,MUMBAI,RAIGAD,MAHARASHTRA
"BANDHAN BANK LIMITED",BDBL0001614,560750002,"BANNERGHATTA MAIN ROAD","6,BANNERGHATTA MAIN ROAD,GURUPPAN PALAYA,KEB LAYOUT,BANGALORE,KARNATAKA,PIN - 560029",9743395800,BANGALORE,BANGALORE,KARNATAKA
"BANDHAN BANK LIMITED",BDBL0001613,600750004,TAMBARAM,"263 OLD NO.27,MUDICHUR ROAD,TAMBARAM WEST,CHENNAI,TAMIL NADU,PIN - 600045",8012922444,CHENNAI,KANCHIPURAM,"TAMIL NADU"
"BANDHAN BANK LIMITED",BDBL0001612,600750003,"T. NAGAR","40,SOUTH WEST BOAGH ROAD,P.O.T NAGAR,CHENNAI,TAMIL NADU,PIN - 600017",66090909,CHENNAI,CHENNAI,"TAMIL NADU"
"BANDHAN BANK LIMITED",BDBL0001611,211750002,ALLAHABAD,"2 2 COPPER ROAD,ALLAHABAD,UTTAR PRADESH,PIN 211001",66090909,MORADABAD,ALLAHABAD,"UTTAR PRADESH"
"BANDHAN BANK LIMITED",BDBL0001610,208750002,KANPUR,"SAI AVENUE,111/425 A,80 FT ROAD,ASHOK NAGAR,KANPUR,UTTAR PRADESH,PIN 208012",66090909,MORADABAD,KANPUR,"UTTAR PRADESH"
"BANDHAN BANK LIMITED",BDBL0001609,560750003,"INDIRA NAGAR","25,RAMPLAZA,CMH ROAD,P.O.INDIRANAGAR,BIRRAMANGALA,II ND STAGE,BANGALORE - 560038",8884333703,BANGALORE,BANGALORE,KARNATAKA
"BANDHAN BANK LIMITED",BDBL0001608,500750003,KUKATPALLY,"MIG 13 14,DHARMAREDDY COLONY,OPP JNTU GATE,KPHB,KUKATPALLY,HYDERABAD,PIN 500072",66090909,HYDERABAD,"RANGA REDDY",TELANGANA
"BANDHAN BANK LIMITED",BDBL0001607,682750002,EDAPPALLY,"CHAKKAPPAN CENTRE,EDAPALLY PAKKATTAPADY ROAD,P.S KALAMASSERRY KOCHI,KERALA,PIN 682024",66090909,KERALA,RAUA,KERALA
"BANDHAN BANK LIMITED",BDBL0001606,600750002,MYLAPORE,"117,DR.RADHAKRISHNAN SALAI,P.O.MYLAPORE,CHENNAI,TAMILNADU,PIN - 600004",9962027782,CHENNAI,CHENNAI,"TAMIL NADU"
"BANDHAN BANK LIMITED",BDBL0001605,700750068,SEALDAH,"TIRUSHIVAM,56/2,ACHARYA PRAFULLA CHANDRA ROAD,KOLKATA,WEST BENGAL,PIN - 700009",9883588363,KOLKATA,KOLKATA,"WEST BENGAL"
"BANDHAN BANK LIMITED",BDBL0001604,700750061,RASHBEHARI,"148,R.B AVENUE,OPPOSITE PRIYA CINEMA,KOLKATA,WEST BENGAL,PIN -700029",9830446053,KOLKATA,KOLKATA,"WEST BENGAL"
"BANDHAN BANK LIMITED",BDBL0001603,700750067,"SARAT BOSE ROAD","19C,SARAT BOSE ROAD,GROUND FLOOR,KOLKATA,WEST BENGAL,PIN - 700020",9830664476,KOLKATA,KOLKATA,"WEST BENGAL"
"BANDHAN BANK LIMITED",BDBL0001602,700750003,AMTALA,"VILL DAKSHIN KANYANAGAR,P.O.KANYANAGAR,DIST.SOUTH 24 PGS,WEST BENGAL.PIN-743398",9831307144,KOLKATA,"SOUTH 24 PARGANAS","WEST BENGAL"
"BANDHAN BANK LIMITED",BDBL0001601,110750005,NOIDA,"C-31,SECTOR - 18,NOIDA,UTTAR PRADESH,PIN - 201301",9653233690,KANPUR,GHAZIABAD,"UTTAR PRADESH"
"BANDHAN BANK LIMITED",BDBL0001600,700750066,SANTOSHPUR,"A - 158,SURVEY PARK,SANTOSHPUR,KOLKATA,WEST BENGAL,PIN - 700075",9903495917,KOLKATA,"SOUTH 24 PARGANAS","WEST BENGAL"
"BANDHAN BANK LIMITED",BDBL0001599,700750052,MUKUNDAPUR,"P-12,MUKUNDAPUR MAIN ROAD,EAST JADAVPUR,KOLKATA,WEST BENGAL,PIN - 700099",7044094464,KOLKATA,"SOUTH 24 PARGANAS","WEST BENGAL"
"BANDHAN BANK LIMITED",BDBL0001598,700750063,"SALT LAKE SECTOR III","GD -336,SECTOR -III,SALT LAKE CITY,KOLKATA,WEST BENGAL,PIN -700106",9830291418,KOLKATA,"NORTH 24 PARGANAS","WEST BENGAL"
"BANDHAN BANK LIMITED",BDBL0001597,700750062,"SALT LAKE SECTOR I","BE-89,SALT LAKE CITY,SECTOR - I,KOLKATA,WEST BENGAL PIN - 700064",9830552008,KOLKATA,"NORTH 24 PARGANAS","WEST BENGAL"
"BANDHAN BANK LIMITED",BDBL0001596,700750112,"NEW TOWN","PLOT NO BG/12,ACTION AREA-1B,NEW TOWN,RAJARHAT,NORTH 24 PARGANAS,WEST BENGAL,PIN - 700156",66090909,BARASAT,"NORTH 24 PARGANAS","WEST BENGAL"
"BANDHAN BANK LIMITED",BDBL0001595,700750023,"CHINAR PARK","ATGHARA CHINAR PARK,P.O.GOPALPUR,BAGUIATI,KOLKATA,WEST BENGAL,PIN -700136",9836754488,KOLKATA,"NORTH 24 PARGANAS","WEST BENGAL"
"BANDHAN BANK LIMITED",BDBL0001594,700750013,BELGHORIA,"QUEEN TOWER,75,FEEDER ROAD,BELGHARIA BATA MORH,OPP BANK OF BARODA BRANCH,KOLKATA,WEST BENGAL,PIN - 700056",9836671494,KOLKATA,"NORTH 24 PARGANAS","WEST BENGAL"
"BANDHAN BANK LIMITED",BDBL0001593,411750003,"BHANDARKAR ROAD","A1.1,A1.2 HEREKAR PARK,KETKAR ROAD,OFF BHANDARKAR ROAD,NEAR KAMALA NEHRU PARK,DECCAN GYMKHANA,PUNE,MAHARASHTRA,PIN -411 004",66090909,PUNE,PUNE,MAHARASHTRA
"BANDHAN BANK LIMITED",BDBL0001592,411750002,"KALYANI NAGAR","THE CEREBRUM,133 WADGAON SHERI,KALYANI NAGAR,PUNE,PUNE,MAHARASTRA,PIN 411014",66090909,PUNE,PUNE,MAHARASHTRA
"BANDHAN BANK LIMITED",BDBL0001591,110750007,"CANNAUGHT PLACE",3LSBLG9STBHMGNDLH.,66090909,DELHI,"NEW DELHI",DELHI
"BANDHAN BANK LIMITED",BDBL0001590,700750082,"SHAKESPEARE SARANI","NEW B K MARKET,16B,SHAKESPEARE SARANI,KOLKATA WEST BENGAL,PIN 700071",66090909,DHAKURIA,KOLKATA,"WEST BENGAL"
"BANDHAN BANK LIMITED",BDBL0001589,700750081,ICHAPORE,"113,GHOSHPARA ROAD,ICHAPORE,NORTH 24 PARAGANAS,WEST BENGAL,PIN 700125",66090909,BARASAT,"NORTH 24 PARGANAS","WEST BENGAL"
"BANDHAN BANK LIMITED",BDBL0001588,741750606,CHUADANGA,"VILL CHUADANGA,P.O.GOURIPUR,DIST.NADIA,WEST BENGAL,PIN 741223",66090909,KRISHNANAGAR,NADIA,"WEST BENGAL"
"BANDHAN BANK LIMITED",BDBL0001587,741750611,GOURISHAIL,"VILL-GOURISHAIL,PO-GANGSARA,DIST-NADIA,PS-GANGNAPUR,NADIA,WEST BENGAL,PIN 741233",66090909,KRISHNANAGAR,I,"WEST BENGAL"
"BANDHAN BANK LIMITED",BDBL0001586,734750605,"SHIV MANDIR","K P SINGHA MARKET COMPLEX,SHIV MANDIR BAZAR,P.O.KADAMTALA,DIST.DARJEELING,WEST BENGAL,PIN 734011",66090909,SILIGURI,DARJEELING,"WEST BENGAL"
"BANDHAN BANK LIMITED",BDBL0001585,110750021,"RAJNAGAR, GAZIABAD","GROUND FLOOR,C-3,RDC,GHAZIABAD,DIST.-GHAZIABAD,UTTAR PRADESH,PIN - 201002",66090909,GHAZIABAD,GHAZIABAD,"UTTAR PRADESH"
"BANDHAN BANK LIMITED",BDBL0001584,400750011,ANDHERI,"SHOP NO 2,GROUND FLOOR,HOLAR SAMAJ CHS,PLOT NO 11,S H O,FOUR BUNGALOWS,J P ROAD,ANDHERI W,MUMBAI,MAHARASHTRA,PIN 400053",66090909,MUMBAI,MUMBAI,MAHARASHTRA
"BANDHAN BANK LIMITED",BDBL0001583,400750008,KANDIVALI,"GROUND FLOOR,KRISHNA KUNJ,S.V.P ROAD,NEAR CHITRA TOWER,KANDIVALI WEST,MUMBAI,MAHARASHTRA,PIN 400067",66090909,MUMBAI,"MUMBAI SUBURBAN",MAHARASHTRA
"BANDHAN BANK LIMITED",BDBL0001582,226750003,LALBAGH,"G 1,SHALIMAR SQUARE,B.N.ROAD,P.O.LALBAGH,LUCKNOW,UTTAR PRADESH,PIN 226001",66090909,MORADABAD,LUCKNOW,"UTTAR PRADESH"
"BANDHAN BANK LIMITED",BDBL0001581,787750501,BORKHAMTI,"VILL KUHIAR BARI,NARAYANPUR,P.O -DIKRONG,DIST.LAKHIMPUR,PIN-784164",9485148009,GUWAHATI,LAKHIMPUR,ASSAM
"BANDHAN BANK LIMITED",BDBL0001580,700750016,"BIDHAN SARANI","159B,BIDHAN SARANI,KOLKATA,WEST BENGAL,PIN - 700006",66090909,KOLKATA,KOLKATA,"WEST BENGAL"
"BANDHAN BANK LIMITED",BDBL0001579,821750501,NARSINGARH,"VILL-KOKPARA DHALBHUMGARH,PO - DHALBHUMGARH,DIST - EAST SINGHBHUM,STATE-JHARKHAND.PIN - 832302",66090909,NARSINGARH,"EAST SINGHBHUM",JHARKHAND
"BANDHAN BANK LIMITED",BDBL0001578,754750501,SAPANPUR,"1ST FLOOR,OPP.SRI RAM NURSING HOME,AT.SAPANPUR,P.O.SISUA,DIST.CUTTACK,ODISHA,PIN 754202",66090909,CUTTACK,CUTTACK,ODISHA
"BANDHAN BANK LIMITED",BDBL0001577,800750006,"ASHIANA NAGAR","ASHIANA NAGAR MAIN ROAD,ASIANA MORE,OPP.PUSPANJALI KUNJ APPARTMENT,P.O.ASHIANA,DIST.PATNA,BIHAR,PIN 800025",66090909,PATNA,PATNA,BIHAR
"BANDHAN BANK LIMITED",BDBL0001576,741750601,CHOUGACHA,"MOUJA-CHOUGACHHA,NO.142,GOYALBADI PURBA & MADHYAPARA,DEULI,CHAKDAHA,NADIA,WEST BENGAL -741222",9635333208,KOLKATA,NADIA,"WEST BENGAL"
"BANDHAN BANK LIMITED",BDBL0001575,752750501,JANGALBARI,"NEAR MEDICAL SQUARE,JANGALBARI,PO.NAYAHAT,DIST.PURI,ODISHA,PIN -752107",66090909,CUTTACK,PURI,ODISHA
"BANDHAN BANK LIMITED",BDBL0001574,700750057,"NEW ALIPORE","19/2,SHAHAPUR COLONY,BLOCK J,NEW ALIPORE,WARD NO.-81,KOLKATA,WEST BENGAL -700053",8334892277,KOLKATA,"SOUTH 24 PARGANAS","WEST BENGAL"
"BANDHAN BANK LIMITED",BDBL0001573,313750002,EMDI,"VILL&P.OEMDI,DIST.RAJSAMAND,RAJASTHAN,PIN313342",66090909,JAIPUR,RAJSAMAND,RAJASTHAN
"BANDHAN BANK LIMITED",BDBL0001572,712750502,MOGRA,"VILL. & P.O.MOGRA,GT ROAD-AMODGHATA,DIST.HOOGHLY,WEST BENGAL,PIN - 712148",9088636595,KOLKATA,HOOGHLY,"WEST BENGAL"
"BANDHAN BANK LIMITED",BDBL0001571,262750502,SITARGANJ,"OPP AXIS BANK, KICHHA ROAD,SITARGANJ,UDHAMSINGH NAGAR,UTTARAKHAND,PIN262405",66090909,SITARGANJ,"UDHAMSING NAGAR",UTTARAKHAND
"BANDHAN BANK LIMITED",BDBL0001570,713750302,RANIGANJ,"NSB ROAD RANIGANJ,P.O.RANIGANJ,WEST BENGAL,PIN -713347",66090909,KOLKATA,BARDHAMAN,"WEST BENGAL"
"BANDHAN BANK LIMITED",BDBL0001569,700750048,"LAKE GARDENS","188/13,PRINCE ANWAR SHAH ROAD,KOLKATA,WEST BENGAL,PIN-700045",66090909,KOLKATA,KOLKATA,"WEST BENGAL"
"BANDHAN BANK LIMITED",BDBL0001568,303750003,KOTPUTLI,"MANSI MARKET,KRISHNA TAKIES ROAD,OPP.HERA MOTI CINEMA,N.H.NO.8,KOTPUTLI,RAJASTHAN,PIN -303108",8696948593,JAIPUR,JAIPUR,RAJASTHAN
"BANDHAN BANK LIMITED",BDBL0001567,341750002,"KUCHAMAN CITY","DIDWANA ROAD,NEAR P.W.D.OFFICE,P.0.KUCHAMAN CITY,NAGAUR,RAJASTHAN,PIN -341508",66090909,JAIPUR,NAGAUR,RAJASTHAN
"BANDHAN BANK LIMITED",BDBL0001566,NA,KICHHA,"RUDRAPUR ROAD,OPP.BANK OF BARODA,KICHHA,UDHAM SINGH NAGAR,UTTARAKHAND,PIN 263148",66090909,MORADABAD,"UDHAM SINGH NAGAR",UTTARAKHAND
"BANDHAN BANK LIMITED",BDBL0001565,411750004,VITHALWADI,"GROUND FLOOR,NEAR WATER TANK,DEHUGAON,TAL HAVELI,VITTALWADI ROAD,DISTRICT PUNE,MAHARASHTRA,PIN-412109",66090909,PUNE,PUNE,MAHARASHTRA
"BANDHAN BANK LIMITED",BDBL0001564,400750007,MULUND,"VIKAS PARADISE,SHOP NO.4,5,AND 6,GROUND FLOOR,LBS MARG,MULUND WEST,MUMBAI,MAHARASHTRA,PIN 400080",66090909,MUMBAI,THANE,MAHARASHTRA
"BANDHAN BANK LIMITED",BDBL0001563,400750004,THANE,"SHOP NO.2 PART,M/S WOOD PLAZA,GOLDEN DYES COMPOUND,OPP.NAVNEET MOTORS,GOKUL NAGAR,THANE W,MAHARASHTRA,PIN 400601",9867671140,MUMBAI,THANE,MAHARASHTRA
"BANDHAN BANK LIMITED",BDBL0001562,400750002,PRABHADEVI,"GROUND FLOOR,MADHUKUNJ BUILDING,S G ROAD,P O PRABHADEVI,MUMBAI,MAHARASHTRA,PIN 400025",66090909,MUMBAI,MUMBAI,MAHARASHTRA
"BANDHAN BANK LIMITED",BDBL0001561,425750001,JALGAON,"GROUND FLOOR,5 DHAKE COLONY,KHAJA MIYA ROAD,JALGAON,PS JILHA PETH,MAHARASHTRA,PIN 425001",66090909,MUMBAI,JALGAON,MAHARASHTRA
"BANDHAN BANK LIMITED",BDBL0001560,400750010,KALYAN,"SHREE KESHAV, GROUND & FIRST FLOOR, HARIHAR TIMBER COMPOUND, BAZAR PETH ROAD, OPP ACHARYA ATRE RANG MANDIR, KALYAN(W) , DIST. THANE, MAHARASHTRA, PIN 421301",66090909,MUMBAI,THANE,MAHARASHTRA
"BANDHAN BANK LIMITED",BDBL0001559,400750006,CHEMBUR,"SRINAGAR HERITAGE,SHOP NO.1,11TH ROAD,OFF CENTRAL AVENUE ROAD,CHEMBUR,MAHARASHTRA,PIN 400071",66090909,MUMBAI,MUMBAI,MAHARASHTRA
"BANDHAN BANK LIMITED",BDBL0001558,388750002,JITPURA,"JITPURA,TALUKA UMRETH,P.O.ODE,DIST.ANAND,GUJARAT,PIN-388210",9157049950,AHMEDABAD,ANAND,GUJARAT
"BANDHAN BANK LIMITED",BDBL0001557,395750001,SURAT,"SHOP NO.G-1-2-3-4-5,ANNAPURNA TEXTILE MARKET,RING ROAD,P.O.AND DIST.SURAT,GUJARAT,PIN-395003",66090909,VADODARA,SURAT,GUJARAT
"BANDHAN BANK LIMITED",BDBL0001556,388750003,VALETVA,"VILL. & P.O.VALETVA,TALUKA - NADIAD,DIST.KHEDA,GUJARAT,PIN -388440",9173364022,AHMEDABAD,ANAND,GUJARAT
"BANDHAN BANK LIMITED",BDBL0001555,380750002,DHAMSANA,"SHOP NO.105,OPP.DHAMSANA GRAM PANCHAYAT OFFICE,DIST.GANDHINAGAR,GUJARAT,PIN -382740",66090909,VADODARA,GANDHINAGAR,GUJARAT
"BANDHAN BANK LIMITED",BDBL0001554,855750504,JAMANIGURI,"SHAHAVAJ ALAM,VILL.JAMNIGURI,P.O.PIPRITHAN,DIST.KISHANGANJ,BIHAR,PIN-855116",9800750212,PATNA,KISHANGANJ,BIHAR
"BANDHAN BANK LIMITED",BDBL0001553,495750503,SHEORINARAYAN,"WARD NO-12,BHOGAPARA,PULIA ROAD,P.O.SEORINARAYAN,DIST.JANJGIR CHAMPA,CHHATTISGARH,PIN - 495557",9091682353,BHOPAL,JANJGIR-CHAMPA,CHHATTISGARH
"BANDHAN BANK LIMITED",BDBL0001552,495750502,SARKHO,"VILLSARKHON,P.O.SARKHON,DIST-JANJGIR CHAMPA,CHHATTISGARH,PIN - 495668",8103874319,BHOPAL,JANJGIR-CHAMPA,CHHATTISGARH
"BANDHAN BANK LIMITED",BDBL0001551,495750504,MALKHARODA,"VEER CHOWK,MALKHARODA,P.O -MALKHARODA,DIST.JANJGIR CHAMPA,CHHATTISGARH,PIN - 495691",8817936018,BHOPAL,JANJGIR-CHAMPA,CHHATTISGARH
"BANDHAN BANK LIMITED",BDBL0001550,491750101,RAJNANDGAON,"OPP.BAJRANG HOTEL,OLD BUS STAND,P.O.RAJNANDGAON,CHHATTISGARH,PIN 491441",66090909,RAIPUR,RAJNANDGAON,CHHATTISGARH
"BANDHAN BANK LIMITED",BDBL0001549,492750002,RAIPUR,"UPPER GROUND FLOOR,KRISHNA COMPLEX,JAIL ROAD,RAIPUR,CHHATTISGARH,PIN - 492001",8878026026,BHOPAL,RAIPUR,CHHATTISGARH
"BANDHAN BANK LIMITED",BDBL0001548,495750501,MUNGELI,"ANDURJWARD,DAUPARA,BILASPUR ROAD,MUNGELI-THANA,P.O.MUNGELI,CHHATTISGARH,PIN - 495334",7389934129,BHOPAL,MUNGELI,CHHATTISGARH
"BANDHAN BANK LIMITED",BDBL0001547,493750101,MAHASAMUND,"KHAIRABADA,BTI ROAD,MAHASAMUND,CHHATTISGARH,PIN -493445",66090909,RAIPUR,RAIPUR,CHHATTISGARH
"BANDHAN BANK LIMITED",BDBL0001546,491750201,KAWARDHA,"INFRONT OF ICICI BANK,DARRIPARA,WARD 20,P.O.KAWARDHA,CHHATTISGARH,PIN - 491995",9993545245,BHOPAL,KAWARDHA,CHHATTISGARH
"BANDHAN BANK LIMITED",BDBL0001545,495750301,KORBA,"PLOT NO.768,KOSA-BADI,ITI APPROACH ROAD,KORBA,CHHATTISHGARH,PIN -495678",66090909,RAIPUR,KORBA,CHHATTISGARH
"BANDHAN BANK LIMITED",BDBL0001544,821750102,MOHANIA,"SAHEED MARKET,STUAR GANJ,VILL. & P.O.MOHANIA,DIST.KAIMUR,PIN-821109,BIHAR",9748517518,PATNA,"KAIMUR BHABUA",BIHAR
"BANDHAN BANK LIMITED",BDBL0001543,NA,GAYA,"RAJA NIWAS,SWARAJPURI ROAD,P.O.GAYA,BIHAR,PIN-823001",66090909,PATNA,GAYA,BIHAR
"BANDHAN BANK LIMITED",BDBL0001542,821750701,"DEHRI ON SONE","BEHIND DR.R.P SINGH,NEW DILLIAN,P.O-DEHRI -ON -SONE,BIHAR,PIN -821307",66090909,PATNA,ROHTAS,BIHAR
"BANDHAN BANK LIMITED",BDBL0001541,400750020,"KHAR ROAD","GROUND FLOOR,SHOP NO 1,2 AND 7,KAILASH CO-OP HSG SOC LTD,OPP-KHAR POLICE STATION,SV ROAD,KHAR WEST,MUMBAI-400052",66090909,MUMBAI,MUMBAI,MAHARASHTRA
"BANDHAN BANK LIMITED",BDBL0001540,722750002,BANKURA,"438,PROVINCIAL ROAD,INDRAGORA,BANKURA,WEST BENGAL,PIN-722101",66090909,BANKURA,BANKURA,"WEST BENGAL"
"BANDHAN BANK LIMITED",BDBL0001539,848750202,ROSERA,"1ST FLOOR,NAYAK PLAZA,NAYAK CHOWK BEHIND SHANKAR PLAZA NORTH SIDE,ROSERA,BIHAR,PIN 848210",66090909,MUZAFFARPUR,SAMASTIPUR,BIHAR
"BANDHAN BANK LIMITED",BDBL0001538,247750002,SAHARANPUR,"3/135,DEHRADUN ROAD,P.O.SAHARANPUR,UTTAR PRADESH,PIN -247001",66090909,MURADABAD,SAHARANPUR,"UTTAR PRADESH"
"BANDHAN BANK LIMITED",BDBL0001537,262750302,KHATIMA,"OPP.CIVIL HOSPITAL,SITARGANJ ROAD,KHATIMA,DIST.U.S NAGAR,UTTARAKHAND,PIN 262308",66090909,KHATIMA,"UDHAM SINGH NAGAR",UTTARAKHAND
"BANDHAN BANK LIMITED",BDBL0001536,249750002,HARIDWAR,"N368/213,OPP.SAINIASHRAM,JWALAPURRAD,HARIDWAR,O.JWALAPUR,UTTRAKHAND,PIN-249407",66090909,KANPUR,HARIDWAR,UTTARAKHAND
"BANDHAN BANK LIMITED",BDBL0001535,263750002,HALDWANI,"AOITALLIANDOBASTI,NEASAIHOSPITAL,MUKHANICHOUAHA,HALDWANI,UTTAAKHAND,PIN263139",66090909,MORADABAD,NAINITAL,UTTARAKHAND
"BANDHAN BANK LIMITED",BDBL0001534,400750003,VASHI,"GANESH TOWER,SHOP NO 17,PLOT NO,SECTOR 1,VASHI,MUMBAI-400703",9004031864,MUMBAI,"MUMBAI SUBURBAN",MAHARASHTRA
"BANDHAN BANK LIMITED",BDBL0001533,425750101,"NIMBHORA KHURD","NIMBHORE KHURD,DEEPNAGAR,BHUSAVAL,MAHARASHTRA,PIN-425307",66090909,MUMBAI,JALGAON,MAHARASHTRA
"BANDHAN BANK LIMITED",BDBL0001532,721750102,KHARAGPUR,"HOLDING NO.253/219/181,KHASJUNGAL,JL NO.142,OPPOSITE AXIS BANK,MALANCHA ROAD,P.O.NIMPURA,KHARAGPUR,DIST.PASCHIM MEDINIPUR,WEST BENGAL,PIN -721304",9593100300,KOLKATA,"WEST MEDINIPUR","WEST BENGAL"
"BANDHAN BANK LIMITED",BDBL0001531,733750102,BALURGHAT,"SUSHMA RESIDENCY,NEAR TOWN CLUB,NELSON MANDALA SARANI,P.O.BALURGHAT,DIST.SOUTH DINAJPUR,WEST BENGAL,PIN - 730001",9733224877,KOLKATA,"SOUTH DINAJPUR","WEST BENGAL"
"BANDHAN BANK LIMITED",BDBL0001530,852750701,MIRGANJ,"VILL.-MIRGANJ,P.O.JORGAMA,DIST.MADHEPURA,BIHAR,PIN-852122",7282849640,PATNA,MADHEPURA,BIHAR
"BANDHAN BANK LIMITED",BDBL0001529,788750509,TULAGRAM,"VILL TULAGRAM P.O.SONAIMUKH,DIST.CACHAR,ASSAM,PIN -788119",9402352830,GUWAHATI,CACHAR,ASSAM
"BANDHAN BANK LIMITED",BDBL0001528,788750002,SILCHAR,"SHYAMAPRASAD ROAD,P.O.SILCHAR,DIST.CACHAR,ASSAM,PIN-788001",66090909,GUWAHATI,CACHAR,ASSAM
"BANDHAN BANK LIMITED",BDBL0001527,788750508,PANGRAM,"P.O PANGRAM III,CACHAR,ASSAM,PIN - 788030",66090909,GUWAHATI,CACHAR,ASSAM
"BANDHAN BANK LIMITED",BDBL0001526,799750504,"NORTH FULBARI","VILL NORTH FULBARI,P.O PREMTALA CHURAIBARI,DIST.NORTH TRIPURA,PIN 799262",66090909,KARIMGANJ,"NORTH TRIPURA",TRIPURA
"BANDHAN BANK LIMITED",BDBL0001525,799750303,KUMARGHAT,"KAILASHAHAR PRIMARY MARKETING CO-OPERATIVE SOCIETY LTD,KUMARGHAT UNOKOTI,1ST FLOOR,P.O -KUMARGHAT,TRIPURA,PIN - 799264",9436925920,GUWAHATI,"NORTH TRIPURA",TRIPURA
"BANDHAN BANK LIMITED",BDBL0001524,796750501,KOLASIB,"12,DIAKKAWN TOWN VILL & P.O.KOLASHIB,MIZORZM,PIN - 796081",66090909,GUWAHATI,KOLASIB,MIZORAM
"BANDHAN BANK LIMITED",BDBL0001523,788750502,KALACHARRA,"VILL KALACHARA P.O BAGARICHARA,DIST KARIMGANJ,ASSAM,PIN - 788727",9859150431,GUWAHATI,KARIMGANJ,ASSAM
"BANDHAN BANK LIMITED",BDBL0001522,799750302,KAILASHAHAR,"KAILASHAHAR THANA ROAD,P.O.KAILASHAHAR,DIST.UNAKOTI,TRIPURA,PIN - 788722",825893338,GUWAHATI,"NORTH TRIPURA",TRIPURA
"BANDHAN BANK LIMITED",BDBL0001521,304750002,TONK,"NEAR JAIN NASIA,KOTA ROAD,DIST.TONK,RAJASTHAN,PIN -304001",66090909,JAIPUR,ALWAR,RAJASTHAN
"BANDHAN BANK LIMITED",BDBL0001520,332750003,SIKAR,"STATION ROAD,NEAR FAGALVA PETROL PUMP,P.O. & DIST.SIKAR,RAJASTHAN,PIN -332001",66090909,JAIPUR,SIKAR,RAJASTHAN
"BANDHAN BANK LIMITED",BDBL0001519,332750002,ROLSAHABSAR,"VILL & P.O.ROLSAHEBSAR,FATEHPUR,DIST.SIKAR,RAJASTHAN,PIN-332304",8609126616,JAIPUR,SIKAR,RAJASTHAN
"BANDHAN BANK LIMITED",BDBL0001518,302750001,JAIPUR,"B-89 GOUTAM MARG,HANUMAN NAGAR,P.O.VAISHALI NAGAR,RAJASTHAN,PIN -302021",9001291672,JAIPUR,JAIPUR,RAJASTHAN
"BANDHAN BANK LIMITED",BDBL0001517,311750002,BHILWARA,TNSPHUILIBIJTI3.,66090909,JAIPUR,BHILWARA,RAJASTHAN
"BANDHAN BANK LIMITED",BDBL0001516,301750002,ALWAR,"YATISH CHANDRA,142,VASANT VIHAR,SCHEME NO.3,P.O. & DIST.ALWAR,KOTWALI,RAJASTHAN,PIN - 301001",8094107354,JAIPUR,ALWAR,RAJASTHAN
"BANDHAN BANK LIMITED",BDBL0001515,456750002,UJJAIN,"48,KAMALA NEHRU MARG,FREEGANJ,P.O.TOWER FREEGANG,UJJAIN,MADHYA PRADESH,PIN - 456106",66090909,BHOPAL,UJJAIN,"MADHYA PRADESH"
"BANDHAN BANK LIMITED",BDBL0001514,465750101,SHAJAPUR,"OPP LIC OFFICE,STATION ROAD,SHAJAPUR,MADHYA PRADESH,PIN - 465001",7869183686,BHOPAL,SHAJAPUR,"MADHYA PRADESH"
"BANDHAN BANK LIMITED",BDBL0001513,458750051,NEEMUCH,"PLOT NO.20/2 TRIMURTI BHAWAN,INFRONT OF THE TOWN HALL,DASHERA MAIDAN,NEEMUCH CANT,MADHYA PRADESH,PIN - 458441",9981515224,BHOPAL,NEEMUCH,"MADHYA PRADESH"
"BANDHAN BANK LIMITED",BDBL0001512,456750101,NAGDA,"123,MAHIDPUR ROAD,NEAR BUSSTAND,NAGDA,MADHYA PRADESH,PIN - 456335",9981475002,BHOPAL,UJJAIN,"MADHYA PRADESH"
"BANDHAN BANK LIMITED",BDBL0001511,700750015,BHADURA,"VILL AND PO BHADURA,DIST.SOUTH 24 PARGANAS,WEST BENGAL,PIN 743504",66090909,BARUIPUR,"SOUTH 24 PARGANAS","WEST BENGAL"
"BANDHAN BANK LIMITED",BDBL0001510,700750046,KHOLAGHATA,"VILL KHOLAGHATA,P.O KALARIA,DIST.SOUTH 24 PARGANAS,WEST BENGAL,PIN 743363",66090909,BARUIPUR,"SOUTH 24 PARGANAS","WEST BENGAL"
"BANDHAN BANK LIMITED",BDBL0001509,700750024,CHINSURAH,"VIVEKANANDA ROAD,PIPULPATI MORE,DIST.HOOGHLY,WEST BENGAL,PIN - 712103",9007056462,KOLKATA,HOOGHLY,"WEST BENGAL"
"BANDHAN BANK LIMITED",BDBL0001508,741750202,RANAGHAT,"12,S V SARANI,P.O.RANAGHAT,NADIA,WEST BENGAL,PIN 741201",66090909,KRISHNANAGAR,NADIA,"WEST BENGAL"
"BANDHAN BANK LIMITED",BDBL0001507,734750102,DARJEELING,"HOTEL ANAND PALACE BUILDING,DR.S.M DAS ROAD,P.O.DARJEELING,OPP.RINK MALL,DARJEELING,WEST BENGAL,PIN 734101",9475424383,KOLKATA,DARJEELING,"WEST BENGAL"
"BANDHAN BANK LIMITED",BDBL0001506,786750202,TINSUKIA,"OPP.RAILWAY STATION,P.O.RUPAI SIDING,CHIRAPATTY,TINSUKIA,ASSAM,PIN -786125",66090909,GUWAHATI,TINSUKIA,ASSAM
"BANDHAN BANK LIMITED",BDBL0001505,700750014,BELIAGHATA,"4A,HEMCHANDRA NASKAR ROAD,BELEGHATA,KOLKATA,WEST BENGAL,PIN-700010",9836054979,KOLKATA,KOLKATA,"WEST BENGAL"
"BANDHAN BANK LIMITED",BDBL0001504,785750509,JAGDUAR,"JOGDUAR TINI ALI,P.O.TEOK,DIST.JORHAT,ASSAM,PIN 785112",66090909,JAGDUAR,JORHAT,ASSAM
"BANDHAN BANK LIMITED",BDBL0001503,700750076,USTHI,"VILL AND P.O.-USTHI,DIST-SOUTH 24 PARGANAS,WEST BENGAL,PIN-743375",66090909,KOLKATA,"SOUTH 24 PARGANAS","WEST BENGAL"
"BANDHAN BANK LIMITED",BDBL0001502,755750202,CHAHATA,"1 ST FLOOR,TRIMURTY PHARMACEUTICALS COMPLEX,SHANTI BAZAR,VILL.CHAHATA,P.O.JARAKA,DIST.JAJPUR,ODISHA,PIN 755050",66090909,CUTTACK,JAJPUR,ODISHA
"BANDHAN BANK LIMITED",BDBL0001501,465750051,SHUJALPUR,"PLOT NO.32,WARD NO 15,SHASTRI MARG,P.O.SHUJALPUR,MADHYA PRADESH,PIN 465333",66090909,INDORE,SHAJAPUR,"MADHYA PRADESH"
"BANDHAN BANK LIMITED",BDBL0001500,451750001,KHARGONE,"SHOW ROOM NO.C/16,C-BLOCK,GROUND FLOOR,RADHA VALLABH MARKET,NEAR DHFL KHARGONE 451001",66090909,BHOPAL,KHARGONE,"MADHYA PRADESH"
"BANDHAN BANK LIMITED",BDBL0001499,458750001,MANDSAUR,"FLAT NO.- 102,SHOP NO.- 3,4,5,6,CITY CENTER,TIRUPATI,NAGAR,STATION ROAD,MANDSAUR,MADHYA PRADESH,PIN -458001",8251080008,BHOPAL,MANDSAUR,"MADHYA PRADESH"
"BANDHAN BANK LIMITED",BDBL0001498,110750004,"EAST PATEL NAGAR","PLOT NO.30,BUILDING-28,GROUND FLOOR,P.O.EAST PATEL NAGAR,NEW DELHI,PIN -110008",9873390540,"NEW DELHI","CENTRAL DELHI",DELHI
"BANDHAN BANK LIMITED",BDBL0001497,700750075,ULUBERIA,"KOHINROOR BUILDING,O.T.ROAD,BAZARPARA,ULUBERIA,DIST.HOWRAH,WEST BENGAL,PIN - 711316",9830124124,KOLKATA,HOWRAH,"WEST BENGAL"
"BANDHAN BANK LIMITED",BDBL0001496,700750073,THAKURPUKUR,"8A,DIAMOND HARBOUR ROAD,SOUTH END TRADE CENTER,1ST FLOOR,BLOCK - C,KOLKATA,WEST BENGAL,PIN 700063",66090909,DHAKURIA,KOLKATA,"WEST BENGAL"
"BANDHAN BANK LIMITED",BDBL0001495,700750012,BARRACKPORE,"43/A,S.N.BANERJEE ROAD,BARRACKPORE,KOLKATA,WEST BENGAL,PIN-700120",9836808295,KOLKATA,"NORTH 24 PARGANAS","WEST BENGAL"
"BANDHAN BANK LIMITED",BDBL0001494,700750053,NAIHATI,"79/1/1,SANJIB CHANDRA CHATTERJEE ROAD,P.O.NAIHATI,DIST.NORTH 24 PARAGANAS,WEST BENGAL,PIN 743165",66090909,KOLKATA,"NORTH 24 PARGANAS","WEST BENGAL"
"BANDHAN BANK LIMITED",BDBL0001493,799750510,"GAKUL NAGAR","B.S.D.M.TRIPURA,GAKULNAGAR NEAR RASTARMATHA,P.O.-BISHALGARH,DIST -SEPAHIJOLA,TRIPURA,PIN-799102",9862395772,GUWAHATI,SIPAHIJALA,TRIPURA
"BANDHAN BANK LIMITED",BDBL0001492,784750502,JAMUGURIHAT,"VILLTUPIA BARMATA,P.O.NAHARBARI,DIST.SONITPUR,ASSAM,PIN-784182",9613173108,GUWAHATI,SONITPUR,ASSAM
"BANDHAN BANK LIMITED",BDBL0001491,785750506,"TENGAHOLA SARUPATHAR","VILL 1 NO TENGAHOLA.P.O.GOHAINGAON,GOLAGHAT,ASSAM,PIN 785601",8256011379,GUWAHATI,GOLAGHAT,ASSAM
"BANDHAN BANK LIMITED",BDBL0001490,487750001,VIPATPURA,"VILL VIPATPURA,P.O.MAGARDHA,DIST.NARSINGHPUR,MADHYA PRADESH,PIN 487001",66090909,BHOPAL,NARSINGHPUR,"MADHYA PRADESH"
"BANDHAN BANK LIMITED",BDBL0001489,784750504,"MITHAM BANGALI","VILL MITHAM BANGALI,P.O.DHEKIAJULI,DIST.SONITPUR,ASSAM,PIN -784110",9613869272,GUWAHATI,SONITPUR,ASSAM
"BANDHAN BANK LIMITED",BDBL0001488,784750102,MANGALDAI,"MG ROAD,NEAR MANGALDOI POLICE STATION,P.O.MANGALDOI,DIST.DARANG,ASSAM,PIN -784125",66090909,GUWAHATI,DARRANG,ASSAM
"BANDHAN BANK LIMITED",BDBL0001487,787750002,"NORTH LAKHIMPUR","CD ROAD,WARD-3M,P.O.NORTH LAKHIMPUR,DIST.LAKHIMPUR,ASSAM,PIN -787001",66090909,GUWAHATI,LAKHIMPUR,ASSAM
"BANDHAN BANK LIMITED",BDBL0001486,785750505,GAMARIGURI,"VILL MIKIR POTTI,GOMARIGURI GAON,P.O.MERAPANI,DIST.GOLAGHAT,ASSAM,PIN-785705",66090909,GUWAHATI,GOLAGHAT,ASSAM
"BANDHAN BANK LIMITED",BDBL0001485,785750102,GOLAGHAT,"GF ROAD,P.O.BENGENAKHOWA,OPPOSITE HONDA SHOW ROOM,DIST.GOLAGHAT,ASSAM,PIN -785702",9954943213,GUWAHATI,GOLAGHAT,ASSAM
"BANDHAN BANK LIMITED",BDBL0001484,785750504,DERGAON,"VILL HABIALGAON,P.O.GANAKPUKHURI,DIST.GOLAGHAT,ASSAM,PIN -785622",66090909,GUWAHATI,GOLAGHAT,ASSAM
"BANDHAN BANK LIMITED",BDBL0001483,784750503,MISAMARI,"VILL MISSAMARI,P.O.HALEM,DIST.SONITPUR,ASSAM,PIN -784170",8822657606,GUWAHATI,SONITPUR,ASSAM
"BANDHAN BANK LIMITED",BDBL0001482,785750503,BOKAKHAT,"VILL & P.O.BOKAKHAT,WARD NO.2,DIST-GOLAGHAT,LANDMARK OPPOSITE CHANDRAMA CINEMA HALL,ASSAM,PIN -785612",9706094223,GUWAHATI,GOLAGHAT,ASSAM
"BANDHAN BANK LIMITED",BDBL0001481,396750031,VAPI,"FORTUNE MALL,SHOP NO.3 B,P.O.VAPI,GUJARAT,PIN - 396191",66090909,VADODARA,VALSAD,GUJARAT
"BANDHAN BANK LIMITED",BDBL0001480,390750001,VADODARA,"SHOP NO.7 AND 8,PANCHAM HIGH STREET,NEAR MANISHA CROSS ROAD,OLD PADRA ROAD,VADODARA,GUJARAT,PIN -390007",66090909,VADODARA,VADODARA,GUJARAT
"BANDHAN BANK LIMITED",BDBL0001479,384750051,UNJHA,"STATION ROAD,OPPOSITE DENA BANK,P.O.UNJHA,GUJARAT,PIN -384170",8488869428,AHMEDABAD,MEHSANA,GUJARAT
"BANDHAN BANK LIMITED",BDBL0001478,363750001,SURENDRANAGAR,"FORTUNE AVENUE,GROUND FLOOR,NR.KUNTHUNATH DERASAR,AMBA MECH ROAD,SURENDRANAGAR,GUJARAT,PIN - 363001",9016905409,AHMEDABAD,SURENDRANAGAR,GUJARAT
"BANDHAN BANK LIMITED",BDBL0001477,392750001,BHARUCH,"EMERALD BUSINESS HUB ROHINI CONSTRUCTION,OPPOSITE ICICI BANK,SHEVASHRAM ROAD,BESIDE RELIENCE MALL,BHARUCH,GUJARAT,PIN - 392001",66090909,VADODARA,BHARUCH,GUJARAT
"BANDHAN BANK LIMITED",BDBL0001476,394750051,BARDOLI,"SWASTIK SQUARE,OPP.TO DHIRAJ SONS,GANDHI ROAD,P.O.BARDOLI,DIST.SURAT,GUJARAT,PIN - 394601",66090909,VADODARA,SURAT,GUJARAT
"BANDHAN BANK LIMITED",BDBL0001475,388750001,ANAND,"SHREEJI SANKALP,100 FEET ROAD,NEAR BACHPAN SCHOOL,P.O. & DIST.ANAND,GUJARAT,PIN-388001",9824000474,AHMEDABAD,ANAND,GUJARAT
"BANDHAN BANK LIMITED",BDBL0001474,380750001,AHMEDABAD,"3RD EYE,SHOP NO.3 & 4,C.G.ROAD,NEAR CG SQUARE MALL,PANCHVATI CROSS ROAD,GUJARAT,PIN 380006",,AHMEDABAD,AHMEDABAD,GUJARAT
"BANDHAN BANK LIMITED",BDBL0001473,841750504,PARSA,"VILL JAMINPUR,P.O.PARSA,DIST.SARAN,BIHAR,PIN -841219",9534147918,PATNA,SARAN,BIHAR
"BANDHAN BANK LIMITED",BDBL0001472,841750102,GOPALGANJ,"SHYAM SUPER COMPLEX,NEAR SBI CHOWK,P.O.GOPALGANJ,DIST.GOPALGANJ,BIHAR,PIN - 841228",9934664887,PATNA,GOPALGANJ,BIHAR
"BANDHAN BANK LIMITED",BDBL0001471,841750502,BAHRAULI,"VILL & P.O.BAHRAULI,MASRAKH,DIST.-SARAN,BIHAR,PIN -841417",8863831828,PATNA,SARAN,BIHAR
"BANDHAN BANK LIMITED",BDBL0001470,841750701,ANDAR,"VILL & P.O.ANDAR,DIST.-SIWAN,BIHAR,PIN-841231",8409890451,PATNA,SIWAN,BIHAR
"BANDHAN BANK LIMITED",BDBL0001469,734750603,KURSEONG,"8,A.K MUKHERJEE ROAD,WARD NO.13,P.O.KURSEONG,DIST.DARJEELING,WEST BENGAL,PIN - 734203",9932971727,KOLKATA,DARJEELING,"WEST BENGAL"
"BANDHAN BANK LIMITED",BDBL0001468,734750202,KALIMPONG,"THANA DEARA DAIRY,SHARMA BUILDING,P.O.KALIMPONG,DIST.DARJEELING,WEST BENGAL,PIN -734301",9831619139,KOLKATA,DARJEELING,"WEST BENGAL"
"BANDHAN BANK LIMITED",BDBL0001467,737750002,GANGTOK,"HUNGRY JACK PLAZA,FIRST FLOOR,NH -31-A,GANGTOK,P.O.GANGTOK,DIST.EAST SIKKIM,SIKKIM,PIN - 737101",9832518169,GANGTOK,"EAST SIKKIM",SIKKIM
"BANDHAN BANK LIMITED",BDBL0001466,734750501,BAGDOGRA,"LOWER BAGDOGRA,MAIN ROAD NH-31,P.O.BAGDOGRA,DIST.DARJEELING,WEST BENGAL,PIN - 734422",9800900926,KOLKATA,DARJEELING,"WEST BENGAL"
"BANDHAN BANK LIMITED",BDBL0001465,731750302,SURI,"RABINDRA PALLY,SURI DUBRAJPUR MAIN ROAD,P.O.SURI,DIST.BIRBHUM,WEST BENGAL,PIN -731101",9830607661,KOLKATA,BIRBHUM,"WEST BENGAL"
"BANDHAN BANK LIMITED",BDBL0001464,NA,SUNDIPUR,"VILL SUNDIPUR AND RAMRAMPUR SUNDIPUR MORE,P.O.RAMPURHAT,DIST.BIRBHUM,WEST BENGAL,PIN-731224",66090909,KOLKATA,BIRBHUM,"WEST BENGAL"
"BANDHAN BANK LIMITED",BDBL0001463,731750805,SEORAKURI,"VILL & P.O.SEHERAKURI,DIST.BIRBHUM,WEST BENGAL,PIN -731127",7797631571,KOLKATA,BIRBHUM,"WEST BENGAL"
"BANDHAN BANK LIMITED",BDBL0001462,731750601,PAIKPARA,"VILL & P.O.PAIKPARA,DIST.BIRBHUM,WEST BENGAL,PIN-731220",9851927161,KOLKATA,BIRBHUM,"WEST BENGAL"
"BANDHAN BANK LIMITED",BDBL0001461,713750607,NUTANHAT,"NATUNHAT BLOCK MORE,P.O.NATUNHAT,DIST.BURDWAN,WEST BENGAL,PIN -713147",9584755032,KOLKATA,BARDHAMAN,"WEST BENGAL"
"BANDHAN BANK LIMITED",BDBL0001460,713750604,DALURBANDH,"DALURBANDH,DVC PARA,P.O.PANDAVESHWAR,DIST.BURDWAN,WEST BENGAL,PIN -713346",9635742850,KOLKATA,BARDHAMAN,"WEST BENGAL"
"BANDHAN BANK LIMITED",BDBL0001459,733750611,"TIN MILE","TINMILE ROAD,P.O.SONAPUR HAT,DIST.NORTH DINAJPUR,WEST BENGAL,PIN - 733214",9614780293,KOLKATA,"NORTH DINAJPUR","WEST BENGAL"
"BANDHAN BANK LIMITED",BDBL0001458,733750608,RASIDPUR,"VILL.RASIDPUR,P.O.BUNIADPUR,SOUTH DINAJPUR,WEST BENGAL,PIN -733121",9932577455,KOLKATA,"SOUTH DINAJPUR","WEST BENGAL"
"BANDHAN BANK LIMITED",BDBL0001457,855750002,KISHANGANJ,"VILL.TEOSA BALICHUKA,P.O.KISHANGANJ,DIST.KISHANGANJ,BIHAR,PIN - 855107",9431411373,PATNA,KISHANGANJ,BIHAR
"BANDHAN BANK LIMITED",BDBL0001456,733750302,KALIYAGANJ,"N.S.ROAD UTTARCHIRAIL,P.O.KALIYAGANJ,NORTH DINAJPUR,WEST BENGAL,PIN -733129",9733826111,KOLKATA,"NORTH DINAJPUR","WEST BENGAL"
"BANDHAN BANK LIMITED",BDBL0001455,733750402,ISLAMPUR,"N.S.TOWER,N.S.ROAD,ISLAMPUR,NORTH DINAJPUR,WEST BENGAL,PIN-733202",9832341272,KOLKATA,"NORTH DINAJPUR","WEST BENGAL"
"BANDHAN BANK LIMITED",BDBL0001454,733750602,DALKHOLA,"PLOT NO.756& 757,OPP NATIONAL INSURANCE OF INDIA,P.O.DALKHOLA,DIST.UTTAR DINAJPUR,WEST BENGAL,PIN-733201",8350020790,KOLKATA,"NORTH DINAJPUR","WEST BENGAL"
"BANDHAN BANK LIMITED",BDBL0001453,757750102,RAIRANGPUR,"P.O-RAIRANGPUR,DIST.-MAYURBHANJ ODISHA,PIN-757043",66090909,BHUBANESWAR,MAYURBHANJ,ODISHA
"BANDHAN BANK LIMITED",BDBL0001452,826750501,EGARKUNDA,"VILL EGARKUNDA,P.O.KUMARDHUBI,DIST.DHANBAD,JHARKHAND,PIN - 828203",8434400633,PATNA,DHANBAD,JHARKHAND
"BANDHAN BANK LIMITED",BDBL0001451,494750101,KANKER,"N.H.30,UP DOWN ROAD,MAHURBAND PARA,P.O.KANKER,CHHATTISGARH,PIN - 494334",9826148051,BHOPAL,KANKER,CHHATTISGARH
"BANDHAN BANK LIMITED",BDBL0001450,491750001,DURG,"OPP.MENNONITE CHURCH,NEAR DURG ROADWAYS,G.E.ROAD,DURG,CHHATTISGARH,PIN - 491001",8120387755,BHOPAL,RAIPUR,CHHATTISGARH
"BANDHAN BANK LIMITED",BDBL0001449,491750502,DONGARGARH,"WARD NO.10,KHANDUAPARA,STATION ROAD,DONGARGARH,CHHATTISGARH,PIN - 491445",8334005144,BHOPAL,RAJNANDGAON,CHHATTISGARH
"BANDHAN BANK LIMITED",BDBL0001448,493750001,DHAMTARI,"BESIDES VIVEKANAND NETRALAYA,OPP NEHRU GARDEN,RATNA BANDHA ROAD,DHAMTARI,CHHATTISGARH,PIN - 493773",9423402029,BHOPAL,DHAMTARI,CHHATTISGARH
"BANDHAN BANK LIMITED",BDBL0001447,495750002,BILASPUR,"RAO TRADE CENTRE,NEAR VALRAJ PETROL PUMP,LINK ROAD,CIVIL LINES,BILASPUR,CHHATTISGARH,PIN 495001",66090909,RAIPUR,BILASPUR,CHHATTISGARH
"BANDHAN BANK LIMITED",BDBL0001446,493750201,BHATAPARA,"MAIN ROAD,MAHARANI CHOWK,BHATAPARA,DIST.BALODA BAZAR,CHHATTISGARH,PIN - 493118",8109446339,RAIPUR,RAIPUR,CHHATTISGARH
"BANDHAN BANK LIMITED",BDBL0001445,491750301,BEMETARA,"WARD NO 07,MAIN DURG ROAD,INFRONT OF RATAN TALKIES,P.O.BEMETARA,CHHATTISGARH,PIN - 491335",7583002000,BHOPAL,BEMETARA,CHHATTISGARH
"BANDHAN BANK LIMITED",BDBL0001444,491750501,BALOD,"GANJ PARA,OPP DURGA MANDIR,DURG-BALOD ROAD,BALOD,CHHATTISGARH,PIN - 491226",8982625535,BHOPAL,BALOD,CHHATTISGARH
"BANDHAN BANK LIMITED",BDBL0001443,811750302,SHEIKHPURA,"CHANDNICHAWK,VILL & P.O-SHEIKHPURA,DIST.SHEIKHPURA,BIHAR,PIN-811105",9122764014,PATNA,SHEIKHPURA,BIHAR
"BANDHAN BANK LIMITED",BDBL0001442,800750002,"BORING ROAD, PATNA","BORING ROAD,NEAR KRISHNA APARTMENT,SHREE KRISHNAPURI THANA,PATNA,BIHAR,PIN - 800001",9934828840,PATNA,PATNA,BIHAR
"BANDHAN BANK LIMITED",BDBL0001441,804750002,JEHANABAD,"PATNA GAYA ROAD,P.O.JEHANABAD,DIST.JEHANABAD,BIHAR,PIN-804408",8877528119,PATNA,JEHANABAD,BIHAR
"BANDHAN BANK LIMITED",BDBL0001440,800750502,DARIYAPUR,"RAMTOLAPUR,VILL DARIYAPUR,P.O-HATIDAH,DIST.-PATNA,BIHAR,PIN-83301",8768370267,PATNA,BHOJPUR,BIHAR
"BANDHAN BANK LIMITED",BDBL0001439,802750102,ARRAH,"JAI PRAKASH CHAUDHARI COMPLEX,BYPASS MOD,NEAR SAPNA CINEMA HALL,ARA,FIRST FLOOR,BIHAR,PIN -802301",8409345117,PATNA,BHOJPUR,BIHAR
"BANDHAN BANK LIMITED",BDBL0001438,782750506,TATIKATA,"VILL TATIKATA PATHAR,P.O MOIRABARI,ASSAM,DIST.MORIGAON,PIN-782126",9508844206,GUWAHATI,MORIGAON,ASSAM
"BANDHAN BANK LIMITED",BDBL0001437,782750502,"PUB DHANIRAM PATHER","VILL PUB DHANIRAMPATHAR,P.O.HOJAI,DIST.NAGAON,ASSAM,PIN -782435",7399753480,GUWAHATI,NAGAON,ASSAM
"BANDHAN BANK LIMITED",BDBL0001436,782750505,"NATUN GAON","VILL NATUNGAON HOSPITAL ROAD,P.O.JAGI ROAD,DIST.MARIGAON,ASSAM,PIN -782410",9864719945,GUWAHATI,MORIGAON,ASSAM
"BANDHAN BANK LIMITED",BDBL0001435,782750102,NAGAON,"A.T.ROAD,MARWARIPATTY,NAGAON,ASSAM,PIN -782001",8486215925,GUWAHATI,NAGAON,ASSAM
"BANDHAN BANK LIMITED",BDBL0001434,782750501,AMONI,"VILL & P.O.AMONI,DIST.NAGAON,ASSAM,PIN-782138",66090909,GUWAHATI,NAGAON,ASSAM
"BANDHAN BANK LIMITED",BDBL0001433,845750002,MOTIHARI,"1ST FLOOR,ABHIMANYU COMPLEX,PUNCH MANDIR ROAD,PITHAN PATTI,MOTIHARI,EAST CHAMPARAN,BIHAR,PIN-845401",66090909,PATNA,"EAST CHAMPARAN",BIHAR
"BANDHAN BANK LIMITED",BDBL0001432,845750601,"DHUM NAGAR","VILL.-DHUM NAGAR,DHUM NAGAR CHOWK,P.O.NARKATIAGANJ,DIST.WEST CHAMPARAN,BIHAR,PIN - 835455",8809363395,PATNA,"WEST CHAMPARAN",BIHAR
"BANDHAN BANK LIMITED",BDBL0001431,848750102,DALSINGSARAI,"NEAR 32 RAIL GATE,BLOCK ROAD DALSINGSARAI,P.O.DALSINGSARAI,DIST.- SAMASTIPUR,BIHAR,PIN -848114",7677692360,PATNA,SAMASTIPUR,BIHAR
"BANDHAN BANK LIMITED",BDBL0001430,844750501,BHAGWANPUR,"VILL.RUSULPUR SOHAWAN,P.O.BHAGWANPUR,DIST.VAISHALI,BIHAR,PIN - 844114",9832395524,PATNA,VAISHALI,BIHAR
"BANDHAN BANK LIMITED",BDBL0001429,845750501,ARERAJ,"ARERAJ CHAWK,MAIN CHAWK,P.O.ARERAJ,EAST CHAMPARAN,PIN-845411,BIHAR",66090909,PATNA,"EAST CHAMPARAN",BIHAR
"BANDHAN BANK LIMITED",BDBL0001428,244750102,RAMPUR,"M J COMPLEX,NEAR SHAGBAD GATE,RAMPUR,P.O.RAMPUR,UTTAR PRADESH,PIN 244901",66090909,MORADABAD,RAMPUR,"UTTAR PRADESH"
"BANDHAN BANK LIMITED",BDBL0001427,244750002,MORADABAD,"NEAR JAIPUR GOLDEN TRANSPORT COMPANY,KAPOOR COMPANY CHAURAHA,MORADABAD,UTTAR PRADESH,PIN 244001",66090909,MORADABAD,MORADABAD,"UTTAR PRADESH"
"BANDHAN BANK LIMITED",BDBL0001426,246750602,DHAMPUR,"312,WARD NO - 2,TEACHER S COLONY,OPP.BHARAT MOTORS,KALAGARH ROAD,N.H - 74,P.O.DHAMPUR,DIST - BIJNOR,UTTAR PRADESH - 246761",7870642308,KANPUR,BIJNOR,"UTTAR PRADESH"
"BANDHAN BANK LIMITED",BDBL0001425,247750051,CHHUTMALPUR,"SONA COMPLEX,CHHUTMALPUR SAHARANPUR,UTTAR PRADESH,PIN - 247662",66090909,KANPUR,SAHARANPUR,"UTTAR PRADESH"
"BANDHAN BANK LIMITED",BDBL0001424,243750002,DELAPEER,"WAZID CHAND HOUSE,1 KAILASHPURAM,DELAPEER CHAURAHA,BAREILLY,UTTAR PRADESH,PIN -243122",66090909,MORADABAD,BAREILLY,"UTTAR PRADESH"
"BANDHAN BANK LIMITED",BDBL0001423,424750202,"TAKALI PRACHA","KHARJAI ROAD,AT TAKALI PRACHA,SURAHI BUNGALOW,P.O.OZAR,TAL - CHALISHGAON,DIST.JALGAON,MAHARASHTRA,PIN - 424101",9096695165,MUMBAI,JALGAON,MAHARASHTRA
"BANDHAN BANK LIMITED",BDBL0001422,485750001,SATNA,"OM TOWER,KRISHNA NAGAR,STATION ROAD WARD NO.22,NEAR SINDHI DHARAM SHALA,SATNA,MADHYA PRADESH,PIN - 485001",66090909,BHOPAL,SATNA,"MADHYA PRADESH"
"BANDHAN BANK LIMITED",BDBL0001421,487750501,KAMTI,"224 KAMTI GRAM P.O.AAMGAON CHHOTA GADARWADA,DIST.NARSINGHPUR,MADHYA PRADESH,PIN 487551",66090909,BHOPAL,NARSINGHPUR,"MADHYA PRADESH"
"BANDHAN BANK LIMITED",BDBL0001420,425750252,"BOXIPUR RAVER","GROUND FLOOR,NAMDEVNAGAR,BOXIPUR,P.O - RASALPUR,MAHARASHTRA,PIN -425508",9733216083,MUMBAI,JALGAON,MAHARASHTRA
"BANDHAN BANK LIMITED",BDBL0001419,425750152,AMALNER,"PLOT NO.52/12,MAHARANA PRATAP MARG,NEAR PNB,AMALNER,DIST.JALGAON,MAHARASHTRA,PIN-425401",7710065545,MUMBAI,JALGAON,MAHARASHTRA
"BANDHAN BANK LIMITED",BDBL0001418,721750202,TAMLUK,"VILL.DAHARPUR,P.O.TAMLUK,WARD NO.16 OLD-13,DIST.PURBA MEDINIPUR,WEST BENGAL,PIN - 721636",66090909,KOLKATA,"EAST MEDINIPUR","WEST BENGAL"
"BANDHAN BANK LIMITED",BDBL0001417,723750002,PURULIA,"1ST FLOOR,NH-32,RAJ COMPLEX,RANCHI ROAD,NEAR MAYUR HOTEL,P.O. & DIST.PURULIA,WEST BENGAL,PIN-723101",9564600601,KOLKATA,PURULIA,"WEST BENGAL"
"BANDHAN BANK LIMITED",BDBL0001416,723750502,"PATHAR MOHORA","VILL.PATHARMOHARA,P.O.MANBAZAR,DIST.PURULIA,WEST BENGAL,PIN -723131",7699336189,KOLKATA,PURULIA,"WEST BENGAL"
"BANDHAN BANK LIMITED",BDBL0001415,721750151,PAIKPARI,"VILL & P.O.PAIKPARI,WEST BENGAL,DIST.PURBA MEDINIPUR,PIN -721134",9564624534,KOLKATA,"EAST MEDINIPUR","WEST BENGAL"
"BANDHAN BANK LIMITED",BDBL0001414,721750806,MOHAMMADPUR,"BELDA,NEAR POLICE STATION,MOUZA - MOHAMMADPUR,P.O.- BELDA,DIST - PASCHIM MEDNIPUR,WEST BENGAL,PIN - 721424",8017963545,KOLKATA,"WEST MEDINIPUR","WEST BENGAL"
"BANDHAN BANK LIMITED",BDBL0001413,721750805,MAMUDPUR,"VILL.MAMUDPUR,P.O.DASPUR,DIST.PASCHIM MEDINIPUR,WEST BENGAL,PIN - 721211",9830308232,KOLKATA,"WEST MEDINIPUR","WEST BENGAL"
"BANDHAN BANK LIMITED",BDBL0001412,723750501,LALPUR,"VILL. & P.O.MANGURIA LALPUR,HURA,DIST.PURULIA,PIN - 723101",9734465595,KOLKATA,PURULIA,"WEST BENGAL"
"BANDHAN BANK LIMITED",BDBL0001411,721750402,KANTHI,"VILL DHANDIGHI,DIGHA ROAD,P.O.CONTAI,DIST.PURBA MEDINIPUR,WEST BENGAL,PIN -721401",9830035393,KOLKATA,"EAST MEDINIPUR","WEST BENGAL"
"BANDHAN BANK LIMITED",BDBL0001410,721750702,"MATH CHANDIPUR","VILL CHANDIPUR,P.O.MATH CHANDIPUR,DIST.PURBA MEDINIPUR,WEST BENGAL,PIN-721659",7797574275,KOLKATA,"EAST MEDINIPUR","WEST BENGAL"
"BANDHAN BANK LIMITED",BDBL0001409,721750002,HALDIA,"VILL & P.O.KHANJANCHAK,HALDIA,DIST.PURBA MEDINIPUR,WEST BENGAL,PIN -721602",9830080770,KOLKATA,"EAST MEDINIPUR","WEST BENGAL"
"BANDHAN BANK LIMITED",BDBL0001408,721750901,CHAPABONI,"VILL CHAPABANI,P.O.NEW DIGHA,WEST BENGAL,PIN-721428",9679286763,KOLKATA,"EAST MEDINIPUR","WEST BENGAL"
"BANDHAN BANK LIMITED",BDBL0001407,722750202,BISHNUPUR,"RN CHAKRABORTY ROAD,BALIAPARA,P.O.BISHNUPUR,WEST BENGAL,PIN - 722122",9830453037,KOLKATA,BANKURA,"WEST BENGAL"
"BANDHAN BANK LIMITED",BDBL0001406,700750005,"BAGHA JATIN","B/7,BAGHA JATIN,RAJA SUBODH CHANDRA MULLICK ROAD,KOLKATA,WEST BENGAL,PIN - 700092",66090909,KOLKATA,KOLKATA,"WEST BENGAL"
"BANDHAN BANK LIMITED",BDBL0001405,732750507,MALIOR,"VILL & PO.MALIOR,DIST -MALDA,WEST BENGAL,PIN - 732125",9563721320,KOLKATA,MALDA,"WEST BENGAL"
"BANDHAN BANK LIMITED",BDBL0001404,732750501,BARAGACHHIA,"VILL BAROGACHHIYA,P.O.CHANCHAL,DIST.MALDA,WEST BENGAL,PIN - 732123",9614593701,KOLKATA,MALDA,"WEST BENGAL"
"BANDHAN BANK LIMITED",BDBL0001403,732750505,KALIACHAK,"OPP.KALIACHAK P.S,VILL & P.O.- KALIACHAK,WEST BENGAL,PIN - 732201",9647831900,KOLKATA,MALDA,"WEST BENGAL"
"BANDHAN BANK LIMITED",BDBL0001402,732750503,"DURGAPUR ,MALDA","VILL DURGAPUR,P.O.BALUPUR,DIST.MALDA,WEST BENGAL,PIN -732205",66090909,KOLKATA,MALDA,"WEST BENGAL"
"BANDHAN BANK LIMITED",BDBL0001401,741750102,KRISHNANAGAR,"15,D L ROY ROAD,P.O.KRISHNANAGAR,DIST.NADIA,WEST BENGAL,PIN -741101",9051751999,KOLKATA,NADIA,"WEST BENGAL"
"BANDHAN BANK LIMITED",BDBL0001400,741750602,GORIBPUR,"VILL & MOUZA-GORIBPUR,P.O.NATNA,DIST.NADIA,WEST BENGAL,PIN-741160",9732347287,KOLKATA,NADIA,"WEST BENGAL"
"BANDHAN BANK LIMITED",BDBL0001399,741750501,DEBAGRAM,"VILL & P.O.DEBOGRAM,DIST.NADIA,WEST BENGAL,PIN-741137",9175376729,KOLKATA,NADIA,"WEST BENGAL"
"BANDHAN BANK LIMITED",BDBL0001398,854750202,KATIHAR,"DURGASTHAN CHOWK,P.O.KATIHAR,DIST.KATIHAR,BIHAR,PIN-854105",9931031441,PATNA,KATIHAR,BIHAR
"BANDHAN BANK LIMITED",BDBL0001397,855750502,KATHAMATHA,"VILL KATHAMATHA,P.O.DHANPATGANJ,DIST.KISHANGANJ,BIHAR,PIN - 855115",7781843854,PATNA,KISHANGANJ,BIHAR
"BANDHAN BANK LIMITED",BDBL0001396,854750701,KADWA,"VILL. & P.O.KADWA,DIST.KATIHAR,BIHAR,PIN - 855114",7766042296,PATNA,KATIHAR,BIHAR
"BANDHAN BANK LIMITED",BDBL0001395,854750302,FORBESGANJ,"WARD NO.-09,IN FRONT OF POLICE STATION,P.O.FORBESGANJ,DIST.ARARIA,BIHAR,PIN - 854318",7699726808,PATNA,ARARIA,BIHAR
"BANDHAN BANK LIMITED",BDBL0001394,854750501,CHAHATPUR,"VILLCHAHATPUR,P.O.PALASI,DIST.ARARIA,BIHAR,PIN-854333",7261017385,PATNA,ARARIA,BIHAR
"BANDHAN BANK LIMITED",BDBL0001393,852750601,BASANTAPUR,"VILL & P.O.BASANTPUR,DIST.SUPAUL,BIHAR,PIN-854340",8084693777,PATNA,SUPAUL,BIHAR
"BANDHAN BANK LIMITED",BDBL0001392,788750507,NANDIRGRAM,"VILL NAGDIRGRAM P.O.KABUGANJ,DIST.CACHAR,ASSAM PIN - 788121",9436334594,GUWAHATI,CACHAR,ASSAM
"BANDHAN BANK LIMITED",BDBL0001391,788750506,LAKHIPUR,"VILL LAKHIPUR P.O.KALAIN,DIST.CACHAR,ASSAM,PIN -788815",9854237185,GUWAHATI,CACHAR,ASSAM
"BANDHAN BANK LIMITED",BDBL0001390,788750102,KARIMGANJ,"ATASI VILLA,SILCHAR ROAD,NEAR A.S.T.C.BUS STAND,ASSAM,PIN - 788710",9435723656,GUWAHATI,KARIMGANJ,ASSAM
"BANDHAN BANK LIMITED",BDBL0001389,788750503,KALINAGAR,"VILL -KALINAGAR,NEAR OLD S.R OFFICE,P.O -RAMKRISHNA NAGAR,ASSAM,PIN - 788166",9854237185,GUWAHATI,KARIMGANJ,ASSAM
"BANDHAN BANK LIMITED",BDBL0001388,788750501,BUNDASHIL,"VILL -BUNDASHIL,P.O.BADARPUR,DIST.KARIMGANJ,ASSAM,PIN - 788806",66090909,GUWAHATI,KARIMGANJ,ASSAM
"BANDHAN BANK LIMITED",BDBL0001387,785750002,JORHAT,"K.B ROAD,P.O.JORHAT,ASSAM,PIN -785002",9706008595,GUWAHATI,JORHAT,ASSAM
"BANDHAN BANK LIMITED",BDBL0001386,141750002,LUDHIANA,"HOUSE NO B II/ 1371,ARYA SCHOOL ROAD,SABJEE MANDI,LUDHINA,PUNJAB,PIN - 141008",9660952482,CHANDIGARH,LUDHIANA,PUNJAB
"BANDHAN BANK LIMITED",BDBL0001385,786750501,GOLAI,"GROUND FLOOR,1 NO.GOLAI,P.O.DIGBOI,DIGBOI,ASSAM -786171",9508556918,GUWAHATI,TINSUKIA,ASSAM
"BANDHAN BANK LIMITED",BDBL0001384,786750002,DIBRUGARH,WGLMROPPSPBPODBUGASSMP-786001,66090909,GUWAHATI,DIBRUGARH,ASSAM
"BANDHAN BANK LIMITED",BDBL0001383,785750507,BOREARA,"AT BORERA GAON,P.O.TITABOR,DIST.JORHAT,ASSAM,PIN -785630",9401155816,GUWAHATI,JORHAT,ASSAM
"BANDHAN BANK LIMITED",BDBL0001382,785750501,KHUMTAI,"1 NO.KHUMTAI VILLAGE,P.O.MORANHAT,DIST.SHIVSAGAR,CHANDAN COMPLEX,1ST FLOOR,ASSAM,PIN - 789670",7399193123,GUWAHATI,DIBRUGARH,ASSAM
"BANDHAN BANK LIMITED",BDBL0001381,313750003,UDAIPUR,"HIRANMAGRI,SEC NO.3 MAIN ROAD,29/452,RAJASTHAN,UDAIPUR,PIN -313002",9982217611,JAIPUR,UDAIPUR,RAJASTHAN
"BANDHAN BANK LIMITED",BDBL0001380,341750003,NAGAUR,"UDIT MANSION,NEAR KETH SINGH MOTOR COMPANY,SHIVBARI,P.O.NAGAUR,RAJASTHAN,PIN-341001",9887550321,JAIPUR,JAIPUR,RAJASTHAN
"BANDHAN BANK LIMITED",BDBL0001379,324750002,KOTA,"AMAN BUSINESS TOWER,2 KA 33,VIGYAN NAGAR,JHALWAR ROAD,KOTA,RAJASTHAN,PIN - 324007",9314856057,JAIPUR,KOTA,RAJASTHAN
"BANDHAN BANK LIMITED",BDBL0001378,342750002,JODHPUR,"K.P.TOWER,PLOT NO.17,UPPER CHAPASNI ROAD,NEAR BOMBAY MOTOR,JODHPUR,RAJASTHAN,PIN 342024",66090909,JAIPUR,JODHPUR,RAJASTHAN
"BANDHAN BANK LIMITED",BDBL0001377,303750002,DAUSA,"NEAR TIWADI DHAM KANTO OPP.CHOUDHURY PETROL PUMP,AGRA ROAD,P.O. & DIST.DAUSA,PIN - 33303",66090909,JAIPUR,DAUSA,RAJASTHAN
"BANDHAN BANK LIMITED",BDBL0001376,334750002,BIKANER,"RATTAN PADAM ARCADE,OPP.HARYANA HOTEL,GANGA SAIHAR ROAD,P.O. & DIST.BIKANER,RAJASTHAN - 334001",9983326828,JAIPUR,BIKANER,RAJASTHAN
"BANDHAN BANK LIMITED",BDBL0001375,325750002,BARAN,"OPP.DALLA JI KI DHARAMSALA,HOSPITAL ROAD,P.O.BARAN,RAJASTHAN,PIN - 325205",9983340605,JAIPUR,BARAN,RAJASTHAN
"BANDHAN BANK LIMITED",BDBL0001374,305750002,AJMER,"DEEPAK ELECTRICAL & SALES AGENCY,NEAR LIC OF INDIA,KUTCHERY ROAD,P.O.AJMER,MADHYA PRADESH,PIN -305001",9719731900,JAIPUR,AJMER,RAJASTHAN
"BANDHAN BANK LIMITED",BDBL0001373,473750051,SHIVPURI,"RAJESHWARI ROAD,P.O.SHIVPURI,MADHYA PRADESH,PIN - 473551",9536620500,BHOPAL,SHIVPURI,"MADHYA PRADESH"
"BANDHAN BANK LIMITED",BDBL0001372,473750001,GUNA,"ROYAL MEIGHTS BUILDING,OPPOSITE HDFC BANK,AB ROAD,GUNA,MADHYA PRADESH,PIN -473001",66090909,BHOPAL,GUNA,"MADHYA PRADESH"
"BANDHAN BANK LIMITED",BDBL0001371,457750501,BIMAKHEDI,"PATIDAR SADAN,NEAR TO BIMAKHEDI RAILWAY CROSSING,JAORA RATLAM,MADHYA PRADESH,PIN-457226",8436227650,BHOPAL,RATLAM,"MADHYA PRADESH"
"BANDHAN BANK LIMITED",BDBL0001370,465750001,BIAORA,"176,OLD BUNDIKHALI ROAD,GUNA NAKA,JUNA BIAORA,MADHYA PRADESH,PIN - 465674",9111229088,BHOPAL,RAJGARH,"MADHYA PRADESH"
"BANDHAN BANK LIMITED",BDBL0001369,458750501,BHANPURA,"BAPNA MARG BHANPURA P.O.BHANPURA,MADHYA PRADESH,PIN - 458775",7042976856,BHOPAL,MANDSAUR,"MADHYA PRADESH"
"BANDHAN BANK LIMITED",BDBL0001368,454750501,AMODIYA,"162 SEERVIMOHALLA,VILL.AMODIYA,P.O.RAJGARH,DIST.DHAR,MADHYA PRADESH,PIN -454116",66090909,INDORE,JHABUA,"MADHYA PRADESH"
"BANDHAN BANK LIMITED",BDBL0001367,700750029,"DOBSON ROAD","AMBIKA POINT,1ST FLOOR,27 MOULANA ABUL KALAM AZAD ROAD DOBSON ROAD,GOLABARI,WEST BENGAL,HOWRAH -711101",9830235352,KOLKATA,HOWRAH,"WEST BENGAL"
"BANDHAN BANK LIMITED",BDBL0001366,450750101,KHANDWA,"B T COLLEGE ROAD,MOGHAT THANA,NEAR BANK OF INDIA,KHANDWA,MADHYA PRADESH,PIN -450001",66090909,BHOPAL,KHANDWA,"MADHYA PRADESH"
"BANDHAN BANK LIMITED",BDBL0001365,461750001,HOSHANGABAD,RTUDCMLXO-MPRTCBUSSTDHSHGBDMDHYPRDSHPI-461001,9039394662,BHOPAL,HOSHANGABAD,"MADHYA PRADESH"
"BANDHAN BANK LIMITED",BDBL0001364,461750101,HARDA,"SARDAR BALLAV BHAI PATEL WARD,INDORE ROAD,INFONT OF NETAJI SUBHASH CHANDRA BOSE PRIMARY SCHOOL,HARDA,MADHYA PRADESH,PIN 461331",7566204476,BHOPAL,HARDA,"MADHYA PRADESH"
"BANDHAN BANK LIMITED",BDBL0001363,470750101,BINA,"NEAR MAHAVEER CHOWK MALL GODAM ROAD,BINA,MADHYA PRADESH,PIN - 470113",9993723287,BHOPAL,SAGAR,"MADHYA PRADESH"
"BANDHAN BANK LIMITED",BDBL0001362,462750002,BHOPAL,"C-9,PADAMNABH NAGAR,ASHOKA GARDEN ROAD,OPP ROYAL ENFIELD SHOWROOM P.O.GOVINDPURA BHOPAL,MADHYA PRADESH,PIN -462023",7587727064,BHOPAL,BHOPAL,"MADHYA PRADESH"
"BANDHAN BANK LIMITED",BDBL0001361,460750001,BETUL,"GANESH WARD J H COLLEGE ROAD OPP.AXIS BANK POST BETUL P.O.BETUL,M.P,PIN - 460001",9584255558,BHOPAL,BETUL,"MADHYA PRADESH"
"BANDHAN BANK LIMITED",BDBL0001360,712750501,MAHESHPUR,"VILL. & P.O.MAHESHPUR,NAPI.BISPOTA,ARAMBAG,DIST.HOOGHLY,WEST BENGAL,PIN -712413",9508278265,KOLKATA,HOOGHLY,"WEST BENGAL"
"BANDHAN BANK LIMITED",BDBL0001359,712750602,DHANIAKHALI,"MADANMOHANTALA,DHANIAKHALI NEAR SONI MANDIR P.O DHANIAKHALI,DIST.HOOGHLY,WEST BENGAL,PIN-712302",9775733819,KOLKATA,HOOGHLY,"WEST BENGAL"
"BANDHAN BANK LIMITED",BDBL0001358,700750026,DANKUNI,"TN MUKHERJEE ROAD,LICHUBAGAN,DANKUNI,DIST.HOOGHLY,WEST BENGAL,PIN-712311",9433502849,KOLKATA,HOOGHLY,"WEST BENGAL"
"BANDHAN BANK LIMITED",BDBL0001357,700750022,CHANDANNAGORE,"JAGADHHATRI APRATMENT,RASHBEHARI AVENUE,FATAKGORA,STATION ROAD,P.O.CHANDANNAGORE,DIST.HOOGHLY,WEST BENGAL,PIN-712136",9674924001,KOLKATA,HOOGHLY,"WEST BENGAL"
"BANDHAN BANK LIMITED",BDBL0001356,743750002,BONGAON,"JESSORE ROADNEAR BATA MORE,OPP.KUMUDINI SCHOOL,NORTH 24 PGS,WEST BENGAL,PIN-743235",9874111772,KOLKATA,"NORTH 24 PARGANAS","WEST BENGAL"
"BANDHAN BANK LIMITED",BDBL0001355,132750102,KARNAL,"SCO - 229,SECTOR - 12,PART 1,URBAN ESTATE,P.S - CIVIL LINES,KARNAL,HARYANA,PIN -132001",66090909,DELHI,KARNAL,HARYANA
"BANDHAN BANK LIMITED",BDBL0001354,781750202,NALBARI,"P.O.NALBARI,WARD NO.7,ASSAM,PIN-781335",66090909,GUWAHATI,NALBARI,ASSAM
"BANDHAN BANK LIMITED",BDBL0001353,781750501,"BORPARA BOKO","VILL.BARPARA,P.O.BOKO,DIST.KAMRUP,ASSAM,PIN - 781123",7399812972,GUWAHATI,KAMRUP,ASSAM
"BANDHAN BANK LIMITED",BDBL0001352,736750102,JAIGAON,"NAZMA ENGINEERING WORKS,N.S ROAD,DARAGAON,DIST.- ALIPURDUAR,WEST BENGAL,PIN - 736182",66090909,KOLKATA,JALPAIGURI,"WEST BENGAL"
"BANDHAN BANK LIMITED",BDBL0001351,735750102,DHUPGURI,"NETAJI PARA,WARD NO.-14,P.O.DHUPGURI,DIST.-JALPAIGURI,WEST BENGAL,PIN-735210",9832097937,KOLKATA,JALPAIGURI,"WEST BENGAL"
"BANDHAN BANK LIMITED",BDBL0001350,736750051,ALIPURDUAR,"MARWARYPATTY,ALIPURDUAR,WARD NO.-10,P.O.ALIPURDUAR,DIST.-ALIPURDUAR,WEST BENGAL,PIN -736121",9830712771,KOLKATA,JALPAIGURI,"WEST BENGAL"
"BANDHAN BANK LIMITED",BDBL0001349,700750074,TOLLYGUNGE,"78/1,NETAJI SUBHAS CHANDRA BOSE ROAD,1ST FLOOR,KOLKATA,WEST BENGAL,PIN -700040",8820246352,KOLKATA,KOLKATA,"WEST BENGAL"
"BANDHAN BANK LIMITED",BDBL0001348,110750003,GURGAON,"SCO 56 OLD JUDICIAL COMPLEX,CIVIL LINES,SECTOR 15,HARYANA,GURGAON 122 001",66090909,DELHI,UGO,HARYANA
"BANDHAN BANK LIMITED",BDBL0001347,700750039,HARIDEVPUR,"39,M.G ROAD,KOLKATA,WEST BENGAL PIN -700082",9903828444,KOLKATA,"SOUTH 24 PARGANAS","WEST BENGAL"
"BANDHAN BANK LIMITED",BDBL0001346,700750035,GARIAHAT,"157A,RASHBEHARI AVENUE,KOLKATA,WEST BENGAL,PIN -700029",9883451977,KOLKATA,KOLKATA,"WEST BENGAL"
"BANDHAN BANK LIMITED",BDBL0001345,700750034,GARIA,"112/1,RAJA S.C.MULLICK ROAD,GARIA,KOLKATA,WEST BENGAL,PIN -700047",9830878775,KOLKATA,"SOUTH 24 PARGANAS","WEST BENGAL"
"BANDHAN BANK LIMITED",BDBL0001344,110750006,SONEPAT,"149/20,INDRA COLONY,NEAR I.T OFFICE,ATLAS ROAD,SONEPAT,HARYANA,PIN -131001",7508610720,"NEW DELHI",SONIPAT,HARYANA
"BANDHAN BANK LIMITED",BDBL0001343,123750002,REWARI,"H.NO.7685 32,DHARUHERA CHOWK,DELHI ROAD,DIST.REWARI,HARYANA,PIN 123401",66090909,DELHI,SONEPAT,HARYANA
"BANDHAN BANK LIMITED",BDBL0001342,147750002,PATIALA,"GROUND FLOOR,SCO 11,CHOTTI BARA DARI,PATIALA,PUNJAB,PIN - 147001",9876902502,CHANDIGARH,PATIALA,PUNJAB
"BANDHAN BANK LIMITED",BDBL0001341,132750002,PANIPAT,"OPPOSITE KASHI GIRI MANDIR,SAUNLI ROAD,P.S - PANIPATH,DIST PANIPATH,HARYANA,PIN -132103",9005586111,"NEW DELHI",PANIPAT,HARYANA
"BANDHAN BANK LIMITED",BDBL0001340,793750002,SHILLONG,"POLICE BAZAR,BESIDE WOODLAND SHOWROOM,SHILLONG,MEGHALAYA,PIN -793001",66090909,GUWAHATI,"EAST KHASI HILLS",MEGHALAYA
"BANDHAN BANK LIMITED",BDBL0001339,201750002,MODINAGAR,"OPP SUGAR MILL,KARAMCHARS GATE,P.O.MODI NAGAR,DIST.GHAZIABAD,UTTAR PRADESH,PIN -201204",9911182989,KANPUR,GHAZIABAD,"UTTAR PRADESH"
"BANDHAN BANK LIMITED",BDBL0001338,245750002,HAPUR,"84,FREEGANJ ROAD HAPUR,UTTAR PRADESH,PIN - 245101",9005586111,KANPUR,SITAPUR,"UTTAR PRADESH"
"BANDHAN BANK LIMITED",BDBL0001337,816750102,SAHIBGANJ,"COLLEGE ROAD,NEAR CHAITHI DURGA MANDIR,SAHIBGANJ,JHARKHAND,PIN - 816101",9199200634,PATNA,SAHIBGANJ,JHARKHAND
"BANDHAN BANK LIMITED",BDBL0001336,203750002,BULANDSHAHAR,"434,CIVIL LINES,RAJA BABU ROAD,NEAR KAMNA JEWELLERS,BULAND SHAHAR,UTTAR PRADESH,PIN - 203001",9818923508,KANPUR,BULANDSHAHAR,"UTTAR PRADESH"
"BANDHAN BANK LIMITED",BDBL0001335,151750002,BHATINDA,"HOUSE NO - 3115,OPP.DIST COURTS,BATHINDA,PUNJAB,PIN - 151005",9318606892,CHANDIGARH,BATHINDA,PUNJAB
"BANDHAN BANK LIMITED",BDBL0001334,250750402,BARAUT,"BINAULI ROAD,RAJPUT RAWAITI COLLEGE,U.P,PIN -250611",7792903185,KANPUR,BAGPAT,"UTTAR PRADESH"
"BANDHAN BANK LIMITED",BDBL0001333,133750002,"AMBALA CITY","3821/2,HOSPITAL ROAD,AMBALA CITY,OPP.SURYA HOTEL NEAR UNITED BANK,HARYANA,PIN - 133003",8877241476,"NEW DELHI",AMBALA,HARYANA
"BANDHAN BANK LIMITED",BDBL0001332,851750501,"GOGRI JAMALPUR","NEAR BLOCK OFFICE,P.O.JAMALPUR GOGRI,BIHAR,PIN 851203",66090909,BHAGALPUR,KHAGARIA,BIHAR
"BANDHAN BANK LIMITED",BDBL0001331,751750002,KHURDA,"KHURDA MAIN ROAD,BESIDE IDBI BANK,P.O. & DIST.KHURDA,ODISHA,PIN - 752055",9338807652,BHUBANESWAR,KHORDHA,ODISHA
"BANDHAN BANK LIMITED",BDBL0001330,753750002,CUTTACK,"1STFLOOR,OMKARBUILDING,NEARCHANDITEMPLE,ICICIBANKCOMPLEX,CHANDIROAD,CUTTACK,ODISHA,PIN-753001",66090909,CUTTACK,CUTTACK,ODISHA
"BANDHAN BANK LIMITED",BDBL0001329,756750002,BALASORE,"FIRST FLOOR,BASANTI NIBAS,NEAR BUS STAND,AT-BHASKARGANJ,P.O.SAHADEBKHUNTA,DIST.BALASORE,ODISHA,PIN - 756001",66090909,BHUBANESWAR,BALASORE,ODISHA
"BANDHAN BANK LIMITED",BDBL0001328,736750514,"UTTAR LAUCHAPRA","VILL.LAUCHAPRA UTTAR,P.O.BALAIRHAT,DIST.COOCHBEHAR,WEST BENGAL,PIN -736132",9564472264,KOLKATA,"COOCH BEHAR","WEST BENGAL"
"BANDHAN BANK LIMITED",BDBL0001327,736750513,TUFANGANJ,"MAIN ROAD,1ST FLOOR,P.O.TUFANGANJ,DIST.COOCHBEHAR,WEST BENGAL,PIN -736159",66090909,KOLKATA,"COOCH BEHAR","WEST BENGAL"
"BANDHAN BANK LIMITED",BDBL0001326,736750003,"STATION CHOUPATHI, COOCHBEHAR","MIRNALINEE BUILDING,N.N.ROAD - SUNITY ROAD CROSSING,NEAR CIRCUIT HOUSE STATION,CHOUPATHI KOTWALI,WEST BENGAL,PIN -736101",9475521706,KOLKATA,"COOCH BEHAR","WEST BENGAL"
"BANDHAN BANK LIMITED",BDBL0001325,736750002,COOCHBEHAR,"NRIPENDRA NARAYAN ROAD,COOCHBEHAR,KOTWALI,WEST BENGAL,PIN -736101",7797966377,KOLKATA,"COOCH BEHAR","WEST BENGAL"
"BANDHAN BANK LIMITED",BDBL0001324,736750503,CHILKIRHAT,"VILL. & P.O.CHILKITHAT,DIST.COOCHBEHAR,WEST BENGAL,PIN - 736157",9593910360,KOLKATA,"COOCH BEHAR","WEST BENGAL"
"BANDHAN BANK LIMITED",BDBL0001323,712750607,TINNA,"VILL. & P.O.TINNA,DIST.HOOGHLY,WEST BENGAL,PIN-712149",8514891158,KOLKATA,HOOGHLY,"WEST BENGAL"
"BANDHAN BANK LIMITED",BDBL0001322,713750605,JALUIDANGA,"VILL.JALUIDANGA,P.O.SAMUDRAGARH,DIST.BURDWAN,WEST BENGAL,PIN-713519",8768173999,KOLKATA,BARDHAMAN,"WEST BENGAL"
"BANDHAN BANK LIMITED",BDBL0001321,713750608,YASHAPUR,"YASHAPUR,PURBAPARA BAIDYAPUR GOTAN MADHABDIHI,BURDWAN -712410",9775253173,KOLKATA,BARDHAMAN,"WEST BENGAL"
"BANDHAN BANK LIMITED",BDBL0001320,713750202,"DURGAPUR, BIDHANAGAR","A-5,A-6,SSB SARANI,DURGAPUR BIDHANNAGAR PHANRI,WEST BENGAL,PIN -713212",9593888774,KOLKATA,BARDHAMAN,"WEST BENGAL"
"BANDHAN BANK LIMITED",BDBL0001319,713750901,DAINHAT,"DEWANGANJ,WARD NO.7,HOLDING NO.50,P.O.DAINHAT,DIST.BURDWAN,WEST BENGAL,PIN -713502",9093353105,KOLKATA,BARDHAMAN,"WEST BENGAL"
"BANDHAN BANK LIMITED",BDBL0001318,713750603,CHOWBERIA,"VILLCHOWBERIA,P.O.PANCHRA,DIST.BURDWAN,WEST BENGAL,PIN-713401",8145671410,KOLKATA,BARDHAMAN,"WEST BENGAL"
"BANDHAN BANK LIMITED",BDBL0001317,713750102,BURDWAN,"HALDAR MARKET,48,GT ROAD,BIRHATA,DIST.BURDWAN,WEST BENGAL,PIN - 713101",66090909,KOLKATA,BARDHAMAN,"WEST BENGAL"
"BANDHAN BANK LIMITED",BDBL0001316,713750602,BABLA,"VILL BABLA,P.O.GALSI,DIST.BURDWAN,WEST BENGAL,PIN -713406",7666503441,KOLKATA,BARDHAMAN,"WEST BENGAL"
"BANDHAN BANK LIMITED",BDBL0001315,713750601,AMILA,"VILL -AMILA BAZAR,P.O.AMILA,DIST.BURDWAN,WEST BENGAL,PIN -713423",9647565709,KOLKATA,BARDHAMAN,"WEST BENGAL"
"BANDHAN BANK LIMITED",BDBL0001314,783750506,UJANPETLA,"VILL UJANPETLA,PART-I,P.O.UJANPETLA,DIST.DHUBRI,ASSAM,PIN-783332",7399392601,GUWAHATI,KOKRAJHAR,ASSAM
"BANDHAN BANK LIMITED",BDBL0001313,781750505,KENDUGURI,"VILL PO BAMKAKHATA.PS PATACHRAKUCHI DIST -BARPETA ASSAM.PIN NO -781326",9864072288,GUWAHATI,BARPETA,ASSAM
"BANDHAN BANK LIMITED",BDBL0001312,783750504,KAWATIKA,"VILL KAWATIKADOTARI,P.O.BIJNI,ASSAM,PIN -783390",8822812977,GUWAHATI,CHIRANG,ASSAM
"BANDHAN BANK LIMITED",BDBL0001311,783750002,BONGAIGAON,"50,BONGAIGAON TOWN,WARD NO.3,P.O.BONGAIGAON,OPP.DC OFFICE,DIST.-BONGAIGAON,ASSAM,PIN - 783380",9864180936,GUWAHATI,BONGAIGAON,ASSAM
"BANDHAN BANK LIMITED",BDBL0001310,781750152,"BARPETA ROAD","MAIN ROAD BARPETA ROADAMTAL PS -BARPETA ROAD.DIST-BARPETA.ASSAM PIN -781315",8011002339,GUWAHATI,BARPETA,ASSAM
"BANDHAN BANK LIMITED",BDBL0001309,781750102,"BARPETA TOWN","ADNO.5,BAPETATOWN,FISTFLOO,BAPETA,ASSAM,PIN-781301",7086043656,GUWAHATI,BARPETA,ASSAM
"BANDHAN BANK LIMITED",BDBL0001308,783750501,BANGALIPARA,"VILL& P.O.BANGALIPARA,DIST.DHUBRI ASSAM,PIN -783348",8575283790,GUWAHATI,DHUBRI,ASSAM
"BANDHAN BANK LIMITED",BDBL0001307,811750102,"LAKHI SARAI","DALPATTI MOHALLA,BAZAR SAMITI,P.O. & DIST.-LAKHI SARAI,BIHAR,PIN - 811311",9801669053,PATNA,LAKHISARAI,BIHAR
"BANDHAN BANK LIMITED",BDBL0001306,811750501,GIDHOUR,"VILL & P.O.-GIDHAUR,NEAR POLICE STATION,DIST.JAMUI,BIHAR,PIN-811305",7261015599,PATNA,JAMUI,BIHAR
"BANDHAN BANK LIMITED",BDBL0001305,851750601,BARAUNI,"RAJENDRA ROAD,BARAUNI,BIHAR,PIN - 851112",66090909,PATNA,BEGUSARAI,BIHAR
"BANDHAN BANK LIMITED",BDBL0001304,811750502,SIKANDRA,"VILL AND P.O.SIKANDRA,DIST.JAMUI,JAMUI ROAD,BIHAR,PIN 811315",66090909,BHAGALPUR,JAMUI,BIHAR
"BANDHAN BANK LIMITED",BDBL0001303,226750002,"INDIRA NAGAR LUCKNOW","SPACE NO.1111,RAISED GROUND FLOOR,LEKHRAJ DOLLAR COMPLEX,FAIZABAD ROAD,INDIRA NAGAR,LUCKNOW,UTTAR PRADESH,PIN -226016",66090909,MORADABAD,LUCKNOW,"UTTAR PRADESH"
"BANDHAN BANK LIMITED",BDBL0001302,700750017,"BIJAYGANJ BAZAR","VILL.BIJOYGANJ BAZAR,DIST.SOUTH 24 PARGANAS,WEST BENGAL,PIN - 743345",8334813972,KOLKATA,"SOUTH 24 PARGANAS","WEST BENGAL"
"BANDHAN BANK LIMITED",BDBL0001301,700750045,KHARISRINAGAR,"VILL.KHARISRINAGAR,P.O.KASHINAGAR,DIST.SOUTH 24 PARGANAS,WEST BENGAL,PIN - 743379",9932743422,KOLKATA,"SOUTH 24 PARGANAS","WEST BENGAL"
"BANDHAN BANK LIMITED",BDBL0001300,743750102,KAKDWIP,"VILL. & P.O.KAKDWIP,RATHTALA,DIST.SOUTH 24 PARGANAS,WEST BENGAL,PIN - 743374",8868802803,KOLKATA,"SOUTH 24 PARGANAS","WEST BENGAL"
"BANDHAN BANK LIMITED",BDBL0001299,700750019,CANNING,"I&AI,IT-SOUTH24ARAA,WETBEA,I-743329",8372968630,KOLKATA,"SOUTH 24 PARGANAS","WEST BENGAL"
"BANDHAN BANK LIMITED",BDBL0001298,816750601,UDHWA,"UDHWA,P.O.UDHWA,RADHANAGAR,JHARKHAND PIN - 816108",8863014294,PATNA,SAHIBGANJ,JHARKHAND
"BANDHAN BANK LIMITED",BDBL0001297,743750601,GOSABA,"VILL. & P.O.ARAMPUR,DIST.SOUTH 24 PGS,WEST BENGAL,PIN -743370",7699156072,KOLKATA,"SOUTH 24 PARGANAS","WEST BENGAL"
"BANDHAN BANK LIMITED",BDBL0001296,700750070,SODEPUR,MBSEUKKEBEGP-7000,8697719773,KOLKATA,"NORTH 24 PARGANAS","WEST BENGAL"
"BANDHAN BANK LIMITED",BDBL0001295,700750080,"GIRISH PARK","187 C.R.AVENUE GIRISH PARK,KOLKATA,WEST BENGAL,PIN 700007",66090909,KOLKATA,KOLKATA,"WEST BENGAL"
"BANDHAN BANK LIMITED",BDBL0001294,700750007,BAGUIATI,"DC-114/1 NARAYANTALA W,P.O.DESHBANDHU NAGAR,BAGUIATI,KOLKATA,WEST BENGAL,PIN -700059",9874018421,KOLKATA,"NORTH 24 PARGANAS","WEST BENGAL"
"BANDHAN BANK LIMITED",BDBL0001293,221750002,VARANASI,"K-47/1,BISHESHWARGANJ,KATUAPURA,VARANASI,UTTAR PRADESH,PIN - 221001",66090909,KANPUR,VARANASI,"UTTAR PRADESH"
"BANDHAN BANK LIMITED",BDBL0001292,274750502,RUDRAPUR,"VILL. & P.O.RUDRAPUR,ADARSH CHOWRAHA,DIST.DEORI,UTTAR PRADESH,PIN - 274204",9800459972,KANPUR,DEORIA,"UTTAR PRADESH"
"BANDHAN BANK LIMITED",BDBL0001291,274750501,RAGHAVPUR,"VILL.RAGHAVPUR,P.O.CHOWRI CHOWRAHA,DIST.GORAKHPUR,UTTAR PRADESH,PIN - 273201",8948072446,KANPUR,GORAKHPUR,"UTTAR PRADESH"
"BANDHAN BANK LIMITED",BDBL0001290,221750102,"NAI BAZAR","GULORA,NAYA BAZAR ROAD,VILL NAYA BAZAR,DIST.BHADOHI,UTTAR PRADESH,PIN - 221409",9120299560,KANPUR,BALLIA,"UTTAR PRADESH"
"BANDHAN BANK LIMITED",BDBL0001289,232750151,MOHAMMADABAD,"VILL MOHAMMDABAD,P.O.CHAKIA,DIST.CHANDOULI,UTTAR PRADESH,PIN-232103",8535080722,KANPUR,CHANDAULI,"UTTAR PRADESH"
"BANDHAN BANK LIMITED",BDBL0001288,233750002,GHAZIPUR,"KOTHI SHIV SAHAI,LALDARWAZA,P.O.GHAZIPUR,DIST.GHAZIPUR,UTTAR PRADESH,PIN 233001",66090909,GHAZIPUR,GHAZIPUR,"UTTAR PRADESH"
"BANDHAN BANK LIMITED",BDBL0001287,277750501,CHACHYA,"VILL CHACHIYA,P.O.CHACHIYA,DIST.BALLIA,UTTAR PRADESH.PIN-221711",8477995625,KANPUR,BALLIA,"UTTAR PRADESH"
"BANDHAN BANK LIMITED",BDBL0001286,802750002,BUXAR,"WARD NO.14,THANA ROAD,DIST.BUXAR,BIHAR,PIN 802101",66090909,BUXAR,BUXAR,BIHAR
"BANDHAN BANK LIMITED",BDBL0001285,277750002,BALLIA,"KADAM CHAURAHA MISHR NEWRI,INFRONT OF SATRI SARAY POLICE CHOWKI,DIST.BALLIA,UTTAR PRADESH,PIN - 277001",9919538111,KANPUR,BALLIA,"UTTAR PRADESH"
"BANDHAN BANK LIMITED",BDBL0001284,742750602,SANTOSHPUR,"VILL SANTOSHPUR,P.O.SAGARDIGHI,DIST.MURSHIDABAD,WEST BENGAL,PIN-742226",7384545824,KOLKATA,MURSHIDABAD,"WEST BENGAL"
"BANDHAN BANK LIMITED",BDBL0001283,742750510,NARASINGHAPUR,"VILL NARASINGHAPUR,P.O.SAGARPARA,DIST.MURSHIDABAD,MOUZA-NARASINGHAPUR,WEST BENGAL,PIN-742306",8504999201,KOLKATA,MURSHIDABAD,"WEST BENGAL"
"BANDHAN BANK LIMITED",BDBL0001282,732750508,MANIKYAHAR,"VILL MANIKYAHAR,SAKTIPUR,DIST.MURSHIDABAD,WEST BENGAL,PIN-742163",9609831764,KOLKATA,MURSHIDABAD,"WEST BENGAL"
"BANDHAN BANK LIMITED",BDBL0001281,742750508,KURAPARA,"VILLKURAPARA NAGAR,P.O.NAGAR,KHARGRAM,DIST.MURSHIDABAD,WEST BENGAL,PIN-742159",8768705949,KOLKATA,MURSHIDABAD,"WEST BENGAL"
"BANDHAN BANK LIMITED",BDBL0001280,742750507,KANDI,"P.O.KANDI,KALABAGAN,KANDI LODGE,NR GIRLS SCHOOL,DIST.MURSHIDABAD,WEST BENGAL,PIN-742137",9735986802,KOLKATA,MURSHIDABAD,"WEST BENGAL"
"BANDHAN BANK LIMITED",BDBL0001279,742750505,"HAMIDHATI PILKHANDI","VILLHAMIDHATI PILKHUDI,P.O.SALAR,DIST.MURSHIDABAD,WEST BENGAL,PIN -742401",8001667468,KOLKATA,MURSHIDABAD,"WEST BENGAL"
"BANDHAN BANK LIMITED",BDBL0001278,742750503,DHITORA,"VILL.DHITORA,P.O.MURARAI,DIST.MURSHIDABAD,WEST BENGAL,PIN -731219",9836594028,KOLKATA,BIRBHUM,"WEST BENGAL"
"BANDHAN BANK LIMITED",BDBL0001277,415750001,SATARA,5UUAPETHSATAAMAHAASHTAPIN-415002,66090909,MUMBAI,SATARA,MAHARASHTRA
"BANDHAN BANK LIMITED",BDBL0001276,413750352,SANGOLA,"KACHERI ROAD,NEAR OLD POLICE CHOWKEY,SANGOLA,DIST.SOLAPUR,MAHARASHTRA,PIN - 413 307",66090909,MUMBAI,SOLAPUR,MAHARASHTRA
"BANDHAN BANK LIMITED",BDBL0001275,816750002,PAKUR,"BHULAN PRASAD BHAGAT,WARD NO.10,AT -HARINDANGA BAZAR,P.O. & DIST.PAKUR,JHARKHAND,PIN - 816107",9609600984,PATNA,PAKUR,JHARKHAND
"BANDHAN BANK LIMITED",BDBL0001274,NA,RAHATA,"SAMBHAV ELECTRONICS,CHITALI ROAD,P.O.-RAHATA,DIST.AHMEDNAGAR,MAHARASHTRA,PIN - 423 107",66090909,MUMBAI,AHMEDNAGAR,MAHARASHTRA
"BANDHAN BANK LIMITED",BDBL0001273,416750002,KOLHAPUR,"SHOP NO.7,8,9,10,UPPER GROUND FLOOR,VIJAYA HEIGHTS,OPPOSITE - SHARDA LODGE,LAXMIPURI,KOLHAPUR,MAHARASHTRA,PIN - 416 002",9021182503,MUMBAI,KOLHAPUR,MAHARASHTRA
"BANDHAN BANK LIMITED",BDBL0001272,414750001,KEDGAON,"PRATIK COMPLEX,PLOT NO.04,AHMEDNAGAR-PUNE ROAD,MOTINAGAR,KEDGAON,DIST.AHMEDNAGAR,MAHARASHTRA,PIN - 414 005",66090909,MUMBAI,AHMEDNAGAR,MAHARASHTRA
"BANDHAN BANK LIMITED",BDBL0001271,431750502,GANGAPUR,"VILL. & P.O.-GANGAPUR,DIST.AURANGABAD,MAHARASHTRA,PIN - 431 109",9157998698,MUMBAI,AURANGABAD,MAHARASHTRA
"BANDHAN BANK LIMITED",BDBL0001270,413750101,BARAMATI,"MAHATI COMPLEX,SHRIRAM ROAD,BHIGWAN ROAD,PO BARAMATI,NEAR NIRA CANOL STORE ROOM,DIST.PUNE,MAHARASHTRA,PIN 413102",66090909,PUNE,PUNE,MAHARASHTRA
"BANDHAN BANK LIMITED",BDBL0001269,799750202,UDAIPUR,"V.M ROAD,UDAIPUR,P.O - R K PUR,GOMATI,TRIPURA,PIN - 799 120",8974025044,GUWAHATI,GOMATI,TRIPURA
"BANDHAN BANK LIMITED",BDBL0001268,799750508,TUCHINDRAI,"VILL PURBA HOWAIBARI,P.O - HOWAIBARI,DIST -KHOWAI,PIN - 799 205",9089742841,GUWAHATI,KHOWAI,TRIPURA
"BANDHAN BANK LIMITED",BDBL0001267,799750507,SINGINALA,"VILL SINGINALA,P.O - SALEMA,DIST - DHALAI,TRIPURA,PIN - 799 278",9402173811,GUWAHATI,DHALAI,TRIPURA
"BANDHAN BANK LIMITED",BDBL0001266,799750506,RANIRGAON,"VILL RANIRGAON,P.O MAJLISHPUR,DIST.WEST TRIPURA,PIN 799035",66090909,AGARTALA,"WEST TRIPURA",TRIPURA
"BANDHAN BANK LIMITED",BDBL0001265,799750505,RAMCHANDRAGHAT,"VILL PURBA RAMCHANDRAHGHAT,PO RAMCHANDRAGHAT,TRIPURA,PIN - 799 207",9862482954,GUWAHATI,KHOWAI,TRIPURA
"BANDHAN BANK LIMITED",BDBL0001264,799750503,"NARAYANPUR BAZAR","VILL NARYANPUR,P.O AIRPORT,DIST WEST TRIPURA,TRIPURA,PIN - 799 009",9485013150,GUWAHATI,"WEST TRIPURA",TRIPURA
"BANDHAN BANK LIMITED",BDBL0001263,799750005,MELAGARH,"MELAGHAR BAZAR,DIST - SEPHIJALA,TRIPURA,PIN - 799 115",8415804058,GUWAHATI,SIPAHIJALA,TRIPURA
"BANDHAN BANK LIMITED",BDBL0001262,799750004,"LAKE CHOMOHANI","RASARAJ SWEET SHOP,OPP.ST/SC/OBC BUILDING,LAKE CHOWMOHONI,P.O - AGARTALA,TRIPURA,PIN - 799 001",9774824754,GUWAHATI,"WEST TRIPURA",TRIPURA
"BANDHAN BANK LIMITED",BDBL0001261,799750512,KANTHALTALI,"MADHUBAN,KANTHALTALI BAZAR,PO-RANIRKHAMER,DIST.TRIPURA WEST,PIN-799 003",9089297920,GUWAHATI,"WEST TRIPURA",TRIPURA
"BANDHAN BANK LIMITED",BDBL0001260,799750511,JALAFA,"VILL & PO PASCHIM JALEFA PS SABROOM DIST SOUTH TRIPURA,PIN - 799 145",9485060912,GUWAHATI,"SOUTH TRIPURA",TRIPURA
"BANDHAN BANK LIMITED",BDBL0001259,799750501,BAMUTIA,"VILL BERIMURA,PO -BAMUTIA,PS -LEFUNGA,TRIPURA,PIN - 799 211",9089802879,GUWAHATI,"WEST TRIPURA",TRIPURA
"BANDHAN BANK LIMITED",BDBL0001258,799750203,BISHALGARH,"BISHALGARH,TRIPURA,PIN 799 102",9774095005,GUWAHATI,SIPAHIJALA,TRIPURA
"BANDHAN BANK LIMITED",BDBL0001257,799750513,"BHARAT CHANDRA NAGAR","VILL B C NAGAR,PO-BELONIA,PS -BELONIA,SOUTH TRIPURA,PIN-799 155",8014775767,GUWAHATI,"SOUTH TRIPURA",TRIPURA
"BANDHAN BANK LIMITED",BDBL0001256,799750502,BASPOKUR,"VILL BASPOKUR P.O JATRAPUR DIST.SIPAHIJALA TRIPURA PIN - 799 132",9862976346,GUWAHATI,SIPAHIJALA,TRIPURA
"BANDHAN BANK LIMITED",BDBL0001255,799750003,BARDOWALI,"NEAR BORDOWALI PETROL PUMP P.O AD NAGAR AGARTALA TRIPURA PIN - 799 003",9436503441,GUWAHATI,"WEST TRIPURA",TRIPURA
"BANDHAN BANK LIMITED",BDBL0001254,799750204,AMARPUR,"VILL BIRBAL DASPARA WARD NO.10 P.O AMARPUR DIST GOMATI TRIPURA PIN - 799 101",66090909,GUWAHATI,"SOUTH TRIPURA",TRIPURA
"BANDHAN BANK LIMITED",BDBL0001253,799750002,AGARTALA,"H.G.B ROAD OPP - G.P.O AGARTALA WEST TRIPURA PIN - 799 001",9774044858,GUWAHATI,"WEST TRIPURA",TRIPURA
"BANDHAN BANK LIMITED",BDBL0001252,799750509,FULCHARI,"VILL FULCHARI P.O KAMALPUR DIST.DHALAI TRIPURA PIN - 799 285",9862417768,GUWAHATI,DHALAI,TRIPURA
"BANDHAN BANK LIMITED",BDBL0001251,734750002,SILIGURI,"78,RAJA RAM MOHAN ROY ROAD,WARD NO.12,HAKIM PARA,P.O.SILIGURI,DIST.DARJEELING,WEST BENGAL,PIN -734001",9800002655,KOLKATA,JALPAIGURI,"WEST BENGAL"
"BANDHAN BANK LIMITED",BDBL0001250,700750120,BEHALA,"GROUND FLOOR AND FIRST FLOOR,738-2,DIAMOND HARBOUR ROAD,PS THAKURPUKUR,KOLKATA,WEST BENGAL,PIN 700008",66090909,KOLKATA,"SOUTH 24 PARGANAS","WEST BENGAL"
"BANDHAN BANK LIMITED",BDBL0001249,NA,SHANTINIKETAN,"GROUND FLOOR,BICHITRA APARTMENT,STATION ROAD,P.O.BOLPUR,DIST.BIRBHUM,PIN-731204",66090909,KOLKATA,BIRBHUM,"WEST BENGAL"
"BANDHAN BANK LIMITED",BDBL0001248,712750604,KALIYAGAR,"VILL KALIYAGARH,P.O.BALAGARH,DIST.HOOGHLY,WEST BENGAL,PIN-712501",9732771390,KOLKATA,HOOGHLY,"WEST BENGAL"
"BANDHAN BANK LIMITED",BDBL0001247,736750509,"KHAMAR SITAI","VILL KHAMAR SITAI,P.O-SITAI,DIST.COOCHBEHAR,WEST BENGAL,PIN -736167",9734988497,KOLKATA,"COOCH BEHAR","WEST BENGAL"
"BANDHAN BANK LIMITED",BDBL0001246,736750501,CHANGRABANDHA,"MERCHAND ROAD,VILL & P.O.CHANGRABANDA,DIST.COOCHBEHAR,WEST BENGAL,PIN - 735301",7063310360,KOLKATA,"COOCH BEHAR","WEST BENGAL"
"BANDHAN BANK LIMITED",BDBL0001245,736750502,CHILAKHANA,"VILL. & P.O.CHILAKHANA,DIST.COOCHBEHAR,WEST BENGAL,PIN -736159",9733004474,KOLKATA,"COOCH BEHAR","WEST BENGAL"
"BANDHAN BANK LIMITED",BDBL0001244,700750018,BIRATI,"69/1,M.B ROAD,P.O.BIRATI,WEST BENGAL,KOLKATA,WEST BENGAL,PIN - 700051",9830147999,KOLKATA,"NORTH 24 PARGANAS","WEST BENGAL"
"BANDHAN BANK LIMITED",BDBL0001243,735750003,JALPAIGURI,"HIMANGINI COMPLEX,GROUND FLOOR,WARD NO.6,P.O.KADAMTALA JALPAIGURI,DIST.JALPAIGURI,WEST BENGAL,PIN - 735101",9733008481,KOLKATA,JALPAIGURI,"WEST BENGAL"
"BANDHAN BANK LIMITED",BDBL0001242,733750606,PATIRAM,"NIHARIKA MARKET,VILL P.O.PATIRAMNEAR POLICE PHARI DIST.SOUTH DINAJPUR,WEST BENGAL,PIN - 733133",8436982274,KOLKATA,"SOUTH DINAJPUR","WEST BENGAL"
"BANDHAN BANK LIMITED",BDBL0001241,736750512,SITALKUCHI,"VILL & P.O -SITALKUCHI OPPOSIT POLICE STATION,DIST.COOCHBEHAR,WEST BENGAL,PIN-736158",9800900926,KOLKATA,"COOCH BEHAR","WEST BENGAL"
"BANDHAN BANK LIMITED",BDBL0001240,700750072,TARARAT,"VILL. & P.O.DHAMUA,DIST.- SOUTH 24 PGS,WEST BENGAL,PIN -743355",7890688309,KOLKATA,"SOUTH 24 PARGANAS","WEST BENGAL"
"BANDHAN BANK LIMITED",BDBL0001239,700750059,NUNGI,"WARD-28,MAHESHTALA MUNICIPALITY,P.O.BATANAGAR,DIST-SOUTH 24 PGS,WEST BENGAL,PIN - 700140",8296261587,KOLKATA,"SOUTH 24 PARGANAS","WEST BENGAL"
"BANDHAN BANK LIMITED",BDBL0001238,713750606,KUSUMGRAM,"P.O.KUSHUMGRAM,DIST.-BURDWAN,WEST BEGAL,PIN -713422",9564743986,KOLKATA,BARDHAMAN,"WEST BENGAL"
"BANDHAN BANK LIMITED",BDBL0001237,700750036,GHUTIARISHARIF,"VILL -HALDAR PARA,P.O.BANSRA,DIST.SOUTH 24 PARGANAS,WEST BENGAL,PIN - 743363",9647324259,KOLKATA,"SOUTH 24 PARGANAS","WEST BENGAL"
"BANDHAN BANK LIMITED",BDBL0001236,700750009,BARANAGAR,"312,GOPAL LAL TAGORE ROAD,KOLKATA,WEST BENGAL,PIN - 700036",9836321177,KOLKATA,KOLKATA,"WEST BENGAL"
"BANDHAN BANK LIMITED",BDBL0001235,736750701,BIRPARA,"BIRPARA MG ROAD,P.O.BIRPARA,DIST.- ALIPURDUAR,WEST BENGAL,PIN-735204",9734107944,KOLKATA,JALPAIGURI,"WEST BENGAL"
"BANDHAN BANK LIMITED",BDBL0001234,735750503,MALBAZAR,"CALTEX MORE,P.O.MALBAZAR,DIST.JALPAIGURI.WEST BENGAL,PIN -735221",9051223366,KOLKATA,JALPAIGURI,"WEST BENGAL"
"BANDHAN BANK LIMITED",BDBL0001233,734750602,KAWAKHARI,"VILL KAWAKHARI,MEDICAL MORE,P.O.SUSHRUT NAGAR,DIST.DARJEELING,WEST BENGAL,PIN 734012",8927187925,KOLKATA,DARJEELING,"WEST BENGAL"
"BANDHAN BANK LIMITED",BDBL0001232,742750601,DIHIGRAM,"VILL DIHIGRAM,P.O.DAFAHAT,DIST.MURSHIDABAD,WEST BENGAL,PIN -742224",66090909,KOLKATA,MURSHIDABAD,"WEST BENGAL"
"BANDHAN BANK LIMITED",BDBL0001231,732750502,DAKBANGLOW,"VILL -HOUSE NAGAR,DAK BUNGLOW,P.O.TINPUKURIA,DIST.MURSHIDABAD,WEST BENGAL PIN - 742202",9126781561,KOLKATA,MURSHIDABAD,"WEST BENGAL"
"BANDHAN BANK LIMITED",BDBL0001230,452750002,INDORE,"A SOUARE 2/5 SOUTH,P.O.INDORE TUKOGONJ,MADHYA PRADESH,PIN - 45200",8878971241,BHOPAL,INDORE,"MADHYA PRADESH"
"BANDHAN BANK LIMITED",BDBL0001229,712750605,MADHYARANG,"VILL MADHYARANG,PS-KHANAKUL,PO-RAJHATI,DIST-HOOGHLY,WEST BENGAL,PIN-712417",9062107767,KOLKATA,HOOGHLY,"WEST BENGAL"
"BANDHAN BANK LIMITED",BDBL0001228,781750003,"PALTAN BAZAR","PURBI COMPLEX,NEAR PAN BAZAR FLYOVER,AT ROAD,GUWAHATI,ASSAM,PIN -781008",8876569793,GUWAHATI,KAMRUP,ASSAM
"BANDHAN BANK LIMITED",BDBL0001227,700750042,KANCHRAPARA,"396,KGR PATH S,P.O.KANCHRAPARA,DIST.NORTH 24 PARGANAS,PIN-743145",7044924976,KOLKATA,"NORTH 24 PARGANAS","WEST BENGAL"
"BANDHAN BANK LIMITED",BDBL0001226,734750003,"SF ROAD","ANAND MANGAL SQUARE,GROUND FLOOR,S.F.ROAD,P.O -SILIGURI,DIST.DARJEELING,WEST BENGAL,PIN -734005",66090909,KOLKATA,DARJEELING,"WEST BENGAL"
"BANDHAN BANK LIMITED",BDBL0001225,843750002,SITAMARHI,"1ST FLOOR,SARDAR BAZAR MAIN ROAD,ABOVE KHADIMS SHOWROOM,P.O -SITAMARHI,BIHAR,PIN -843302",9771494598,PATNA,SITAMARHI,BIHAR
"BANDHAN BANK LIMITED",BDBL0001224,781750002,MALIGAON,"JASHODA ANANTA APARTMENT,BORIPARA,NEAR MALIGAON FLYOVER,MALIGAON,GUWAHATI,ASSAM,PIN -781012",8402919093,GUWAHATI,KAMRUP,ASSAM
"BANDHAN BANK LIMITED",BDBL0001223,736750506,DINHATA,"GODHULI BAZAR,WORD NO-6,P.O.DINHATA,DIST.COOCHBEHAR,WEST BENGAL,PIN-736135",66090909,KOLKATA,"COOCH BEHAR","WEST BENGAL"
"BANDHAN BANK LIMITED",BDBL0001222,784750501,DAWGAON,"VILL.DAWGAON,NH-15,ABOVE LAXMI AUTO RIDER,P.O.BISWANATH CHARIALI,ASSAM,PIN -784176",9706378951,GUWAHATI,SONITPUR,ASSAM
"BANDHAN BANK LIMITED",BDBL0001221,815750102,JAMTARA,"NEW TOWN,P.O.JAMTARA,JHARKHAND,PIN - 815351",9835508009,PATNA,JAMTARA,JHARKHAND
"BANDHAN BANK LIMITED",BDBL0001220,842750002,MUZAFFARPUR,"SHANKAR NAGAR,CLUB ROAD,P.O-RAMNA,DIST.MUZAFFARPUR,BIHAR,PIN -842002",8521914067,PATNA,MUZAFFARPUR,BIHAR
"BANDHAN BANK LIMITED",BDBL0001219,783750102,DHUBRI,"C.R.DAS ROADNEAR HARI SABHA PARA ZIA COMMERCIAL COMPLEX P.O. & DIST.DHUBRI,ASSAM,PIN-783301",9435100786,GUWAHATI,DHUBRI,ASSAM
"BANDHAN BANK LIMITED",BDBL0001218,736750511,NISHIGANJ,"VILL.&P.O-NISHIGANJ,P.S-MATHABHANGA,DIST.-COOCHBEHAR,P.S-MATHABHANGA,WEST BENGAL,PIN-736157",7076065551,KOLKATA,"COOCH BEHAR","WEST BENGAL"
"BANDHAN BANK LIMITED",BDBL0001217,232750102,MUGHALSARAI,"H.NO.584,G.T.ROAD,NAIBASTI,MUGHAL SARAI,DIST.-CHANDOULI,UTTAR PRADESH,PIN -232101",9334003277,KANPUR,CHANDAULI,"UTTAR PRADESH"
"BANDHAN BANK LIMITED",BDBL0001216,784750002,TEZPUR,"MAHABHAIRAB ROAD,OPPOSITE DARRANG COLLEGE,P.O.TEZPUR,DIST.SONITPUR,ASSAM,PIN-784001",66090909,GUWAHATI,SONITPUR,ASSAM
"BANDHAN BANK LIMITED",BDBL0001215,110750002,KALKAJI,"GROUND FLOOR,L-12,KALKAJI,NEW DELHI,PIN -110019",9911144521,"NEW DELHI","NEW DELHI",DELHI
"BANDHAN BANK LIMITED",BDBL0001214,827750002,CHAS,"P.O.-CHAS,DIST.BOKARO,JHARKHAND,PIN-827013",66090909,PATNA,BOKARO,JHARKHAND
"BANDHAN BANK LIMITED",BDBL0001213,160750002,CHANDIGARH,"SCO 149 150,SECTOR 9 C,MADHYA MARG,CHANDIGARH,PIN 160009",66090909,CHANDIGARH,CHANDIGARH,PUNJAB
"BANDHAN BANK LIMITED",BDBL0001212,700750050,MANASADWIP,"VILL MANASADWIP,P.O.KHASMAHAL,DIST.SOUTH 24 PARGANAS,WEST BENGAL,PIN -743373",8100193679,KOLKATA,"SOUTH 24 PARGANAS","WEST BENGAL"
"BANDHAN BANK LIMITED",BDBL0001211,700750004,ANDUL,"JOY JAYANTEE COMPLEX,GROUND FLOOR,ANDUL PURBA PARA BUS STOP,PO - ANDUL MOURI,SANKRAIL,HOWRAH,WEST BENGAL,PIN - 711302",8001037825,KOLKATA,HOWRAH,"WEST BENGAL"
"BANDHAN BANK LIMITED",BDBL0001210,782750504,MALPULA,"VILL MALPUTA,PO MANIPUR,DIST.MORIGAON,ASSAM,PIN - 782105",9613970555,GUWAHATI,MORIGAON,ASSAM
"BANDHAN BANK LIMITED",BDBL0001209,736750505,DEWANHAT,"VILL & P.O.DEWANHAT,DIST.COOCHBEHAR,WEST BENGA,PIN-736134",7076419247,KOLKATA,"COOCH BEHAR","WEST BENGAL"
"BANDHAN BANK LIMITED",BDBL0001208,380750003,VIRAMGAM,"1ST FLOOR,SUBH ARCADE,HANSALPUR CHOKRI,NEAR IOC PUMPING STATION,VIRAMGAM ROAD,P.O.HANSALPUR,GUJARAT,PIN -382150",9173441289,AHMEDABAD,AHMEDABAD,GUJARAT
"BANDHAN BANK LIMITED",BDBL0001207,431750505,VAIJAPUR,"OPP.MSEB OFFICE,NASIK-AURANGABAD HIGHWAY,NEAR SBH BANK,VAIJAPUR TOWN,MAHARASHTRA,PIN - 423 701",9609035183,MUMBAI,AURANGABAD,MAHARASHTRA
"BANDHAN BANK LIMITED",BDBL0001206,852750702,"UDA KISHANGANJ","VILL P.O.UDAKISHUNGANJ,DIST.MADHEPURA,BIHAR,PIN - 852220",7070792811,PATNA,MADHEPURA,BIHAR
"BANDHAN BANK LIMITED",BDBL0001205,782750503,TETELISARA,AAATEESAADSNAGAONASSAMN-782426,9613147457,GUWAHATI,NAGAON,ASSAM
"BANDHAN BANK LIMITED",BDBL0001204,742750102,SUJAPUR,"VILL SUJAPUR,P.O.RAGHUNATHGANJ,DIST.MURSHIDABAD,PIN-742225",9088011307,KOLKATA,MURSHIDABAD,"WEST BENGAL"
"BANDHAN BANK LIMITED",BDBL0001203,756750503,SORO,"FIRST FLOOR,DURGA MARKET COMPLEX,ADANGA BAZAR,NEAR UCO BANK,CHATRAPUR,P.O.SORO,DIST.BALASORE,ODISHA,PIN - 756045",9907675737,BHUBANESWAR,BALASORE,ODISHA
"BANDHAN BANK LIMITED",BDBL0001202,841750202,SIWAN,DDDT-846,66090909,PATNA,SIWAN,BIHAR
"BANDHAN BANK LIMITED",BDBL0001201,431750504,SILLOD,"OPP.DR.ZAKIR HUSSAIN NAGAR BUSTAND,P.O.SILLOD,MAHARASHTRA,PIN - 431 112",66090909,MUMBAI,AURANGABAD,MAHARASHTRA
"BANDHAN BANK LIMITED",BDBL0001200,800750005,SHIKANDARPUR,"VILL SHIKANDARPUR,P.O.JAMUNAPUR,BIHTA,PATNA,BIHAR,PIN - 801103",7870449713,PATNA,PATNA,BIHAR
"BANDHAN BANK LIMITED",BDBL0001199,247750302,SHAMLI,"DELHI ROAD,OPP PETROL PUMP INDIAN OIL,SHAMLI,UTTAR PRADESH,PIN - 247776",9126897101,KANPUR,MUZAFFARNAGAR,"UTTAR PRADESH"
"BANDHAN BANK LIMITED",BDBL0001198,756750502,SARASWATIPUR,"FIRST FLOOR,VILL SARASWATIPUR,NEAR DEULAHAT,P.O -DEHURDA,G.P.-DEULA,DIST.-BALASORE,ODISHA,PIN-756036",7787995004,BHUBANESWAR,BALASORE,ODISHA
"BANDHAN BANK LIMITED",BDBL0001197,741750604,SANTIPUR,"NS ROAD,BAIGACHI ROAD,P.O.SANTIPUR,DIST -NADIA,WEST BENGAL,PIN-741404",9734422892,KOLKATA,NADIA,"WEST BENGAL"
"BANDHAN BANK LIMITED",BDBL0001196,848750002,SAMASTIPUR,IDGDPSMIPII880,9771418918,PATNA,SAMASTIPUR,BIHAR
"BANDHAN BANK LIMITED",BDBL0001195,274750302,SALEMPUR,"WARD NO.12,DEORIA MAIN ROAD,BESIDE BANK OF BARODA,VILL P.O.SALEMPUR,DIST.DEORI,UTTAR PRADESH,PIN - 274509",66090909,KANPUR,DEORIA,"UTTAR PRADESH"
"BANDHAN BANK LIMITED",BDBL0001194,848750501,"SAHPUR UNDI","SAHAPUR UNDI,KOBI CHAWK,NEAR BLOCK OFFICE,PATORY,BIHAR,PIN-848504",9525198893,PATNA,SAMASTIPUR,BIHAR
"BANDHAN BANK LIMITED",BDBL0001193,842750503,SAHEBGANJ,EGNJMNOEBTNDT-MZFFPBPN-843125,8409836043,PATNA,MUZAFFARPUR,BIHAR
"BANDHAN BANK LIMITED",BDBL0001192,852750002,SAHARSA,"PURAB BAZAR,NEAR MISSION CHURCH,P.O.AND DIST.-SAHARSA,BIHAR,PIN-852201",66090909,PATNA,SAHARSA,BIHAR
"BANDHAN BANK LIMITED",BDBL0001191,263750202,RUDRAPUR,"THE KL SQUARE,D1-D2.13,WARD -13,KASHUPUR BYEPASS ROAD,P.O.- RUDRAPUR,DIST.- UDAM SINGH NAGAR,UTTRAKHAND,PIN -263153",9690991991,KANPUR,"UDHAM SINGH NAGAR",UTTARAKHAND
"BANDHAN BANK LIMITED",BDBL0001190,247750102,ROORKEE,"22/A RAMNAGAR GALI,P.O.ROORKEE,DIST -HARIDWAR,UTTARAKHAND,PIN - 247667",8459302489,KANPUR,HARIDWAR,UTTARAKHAND
"BANDHAN BANK LIMITED",BDBL0001189,845750202,RAXAUL,"MASKARA COMPLEX,MAIN ROAD,OPPOSITE P.O.RAXAUL,DIST.EAST CHAMPARAN,BIHAR,PIN-845305",9939337995,PATNA,"EAST CHAMPARAN",BIHAR
"BANDHAN BANK LIMITED",BDBL0001188,781750302,RANGIA,"WARD NO.04,NT ROAD NEAR JAMA MASJID,P.O.RANGIA,ASSAM,PIN -781354",9436768884,GUWAHATI,KAMRUP,ASSAM
"BANDHAN BANK LIMITED",BDBL0001187,829750002,"RAMGARH CANTT","N.H-33,NEAR SARAGARHI GATE,JHANDA CHOWK,RAMGARH CANTT,JHARKHAND,PIN - 829122",9709555755,PATNA,RAMGARH,JHARKHAND
"BANDHAN BANK LIMITED",BDBL0001186,393750001,RAJPIPLA,"DIVINE HEIGHTS,MG ROAD,OPPOSITE COLLECTOR OFFICE,P.O.RAJPIPLA,DIST.NARMADA,GUJARAT,PIN -393145",9157548029,AHMEDABAD,NARMADA,GUJARAT
"BANDHAN BANK LIMITED",BDBL0001185,731750804,RAJNAGAR,"VILL & P.O.-RAJNAGAR,DIST.BIRBHUM,WEST BENGAL,PIN-731130",8436134797,KOLKATA,BIRBHUM,"WEST BENGAL"
"BANDHAN BANK LIMITED",BDBL0001184,842750502,"RAGHUNATHPUR - DONWAN","VILL.RAGHUNATHPUR-GONWAN,P.O.SAKRA,DIST.MUZAFFARPUR,BIHAR,PIN - 843105",8507913696,PATNA,MUZAFFARPUR,BIHAR
"BANDHAN BANK LIMITED",BDBL0001183,854750102,PURNEA,"BHATTA BAZAR,KALI BARI CHOWK,P.O.BHATTA BAZAR,DIST.PURNIA,PURNIA,BIHAR,PIN-854301",9709302159,PATNA,PURNEA,BIHAR
"BANDHAN BANK LIMITED",BDBL0001182,855750503,POWAKHALI,"VILL.-SISAGACHHI,P.O-POWAKHALI,DIST.KISHANGANJ,BIHAR,PIN-855108",9564255639,PATNA,KISHANGANJ,BIHAR
"BANDHAN BANK LIMITED",BDBL0001181,842750501,PAROO,"VILL. & P.O.PAROO,THANA ROAD,DIST.-MUZAFFARPUR,BIHAR,PIN - 842112",733154355,PATNA,MUZAFFARPUR,BIHAR
"BANDHAN BANK LIMITED",BDBL0001180,431750503,PAITHAN,"COURT ROAD,YASHWANT NAGAR,P.O.PAITHAN,DIST.AURANGABAD,MAHARASHTRA,PIN - 431 107",66090909,MUMBAI,AURANGABAD,MAHARASHTRA
"BANDHAN BANK LIMITED",BDBL0001179,742750511,NOTUNPARA,"VILL.NATUNPARA MOLLAPARA,P.O.DUMKAL,DIST.MURSHIDABAD,WEST BENGAL,PIN -742303",9564196057,KOLKATA,MURSHIDABAD,"WEST BENGAL"
"BANDHAN BANK LIMITED",BDBL0001178,785750202,NAZIRA,"WARD NO-9,NAZIRA TOWN,P.O NAZIRA,ASSAM,PIN - 785685",8472908430,GUWAHATI,SIVASAGAR,ASSAM
"BANDHAN BANK LIMITED",BDBL0001177,786750252,NAHARKATIA,"NAHARKATIA MORAN BUS STAND,P.O.- NAHARKATIA,ASSAM,PIN -786610",7086019766,GUWAHATI,DIBRUGARH,ASSAM
"BANDHAN BANK LIMITED",BDBL0001176,800750501,"NABI NAGAR","VILL.-NABI NAGAR,P.O-BELHOWRI,P.S-DULIN BAZAR,DIST.-PATNA,BIHAR,PIN - 801102",7070970487,PATNA,PATNA,BIHAR
"BANDHAN BANK LIMITED",BDBL0001175,785750508,"NA ALI","VILL.NA-ALI,PO & DIST.SIVASAGAR,ASSAM,PIN-785640",8822548784,GUWAHATI,SIVASAGAR,ASSAM
"BANDHAN BANK LIMITED",BDBL0001174,811750202,MUNGER,"GANDHI CHOWK PURAB SARAI ROAD,P.O. & DIST.MUNGER,BIHAR,PIN -811201",7250791478,PATNA,MUNGER,BIHAR
"BANDHAN BANK LIMITED",BDBL0001173,788750504,MUNDAMALA,"VILL MUNDAMALA P.O.PATHARKANDI,DIST.KARIMGANJ,ASSAM,PIN -788724",66090909,GUWAHATI,KARIMGANJ,ASSAM
"BANDHAN BANK LIMITED",BDBL0001172,712750503,MUKTARPUR,"VILL MUKTARPUR,DIST.HOOGHLY,WEST BENGAL,PIN-712401",8768257876,KOLKATA,HOOGHLY,"WEST BENGAL"
"BANDHAN BANK LIMITED",BDBL0001171,413750502,MOHOL,"DSK SHOPPING COMPLEX,DB KALASE MARG,P.O.MOHOL,DIST.SOLAPUR,MAHARASHTRA,PIN - 413 213",9423592015,MUMBAI,SOLAPUR,MAHARASHTRA
"BANDHAN BANK LIMITED",BDBL0001170,814750202,MOHANPUR,"VILL.KHADARAMAL,P.O.MOHANPUR,DIST.-GODDA,JHARKHAND,PIN - 814154",9122682182,PATNA,GODDA,JHARKHAND
"BANDHAN BANK LIMITED",BDBL0001169,250750002,MEERUT,"SHREE RAM TOWER,PLOT NO 2/4/6,SECTOR 1,GARH ROAD.OPP SBI ZONAL OFFICE,MEERUT,UTTAR PRADESH,PIN - 250004",9621983322,KANPUR,MEERUT,"UTTAR PRADESH"
"BANDHAN BANK LIMITED",BDBL0001168,736750510,MATHABHANGA,"PASCHIM PARA HOSPITAL ROAD,VILL & P.O -MATHABHANGA,DIST.-COOCHBEHAR,WEST BENGAL,PIN - 736146",66090909,KOLKATA,"COOCH BEHAR","WEST BENGAL"
"BANDHAN BANK LIMITED",BDBL0001167,854750502,MARATIBPUR,"VILL MARATIBPUR,P.O-KURSAKANTA,DIST.ARARIA,BIHAR,PIN-854331",9973696267,PATNA,ARARIA,BIHAR
"BANDHAN BANK LIMITED",BDBL0001166,814750701,MANDRO,"VILL & P.O.MANDRO,DIST.-GODDA,JHARKHAND,PIN - 813208",763138330,PATNA,BHAGALPUR,BIHAR
"BANDHAN BANK LIMITED",BDBL0001165,742750509,MALLIKPUR,"VILLRADHABAGMALOPARA,P.O.LALGOLA,DIST.MURSHIDABAD,WEST BENGAL,PIN-742148",7407791132,KOLKATA,MURSHIDABAD,"WEST BENGAL"
"BANDHAN BANK LIMITED",BDBL0001164,800750004,MALAHI,"VILL BICHALI MALAHI,P.O-BARH,DIST.PATNA,BIHAR,PIN-803213",9097232688,PATNA,PATNA,BIHAR
"BANDHAN BANK LIMITED",BDBL0001163,852750202,MADHEPURA,"BYPASS BUS STAND ROAD,P.O. & DIST.MADHEPURA,BIHAR,PIN-852113",8051241241,PATNA,MADHEPURA,BIHAR
"BANDHAN BANK LIMITED",BDBL0001162,854750601,KUKRAN,"VILL.-KUKROAN,P.O.AMARIKUKROAN,DIST.-PURNIA,BIHAR,PIN-854205",7282821080,PATNA,PURNEA,BIHAR
"BANDHAN BANK LIMITED",BDBL0001161,424750102,KRISHNAPUR,"YEOLE PLAZA,DESHMUKHWADI,PACHORA,DIST - JALGAON,MAHARASHTRA,PIN - 424201",66090909,MUMBAI,JALGAON,MAHARASHTRA
"BANDHAN BANK LIMITED",BDBL0001160,841750503,"KONHAULI SANGRAM","VILL KONHOULI SANGRAM,P.O.BANIAPUR,DIST.SARAN,BIHAR,PIN -841403",9939805726,PATNA,SARAN,BIHAR
"BANDHAN BANK LIMITED",BDBL0001159,731750803,KIRNAHAR,"KIRNAHAR CHOURASTA,P.O.KIRNAHAR,DIST.BIRBHUM,WEST BENGAL,PIN -731302",9732790164,KOLKATA,BARDHAMAN,"WEST BENGAL"
"BANDHAN BANK LIMITED",BDBL0001158,735750502,KHAGRABARI,"VILL VIBEKANANDA PALLY,P.O.MAYNAGURI,DIST.JALPAIGURI,WEST BENGAL,PIN-735224",7699562653,KOLKATA,JALPAIGURI,"WEST BENGAL"
"BANDHAN BANK LIMITED",BDBL0001157,851750002,KHAGARIA,"M.G.ROAD,WARD NO.-22,P.O.AND DIST.-KHAGARIYA,BIHAR,PIN-851204",66090909,PATNA,KHAGARIA,BIHAR
"BANDHAN BANK LIMITED",BDBL0001156,781750504,KENDUKANA,"VILL KENDUKONA,P.O.PUTHIMARI,ASSAM,PIN-781380",66090909,GUWAHATI,KAMRUP,ASSAM
"BANDHAN BANK LIMITED",BDBL0001155,244750202,KASHIPUR,"CHAMUNDA BIHAR,RAMNAGAR ROAD,NEAR DENA BANK,KASIPUR,UTTARAKHAND,PIN - 244713",7830111460,KANPUR,"UDHAM SINGH NAGAR",UTTARAKHAND
"BANDHAN BANK LIMITED",BDBL0001154,413750501,KARMALA,"OPPOSITE ELECTRICITY OFFICE AND BUS STAND,GATE NO.3,RATHOD HEIGHTS,KARMALA,DIST.SOLAPUR,MAHARASHTRA,PIN-413 203",66090909,MUMBAI,SOLAPUR,MAHARASHTRA
"BANDHAN BANK LIMITED",BDBL0001153,400750005,KARJAT,"NEW JAIN MANDIR,MAHAVIR PET KARJAT,TAL KARJAT,DIST.RAIGAD,STATION ROAD,KARJAT,MAHARASHTRA,PIN-410201",66090909,MUMBAI,RAIGAD,MAHARASHTRA
"BANDHAN BANK LIMITED",BDBL0001152,800750003,"KANKARBAGH, PATNA","DOCTOR S COLONY,LOHIANAGAR,KANKARBAGH,PATNA,BIHAR,PIN-800020",9102963581,PATNA,PATNA,BIHAR
"BANDHAN BANK LIMITED",BDBL0001151,783750502,KALDOBA,"VILL KALDOBA PART-II,P.O.AGOMANI,DIST.DHUBRI,ASSAM,PIN NO -783335",9707087925,GUWAHATI,DHUBRI,ASSAM
"BANDHAN BANK LIMITED",BDBL0001150,786750502,KAKRATALI,"1 ST FLOOR,H/O DIPAK GUPTA,VILL.KAKRATOLI,P.O.TALAP,DOOM DOOMA,ASSAM,PIN -786156",66090909,GUWAHATI,TINSUKIA,ASSAM
"BANDHAN BANK LIMITED",BDBL0001149,812750502,KAHALGAON,"BIKRAMSHILA NAGAR,KALPANA CINEMA ROAD,P.O.KAHALGAON,DIST.BHAGALPUR,BIHAR,PIN-813203",8864076804,PATNA,BHAGALPUR,BIHAR
"BANDHAN BANK LIMITED",BDBL0001148,756750202,JALESWAR,"1 ST FLOOR,AT-DEULIPANCHUGHANTA,COURT BAZAR,NEAR COURT,JALESWAR,P.O.JALESWAR,DIST.BALASORE,ODISHA,PIN - 756032",7381054630,BHUBANESWAR,BALASORE,ODISHA
"BANDHAN BANK LIMITED",BDBL0001147,811750701,"JALALABAD NAGAR","VILL JALALABAD,P.O.ASARGANJ,DIST.MUNGER,BIHAR,PIN-813201",9122940895,PATNA,MUNGER,BIHAR
"BANDHAN BANK LIMITED",BDBL0001146,755750002,"JAJPUR TOWN","AT-BADABAZAR,NEAR SADABRATA MATHA,P.O.JAJPUR TOWN,DIST.JAJPUR,ODISHA,PIN - 755001",9937312181,BHUBANESWAR,JAJPUR,ODISHA
"BANDHAN BANK LIMITED",BDBL0001145,383750031,IDAR,"B -CITY CENTRE,IDAR HIMATNAGAR,H.W ROAD,SABAR SIT KENDRA,IDAR,DIST -SABARKANTHA,GUJARAT,PIN -383430",8401260755,AHMEDABAD,SABARKANTHA,GUJARAT
"BANDHAN BANK LIMITED",BDBL0001144,736750508,HOGLABARI,"VILL HOGLABARI,P.O.PUNDIBARI,DIST.COOCHBEHAR,WEST BENGAL,PIN-736165",8535996910,KOLKATA,"COOCH BEHAR","WEST BENGAL"
"BANDHAN BANK LIMITED",BDBL0001143,801750102,HILSA,"JOGIPUR MORE,AUTO STAND,BESIDES SBI,HILSA,DIST -NALANDA,BIHAR,PIN - 801302",9735216512,PATNA,NALANDA,BIHAR
"BANDHAN BANK LIMITED",BDBL0001142,825750002,HAZARIBAG,"SIDDHARTH TOWERS,1ST FLOOR,PRINCE HOTEL CAMPUS,OPP.CIVIL COURT,SADAR,HAZARIBAGH,JHARKHAND,PIN-825301",9102989965,PATNA,HAZARIBAG,JHARKHAND
"BANDHAN BANK LIMITED",BDBL0001141,742750506,HARHARIA,"VILLHARHARIA,P.O.ISLAMPUR,DIST.MURSHIDABAD,WEST BENGAL,PIN-742304",7407504004,KOLKATA,MURSHIDABAD,"WEST BENGAL"
"BANDHAN BANK LIMITED",BDBL0001140,736750703,HAMILTONGANJ,"VILL FORWORD NAGAR,P.O.HAMILTONGONJ,DIST.-ALIPURDUAR,WEST BENGAL,PIN -735214",8759959592,KOLKATA,JALPAIGURI,"WEST BENGAL"
"BANDHAN BANK LIMITED",BDBL0001139,736750507,HALDIBARI,"MITRA MARKET COMPLEX,WARD NO 10,P.O.HALDIBARI,DIST.COOCHBEHAR,WEST BENGAL,PIN -735122",7602588797,KOLKATA,"COOCH BEHAR","WEST BENGAL"
"BANDHAN BANK LIMITED",BDBL0001138,844750002,HAJIPUR,"BUBNA CENTRE,1ST FLOOR,RAJENDRA CHOWK,HAJIPUR TOWN,BIHAR,PIN-844101",9199388988,PATNA,VAISHALI,BIHAR
"BANDHAN BANK LIMITED",BDBL0001137,733750603,GOPALPUR,"UJJAL MANDAL,VILL.GOPALPUR,P.O.NAYABAZAR,DAKHIN DINAJPUR,WEST BENGAL,PIN - 733142",9734837371,KOLKATA,"SOUTH DINAJPUR","WEST BENGAL"
"BANDHAN BANK LIMITED",BDBL0001136,805750002,GONAWA,"VILL. & P.O GONAWA,DIST.NAWADA,BIHAR,PIN - 805110",8768688091,PATNA,NAWADA,BIHAR
"BANDHAN BANK LIMITED",BDBL0001135,815750002,GIRIDIH,"RAJA BANGLA,MAIN ROAD,P.O. & DIST.GIRIDIH,JHARKHAND,PIN -815301",9534800900,PATNA,GIRIDIH,JHARKHAND
"BANDHAN BANK LIMITED",BDBL0001134,821750702,"GHUSIA KURD","VILL.-GHOSIA KURD NEAR PATEL COLLEGE,P.O-GHOSIA KALA,DIST.-ROTASH,BIHAR,PIN-802212",8864002715,PATNA,ROHTAS,BIHAR
"BANDHAN BANK LIMITED",BDBL0001133,247750202,"GANDHI COLONY","GANDI COLONY,LALWALA ROAD,P.O.DEOBAND,DIST.SAHARANPUR,UTTAR PRADESH,PIN - 247554",8931011565,KANPUR,SAHARANPUR,"UTTAR PRADESH"
"BANDHAN BANK LIMITED",BDBL0001132,263750402,GADARPUR,"SUKHIJA BHAWAN,MAINROAD,GADARPUR,UTTARAKHAND,PIN -263152",8923353749,KANPUR,"UDHAM SINGH NAGAR",UTTARAKHAND
"BANDHAN BANK LIMITED",BDBL0001131,742750504,"FULTALA GULZARBAGH","VILLFULTALA,NEAR BUS STAND,P.O.JIAGANJ,DIST.MURSHIDABAD,WEST BENGAL,PIN-742123",9563943400,KOLKATA,MURSHIDABAD,"WEST BENGAL"
"BANDHAN BANK LIMITED",BDBL0001130,700750032,DUNLOP,"137/1,B.T.ROAD,NANAKSAR TOWER,KOLKATA,WEST BENGAL,PIN 700108",66090909,KOLKATA,"NORTH 24 PARGANAS","WEST BENGAL"
"BANDHAN BANK LIMITED",BDBL0001129,700750031,"DUM DUM NAGER BAZAR","66/2,DUM DUM ROAD,GROUND FLOOR,KOLKATA - 700074",8697719773,KOLKATA,"NORTH 24 PARGANAS","WEST BENGAL"
"BANDHAN BANK LIMITED",BDBL0001128,783750505,DUDHNOI,"VILL THEKASUPART-I,P.O DUDHNOI,DIST.GOALPARA,ASSAM,PIN-783124",7663913700,GUWAHATI,GOALPARA,ASSAM
"BANDHAN BANK LIMITED",BDBL0001127,781750503,DHUPARGURI,"VILL DHOPARGURI,P.O.HAJO,ASSAM,PIN - 781102",9954983964,GUWAHATI,KAMRUP,ASSAM
"BANDHAN BANK LIMITED",BDBL0001126,721750802,DHANESWARPUR,"VILL& PO DHANESWARPUR DAKSHINBA,DIST.PASCHIM MEDINIPUR,WEST BENGAL PIN - 721166",9775531189,KOLKATA,"WEST MEDINIPUR","WEST BENGAL"
"BANDHAN BANK LIMITED",BDBL0001125,826750002,DHANBAD,"HARI MANGAL PLAZA,DHANSAR,P.O.DHANSAR,DIST.DHANBAD,JHARKHAND,PIN-828106",9709301084,PATNA,DHANBAD,JHARKHAND
"BANDHAN BANK LIMITED",BDBL0001124,756750501,DHAMNAGAR,"IN FRONT OF DHAMNAGAR THANA,NEAR UCO BANK,P.O.- DHAMNAGAR,DIST.BHADRAK,ODISHA,PIN -756117",9153644100,BHUBANESWAR,BHADRAK,ODISHA
"BANDHAN BANK LIMITED",BDBL0001123,814750102,DEOGHAR,"HOTEL MANORAMA,INTERNATIONAL SATSANG CHOWK,POST & DIST.-DEOGHAR,JHARKHAND,PIN-814112",9955357988,PATNA,DEOGHAR,JHARKHAND
"BANDHAN BANK LIMITED",BDBL0001122,248750002,DEHRADUN,"ROAD NO.2,NAGAR NIGAM COMPLEX,DEHRADUN,UTTARAKHAND,PIN - 248001",9897404034,KANPUR,DEHRADUN,UTTARAKHAND
"BANDHAN BANK LIMITED",BDBL0001121,846750002,DARBHANGA,"MIRZAPUR ROAD,RAJKUMARGANJ,P.O. & DIST.DARBHANGA,BIHAR,PIN-846004",9304930973,PATNA,DARBHANGA,BIHAR
"BANDHAN BANK LIMITED",BDBL0001120,781750502,"DAHALI , BIJAYNAGAR","VILL.DAHALI HALIGAON,P.O.BATARHAT,ASSAM,PIN -781122",9854648945,GUWAHATI,KAMRUP,ASSAM
"BANDHAN BANK LIMITED",BDBL0001119,736750504,CHOWRANGEE,"VILL.-BALARAMPUR CHOWRANGEE,P.O.BALARAMPURHAT,TUFANGANJ,DIST.COOCHBEHAR,WEST BENGAL,PIN - 736168",9593313806,KOLKATA,"COOCH BEHAR","WEST BENGAL"
"BANDHAN BANK LIMITED",BDBL0001118,425750501,CHOPDA,"PLOT NO - 18,SHARADCHANDRIKA,AKKA COLONY,YAWAL ROAD,CHOPDA,MAHARASHTRA,PIN - 425107",8751816716,MUMBAI,JALGAON,MAHARASHTRA
"BANDHAN BANK LIMITED",BDBL0001117,841750002,CHAPRA,"KASHI BAZAAR CHAPRA,P.O.BHAGWAN BAZAR,DIST.SARAN,BIHAR,PIN-841301",7050817920,PATNA,SARAN,BIHAR
"BANDHAN BANK LIMITED",BDBL0001116,788750505,CHANDRAPUR,"VILL CHANDRAPUR P.O & DIST HAILAKANDI,ASSAM,PIN -788163",8876173207,GUWAHATI,HAILAKANDI,ASSAM
"BANDHAN BANK LIMITED",BDBL0001115,783750503,CHALANTAPARA,"VILL.&P.O.CHALANTAPARA,JOGIGHOPA,DIST.BONGAIGAON,ASSAM.ASSAMPIN-783382",9707271416,GUWAHATI,BONGAIGAON,ASSAM
"BANDHAN BANK LIMITED",BDBL0001114,845750502,CHAKIA,"VARDHAN CPMPLEX,SAHEBGANJ ROAD,P.O.BARA CHAKIA,DIST.EAST CHAMPARAN,BIHAR,PIN-845412",7250465675,PATNA,"EAST CHAMPARAN",BIHAR
"BANDHAN BANK LIMITED",BDBL0001113,833750002,CHAIBASA,"SENTOLA,NEAR YASHODA TALKIES,P.O.CHAIBASA,DIST.SINGHBHUMW,JHARKHAND,PIN-833201",9955973866,PATNA,"WEST SINGHBHUM",JHARKHAND
"BANDHAN BANK LIMITED",BDBL0001112,246750002,BIJNOR,"SHAKTI CHOWK,NAI BASTI ROAD,P.O.BIJNOR,UTTAR PRADESH,PIN - 246701",9012395779,KANPUR,BIJNOR,"UTTAR PRADESH"
"BANDHAN BANK LIMITED",BDBL0001111,803750002,BIHARSHARIF,"RAM-RAJ COMPLEX,RAMCHANDRAPUR,LEHARI THANA,BIHAR,PIN - 803101",9570057000,PATNA,NALANDA,BIHAR
"BANDHAN BANK LIMITED",BDBL0001110,812750002,BHAGALPUR,"RENUKA COMPLEX,1ST FLOOR,PATAL BABU ROAD,BESIDE AXIS BANK,P.O-BHAGALPUR,DIST.BHAGALPUR,BIHAR,PIN-812001",9304490871,PATNA,BHAGALPUR,BIHAR
"BANDHAN BANK LIMITED",BDBL0001109,756750102,"BHADRAK TOWN","FIRST FLOOR,ALLAHABAD BANK COMPLEX,AT - NORIPUR,P.O.AND DIST.BHADRAK,ODISHA,PIN - 756100",66090909,BHUBANESWAR,BHADRAK,ODISHA
"BANDHAN BANK LIMITED",BDBL0001108,845750102,BETTIAH,"SHIVPURI COLLONY,NEAR SUPRIYA CINEMA ROAD,P.O.BETTIAH,DIST.WEST CHAMPARAN,BIHAR,PIN -845438",8521140924,PATNA,"WEST CHAMPARAN",BIHAR
"BANDHAN BANK LIMITED",BDBL0001107,742750502,BELDANGA,"BARUA NAZRUL PALLY,P.O.BELDANGA,DIST.MURSHIDABAD,WEST BENGAL,PIN -742 133",9647438008,KOLKATA,MURSHIDABAD,"WEST BENGAL"
"BANDHAN BANK LIMITED",BDBL0001106,735750002,BELAKOBA,"BELSANNA NAGAR,SONAR BARI PRADHAN PARA,P.O.BELOCOBA,DIST.JALPAIGURI,WEST BENGAL,PIN 735133",9474936203,KOLKATA,JALPAIGURI,"WEST BENGAL"
"BANDHAN BANK LIMITED",BDBL0001105,851750102,BEGUSARAI,S,8877002200,PATNA,BEGUSARAI,BIHAR
"BANDHAN BANK LIMITED",BDBL0001104,757750002,BARIPADA,"STATION BAZAR,P.O.BARIPADA,DIST.MAYURBHANJ,ODISHA,PIN - 757001",7381086986,BHUBANESWAR,MAYURBHANJ,ODISHA
"BANDHAN BANK LIMITED",BDBL0001103,813750002,BANKA,"PANCH MUKHI,BAJARANGWALI CHAWLK,KATORIYA ROAD,VIJOY NAGAR,BANKA,BIHAR,PIN-813102",9973341222,PATNA,BANKA,BIHAR
"BANDHAN BANK LIMITED",BDBL0001102,855750501,BAHADURGANJ,"MAIN ROAD HARINAGAR CHOWK,FAIZI COMPLEX,P.O-BAHADURGANJ,DIST.KISHANGANJ,BIHAR,PIN-855101",9308111353,PATNA,KISHANGANJ,BIHAR
"BANDHAN BANK LIMITED",BDBL0001101,841750501,BABHNOULI,"VILL BABHNAULI,P.O.LANGARPURA,DIST.SIWAN,BIHAR,PIN -841239",66090909,PATNA,SARAN,BIHAR
"BANDHAN BANK LIMITED",BDBL0001100,812750501,BABHANGAMA,"VILL& P.O.BABHANGAMA,DIST.BHAGALPUR,BIHAR,PIN-853201",66090909,PATNA,BHAGALPUR,BIHAR
"BANDHAN BANK LIMITED",BDBL0001099,824750002,"AURANGABAD, BIHAR","M.G.ROAD,P.O-AURANGABAD,DIST.-AURANGABAD,BIHAR,PIN-824101",8755037666,PATNA,AURANGABAD,BIHAR
"BANDHAN BANK LIMITED",BDBL0001098,854750002,ARARIA,"GROUND FLOOR,ZERO MILE ROAD,NEAR KOSHIPOOL,WARD NO.-20,P.O.ARARIA,BIHAR,PIN-854311",9334491282,PATNA,ARARIA,BIHAR
"BANDHAN BANK LIMITED",BDBL0001097,742750501,AMTALA,"VILL & PO - AMTALA,DIST.-MURSHIDABAD,WEST BENGAL,PIN -742 121",8372930527,KOLKATA,MURSHIDABAD,"WEST BENGAL"
"BANDHAN BANK LIMITED",BDBL0001096,731750801,AHMEDPUR,"VILL & P.O.AHMADPUR BABU PARA,DIST.BIRBHUM,WEST BENGAL,PIN-731201",9126370500,KOLKATA,BIRBHUM,"WEST BENGAL"
"BANDHAN BANK LIMITED",BDBL0001095,785750502,DOIGRUNG,"VILL 2 NO.DOIGRUNG,P.O.LETEKUJAN,GOLAGHAT,ASSAM,PIN -785613",66090909,GUWAHATI,JORHAT,ASSAM
"BANDHAN BANK LIMITED",BDBL0001094,231750002,MIRZAPUR,"TRIVENI CAMPUS,RATAN GANJ,MIRZAPUR,KATRA KOTWALI,DIST.MIRZAPUR,UTTAR PRADESH,PIN-231001",9934079800,KANPUR,MIRZAPUR,"UTTAR PRADESH"
"BANDHAN BANK LIMITED",BDBL0001093,735750501,"DAKSHIN NARATHALI","VILL DAKHIN KAMAKHAGURI,P.O.KAMAKHAGURI,DIST.JALPAIGURI,W.BENGAL,PIN -736202",8372057023,KOLKATA,JALPAIGURI,"WEST BENGAL"
"BANDHAN BANK LIMITED",BDBL0001092,736750702,"DAKSHIN PARANGERPARA","VILL DAKSHIN PARANGERPARA,P.O.FALAKATA,DIST.ALIPURDUAR,WEST BENGAL,PIN-735211",9832860345,KOLKATA,JALPAIGURI,"WEST BENGAL"
"BANDHAN BANK LIMITED",BDBL0001091,731750202,SAINTHIA,"SAINTHIA-SURI MIN ROAD,P.O.SAINTHIA,DIST.BIRBHUM,WEST BENGAL,PIN-731234",9735423267,KOLKATA,BIRBHUM,"WEST BENGAL"
"BANDHAN BANK LIMITED",BDBL0001090,733750202,RAIGANJ,"P.O.RAIGANJ,M.G.ROAD,NEAR SBI,DIST.UTTAR DINAJPUR,WEST BENGAL,PIN -733134",8116341718,KOLKATA,"NORTH DINAJPUR","WEST BENGAL"
"BANDHAN BANK LIMITED",BDBL0001089,700750041,KALYANI,"B/8/33,C/A,WARD NO.12,KALYANI,G.P.ROAD,NADIA,WEST BENGAL,PIN -741235",7044061824,KOLKATA,NADIA,"WEST BENGAL"
"BANDHAN BANK LIMITED",BDBL0001088,834750002,RANCHI,"ANAND COMPLEX,OLD HB ROAD,P.O.LALPUR RANCHI,JHARKHAND,PIN-834001",9386727262,PATNA,RANCHI,JHARKHAND
"BANDHAN BANK LIMITED",BDBL0001087,741750302,NABADWIP,"110/6 NS ROADPOURASABHA MORE,NABADWIP,DIST.NADIA,WEST BENGAL,PIN-741302",9433307634,KOLKATA,NADIA,"WEST BENGAL"
"BANDHAN BANK LIMITED",BDBL0001086,700750028,"DIAMOND HARBOUR","MADHABPUR,HOLDING NO.83,P.O-DIAMOND HARBOUR,SOUTH 24 PARGANAS,WEST BENGAL,PIN -743331",9434649887,KOLKATA,"SOUTH 24 PARGANAS","WEST BENGAL"
"BANDHAN BANK LIMITED",BDBL0001085,NA,GANGAPUR,"VILL GANGAPUR NILGANJ ROAD,P.O.DUTTAPUKUR,DIST.NORTH 24 PARAGANAS,WEST BENGAL,PIN - 743248",9804439660,KOLKATA,"NORTH 24 PARGANAS","WEST BENGAL"
"BANDHAN BANK LIMITED",BDBL0001084,733750610,RUDEL,"VILL RUDEL RASHOKHOWAHAT,SILIGURI MORE,P.O.RASHOKHOWAHAT,WEST BENGAL,PIN-733201",8759612990,KOLKATA,"NORTH DINAJPUR","WEST BENGAL"
"BANDHAN BANK LIMITED",BDBL0001083,831750002,JAMSEDPUR,"PP TOWER,RAM MANDIR AREA,BISTUPUR,JAMSHEDPUR,JHARKHAND,PIN -831001",9934318058,PATNA,"EAST SINGHBHUM",JHARKHAND
"BANDHAN BANK LIMITED",BDBL0001082,700750054,"NALPUKUR BAGANATI","VILL NALPUKUR,NEAR COLLEGE MORE,P.O.BHANGAR,DIST.SOUTH 24 PARGANAS,WEST BENGAL PIN -743502",7797623008,KOLKATA,"SOUTH 24 PARGANAS","WEST BENGAL"
"BANDHAN BANK LIMITED",BDBL0001081,700750040,JOYNAGAR,"410 NS ROAD,JOYNAGAR,MOZILPUR,P.O -JOYNAGAR,SOUTH 24 PARGANAS,WEST BENGAL,PIN-743337",9874307113,KOLKATA,"SOUTH 24 PARGANAS","WEST BENGAL"
"BANDHAN BANK LIMITED",BDBL0001080,700750008,"BANGUR AVENUE",KANVNKKAAWSNAPIN-700055,9732004848,KOLKATA,"NORTH 24 PARGANAS","WEST BENGAL"
"BANDHAN BANK LIMITED",BDBL0001079,722750502,KANTABON,"VILL KANTABON,P.O.HATKRISHNANAGAR,DIST.BANKURA,WEST BENGAL,PIN-722206",7797580229,KOLKATA,BANKURA,"WEST BENGAL"
"BANDHAN BANK LIMITED",BDBL0001078,731750802,DUBRAJPUR,"BASAKPARA,P.O.DUBRAJPUR,DIST.BIRBHUM,WEST BENGAL,PIN-731123",8942082244,KOLKATA,BIRBHUM,"WEST BENGAL"
"BANDHAN BANK LIMITED",BDBL0001077,734750601,BHAKTINAGAR,"VILL BHAKTINAGAR,P.O.PHANSIDEWA,DIST.DARJEELING,WEST BENGAL,PIN-734434",8370891826,KOLKATA,DARJEELING,"WEST BENGAL"
"BANDHAN BANK LIMITED",BDBL0001076,733750607,PORSA,"VILL PORSA,P.O.ITAHAR,UTTAR DINAJPUR,WEST BENGAL,PIN - 733128",9475719160,KOLKATA,"NORTH DINAJPUR","WEST BENGAL"
"BANDHAN BANK LIMITED",BDBL0001075,733750604,KAMLAI,"VILL & P.O.KAMALAI,WEST BENGAL,PIN-733143",8172073442,KOLKATA,"NORTH DINAJPUR","WEST BENGAL"
"BANDHAN BANK LIMITED",BDBL0001074,741750503,NATNA,"VILL NATNA,P.O.NATNA PATABUKA,DIST.NADIA,KARIMPUR,WEST BENGAL,PIN-741122",9775251695,KOLKATA,NADIA,"WEST BENGAL"
"BANDHAN BANK LIMITED",BDBL0001073,700750020,"CHAK KANTHALIA","VILL CHALK KANTALIABARASAT ROAD,P.O.SEWLI TELINI PARA,WEST BENGAL,PIN -700121",7890369026,KOLKATA,"NORTH 24 PARGANAS","WEST BENGAL"
"BANDHAN BANK LIMITED",BDBL0001072,712750601,BALARAMBATI,"BALARAMBATI,SINGUR,P.O.BALARAMBATI,DIST.HOOGHLY,WEST BENGAL,PIN-712409",8013679698,KOLKATA,HOOGHLY,"WEST BENGAL"
"BANDHAN BANK LIMITED",BDBL0001071,700750011,"BARASAT CHAMPADALI MORE","ASOKE NILOY,77,VIVEKANANDA ROAD,BARASAT CHAMPADALI,P.O.BARASAT,KOLKATA,WEST BENGAL,PIN -700124",9051733633,KOLKATA,"NORTH 24 PARGANAS","WEST BENGAL"
"BANDHAN BANK LIMITED",BDBL0001070,733750609,RATANPUR,"P.O.BINDOLE,UTTAR DINAJPUR,WEST BENGAL,PIN-733156",7602774422,KOLKATA,"NORTH DINAJPUR","WEST BENGAL"
"BANDHAN BANK LIMITED",BDBL0001069,700750037,"GUZARPUR, GHOSHPARA","SHREE KRISHNA APPARTEMENT,1ST FLOOR,KALATALA,VILL GUZARPUR,P.O.AMTA,DIST.HOWRAH,WEST BENGAL,PIN - 711401",9647204361,KOLKATA,HOWRAH,"WEST BENGAL"
"BANDHAN BANK LIMITED",BDBL0001068,733750601,BEJUAR,"SK.KAMARUDDIN,VILL BOIJUAR,P.O.TUNGIDIGHI,DIST.UTTAR DINAJPUR,WEST BENGAL,PIN - 733215",8436523683,KOLKATA,"NORTH DINAJPUR","WEST BENGAL"
"BANDHAN BANK LIMITED",BDBL0001067,700750501,GURDHA,"VILL-GURDAHA,P.O.BADURIA,DIST.NORTH 24 PARGANAS,WEST BENGAL,PIN-743401",8145231887,KOLKATA,"NORTH 24 PARGANAS","WEST BENGAL"
"BANDHAN BANK LIMITED",BDBL0001066,741750603,PAMLIA,"VILL & MOUZA-PUMLIA,P.O.CHAKDAH,DIST.NADIA,WEST BENGAL,PIN -741222",8541074697,KOLKATA,NADIA,"WEST BENGAL"
"BANDHAN BANK LIMITED",BDBL0001065,721750807,SARBERA,"VILLSARBERA,P.O.SAT BANKURA,DIST.PASCHIM MEDINIPUR,WEST BENGAL,PIN -721253",983608335,KOLKATA,"WEST MEDINIPUR","WEST BENGAL"
"BANDHAN BANK LIMITED",BDBL0001064,733750605,KASIMPUR,"VILL.KASHIMPUR,P.O.HEMTABAD,DIST.NORTH DINAJPUR,WEST BENGAL,PIN - 733144",956333720,KOLKATA,"NORTH DINAJPUR","WEST BENGAL"
"BANDHAN BANK LIMITED",BDBL0001063,700750006,BAGNAN,"O.T.ROAD WEST,OPP PASCHIMBANGA GRAMIN BANK,P.O.BAGNAN,DIST.HOWRAH,WEST BENGAL,PIN-711303",9046079490,KOLKATA,HOWRAH,"WEST BENGAL"
"BANDHAN BANK LIMITED",BDBL0001062,712750606,SONATALA,"VILL & P.O.- SONATALA,OPP.TARUN SANGHA CLUB,DIST-HOWRAH,WEST BENGAL,PIN-711412",8972231558,KOLKATA,HOWRAH,"WEST BENGAL"
"BANDHAN BANK LIMITED",BDBL0001061,700750051,MIRBAZAR,"VILL MIR BAZAR,P.O.PANCHLA,NEAR AZIM HIGH SCHOOL,WEST BENGAL,PIN - 711322",66090909,KOLKATA,HOWRAH,"WEST BENGAL"
"BANDHAN BANK LIMITED",BDBL0001060,721750803,"GANAK BANDHI","VILL GANAKBANDHI,P.O.AMLAGORA,GARBETA,DIST.PASCHIM MEDINIPUR,WEST BENGAL,PIN - 721121",8001410370,KOLKATA,"WEST MEDINIPUR","WEST BENGAL"
"BANDHAN BANK LIMITED",BDBL0001059,700750077,"UTTAR GARDAHA","FIRST FLOOR VILL UTTAR GARDAHA,P.O.HAROA,WEST BENGAL,PIN -743425",9153283018,KOLKATA,"NORTH 24 PARGANAS","WEST BENGAL"
"BANDHAN BANK LIMITED",BDBL0001058,700750060,RAJAPUR,"VILL RAJAPUR,P.O-TALDI,PS-CANNING,DIST-SOUTH 24 PARGANAS,WEST BENGAL,PIN-743376",8371973008,KOLKATA,"SOUTH 24 PARGANAS","WEST BENGAL"
"BANDHAN BANK LIMITED",BDBL0001057,721750051,SHARRANG,"VILL.SHARRANG,PO JAHALDA,DIST.PURBA MEDINIPUR,WEST BENGAL,PIN - 721143",9732827416,KOLKATA,"EAST MEDINIPUR","WEST BENGAL"
"BANDHAN BANK LIMITED",BDBL0001056,700750021,CHAMRAIL,"APARNA BHAWAN,P.O & VILL CHAMRAIL,DIST.HOWRAH,WEST BENGAL,PIN -711114",9860749385,KOLKATA,HOWRAH,"WEST BENGAL"
"BANDHAN BANK LIMITED",BDBL0001055,722750501,GANTI,"VILL GANTI,P.O.KATILPUR,DIST.BANKURA,WEST BENGAL,PIN -722141",9732865558,KOLKATA,BANKURA,"WEST BENGAL"
"BANDHAN BANK LIMITED",BDBL0001054,741750504,"PURBA JAGANANANDAPUR","VILL.PURBA JAGANANANDAPUR,P.O.BETHUADAHARI,STATION PARA GROUND FLOOR,NAKASHIPARA,WEST BENGAL,PIN -741126",965313336,KOLKATA,NADIA,"WEST BENGAL"
"BANDHAN BANK LIMITED",BDBL0001053,743750506,SIMULIA,"NEAR KALI BARI,VILL. & P.O.SIMULIA,DIST.NORTH 24 PARGANAS,WEST BENGAL,PIN-743426",8336062049,KOLKATA,"NORTH 24 PARGANAS","WEST BENGAL"
"BANDHAN BANK LIMITED",BDBL0001052,741750701,KUTIPARA,"VILL KUTIPARA,P.O.BAGULA,HANSHKHALI,WEST BENGAL,PIN-741502",8609828600,KOLKATA,NADIA,"WEST BENGAL"
"BANDHAN BANK LIMITED",BDBL0001051,743750501,BASIRHAT,"VILL-MIRZAPUR,P.O.BASIRHAT COLLEGE,DIST.NORTH 24 PARGANAS,WEST BENGAL,PIN -743412",66090909,KOLKATA,"NORTH 24 PARGANAS","WEST BENGAL"
"BANDHAN BANK LIMITED",BDBL0001050,743750503,NALDUGARI,"VILL-CHARMANDAL,PO-NALDUGARI,DIST.NORTH 24 PARGANAS,WEST BENGAL,PIN -743297",9609879499,KOLKATA,"NORTH 24 PARGANAS","WEST BENGAL"
"BANDHAN BANK LIMITED",BDBL0001049,741750502,HAJRAPOTA,"HAZRAPOTA,MIRA BAZAR,P.O.PLASSEY NEAR ROP CAMP DIST.NADIA,WEST BENGAL,PIN-741156",7710065538,KOLKATA,NADIA,"WEST BENGAL"
"BANDHAN BANK LIMITED",BDBL0001048,732750504,KADUBARI,"VILL KADUBARI,P.O.GAZOL,DIST.MALDA,GAZOLE,WEST BENGAL,PIN - 732124",9851715743,KOLKATA,MALDA,"WEST BENGAL"
"BANDHAN BANK LIMITED",BDBL0001047,742750002,BERHAMPORE,"34 S.N.BHATTACHARJEE ROAD,DIST.MURSHIDABAD,WEST BENGAL,PIN-742101",9830045201,KOLKATA,MURSHIDABAD,"WEST BENGAL"
"BANDHAN BANK LIMITED",BDBL0001046,734750604,PANITANKI,"VILL GANDOGOL JOTE,P.O.DULAL JOTE,DIST.DARJEELING,WEST BENGAL,PIN -734429",8170927071,KOLKATA,DARJEELING,"WEST BENGAL"
"BANDHAN BANK LIMITED",BDBL0001045,732750506,MAKULI,"P.O.PAKUAHAT,DIST.MALDA,WEST BENGAL,PIN-732138",8017793004,KOLKATA,MALDA,"WEST BENGAL"
"BANDHAN BANK LIMITED",BDBL0001044,721750302,MIDNAPUR,"BATTALA CHOWK,HOSPITAL ROAD,HOLDING NO.37/33,WARD NO.12,ROY TYRE BUILDING,PASCHIM MEDINIPUR,WEST BENGAL,PIN -721101",9830885957,KOLKATA,"WEST MEDINIPUR","WEST BENGAL"
"BANDHAN BANK LIMITED",BDBL0001043,721750701,BHAGAWANPUR,"VILL BHAGABANPUR,P.O.MANGLAMARO,PATASHPUR,WEST BENGAL,PIN -721434",7797450321,KOLKATA,"EAST MEDINIPUR","WEST BENGAL"
"BANDHAN BANK LIMITED",BDBL0001042,743750504,SARAPUL,"VILL & PO-SANRAPUL,DIST.NORTH 24 PARGANAS,WEST BENGAL,PIN-743286",9051620997,KOLKATA,"NORTH 24 PARGANAS","WEST BENGAL"
"BANDHAN BANK LIMITED",BDBL0001041,700750056,NARIKELBAR,"RAKHAL DAS MARKET,VILL NARIKELBARH,P.O.SHYAMPUR,DIST.HOWRAH,WEST BENGAL,PIN-711314",9735764207,KOLKATA,HOWRAH,"WEST BENGAL"
"BANDHAN BANK LIMITED",BDBL0001040,741750605,SIMHAT,"VILL.&P.O.SIMHAT,DIST.NADIA,DIST.NADIA,WEST BENGAL,PIN-741249",8334939585,KOLKATA,"NORTH 24 PARGANAS","WEST BENGAL"
"BANDHAN BANK LIMITED",BDBL0001039,732750102,ENGLISHBAZAR,"SHAKUNTALA APARTMENT,NEAR PURNO LODGE,MANASKAMANA ROAD,KANIR MORE,P.O. & DIST.MALDA,WEST BENGAL,PIN-732101",9733333933,KOLKATA,MALDA,"WEST BENGAL"
"BANDHAN BANK LIMITED",BDBL0001038,700750027,DEGANGA,"VILL. & P.O -DEGANGA,DIST -NORTH 24 PGS.DEGANGA BAZAR,TAKI ROAD,WEST BENGAL,PIN - 743423",9775256181,KOLKATA,"NORTH 24 PARGANAS","WEST BENGAL"
"BANDHAN BANK LIMITED",BDBL0001037,700750030,DONGARIA,"VILL. & P.O.POALI,DIST.SOUTH 24 PGS,WEST BENGAL,PIN - 743318",9563385617,KOLKATA,"SOUTH 24 PARGANAS","WEST BENGAL"
"BANDHAN BANK LIMITED",BDBL0001036,743750502,KEOTOSHA,"VILL-KEOTSHA,P.O.BURUZ,P.O.BADURIA,DIST.NORTH 24 PARGANAS,WEST BENGAL,PIN-743401",8145576358,KOLKATA,"NORTH 24 PARGANAS","WEST BENGAL"
"BANDHAN BANK LIMITED",BDBL0001035,752750002,PURI,"PLOT.NO.41,NEAR PKDA OFFICE,VIP ROAD,P.O.PURI,ORISSA,PIN 752001",66090909,PURI,PURI,ODISHA
"BANDHAN BANK LIMITED",BDBL0001034,721750801,BAGHADARI,"VILL. & P.O.BAGHADARI,DIST.PURBA MEDINIPUR,BHUPATINAGAR,WEST BENGAL,PIN - 721425",8348484550,KOLKATA,"EAST MEDINIPUR","WEST BENGAL"
"BANDHAN BANK LIMITED",BDBL0001033,712750603,GOPINAGAR,"VILL.GOPINAGAR,GANGULIPARA,P.O.HARIPAL,DIST.HOOGHLY,WEST BENGAL,PIN-712403",66090909,KOLKATA,HOOGHLY,"WEST BENGAL"
"BANDHAN BANK LIMITED",BDBL0001032,700750069,SERAMPORE,"100 GT ROAD,SIRISHTALA SRIRAMPUR,DIST.HOOGHLY,WEST BENGAL,PIN -712201",9830030589,KOLKATA,HOOGHLY,"WEST BENGAL"
"BANDHAN BANK LIMITED",BDBL0001031,700750078,UTTARPARA,"38/16,NEW G.T.ROAD,P.O.UTTARPARA,HOOGHLY,WEST BENGAL,PIN-712258",983002330,KOLKATA,HOOGHLY,"WEST BENGAL"
"BANDHAN BANK LIMITED",BDBL0001030,751750003,BHUBANESWAR,"LTN 10,JANPATH,O SATYANAGAR,BHUBANESWAR,DIST KHURDA,STATEODISHA,IN-751001",66090909,CUTTACK,KHURDA,ODISHA
"BANDHAN BANK LIMITED",BDBL0001029,743750505,SEKATI,"VILL & PO - CHEKATI,DIST.NORTH 24 PARGANAS,WEST BENGAL,PIN -743245",8101720110,KOLKATA,"NORTH 24 PARGANAS","WEST BENGAL"
"BANDHAN BANK LIMITED",BDBL0001028,NA,RAJPUR,NA,66090909,KOLKATA,"SOUTH 24 PARGANAS","WEST BENGAL"
"BANDHAN BANK LIMITED",BDBL0001027,700750085,BARUIPUR,"104 A,KULPI ROAD,BARUIPUR,KOLKATA,WEST BENGAL,PIN 700144",66090909,KOLKATA,"SOUTH 24 PARGANAS","WEST BENGAL"
"BANDHAN BANK LIMITED",BDBL0001026,713750002,ASANSOL,"JCC PLAZA,NEAR KALIBARI,HUTTON ROAD,ASANSOL,DIST.BURDWAN,WEST BENGAL,PIN-713301",9933789707,KOLKATA,BARDHAMAN,"WEST BENGAL"
"BANDHAN BANK LIMITED",BDBL0001025,422750201,SANGAMNER,"1ST FLOOR,MALPANI PLAZA,OMKARNATHJI MALPANI MARG,I.G.ROAD,SANGAMNER,DIST-AHMEDNAGAR,MAHARASHTRA,PIN -422605",66090909,PUNE,AHMEDNAGAR,MAHARASHTRA
"BANDHAN BANK LIMITED",BDBL0001024,700750038,HABRA,"VILL-KAMARTHUBA,HABRA,JESSORE ROAD,NH 35,NETAJI MORE,BULIDING NO 79/78 POST-HABRA,DIST.NORTH 24 PARGANAS,WEST BENGAL,PIN-743263",9830556165,KOLKATA,"NORTH 24 PARGANAS","WEST BENGAL"
"BANDHAN BANK LIMITED",BDBL0001023,700750044,KASBA,"267,RAJDANGA NABAPALLY,KASBA,KOLKATA,WEST BENGAL,PIN -700107",9830118133,KOLKATA,KOLKATA,"WEST BENGAL"
"BANDHAN BANK LIMITED",BDBL0001022,700750043,KANKURGACHI,"P -184,CIT SCHEME-VI M,GROUND FLOOR,KOLKATA,WEST BENGAL,PIN - 700054",8017761608,KOLKATA,KOLKATA,"WEST BENGAL"
"BANDHAN BANK LIMITED",BDBL0001021,700750055,NARAYANPUR,"KRISHTI PLAZA KALIPARK,BABLATALA,P.O.RAJARHAT GOPALPUR,DIST.24 PGSN,KOLKATA - 700136,WEST BENGAL",7044097322,KOLKATA,"NORTH 24 PARGANAS","WEST BENGAL"
"BANDHAN BANK LIMITED",BDBL0001020,700750049,MADHYAMGRAM,"237,SODEPUR ROAD,MADHYAMGRAM,KOLKATA 700129,WEST BENGAL",9831137259,KOLKATA,"NORTH 24 PARGANAS","WEST BENGAL"
"BANDHAN BANK LIMITED",BDBL0001019,700750065,"SANPUIPARA BASUKATI","SAPUIPARA BASUKATI CO-OPERATIVE BUILDING,VILL -NAWPATTY,KOMILLAPARA,P.O -SAPUIPARA,DIST -HOWRAH,WEST BENGAL,PIN -711227",8013053573,KOLKATA,HOWRAH,"WEST BENGAL"
"BANDHAN BANK LIMITED",BDBL0001018,700750047,KONNAGAR,"N133/1 INDIRA GANDHI ROAD,P.O.KONNAGAR,DIST.HOOGHLY,PIN-712235",9433005518,KOLKATA,HOOGHLY,"WEST BENGAL"
"BANDHAN BANK LIMITED",BDBL0001017,415750352,"MALKAPUR KARAD","295 2,SHRIRAM NIWAS,PUNE -BANGLORE ROAD,SHASTRINAGAR,MALKAPUR,KARAD,DIST.SATARA,MAHARASHTRA,PIN -415110",66090909,PUNE,SATARA,MAHARASHTRA
"BANDHAN BANK LIMITED",BDBL0001016,700750058,"NEW GARIA","24,SREENAGAR MAIN ROAD,P.O.-SONARPUR,KOLKATA,WEST BENGAL,PIN-700094",9674569477,KOLKATA,"SOUTH 24 PARGANAS","WEST BENGAL"
"BANDHAN BANK LIMITED",BDBL0001015,700750071,SONARPUR,"SONARPUR STATION ROAD,KAMRABAD,P.O-SONARPUR,SOUTH 24 PGS,WEST BENGAL,PIN -700150",9051172789,KOLKATA,"SOUTH 24 PARGANAS","WEST BENGAL"
"BANDHAN BANK LIMITED",BDBL0001014,700750002,"AKRA FATAK","W/197A,S.A.FAROOQUE ROAD,RABINDRA NAGAR,WEST BENGAL,KOLKATA-700018",9830416787,KOLKATA,KOLKATA,"WEST BENGAL"
"BANDHAN BANK LIMITED",BDBL0001013,431750002,AURANGABAD,"PLOT NO.4,YESHWANT CO OPERATIVE SOCIETY,NEAR PAWAN GAS AGENCIES,NEW OSMANPURA,AURANGABAD,MAHARASHTRA,PIN 431005",66090909,PUNE,AURANGABAD,MAHARASHTRA
"BANDHAN BANK LIMITED",BDBL0001012,700750010,BARASAT,"1ST.FLOOR,44,KRISHNANAGAR ROAD,SUDHA APARTMENT,P.O.NABAPALLY,WEST BENGAL,PIN - 700126",9088010129,KOLKATA,"NORTH 24 PARGANAS","WEST BENGAL"
"BANDHAN BANK LIMITED",BDBL0001011,700750064,"SALT LAKE SECTOR V DN","DN-32,SECTOR -V,SALT LAKE CITY,KOLKATA,WEST BENGAL,PIN -700091",9836172345,KOLKATA,"NORTH 24 PARGANAS","WEST BENGAL"
"BANDHAN BANK LIMITED",BDBL0001002,NA,CPU,"DN-32,SECTOR -V,SALT LAKE CITY,KOLKATA,WEST BENGAL,PIN -700091",66090909,KOLKATA,"NORTH 24 PARGANAS","WEST BENGAL"
"BANDHAN BANK LIMITED",BDBL0001001,NA,TREASURY,"DN-32,SECTOR -V,SALT LAKE CITY,KOLKATA,WEST BENGAL,PIN -700091",66090909,KOLKATA,"NORTH 24 PARGANAS","WEST BENGAL"
"BANDHAN BANK LIMITED",BDBL0001000,NA,"HO ACCOUNTS","DN-32,SECTOR -V,SALT LAKE CITY,KOLKATA,WEST BENGAL,PIN -700091",66090909,KOLKATA,"NORTH 24 PARGANAS","WEST BENGAL"
