BANK,IFSC,MICR,BRANCH,ADDRESS,CONTACT,CITY,DISTRICT,STATE
"KARNATAKA BANK LIMITED",KARB0000963,560052097,"BENGALURU-ELECTRONIC CITY PHASE I","D.NO.152/5,E K PLAZA,NEELADRI LAYOUT,OPP. FERNHILLS APARTMENTS,DODDATHOGURU,ELECTRONIC CITY PHASE-1,BENGALURU-560100",0,BENGALURU,"BENGALURU URBAN",KARNATAKA
"KARNATAKA BANK LIMITED",KARB0000962,560052096,"KUMARASWAMY LAYOUT","D.NO.1814,GROUND FLOOR,SABAGIRI,50 FEET ROAD,BENGALURU-KUMARASWAMY LAYOUT-560078",0,BENGALURU,"BENGALURU URBAN",KARNATAKA
"KARNATAKA BANK LIMITED",KARB0000960,574052524,"BALEPUNI GP","GROUND FLOOR,NEAR BUS STOP,BALEPUNI VILLAGE & GP-574153, BANTWAL TALUK",273022,"BANTWAL TALUK","DAKSHINA KANNADA",KARNATAKA
"KARNATAKA BANK LIMITED",KARB0000959,560052095,"BENGALURU-SIR M VISHWESWARAIAH LAYOUT","D.NO.154,2ND MAIN,8TH BLOCK,BENGALURU-SIR M.VISHWESWARAIAH LAYOUT,BENGALURU-560091",0,BENGALURU,"BENGALURU URBAN",KARNATAKA
"KARNATAKA BANK LIMITED",KARB0000958,590052007,"BELAGAVI-ADARSH NAGARA","CTS NO.123,GROUND FLOOR,VADAGAON ROAD,RPD CROSS ROAD,ADARSH NAGAR,BELAGAVI-590005",9449511958,BELAGAVI,BELAGAVI,KARNATAKA
"KARNATAKA BANK LIMITED",KARB0000957,583052103,"GANDHI NAGAR","D.NO.20,GOWDA&CO.BUILDING,SANGANKAL ROAD,GANDHI NAGAR,BALLARI-583103",9036842304,BALLARI,BALLARI,KARNATAKA
"KARNATAKA BANK LIMITED",KARB0000956,560052092,ANDRAHALLI,"NO.595, D EMPLOYEES HOUSE BUILDING COOPERATIVE SOCIETY, NEAR MAGADI ROAD, ANDRAHALLI, BENGALURU - 560091",8762017108,BENGALURU,BENGALURU,KARNATAKA
"KARNATAKA BANK LIMITED",KARB0000955,560052089,"BENGALURU AKSHAYANAGAR","SITE NO.12 & 14, ESHAN PLAZA, YELANAHALLI MAIN ROAD, OFF.BANNERGHATTA ROAD, AKSHAYANAGAR-560114",0,BENGALURU,BENGALURU,KARNATAKA
"KARNATAKA BANK LIMITED",KARB0000954,560052088,"BENGALURU ANANDAPURA","NO.1A/1B, SONNATHAMMANAHALLI, T C PALYA MAIN ROAD, ANANDAPURA, BENGALURU",9483421665,BENGALURU,"BENGALURU URBAN",KARNATAKA
"KARNATAKA BANK LIMITED",KARB0000953,560052501,"BUDIHAL GP","NO 237,BUDIHAL GP-562123 NELAMANAGALA TALUK",0,BENGALURU,"BENGALURU RURAL",KARNATAKA
"KARNATAKA BANK LIMITED",KARB0000952,560052086,"BENGALURU WHITEFIELD","NO 210, CHANNASANDRA KADUGODI POST, WHITEFIELD BENGALURU 560067",7022906066,WHITEFIELD,"BENGALURU URBAN",KARNATAKA
"KARNATAKA BANK LIMITED",KARB0000951,573052518,BANAVARA,"65 93, BANASHANKARI BADAVANE, B H ROAD, BANAVARA 573112 ARASIKERE TQ",9480842382,BANAVARA,HASSAN,KARNATAKA
"KARNATAKA BANK LIMITED",KARB0000950,NA,"RO BANGALORE","MOHAN MANSION,  2ND FLOOR, 105,KASTURBAROAD, BANGALORE, PIN - 560001",22955806,BANGALORE,BANGALORE,KARNATAKA
"KARNATAKA BANK LIMITED",KARB0000949,695052003,BALARAMAPURAM,"BP V 1751, ORION PLAZA, MAIN ROAD, NEAR RELIANCE PUMP, BALARAMAPURAM 695501",8547033971,BALARAMAPURAM,THIRUVANANTHAPURAM,KERALA
"KARNATAKA BANK LIMITED",KARB0000948,560052082,"BENGALURU BEML LAYOUT","GROUND FLOOR, D NO 22 23 2ND PHASE, 5TH STAGE, 60 FEET ROAD, RAJARAJESHWARI NAGAR, BEML LAYOUT, BENGALURU 5600698",0,BENGALURU,"BENGALURU URBAN",KARNATAKA
"KARNATAKA BANK LIMITED",KARB0000947,462052003,"BHOPAL ROHITNAGAR","467 479, GROUND FLOOR, PHASE I, E 8 EXTENSION, GULMOHAR COLONY, ROHITNAGAR, BHOPAL 462039",7583890980,BHOPAL,BHOPAL,"MADHYA PRADESH"
"KARNATAKA BANK LIMITED",KARB0000946,577052570,"BUDIHAL VILLAGE","FIRST FLOOR, KHATA NO. 377, DAVANGERE MALEBENNUR MAIN ROAD NITTUR POST, BUDIHAL VILLAGE 577530 DEVARABALEKERE",0,BUDIHAL,DAVANGERE,KARNATAKA
"KARNATAKA BANK LIMITED",KARB0000945,560052083,"BENGALURU KAGGADASAPURA","GROUND FLOOR, SITE NO 9, KH NO. 151 2 MAIN ROAD,KAGGADASAPURA, BENGALURU-560093",9901384525,BENGALURU,"BENGALURU URBAN",KARNATAKA
"KARNATAKA BANK LIMITED",KARB0000944,534052402,BHIMAVARAM,"FIRST FLOOR, NO 3 13 27, SRI RAMA KUSUMA PLAZA, JUVVALA PALEM ROAD, BHIMAVARAM 534202",9985031318,BHIMAVARAM,"WEST GODAVARI","ANDHRA PRADESH"
"KARNATAKA BANK LIMITED",KARB0000943,575052034,"BELMA DERLAKATTE","SY NO 57 1A1 P OPP YENOPOYA MEDICAL COLLEGE, KUTTAR PADAVU, BELMA VILLAGE, DERALAKATTE, MANGALORE 575018",9449000545,BELMA,"DAKSHIN KANNAD",KARNATAKA
"KARNATAKA BANK LIMITED",KARB0000942,560052087,"BENGALURU KOTHANUR","GROUND FLOOR, SY.NO.125,HENNUR-BAGALUR MAIN ROAD, KOTHANUR",9900162526,BENGALURU,"BENGALURU URBAN",KARNATAKA
"KARNATAKA BANK LIMITED",KARB0000941,364052002,BHAVNAGAR,"NO 11A, VRAJ RENU, WAGHAWADI ROAD BHAVNAGAR 364002 GUJARAT",9925329173,BHAVNAGAR,BHAVNAGAR,GUJARAT
"KARNATAKA BANK LIMITED",KARB0000940,560052081,"BANGALORE CHANDAPURA","SITE NO 17,CHANDAPURA ATTIBELE ROAD,EGGALUR VILLAGE,CHANDAPURA, BANGALORE 560 081",9611117219,BANGALORE,BANGALORE,KARNATAKA
"KARNATAKA BANK LIMITED",KARB0000939,560052079,"BANGALORE BHUVANESHWARI NAGAR","NO 164 SAI SAPTHAMI 13TH MAIN 5TH CROSS COFFEE BOARD LAYOUT KEMPAPURA,BHUVANESHWARI NAGAR",9845034814,BANGALORE,BANGALORE,KARNATAKA
"KARNATAKA BANK LIMITED",KARB0000938,563052502,BANGARPET,"GROUND FLOOR,KH NO 374 3147 2762,KOLAR MAIN ROAD, NEAR TALUK OFFICE,BANGARPET 563 114",9481575938,BANGARPET,KOLAR,KARNATAKA
"KARNATAKA BANK LIMITED",KARB0000937,560052077,"PADMANABHA NAGAR","GANGOTRI PAVITHRA PARADISE,UTTARAHALLI MAIN ROAD,KANAKA LAYOUT,PADMANABHA NAGAR,BANGALORE 560 070",7795115343,BANGALORE,"BANGALORE URBAN",KARNATAKA
"KARNATAKA BANK LIMITED",KARB0000936,577052563,"BELIMALLUR GP","NANDIGUDI ROAD,BELIMALLUR 577 217",9448919618,DAVANGERE,DAVANGERE,KARNATAKA
"KARNATAKA BANK LIMITED",KARB0000935,NA,"BIJAPUR JALANAGAR EXTENSION","GROUND FLOOR,PLOPT NO 69,JALANAGAR EXTENSION,BIJAPUR 586 109",9880865851,BIJAPUR,BIJAPUR,KARNATAKA
"KARNATAKA BANK LIMITED",KARB0000934,560052076,NAGADEVANAHALLI,"TEJAS ARCADE,GAVIPURAM HSBC LAYOUT,60 FEET ROAD,NAGADEVANAHALLI,BANGALORE 560 056",9844048916,BANGALORE,"BANGALORE URBAN",KARNATAKA
"KARNATAKA BANK LIMITED",KARB0000933,WAITING,"BAVDHAN BUDRUK","ATHARVA BLISS, C-BUILDING,GROUND FLOOR,SY NO.13/1,14/1,BAVDHAN BUDRUK",9075001799,PUNE,PUNE,MAHARASHTRA
"KARNATAKA BANK LIMITED",KARB0000932,301052051,BHIWADI,"PLOT NO A 7,BHAGAT SINGH COLONY,OPP ASHIYANA BAGEECHA,BHIWADI 302 019,ALWAR DISTRICT,RAJASTHAN STATE",9654995423,ALWAR,ALWAR,RAJASTHAN
"KARNATAKA BANK LIMITED",KARB0000931,587052503,BADAMI,"NARONI BUILDING, STATION ROAD, BADAMI - 587201, BAGALKOT DISTRICT",221444,BADAMI,BAGALKOT,KARNATAKA
"KARNATAKA BANK LIMITED",KARB0000930,560052074,"BETTAKOTE GP","BUDIGERE ROAD, BETTAKOTE VILLAGE & GRAMA PANCHAYTH - 562110",9141769714,DEVANAHALLI,"BANGALORE RURAL",KARNATAKA
"KARNATAKA BANK LIMITED",KARB0000929,577052555,"BABBUR GP","HIRIYUR-DARMAPURA MAIN ROAD, NEAR RANGANATHSWAMY TEMPLE, BABBUR-577598, HIRIYUR TALUK.",9483570929,HIRIYUR,CHITRADURGA,KARNATAKA
"KARNATAKA BANK LIMITED",KARB0000928,573052511,BELUR,"FIRST FLOOR, GAYATHRI COMPLEX, DEVANGA STREET, BELUR - 573215",290098,BELUR,HASSAN,KARNATAKA
"KARNATAKA BANK LIMITED",KARB0000927,571052534,BHARATHINAGAR,"K L GOWDA COMPLEX, BANGALORE-KOLLEGAL HIGHWAY ROAD, BHARATHINAGAR - 571422",261444,MANDYA,MANDYA,KARNATAKA
"KARNATAKA BANK LIMITED",KARB0000926,560052073,BANGALORE-PEENYA,"GROUND FLOOR, NO. B.354, PEENYA INDUSTRIAL ESTATE, FIRST STAGE, PEENYA, BANGALORE-560058",28398807,BANGALORE,BANGALORE-URBAN,KARNATAKA
"KARNATAKA BANK LIMITED",KARB0000925,577052558,BIRUR,"KARGAL ROAD, BIRUR - 577116, KADUR TALUK",255001,BIRUR,CHIKMAGALUR,KARNATAKA
"KARNATAKA BANK LIMITED",KARB0000924,590052006,BAILHONGAL,"MOTIBAG INDUSTRIES PVT LTD COMPOUND, OZONE COMPLEX, BELGAUM ROAD, BAILHONGAL - 591102",233266,BAILHONGAL,BELGAUM,KARNATAKA
"KARNATAKA BANK LIMITED",KARB0000923,560052069,BILEKAHALLI,"D.NO.856, BILEKAHALLI MAIN ROAD, OFF BANNERGHATTA ROAD, IIM POST, BILEKAHALLI, BANGALORE - 560076",26484557,BANGALORE,"BANGALORE URBAN",KARNATAKA
"KARNATAKA BANK LIMITED",KARB0000922,560052070,"J P NAGAR 7TH PHASE","KOTHANUR MAIN ROAD, WILSON GARDEN HOUSE BUILDING, CO-OPERATIVE SOCIETY LAYOUT, J P NAGAR 7TH PHASE, BANGALORE - 560078",26852025,BANGALORE,"BANGALORE URBAN",KARNATAKA
"KARNATAKA BANK LIMITED",KARB0000921,560052068,NAGARABHAVI,"80 FEET ROAD, OPP. BWSSB OFFICE, 6TH BLOCK, II STAGE, NAGARABHAVI, BANGALORE - 560072",23180275,BANGALORE,"BANGALORE URBAN",KARNATAKA
"KARNATAKA BANK LIMITED",KARB0000920,560052066,KASTURINAGAR,"NO. 303, GROUND FLOOR, 2ND MAIN ROAD, KASTURINAGAR, BANGALORE - 560043.",22955935,BANGALORE,BANGALORE,KARNATAKA
"KARNATAKA BANK LIMITED",KARB0000919,560052067,KASAVANAHALLI,"OPPOSITE TO SILVER WOOD REGENCY, KASAVANAHALLI MAIN ROAD, OFF SARJAPURA ROAD, KASAVANAHALLI, BANGALORE - 560035",25741975,BANGALORE,BANGALORE,KARNATAKA
"KARNATAKA BANK LIMITED",KARB0000918,585052506,BASAVAKALYAN,"MIG-2, CMC NO-8616/2, MAIN ROAD, NEAR HARALAYYA CHOWK, BASAVAKALYAN - 585327, BIDAR DIST.",252438,BASAVAKALYAN,BIDAR,KARNATAKA
"KARNATAKA BANK LIMITED",KARB0000917,751052003,"JAYADEV VIHAR","PLOT NO. 737/2, 1ST FLOOR, JAYADEV VIHAR, BHUBANESHWAR - 751013",2360174,BHUBANESHWAR,BHUBANESHWAR,ODISHA
"KARNATAKA BANK LIMITED",KARB0000916,560052065,RAJARAJESHWARINAGAR,"GROUND FLOOR,NO.549,IDEAL HOMES, NEAR RAJARAJESHWARI TEMPLE,RAJARAJESHWARI NAGAR,BANGALORE - 560098",22955932,BANGALORE,BANGALORE,KARNATAKA
"KARNATAKA BANK LIMITED",KARB0000915,700052010,BARUIPUR,"FIRST FLOOR, D. NO. 116/7, KULPI ROAD, PODAPUKUR,BARUIPUR - 700144",24230522,BARUIPUR,"SOUTH - 24 PARAGANAS","WEST BENGAL"
"KARNATAKA BANK LIMITED",KARB0000914,560052064,"BANGALORE - HEROHALLI","GROUND FLOOR, ""SURYA COMPLEX"", S.1206, 1ST MAIN, BHARATH NAGAR 2ND STAGE, HEROHALLI WARD, MAGADI ROAD, BANGALORE -560091",23289451,BANGALORE,BANGALORE,KARNATAKA
"KARNATAKA BANK LIMITED",KARB0000913,560052062,"BANGALORE - VARTHUR","GROUND FLOOR, SURVEY NO. 67, OPPOSITE TO DHARMARAYA SWAMY  TEMPLE, MUTHSANDRA ROAD, VARTHUR,  BANGALORE - 560087",28538880,BANGALORE,BANGALORE,KARNATAKA
"KARNATAKA BANK LIMITED",KARB0000912,560052063,"BANGALORE - RAGHUVANAHALLI","GROUND FLOOR, NO. 13, J R PLAZA, NEAR SIDDAGANGA HIGH SCHOOL, KANAKAPURA ROAD, RAGHUVANAHALLI, BANGALORE - 560062",22955820,BANGALORE,BANGALORE,KARNATAKA
"KARNATAKA BANK LIMITED",KARB0000911,760052002,BRAHMAPUR,"GROUND FLOOR ALKAPURI MARKET COMPLEX  DHARAMNAGAR MAIN ROAD, PIN - 760002",2220034,BRAHMAPUR,GANJAM,ODISHA
"KARNATAKA BANK LIMITED",KARB0000910,560052058,BELLANDUR,"NO89/5,BELLANDUR MAIN ROAD  BELLANDURVARTHUR HOBLI,BANGALORE SOUTH TALUK, PIN - 560035",25740680,BANGALORE,BANGALORE-URBAN,KARNATAKA
"KARNATAKA BANK LIMITED",KARB0000909,560052055,"YELAHANKA NEW TOWN","1234, 7TH B CROSS MOTHER DAIRY ROAD YELAHANKA NEW TOWN  BANGALORE, PIN - 560064",22955809,BANGALORE,BANGALORE,KARNATAKA
"KARNATAKA BANK LIMITED",KARB0000908,560052054,SADASHIVANAGAR,"NO.393,13TH CROSS NEAR BHASHYAM CIRCLE SADASHIVANAGAR BANGALORE, PIN - 560080",22955817,BANGALORE,BANGALORE,KARNATAKA
"KARNATAKA BANK LIMITED",KARB0000907,560052053,"CHANDRA LAYOUT","NO18,IIMAIN,8TH CROSS BASAVESHWAR SOCIETY, BMTC BUS DEPOT ROAD IISTAGE,CHANDRA LAYOUTBANGALORE, PIN - 560040",22955814,BANGALORE,BANGALORE,KARNATAKA
"KARNATAKA BANK LIMITED",KARB0000906,560052052,BOMMASANDRA,"60A,SURVEY NO.300  JIGANI ROAD BOMMASANDRA INDUSTRIAL AREA  BOMMASANDRA, PIN - 560099",22955813,BANGALORE,BANGALORE-URBAN,KARNATAKA
"KARNATAKA BANK LIMITED",KARB0000905,560052050,BIDADI,"1607/837,GROUND FLOOR NELLIGUDDA TANK ROAD BIDADI, PIN - 562109",27288196,RAMANAGARAM,RAMANAGARAM,KARNATAKA
"KARNATAKA BANK LIMITED",KARB0000904,560052051,"HESARAGHATTA MAIN ROAD","NO.26,R.M.N.COMPLEX,HESARAGHSTTA MAIN ROAD,BAGALAGUNTE,NAGASANDRA POSTBANGALORE, PIN - 560073",22955927,BANGALORE,BANGALORE-URBAN,KARNATAKA
"KARNATAKA BANK LIMITED",KARB0000903,243052002,BAREILLY,"NO.112,GROUND FLOOR,DELHI-LUCKNOW MARG,CIVIL LINES,BAREILLY, PIN - 243001",2511263,BAREILLY,BAREILLY,"UTTAR PRADESH"
"KARNATAKA BANK LIMITED",KARB0000902,560052049,KENGERI,"GROUND FLOOR,NO.1103,1ST MAIN,4TH CROSS,KENGERI SATELLITE TOWN,BANGALORE, PIN - 560060",22955925,BANGALORE,BANGALORE-URBAN,KARNATAKA
"KARNATAKA BANK LIMITED",KARB0000901,560052048,UTTARAHALLI,"NEAR SHANTHI SAGAR,S.NO.26/27/28,MAIN UTTARAHALLI MAIN ROAD(SUBRAMANYAPURA ROAD),UTTARAHALLI, PIN - 560061",22955923,BANGALORE,BANGALORE-URBAN,KARNATAKA
"KARNATAKA BANK LIMITED",KARB0000853,585052202,YADGIR,"GROUND FLOOR, SHOP NO.1 TO 5, NALWAR-CHITAPUR ROAD, SUBHASH CIRCLE, YADGIR - 588202",251599,YADGIR,YADGIR,KARNATAKA
"KARNATAKA BANK LIMITED",KARB0000852,581052532,YELLAPURA,"FIRST FLOOR,""DREAM CHAMBERS"", NEAR BUS STAND, YELLAPURA - 581359",261422,YELLAPURA,"UTTARA KANNADA",KARNATAKA
"KARNATAKA BANK LIMITED",KARB0000851,563052521,YENIGADALE,"GROUNDFLOOR,CHINTAMANI CHELUR ROAD,YENIGADALE, PIN - 563156",256043,YENIGADALE,KOLAR,KARNATAKA
"KARNATAKA BANK LIMITED",KARB0000850,WAITING,"REGIONAL OFFICE UDUPI","2ND FLOOR, SHANTHA, KINNIMULKY, UDUPI, 576101, UDUPI TALUK",0,UDIPI,UDIPI,KARNATAKA
"KARNATAKA BANK LIMITED",KARB0000826,506052002,WARANGAL,"H.NO.12-2-26 & 12-2-8, IST FLOOR,JANDHYAM COMPLEX,S.V.N.ROAD, WARANGAL, PIN - 506002",2442332,WARANGAL,WARANGAL,"ANDHRA PRADESH"
"KARNATAKA BANK LIMITED",KARB0000817,396052031,VAPI,"SHOP NO.G-13/14/15/16,SY.NO.340/A/1,SAGA CASA,CHALA ROAD,VAPI-396191",0,VAPI,VALSAD,GUJARAT
"KARNATAKA BANK LIMITED",KARB0000816,581052534,"UKKADAGATHRI GP","SHRI NANDHI NILAYA MAIN CIRCLE NEAR KARIBASVESHWARA TEMPLE UKKADAGATHRI VILLAGE & GP 581119",9844644065,"HARIHARA TALUK",DAVANGERE,KARNATAKA
"KARNATAKA BANK LIMITED",KARB0000815,560052091,"VADERAHALLI GP","NO.1/10,KALATHUR BUILDING,VIDYARANYAPURA POST, VADERAHALLI VILLAGE & GP-560097",0,"VADERAHALLI GP","BENGALURU URBAN",KARNATAKA
"KARNATAKA BANK LIMITED",KARB0000814,571052202,VIRAJPET,"JAINS STREER, SIDDAPURA ROAD, VIRAJPET-571218",9900504304,VIRAJPET,KODAGU,KARNATAKA
"KARNATAKA BANK LIMITED",KARB0000813,520052003,"VIJAYAWADA BHAVANIPURAM","GROUND FLOOR, D NO 76 8 16, CROMBAY ROAD, BHAVANIPURAM, VIJAYAWADA 520012, VIJAYAWADA TALUK",0,VIJAYAWADA,KRISHNA,"ANDHRA PRADESH"
"KARNATAKA BANK LIMITED",KARB0000812,530052004,"VISAKHAPATNAM GOPALAPATNAM","D NO 11 155,GROUND FLOOR,GUNNARAJU COMPLEX,GOPALAPATNAM,VISAKHAPATNAM 530027",8500976919,GOPALAPATNAM,VISAKHAPATNAM,"ANDHRA PRADESH"
"KARNATAKA BANK LIMITED",KARB0000811,573052514,"UDEVARA G P","MAIN ROAD.UDEVARA VILLAGE AND G.P,SAKLESHPURA TALUK,PIN 573127",9632269203,SAKLESPURA,HASSAN,KARNATAKA
"KARNATAKA BANK LIMITED",KARB0000810,403052008,VASCO,"RAJ TARA,F L GOMES ROAD,NEAR TILAK MAIDAN,VASCO 403 802",2501430,GOA,"SOUTH GOA",GOA
"KARNATAKA BANK LIMITED",KARB0000809,560052075,VIJAYAPURA,"MELUR ROAD,VIJAYAPURA,DEVANAHALLI TALUK,562 135",27668664,BANGALORE,"BANGALORE RURAL",KARNATAKA
"KARNATAKA BANK LIMITED",KARB0000808,575052029,UPPINANGADY,"GROUND FLOOR, NO. 8/4 A-2, SRI LAKSHMI ARCADE, N.H.48 UPPINANGADY - 574241",250200,UPPINANGADY,"DAKSHINA KANNADA",KARNATAKA
"KARNATAKA BANK LIMITED",KARB0000807,456052001,UJJAIN,"22,SHANKAR MARG  FREEGANG  UJJAIN, PIN - 456010",2520864,UJJAIN,UJJAIN,"MADHYA PRADESH"
"KARNATAKA BANK LIMITED",KARB0000806,632052002,VELLORE,"PLOT NO.A-I,SUNDARAM COMPLEX  PHASE - II TNHBNEAR COLLECTOR OFFICE SATHUVACHARI,VELLORE, PIN - 632009",2255132,VELLORE,VELLORE,"TAMIL NADU"
"KARNATAKA BANK LIMITED",KARB0000805,500052010,"UPPAL KALAN","PLOT NO.663, SLN ARCADE  WARRANGAL HIGHWAY  UPPAL KALAN, PIN - 500039",27205065,"UPPAL KALAN","RANGA REDDY","ANDHRA PRADESH"
"KARNATAKA BANK LIMITED",KARB0000804,313052002,UDAIPUR,"NO.79,GROUND FLOOR,GOVIND BHAWAN,CHETAK MARG.CHETAK CIRCLE,UDAIPUR, PIN - 313001",2416348,UDAIPUR,UDAIPUR,RAJASTHAN
"KARNATAKA BANK LIMITED",KARB0000803,576052005,"KUNJIBETTU UDUPI","LAKSHMI GANESH COMPOUND,UDUPI-MANIPAL ROAD,KUNJIBETTU,UDUPI, PIN - 576102",2521033,UDUPI,UDUPI,KARNATAKA
"KARNATAKA BANK LIMITED",KARB0000802,576052004,"CAR STREET UDUPI","10-1-1708,BHIMANAKATTE BUILDING,CAR STREET,UDUPI, PIN - 576101",2529019,UDUPI,UDUPI,KARNATAKA
"KARNATAKA BANK LIMITED",KARB0000801,576052512,UPPUNDA,"3-89,GROUND FLOOR,""MOHANA PADMA NILAYA"",MAIN ROAD,UPPUNDA, PIN - 576232",256041,UPPUNDA,UDUPI,KARNATAKA
"KARNATAKA BANK LIMITED",KARB0000800,NA,"RO MUMBAI","2ND E BLOCK,""THE METROPOLITAN"",PLOT NO.C26 & 27,BANDRA KURLA COMPLEX,BANDRA EAST,MUMBAI, PIN - 400051",26572746,MUMBAI,MUMBAI,MAHARASHTRA
"KARNATAKA BANK LIMITED",KARB0000799,221052002,VARANASI,"PLOT NO.37/164,IST FLOOR SPICE KCM COMPLEX,BADADEV GODOWLIA,VARANASI, PIN - 221001",2404042,VARNASI,VARNASI,"UTTAR PRADESH"
"KARNATAKA BANK LIMITED",KARB0000798,530052003,"SHANTIPURAM VIZAG","D.NO.49-52-4,PLOT NO.26,SHANKARMATH ROAD,SHANTIPURAM,VISAKHAPATNAM, PIN - 530016",2707966,VIZIANAGARAM,VIZIANAGARAM,"ANDHRA PRADESH"
"KARNATAKA BANK LIMITED",KARB0000797,530052122,"VIZIANAGARAM AP","SRI SAI COMPLEX,IST FLOOR,MAYUR JUNCTION,APSRTC BUS STAND ROAD,VIZIANAGARAM, PIN - 535003",224321,VIZIANAGARAM,VIZIANAGARAM,"ANDHRA PRADESH"
"KARNATAKA BANK LIMITED",KARB0000796,530052002,"CBM COMPOUND VISHAKAPATNAM","9-1-221/A,CBM COMPOUND,NEAR RAMA TALKIES JUNCTION,MADDILAPALEM ROAD,VISAKAPATNAM, PIN - 530003",2575073,VISAKAPATNAM,VISAKAPATNAM,"ANDHRA PRADESH"
"KARNATAKA BANK LIMITED",KARB0000795,520052002,"GOVERNORPET VIJAYAWADA","D.NO.27-12-5,IST FLOOR ALI BAIG STREET,GOVERNORPET,VIJAYAWADA, PIN - 520002",2571457,VIJAYAWADA,KRISHNA,"ANDHRA PRADESH"
"KARNATAKA BANK LIMITED",KARB0000794,638052004,"VELLAKOVIL TN","DOOR NO.692,GROUND FLOOR,NELMUTHU COMPLEX,MATHUR ROAD,VELLAKOVIL,KANGEYAM TALUK, PIN - 638111",262689,VELLAKOVIL,ERODE,"TAMIL NADU"
"KARNATAKA BANK LIMITED",KARB0000793,390052002,"VADODARA GUJARAT","SURYA KIRAN COMPLEX,OLD PADRA ROAD,VIDUTNAGAR,VADODARA, PIN - 390015",2321120,VADODARA,VADADARA,GUJARAT
"KARNATAKA BANK LIMITED",KARB0000792,530052001,"VISHAKAPATNAM MAIN AP","D.NO.14-25-41,ST FLOOR,OPP.JAGADAMBA JUNCTION,VISAKHAPATNAM, PIN - 530002",2568532,VISAKAPATNAM,VISAKAPATNAM,"ANDHRA PRADESH"
"KARNATAKA BANK LIMITED",KARB0000791,520052001,"VIJAYAWADA MAIN AP","NO.11-25-21,OPP.HINDU HIGH SCHOOL,SUBBARAMIAH STREET,VIJAYAWADA, PIN - 520001",2569098,VIJAYAWADA,KRISHNA,"ANDHRA PRADESH"
"KARNATAKA BANK LIMITED",KARB0000790,571052553,"VIBHUTHIKERE GP","B M ROAD, VIBHUTHIKERE GRAMA PANCHAYATH, ARCHAKARAHALLI - 571511, LJOOR (PO)",27307154,RAMANAGARAM,RAMANAGARAM,KARNATAKA
"KARNATAKA BANK LIMITED",KARB0000788,560052094,TAVAREKERE,"SITE NO.57&58, MANJUNATHA NAGAR LAYOUT, TAVAREKERE-562130",0,BENGALURU,"BENGALURU URBAN",KARNATAKA
"KARNATAKA BANK LIMITED",KARB0000787,620052003,TIRUCHIRAPALLI-TIRUVERUMBUR,"D.NO.61/3B,GROUND FLOOR,THANJAVUR MAIN ROAD,AMMAN NAGAR,THIRUVERUMBUR,TIRUCHIRAPALLI-620019",2740828,TIRUCHIRAPALLI,TIRUCHIRAPALLI,"TAMIL NADU"
"KARNATAKA BANK LIMITED",KARB0000786,641052104,TIRUPUR-ANUPPARPALAYAM,"D.NO.54/3,GROUND FLOOR,THANEERPANTHAL BUS STOP,AVINASHI ROAD, TIRUPUR-ANUPPARPALAYAM",9487405086,TIRUPUR,TIRUPUR,"TAMIL NADU"
"KARNATAKA BANK LIMITED",KARB0000785,400052031,THAKURLI-EAST,"GROUND FLOOR, SHOP NO.1 TO 5, D WING, SHREE MANGALMURTHI COMPLEX,OPP. NEW 80FT ROAD, BALAJINAGAR, THAKURLI EAST-421201",8291860746,THANE,THANE,MAHARASHTRA
"KARNATAKA BANK LIMITED",KARB0000784,520052202,TENALI,"D.NO.21-1-59,JANDYALAVARI STREET, RAMALINGESWARAPET, NEAR SWARAJ THEATRE, TENALI",9703142444,"TENALI,GUNTUR",GUNTUR,"ANDHRA PRADESH"
"KARNATAKA BANK LIMITED",KARB0000783,600052026,THIRUVALLUR,"DNO.53, TNHB MAIN ROAD, KAKALUR BYE-PASS, THIRUVALLUR-602001",0,THIRUVALLUR,THIRUVALLUR,"TAMIL NADU"
"KARNATAKA BANK LIMITED",KARB0000782,560052090,"THAGACHAGUPPE VILLAGE","NO.2, MYSURU ROAD, THAGACHAGUPPE VILLAGE, K.GOLLAHALLI GP-560074, KUMBALGOD POST.",0,THAGACHAGUPPE,"BENGALURU URBAN",KARNATAKA
"KARNATAKA BANK LIMITED",KARB0000781,627052003,TUTICORIN,"D NO 454, VICTORIA EXTENSION ROAD, OPP ANTHONIYAR KOVIL COMMUNITY HALL, TUTICORIN 638002",0,TUTICORIN,TUTICORN,"TAMIL NADU"
"KARNATAKA BANK LIMITED",KARB0000780,613052002,THANJAVUR,"G 1 NO 2, GROUND FLOOR, SRINIVASAN PILLAI STREET, THANJAVUR, 613001",0,THANJAVUR,THANJAVUR,"TAMIL NADU"
"KARNATAKA BANK LIMITED",KARB0000779,571052537,"THANDRI G P","GROUND FLOOR, SALIGRAMA HALLIMYSORE ROAD, THANDRE VILLAGE, MIRLE HOBLI, THANDRE GRAMA PANCHAYATH 571604, K R NAGAR TALUK",0,THANDRE,MYSURU,KARNATAKA
"KARNATAKA BANK LIMITED",KARB0000778,NA,"TUMKUR VINOBA NAGAR","S R S KUKKESRI ARCADE, NEAR GANAPATHI TEMPLE, B H ROAD, VINOBA NAGAR, TUMKUR 572101",9945954439,TUMKUR,TUMKUR,KARNATAKA
"KARNATAKA BANK LIMITED",KARB0000777,627052002,TIRUNELVELI,"D.NO.75 A,THIRIPURA ARCADE TRIVANDRUM HIGH ROAD, PALAYAM KOTTAI TIRUNELVELI 627 002",7598138637,TIRUNELVELI,TIRUNELVELI,"TAMIL NADU"
"KARNATAKA BANK LIMITED",KARB0000776,670052102,THALASSERY,"DAS BUILDING,RAILWAY STATION ROAD,THALASSERY 670 101",2321950,THALASSERY,KANNUR,KERALA
"KARNATAKA BANK LIMITED",KARB0000775,680052002,THRISSUR,"CAPITAL RADHAS, NEAR PARAMEKKAV TEMPLE, ROUND EAST, THRISSUR - 680001",2332225,THRISSUR,THRISSUR,KERALA
"KARNATAKA BANK LIMITED",KARB0000774,571052102,"T. NARASIPURA","D. NO.393, 1ST FLOOR, VIDYODAYA COLLEGE ROAD, T.NARASIPURA - 574124",261062,T.NARASIPURA,MYSORE,KARNATAKA
"KARNATAKA BANK LIMITED",KARB0000773,534052202,TANUKU,"D. NO. 30-16-17, SHOP NO. 1,2 & 8, GROUND FLOOR, CRSS TOWERS, VELPUR ROAD, TANUKU - 534211",220078,TANUKU,"WEST GODAWARI","ANDHRA PRADESH"
"KARNATAKA BANK LIMITED",KARB0000772,583052501,TORANAGALLU,"GROUND FLOOR, NEAR VITTA SERVICE STATION COMPLEX, BELLARY - HOSPET ROAD, TORANAGALLU - 583123",250078,TORANAGALLU,BELLARY,KARNATAKA
"KARNATAKA BANK LIMITED",KARB0000771,600052016,TAMBARAM,"II/I9, ELUMALAI STREETWEST TAMBARAMCHENNAI, PIN - 600045",23453259,TAMBARAM,KANCHEEPURAM,"TAMIL NADU"
"KARNATAKA BANK LIMITED",KARB0000770,400052025,THANE,"SHOP NO.12 VIHANG GARDEN POKARAN ROAD NO.1 VARTAK NAGARTHANE WEST, PIN - 400606",25444009,MUMBAI,THANE,MAHARASHTRA
"KARNATAKA BANK LIMITED",KARB0000769,572052004,"TUMKUR HMS","SHANTHALA COMPLEX,N 435/A,B.H.ROAD,BATAWADI,TUMKUR, PIN - 572103",2280938,TUMKUR,TUMKUR,KARNATAKA
"KARNATAKA BANK LIMITED",KARB0000768,572052005,"TUMKUR SIT (E.C)","SIDDHAGANGA INSTITUTE OF TECHNOLOGY CAMPUS,TUMKUR, PIN - 572102",2281041,TUMKUR,TUMKUR,KARNATAKA
"KARNATAKA BANK LIMITED",KARB0000767,572052203,"TIPTUR EXTENSION COUNTER","K R EXTENSION,B.H.ROAD,TIPTUR, PIN - 572201",251282,TIPTUR,TUMKUR,KARNATAKA
"KARNATAKA BANK LIMITED",KARB0000766,641052103,"TIRUPUR PERAMANALLUR ROAD","D NO 37,PERUMANALLUR ROAD,LAKSHMI NAGAR POST OFFICE,NEAR NEW BUS STAND,TIRUPUR, PIN - 641602",2481666,TIRUPUR,COIMBATORE,"TAMIL NADU"
"KARNATAKA BANK LIMITED",KARB0000765,517052002,TIRUPATI,"E B S R COMPLEX,GROUND FLOOR,19-8-85,RAYALA-CHERAVU ROAD,TIRUPATI, PIN - 517501",2241356,TIRUPATHI,CHITOOR,"ANDHRA PRADESH"
"KARNATAKA BANK LIMITED",KARB0000764,641052102,"TIRUPUR MAIN","184,IST FLOOR,ESWARAN KOVIL STREET,TIRUPUR, PIN - 641604",2232730,TIRUPUR,COIMBATORE,"TAMIL NADU"
"KARNATAKA BANK LIMITED",KARB0000763,689052002,TIRUVALLA,"KUNNATHUPARAMBIL SHOPING CENTRE,T K ROAD,TIRUVALLA, PIN - 689101",2700424,TIRUVALLA,PATHANAMTHITHA,KERALA
"KARNATAKA BANK LIMITED",KARB0000762,577052452,THIRTHAHALLI,"GAJANANACOMPLEX  GANDHI CHOWK THIRTHAHALLI, PIN - 577432",228269,THIRTHAHALLI,SHIMOGA,KARNATAKA
"KARNATAKA BANK LIMITED",KARB0000761,620052002,TIRUCHIRAPALLI,"72,GROUND FLOOR,7TH CROSS THILLAINAGARTIRUCHIRAPALLY-620008",2740838,TRICHY,TRICHY,"TAMIL NADU"
"KARNATAKA BANK LIMITED",KARB0000760,515052402,"TADAPATRI AP","13/256,KANCHANI COMPLEX,C-B ROAD,TADPATRI, PIN - 515411",226988,TADAPATRI,ANANTHAPUR,"ANDHRA PRADESH"
"KARNATAKA BANK LIMITED",KARB0000759,572052528,TURUVEKERE,"SIDDARAMANNA COMPLEX,DABBEGATTA ROAD,TURUVEKERE, PIN - 572227",288750,TURUVEKERE,TUMKUR,KARNATAKA
"KARNATAKA BANK LIMITED",KARB0000758,695052002,"THIRUVANANTHAPURAM KERALA","S.NO.703/1,1ST FLOOR,MUTHUPPA BUILDING,THAKARAPARAMBU ROAD,PAZHAVANGADI,TIRUVANANDAPURAM, PIN - 695023",2473130,THIRUVANANTHAPURAM,THIRUVANANTHAPURAM,KERALA
"KARNATAKA BANK LIMITED",KARB0000757,572052003,"SOMESHWARAPURAM TUMKUR","MUNCIPAL NO.2650/1,MAIN ROAD,SOMESWARAPURAM, PIN - 572102",2252550,TUMKUR,TUMKUR,KARNATAKA
"KARNATAKA BANK LIMITED",KARB0000756,572052002,"VIVEKANANDA ROAD TUMKUR MAIN","FIRST FLOOR,MUNDAPPA COMPLEX,VIVEKANANDA ROAD,TUMKUR, PIN - 572101",2254663,TUMKUR,TUMKUR,KARNATAKA
"KARNATAKA BANK LIMITED",KARB0000755,576052511,TRASI,"196/A,FIRST FLOOR,DON COMPLEX,MAIN ROAD,NH17,TRASI, PIN - 576235",265128,TRASI,UDUPI,KARNATAKA
"KARNATAKA BANK LIMITED",KARB0000754,572052202,"TIPTUR MAIN","IST FLOOR,ALLAMMAJJI COMPLEX,B H ROAD,TIPTUR, PIN - 572201",251962,TIPTUR,TUMKUR,KARNATAKA
"KARNATAKA BANK LIMITED",KARB0000753,575052016,"THOKKOTTU ULLAL","MANCHILA BUILDING,THOKKOTTU-ULLAL, PIN - 575020",2464241,THOKKOTU,"DAKSHINA KANNADA",KARNATAKA
"KARNATAKA BANK LIMITED",KARB0000752,577052554,TARIKERE,"SRINGERI SHARADA MUTT BUILDING,B H ROAD,TARIKERE, PIN - 577228",222226,TARIKERE,CHICKMAGALUR,KARNATAKA
"KARNATAKA BANK LIMITED",KARB0000751,586052502,TALIKOTI,"IST FLOOR,VITHAL MANDIR COMPLEX,MAIN ROAD,TALIKOTI, PIN - 586214",266262,TALIKOTI,BIJAPUR,KARNATAKA
"KARNATAKA BANK LIMITED",KARB0000750,532052002,SRIKAKULAM,"GROUND FLOOR, D NO 12 14 10, G T ROAD, NEAR CHANDRA MAHAL, SRIKAKULAM 532001, SRIKAKULAM DIST, ANDHRAPRADESH STATE",0,SRIKAKULAM,SRIKAKULAM,"ANDHRA PRADESH"
"KARNATAKA BANK LIMITED",KARB0000749,577052208,"SHIVAMOGGA GOPALA EXTENSION","MAIN ROAD, NEAR GOPALA MAIN CITY BUS STOP, GOPALA, SHIVAMOGGA, 577202",0,SHIVAMOGGA,SHIVAMOGGA,KARNATAKA
"KARNATAKA BANK LIMITED",KARB0000748,577052566,SAKHARAYAPATNA,"K M ROAD,NEAR POLICE STATION,SAKHARAYAPATNA 577 135,KADUR TQ",9480842325,CHICKMAGALUR,CHICKMAGALUR,KARNATAKA
"KARNATAKA BANK LIMITED",KARB0000747,768052002,SAMBALPUR,"PUROHIT COMPLEX, BUDHA RAJA AREA MAIN ROAD, SAMBALPUR 768004",9438493125,SAMBALPUR,SAMBALPUR,ODISHA
"KARNATAKA BANK LIMITED",KARB0000746,584052202,SINDHANUR,"CMC NO 6 1 2121, RAICHUR GANGAVATHI ROAD,SINDHANUR 584128",8197568161,SINDHANUR,RAICHUR,KARNATAKA
"KARNATAKA BANK LIMITED",KARB0000745,577052207,"SHIMOGA SHANKAR MUTT CIRCLE","PRABHU COMPLEX,B H ROAD,SHANKAR MUTT CIRCLE,SHIMOGA.577 202",9481285370,SHIMOGA,SHIMOGA,KARNATAKA
"KARNATAKA BANK LIMITED",KARB0000744,577052562,SORABA,"┬ôDIVYADARSHAN NILAYA MAIN ROAD,SORABA577 429,SORABA TALUK",272078,SHIMOGA,SHIMOGA,KARNATAKA
"KARNATAKA BANK LIMITED",KARB0000743,576052014,SHIRVA,"MARINA GRACE BUILDING, MAIN ROAD, SHIRVA - 574116",2576250,SHIRVA,UDUPI,KARNATAKA
"KARNATAKA BANK LIMITED",KARB0000742,563052522,SRINIVASAPURA,"SRI BALAJI MILLENIUM, OPP: GOVT. WOMENS' COLLEGE, SRINIVASAPURA , KOLAR - 563135",245516,KOLAR,KOLAR,KARNATAKA
"KARNATAKA BANK LIMITED",KARB0000741,577052206,VINOBANAGAR,"AMMA ARCADE, POLICE CHOWKI, VINOBANAGAR, SHIMOGA - 577204",266822,SHIMOGA,SHIMOGA,KARNATAKA
"KARNATAKA BANK LIMITED",KARB0000740,572052172,SIRA,"GROUND FLOOR, RAJA COMPLEX, DR. B.R. AMBEDKAR ROAD, K.R.EXTENSION, SIRA - 572137, TUMKUR DIST.",277740,SIRA,TUMKUR,KARNATAKA
"KARNATAKA BANK LIMITED",KARB0000739,576052513,SHIROOR,"N.H.66, NAGAPPA KAMATH COMPLEX, SHIROOR-576228, KUNDAPUR TALUK, UDUPI DIST., PIN - 576228",253090,SHIROOR,UDUPI,KARNATAKA
"KARNATAKA BANK LIMITED",KARB0000738,583052502,SIRUGUPPA,"FIRST FLOOR,SRINIVAS TOURIST HOME,ADONI ROAD,SIRUGUPPA-583121, BELLARY DISTRICT, PIN - 583121",222121,SIRUGUPPA,BELLARY,KARNATAKA
"KARNATAKA BANK LIMITED",KARB0000737,586052503,SINDAGI,"GROUND FLOOR, ""BHAGYAVANTHI COMPLEX"",SITE NO.2329, BIJAPUR - SINDAGI ROAD, SINDAGI - 586128",221184,SINDAGI,BIJAPUR,KARNATAKA
"KARNATAKA BANK LIMITED",KARB0000736,500052011,SERILINGAMPALLY,"GROUND FLOOR PLOT NO.12KRUTHIKA LAY OUT, OPP.IMAGE GARDEN FUNCTION HALL,MADHAPUR HYDERABAD, PIN - 500081",23119777,HYDERABAD,HYDERABAD,"ANDHRA PRADESH"
"KARNATAKA BANK LIMITED",KARB0000735,734052002,SILIGURI,"GROUND FLOOR,PRATAP MARKET,OPP.WALL FORT,SEVOKE ROAD,SILIGURI, PIN - 734001",2544984,SILIGURI,JALPAIGURI,"WEST BENGAL"
"KARNATAKA BANK LIMITED",KARB0000734,575052025,SAJIPAMUDA,"MERKAR-KONAJE ROAD,SUBASHNAGAR,SAJIPA-MUDA,SAJIPAMUDA VILLAGE & POST,BANTWAL TQ., PIN - 574231",271722,SAJIPAMUDA,"DAKSHINA KANNADA",KARNATAKA
"KARNATAKA BANK LIMITED",KARB0000733,500052006,"A S RAO NAGAR HYDERABAD","GROUND FLOOR,PLOT NO.5,SURVEY NO.498&499,TYAGARAJA NAGAR,DR.A.S.RAO NAGARSECUNDERABAD, PIN - 500062",27136887,HYDERABAD,HYDERABAD,"ANDHRA PRADESH"
"KARNATAKA BANK LIMITED",KARB0000732,577052204,"SAVALANGA ROAD SHIMOGA","KARNATAKA BANK BUILDING SAVALANGA ROAD,SHIMOGA, PIN - 577201",275945,SHIMOGA,SHIMOGA,KARNATAKA
"KARNATAKA BANK LIMITED",KARB0000731,574052302,"SULLIA-N M C (E.C)","NEHRU MEMORIAL COLLEGE CAMPUS,KURUNJE BAGH, PIN - 574327",230576,SULLIA,"DAKSHINA KANNADA",KARNATAKA
"KARNATAKA BANK LIMITED",KARB0000730,636052003,"SALEM FAIRLANDS","GROUND FLOR,108/38C-IASHANTHIPLAZA, BRINDAVAN ROAD,SALEM-FAIRLANDS, PIN - 636004",2447765,SALEM,SALEM,"TAMIL NADU"
"KARNATAKA BANK LIMITED",KARB0000729,416052151,SANGLI,"329,DAMODAR COMPLEX,OPP.MARKET YARD,MIRAJ ROAD,SANGLI, PIN - 416416",2320546,SANGLI,SANGLI,MAHARASHTRA
"KARNATAKA BANK LIMITED",KARB0000728,573052102,SAKLESHPUR,"IST FLOOR,GANDHARVA BUILDING,B M ROAD,SAKLESHPUR, PIN - 573134",245094,SAKLESHPUR,HASSAN,KARNATAKA
"KARNATAKA BANK LIMITED",KARB0000727,585052505,SHAHAPUR,"1ST FLOOR,KOLLUR TOWER,BANGALORE-BIDAR ROAD,DEVINAGAR,SHAHAPUR, PIN - 585223",243511,SHAHPUR,GULBARGA,KARNATAKA
"KARNATAKA BANK LIMITED",KARB0000726,395052002,"SURAT GUJARAT","K.G.CHAMBERS,OPP.GUJARAT SAMACHAR PRESS,UDHNA DARWAJA RING ROAD,SURAT, PIN - 395002",2363063,SURAT,SURAT,GUJARAT
"KARNATAKA BANK LIMITED",KARB0000724,577052203,"RMC YARD SHIMOGA","1ST FLOOR,12/13-A BLOCK,A P M C YARD,SAGAR ROAD,SHIMOGA, PIN - 577204",250651,SHIMOGA,SHIMOGA,KARNATAKA
"KARNATAKA BANK LIMITED",KARB0000723,574052523,SHIRLAL,"SRI BRAHMALINGESHWARA KRIPA,P.O.HADIANGADY,SHIRLAL, PIN - 574101",283237,SHIRLAL,UDUPI,KARNATAKA
"KARNATAKA BANK LIMITED",KARB0000722,577052553,SHIRVASE,"NO.1/102,SHIRVASE, PIN - 577130",245034,SHIRVASE,CHICKMAGALUR,KARNATAKA
"KARNATAKA BANK LIMITED",KARB0000721,500052003,SECUNDERABAD,"M C H NO:1-1-39,""SEVEN HILLS"",SAROJINI DEVI ROAD,SECUNDERABAD, PIN - 500003",27813280,SECUNDERABAD,HYDERABAD,"ANDHRA PRADESH"
"KARNATAKA BANK LIMITED",KARB0000720,415052001,SATARA,"531/A/1A,YASHODHAN COMPLEX,OPP.Y C SCIENCE COLLEGE,KOLHAPUR ROAD,SADAR BAZAR,SATARA, PIN - 415001",221585,SATARA,SATARA,MAHARASHTRA
"KARNATAKA BANK LIMITED",KARB0000719,577052552,SASVEHALLI,"SHARADA NILAYA,NEAR BUS STAND,SASVEHALLI, PIN - 577224",263636,SASVEHALLI,DAVANGERE,KARNATAKA
"KARNATAKA BANK LIMITED",KARB0000718,403052005,"SANGUEM GOA","MORAJKAR'S BUILDING,BEHIND OUR LADY OF MIRACLES CHURCH,GOA-SANGUEM, PIN - 403704",2604257,SANGUEM,GOA-SOUTH,GOA
"KARNATAKA BANK LIMITED",KARB0000717,576052006,UPPINAKOTE,"IST FLOOR,SRI LAXMI TOWERS,UPPINAKOTE, PIN - 576213",2561051,UPPINAKOTE,UDUPI,KARNATAKA
"KARNATAKA BANK LIMITED",KARB0000716,636052002,"SALEM FORT MAIN TAMILNADU","IST FLOOR  DIVYA TOWERS,FORT MAIN ROAD,SALEM MAIN  SALEM, PIN - 636001",2211412,SALEM,SALEM,"TAMIL NADU"
"KARNATAKA BANK LIMITED",KARB0000715,413052002,"SOLAPUR MAHARASHTRA","BALI-VES,D.NO.1,TALE BUILDING,WEST MANGALWARPETH,SOLAPUR, PIN - 413002",2322681,SOLAPUR,SOLAPUR,MAHARASHTRA
"KARNATAKA BANK LIMITED",KARB0000714,574052302,SULLIA,"SHREE SATHYA SAI COMPLEX,M S RAO ROAD,SULLIA, PIN - 574239",230376,SULLIA,"DAKSHINA KANNADA",KARNATAKA
"KARNATAKA BANK LIMITED",KARB0000713,585052302,SHORAPUR,"KRISHNA COMPLEX,1ST FLOOR,NEW DARBAR MAIN ROAD,SHORAPUR, PIN - 585224",256028,SHORAPUR,GULBARGA,KARNATAKA
"KARNATAKA BANK LIMITED",KARB0000712,577052402,SAGAR,"FIRST FLOOR,UDUCHANADA BASAPPA COMPLEX,MARKET ROAD,SAGAR, PIN - 577401",229913,SAGAR,SHIMOGA,KARNATAKA
"KARNATAKA BANK LIMITED",KARB0000711,571052531,SUNTIKOPPA,"KARNATAKA BANK BUILDING,MADAPUR STREET,SUNTIKOPPA, PIN - 571237",262472,SUNTICOPPA,KODAGU,KARNATAKA
"KARNATAKA BANK LIMITED",KARB0000710,560052060,SULIBELE,"IST FLOOR,PRAKASH COMPLEX,MAINROAD,SULIBELE,HOSKOTE TALUK, PIN - 562129",27951226,SULIBELE,BANGALORE-RURAL,KARNATAKA
"KARNATAKA BANK LIMITED",KARB0000709,571052530,SRIRANGAPATNA,"MAIN ROAD,SRIRANGAPATNA, PIN - 571438",252033,SRIRANGAPATNA,MANDYA,KARNATAKA
"KARNATAKA BANK LIMITED",KARB0000708,577052551,SRINGERI,"BHARATHI STREET,SRINGERI, PIN - 577139",250126,SRINGERI,CHICKMAGALUR,KARNATAKA
"KARNATAKA BANK LIMITED",KARB0000707,581052402,SIRSI,"C.T.S.578,D.NO.139,""SHREE MADHWA"",C.P.BAZAR,SIRSI, PIN - 581401",226418,SIRSI,"UTTAR KANNADA",KARNATAKA
"KARNATAKA BANK LIMITED",KARB0000706,576052509,SIDDAPURA,"SHREE DURGA BUILDING,MAIN ROAD,SIDDAPURA, PIN - 576229",284234,SIDDAPURA,UDUPI,KARNATAKA
"KARNATAKA BANK LIMITED",KARB0000705,577052202,"SHIMOGA MAIN NEHRU ROAD","NO 5/105,M.G.PALACE,GOPI CIRCLE,SHIMOGA, PIN - 577201",273377,SHIMOGA,SHIMOGA,KARNATAKA
"KARNATAKA BANK LIMITED",KARB0000704,577052152,SHIKARIPURA,"SADGURU COMPLEX,M.S.ROAD,SHIKARIPURA, PIN - 577427",222232,SHIKARIPURA,SHIMOGA,KARNATAKA
"KARNATAKA BANK LIMITED",KARB0000703,581052531,SAVANUR,"IST FLOOR,R S HAVANGI BUILDING,MARKET ROAD,SAVANUR, PIN - 581118",241638,SAVANUR,HAVERI,KARNATAKA
"KARNATAKA BANK LIMITED",KARB0000702,571052522,SATHANUR,"451A,IST FLOOR,S.D.S.BUILDING,SANTHEMELA,SATHANUR, PIN - 562126",27551226,SATHANUR,BANGALORE-RURAL,KARNATAKA
"KARNATAKA BANK LIMITED",KARB0000701,571052532,SALIGRAMA,"D.NO.1/156,SRI GANESH KRIPA,CANAL STREET K.R.NAGAR,SALIGRAMA, PIN - 571604",283329,SALIGRAMA,MYSORE,KARNATAKA
"KARNATAKA BANK LIMITED",KARB0000700,NA,"RO MYSORE","#561,NEW KANTHARAJE URS ROAD,KUVEMPUNAGAR,MYSORE, PIN - 570009",2343062,MYSORE,MYSORE,KARNATAKA
"KARNATAKA BANK LIMITED",KARB0000699,575052036,"SOMESHWARA UCHILA","GROUND FLOOR, NH 66, SOMESHWARA UCHILA, 575023, MANGALURU TALUK, DAKSHINA KANNADA DIST",0,MANGALURU,"DAKSHINA KANNADA",KARNATAKA
"KARNATAKA BANK LIMITED",KARB0000698,577052574,SHIRALKOPPA,"M.N.R TOWER, DNO.2257, GANDHI NAGAR, MAIN ROAD, SHIRALKOPPA-577428, SHIKARIPURA TALUK",0,SHIRALKOPPA,SHIVAMOGGA,KARNATAKA
"KARNATAKA BANK LIMITED",KARB0000697,734052003,"SILIGURI S F ROAD","PLOT NO.3229,ARIHANT APARTMENT, BESIDE MAHESHWARI SEVA SADAN, S F ROAD, SILIGURI - 734005",7699996678,SILIGURI,DARJEELING,"WEST BENGAL"
"KARNATAKA BANK LIMITED",KARB0000696,395052003,SURAT-ADAJAN,"SHOP NO.3,SAPPHIRE BUSINESS HUB,GREEN CITY ROAD,ADAJAN",2363063,SURAT,SURAT,GUJARAT
"KARNATAKA BANK LIMITED",KARB0000669,492052003,DEVPURI,"RAZAS CAPITAL PLAZA,NEW DHAMTRI ROAD,NH-43,LALPUR FRUIT MARKET,DEVPURI,RAIPUR-492105",8093731433,DEVPURI,RAIPUR,CHANDIGARH
"KARNATAKA BANK LIMITED",KARB0000668,263052202,RUDRAPUR,"PLOT NO 7 2, CIVIL LINES, RUDRAPUR 263153 RUDRAPUR TALUK",7830304846,RUDRAPUR,"UDHAM SINGH NAGAR",UTTARAKHAND
"KARNATAKA BANK LIMITED",KARB0000667,247052102,ROORKEE,"PLOT NO.622,MALVIYA CHOWK,ROORKEE DEHRADUN MAIN ROAD,GANESHPUR PO,ROORKEE 247 667",275667,HARIDWAR,HARIDWAR,UTTARAKHAND
"KARNATAKA BANK LIMITED",KARB0000666,560052072,"REVA GROUP OF EDUCATIONAL INSTITUTIONS","REVA GROUP OF EDUCATIONAL INSTITUTIONS, JALAHOBLI, BAGALUR CROSS, YELAHANKA, BANGALORE - 560064",9900318690,YELLAHANKA,BANGALORE,KARNATAKA
"KARNATAKA BANK LIMITED",KARB0000665,124052002,ROHTAK,"NARAIN COMPLEX, CIVIL LINES, ROHTAK-124001",255409,ROHTAK,ROHTAK,HARYANA
"KARNATAKA BANK LIMITED",KARB0000664,500052013,RAJENDRANAGAR,"GROUND FLOOR, BESIDE PILLAR NO. 210, M Q SPLENDOUR, RAJENDRANAGAR, HYDERABAD - 500048",24017755,HYDERABAD,"RANGA REDDY","ANDHRA PRADESH"
"KARNATAKA BANK LIMITED",KARB0000663,769052002,ROURKELA,"NEAR GRAND BAZAR, KACHERY ROAD, ROURKELA-769012, ODISHA",2500257,ROURKELA,ROURKELA,ODISHA
"KARNATAKA BANK LIMITED",KARB0000662,700052008,RAJARHAT,"FIRST FLOOR, ATGHORA  RAJARHAT NEW TOWN ROADNEAR CHINAR PARKRAJARHAT - KOLKATA, PIN - 700136",25709602,RAJARHAT,KOLKATA,"WEST BENGAL"
"KARNATAKA BANK LIMITED",KARB0000661,496052001,RAIGARH,"GOWRISHANKAR MANDIR ROAD,OPP.AGROHA BHAVAN,RAIGARH, PIN - 496001",220435,RAIGARH,RAIGARH,CHANDIGARH
"KARNATAKA BANK LIMITED",KARB0000660,834052002,"RANCHI JHARKAND","NO.5,MAIN ROAD,OPP.RANCHI CLUB,RANCHI, PIN - 834001",2331689,RANCHI,RANCHI,JHARKHAND
"KARNATAKA BANK LIMITED",KARB0000659,492052002,"RAIPUR CHATTISGARH","PLOT NO.2,TAANK BUSINESS TOWER JAIL ROAD,RAIPUR, PIN - 492009",2880021,RAIPUR,RAIPUR,CHANDIGARH
"KARNATAKA BANK LIMITED",KARB0000658,360052002,RAJKOT,"MANGAL KIRAN COMPLEX,RAMDHAM PLOT,KALAWAD ROAD,RAJKOT, PIN - 360005",2583325,RAJKOT,RAJKOT,GUJARAT
"KARNATAKA BANK LIMITED",KARB0000657,533052102,"RAJMUNDRY AP","DOOR NO.46-11-31,OPP.TOBACO BOARD OFFICE,DANAVAIPETA,RAJAHMUNDRY, PIN - 533103",2460697,RAJAHMUNDRY,"EAST GODAVARI","ANDHRA PRADESH"
"KARNATAKA BANK LIMITED",KARB0000656,581052102,RANEBENNUR,"IST FLOOR,P.B.NAIK BUILDING,STATION ROAD,RANEBENNUR, PIN - 581115",267355,RANEBENNUR,HAVERI,KARNATAKA
"KARNATAKA BANK LIMITED",KARB0000655,577052550,RAMAKRISHNAPURA,"SARVASIDDI BEGAR - KALMANE ROAD  THIRTHAMUTTUR POST RAMAKRISHNAPURA , PIN - 577415",255002,RAMAKRISHNAPURA,SHIMOGA,KARNATAKA
"KARNATAKA BANK LIMITED",KARB0000654,573052510,RUDRAPATNA,"NAGA NILAYA,RUDRAPATNA, PIN - 573150",225251,RUDRAPATNA,HASSAN,KARNATAKA
"KARNATAKA BANK LIMITED",KARB0000653,581052530,RATTIHALLI,"IST FLOOR,SREE LAKSHMI VENKATESH,NEAR OLD BUS STAND,RATTIHALLI, PIN - 581116",286229,RATTIHALLI,HAVERI,KARNATAKA
"KARNATAKA BANK LIMITED",KARB0000652,571052552,RAMANAGARAM,"490/1731,IST FLOOR,DR.S.L THIMMAIAH COMPLEX OLD BUS STAND,RAMANAGARAM, PIN - 571511",27274668,RAMANAGARAM,BANGALORE-RURAL,KARNATAKA
"KARNATAKA BANK LIMITED",KARB0000651,584052002,RAICHUR,"PATEL ROAD,BRESTWARPET,11-9-14,SHREE HOTEL COMPLEX,RAICHUR, PIN - 584101",2255073,RAICHUR,RAICHUR,KARNATAKA
"KARNATAKA BANK LIMITED",KARB0000650,WAITING,"REGIONAL OFFICE TUMAKURU","FIRST FLOOR, SIDDASHREE BHAVANA, 364A, WARD NO 19, SIDDAGANGA EXTENSION, B H ROAD, TUMAKURU 572102",0,TUMAKURU,TUMAKURU,KARNATAKA
"KARNATAKA BANK LIMITED",KARB0000644,671052003,MIYAPADAVU,"SY.NO.P-193/14-2,NEAR V V H S SCHOOL,MIYAPADAVU-671323, MEENJA GP,MANJESHWAR TALUK",0,MIYAPADAVU,KASARGOD,KERALA
"KARNATAKA BANK LIMITED",KARB0000642,411052008,"LONI KALBHOR","SHOP NO.8,9,10,11,12&13,PUNE-SOLAPUR HIGHWAY,LONI-KALBHOR-421201,HAVELI TALUK",0,"LONI KALBHOR",PUNE,MAHARASHTRA
"KARNATAKA BANK LIMITED",KARB0000641,691052002,"KOLLAM QUILON KERALA","MC 151447,IST FLOOR,BRIGHT STAR PROPERTIES ASRAMAM ROAD,KOLLAM, PIN - 691001",2753917,KOLLAM,KOLLAM,KERALA
"KARNATAKA BANK LIMITED",KARB0000640,670052152,PAYYANNUR,"FIRST FLOOR,CITY TOWER,NEW BUS STAND ROAD,NEW PAYYANNUR MUNCIPALITY,PAYYANNUR-670307",0,PAYYANNUR,KANNUR,KERALA
"KARNATAKA BANK LIMITED",KARB0000639,110052033,"NEW DELHI-GREEN PARK EXTENSION","S-9,UPHAAR CINEMA COMPLEX,NEW DELHI-GREEN PARK EXTENSION, NEW DELHI-110016",0,"NEW DELHI","SOUTH DELHI",DELHI
"KARNATAKA BANK LIMITED",KARB0000638,400052033,"NAVI MUMBAI- KARANJADE","PLOT NO.47 & 48,SHOP NO.3,4&5,SECTOR 3,NAVI MUMBAI-KARANJADE-410206,PANVEL TALUK",0,"NAVI MUMBAI- KARANJADE",RAIGAD,MAHARASHTRA
"KARNATAKA BANK LIMITED",KARB0000636,562052502,"MALAMACHANAHALLI G.P","FIRST FLOOR,MPCS BUILDING,MALAMACHANAHALLI VILLAGE, MALAMACHANAHALLI G.P.-562102 SIDLAGHATTA TALUK",9449498325,CHIKKABALLAPURA,CHIKKABALLAPURA,KARNATAKA
"KARNATAKA BANK LIMITED",KARB0000635,400052032,"NAVI MUMBAI-AIROLI","SHOP NO.02 TO 06,GROUND FLOOR,VENUS CO-OP HOUSING SOCIETY LTD, PLOT NO.27,SECTOR6,NAVI MUMBAI-AIROLI - 400708",8291974192,"NAVI MUMBAI",THANE,MAHARASHTRA
"KARNATAKA BANK LIMITED",KARB0000634,141052003,"LUDHIANA-CHANDIGARH ROAD","GROUND FLOOR,SCO NO.23,SECTOR NO.32-A,CHANDIGARH ROAD,LUDHIANA-141010",2539943,LUDHIANA,LUDHIANA,PUNJAB
"KARNATAKA BANK LIMITED",KARB0000633,110052032,"NEW DELHI-RAJOURI GARDEN","D.NO.J-3/196,GROUND FLOOR,NEHRU MARKET,RAJOURI GARDEN, NEW DELHI-110027",23417591,"NEW DELHI","NEW DELHI",DELHI
"KARNATAKA BANK LIMITED",KARB0000632,517052202,MADANAPALLE,"D.NO.2/250-B-F&PRN TOWERS, KADIRI ROAD,MADANAPALLE",227277,MADANAPALLE,CHITTOR,"ANDHRA PRADESH"
"KARNATAKA BANK LIMITED",KARB0000631,582052504,LAKSHMESHWAR,"D.NO.5307/B/1B,BUS STAND ROAD,LAKSHMESHWAR,SHIRAHATTI TALUK",233970,LAKSHMESHWAR,GADAG,KARNATAKA
"KARNATAKA BANK LIMITED",KARB0000630,575052037,MULKI,"D.NO.55/741,PUNAROOR TOURIST HOME, NH66, MULKI-574154, MANGALUR TALUK",9480842380,MANGALURU,"DAKSHINA KANNADA",KARNATAKA
"KARNATAKA BANK LIMITED",KARB0000629,678052002,PALAKKAD,"D.NO.18/248,M.R.HERITAGE, PALAT JUNCTION, WEST FORT ROAD, PALAKKAD-678013",9738873743,PALAKKAD,PALAKKAD,KERALA
"KARNATAKA BANK LIMITED",KARB0000628,411052007,PUNE-BANER,"GROUND FLOOR,SY NO.106,OPP. HOTEL SADANAND, NEAR D-MART MAIN ROAD,BANER - 411045",9850069753,PUNE,PUNE,MAHARASHTRA
"KARNATAKA BANK LIMITED",KARB0000627,400052030,PALGHAR,"ST NO.52/1,ST.JOHN COMMERCIAL COMPLEX, VEVOOR-MANOR ROAD, PALGHAR(EAST)-401404",9920056636,PALGHAR,PALGHAR,MAHARASHTRA
"KARNATAKA BANK LIMITED",KARB0000626,110052031,"NOIDA-SECTOR FIFTY ONE","B1 A/16, B-BLOCK MARKET, SECTOR-51, NOIDA-201301",0,NOIDA,"GAUTHAM BUDDH NAGAR DISTRICT","UTTAR PRADESH"
"KARNATAKA BANK LIMITED",KARB0000625,629052102,MARTHANDAM,"NO.5/41, NMN PLAZA, MARKET ROAD, MARTHANDAM - 629165",8903501780,MARTHANDAM,KANYAKUMARI,"TAMIL NADU"
"KARNATAKA BANK LIMITED",KARB0000624,520052602,NARASARAOPET,"D.NO.9-6-15/1,GROUND FLOOR, WARD NO.9, OLD LIC OFFICE ROAD, ARUNDALPET, NARASARAOPET - 522601",220551,NARASARAOPET,GUNTUR,"ANDHRA PRADESH"
"KARNATAKA BANK LIMITED",KARB0000623,570052017,KANAKADASANAGAR,"NO.2588,NETHAJI CIRCLE,RING ROAD,3RD STAGE,DATTAGALLI,KANAKADASANAGAR,MYSURU-570022",9448240712,MYSURU,MYSURU,KARNATAKA
"KARNATAKA BANK LIMITED",KARB0000622,570052016,"SANKRANTI CIRCLE","GROUND FLOOR,SITE NO.109/1,&140/1 DEVARAJA MOHALLA SANKRANTHI CIRCLE 2ND STAGE HEBBAL,MYSURU",0,MYSURU,MYSURU,KARNATAKA
"KARNATAKA BANK LIMITED",KARB0000620,590052501,"MALLUR G P","GROUND FLOOR, BABA NILAYA, GP NO. 392, MALLUR VILLAGE & G P, 591111, SAVADATTI TALUK, BELAGAVI DIST",0,"MALLUR G P",BELAGAVI,KARNATAKA
"KARNATAKA BANK LIMITED",KARB0000619,570052503,PERIYAPATNA,"GROUND FLOOR, SANTHEPETE B M ROAD, PERIYAPATNA 571107 PERIYAPATNA TALUK",0,PERIYAPATNA,MYSURU,KARNATAKA
"KARNATAKA BANK LIMITED",KARB0000618,516052102,PRODDATUR,"GROUND FLOOR, D NO 8 600, 601, 602 & 487, GODOWN ROAD, PRODDATUR 516360",0,PRODDATUR,CUDDAPAH,"ANDHRA PRADESH"
"KARNATAKA BANK LIMITED",KARB0000617,147052002,PATIALA,"GROUND FLOOR, SCO 5, BANK STREET, CHOTA BARADHARI, PATIALA 147001",9464526799,PATIALA,PATIALA,PUNJAB
"KARNATAKA BANK LIMITED",KARB0000616,576052016,PANIYOOR,"GROUND FLOOR, NO 4 46, SRI DEVI COMPLEX, PANIYOOR, 574117, BELAPU VILLAGE & GP, UDUPI TALUK & DISTRICT",0,PANIYOOR,UDIPI,KARNATAKA
"KARNATAKA BANK LIMITED",KARB0000615,400052027,PANVEL,"GROUND FLOOR MTNL BUILDING NEAR SHIVAJI CHOWK PANVEL 410 206",24762014,MUMBAI,RAIGAD,MAHARASHTRA
"KARNATAKA BANK LIMITED",KARB0000614,411052005,PIMPRI-CHINCHWAD,"SUNSHINE PLAZA, CTS NO. 4840, SHOP NO. 5 SND 6, OLD BOMBAY - PUNE HIGHWAY, PIMPRI-CHINCHWAD - 411018",27420244,PIMPRI-CHINCHWAD,PUNE,MAHARASHTRA
"KARNATAKA BANK LIMITED",KARB0000613,800052002,PATNA,"SR-01,GROUND FLOOR  DUKHAN RAM PLAZA EXHIBITION ROADNEAR GANDHI MAIDANPIR BHORAPATNA, PIN - 800001",2500488,PATNA,PATNA,BIHAR
"KARNATAKA BANK LIMITED",KARB0000612,411052004,DHANKAWADI,"SHOP NO.7 TO 11RAJDHANI COMPLEX  NEXT TO SHANKAR MAHARAJ MUTT,PUNE SATARA ROAD DHANKAWADI-PUNE, PIN - 411043",24363708,PUNE,PUNE,MAHARASHTRA
"KARNATAKA BANK LIMITED",KARB0000611,132052002,PANIPAT,"GROUND FLOOR,TRADE CENTRE NEAR SANJAY CHOWK,GT ROAD,PANIPAT, PIN - 132103",2662526,PANIPAT,PANIPAT,HARYANA
"KARNATAKA BANK LIMITED",KARB0000610,576052008,PADUBIDRI,"FIRST FLOOR,AMRITHA TOWERS,MAIN ROAD PADUBIDRI(NADSAL VILLAGE), PIN - 574111",2599599,PADUBIDRI,UDUPI,KARNATAKA
"KARNATAKA BANK LIMITED",KARB0000609,411052003,"HADAPSAR PUNE","DOOR NO.84/4,I FLOOR,EVEREST HOUSE,TUPE COMPLEX,NEAR VAIBHAV THEATRE,HADAPSAR,PUNE, PIN - 411028",26821790,PUNE,PUNE,MAHARASHTRA
"KARNATAKA BANK LIMITED",KARB0000608,160052002,"PANCHKULA HARYANA","S C O 66,SECTOR 11,PANCHKULA, PIN - 134112",2578969,PANCHKULA,PANCHKULA,HARYANA
"KARNATAKA BANK LIMITED",KARB0000607,411052002,"PUNE MAIN","FIRST FLOOR,SHREE MAA BUILDING,NEAR APPA BALWANT CHOWK,10,BUDHWARPETH,BAJIRAO ROAD,PUNE, PIN - 411002",24463147,PUNE,PUNE,MAHARASHTRA
"KARNATAKA BANK LIMITED",KARB0000606,605052002,PONDICHERRY,"NO.137,AZIZ MANZIL MISSION STREET,PUDUCHERRY, PIN - 605001",2349637,PONDICHERRY,PONDICHERRY,PUDUCHERRY
"KARNATAKA BANK LIMITED",KARB0000605,575052014,"PACHANADY MANGALORE","GROUND FLOOR,PACHANADI,KONCHADI POST,MANGALORE, PIN - 575008",2229863,MANGALORE,"DAKSHINA KANNADA",KARNATAKA
"KARNATAKA BANK LIMITED",KARB0000604,575052026,PUTTUR,"FIRST FLOOR,BONANTHAYA HOSPITAL BUILDING,MAIN ROAD,PUTTUR, PIN - 574201",234324,PUTTUR,"DAKSHINA KANNADA",KARNATAKA
"KARNATAKA BANK LIMITED",KARB0000603,561052002,PAVAGADA,"1901/A,S S K SANGHA BUILDING,OLD BUS STAND,PAVAGADA, PIN - 561202",245028,PAVAGADA,TUMKUR,KARNATAKA
"KARNATAKA BANK LIMITED",KARB0000602,575052015,"PANAMBUR MANGALORE","IST FLOOR,ADDL.MARKET COMPLEX,N M P T BUILDING,PANAMBUR,MANGALORE, PIN - 575010",2229857,MANGALORE,"DAKSHINA KANNADA",KARNATAKA
"KARNATAKA BANK LIMITED",KARB0000601,403052002,"PANJIM GOA","52/4C-11,KARINA CHAMBERS M.G.ROAD,GOA-PANJIM(TISWADI TALUK), PIN - 403001",2232346,PANJIM,GOA-NORTH,GOA
"KARNATAKA BANK LIMITED",KARB0000600,NA,"RO MANGALORE","D.NO.13-10-1271,KARNATAKA BANK BUILDING,REGIONAL OFFICE,PVS ROAD, KODIALBAIL, MANGALORE, PIN - 575003",2229825,MANGALORE,"SOUTH KANARA",KARNATAKA
"KARNATAKA BANK LIMITED",KARB0000599,587052506,"MIRJI VILLAGE","FIRST FLOOR, VPC NO 47 WARD NO 1, NEAR BUS STAND, MIRJI VILLAGE 587313, VANTIGODI GRAMA PANCHAYAT, MUDHOL TALUK, BAGALKOT DIST",0,"MIRJI VILLAGE",BAGALKOT,KARNATAKA
"KARNATAKA BANK LIMITED",KARB0000598,700052011,NARENDRAPUR,"FIRST FLOOR, BLOCK II, NO. 200, AKSHARA PEARL, N S ROAD, NARENDRAPUR, 700103, BARUIPUR TALUK",0,NARENDRAPUR,"SOUTH PARAGANAS","WEST BENGAL"
"KARNATAKA BANK LIMITED",KARB0000597,573052516,"MALLAPPANAHALLY G P","GROUND FLOOR, OPP GOVT HIGHER PRIMARY SCHOOL, MALLAPPANAHALLY VILLAGE & G P, 573211, HOLENARASIPURA TALUK",0,MALLAPPANAHALLY,HASSAN,KARNATAKA
"KARNATAKA BANK LIMITED",KARB0000596,400052029,"NAVI MUMBAI KAMOTHE","SHOP NO 1 & 2, PLOT NO 7, SHIVAPRAKASH CELEBRATION, SECTOR NO 11, KAMOTHE, NAVI MUMBAI 410209, PANVEL TALUK",0,"NAVI MUMBAI",RAIGAD,MAHARASHTRA
"KARNATAKA BANK LIMITED",KARB0000595,509052002,MAHBUBNAGAR,"GROUND FLOOR, D NO 8 3 8 15, HYDERABAD ROAD, OPP PINAKANI HOTEL, METTUGADDA CIRCLE, MAHBUBNAGAR 509001, MAHBUBNAGAR DIST, TELANGANA",7680881118,MAHBUBNAGAR,MAHBUBNAGAR,TELANGANA
"KARNATAKA BANK LIMITED",KARB0000594,226052003,"LUCKNOW-GOMTI NAGAR","PLOT NO.A-1/5, VIVEK KHAND, GOMTI NAGAR, LUCKNOW-226010",9918907638,LUCKNOW,LUCKNOW,"UTTAR PRADESH"
"KARNATAKA BANK LIMITED",KARB0000593,575052035,"MANGALURU KRISHNAPURA","GROUND FLOOR, D NO S 4, STAR AVENUE, KATIPALLA ROAD, KRISHNAPURA 4TH BLOCK, MANGALURU 575030, DAKSHINA KANNADA DIST",0,MANGALURU,"DAKSHINA KANNADA",KARNATAKA
"KARNATAKA BANK LIMITED",KARB0000592,575052506,"NERIYA G P","GROUND FLOOR, VIA MUNDAJE, NERIYA VILLAGE & G P, 574228, BELTHANGADY TALUK, DAKSHINA KANNADA DIST",0,BELTHANGADY,"DAKSHINA KANNADA",KARNATAKA
"KARNATAKA BANK LIMITED",KARB0000591,570052015,"MYSURU RAJIV NAGAR","GROUND FLOOR D NO 4, MAHADEVAPURA ROAD 1ST STAGE, DEVANUR LAYOUT, N R MOHALLA, RAJIV NAGAR, MYSURU, 570009",9480842318,MYSURU,MYSURU,KARNATAKA
"KARNATAKA BANK LIMITED",KARB0000590,523052002,ONGOLE,"CHITIRALA COMMERCIAL COMPLEX, KURNOOL ROAD, OPP. ST. XAVIER'S SCHOOL, ONGOLE - 523002",282679,ONGOLE,PRAKASAM,"ANDHRA PRADESH"
"KARNATAKA BANK LIMITED",KARB0000589,400052028,"NAVI MUMBAI KHARGHAR","GROUND FLOOR, SHOP NO 10,11,12 & 13, PLOT NO 50 & 51, SECTOR 15, MILLENIUM ICON, KHARGHAR, NAVI MUMBAI 401210, PANVEL TALUK",0,KHARGHAR,RAIGAD,MAHARASHTRA
"KARNATAKA BANK LIMITED",KARB0000588,573052517,"KESAGODU G P","KH NO 85 & 85 1, GROUND FLOOR, MAIN ROAD, KESAGODU VILLAGE & G P, 573215, BELUR TALUK, HASSAN",0,KESAGODU,HASSAN,KARNATAKA
"KARNATAKA BANK LIMITED",KARB0000587,573052515,"LAKKUR G P","GROUND FLOOR, MAIN ROAD LAKKUR VILLAGE & G P, 573150, ARKALGUD TALUK",0,LAKKUR,HASSAN,KARNATAKA
"KARNATAKA BANK LIMITED",KARB0000586,571052402,MADDUR,"GROUND FLOOR, SRI SARVASHIVA COMPLEX, BESIDE MAHAVEERA THEATRE, OLD M C ROAD, MADDUR, 571428",9449520625,MADDUR,MANDYA,KARNATAKA
"KARNATAKA BANK LIMITED",KARB0000585,577052569,"MANDAGHATTA GP","FIRST FLOOR, HOSANAGARA ROAD, MANDAGHATTA VILLAGE & GP, 577211, SHIVAMOGGA TALUK & DISTRICT",0,MANDAGHATTA,SHIVAMOGGA,KARNATAKA
"KARNATAKA BANK LIMITED",KARB0000584,576052518,"MOLAHALLI G P","VISHWAPRABHA COMPLEX, KOTESHWARA SHIMOGA ROAD,KUNDAPURA TALUK, PIN 576222",9448831565,"MOLAHALLI G P",UDIPI,KARNATAKA
"KARNATAKA BANK LIMITED",KARB0000583,577052567,NARASIMHARAJAPURA,"GROUND FLOOR, NO 993, T M ROAD, NEAR BASTI MUTT, NARASIMHARAJAPURA,577134,CHIKMAGALUR DIST",9986318829,NARASIMHRAJPUR,CHIKMAGALUR,KARNATAKA
"KARNATAKA BANK LIMITED",KARB0000582,629052002,NAGERCOIL,"D NO 326,327, M S ROAD MADRAS SERVICE ROAD NAGERCOIL 623 001, KANYAKUMARI DIST TAMILNADU STATE",7598465294,NAGERCOIL,KANYAKUMARI,"TAMIL NADU"
"KARNATAKA BANK LIMITED",KARB0000581,560052080,MAGADI,"VASAVI TEMPLE STREET, RAMA MANDIR ROAD, MAGADI 562 120",9972165689,MAGADI,RAMANAGARAM,KARNATAKA
"KARNATAKA BANK LIMITED",KARB0000580,576052515,"MAVINAKATTE KENCHANOOR","GULVADY NERALAKATTE ROAD,MAVINAKATTE CIRCLE,KENCHANOOR VILLAGE 576 280,GULVADY PO,HATTIANGADI GP",9663948666,KENCHANOOR,UDUPI,KARNATAKA
"KARNATAKA BANK LIMITED",KARB0000579,431052102,NANDED,"GROUND FLOOR, PLOT NO 3 HOUSE NO 1 9 122,1, SHRINAGAR ROAD SHRINAGAR NANDED 431602",9769914766,NANDED,NANDED,MAHARASHTRA
"KARNATAKA BANK LIMITED",KARB0000578,520052402,MACHILIPATNAM,"OLD LIC ROAD,JAGANADAPURAM ROAD,RAJAVARI CENTRE,MACHILIPATNAM 521001",9491915578,MACHILIPATNAM,KRISHNA,"ANDHRA PRADESH"
"KARNATAKA BANK LIMITED",KARB0000577,563052523,"SHETTIHALLI GP","AMBAAJIDURGA HOBLI,NELAMACHANAHALLI VILLAGE,SHETTIHALLI GP 563 125,CHINTAMANI TALUK",9980868656,"SHETTIHALLI GP",CHIKKABALLAPURA,KARNATAKA
"KARNATAKA BANK LIMITED",KARB0000576,570052014,NANJANGUD,"R P ROAD,NANJANGUD 571 301",9482175576,MYSORE,MYSORE,KARNATAKA
"KARNATAKA BANK LIMITED",KARB0000575,110052027,"NEW DELHI KALKAJI","PLOT NO K 10, KALKAJI ROAD, NEW DELHI KALKAJI 110019",0,DELHI,DELHI,DELHI
"KARNATAKA BANK LIMITED",KARB0000574,110052028,"NEW DELHI KIRTI NAGAR","GROUND FLOOR H 59 KIRTI NAGAR NEW DELHI 110015",9582349394,DELHI,DELHI,DELHI
"KARNATAKA BANK LIMITED",KARB0000573,573052513,"NARWEYPETE GP","MAIN ROAD,NARWEYPETE VILLAGE AND GRAMA PANCHAYATH,BELUR TALUK.573 127",267777,BELUR,HASSAN,KARNATAKA
"KARNATAKA BANK LIMITED",KARB0000572,586052505,MUDDEBIHAL,"PLOT NO 2,HEMAREDDI MALLAMMA CIRCLE, NEAR MINI VIDHANA SOUDHA, KHB COLONY, MUDDEBIHAL 586212",9686833873,MUDDEBIHAL,BIJAPUR,KARNATAKA
"KARNATAKA BANK LIMITED",KARB0000571,570052012,MYSORE-NAZARBAD,"MAHALAKSHMI KRUPA, ZOO GARDEN ROAD, NAZARBAD, MYSORE - 570010",2417522,MYSORE,MYSORE,KARNATAKA
"KARNATAKA BANK LIMITED",KARB0000570,636052004,NAMAKKAL,"MOHANUR ROAD, NAMAKKAL - 637001",220570,NAMAKKAL,NAMAKKAL,"TAMIL NADU"
"KARNATAKA BANK LIMITED",KARB0000569,584052502,MANVI,"OPP. AXIS BANK, SINDHANUR ROAD, MANVI - 584123",221549,RAICHUR,RAICHUR,KARNATAKA
"KARNATAKA BANK LIMITED",KARB0000568,503052002,NIZAMABAD,"D.NO. 5-6-687/4, BLOCK NO.6, PHULONG CROSS ROAD, HYDERABAD ROAD, NIZAMABAD - 503001",236553,NIZAMABAD,NIZAMABAD,"ANDHRA PRADESH"
"KARNATAKA BANK LIMITED",KARB0000567,110052025,"MALVIA NAGAR","GROUND FLOOR, D/NO. B-1/13, MALVIA NAGAR, NEW DELHI - 110017",26686032,DELHI,DELHI,DELHI
"KARNATAKA BANK LIMITED",KARB0000566,575052032,KULSHEKAR,"D/NO.15-10/3 & 10/4, KULSHEKAR ROAD, PADAVU VILLAGE, KULSHEKAR, MANGALORE - 575005",2229804,MANGALORE,"SOUTH KANARA",KARNATAKA
"KARNATAKA BANK LIMITED",KARB0000565,576052013,MANIPAL,"R S B SABHA BHAVANA, MANIPAL - ALEVOOR ROAD, MANIPAL - 576104",2574565,UDUPI,UDUPI,KARNATAKA
"KARNATAKA BANK LIMITED",KARB0000564,508052102,MIRYALAGUDA,"GROUND FLOOR, SAGAR ROAD, NEAR HANUMANPET, MIRYALAGUDA-508207, NALGONDA DIST., PIN - 508207",242564,MIRYALAGUDA,NALGONDA,"ANDHRA PRADESH"
"KARNATAKA BANK LIMITED",KARB0000563,585052302,NIPPANI,"GROUND FLOOR, D/NO.690/B, ASHOK NAGAR, NIPPANI-591263, CHIKKODI TALUK, BELGAUM DIST., PIN - 591263",220148,NIPPANI,BELGAUM,KARNATAKA
"KARNATAKA BANK LIMITED",KARB0000562,110052023,"NEW DELHI - VIKASPURI","GROUND FLOOR, F-119,VIKASPURI, NEW DELHI -110018",28533977,"NEW DELHI","NEW DELHI",DELHI
"KARNATAKA BANK LIMITED",KARB0000561,110052021,"ASHOK VIHAR","A-1,PHASE II  ASHOK VIHAR  NEW DELHI, PIN - 110052",27115477,DELHI,DELHI,DELHI
"KARNATAKA BANK LIMITED",KARB0000560,110052020,"EAST OF KAILASH","D-59, SAPNA ROAD  EAST OF KAILASHNEW DELHI, PIN - 110065",26441911,DELHI,DELHI,DELHI
"KARNATAKA BANK LIMITED",KARB0000559,560052059,NAGANATHAPAURA,"D.NO.87,VINAYAKANAGAR MICO MAIN ROAD  NAGANATHAPURABANGALORE, PIN - 560100",25743284,NAGANATHAPURA,BANGALORE,KARNATAKA
"KARNATAKA BANK LIMITED",KARB0000558,110052019,"NEW DELHI KAROL BAGH","PLOT NO.5439/71,GROUND FLOOR,MAIN ARYA SAMAJ ROAD,KAROL BAGH,NEW DELHI, PIN - 110005",25752144,DELHI,DELHI,DELHI
"KARNATAKA BANK LIMITED",KARB0000557,560052047,NELAMANGALA,"NO.5006/5011,FIRST FLOOR LAKSHMI COMPLEX,B.H.ROAD SUBHASHNAGAR,NELAMANGALA, PIN - 562123",27722668,NELAMANGALA,BANGALORE-RURAL,KARNATAKA
"KARNATAKA BANK LIMITED",KARB0000556,110052018,JANAKPURI,"DIA/A1,GROUND FLOOR,SATGURU RAM SINGH MARG,JANAKPURI D BLOCK,NEW DELHI, PIN - 110058",28525348,DELHI,DELHI,DELHI
"KARNATAKA BANK LIMITED",KARB0000555,110052001,"SERVICE BRANCH NEW DELHI","45,REGAL BUILDING CONNAUGHT PLACE,NEW DELHI, PIN - 110001",28844106,DELHI,DELHI,DELHI
"KARNATAKA BANK LIMITED",KARB0000554,110052016,"PASCHIM VIHAR NEWDELHI","A-4/45,PASCHIM VIHAR,DELHI, PIN - 110063",25281783,DELHI,DELHI,DELHI
"KARNATAKA BANK LIMITED",KARB0000553,110052017,"G T KARNAL ROAD NEWDELHI","NO 6,JAIN COLONY VEERNAGAR,GT KARNAL ROAD,DELHI, PIN - 110007",27111773,DELHI,DELHI,DELHI
"KARNATAKA BANK LIMITED",KARB0000552,422052002,NASHIK,"KAVITA VAULTS,COMMERCIAL COMPLEX,OPP.VASANTH MARKET,CANADA CORNER GANGAPUR LINK ROAD,NASIK, PIN - 422005",2572383,NASHIK,NASHIK,MAHARASHTRA
"KARNATAKA BANK LIMITED",KARB0000551,110052015,"DWARAKA NEW DELHI","HL SQUARE,PLOT NO.6,SECTOR-5,DWARAKA, PIN - 110075",28855095,DELHI,DELHI,DELHI
"KARNATAKA BANK LIMITED",KARB0000550,110052014,"R K PURAM NEW DELHI","DELHI KARNATAKA SANGHA BUILDING,RAO TULARAM MARG,SECTOR-12,R.K.PURAM,NEW-DELHI, PIN - 110022",28866067,DELHI,DELHI,DELHI
"KARNATAKA BANK LIMITED",KARB0000549,110052012,"ROHINI NEW DELHI","PLOT NO.6,AGGARWAL CENTRAL PLAZA,FIRST FLOOR COMMUNITY CENTRE,DC CHOUK  SECTOR 9,ROHINI-DELHI, PIN - 110085",28877572,DELHI,DELHI,DELHI
"KARNATAKA BANK LIMITED",KARB0000548,110052011,"SHALIMAR BAGH NEW DELHI","AGGARWAL PLAZA,FIRST FLOOR,B N BLOCK(WEST),SHALIMAR BHAGH,DELHI, PIN - 110088",28877082,DELHI,DELHI,DELHI
"KARNATAKA BANK LIMITED",KARB0000547,110052010,"LAJPAT NAGAR NEW DELHI","E-108/109,LAJPAT NAGAR-I,KRISHNA MARKET,LAJPAT NAGAR,DELHI, PIN - 110024",28898347,DELHI,DELHI,DELHI
"KARNATAKA BANK LIMITED",KARB0000546,110052009,"WEST PATEL NAGAR NEW DELHI","NO 11/14,GROUND FLOOR,WEST PATEL NAGAR,DELHI, PIN - 110008",25885548,DELHI,DELHI,DELHI
"KARNATAKA BANK LIMITED",KARB0000545,110052007,"NOIDA UTTAR PRADESH","F 27/28,SECTOR-18,NOIDA, PIN - 201301",6406431,NOIDA,GAUTAMBUDHNAGAR,"UTTAR PRADESH"
"KARNATAKA BANK LIMITED",KARB0000544,110052006,"SAVITHA VIHAR NEW DELHI","PLOT NO.13,NEAR SAI MANDIR,MAIN ROAD,SAVITA VIHAR,DELHI, PIN - 110092",28822214,DELHI,DELHI,DELHI
"KARNATAKA BANK LIMITED",KARB0000543,518052102,"NANDYALA AP","D NO.2/398,N K ROAD,SOWJANYA COMPLEX,SRINIVAS NAGAR,NANDYAL, PIN - 518501",245800,NANDYAL,KURNOOL,"ANDHRA PRADESH"
"KARNATAKA BANK LIMITED",KARB0000542,110052004,"OVERSEAS NEW DELHI","K-2,CHOUDHARY BUILDING,IST FLOOR,MIDDLE CIRCLE,CONNAUGHT CIRCUS,DELHI, PIN - 110001",23416489,DELHI,DELHI,DELHI
"KARNATAKA BANK LIMITED",KARB0000541,440052002,"NAGPUR MAHARASTRA","JAISHREE,365A,IST FLOOR,NEAR LAD COLLEGE SQUARE,GANDHI NAGAR,NAGPUR, PIN - 440010",2242003,NAGPUR,NAGPUR,MAHARASHTRA
"KARNATAKA BANK LIMITED",KARB0000540,572052527,NELEKERE,"MATHA RESIDENCY COMPLEX,B.H.ROAD,KIBBANAHALLYCROSS,KIBBANAHALLY POST, PIN - 572214",262709,NELEKERE,TUMKUR,KARNATAKA
"KARNATAKA BANK LIMITED",KARB0000539,581052529,NAVILGAON,"MAIN ROAD,NAVILGON, PIN - 581425",254335,NAVILGAON,"UTTAR KANNADA",KARNATAKA
"KARNATAKA BANK LIMITED",KARB0000538,577052549,NIDUVALE,"KARNATAKA BANK BUILDING MAIN ROAD,NIDUVALE,MUDIGERE TALUK, PIN - 577122",261211,NIDUVALE,CHICKMAGALUR,KARNATAKA
"KARNATAKA BANK LIMITED",KARB0000537,110052002,"NEW DELHI","M-3,AVG BHAVAN,MIDDLE CIRCLE,CONNAUGHT PLACE MIDDLE CIRCLE,NEW DELHI, PIN - 110001",23417590,DELHI,DELHI,DELHI
"KARNATAKA BANK LIMITED",KARB0000536,577052548,NARVE,"MAIN ROAD,NARVE,KOPPA TALUK, PIN - 577126",236021,NARVE,CHICKMAGALUR,KARNATAKA
"KARNATAKA BANK LIMITED",KARB0000535,524052002,"NELLORE A P","D NO W-15/201,KAVERI BUILDING,GOTURUVARI STREET,BRINDAVAN,NELLORE, PIN - 524001",2322881,NELLORE,NELLORE,"ANDHRA PRADESH"
"KARNATAKA BANK LIMITED",KARB0000534,577052547,NYAMATHI,"IST FLOOR,LINGESHWARA COMPLEX,MAHANTESH ROAD,NYAMATHI, PIN - 577223",265326,NYAMATHI,DAVANGERE,KARNATAKA
"KARNATAKA BANK LIMITED",KARB0000533,572052526,NONAVINAKERE,"GOPALAKRISHNASWAMY TEMPLE ROAD,NONAVINAKERE,TIPTUR TALUK, PIN - 572224",258038,NONAVINAKERE,TUMKUR,KARNATAKA
"KARNATAKA BANK LIMITED",KARB0000532,671052802,NEERCHAL,"MAHALINGA DHAM,MAIN ROAD,NEERCHAL, PIN - 671321",284036,NEERCHAL,KASARGOD,KERALA
"KARNATAKA BANK LIMITED",KARB0000531,582052502,NAVALGUND,"P.N.DHARWAD COMMERCIAL COMPLEX,IST FLOOR,MAIN MARKET ROAD,NAVALGUND, PIN - 582208",224292,NAVALGUND,DHARWAD,KARNATAKA
"KARNATAKA BANK LIMITED",KARB0000530,713052601,MEMARI,"PLOT 119 & 118/2822, KHATAN 7482, NEAR BUS STAND, MEMARI - 713146, BARDHAMAN DIST.",2250554,MEMARI,BARDHAMAN,"WEST BENGAL"
"KARNATAKA BANK LIMITED",KARB0000529,570052501,SIDDALINGAPURA,"GROUND FLOOR,NO. 587/2,""SREEYA COMFORTS"" BUILDING, MYSORE - BANGALORE HIGHWAY,SIDDALINGAPURA, MYSORE - 570003",2496615,SIDDALINGAPURA,MYSORE,KARNATAKA
"KARNATAKA BANK LIMITED",KARB0000528,587052502,MUDHOL,"GROUND FLOOR, RANNA CIRCLE, LOKAPUR ROAD, MUDHOL - 587313.",280290,MUDHOL,BAGALKOT,KARNATAKA
"KARNATAKA BANK LIMITED",KARB0000527,400052028,DADAR(W),"FIRST FLOOR, RAJ ADITYA BUILDING,KASHINATH DHURU ROAD,AGAR BAZAR, DADAR (W),MUMBAI ┬û 400028.",24219432,MUMBAI,MUMBAI,MAHARASHTRA
"KARNATAKA BANK LIMITED",KARB0000526,570052011,"J P NAGAR","CA NO.1, ""C""BLOCK AKKAMAHADEVI ROAD  J.P.NAGAR MYSORE, PIN - 570008",2371551,MYSORE,MYSORE,KARNATAKA
"KARNATAKA BANK LIMITED",KARB0000525,400052024,"VILE ┬û PARLE (E)","SHOP NO.18&19 KADAMGIRI COMPLEX  HANUMAN ROAD  VILE PARLE EASTMUMBAI, PIN - 400057",26122767,MUMBAI,MUMBAI,MAHARASHTRA
"KARNATAKA BANK LIMITED",KARB0000524,244052002,MORADABAD,"AE-34,RAM GANGA VIHAR,PHASE-1,KANTH ROAD,MORADABAD, PIN - 244001",2452019,MUMBAI,THANE,"UTTAR PRADESH"
"KARNATAKA BANK LIMITED",KARB0000523,400052023,MIRAROADEAST,"GAURAV GARDEN COMPLEX,OPP.OLD PETROL PUMP,MIRA BHAYANDAR ROAD,MIRA ROAD(E), PIN - 401107",28552767,MUMBAI,MUMBAI,MAHARASHTRA
"KARNATAKA BANK LIMITED",KARB0000522,400052022,"NAVIMUM BAIBELAPUR","SHOP NO.20,21&22,SHIVADARSHAN BUILDING,PLOT NO.1,SECTOR 15,PALM BEACH ROAD,CBD BELAPUR,NAVI MUMBAI, PIN - 400614",27580888,MUMBAI,MUMBAI,MAHARASHTRA
"KARNATAKA BANK LIMITED",KARB0000521,575052001,"SERVICE BRANCH MANGALORE","KARNATAKA BANK BUILDING SERVICE BRANCH,IIND FLOOR KODIALBAIL,MANGALORE,  PIN - 575003",2422505,MANGALORE,"DAKSHINA KANNADA",KARNATAKA
"KARNATAKA BANK LIMITED",KARB0000520,400052020,"MULUND WEST","GROUND FLOOR,SMT.L.L.MUNDADA HOSTEL BUILDING,DEVIDAYAL ROAD,MULUND(W),MUMBAI, PIN - 400080",25905406,MUMBAI,MUMBAI,MAHARASHTRA
"KARNATAKA BANK LIMITED",KARB0000519,570052010,"BOGADI MYSORE","D.NO.439,SPNS SADANA,GADDIGE MAIN ROAD,BOGADI,MYSORE, PIN - 570026",2417579,MYSORE,MYSORE,KARNATAKA
"KARNATAKA BANK LIMITED",KARB0000518,400052019,"SANTACRUZ MUMBAI","ROSE MANOR GARDEN SCHOOL,CENTRAL AVENUE,SANTACRUZ(W),MUMBAI, PIN - 400054",26052226,MUMBAI,MUMBAI,MAHARASHTRA
"KARNATAKA BANK LIMITED",KARB0000517,400052018,"NERUL SEAWOODS","BADRI KEDAR,PLOT NO.35/36 SECTOR 40,SEAWOODS,NERUL,NAVI MUMBAI, PIN - 400706",27702004,MUMBAI,MUMBAI,MAHARASHTRA
"KARNATAKA BANK LIMITED",KARB0000516,400052017,"THAKUR VILLAGE MUMBAI","SHOP NO 34-39,EMP-52,EVERSHINE MILLENIUM PARADISE,THAKUR VILLAGE,KANDIVLI(E)  MUMBAI, PIN - 400101",28464597,MUMBAI,MUMBAI,MAHARASHTRA
"KARNATAKA BANK LIMITED",KARB0000515,400052016,"KOPAR KHAIRANE NAVI MUMBAI","LIONS SERVICE CENTRE PLOT NO.101,SECTOR 7,KOPARKHAIRANE,NAVI MUMBAI, PIN - 400701",27549200,MUMBAI,MUMBAI,MAHARASHTRA
"KARNATAKA BANK LIMITED",KARB0000514,400052015,"OSHIWARA MUMBAI","20-21,OSHIWARA LINK PLAZA,MHADA COMPLEX,OSHIWARA,JOGESHWARI(W),MUMBAI, PIN - 400102",26301935,MUMBAI,MUMBAI,MAHARASHTRA
"KARNATAKA BANK LIMITED",KARB0000513,575052019,"HO COMPLEX BR MAHAVEERACIRCLE","HEAD OFFICE COMPLEX BR,MAHAVEER CIRCLE,KANKANADY,MANGALORE, PIN - 575002",2228138,MANGALORE,"DAKSHINA KANNADA",KARNATAKA
"KARNATAKA BANK LIMITED",KARB0000512,400052014,POWAI,"DOOR NO 1-4,GATEWAY PLAZA,CENTRAL AVENUE,HIRANANDANI GARDENS,POWAI,MUMBAI, PIN - 400076",25708873,MUMBAI,MUMBAI,MAHARASHTRA
"KARNATAKA BANK LIMITED",KARB0000511,570052009,"VIJAYANAGAR II MYSORE","SITE NO.4586,II STAGE,VIJAYANAGAR,SHRIVARA COMPLEX,HIGH TENSION DOUBLE ROAD,MYSORE, PIN - 570017",2301358,MYSORE,MYSORE,KARNATAKA
"KARNATAKA BANK LIMITED",KARB0000510,400052013,"KANDIVLI EAST MUMBAI","GAYATRI CORNER,90 FEET ROAD,ASHANAGAR, OPP.THAKUR  POLYTECHNIC COLLEGE,THAKUR COMPLEX  KANDIVLI(E),MUMBAI, PIN - 400101",28540969,MUMBAI,MUMBAI,MAHARASHTRA
"KARNATAKA BANK LIMITED",KARB0000509,400052021,"MUMBAI-VAZIRA NAKA, BORIVLI(W)","DON BOSCO HIGH SCHOOL BUILDING,NEW LINK ROAD,OPP.LT ROAD,VAZIRANAKA BORIVLI(W),MUMBAI, PIN - 400091",28339847,MUMBAI,MUMBAI,MAHARASHTRA
"KARNATAKA BANK LIMITED",KARB0000508,570052008,"VIVEKANANDANAGAR MYSORE","M-4,NEAR VIVEKANANDA CIRLCE,VIVEKANDA NAGAR,MYSORE, PIN - 570023",2562262,MYSORE,MYSORE,KARNATAKA
"KARNATAKA BANK LIMITED",KARB0000507,570052006,"SIDHARTHNAGAR MYSORE","NO.184/147/12 ALANAHALLI MAIN ROAD  SIDDARTHANAGAR,MYSORE, PIN - 570011",2417675,MYSORE,MYSORE,KARNATAKA
"KARNATAKA BANK LIMITED",KARB0000506,575052018,"KADRI ROAD MANGALORE","KSN ADIGA SMARAKA BHAVANA,KADRI ROAD,MANGALORE, PIN - 575003",2229846,MANGALORE,"DAKSHINA KANNADA",KARNATAKA
"KARNATAKA BANK LIMITED",KARB0000505,570052003,"V V MOHALLA MYSORE","D.NO.70,""SUBHODA"",I FLOOR,SUBHODA,KALIDASA ROAD,V.V.MOHALLA,MYSORE, PIN - 570002",2415000,MYSORE,MYSORE,KARNATAKA
"KARNATAKA BANK LIMITED",KARB0000504,570052007,"KUVEMPUNAGAR MYSORE","SITE NO.561,NEW KANTHARAJA URS ROAD,KUVEMPUNAGAR,MYSORE, PIN - 570009",2342370,MYSORE,MYSORE,KARNATAKA
"KARNATAKA BANK LIMITED",KARB0000503,160052003,"MOHALI PUNJAB","SCO 121&122,PHASE-3-B-II,S A S NAGAR,MOHALI, PIN - 160059",2264884,MOHALI,ROOPNAGAR,PUNJAB
"KARNATAKA BANK LIMITED",KARB0000502,575052505,MANILA,"IST FLOOR, SRI VISHNUMOORTHY PRASADA SHANKARANARAYANA BLDG. MANILA VILLAGE,POST MURVA, PIN - 574243",237254,MANILA,"DAKSHINA KANNADA",KARNATAKA
"KARNATAKA BANK LIMITED",KARB0000501,580052304,"KOPPADAKERE DHARWAD","FIRST FLOOR,MARATHA COLONY ROAD,KOPPADAKERE,DHARWAD, PIN - 580008",2216053,DHARWAD,DHARWAD,KARNATAKA
"KARNATAKA BANK LIMITED",KARB0000500,NA,"RO CHENNAI","IST FLOOR,NO 324,IST FLOOR,KARNATAKA BANK BUILDING,THAMBU CHETTY STREET,GEORGE TOWN, CHENNAI, PIN - 600001",23453221,CHENNAI,CHENNAI,"TAMIL NADU"
"KARNATAKA BANK LIMITED",KARB0000499,570052005,"SARASWATHIPURAM MYSORE","GROUND FLOOR SRI VENKATESHWARA PLAZA  NO.2912 CH 57 KANTHARAJE URS ROADSARASWATHIPURAM-MYS, PIN - 570009",2540203,MYSORE,MYSORE,KARNATAKA
"KARNATAKA BANK LIMITED",KARB0000498,585052504,MATALA,"MAIN MARKET,DHARMPET MATALA, PIN - 585419",257438,MATALA,BIDAR,KARNATAKA
"KARNATAKA BANK LIMITED",KARB0000497,572052525,MEDIGESHI,"MEDIGESHI,MADHUGIRI TALUK, PIN - 572133",278623,MEDIGESHI,TUMKUR,KARNATAKA
"KARNATAKA BANK LIMITED",KARB0000496,600052007,"KODAMBAKKAM CHENNAI","DOOR NO.68,2ND MAIN ROAD,UNITED INDIA COLONY,KODAMBAKKAM,CHENNAI, PIN - 600024",23453239,CHENNAI,CHENNAI,"TAMIL NADU"
"KARNATAKA BANK LIMITED",KARB0000495,575052013,"P M RAO ROAD MANGALORE","FIRST FLOOR,KELLE COURT,P.M RAO ROAD,MANGALORE, PIN - 575001",2229858,MANGALORE,"DAKSHINA KANNADA",KARNATAKA
"KARNATAKA BANK LIMITED",KARB0000494,600052003,"MINT STREET CHENNAI","311,MINT STREET,IST FLOOR PARK TOWN,CHENNAI, PIN - 600003",23453242,CHENNAI,CHENNAI,"TAMIL NADU"
"KARNATAKA BANK LIMITED",KARB0000493,581052528,MUROOR,"D NO 502,MUROOR ALVALLI ROAD,MUROOR, PIN - 581362",268123,MUROOR,"UTTAR KANNADA",KARNATAKA
"KARNATAKA BANK LIMITED",KARB0000492,575052002,"BALMATTA ROAD MANGALORE","FIRST FLOOR,HEMAVATHI BUILDING,BALMATTA ROAD,MANGALORE, PIN - 575001",2229831,MANGALORE,"DAKSHINA KANNADA",KARNATAKA
"KARNATAKA BANK LIMITED",KARB0000491,600052008,"ANNA NAGAR CHENNAI","W-123,III AVENUE,ANNANAGAR,CHENNAI, PIN - 600040",23453227,CHENNAI,CHENNAI,"TAMIL NADU"
"KARNATAKA BANK LIMITED",KARB0000490,403052004,"MARGAO GOA","MABAI HOTEL BUILDING,OPP.MUNCIPAL GARDEN,GEORGE BARETTO SQUARE,MARGAO,GOA, PIN - 403601",2730979,MARGOA,GOA-SOUTH,GOA
"KARNATAKA BANK LIMITED",KARB0000489,515052662,MADAKSHIRA,"5-172,GUPTA'S BUILDING,TUMKUR BELLARY ROAD,MADAKASIRA, PIN - 515301",288424,MADAKSIRA,ANANTHAPUR,"ANDHRA PRADESH"
"KARNATAKA BANK LIMITED",KARB0000488,600052005,"TRIPLICANE CHENNAI","132-A,TRIPLICANE HIGH ROAD,CHENNAI, PIN - 600005",23453249,CHENNAI,CHENNAI,"TAMIL NADU"
"KARNATAKA BANK LIMITED",KARB0000487,575052017,"URVA MARKET","15-20-2000/7,IST FLOOR,""VEENU PLAZA"",SRI MARIAMMA TEMPLE ROAD,URVA MARKET,MANGALORE, PIN - 575006",2229860,MANGALORE,"DAKSHINA KANNADA",KARNATAKA
"KARNATAKA BANK LIMITED",KARB0000486,625052002,"MADURAI TN","39-41,TOWN HALL ROAD,MADURAI, PIN - 625001",2343578,MADURAI,MADURAI,"TAMIL NADU"
"KARNATAKA BANK LIMITED",KARB0000485,570052004,"CHAMUNDIPURAM MYSORE","NO.2954,K-12/4,ANNAPOORNA,JLB ROAD,CHAMUMDIPURAM,MYSORE, PIN - 570004",2332160,MYSORE,MYSORE,KARNATAKA
"KARNATAKA BANK LIMITED",KARB0000484,570052002,"DEVARAJ URS ROAD MYSORE","DOOR NO.82-85,FIRST FLOOR,DEVARAJ URS ROAD,MYSORE, PIN - 570001",2529575,MYSORE,MYSORE,KARNATAKA
"KARNATAKA BANK LIMITED",KARB0000483,582052501,MULGUND,"SOCIETY BUILDING,MAIN ROAD,MULGUND, PIN - 582117",280147,MULGUND,GADAG,KARNATAKA
"KARNATAKA BANK LIMITED",KARB0000482,575052024,"MOODBIDRI KARNATAKA","IST FLOOR,TRIBHUVAN BUILDING,NEAR BUS STAND,MOODABIDRI, PIN - 574227",236306,MOODBIDRI,"DAKSHINA KANNADA",KARNATAKA
"KARNATAKA BANK LIMITED",KARB0000481,571052152,MADIKERI,"GREEN HAVEN,KOHINOOR ROAD,MADIKERI, PIN - 571201",229688,MADIKERI,KODAGU,KARNATAKA
"KARNATAKA BANK LIMITED",KARB0000480,577052546,MELPAL,"MANU-KAVYA,MAIN ROAD,MELPAL,N R PURA TALUK, PIN - 577112",247021,MELPAL,CHICKMAGALUR,KARNATAKA
"KARNATAKA BANK LIMITED",KARB0000479,575052012,"MANNAGUDDA MANGALORE","6-19-219/18,IST FLOORFLOOR,""ANUGRAHA"",NEAR MANNAGUDDA BUS STOP,MANNAGUDDA,MANGALORE, PIN - 575003",2229854,MANGALORE,"DAKSHINA KANNADA",KARNATAKA
"KARNATAKA BANK LIMITED",KARB0000478,575052003,"BEJAI MANGALORE","OPAL COMPLEX  CHURCHROAD BEJAI,MANGALORE, PIN - 575004",2229833,MANGALORE,"DAKSHINA KANNADA",KARNATAKA
"KARNATAKA BANK LIMITED",KARB0000477,575052011,"KUDROLI MANGALROE","8-2-147/4,SALSTEL BUILDING,IST FLOOR,G.T.ROAD,ALAKE,MANGALORE, PIN - 575003",2497476,MANGALORE,"DAKSHINA KANNADA",KARNATAKA
"KARNATAKA BANK LIMITED",KARB0000476,575052010,"KODIALBAIL MANGALORE","P V S ROAD,KODIALBAIL,MANGALORE, PIN - 575003",2229850,MANGALORE,"DAKSHINA KANNADA",KARNATAKA
"KARNATAKA BANK LIMITED",KARB0000475,575052020,"DONGERKERY MANGALORE","DONGERKERY,MANGALORE, PIN - 575003",2229840,MANGALORE,"DAKSHINA KANNADA",KARNATAKA
"KARNATAKA BANK LIMITED",KARB0000474,575052009,"KANKANADY MANGALORE","NEAR RED BUILDING,KANKANADY NAGORI,MANGALORE, PIN - 575002",2229848,MANGALORE,"DAKSHINA KANNADA",KARNATAKA
"KARNATAKA BANK LIMITED",KARB0000473,575052004,"BOLAR MANGALORE","22-2-153/5,FIRST FLOOR,SRI KRISHNA BUILDING,JEPPU MARKET JUNCTION,MANGALORE, PIN - 575001",2229835,MANGALORE,"DAKSHINA KANNADA",KARNATAKA
"KARNATAKA BANK LIMITED",KARB0000472,575052005,"BUNDER MANGALORE","IST FLOOR,HIBA TOWERS,AZIZUDDINROAD,BUNDER,MANGALORE, PIN - 575001",2229837,MANGALORE,"DAKSHINA KANNADA",KARNATAKA
"KARNATAKA BANK LIMITED",KARB0000471,575052007,"HAMPANKATTA MANGALORE","11-6-532/15,IST FLOOR STONE LAND TOWERS,MAIDAN NORTH ROAD,HAMPANKATTA,MANGALORE, PIN - 575001",2229842,MANGALORE,"DAKSHINA KANNADA",KARNATAKA
"KARNATAKA BANK LIMITED",KARB0000470,577052545,MALEBENNUR,"IST FLOOR,IRANI COMPLEX,S H ROAD,MALEBENNUR,HARIHARA TALUK, PIN - 577530",268740,MALEBENNUR,DAVANGERE,KARNATAKA
"KARNATAKA BANK LIMITED",KARB0000469,587052501,MAHALINGPUR,"GUNDA BUILDING,BASAWESHWAR CIRCLE,MAHALINGAPUR, PIN - 587312",270114,MAHALINGPUR,BAGALKOT,KARNATAKA
"KARNATAKA BANK LIMITED",KARB0000468,573052509,MAGGE,"SRI KENCHAMBA NILAYA,MAIN ROAD,MAGGE,ALUR TALUK, PIN - 573146",219244,MAGGE,HASSAN,KARNATAKA
"KARNATAKA BANK LIMITED",KARB0000467,671052801,MANGALPADY,"VAIDYAR COMPLEX,KAIKAMBA JUNCTION,UPPALA POST(MANGALPADY), PIN - 671322",240256,MANGALAPADY,KASARGOD,KERALA
"KARNATAKA BANK LIMITED",KARB0000466,571052502,MANDYA,"1121,MADHAVACHAR BUILDING,FIRST FLOOR,M.C.ROAD,MANDYA, PIN - 571401",227250,MANDYA,MANDYA,KARNATAKA
"KARNATAKA BANK LIMITED",KARB0000465,575052030,MANCHI,"2-50,MAIN,NARAYANA SOUDA,MAIN ROAD,MANCHI,BANTWAL TALUK, PIN - 574323",276224,BANTWAL,"DAKSHINA KANNADA",KARNATAKA
"KARNATAKA BANK LIMITED",KARB0000464,600052006,"CATHEDRAL CHENNAI","NO351,AVVAI SHANMUGAM(LOYDS) ROAD,GOPALAPURAM,CHENNAI, PIN - 600086",23453231,CHENNAI,CHENNAI,"TAMIL NADU"
"KARNATAKA BANK LIMITED",KARB0000463,600052004,"MOUNT ROAD CHENNAI","839,FIRST FLOOR,HEERAL MARKET,NEAR ANNA STATUE,MOUNT ROAD,CHENNAI, PIN - 600002",23453244,CHENNAI,CHENNAI,"TAMIL NADU"
"KARNATAKA BANK LIMITED",KARB0000462,600052002,"GT CHENNAI TC STREET","NO 324,GROUND FLOOR,T C STREET,CHENNAI, PIN - 600001",23453236,CHENNAI,CHENNAI,"TAMIL NADU"
"KARNATAKA BANK LIMITED",KARB0000461,572052102,MADHUGIRI,"IST FLOOR,G H S BUILDING,GOVT.HIGH SCHOOL CIRCLE,MADHUGIRI, 572132",282383,MADHUGIRI,TUMKUR,KARNATAKA
"KARNATAKA BANK LIMITED",KARB0000460,721052102,KHARAGPUR,"GROUND FLOOR NO.127 BY 114 PATWARI BUILDING MALANCHA ROAD KHARAGPUR 721 301",242261,KHARAGPUR,"WEST MIDNAPUR","WEST BENGAL"
"KARNATAKA BANK LIMITED",KARB0000459,324052002,KOTA,"GROUND FLOOR,NO 341,SHOPPING CENTRE,GUMANPURA ROAD,KOTA 324 005",9454749821,KOTA,KOTA,RAJASTHAN
"KARNATAKA BANK LIMITED",KARB0000458,577052564,"KYASINAKERE GP","KYASINAKERE VILLAGE AND GRAMA PANCHAYATH,KYASINAKERE,HONNALI TALUK 577 224",9449068731,HONNALI,DAVANGERE,KARNATAKA
"KARNATAKA BANK LIMITED",KARB0000457,576052015,"KANNARPADY KADEKAR","OPP JAYADURGA TEMPLE,KANNARPADY KADEKAR,576 103",9480842343,UDUPI,UDUPI,KARNATAKA
"KARNATAKA BANK LIMITED",KARB0000456,560052071,"KODIGEHALLI GP","OBALAPURA VILLAGE AND POST, KODIGEHALLI GP - 562132",27732323,BANGALORE,"BANGALORE RURAL",KARNATAKA
"KARNATAKA BANK LIMITED",KARB0000455,584052501,LINGSUGUR,"AMARESHWAR COLONY, BANGALORE ROAD, LINGSUGUR - 584122",9844385641,LINGSUGUR,RAICHUR,KARNATAKA
"KARNATAKA BANK LIMITED",KARB0000454,500052012,"L B NAGAR","PLOT NO.70,SHIVA GANGA COLONY,L B NAGAR - 500074,",24039799,"L B NAGAR","RANGA REDDY","ANDHRA PRADESH"
"KARNATAKA BANK LIMITED",KARB0000453,226052002,"LUCKNOW UP","G-3/5,SHALIMAR SQUARE,126/31,B.N.ROAD,LALBAGH,LUCKNOW, PIN - 226001",2201938,LUCKNOW,LUCKNOW,"UTTAR PRADESH"
"KARNATAKA BANK LIMITED",KARB0000452,141052002,"LUDHIANA PUNJAB","B-15/179,IST FLOOR S0NA COMPLEX, NIRANKARI KUCHA,  NO.4,G.T.ROAD,MILLERGANJ LUDHIANA, PIN - 141003",2539943,LUDHIANA,LUDHIANA,PUNJAB
"KARNATAKA BANK LIMITED",KARB0000451,575052504,UJIRE,"3-6/1/32,IST FLOOR,SUDHARSHAN COMMERCIAL COMPLEX,NEAR BUS STAND UJIRE, PIN - 574240",236167,BELTHANGADY,"DAKSHINA KANNADA",KARNATAKA
"KARNATAKA BANK LIMITED",KARB0000450,NA,"RO KOLKATA","FIRST FLOOR, OFFICE NO.111, DIAMOND PRESTIGE, 41 A AJC ROAD, KOLKATA - 700017",22268583,KOLKATA,KOLKATA,"WEST BENGAL"
"KARNATAKA BANK LIMITED",KARB0000449,587052303,"KADAPATTI GP","CTS NO.5138 BY B BY 27 36,TUNGAL COMPLEX,KUDACHI ROAD,KADAPATTI VILLAGE AND GP 587 119,JAMKHANDI TQ",9900421823,KADAPATTI,BAGALKOT,KARNATAKA
"KARNATAKA BANK LIMITED",KARB0000448,583052402,KOPPAL,"NEAR PRAMOD MANDIR KALYAN MANTAP, KINNAI ROAD, KOPPAL - 583231",230448,KOPPAL,KOPPAL,KARNATAKA
"KARNATAKA BANK LIMITED",KARB0000447,571052533,KRISHNARAJAPET,"K R PET - KIKKERI ROAD, 3RD CROSS, BASAVESHWARA NAGAR, KRISHNARAJAPET - 571426",261444,KRISHNARAJAPET,MANDYA,KARNATAKA
"KARNATAKA BANK LIMITED",KARB0000446,575052031,KAIRANGALA,"GROUND FLOOR, PANDIT COMPLEX, DUGGAJJARA KATTE, VIA., KURNAD, KAIRANGALA - 574153",260006,MANGALORE,"SOUTH KANARA",KARNATAKA
"KARNATAKA BANK LIMITED",KARB0000445,583052503,KAMPLI,"D/NO 249 & 248, M.R.PLAZA, MAIN ROAD, KAMPLI - 583132, HOSPET TALUK, BELLARY DIST.",251066,KAMPLI,BELLARY,KARNATAKA
"KARNATAKA BANK LIMITED",KARB0000444,572052529,KUNIGAL,"OPP: POST OFFICE, KRS AGRAHARA, KUVEMPUNAGARA, B M ROAD, KUNIGAL - 572130",220193,KUNIGAL,TUMKUR,KARNATAKA
"KARNATAKA BANK LIMITED",KARB0000443,505052002,KARIMNAGAR,"FIRST FLOOR,7-2-1125,VEMULAVADA ROAD,MANKAMMA THOTA, KARIMNAGAR - 505001",2242077,KARIMNAGAR,KARIMNAGAR,"ANDHRA PRADESH"
"KARNATAKA BANK LIMITED",KARB0000442,577052555,KADUR,"GROUND FLOOR, ┬ôSRI KALI COMPLEX┬ö, N.H.206, KADUR ┬û 577548 (CHICKMAGALUR DIST.)",221666,KADUR,CHICKMAGALUR,KARNATAKA
"KARNATAKA BANK LIMITED",KARB0000441,600052017,KANCHEEPURAM,"GROUND FLOOR 28A,VALLAL PACHAYAPPANSTREET KANCHEEPURAM, PIN - 631501",23453265,KANCHEEPURAM,KANCHEEPURAM,"TAMIL NADU"
"KARNATAKA BANK LIMITED",KARB0000440,560052061,KANAKAPURA,"619A/597-581 KODIHALLY ROAD KANAKAPURA, PIN - 562117",27526048,KANAKAPURA,RAMANAGARAM,KARNATAKA
"KARNATAKA BANK LIMITED",KARB0000439,700052007,BHOWANIPORE,"40,GROUND FLOOR  ASHUTOSH MUKERJEE ROADBHOWANIPORE KOLKATA, PIN -700020",24191739,KOLKATA,KOLKATA,"WEST BENGAL"
"KARNATAKA BANK LIMITED",KARB0000438,700052006,BELIAGHATTA,"32,GROUND FLOOR,HEMCHANDRA NASKAR ROAD,BELIAGHATA,KOLKATA, PIN - 700010",23632399,KOLKATA,KOLKATA,"WEST BENGAL"
"KARNATAKA BANK LIMITED",KARB0000437,208052002,KANPUR,"24/13,FROUND FLOOR,MALL PLAZA,MALL ROAD,KANPUR, PIN - 208001",2365216,KANPUR,KANPUR,"UTTAR PRADESH"
"KARNATAKA BANK LIMITED",KARB0000436,700052005,"RASH BEHARI AVENUE","112A,NEAR LAKE MARKET,RASH BEHARI AVENUE,KOLKATA, PIN - 700029",24657842,KOLKOTA,KOLKOTA,"WEST BENGAL"
"KARNATAKA BANK LIMITED",KARB0000435,700052004,"SALT LAKE KOLKATTA","CJ-161,SECTOR II,JANKI KUNG,SECTOR-2,SALT LAKE CITY,KOLKATA, PIN - 700091",23376956,KOLKOTA,KOLKOTA,"WEST BENGAL"
"KARNATAKA BANK LIMITED",KARB0000434,700052003,"CENTRAL AVENUE KOLKATA","GROUND FLOOR,NO.29,GANESH CHANDRA AVENUE,CENTRAL AVENUEKOLKATA-CENTRAL AVENUE KOLKATA, PIN - 700012",22117215,KOLKOTA,KOLKOTA,"WEST BENGAL"
"KARNATAKA BANK LIMITED",KARB0000433,416052003,"KOLHAPUR SIBER CAMPUS","SIBER CAMPUS,UNIVERSITY ROAD,KOLHAPUR, PIN - 416004",2522887,KOLHAPUR,KOLHAPUR,MAHARASHTRA
"KARNATAKA BANK LIMITED",KARB0000432,671052052,KANHANGAD,"III/797N,IST FLOOR MADAN'S ARCADE,MAIN ROAD,HOSDURG,KANHANGAD, PIN - 671315",2202750,KANHANGAD,KASARGOD,KERALA
"KARNATAKA BANK LIMITED",KARB0000431,507052002,"KHAMMAM AP","11-1-22/A,IST FLOOR,DR.R JAYACHANDRA REDDY COMPLEX,WYRA ROAD,MAYURI CENTRE,KHAMMAM, PIN - 507001",242544,KHAMMAM,KHAMMAM,"ANDHRA PRADESH"
"KARNATAKA BANK LIMITED",KARB0000430,639052002,"KARUR TN","V.V.TOWERS,207/5 KOVAI ROAD,OPP.LGB PETROL BUNK,KARUR, PIN - 639001",234766,KARUR,KARUR,"TAMIL NADU"
"KARNATAKA BANK LIMITED",KARB0000429,533052002,"KAKINADA AP","D NO 34-1-13,IST FLOOR,SRI KRISHNA KIRTHI COMPLEX,TEMPLE STREET,KAKINADA, PIN - 533009",2340257,KAKINADA,"EAST GODAVARI","ANDHRA PRADESH"
"KARNATAKA BANK LIMITED",KARB0000428,518052002,"KURNOOL AP","D NO 4/29-F,M M M COMPLEX,IST FLOOR,PARK ROAD,KURNOOL, PIN - 518001",224775,KURNOOL,KURNOOL,"ANDHRA PRADESH"
"KARNATAKA BANK LIMITED",KARB0000427,400052008,"KALYAN MUMBAI","N H 83,SUCHAK CHAMBERS,NEAR MAHAVEER COMPLEX,KALYAN(WEST),MUMBAI, PIN - 421301",2207664,MUMBAI,MUMBAI,MAHARASHTRA
"KARNATAKA BANK LIMITED",KARB0000426,577052544,KUNDUR,"IST FLOOR,VEENA NILAYA,8/8,MAIN ROAD,KUNDUR, PIN - 577219",262750,KUNDUR,DAVANGERE,KARNATAKA
"KARNATAKA BANK LIMITED",KARB0000425,573052508,KOWSHIKA,"MAIN ROAD,KOWSHIKA, PIN - 573212",227322,KOWSHIKA,HASSAN,KARNATAKA
"KARNATAKA BANK LIMITED",KARB0000424,563052102,KOLAR,"2ND CROSS,M.G.ROAD,KOLAR, PIN - 563101",224634,KOLAR,KOLAR,KARNATAKA
"KARNATAKA BANK LIMITED",KARB0000423,416052002,"KOLHAPUR MAHARASTRA","CSNO.1082/1,OMKAR PLAZA,'E'WARD,BAGAL CHOWK RAJARAM ROAD,KOLHAPUR, PIN - 416008",2522017,KOLHAPUR,KOLHAPUR,MAHARASHTRA
"KARNATAKA BANK LIMITED",KARB0000422,576052508,KIRIMANJESHWARA,"SHREE GANAPATHI KRIPA,NAGOOR,KIRIMANJESHWARA, PIN - 576219",254362,KIRIMANJESHWARA,UDUPI,KARNATAKA
"KARNATAKA BANK LIMITED",KARB0000421,576052012,KATTINGERI,"D NO 1-9,FIRST FLOOR,GOKULDAM COMPLEX,MAIN ROAD,KATTINGERI,P.O MOODUBELLE, PIN - 576120",2541227,KATTINGERI,UDUPI,KARNATAKA
"KARNATAKA BANK LIMITED",KARB0000420,577052543,KUDREGUNDI,"IST FLOOR,ABHILASH COMPLEX KUDREGUNDI,KOPPA TALUK, PIN - 577127",231044,KUDREGUNDI,CHICKMAGALUR,KARNATAKA
"KARNATAKA BANK LIMITED",KARB0000419,581052202,"KARWAR MAIN","IST FLOOR,  SHREE DATTAPRASAD COMPLEX GREEN STREETKARWAR, PIN - 581301",226287,KARWAR,"UTTAR KANNADA",KARNATAKA
"KARNATAKA BANK LIMITED",KARB0000418,575052023,"KURNAD MUDIPU","PADMASHREE COMPLEX,MUDIPU,POST KURNAD,KURNAD-MUDIPU,BANTWAL TALUK, PIN - 574153",260022,"KURNAD MUDIPU","DAKSHINA KANNADA",KARNATAKA
"KARNATAKA BANK LIMITED",KARB0000417,581052527,KUNDGOL,"NADGIRWADA,MAIN ROAD,KUNDGOL, PIN - 581113",290226,KUNDGOL,DHARWAD,KARNATAKA
"KARNATAKA BANK LIMITED",KARB0000416,581052652,KUMTA,"D/363,IST FLOOR,SHILPA BUILDING,KUMBHESHWAR ROAD,BASTIPET,KUMTA, PIN - 581343",222113,KUMTA,"UTTAR KANNADA",KARNATAKA
"KARNATAKA BANK LIMITED",KARB0000415,576052506,KUMBHASHI,"IST FLOOR,PRABHU BUILDING,N.H 17,KUMBHASHI, PIN - 576257",261226,KUMBHASHI,UDUPI,KARNATAKA
"KARNATAKA BANK LIMITED",KARB0000414,571052529,KUDIGE,"FIRST FLOOR,NEAR FARM GATE,MAIN ROAD,KUDIGE, PIN - 571232",278252,KUDIGE,KODAGU,KARNATAKA
"KARNATAKA BANK LIMITED",KARB0000413,571052002,"K R NAGAR MYSORE","2579/1483,7TH ROAD,KRISHNARAJANAGAR, PIN - 571602",262463,MYSORE,MYSORE,KARNATAKA
"KARNATAKA BANK LIMITED",KARB0000412,576052009,KOTA,"FIRST FLOOR,AITHAL COMPLEX,NH 17,KOTA, PIN - 576221",2564131,KOTA,UDUPI,KARNATAKA
"KARNATAKA BANK LIMITED",KARB0000411,572052524,KORATAGERE,"119,MAIN ROAD,KORATAGERE, PIN - 572129",232595,KORATAGERE,TUMKUR,KARNATAKA
"KARNATAKA BANK LIMITED",KARB0000410,577052702,KOPPA,"GANESH COMPLEX,T M ROAD,KOPPA, PIN - 577126",221263,KOPPA,CHICKMAGALUR,KARNATAKA
"KARNATAKA BANK LIMITED",KARB0000409,571052528,KODLIPET,"THRIBHUVAN,GANDHI CHOWK,KODLIPET, PIN - 571231",280022,KODLIPET,KODAGU,KARNATAKA
"KARNATAKA BANK LIMITED",KARB0000408,581052203,"KODIBAG KARWAR","SHRI DATTA PRASAD BUILDING,MAIN ROAD,KARWAR-KODIBAG, PIN - 581303",225232,"KODIBAG KARWAR","UTTAR KANNADA",KARNATAKA
"KARNATAKA BANK LIMITED",KARB0000407,577052542,KATTEHAKLU,"H.NO.37/1,GROUND FLOORHEDDUR DEVANGI ROAD  KATTEHAKLU,THIRTHAHALLI TALUK, PIN - 577415",234533,KATTEHAKLU,SHIMOGA,KARNATAKA
"KARNATAKA BANK LIMITED",KARB0000406,671052002,"KASARGOD KERALA","KMC/III,462A12,GROUND FLOOR,CITY CENTRE,BANK ROAD,KASARGOD, PIN - 671121",231409,KASARGOD,KASARGOD,KERALA
"KARNATAKA BANK LIMITED",KARB0000405,581052526,KARKI,"D.NO.1228A,IST FLOOR DEVARA AATA COMPLEX,NH17,MAIN ROAD,KARKI, PIN - 581341",236354,KARKI,"UTTAR KANNADA",KARNATAKA
"KARNATAKA BANK LIMITED",KARB0000404,575052027,KARKALA,"IST FLOOR,NEAR UDUPI BUS STAND,KARLA COMPLEX,KARKALA, PIN - 574104",230224,KARKALA,UDUPI,KARNATAKA
"KARNATAKA BANK LIMITED",KARB0000403,577052541,KAMMARDI,"IST FLOOR,GANESH BHAT COMPLEX,BEGAR-KALMANE ROAD,KAMMARDI(KOPPA TALUK), PIN - 577125",232024,KAMMARDI,CHICKMAGALUR,KARNATAKA
"KARNATAKA BANK LIMITED",KARB0000402,577052540,KALASA,"IST FLOOR,SRI ANNAPOORNA COMPLEX,MAIN ROAD,KALASA, PIN - 577124",274623,KALASA,CHICKMAGALUR,KARNATAKA
"KARNATAKA BANK LIMITED",KARB0000401,575052028,KABAKA,"RASHID MANZIL BUILDING,MAIN ROAD,KABAKA,PUTTUR TALUK, PIN - 574220",281201,KABAKA,"DAKSHINA KANNADA",KARNATAKA
"KARNATAKA BANK LIMITED",KARB0000400,NA,"RO HUBLI","CTS,122/108,2ND FLOOR,NEELIGIN ROAD,NEW COTTON ROAD,HUBLI, PIN - 580029",2354946,HUBLI,HUBLI,KARNATAKA
"KARNATAKA BANK LIMITED",KARB0000399,576052517,"KARJE GP","ABBAKKA DHARAKKA COMPLEX,KARJE PO 576 215",2566006,UDUPI,UDUPI,KARNATAKA
"KARNATAKA BANK LIMITED",KARB0000398,571052536,"KOTHEGALA GP","MAIN ROAD,KOTHEGALA VILLAGE AND GP,HUNSUR TALUK,571 105",9449016026,HUNSUR,MYSORE,KARNATAKA
"KARNATAKA BANK LIMITED",KARB0000397,560052078,"KADANUR GP","KADANUR VILLAGE,KADANUR GP 561 204,DODDABALLAPURA TALUK",9845455198,BANGALORE,"BANGALORE RURAL",KARNATAKA
"KARNATAKA BANK LIMITED",KARB0000396,583052505,KOTTUR,"GROUND FLOOR D NO 1714 1715 HARAPANAHALLI KUDLIGI ROAD KOTTUR 583134 KUDLIGI TALUK",9448954592,KOTTURU,BELLARY,KARNATAKA
"KARNATAKA BANK LIMITED",KARB0000395,571052452,KOLLEGALA,"D.NO.7-454, DR.RAJKUMAR ROAD,SOUTHERN EXTENSION, KOLLEGALA - 571440, KOLLEGALA TALUK",9480895380,KOLLEGALA,CHAMARAJANAGAR,KARNATAKA
"KARNATAKA BANK LIMITED",KARB0000394,576052519,KAKKUNJE,"ADIGAS HOUSE, GAVALI SHIROOR JUNCTION KAKKUNJE VILLAGE 576222 UDUPI TALUK",0,KAKKUNJE,UDIPI,KARNATAKA
"KARNATAKA BANK LIMITED",KARB0000393,585052509,KEMBHAVI,"GROUND FLOOR, HEMARADDI MALLAMMA COMPLEX, HUNSAGI KEMBHAVI ROAD, KEMBHAVI 585216, SHORAPUR TALUK",9900083816,KEMBHAVI,YADGIR,KARNATAKA
"KARNATAKA BANK LIMITED",KARB0000392,577052571,"KUDLI G P","D NO 68 35, FIRST FLOOR, MAIN ROAD, KUDLI VILLAGE & GRAMA PANCHAYAT 577227, SHIVAMOGAA TALUK",0,KUDLI,SHIVAMOGGA,KARNATAKA
"KARNATAKA BANK LIMITED",KARB0000391,612052002,KUMBAKONAM,"D.NO.16,RAILWAY STATION ROAD,KUMBAKONAM",2400391,KUMBAKONAM,THANJAVUR,"TAMIL NADU"
"KARNATAKA BANK LIMITED",KARB0000390,110052029,KUNDLI,"PLOT NO 32, COMMERCIAL COMPLEX, KUNDLI INDUSTRIAL AREA, KUNDLI 131028, KUNDLI TALUK",9529332624,KUNDLI,SONEPAT,HARYANA
"KARNATAKA BANK LIMITED",KARB0000389,576052521,"KULANJE SHANKARANARAYANA GP","HALADY-SHANKARANARAYANA ROAD, KULANJE, SHANKARANARAYANA GP-576227, KUNDAPURA TALUK",0,"SHANKARANARAYANA GP",UDUPI,KARNATAKA
"KARNATAKA BANK LIMITED",KARB0000388,573052519,"KALENAHALLI GP","RAMANATHAPURA - MYSURU MAIN ROAD, KALENAHALLI VILLAGE & GP - 573113, ARKALGUD TALUK",9449968778,"KALENAHALLI GP",HASSAN,KARNATAKA
"KARNATAKA BANK LIMITED",KARB0000387,583052507,KARATAGI,"NO.8-6-98/75-77, RAICHUR-GANGAVATHI ROAD,KARATAGI - 583229",274387,KARATAGI,KOPPAL,KARNATAKA
"KARNATAKA BANK LIMITED",KARB0000386,571052539,KUSHALNAGAR,"SY.NO.1/4,2/1,2/2. FIELD MARSHAL CARIAPPA ROAD, BLOCK NO.4, KUSHALNAGAR-571234",9902861492,KUSHALNAGAR,KODAGU,KARNATAKA
"KARNATAKA BANK LIMITED",KARB0000385,585052004,"KALABURAGI, RAM MANDIR","NO.1-891/77/4, SAI NAGAR RING ROAD, RAM MANDIR CIRCLE,KALABURAGI",9916532222,KALABURAGI,KALABURAGI,KARNATAKA
"KARNATAKA BANK LIMITED",KARB0000384,576052203,"KONI GP","GROUND FLOOR,NEAR KONI GRAMA PANCHAYATH OFFICE,KUNDAPURA-SHIVAMOGGA ROAD,KONI VILLAGE&GP,KUNDAPURA TALUK-576217",232235,KONI,UDUPI,KARNATAKA
"KARNATAKA BANK LIMITED",KARB0000383,700052013,"KOLKATA GIRISH PARK","D.NO.60,GROUND FLOOR,VIVEKANANDA ROAD,JORASANKO, GIRISH PARK,KOLKATA-700006",23632399,KOLKATA,KOLKATA,"WEST BENGAL"
"KARNATAKA BANK LIMITED",KARB0000382,574052527,KOILA,"UPPINANGADY-SUBRAMANYA ROAD, ATHOOR, KOILA VILLAGE & GP-574241, PUTTUR TALUK",0,PUTTUR,"DAKSHINA KANNADA",KARNATAKA
"KARNATAKA BANK LIMITED",KARB0000381,574052526,"KEPU G.P","D.NO.2/113,NEERKAJE POST,BANTWAL TALUK,KEPU VILLAGE & GP -574243",9880121322,"BANTWAL TALUK","DAKSHINA KANNADA",KARNATAKA
"KARNATAKA BANK LIMITED",KARB0000378,574052303,KAYARTHADAKA,"TRINITY COMPLEX, MAIN ROAD, KAYARTHADKA-574216,KALANJA GP, BELTHANGADY TALUK.",0,KAYARTHADAKA,"DAKSHINA KANNADA",KARNATAKA
"KARNATAKA BANK LIMITED",KARB0000376,577052575,JARIKATTE,"S SHIVAJIRAO PLAZA, DAVANGERE-MALEBENNUR ROAD, JARIKATTE VILLAGE - 577002, MUDAHADADI GP, DAVANGERE TALUK",9036033480,JARIKATTE,DAVANGERE,KARNATAKA
"KARNATAKA BANK LIMITED",KARB0000375,560052084,JIGANI,"GROUND FLOOR, SRI LAXMINARAYANA COMPLEX, APC CIRCLE, JIGANI 560105, ANEKAL TALUK",9535379753,JIGANI,"BENGALURU URBAN",KARNATAKA
"KARNATAKA BANK LIMITED",KARB0000374,577052573,"JIGALI G P","KH NO 43 1,44 1 & 2, GROUND FLOOR, JIGALI VILLAGE & GP 577530, HARIHARA TALUK, DAVANGERE",0,JIGALI,DAVANGERE,KARNATAKA
"KARNATAKA BANK LIMITED",KARB0000373,585052511,JEVARGI,"GROUND FLOOR, PLOT NO 4 & 5, AKHANDESHWAR CHOWK, VIDYANAGAR ROAD, JEVARGI 585310",0,JEVARGI,KALABURAGI,KARNATAKA
"KARNATAKA BANK LIMITED",KARB0000372,361052001,JAMNAGAR,"SHOP NO.5 AND 6 KUBER AVENUE GURU NANAK ROAD NEAR GURUDWARA CHOWK JAMNAGAR 361 008",9900649355,JAMNAGAR,JAMNAGAR,GUJARAT
"KARNATAKA BANK LIMITED",KARB0000371,302052003,"JAIPUR VAISHALINAGAR","C 13, G F, VAISHALI MARG, VAISHALI NAGAR, JAIPUR 303021",9982055226,JAIPUR,JAIPUR,RAJASTHAN
"KARNATAKA BANK LIMITED",KARB0000370,573052004,"JAJUR GP","SHIRDI SAI NIVAS, JAJUR VILLAGE AND POST, JAJUR - 573103",230056,HASSAN,HASSAN,KARNATAKA
"KARNATAKA BANK LIMITED",KARB0000369,482052001,JABALPUR,"SHIV MULA TOWER, NO.1553, MAIN ROAD, WRIGHT TOWN, JABALPUR - 482002",2411444,JABALPUR,JABALPUR,"MADHYA PRADESH"
"KARNATAKA BANK LIMITED",KARB0000368,831052002,JAMSHEDPUR,"DHIREN TOWERS, Q ROAD, BISTUPUR, JAMSHEDPUR - 831001",2320496,JAMSHEDPUR,"PURBI SINGHBHUM",JHARKHAND
"KARNATAKA BANK LIMITED",KARB0000367,755052102,"JAJPUR ROAD","FIRST FLOOR, GATE NO. 1, MUKTA MARKET COMPLEX, GOPABANDHU CHHAK, JAJPUR ROAD, JAJPUR DIST. ORISSA, PIN - 755019",224221,JAJPUR,JAJPUR,ODISHA
"KARNATAKA BANK LIMITED",KARB0000366,342052002,JODHPUR,"GROUND FLOOR,ANAND BHAVAN,MAIN CHOPASNI ROAD,SHANICHARGI KATHAN,JODHPUR, PIN - 342001",2628908,JODHPUR,JODHPUR,RAJASTHAN
"KARNATAKA BANK LIMITED",KARB0000365,144052002,"JALANDHAR PUNJAB","GROUND FLOOR,GOBIND MALL,NO.25,G.T.ROAD,JALANDHAR - PIN - 144001",2220872,JALANDHAR,JALANDHAR,PUNJAB
"KARNATAKA BANK LIMITED",KARB0000364,302052002,"JAIPUR RAJASTHAN","GROUND FLOOR,UMAID NAGAR HOUSE,PLOT NO.4,OPP.GANAPATI PLAZA,M.I.ROAD,JAIPUR, PIN - 302001",2378642,JAIPUR,JAIPUR,RAJASTHAN
"KARNATAKA BANK LIMITED",KARB0000363,577052652,MUDIGERE,"IST FLOOR,SINDHU TOWERS K.M.ROAD  MUDIGERE, PIN - 577132",221425,MUDIGERE,CHICKMAGALUR,KARNATAKA
"KARNATAKA BANK LIMITED",KARB0000362,577052539,JAYAPURA,"GROUND FLOOR,  SRI RAM COMPLEX OPP.BUS STANDJAYAPURA, PIN - 577123",245127,KOPPA,CHICKMAGALUR,KARNATAKA
"KARNATAKA BANK LIMITED",KARB0000361,587052302,JAMKHANDI,"GOWDANAVAR BUILDING,BASAVESHWAR ROAD,JAMKHANDI, PIN - 587301",220022,JAMKHANDI,BAGALKOT,KARNATAKA
"KARNATAKA BANK LIMITED",KARB0000356,574052525,"IRA G.P.","D.NO.3/186,GROUND FLOOR,NEAR BUS STOP,IRA VILLAGE & GP-574323, BANTWAL TALUK",273022,"BANTWAL TALUK","DAKSHINA KANNADA",KARNATAKA
"KARNATAKA BANK LIMITED",KARB0000355,452052003,"INDORE VIJAYANAGAR","GROUND FLOOR, NO DF-23, SCHEME NO. 74-C, NEAR BRILLIANT CONVENTION CENTER, VIJAYANAGAR, INDORE -452010",0,INDORE,INDORE,"MADHYA PRADESH"
"KARNATAKA BANK LIMITED",KARB0000354,587052504,ILKAL,"KANTHI CIRCLE, MAIN ROAD, ILKAL 587125 HUNGUND TALUK, BAGALKOT DIST",9035524075,ILKAL,BAGALKOTE,KARNATAKA
"KARNATAKA BANK LIMITED",KARB0000353,586052504,INDI,"PLOT NO. 11, SHANTESWARA BUILDING, BEERAPPA NAGAR, BIJAPUR ROAD, INDI-586209, BIJAPUR DIST.",222080,INDI,BIJAPUR,KARNATAKA
"KARNATAKA BANK LIMITED",KARB0000352,452052002,"INDORE MP","8/2,OLD PALASIA,REFEAL TOWERS,GREATER KAILASH ROAD,OLD PALASIA,INDORE, PIN - 452001",2560325,INDORE,INDORE,"MADHYA PRADESH"
"KARNATAKA BANK LIMITED",KARB0000351,575052008,"SURATKAL IDDYA","4-77/2,IST FLOOR,SHANKER SADANA,MAIN ROAD,IDDYA SURATHKAL, PIN - 575014",2229844,SURATHKAL,"DAKSHINA KANNADA",KARNATAKA
"KARNATAKA BANK LIMITED",KARB0000350,NA,"RO HYDERABAD","PLOT NO.50, IST FLOOR. ROAD NO.3, SRINAGAR COLONY, BANJARA HILLS HYDERABAD-500073",23732076,HYDERABAD,HYDERABAD,"ANDHRA PRADESH"
"KARNATAKA BANK LIMITED",KARB0000349,580052009,"HUBBALLI BHAVANI NAGAR","GROUND FLOOR, KALBURGI ELITE SAI GARDEN, CHINMAYA SCHOOL ROAD, BHAVANI NAGAR, HUBBALLI 580023",0,HUBBALLI,DHARWAD,KARNATAKA
"KARNATAKA BANK LIMITED",KARB0000348,635052402,HOSUR,"GROUND FLOOR, D NO 74 3RD CROSS ROAD,KAMARAJ COLONY HOSUR 635109,HOSUR TALUK, KRISHNAGIRI DIST",9677888752,HOSUR,KRISHNAGIRI,"TAMIL NADU"
"KARNATAKA BANK LIMITED",KARB0000347,577052565,HOLALKERE,"C B ROAD,HOLALKERE 577 526",9845145549,CHITRADURGA,CHITRADURGA,KARNATAKA
"KARNATAKA BANK LIMITED",KARB0000346,570052502,HEGGADADEVANAKOTE,"SITE NO 5184,RANGA IYENGAR LAYOUT,HEGGADADEVANAKOTE 571 114",9591765886,MYSORE,MYSORE,KARNATAKA
"KARNATAKA BANK LIMITED",KARB0000345,573052303,"HASSAN KUVEMPUNAGAR","OLD TALUK OFFICE ROAD,HOUSING BOARD EXTENSION,HASSAN KUVEMPUNAGAR,573 201",9482131543,HASSAN,HASSAN,KARNATAKA
"KARNATAKA BANK LIMITED",KARB0000344,570052013,HOOTAGALLY,"HUNSUR MYSORE ROAD,HOOTAGALLY 570 018,MYSORE DISTRICT,KARNATAKA",2417544,HOOTAGALLY,MYSORE,KARNATAKA
"KARNATAKA BANK LIMITED",KARB0000343,571052535,"HARADANAHALLI GP","HARADANAHALLI GRAMA PANCHAYAT, SALIGRAMA RAMANATHAPURA ROAD, HARADANAHALLI - 571604",286444,"K R NAGAR",MYSORE,KARNATAKA
"KARNATAKA BANK LIMITED",KARB0000342,583052504,"HOOVINA HADAGALLI","SRI BALAJI COMPLEX, OPP. PWD OFFICE, HARAPANAHALLI ROAD, HOOVINA HADAGALI - 583219",240129,"HOOVINA HADAGALLI",BELLARY,KARNATAKA
"KARNATAKA BANK LIMITED",KARB0000341,577052557,HARAPANAHALLI,"KHUSMANDINI COMPLEX, HARIHARA - HOSPET ROAD, NEAR KSRTC BUS STAND, HARAPANAHALLI - 583131",280300,HARAPANAHALLI,DAVANGERE,KARNATAKA
"KARNATAKA BANK LIMITED",KARB0000340,585052507,HOTHPET,"MAIN ROAD, NEAR BUS STAND, HOTHPET GRAMA PANCHAYAT, VILLAGE HOTHPET - 585287",293511,YADGIR,YADGIR,KARNATAKA
"KARNATAKA BANK LIMITED",KARB0000339,580052008,VIDYANAGAR,"GROUND FLOOR, CHETTANA COLLEGE ROAD, SHIRUR PARK, VIDYANAGAR, HUBLI - 580021",2232386,HUBLI,HUBLI,KARNATAKA
"KARNATAKA BANK LIMITED",KARB0000338,577052556,HORANADU,"MAIN ROAD, BESIDES YAATHRI NIVAS, HARANADU - 577181, MUDIGERE TALUK, CHICKMAGALUR DIST., PIN - 577181",269500,HORANADU,CHICKMAGALUR,KARNATAKA
"KARNATAKA BANK LIMITED",KARB0000337,560052057,HOSKOTE,"1273/2540/22NAVEEN BUILDING COLLEGE ROADSRI VISHVESHWARAIAH LAYOUT HOSKOTE, PIN - 562114",27933555,BANGALORE,BANGALORE-RURAL,KARNATAKA
"KARNATAKA BANK LIMITED",KARB0000336,500052009,KUKATPALLY,"PRATIMA ARCADE,PLOT NO.42&43,PHASE VI,K.P.H.B.KUKATPALLY, HYDERABAD, PIN - 500072",20040878,HYDERABAD,HYDERABAD,"ANDHRA PRADESH"
"KARNATAKA BANK LIMITED",KARB0000335,249052002,HARIDWAR,"MAHANT STHAL,NEAR VAN PRASTHA ASHRAM,JWALAPUR ROAD,HARIDWAR, PIN - 249407",251863,HARIDWAR,UTTARAKHAND,UTTARAKHAND
"KARNATAKA BANK LIMITED",KARB0000334,500052007,"RAJBHAVAN ROAD HYDREBAD","6-3-1090/A,GROUND FLOOR,BHUPAL TOWERS,RAJBHAVAN ROAD,SOMAJIGUDA,HYDERABAD, PIN - 500082",23320642,HYDERABAD,HYDERABAD,"ANDHRA PRADESH"
"KARNATAKA BANK LIMITED",KARB0000333,500052008,"UMA NAGAR HYDREBAD","6-3-1219/24,UJWALBHAWSHYA BUILDING,UMANAGAR,BEGUMPET,HYDERABAD, 500016",23415933,HYDERABAD,HYDERABAD,"ANDHRA PRADESH"
"KARNATAKA BANK LIMITED",KARB0000332,580052007,"MADHURA ESTATE HUBLI","PLOT NO.39,MADHURA ESTATE,KESHWAPUR,HUBLI, PIN - 580023",2216059,HUBLI,HUBLI,KARNATAKA
"KARNATAKA BANK LIMITED",KARB0000331,500052005,"DILSUKHNAGAR HYDERABAD","H.NO 3-4/1 A.K.REDDY COMPLEXCHAITANYAPURI, DILSUKNAGARHYDERABADANDHRAPRADESH, PIN - 500060",24044999,HYDERABAD,HYDERABAD,"ANDHRA PRADESH"
"KARNATAKA BANK LIMITED",KARB0000330,580052004,"GOKUL ROAD HUBLI","PLOT NO.37,CTS NO 610/D,IST FLOOR,KAMALANI NEHRUNAGAR,GOKUL ROAD,HUBLI, PIN - 580030",2337567,HUBLI,HUBLI,KARNATAKA
"KARNATAKA BANK LIMITED",KARB0000329,500052004,"BANJARA HILLS HYDERABAD","PLOT NO 50,SRINAGAR COLONY,BANJARA HILLS,HYDERABAD, PIN - 500073",23741627,HYDERABAD,HYDERABAD,"ANDHRA PRADESH"
"KARNATAKA BANK LIMITED",KARB0000328,580052006,"NAVANAGAR HUBLI","KARNATAKA CANCER THERAPY&RESEARCH INSTITUTE CAMPUS,(KCT&RI)MAIN ROAD,NAVANAGAR,HUBLI, PIN - 580025",2216056,HUBLI,HUBLI,KARNATAKA
"KARNATAKA BANK LIMITED",KARB0000327,515052102,"HINDUPUR A P","17-3-632/4,IST FLOOR,JEELANI COMPLEX,K L ROAD,HINDUPUR, PIN - 515201",222242,HINDUPUR,ANANTHAPUR,"ANDHRA PRADESH"
"KARNATAKA BANK LIMITED",KARB0000326,573052507,ALUR,"OPPOSITE TALUK HOSPITAL,B.M.ROAD,ALUR, PIN - 573218",70218269,HUNSEMARANAHALLI,BANGALORE-NORTH,KARNATAKA
"KARNATAKA BANK LIMITED",KARB0000325,560052038,"HUNASEMARANAHALLI BLORE","PLOT NO.12,PANCHAYAT OFFICE BUILDING,BANGALORE-BELLARY ROAD,HUNSEMARANAHALLI, PIN - 562157",28478767,BANGALORE,BANGALORE-NORTH,KARNATAKA
"KARNATAKA BANK LIMITED",KARB0000324,585052503,HUNSAGI,"MAIN ROAD,HUNSAGI, PIN - 585215",200428,HUNSAGI,GULBARGA,KARNATAKA
"KARNATAKA BANK LIMITED",KARB0000323,581052525,HOSAKULI,"GROUND FLOOR, SHREE VINAYAKA,AREANGADI HONNAVAR MAIN ROADHOSAKULI HONNAVAR TALUK, PIN - 581430",262128,HOSAKULI,"UTTAR KANNADA",KARNATAKA
"KARNATAKA BANK LIMITED",KARB0000322,577052538,HARIHARAPURA,"S.B.S.COMPLEX,SRINGERI ROAD,HOSAKOPPA, PIN - 577120",274175,HARIHARAPURA,CHICKMAGALUR,KARNATAKA
"KARNATAKA BANK LIMITED",KARB0000321,576052504,HANGLUR,"HARIKRIPA BUILDING,NH17,HANGALUR,(KUNDAPUR TALUK), PIN - 576217",230208,HANGLUR,UDUPI,KARNATAKA
"KARNATAKA BANK LIMITED",KARB0000320,500052002,"HYDERABAD MAIN NAMPALLY","5-4-424,KAMDAR ESTATE,NAMPALLY STATION ROAD,HYDERABAD, PIN - 500001",23206232,HYDERABAD,HYDERABAD,"ANDHRA PRADESH"
"KARNATAKA BANK LIMITED",KARB0000319,571052052,HUNSUR,"ASHIRWAD COMPLEX,M B.M.ROAD,HUNSUR, PIN - 571105",252026,HUNSUR,MYSORE,KARNATAKA
"KARNATAKA BANK LIMITED",KARB0000318,577052537,HUMCHA,"IST FLOOR,DEVENDRAPPA'S BUILDING,MAINROAD,HUMCHA, PIN - 577436",262723,HUMCHA,SHIMOGA,KARNATAKA
"KARNATAKA BANK LIMITED",KARB0000317,580052005,"OLD HUBLI","BANASHANKARI DEVASTHAN BUILDING,KASBAPETH POLICE STATION,MAIN ROAD,OLD HUBLI,HUBLI, PIN - 580024",2303554,HUBLI,HUBLI,KARNATAKA
"KARNATAKA BANK LIMITED",KARB0000316,580052003,"NEW COTTON MARKET HUBLI","FIRST FLOOR,NEELIGIN ROAD,NEW COTTON MARKET,HUBLI, PIN - 580029",2350117,HUBLI,HUBLI,KARNATAKA
"KARNATAKA BANK LIMITED",KARB0000315,580052002,"DURGAD BAIL HUBLI","FIRST FLOOR,TABIB MANSION,OPP.CBT DURGADBAIL,HUBLI, PIN - 580020",2263429,HUBLI,HUBLI,KARNATAKA
"KARNATAKA BANK LIMITED",KARB0000314,583052202,HOSPET,"241,BALA COMPLEX,STATION ROAD,HOSPET, PIN - 583201",228602,HOSPET,BELLARY,KARNATAKA
"KARNATAKA BANK LIMITED",KARB0000313,577052536,HOSANAGAR,"MAIN ROAD,HOSANAGARA, PIN - 577418",221228,HOLEHONNUR,SHIMOGA,KARNATAKA
"KARNATAKA BANK LIMITED",KARB0000312,572052521,HOSADURGA,"IST FLOOR,TAPCMS BUILDING,MAINROAD,HOSADURGA, PIN - 577527",230234,HOSADURGA,CHITRADURGA,KARNATAKA
"KARNATAKA BANK LIMITED",KARB0000311,572052523,HONNAVALI,"HONNAVALLI,OLD POST OFFICE ROAD,HONNAVALLY, PIN - 572217",264706,HONNAVALI,TUMKUR,KARNATAKA
"KARNATAKA BANK LIMITED",KARB0000310,577052535,HONNALI,"SITE NO 249,IST FLOOR,NYAMATHI ROAD,HONNALI, PIN - 577217",251023,HONNALI,DAVANGERE,KARNATAKA
"KARNATAKA BANK LIMITED",KARB0000309,573052152,HOLENARSIPURA,"MUNCIPAL COMPLEX,GANDHI CHOWK,HOLENARASIPUR, PIN - 573211",273240,HOLENARSIPURA,HASSAN,KARNATAKA
"KARNATAKA BANK LIMITED",KARB0000308,577052534,HOLEHONNUR,"IST FLOOR,ANJANEYA BUILDING,CHANNAGIRI ROAD,HOLEHONNUR, PIN - 577227",235421,HOLEHONNUR,SHIMOGA,KARNATAKA
"KARNATAKA BANK LIMITED",KARB0000307,572052302,HIRIYUR,"106/1633,IST FLOOR,NEAR POST OFFICE,MAIN ROAD,HIRIYUR, PIN - 572143",228326,HIRIYUR,CHITRADURGA,KARNATAKA
"KARNATAKA BANK LIMITED",KARB0000306,577052533,HEGGODU,"P.O HONNESARA,HEGGODU,SAGAR TALUK, PIN - 577417",265625,HEGGODU,SHIMOGA,KARNATAKA
"KARNATAKA BANK LIMITED",KARB0000305,581052052,HAVERI,"LAXMI COMPLEX,POONA-BANGALORE ROAD,HAVERI, PIN - 581110",232474,HAVERI,HAVERI,KARNATAKA
"KARNATAKA BANK LIMITED",KARB0000304,573052302,HASSAN,"IST FLOOR,GANAPATHI SEVA SAMITHI BUILDING,BUS STAND ROAD,HASSAN, PIN - 573201",268103,HASSAN,HASSAN,KARNATAKA
"KARNATAKA BANK LIMITED",KARB0000303,577052602,HARIHARA,"DR.HEGDE BUILDING,P B ROAD,HARIHARA, PIN - 577601",241289,HARIHARA,DAVANGERE,KARNATAKA
"KARNATAKA BANK LIMITED",KARB0000302,581052524,HANGAL,"TMC NO 34/10/16-4 GROUND FLOORKAMAKSHI COMPLEX  MINI VIDHANA SOUDHA ROAD HANGAL, PIN - 581104",262272,HANGAL,HAVERI,KARNATAKA
"KARNATAKA BANK LIMITED",KARB0000301,573052506,HANBAL,"PRAKYATH COMPLEX,MAIN ROAD,HANBAL,SAKLESHPUR TALUK, PIN - 577119",240426,HANBAL,HASSAN,KARNATAKA
"KARNATAKA BANK LIMITED",KARB0000300,NA,"RO SHIMOGA","IST FLOOR,KARNATAKA BANK BUILDING,SAVALANGA ROAD,SHIMOGA, PIN - 577201.",227002,SHIMOGA,SHIMOGA,KARNATAKA
"KARNATAKA BANK LIMITED",KARB0000298,576052520,"HATTIANGADI GP","GROUND FLOOR, NEAR SIDDI VINAYAKA TEMPLE, CAR STREET, HATTIANGADI VILLAGE & GP, 576230, KUNDAPUR TALUK, UDUPI DIST",0,HATTIANGADI,UDIPI,KARNATAKA
"KARNATAKA BANK LIMITED",KARB0000297,WAITING,"HAGARI BOMMANAHALLI","D.NO.8/23,HOSPET-HARIHARA ROAD,BASAVESHWAR BAZAR,HAGARI BOMMANAHALLI",0,BALLARI,BALLARI,KARNATAKA
"KARNATAKA BANK LIMITED",KARB0000296,573052304,"HASSAN VIDYANAGAR","GROUND FLOOR,RING ROAD,BELURU-BENGALURU ROAD,VIDYANAGAR,HASSAN",9483412296,HASSAN,HASSAN,KARNATAKA
"KARNATAKA BANK LIMITED",KARB0000295,571052538,HALAGUR,"NO.314, M K BASAVEGOWDA COMPLEX, B M ROAD, HALAGUR-571421, MALAVALLI TALUK",0,HALAGUR,MANDYA,KARNATAKA
"KARNATAKA BANK LIMITED",KARB0000294,700052012,HOWRAH,"NO.8/1,HARDATRAI CHAMARIA ROAD,NEAR HOWRAH A C MARKET, HOWRAH - 711101",26660020,HOWRAH,HOWRAH,"WEST BENGAL"
"KARNATAKA BANK LIMITED",KARB0000293,560052093,"HURULI CHIKKANAHALLI GP","NO.196, HESARAGHATTA MAIN ROAD, HURALLI CHIKKANAHALLI VILLAGE & GP-560090, BENGALURU URBAN DISTRICT",8867161686,"BENGALURU URBAN DISTRICT","BENGALURU URBAN",KARNATAKA
"KARNATAKA BANK LIMITED",KARB0000292,560052503,HAROHALLI,"NO.1235/1,BENGALURU-KANAKAPURA ROAD, GUNDURAO LAYOUT,HAROHALLI-562112,KANAKAPURA TALUK",9449524292,BENGALURU,RAMANAGARA,KARNATAKA
"KARNATAKA BANK LIMITED",KARB0000291,581052602,HONAVAR,"FIRST FLOOR,KAMALASHRI TOWERS,SHARAVATHI CIRCLE BAZAR ROAD, HONAVAR-581334",0,HONAVAR,"UTTAR KANNADA",KARNATAKA
"KARNATAKA BANK LIMITED",KARB0000283,575052038,"GOLTHAMAJALU GP","SRI RAMA COMPLEX, SRI RAMA MANDIR BUILDING, NH 75,GOLTHAMAJALU VILLAGE & GP,KALLADKA POST-574222,BANTWAL TALUK",0,"GOLTHAMAJALU GP","DAKSHINA KANNADA",KARNATAKA
"KARNATAKA BANK LIMITED",KARB0000281,370052001,GANDHIDHAM,"D.NO.168,NEAR ZANDA CHOWK,DBZ SOUTH,GANDHIDHAM-370201",0,GANDHIDHAM,KUTCH,GUJARAT
"KARNATAKA BANK LIMITED",KARB0000280,110052030,"GURGAON SECTOR","DSS NO.25 & 26,HUDA MARKET,OLD RAILWAY ROAD,SECTOR-7,GURGAON",9891363417,GURGAON,GURGAON,HARYANA
"KARNATAKA BANK LIMITED",KARB0000279,520052103,"GUNTUR AMARAVATI ROAD","GROUND FLOOR, D NO 4 14 106, ANANDA NILAYAM, NEAR ANJANEYA SWAMI TEMPLE, AMARAVATI ROAD, GUNTUR 522007",0,GUNTUR,GUNTUR,"ANDHRA PRADESH"
"KARNATAKA BANK LIMITED",KARB0000278,587052505,"GULGAL JAMBAGI VILLAGE","GROUND FLOOR, GULGAL JAMBAGI VILLAGE 587313, CHINCHAKHANDI KD GP, MUDHOL TALUK",0,MUDHOL,BAGALKOT,KARNATAKA
"KARNATAKA BANK LIMITED",KARB0000276,600052023,GERUGAMBAKKAM,"D NO 1515, GROUND FLOOR, KUNDRATHUR, MAIN ROAD GERUGAMBAKKAM, CHENNAI 600122",9962297740,GERUGAMBAKKAM,KANCHEEPURAM,"TAMIL NADU"
"KARNATAKA BANK LIMITED",KARB0000275,580052501,"GUDISAGARA GP","B T KULKARNI BUILDING GUDISAGARA VILLAGE GUDISAGARA GP 582 208 NAVALGUND TQ",9482142536,HUBLI,DHARWAD,KARNATAKA
"KARNATAKA BANK LIMITED",KARB0000274,576052516,"GOLIANGADI HILIYANA","ANUGRAHA,HALADI HEBRI ROAD GOLAINGADI HILIYANA BELVE PO,KUNDAPURA TALUK UDUPI 576212",8971787261,KUNDAPURA,UDUPI,KARNATAKA
"KARNATAKA BANK LIMITED",KARB0000273,591052501,"GUNDEWADI GP","ATHANI ANANTHPUR ROAD NEAR KADASIDDESHWARA TEMPLE GUNDEWADI VILLAGE AND GP 591 327 ATHANI TALUK",9448439785,ATHANI,BELGAUM,KARNATAKA
"KARNATAKA BANK LIMITED",KARB0000272,585052003,"GULBARGA NEHRU GUNJ","NO.7.079 BY A,CTS NO.1380,HUMNABAD ROAD,NEHRU GUNJ,GULBARGA 585 101",9880961272,GULBARGA,GULBARGA,KARNATAKA
"KARNATAKA BANK LIMITED",KARB0000271,110052026,"GURGAON SECTOR 31-32A","SCO-28, SECTOR 31-32A, GURGAON - 122001",4231315,GURGAON,GURGAON,HARYANA
"KARNATAKA BANK LIMITED",KARB0000270,110052024,GANAUR,"RAILWAY ROAD, GANAUR - 131101",2460700,SONIPAT,SONIPAT,HARYANA
"KARNATAKA BANK LIMITED",KARB0000269,561052202,GAURIBIDANUR,"RAILWAY STATION ROAD, GAURIBIDANUR - 561208",283124,CHIKKABALLAPURA,CHIKABALLAPURA,KARNATAKA
"KARNATAKA BANK LIMITED",KARB0000268,403052007,MAPUSA,"RIJIM PLAZA, MARKET ROAD, MAPUSA, GOA - 403507",2253601,MAPUSA,GOA,GOA
"KARNATAKA BANK LIMITED",KARB0000267,474052001,GWALIOR,"GROUND FLOOR, BKG HOUSE, OPP. SANJAY COMPLEX, JAYENDRAGANJ, GWALIOR - 474009",2631860,GWALIOR,GWALIOR,"MADHYA PRADESH"
"KARNATAKA BANK LIMITED",KARB0000266,110052022,GHAZIABAD,"GROUND FLOOR  GAUR GRAVITY MALL  8,VAIBHAVKHAND  INDIRAPURAM  GHAZIABAD, PIN - 201014",2605484,GHAZIABAD,GHAZIABAD,"UTTAR PRADESH"
"KARNATAKA BANK LIMITED",KARB0000265,571052652,GUNDLUPET,"40/41 IST FLOORNH212 MYSORE OOTY ROAD  GUNDLUPET, PIN - 571111",222011,GUNDLUPET,GUNDLUPET,KARNATAKA
"KARNATAKA BANK LIMITED",KARB0000264,781052002,GUWAHATI,"IST FLOOR,GANGA BHAVAN,OPP.S.B.DEORAH COLLEGE,ULUBARI,G.S.ROAD,GUWAHATI, PIN - 781007",2465416,GUWAHATI,KAMRUP,ASSAM
"KARNATAKA BANK LIMITED",KARB0000263,403052006,"GOA PONDA","HOTEL MENINO BUILDING,BELGAUM-PONDA ROAD,DHADA VAIDYA CHOWK,GOA, PIN - 403401",2316988,GOA,GOA-NORTH,GOA
"KARNATAKA BANK LIMITED",KARB0000262,583052302,GANGAVATHI,"FIRST FLOOR,DEVASIRI COMPLEX,L.G.ROAD,GANGAVATHI, PIN - 583227",234400,GANGAVATHI,KOPPAL,KARNATAKA
"KARNATAKA BANK LIMITED",KARB0000261,110052005,"GURGAON HARYANA","SCO 21,SECTOR-14,OLD DELHI ROAD,GURGAON, PIN - 122007",4107088,GURGAON,GURGAON,HARYANA
"KARNATAKA BANK LIMITED",KARB0000260,571052527,GONIKOPPAL,"FIRST FLOOR,RONICA COMPLEX,MAIN ROAD,GONIKOPPAL, PIN - 571213",247587,GONIKOPPAL,"SOUTH COORG",KARNATAKA
"KARNATAKA BANK LIMITED",KARB0000259,591052502,GOKAK,"GROUND FLOOR,SATISH COMPLEX,MAIN ROAD,GOKAK, PIN - 591307",226285,GOKAK,BELGAUM,KARNATAKA
"KARNATAKA BANK LIMITED",KARB0000258,580052303,"GOPALPURA DHARWAD","SHRI DURGAPARAMESHWARI PLAZA,CTS NO.94/1A/2A2,STATION ROAD,MALAMADDI,DHARWAD, PIN - 580007",2748680,GOPALPURA,DHARWAD,KARNATAKA
"KARNATAKA BANK LIMITED",KARB0000257,572052522,GUBBI,"B SIDDARAMANNA BUILDING,NEAR BUS STAND,B H ROAD,GUBBI, PIN - 572216.",222231,GUBBI,TUMKUR,KARNATAKA
"KARNATAKA BANK LIMITED",KARB0000256,577052532,GAJANOOR,"MAIN ROAD,GAJANOOR, 577202",234232,GAJANOOR,SHIMOGA,KARNATAKA
"KARNATAKA BANK LIMITED",KARB0000255,520052102,"GUNTUR AP","24-34,35,BEHIND HINDU COLLEGE,G T ROAD,GUNTUR, PIN - 522003",2256148,GUNTUR,GUNTUR,"ANDHRA PRADESH"
"KARNATAKA BANK LIMITED",KARB0000254,585052002,GULBARGA,"NO.30,IST FLOOR,""BHIMALLI BUILDING"",SUPER MARKET,GULBARGA, 585101",269354,GULBARGA,GULBARGA,KARNATAKA
"KARNATAKA BANK LIMITED",KARB0000253,577052531,GONIBEEDU,"MAIN ROAD,GONIBEEDU,MUDIGERE TALUK, PIN - 577151",240134,MUDIGERE,CHICKMAGALUR,KARNATAKA
"KARNATAKA BANK LIMITED",KARB0000252,581052523,GOKARNA,"HOUSE NO.12A,THARAMUKKI ROAD,NEAR BUSSTAND,GOKARNA, PIN - 581326",256148,GOKARNA,"UTTAR KANNADA",KARNATAKA
"KARNATAKA BANK LIMITED",KARB0000251,582052002,GADAG,"CTS NO 3787/15A/12A,IST FLOOR,MAHENDRAKAR CIRCLE,STATION ROAD,GADAG, PIN - 582101.",233970,GADAG,GADAG,KARNATAKA
"KARNATAKA BANK LIMITED",KARB0000250,NA,"RO DELHI","M13(A)PUNJ HOUSE,1ST FLOOR,CONNAUGHT CIRCUS,NEW DELHI, PIN - 110001",23418155,DELHI,DELHI,DELHI
"KARNATAKA BANK LIMITED",KARB0000225,110052013,"FARIDABAD HARYANA","S.C.O.143,SECTOR 21C,SHOPPING CENTRE,FARIDABAD, PIN - 121001",2439254,FARIDABAD,FARIDABAD,HARYANA
"KARNATAKA BANK LIMITED",KARB0000216,591052202,CHIKKODI,"TMC NO.5856/2876/P-2,NIPPANI-MAHALINGPUR,STATE HIGHWAY,R K COLONY,NEAR GOVT HOSPITAL,CHIKKODI-591201",9740864235,BELAGAVI,BELAGAVI,KARNATAKA
"KARNATAKA BANK LIMITED",KARB0000215,584052503,DEVADURGA,"PLOT NO.4, TMC NO.8-1-258,VEERABHADRESHWAR COMPLEX, BORANNA COLONY, NEAR AMBEDKAR CIRCLE, DEVADURGA",9731188322,DEVADURGA,RAICHUR,KARNATAKA
"KARNATAKA BANK LIMITED",KARB0000214,577052005,"DAVANAGERE-P B ROAD","D.NO.85/5&262/1,NEAR NEW KSRTC BUS STAND, PB ROAD, DAVANGERE-577002",9844730772,DAVANAGERE,DAVANGERE,KARNATAKA
"KARNATAKA BANK LIMITED",KARB0000213,560052502,"DEVALAPURA DEVANAGUNDI GP","NO 56/10P/36,DEVALAPURA-DEVANAGUNDI GP-560067 HOSAKOTE TALUK",0,BENGALURU,"BENGALURU RURAL",KARNATAKA
"KARNATAKA BANK LIMITED",KARB0000212,560052085,"DODDAGUBBI G P","GROUND FLOOR, D NO 31, ASHA TOWNSHIP PHASE II, DODDAGUBBI MAIN ROAD, DODDAGUBBI VILLAGE & G P, 560077, BENGALURU EAST TALUK",0,DODDAGUBBI,"BENGALURU URBAN",KARNATAKA
"KARNATAKA BANK LIMITED",KARB0000211,713052202,DURGAPUR,"GROUND FLOOR, N 36, LANDMARK II BUILDING, SHAHID KHUDIRAM SARANI, CITY CENTRE, DURGAPUR 713216",0,DURGAPUR,BURDWAN,"WEST BENGAL"
"KARNATAKA BANK LIMITED",KARB0000209,577052004,"DAVANGERE SHAMANUR ROAD","D NO 1664 33 S S LAYOUT A BLOCK SHAMANUR ROAD, DAVANGERE 577004",0,DAVANGERE,DAVANGERE,KARNATAKA
"KARNATAKA BANK LIMITED",KARB0000208,534052002,ELURU,"PEDDADA VARI STREET,RAMACHNADRA RAO PET,ELURU 534 001",234133,ELURU,"WEST GODAVARI DISTRICT","ANDHRA PRADESH"
"KARNATAKA BANK LIMITED",KARB0000207,781052003,DISPUR,"GROUND FLOOR,MANIK TOWER,BELTOLA ROAD,DISPUR LAST GATE,DISPUR 781 028",8811031373,DISPUR,KAMRUP,ASSAM
"KARNATAKA BANK LIMITED",KARB0000206,682052004,"ERNAKULAM PALARIVATTOM","35 BY 265 267 BY 268,GROUND FLOOR,ARUN CHAMBERS,EDAPALLY ALUVA ROAD,PALARIVATTOM,ERNAKULAM,682 025",9447022095,ERNAKULAM,ERNAKULAM,KERALA
"KARNATAKA BANK LIMITED",KARB0000205,586052003,"DEVARA HIPPARAGI","PATIL COMPLEX, N H - 218, OPP. POLICE STATION, DEVARA HIPPARAGI - 586115",221184,BIJAPUR,BIJAPUR,KARNATAKA
"KARNATAKA BANK LIMITED",KARB0000204,491052002,DURG,"GROUND FLOOR,JOIN HANDS  STATION ROAD DRUG, PIN - 491001",2212880,DURG,DURG,CHANDIGARH
"KARNATAKA BANK LIMITED",KARB0000203,638052003,"TEACHERS COLONY ERODE T N","NO18,PALANIAPPA COMPLEX,I FLOOR,DR RADHAKRISHNA ROAD,TEACHER'S COLONY,ERODE, PIN - 638011",2271027,ERODE,ERODE,"TAMIL NADU"
"KARNATAKA BANK LIMITED",KARB0000202,638052002,ERODE,"15A,GANDHIJI ROAD,ERODE, PIN - 638001",2251747,ERODE,ERODE,"TAMIL NADU"
"KARNATAKA BANK LIMITED",KARB0000201,682052002,"ERNAKULAM KERALA","XXX/512,CHELUR BUILDING  I FLOOR,M.G.ROAD PALLIMUKKU ERNAKULAM, PIN - 682016",2376841,ERNAKULAM,ERNAKULAM,KERALA
"KARNATAKA BANK LIMITED",KARB0000200,400052011,"INTERNATIONAL DIVISION","107-109,IST FLOOR,RAHEJA CENTRE,NARIMAN POINT,FREE PRESS JOURNAL MARG,MUMBAI, PIN - 400021",22881643,MUMBAI,MUMBAI,MAHARASHTRA
"KARNATAKA BANK LIMITED",KARB0000199,826052002,DHANBAD,"GROUND FLOORCOMMERCE HOUSE II SHASRI NAGARDHANBAD, PIN - 828106",2308108,DHANBAD,DHANBAD,JHARKHAND
"KARNATAKA BANK LIMITED",KARB0000198,560052056,DODDABALLAPUR,"NO.2777,M.G.CIRCLE LIONS BHAVAN ROAD SHENGARPET DODDABALLAPUR, PIN - 561203",27622119,BANGALORE,KOLAR,KARNATAKA
"KARNATAKA BANK LIMITED",KARB0000197,560052046,"DEVANAHALLI BANGALORE","NO.24/2813/2628 ,N.H.7,DEVANAHALLI, PIN - 562110",27683965,BANGALORE,BANGALORE,KARNATAKA
"KARNATAKA BANK LIMITED",KARB0000196,248052002,"DEHRADUN UTTRANCHAL","GROUND FLOOR,NO2,NEWCANTT.ROAD,ADJACENT TO RAIPUR ROAD,DEHRADUN, PIN - 248001",2741773,DEHRADUN,DEHRADUN,UTTARAKHAND
"KARNATAKA BANK LIMITED",KARB0000195,580052302,"DHARWAD-SDMC (E.C)","S.D.M.COLLEGE OF ENG & TECHNOLOGY CAMPUS,VIJAYA ROAD,DHARWAD, PIN - 580001.",2216051,DHARWAD,DHARWAD,KARNATAKA
"KARNATAKA BANK LIMITED",KARB0000194,110052008,"LAXMI NAGAR NEW DELHI","D.NO.U-75,GROUND FLOOR,KALRA COMPLEX,MOTHER DAIRY ROAD,SHAKARPUR,LAXMINAGAR,DELHI, PIN - 110092",28822215,DELHI,DELHI,DELHI
"KARNATAKA BANK LIMITED",KARB0000193,400052012,"DOMBIVLI MUMBAI","SHOP NO 40 TO 43,IST FLOOR,P.P.CHAMBERS,FATHEH ALI ROAD,BHANU NAGAR,DOMBIVLI (EAST), PIN - 421201",2438578,MUMBAI,MUMBAI,MAHARASHTRA
"KARNATAKA BANK LIMITED",KARB0000192,580052305,"KUD CIRCLE DHARWAD","PLOT NO.2,CTS 17A,221-13,HALIYAL ROAD,KUD CIRCLE,SRINAGAR,DHARWAD, PIN - 580003",2772737,DHARWAD,DHARWAD,KARNATAKA
"KARNATAKA BANK LIMITED",KARB0000191,580052306,"SHIVANANDANAGAR DHARWAD","IST FLOOR,HUGGI BUILDING,NEAR NTTF,P B ROAD,SHIVANANDNAGAR,DHARWAD, PIN - 580001",2446281,DHARWAD,DHARWAD,KARNATAKA
"KARNATAKA BANK LIMITED",KARB0000190,577052003,"K B EXTENSION DAVANAGERE","IST FLOOR,SRIMURUGHARAJENDRA COMPLEX,HADADI ROAD,DAVANGERE-K B EXTENSION,DAVANAGERE, PIN - 577002",250093,DAVANGERE,DAVANGERE,KARNATAKA
"KARNATAKA BANK LIMITED",KARB0000189,110052003,"CHANDNI CHOWK NEW DELHI","NO.301-303,HAVELIHIADERKULI,MAIN ROAD,CHANDINI CHOWK-DELHI, PIN - 110006",28833148,DELHI,DELHI,DELHI
"KARNATAKA BANK LIMITED",KARB0000188,585052501,DUBALGUNDI,"BALAJIPRASANNA,CHIKATWAR BUILDING,IST FLOOR 1-32 & 1-34 MAIN ROAD,DUBALGUNDI, PIN - 585418",273621,DUBALGUNDI,BIDAR,KARNATAKA
"KARNATAKA BANK LIMITED",KARB0000187,561052501,DOMMATHAMARY,"HINDUPUR-PAVAGADA ROAD,DOMMATHAMARI, PIN - 561202",248833,DOMMATHAMARY,TUMKUR,KARNATAKA
"KARNATAKA BANK LIMITED",KARB0000186,581052522,DHARESHWARA,"NH 17,DHARESHWAR, PIN - 581442",254328,DHARESHWARA,"UTTAR KANNADA",KARNATAKA
"KARNATAKA BANK LIMITED",KARB0000185,575052006,"DEREBAIL MANGALORE","2-1-90/4,IST FLOOR,VISHWASHREE BILDG.,AIR PORT ROAD,KONCHADY POST,DEREBAIL, MANGALORE, PIN - 575008",2249550,MANGALORE,"DAKSHINA KANNADA",KARNATAKA
"KARNATAKA BANK LIMITED",KARB0000184,573052505,DUDDA,"SANTOSH COMPLEX,MAIN ROAD,DUDDA, PIN - 573118",223922,DUDDA,HASSAN,KARNATAKA
"KARNATAKA BANK LIMITED",KARB0000183,580052302,"VIJAYA ROAD DHARWAD MAIN","I ST FLOOR,ACHYUT ARCADE NEAR JUBILEE CIRCLEP.B.ROAD,DHARWAD, PIN - 580001",2742489,DHARWAD,DHARWAD,KARNATAKA
"KARNATAKA BANK LIMITED",KARB0000182,577052002,"DAVANAGERE MAIN","IST FLOOR,B.H.M.ENCLAVE,D.NO.651,H.M.ROAD,BINNY COMPOUND ROAD,DAVANGERE, PIN - 577001",237598,DAVANGERE,DAVANGERE,KARNATAKA
"KARNATAKA BANK LIMITED",KARB0000181,581052502,DANDELI,"IST FLOOR,HIREMATH BUILDING,J N ROAD,DANDELI,HALIYAR TALUK, PIN - 581325",231274,DANDELI,"UTTAR KANNADA",KARNATAKA
"KARNATAKA BANK LIMITED",KARB0000180,NA,CHAMARAJANAGAR,"B.R. HILLS ROAD, NEAR EASTERN SIDE OF KEB OFFICE,CHAMARAJANAGAR-571313",0,CHAMARAJANAGAR,CHAMARAJANAGAR,KARNATAKA
"KARNATAKA BANK LIMITED",KARB0000179,600052027,AMBATTUR,"DNO.20,NORTH PARK STREET, VENKATAPURAM,AMBATTUR, CHENNAI-600053",7358790179,CHENNAI,CHENNAI,"TAMIL NADU"
"KARNATAKA BANK LIMITED",KARB0000178,576052522,"CHARA GP","SRI MATHAJI, MARKET ROAD, NEAR LIONS CIRCLE,VIA HEBRI, CHARA VILLAGE & GP-576112, KARKALA TALUK",0,CHARA,UDUPI,KARNATAKA
"KARNATAKA BANK LIMITED",KARB0000177,577052103,"CHIKKAMAGALURU-KALYAN NAGARA","NO.227 & 228,SHIVASHAKTHI ARCADE, HIREMAGALUR BYPASS ROAD,AIT CIRCLE,KALYAN NAGARA",8277292398,CHIKKAMAGALURU,CHIKMAGALUR,KARNATAKA
"KARNATAKA BANK LIMITED",KARB0000176,160052004,"CHANDIGARH SEC THIRTY EIGHT","SC0 311, SECTOR 38D, CHANDIGARH 160036, CHANDIGARH UT",0,CHANDIGARH,CHANDIGARH,CHANDIGARH
"KARNATAKA BANK LIMITED",KARB0000175,600052025,"CHENNAI JAWAHAR NAGAR","FIRST FLOOR, D NO 128, OLD NO 51, SRP KOIL STREET, JAWAHAR NAGAR, CHENNAI 600082, CHENNAI DISTRICT, TAMILNADU STATE",0,CHENNAI,CHENNAI,"TAMIL NADU"
"KARNATAKA BANK LIMITED",KARB0000174,600052024,"CHENNAI ARUMBAKKAM","FIRST FLOOR, NO 7, SBI OFFICERS COLONY, RAZAK GARDEN ROAD, ARUMBAKKAM, CHENNAI 600028",0,CHENNAI,CHENNAI,"TAMIL NADU"
"KARNATAKA BANK LIMITED",KARB0000173,585052510,"CHAMNAL G P","D NO 195, GROUND FLOOR, MAIN ROAD, CHAMNAL VILLAGE & GRAMA PANCHAYAT 585309, SHAHAPUR TALUK",7829746254,CHAMNAL,YADGIR,KARNATAKA
"KARNATAKA BANK LIMITED",KARB0000172,586052506,CHADCHAN,"NO 3 PANDHARPUR CHADCHAN ROAD OPP GRAMA PANCHAYATH OFFICE, CHADCHAN, 586205, INDI TALUK",9902106050,CHADCHAN,BIJAPUR,KARNATAKA
"KARNATAKA BANK LIMITED",KARB0000171,577052568,CHANNAGIRI,"SRI MARULASIDDESHWARA COMPLEX N H 13 NEAR BUS STAND, CHITRADURGA ROAD, CHANNAGIRI 577213",0,CHANNAGIRI,DAVANGERE,KARNATAKA
"KARNATAKA BANK LIMITED",KARB0000170,600052022,"CHENNAI NANGANALLUR","NEW NO.3 A OLD NO.26 BY 3 2ND MAIN ROAD,NANGANALLUR,CHENNAI 600 001",9952829942,CHENNAI,CHENNAI,"TAMIL NADU"
"KARNATAKA BANK LIMITED",KARB0000169,600052021,"CHENNAI KILPAUK","FIST FLOOR,D.NO.97,NEW AVADI ROAD,KILPAUK CHENNAI.600 010",9043699229,CHENNAI,CHENNAI,"TAMIL NADU"
"KARNATAKA BANK LIMITED",KARB0000168,576052514,"CHITTOOR GP","ALOOR CROSS,VANDSE KOLLUR ROAD,CHITTOOR VILLAGE 7 GP 576 233KUNDAPURA TALUK",239335,UDUPI,UDUPI,KARNATAKA
"KARNATAKA BANK LIMITED",KARB0000167,577052559,CHALLAKERE,"BELLARY ROAD, OPP. CHALLAKERE TEMPLE, CHALLAKERE - 577522",222048,CHITRADURGA,CHITRADURGA,KARNATAKA
"KARNATAKA BANK LIMITED",KARB0000166,600052020,VIRUGAMBAKKAM,"KALIAMMAN KOIL STREET, NATESAN NAGAR, VIRUGAMBAKKAM, CHENNAI - 600092",24790547,CHENNAI,CHENNAI,"TAMIL NADU"
"KARNATAKA BANK LIMITED",KARB0000165,582052503,"CHINCHALLI GP","NEAR PRIMARY HEALTH CENTRE, MAIN ROAD, CHINCHALLI - 582117",293010,GADAG,GADAG,KARNATAKA
"KARNATAKA BANK LIMITED",KARB0000164,562052002,CHIKKABALLAPURA,"GROUND FLOOR NO 483/432/1, WARD NO. 3, CSI HOSPITAL ROAD, CHIKKABALLAPURA - 562101",271164,CHIKKABALLAPURA,CHIKKABALLAPURA,KARNATAKA
"KARNATAKA BANK LIMITED",KARB0000163,600052019,VELACHERY,"D/NO-3, PLOT NO.14, SASHI NAGAR, VELACHERY BYE PASS ROAD, VELACHERY - 600042, GUINDY TALUK, CHENNAI DIST.",22593600,VELACHERY,CHENNAI,"TAMIL NADU"
"KARNATAKA BANK LIMITED",KARB0000162,600052018,"ANNA NAGAR WEST","W-582 GROUND FLOORSBOA SCHOOL ROADANNANAGAR WEST  EXTENSION CHENNAI, PIN - 600101",23453262,ANNANAGAR,CHENNAI,"TAMIL NADU"
"KARNATAKA BANK LIMITED",KARB0000161,600052015,"WEST MAMBALAM","GROUND FLOOR,NO12(OLD NO.28),GROUND FLOOR,2ND STREET,POSTAL COLONY WEST MAMBALAM,CHENNAI, PIN - 600033",23453258,CHENNAI,CHENNAI,"TAMIL NADU"
"KARNATAKA BANK LIMITED",KARB0000160,753052002,CUTTACK,"22&22/1507,RASHMI PLAZA,GROUND & I FLOOR,LINK ROAD,NEXT TO ARUNODAYA MARKET,CUTTAK, 753012",2322330,CUTTACK,CUTTACK,ODISHA
"KARNATAKA BANK LIMITED",KARB0000159,600052014,"CHENNAI  AYANAVARAM","OLD NO.22,NEW NO.4,IST FLOOR,3RD CROSS STREET,VENKATESHPURAM COLONY,AYANAVARAM-CHENNAI, PIN - 600023",23453256,CHENNAI,CHENNAI,"TAMIL NADU"
"KARNATAKA BANK LIMITED",KARB0000158,600052013,"CHENNAI MOGAPPIAR","NEW NO.78(OLD NO.402),PANNEER NAGAR,TIRUVALLUVAR ROAD,MOGAPPAIR,CHENNAI, PIN - 600037",23453255,CHENNAI,CHENNAI,"TAMIL NADU"
"KARNATAKA BANK LIMITED",KARB0000157,600052012,"K K NAGAR CHENNAI","D.NO.10,P.T.RAJAN SALAI,K.K.NAGAR,CHENNAI, PIN - 600078",23453240,CHENNAI,CHENNAI,"TAMIL NADU"
"KARNATAKA BANK LIMITED",KARB0000156,600052011,"BESANT NAGAR CHENNAI","NEW NO40,OLD NO T-32,7TH AVENUE,BESANT NAGAR,CHENNAI, PIN - 600090",24353260,CHENNAI,CHENNAI,"TAMIL NADU"
"KARNATAKA BANK LIMITED",KARB0000155,600052001,"SERVICE BRANCH CHENNAI","DOOR NO.351,2ND FLOOR,VADIRAJA BUILDING,AVVAI SHANMUGAM ROAD,GOPALPURAM,CHENNAI, PIN - 600086",23453257,CHENNAI,CHENNAI,"TAMIL NADU"
"KARNATAKA BANK LIMITED",KARB0000154,643052102,"COONOOR TN","K N M COMPOUND,OOTY ROAD,COONOOR, PIN - 643102",2206444,COONOOR,NILGIRIS,"TAMIL NADU"
"KARNATAKA BANK LIMITED",KARB0000153,641052004,"RAMANATHAPURAM COIMBATORE","1174,GROUNDFLOOR,CHINTAMANI, SUNGAM COIMBATORE RAMANATHAPURAM, PIN - 641045",2315116,COIMBATORE,COIMBATORE,"TAMIL NADU"
"KARNATAKA BANK LIMITED",KARB0000152,600052010,"PORUR CHENNAI","NO.84.GROUND FLOOR,MOUNT POONAMMALLE HIGH ROAD,PORUR,CHENNAI, PIN - 600116",24827050,CHENNAI,CHENNAI,"TAMIL NADU"
"KARNATAKA BANK LIMITED",KARB0000151,516052002,"CUDDAPAH A P","I FLOOR,RAJARAM COMPLEX,3/303,CHRISTIAN LANE,CUDDAPAH, PIN - 516001.",241782,CUDDAPAH,CUDDAPAH,"ANDHRA PRADESH"
"KARNATAKA BANK LIMITED",KARB0000150,600052009,"R A PURAM CHENNAI","92 OLD 77,GREENWAYS ROAD,RAJA ANNAMALAIPURAM,CHENNAI, PIN - 600028",23453247,CHENNAI,CHENNAI,"TAMIL NADU"
"KARNATAKA BANK LIMITED",KARB0000149,573052149,CHANNARAYAPATNA,"IST FLOOR,PRABATH COMPLEX,OPP.K S R T C BUSSTAND,B M ROAD,CHANNARAYAPATNA, PIN - 573116",256034,CHANNARAYAPATNA,HASSAN,KARNATAKA
"KARNATAKA BANK LIMITED",KARB0000148,641052003,"R S PURAM COIMBATORE","346,D B ROAD,II FLOOR,R.S PURAM,COIMBATORE, PIN - 641002",2472403,COIMBATORE,COIMBATORE,"TAMIL NADU"
"KARNATAKA BANK LIMITED",KARB0000147,700052002,"PARK STREET KOLKATA","I FLOOR,""SHUBHAM"" NO.1,SAROJINI NAIDU SARANI,NEAR MALLICK BAZAR,PARK STREET,KOLKATA, PIN - 700017",22837903,KOLKOTA,KOLKOTA,"WEST BENGAL"
"KARNATAKA BANK LIMITED",KARB0000146,160052001,"CHANDIGARH PUNJAB","SCO NO 2917-18,SECTOR 22-C,CHANDIGARH, PIN - 160022",2712219,CHANDIGARH,CHANDIGARH,PUNJAB
"KARNATAKA BANK LIMITED",KARB0000145,577052530,CHOWLAHIRIYUR,"SHIVA NILAYA,MAIN ROAD,CHOWLAHIRIYUR,KADUR TALUK, PIN - 577180",249037,CHOWLAHIRIYUR,CHICKMAGALUR,KARNATAKA
"KARNATAKA BANK LIMITED",KARB0000144,670052002,"CANNANORE KANNUR","53,CW/35/3074,IST FLOOR,KANNAN'S ARCADE,BANK ROAD,KANNUR, PIN - 670001",2706334,KANNUR,KANNUR,KERALA
"KARNATAKA BANK LIMITED",KARB0000143,571052602,CHANNAPATNA,"GROUND FLOOR SRI GURU KRUPA  NO.2240, IST CROSS  OPP. B.S.N.L. OFFICE B.M.ROAD,CHANNAPATNA, PIN - 571501",27256650,CHANNAPATNA,BANGALORE-RURAL,KARNATAKA
"KARNATAKA BANK LIMITED",KARB0000142,563052302,CHINTAMANI,"SRI VIDYA GANAPATHI TEMPLE TRUST BUILDING,IST FLOOR,OPP.OLD CIVIL BUSSTAND,CHINTHAMANI, PIN - 563125",252124,CHINTAMANI,KOLAR,KARNATAKA
"KARNATAKA BANK LIMITED",KARB0000141,673052002,"CALICUT KOZHIKODE","ROOM NO.4,IST FLOOR,JAYANTHI BUILDINGS,PALAYAM,KOZHIKODE, PIN - 673001",2721292,KOZHIKODE,KOZHIKODE,KERALA
"KARNATAKA BANK LIMITED",KARB0000140,576052202,"KUNDAPUR MAIN KUNDAPUR","SRI LATHA MAHAL BUILDING,MAIN ROAD,KUNDAPURA, PIN - 576201",232235,KUNDAPUR,UDUPI,KARNATAKA
"KARNATAKA BANK LIMITED",KARB0000139,641052002,"OPPANAKARA ST COIMBATORE","52,GROUND FLOOR OPPANAKARASTREET, COIMBATORE, PIN - 641001",2391025,COIMBATORE,COIMBATORE,"TAMIL NADU"
"KARNATAKA BANK LIMITED",KARB0000138,571052252,"CHODULU SOMWARPET","STATE BANK OF MYSORE ROAD,SOMWARPET, PIN - 571236",282078,SOMWARPET,KODAGU,KARNATAKA
"KARNATAKA BANK LIMITED",KARB0000137,576052011,CHITRAPADY,"FIRST FLOOR,SRINIKETANA COMPLEX,N H 17,CHITRAPADY,UDUPI TALUK, PIN - 576225",2564131,CHITRAPADY,UDUPI,KARNATAKA
"KARNATAKA BANK LIMITED",KARB0000136,577052502,"CHITRADURGA KARNATAKA","REDDY JANASANGHA BUILDING,SRI YOGI VEMANA COMPLEX,B D ROAD,CHITRADURGA, PIN - 577501",228257,CHITRADURGA,CHITRADURGA,KARNATAKA
"KARNATAKA BANK LIMITED",KARB0000135,585052502,CHITGUPPA,"D.NO2-72/A,IST FLOOR,DSG COMPLEX,ARYA SAMAJ ROAD,GANDHI CHOWK,CHITGUPPA, PIN - 585412",277124,CHITGUPPA,BIDAR,KARNATAKA
"KARNATAKA BANK LIMITED",KARB0000134,571052526,CHILKUNDA,"B.M.ROAD,CHILKUNDA,HUNSUR TALUK, PIN - 571133",241028,MYSORE,MYSORE,KARNATAKA
"KARNATAKA BANK LIMITED",KARB0000133,577052102,CHIKMAGALUR,"FIRST FLOOR,SARAGODU BUILDING,INDIRA GANDHI ROAD,CHICKMAGALUR, PIN - 577101",232447,CHICKMAGALUR,CHICKMAGALUR,KARNATAKA
"KARNATAKA BANK LIMITED",KARB0000132,571052525,CHEYANDANE,"NARIANDADA VILLAGE,CHEYYANDANE, PIN - 571212",259034,CHEYANDANE,KODAGU,KARNATAKA
"KARNATAKA BANK LIMITED",KARB0000131,571052524,CHERAMBANE,"KUSHALAPPA'S BUILDING,CHERAMBANE, PIN - 571257",235045,CHERAMBANE,KODAGU,KARNATAKA
"KARNATAKA BANK LIMITED",KARB0000130,560052045,MARATHAHALLI,"NO.83,ANANDA NAGAR,RING ROAD,MARATHAHALLI,BANGALORE,  PIN - 560037",22955920,BANGALORE,BANGALORE,KARNATAKA
"KARNATAKA BANK LIMITED",KARB0000129,495052002,BILASPUR,"GROUND FLOOR,MANGAL BHAVAN,LINK ROAD,OPP.HOTEL DEEP,BILASPUR, PIN - 495001",222233,BILASPUR,BILASPUR,CHANDIGARH
"KARNATAKA BANK LIMITED",KARB0000128,560052044,"HSR LAYOUT","NO.417,27TH MAIN,SECTOR-1 HSR LAYOUT,BANGALORE, PIN - 560034",22955917,BANGALORE,BANGALORE,KARNATAKA
"KARNATAKA BANK LIMITED",KARB0000127,462052002,BHOPAL,"GROUND FLOOR,SADANA TOWERS,2A,ZONEII,M.P.NAGAR,BHOPAL, PIN - 462011",2576298,BANGALORE,BANGALORE,"MADHYA PRADESH"
"KARNATAKA BANK LIMITED",KARB0000126,560052043,BANASAWADI,"D.NO.963,6-AC,BANASWADI OUTER RING ROAD,HRBR LAYOUT,BLOCK I,KALYAN NAGAR,BANASWADI,BANGALORE, PIN - 560043",22955915,BANGALORE,BANGALORE,KARNATAKA
"KARNATAKA BANK LIMITED",KARB0000125,560052041,"MAGISTRATE COURT (E.C)","METROPOLITAN MAGISTRATE COURT COMPLEX,NRUPATUNGA ROAD,BANGALORE, PIN - 560001",22955913,BANGALORE,BANGALORE,KARNATAKA
"KARNATAKA BANK LIMITED",KARB0000124,560052039,"AMARJYOTHI NAGAR","NO1,NAGARBHAVI MAIN ROAD,AMARJYOTHI NAGAR,BANGALORE, PIN - 560040",22955911,BANGALORE,BANGALORE,KARNATAKA
"KARNATAKA BANK LIMITED",KARB0000123,560052040,VIDYARANYAPURA,"NO.704,HMT LAYOUT,5TH BLOCK,VIDYARANYAPURA MAIN ROAD,VIDYARANYAPURA,BANGALORE, PIN - 560097",22955904,BANGALORE,BANGALORE,KARNATAKA
"KARNATAKA BANK LIMITED",KARB0000122,NA,"CUSTOMER CARE CENTRE","NO.50,GROUND FLOOR, OPP.BMTC BUS STAND, K.H.ROAD, BANGALORE, PIN - 560027",22021501,BANGALORE,BANGALORE,KARNATAKA
"KARNATAKA BANK LIMITED",KARB0000121,560052037,"SAHKARNAGAR BANGALORE","NO.2227,'D'BLOCK,KODIGEHALLY MAIN ROAD,SAHAKARA NAGAR,OPP.STERLING APTS,BANGALORE, PIN - 560092",22955892,BANGALORE,BANGALORE,KARNATAKA
"KARNATAKA BANK LIMITED",KARB0000120,560052036,"R T NAGAR BANGALORE","NO6, 80 FEET ROAD (OPP.R.T.NAGAR PLAY GROUND) H.M.T.LAYOUT R.T.NAGAR,BANGALORE, PIN - 560032",22955889,BANGALORE,BANGALORE,KARNATAKA
"KARNATAKA BANK LIMITED",KARB0000119,NA,"DATA CENTRE","NO. 113, FIRST FLOOR, K H ROAD, DATA CENTRE, BANGALORE - 560027",22021900,BANGALORE,BANGALORE,KARNATAKA
"KARNATAKA BANK LIMITED",KARB0000118,560052034,"OVERSEAS BANGALORE","NO.3,MANANDI PLAZA  ST. MARKS ROAD,BANGALORE, PIN - 560001",65305445,BANGALORE,BANGALORE,KARNATAKA
"KARNATAKA BANK LIMITED",KARB0000117,560052042,"K.G.ROAD (E.C)","CIVIL COURT COMPLEX,BANGALORE, PIN - 560009.",22955870,BANGALORE,BANGALORE,KARNATAKA
"KARNATAKA BANK LIMITED",KARB0000116,590052004,"UDYAMBAG (GIT EXTN.)","K.L.SOCIETY GOGTE INSTITUTE OF TECHNOLOGY CAMPUS,UDAYAMBHAG,KHANAPUR ROAD,BANGALORE, PIN - 590002",2440365,BELGAUM,BELGAUM,KARNATAKA
"KARNATAKA BANK LIMITED",KARB0000115,560052035,"GOKULA BANGALORE","#IST FLOOR,12 N S BUILDING,M S R MAIN ROAD,GOKUL,BANGALORE, PIN -  560054",22955918,BANGALORE,BANGALORE,KARNATAKA
"KARNATAKA BANK LIMITED",KARB0000114,560052033,"K H ROAD BANGALORE","NO.50, GROUND FLOOR  OPP.BMTC BUS STANDK.H.ROAD  BANGALORE, PIN - 560027",22955867,BANGALORE,BANGALORE,KARNATAKA
"KARNATAKA BANK LIMITED",KARB0000113,560052031,"SANJAYA NAGAR BANGALORE","SITE NO.21,50 FEET MAIN ROAD,CORPORATION DIVISION 100,SANJAYNAGAR,BANGALORE, PIN - 560094",22955894,BANGALORE,BANGALORE,KARNATAKA
"KARNATAKA BANK LIMITED",KARB0000112,560052032,"MAHALAKSHMIPURAM BANGALORE","NO 271,IST FLOOR,4TH MAIN,12TH CROSS MAHALAKSHMI LAYOUT,BANGALORE, PIN - 560086",22955875,BANGALORE,BANGALORE,KARNATAKA
"KARNATAKA BANK LIMITED",KARB0000111,560052030,"B T M LAYOUT BANGALORE","NO.18,BMR SANKIRANA,6TH MAIN ROAD,IST CROSS,BTM LAYOUT,II STAGE,BANGALORE, PIN - 560076",22955848,BANGALORE,BANGALORE,KARNATAKA
"KARNATAKA BANK LIMITED",KARB0000110,590052005,"TILAKAWADI BELGAUM","IST FLOOR,DEV SUDHA BUILDING,I FLOOR, DOOR NO. CCB-3,SHUKRAWARPET,BELGAUM-TILAKWADI, PIN - 590006",2430205,BELGAUM,BELGAUM,KARNATAKA
"KARNATAKA BANK LIMITED",KARB0000109,560052028,"INDIRA NAGAR BANGALORE","#485,FIRST FLOOR,C M H ROAD,INDIRANAGAR,BANGALORE, PIN - 560038",22955857,BANGALORE,BANGALORE,KARNATAKA
"KARNATAKA BANK LIMITED",KARB0000108,751052002,"BHUBANESHWAR ORISSA","B-63,SAVITHRI TOWERS,IST FLOOR,RUPALI SQUARE,JANAPATH ROAD,SAHEED NAGAR,BHUBANESWAR, PIN - 751007",2546674,BANGALORE,BANGALORE,ODISHA
"KARNATAKA BANK LIMITED",KARB0000107,560052029,"BANASHANKARI II STAGE BANGALORE","# 979,IST FLOOR,RANGABHOOMI,13TH CROSS,19TH MAIN,BANASHANKARI IIND STAGE,BANGALORE, PIN - 560070",22955840,BANGALORE,BANGALORE,KARNATAKA
"KARNATAKA BANK LIMITED",KARB0000106,400052010,"BHAYANDER EAST MUMBAI","SHOP NO.12,OSTWAL ORNATE BLDG.NO.2,OPP.JAIN MANDIR,JESSAL PARK ROAD,BHAYANDAR(E),MUMBAI, PIN - 401105",28160880,MUMBAI,THANE,MAHARASHTRA
"KARNATAKA BANK LIMITED",KARB0000105,560052027,"VIJAYANAGAR BANGALORE","MARUTHI ARCADE 13,SERVICE ROADOPP.MARUTHI MANDIR WEST OF CHORD ROAD VIJAYANAGAR,BANGALORE, PIN - 560104",22955906,BANGALORE,BANGALORE,KARNATAKA
"KARNATAKA BANK LIMITED",KARB0000104,560052026,"BASAVESWARNAGAR BANGALORE","NO.323,IST FLOOR,I CROSS,4TH BLOCK,III STAGE,BASAVESHWARNAGAR,WEST OF CHORD ROAD,BANGALORE, PIN - 560079",22955846,BANGALORE,BANGALORE,KARNATAKA
"KARNATAKA BANK LIMITED",KARB0000101,400052009,"OVERSEAS MUMBAI","104-106,I FLOOR,EMBASSY CENTRE,JAMNALAL BAJAJ MARG,NARIMAN POINT,MUMBAI, PIN - 400021",22049856,MUMBAI,MUMBAI,MAHARASHTRA
"KARNATAKA BANK LIMITED",KARB0000100,560052001,"SERVICE BRANCH BANGALORE","50/1,PRASANNA GANAPATHI TEMPLE ANNEXE,NEAR HDFC HOUSE,KASTURBA ROAD,BANGALORE, PIN - 560001.",22955828,BANGALORE,BANGALORE,KARNATAKA
"KARNATAKA BANK LIMITED",KARB0000099,560052025,"SRINAGAR BANGALORE","NO 544,15TH MAIN,IST FLOOR,50 FEET ROAD,SRINAGAR,BANGALORE, PIN - 560050",22955898,BANGALORE,BANGALORE,KARNATAKA
"KARNATAKA BANK LIMITED",KARB0000098,560052024,"SARAKKI LAYOUT BANGALORE","452,9TH CROSS,2ND PHASE,SARAKKI LAYOUT,J.P.NAGAR,BANGALORE, PIN - 560078",26596630,BANGALORE,BANGALORE,KARNATAKA
"KARNATAKA BANK LIMITED",KARB0000097,560052004,"BANASHANKARI III STAGE BANGALORE","# 650,II MAIN,II PHASE,VII BLOCK,BANASHANKARI III STAGE,HOSAKEREHALLI CROSS,BANGALORE, PIN - 560085",22955842,BANGALORE,BANGALORE,KARNATAKA
"KARNATAKA BANK LIMITED",KARB0000096,577052529,BELAGUTHI,"BELAGUTTI MILK PRODUCERS CO-OP.SOCIETY(BMPCS) BUILDING,NYAMATHI ROAD,BELAGUTTI, PIN - 577223",261926,BELAGUTHI,DAVANGERE,KARNATAKA
"KARNATAKA BANK LIMITED",KARB0000095,590052003,"MALA MARUTI EXTENSION BELGAUM","IST FLOOR,MIG-2,Y.G.GOWDAR BUILDING,MAHANTESH NAGAR,MALMARUTHI EXTENSION,BELGAUM, PIN - 590016",2453345,BELGAUM,BELGAUM,KARNATAKA
"KARNATAKA BANK LIMITED",KARB0000094,560052014,"KORAMANGALA BANGALORE","# 652,17TH MAIN,III BLOCK,KORAMANGALA LAYOUT,BANGALORE, 560034",22955921,BANGALORE,BANGALORE,KARNATAKA
"KARNATAKA BANK LIMITED",KARB0000093,400052005,"KANDIVILI WEST MUMBAI","B/13,""MATRU ASHISH"",NEXT TO BALBHARATI SCHOOL,S V ROAD,KANDIVLI(W),MUMBAI, PIN - 400067",28080950,MUMBAI,MUMBAI,MAHARASHTRA
"KARNATAKA BANK LIMITED",KARB0000092,515052562,BOMMANHAL,"FIRST FLOOR,BELLARY KANEKAL ROAD,KANEKAL(S.O),BOMMANAHAL POST, PIN - 515871.",258721,BOMMANHAL,ANANTHAPUR,"ANDHRA PRADESH"
"KARNATAKA BANK LIMITED",KARB0000091,400052004,"ANDHERI WEST MUMBAI","FIRST FLOOR,MANISH NAGAR SHOPPING CENTRE,AZAD NAGAR P.O,ANDHERI-W,MUMBAI, PIN - 400053",26371819,MUMBAI,MUMBAI,MAHARASHTRA
"KARNATAKA BANK LIMITED",KARB0000090,560052005,"B LORE BASAVANAGUDI","NO.52,GROUND FLOOR,DINESH COMPLEX SUBBARAMA CHETTY ROAD,NETTAKALLAPPA CIRCLE,BASAVANAGUDI,BANGALORE, PIN - 560004",22955844,BANGALORE,BANGALORE,KARNATAKA
"KARNATAKA BANK LIMITED",KARB0000089,560052022,"SUBHASH NAGAR BANGALORE","R B D G T ROAD,NEAR CITY RAILWAY STATION,SUBHASHNAGAR,BANGALORE, PIN - 560023",22955901,BANGALORE,BANGALORE,KARNATAKA
"KARNATAKA BANK LIMITED",KARB0000088,573052503,BELAGODU,"MAIN ROAD,BELAGODU,SAKLESHPUR TALUK, PIN - 573214.",247260,BELAGODU,HASSAN,KARNATAKA
"KARNATAKA BANK LIMITED",KARB0000087,581052521,BABRUWADA,"P.S.PRABHU BUILDING,BANDI BAZAR,ANKOLA,BABRUWADA, PIN - 581314",230209,BABRUWADA,"UTTAR KANNADA",KARNATAKA
"KARNATAKA BANK LIMITED",KARB0000086,400052006,"BANDRA WEST MUMBAI","GROUND FLOOR ST.ANTHONY,S INSTITUTE ANNEX BUILDING,33RD ROAD BANDRA(W),MUMBAI, PIN - 400050",26042400,MUMBAI,MUMBAI,MAHARASHTRA
"KARNATAKA BANK LIMITED",KARB0000085,400052007,"SION EAST MUMBAI","239-A,NAMDEO PRASAD BUILDING,TAMIL SANGAM ROAD,SION(EAST),MUMBAI, PIN - 400022",24097928,MUMBAI,MUMBAI,MAHARASHTRA
"KARNATAKA BANK LIMITED",KARB0000084,560052010,"JAYANAGAR IV BLOCK BANGALORE","NO.204/C,6TH MAIN,27TH CROSS,4TH BLOCK,JAYANAGAR,BANGALORE, PIN - 560011",22955861,BANGALORE,BANGALORE,KARNATAKA
"KARNATAKA BANK LIMITED",KARB0000083,560052013,"KASTURBA ROAD BANGALORE","# 48,MOHAN MANSION,KASTURBA ROAD,BANGALORE, PIN - 560001",22955930,BANGALORE,BANGALORE,KARNATAKA
"KARNATAKA BANK LIMITED",KARB0000082,576052007,BANTAKAL,"FIRST FLOOR,NISHA COMPLEX,MAIN ROAD,BANTAKAL, PIN - 574115",2559350,BANTAKAL,UDUPI,KARNATAKA
"KARNATAKA BANK LIMITED",KARB0000081,400052003,"BORIVLI WEST MUMBAI","L I C SHOPPING COMPLEX,JEEVAN BIMA NAGAR,BORIVLI(W),P O MANDAPESHWAR,MUMBAI, PIN - 400103",28906696,MUMBAI,MUMBAI,MAHARASHTRA
"KARNATAKA BANK LIMITED",KARB0000080,581052352,BHATKAL,"M.K.NAYAK BUILDING,NH17 RANGINKATTA,BHATKAL, PIN - 581320",226502,BHATKAL,"DAKSHINA KANNADA",KARNATAKA
"KARNATAKA BANK LIMITED",KARB0000079,400052002,"CORPORATE FINANCE BRANCH","294-A,""HAROON HOUSE"",PERIN NARIMAN STREET,BEHIND R.B.I,FORT,MUMBAI, PIN - 400001",22632715,MUMBAI,MUMBAI,MAHARASHTRA
"KARNATAKA BANK LIMITED",KARB0000078,573052504,BICCODU,"BELUR-SAKLESHPUR ROAD,BIKKODU VILLAGE AND POST,BIKKODU, PIN - 573215",241041,BICCODU,HASSAN,KARNATAKA
"KARNATAKA BANK LIMITED",KARB0000077,586052002,BIJAPUR,"IST FLOOR,MALHAR CHAMBERS,TRIPURASUNDARI TALKIES ROAD,BIJAPUR, PIN - 586101.",256921,BIJAPUR,BIJAPUR,KARNATAKA
"KARNATAKA BANK LIMITED",KARB0000076,585052102,BIDAR,"INDIRA MARKET COMPLEX,NEAR OLD BUS STAND,BIDAR, 585401",222567,BIDAR,BIDAR,KARNATAKA
"KARNATAKA BANK LIMITED",KARB0000075,577052205,BHADRAVATHI,"RADHAKRISHNA COMPLEX,IST FLOOR,B H ROAD,BHADRAVATHI, PIN - 577301.",266280,BHADRAVATHI,SHIMOGA,KARNATAKA
"KARNATAKA BANK LIMITED",KARB0000074,583052102,BELLARY,"IST FLOOR,MEENAKSHI LODGE BUILDING,MEENAKSHI CIRCLE,BANGALORE ROAD,BELLARY, PIN - 583101",273620,BELLARY,BELLARY,KARNATAKA
"KARNATAKA BANK LIMITED",KARB0000073,590052002,"BELGAUM MAIN","IST FLOOR,RADIO COMPLEX,SHIVAJI ROAD,BELGAUM, PIN - 590002.",2434366,BELGAUM,BELGAUM,KARNATAKA
"KARNATAKA BANK LIMITED",KARB0000072,577052528,BEGAR,"GOVUNDASHRAYA BUILDING,T.M.ROAD,BEGAR, PIN - 577120",256536,BEGAR,CHICKMAGALUR,KARNATAKA
"KARNATAKA BANK LIMITED",KARB0000071,575052021,"BC ROAD BANTWAL MUDA","IST FLOOR,KARTHIK COMPLEX,BANTWAL MUDA,P.O.JODUMARGA,BANTWAL-MUDA,BANTWAL TALUK, PIN - 574219",234466,BANTWAL,"DAKSHINA KANNADA",KARNATAKA
"KARNATAKA BANK LIMITED",KARB0000070,571052523,BANNUR,"S.R.P.ROAD,NEW CAUVERY CIRCLE,BANNUR, PIN - 571101",275641,BANNUR,MYSORE,KARNATAKA
"KARNATAKA BANK LIMITED",KARB0000069,577052527,BANKAL,"IFLOOR,PADMASHALI,K.M.ROAD,BANAKAL,MUDIGERE TALUK, PIN - 577113",232229,BANAKAL,CHICKMAGALUR,KARNATAKA
"KARNATAKA BANK LIMITED",KARB0000068,587052311,BANHATTI,"IST FLOOR,SRIRAM NIVAS,TAMMANAPPA ROAD,BANHATTI, PIN - 587311",230280,BANHATTI,BAGALKOT,KARNATAKA
"KARNATAKA BANK LIMITED",KARB0000067,560052021,"WILSON GARDEN BANGALORE","NO.279,10TH CROSS,WILSON GARDERN,BANGALORE, PIN - 560027",22955908,BANGALORE,BANGALORE,KARNATAKA
"KARNATAKA BANK LIMITED",KARB0000066,560052023,"YESHWANTHPURA BANGALORE","NO.33,PIPELINE ROAD,BEHIND CORPORATION COMPLEX,IST MAIN,YESHWANTHPUR,BANGALORE, PIN - 560022",22955910,BANGALORE,BANGALORE,KARNATAKA
"KARNATAKA BANK LIMITED",KARB0000065,560052020,"SRIRAMPURAM BANGALORE","NO.37,MAHAKAVI KUVEMPU ROAD,NEAR DEVAIAH PARK,SRIRAMPURAM POST,BANGALORE, PIN - 560021",22955900,BANGALORE,BANGALORE,KARNATAKA
"KARNATAKA BANK LIMITED",KARB0000064,560052019,"RAJAJI NAGAR BANGALORE","382,GROUND FLOOR DR.RAJKUMAR ROAD,VI BLOCK,RAJAJINAGAR,BANGALORE, PIN - 560010",22955888,BANGALORE,BANGALORE,KARNATAKA
"KARNATAKA BANK LIMITED",KARB0000063,560052018,"NEHRU NAGAR BANGALORE","NO.45/46,NAGAPPA STREET SHESHADRIPURAM,NEHRUNAGAR,BANGALORE, PIN - 560020",23561920,BANGALORE,BANGALORE,KARNATAKA
"KARNATAKA BANK LIMITED",KARB0000062,560052016,"MINERVA CIRCLE BANGALORE","163,GROUND FLOOR,RAJESHWARI COMPLEX,R.V.ROAD,N V.V.PURAM,BANGALORE, PIN - 560004",22955879,BANGALORE,BANGALORE,KARNATAKA
"KARNATAKA BANK LIMITED",KARB0000061,560052011,"JAYANAGAR IX BLOCK BANGALORE","SHRI KSHETRA COMPLEX,NO.911,39TH CROSS,28TH MAIN,9TH BLOCK,JAYANAGAR,BANGALORE, PIN - 560069",22955863,BANGALORE,BANGALORE,KARNATAKA
"KARNATAKA BANK LIMITED",KARB0000060,560052012,"K G ROAD BANGALORE","IST FLOOR,FKCCI BUILDING,KEMPE GOWDA ROAD,BANGALORE, PIN - 560009",22264216,BANGALORE,BANGALORE,KARNATAKA
"KARNATAKA BANK LIMITED",KARB0000059,560052017,"MURPHY TOWN BANGALORE","109,OLD MADRAS ROAD,OPP.ADARSHA THEATRE,HALASURU(ULSOOR),BANGALORE, PIN - 560008",22955881,BANGALORE,BANGALORE,KARNATAKA
"KARNATAKA BANK LIMITED",KARB0000058,560052006,"CHAMRAJPET BANGALORE","8/1,GROUNDFLOOR,""BELVET"",5TH MAIN,CHAMARAJ PET,BANGALORE, PIN - 560018",22955850,BANGALORE,BANGALORE,KARNATAKA
"KARNATAKA BANK LIMITED",KARB0000057,560052009,"CITY MARKET BANGALORE","IST FLOOR,SRIKRISHNA MANDIR,GUNDOPANTH STREET CITY MARKET,BANGALORE, PIN - 560002",22955854,BANGALORE,BANGALORE,KARNATAKA
"KARNATAKA BANK LIMITED",KARB0000056,560052008,"CHICKPET BANGALORE","IST FLOOR# 551/552,OTC ROAD,NEAR BALEPET POST OFFICE,O.T.C.ROAD,CHICKPET,BANGALORE, PIN - 560053",22955852,BANGALORE,BANGALORE,KARNATAKA
"KARNATAKA BANK LIMITED",KARB0000055,560052015,"MALLESHWARAM BANGALORE","NO.197,SAMPIGE ROAD,BETWEEN 10TH & 11TH CROSS MALLESHWARAM,BANGALORE, PIN - 560003",22955877,BANGALORE,BANGALORE,KARNATAKA
"KARNATAKA BANK LIMITED",KARB0000054,560052002,"INDUSTRIAL FINANCE BRANCH","INDUSTRIAL FINANCE BRANCH,94/A,INFANTRY ROAD,BANGALORE, PIN - 560001",22955859,BANGALORE,BANGALORE,KARNATAKA
"KARNATAKA BANK LIMITED",KARB0000053,560052003,"ASHOK NAGAR BANGALORE","16/2,(OLD NO.13/9) FIRST FLOOR,WOODSTREET, ASHOKNAGAR,BANGALORE, PIN - 560025",22955838,BANGALORE,BANGALORE,KARNATAKA
"KARNATAKA BANK LIMITED",KARB0000052,577052526,BALEHONNUR,"FIRST FLOOR,SOMESHWARA COMPLEX,MAIN ROAD,BALEHONNUR.(NARASIMHARAJAPURA TALUK), PIN - 577112",250421,BALEHONNUR,CHICKMAGALUR,KARNATAKA
"KARNATAKA BANK LIMITED",KARB0000051,587052102,BAGALKOT,"CTA130/1G/2&130/1G/3A,DURGA VIHAR BUILDING MAHAVEER ROAD,BAGALKOT, PIN - 587101",220226,BAGALKOT,BAGALKOT,KARNATAKA
"KARNATAKA BANK LIMITED",KARB0000042,572052007,"ARAKERE GP","NO.113 & 114, CHIKKATHOTLUKERE ROAD,JAIL CROSS ROAD, ARAKERE VILLAGE & GP-572106, TUMAKURU TALUK & DIST.",9482804239,TUMAKURU,TUMAKURU,KARNATAKA
"KARNATAKA BANK LIMITED",KARB0000041,575052507,"ADYAPADY VILLAGE","NO.2-87/4C/D/E/F,NEAR SHRI DURGAPARAMESHWARI TEMPLE,BIBILACHHIL,ADYAPADY VILLAGE,KANDAVARA GP - 574142",9148793209,"ADYAPADY VILLAGE","DAKSHINA KANNADA",KARNATAKA
"KARNATAKA BANK LIMITED",KARB0000040,573052520,"AGRAHARA GP","NO.28-E,AGRAHARA VILLAGE & GP,ARKALGUD TALUK,HASSAN DISTRICT",9740966734,MYSURU,HASSAN,KARNATAKA
"KARNATAKA BANK LIMITED",KARB0000039,682052003,ALUVA,"NO.XIX BY 271,MARKET ROAD,BANK JUNCTION,ALUVA 683 101",9447044415,ERNAKULAM,ERNAKULAM,KERALA
"KARNATAKA BANK LIMITED",KARB0000038,585052508,ALAND,"MAHAVEER COMPLEX,OPP.D I H P SCHOOL,ALAND 585 302",9480464678,ALAND,GULBARGA,KARNATAKA
"KARNATAKA BANK LIMITED",KARB0000037,573052512,"ATTAVARA GP","ATTAVARA GRAMA PANCHAYAT, SOMESHWARA COMPLEX, MAIN ROAD, ATTAVARA - 573118",290098,HASSAN,HASSAN,KARNATAKA
"KARNATAKA BANK LIMITED",KARB0000036,581052533,ALADAKATTI,"GROUND FLOOR, ALADAKATTI GRAMA PANCHAYATH, VILLAGE ALADAKATTI - 581110",234036,HAVERI,HAVERI,KARNATAKA
"KARNATAKA BANK LIMITED",KARB0000035,713052002,ASANSOL,"D.NO. 259/62A, G.T.ROAD, EAST MURGASOL, ASANSOL - 713303",8001005400,ASANSOL,BURDWAN,"WEST BENGAL"
"KARNATAKA BANK LIMITED",KARB0000034,577052556,ARAKERE,"GROUND FLOOR, SRI LAXMIRANGANATHA NILAYA, HARIHARA ROAD, ARAKERE - 577217, DAVANGERE DIST.",291222,ARAKERE,DAVANGERE,KARNATAKA
"KARNATAKA BANK LIMITED",KARB0000033,759052102,ANGUL,"1ST FLOOR, PLOT NO. 1270, SHANTI BAZAAR, ANGUL - 759122.",231938,ANGUL,ANGUL,ODISHA
"KARNATAKA BANK LIMITED",KARB0000032,700052009,AMTALA,"DAG. NO. 167,""PITRY ASISH"", N.D. ROAD,AMTALA - 743398.",24809848,AMTALA,"SOUTH 24 PARGANAS","WEST BENGAL"
"KARNATAKA BANK LIMITED",KARB0000031,431052003,AURANGABAD,"SHOP NO.4,GROUND FLOOR TAPADIA TERRACES,ADALAT ROAD,AURANGABAD, PIN - 431001",2341585,AURANGABAD,AURANGABAD,MAHARASHTRA
"KARNATAKA BANK LIMITED",KARB0000030,282052002,AGRA,"NO.76,HERITAGE TOWERS,MAHATMA GANDHI ROAD,NEHRU NAGAR,AGRA, PIN - 282002",2525087,AGRA,AGRA,"UTTAR PRADESH"
"KARNATAKA BANK LIMITED",KARB0000029,211052002,ALLAHABAD,"GROUND FLOOR,NO.23,M.G.MARG,CIVIL LINES,ALLAHABAD, PIN - 211001",2427501,ALLAHABAD,ALLAHABAD,"UTTAR PRADESH"
"KARNATAKA BANK LIMITED",KARB0000028,573052002,"ARSIKERE-H.C (E.C)","HOYSALESHWARA COLLEGE,B.H ROAD,ARSIKERE, PIN - 573103",232160,ARSIKERE,HASSAN,KARNATAKA
"KARNATAKA BANK LIMITED",KARB0000027,143052002,AMRITSAR,"37A,R K BUILDING,THE MALL ROAD,NEAR NOVELTY CHOWK AMRITSAR, PIN - 143001",2228597,PUNJAB,AMRITSAR,PUNJAB
"KARNATAKA BANK LIMITED",KARB0000026,380052003,"MEMNAGAR AHMEDABAD","SHOP NO.1&2,SHILP CORNER SUBHASH CHOWK,GURUKUL ROAD,MEMNAGAR,AHMEDABAD, PIN - 380052",27474766,AHMEDABAD,AHMEDABAD,GUJARAT
"KARNATAKA BANK LIMITED",KARB0000025,515052002,ANANTHAPUR,"D.NO.13-3-304,IST FLOOR THAKAI TOWERS,RAILWAY FEEDER ROAD ANANTAPUR, PIN - 515001",244226,ANANTHAPUR,ANANTHAPUR,"ANDHRA PRADESH"
"KARNATAKA BANK LIMITED",KARB0000024,577052525,ANTHARAGATTE,"TEMPLE ROAD,ANTHARGATTE, PIN - 577547",239022,ANTHARAGATTE,CHICKMAGALUR,KARNATAKA
"KARNATAKA BANK LIMITED",KARB0000023,577052524,ANAJI,"GRAM PANCHAYAT BLDG.,MAIN ROAD,ANAJI, PIN - 577512",282323,ANAJI,DAVANGERE,KARNATAKA
"KARNATAKA BANK LIMITED",KARB0000022,688052002,ALAPPUZHA,"D.NO.1660/B R.N.A.COMPLEX CHURCH ROAD,ALAPPUZHA, PIN - 688011",2261672,ALAPPUZHA,ALEPPY,KERALA
"KARNATAKA BANK LIMITED",KARB0000021,380052002,"AHMEDABAD MAIN SARANGPUR","GROUND FLOOR,SACHET-1  SWASTIK SOCIETY,NAVARANGPURA,  NAVARANGPURA--AHMEDABAD, PIN - 380009",26460854,AHMEDABAD,AHMEDABAD,GUJARAT
"KARNATAKA BANK LIMITED",KARB0000020,518052202,ADONI,"DOOR NO. 19/418-2,I FLOOR RAWJEES COMPLEX,MUNCIPAL MAIN ROAD,ADONI, PIN - 518301",252038,ADONI,KURNOOL,"ANDHRA PRADESH"
"KARNATAKA BANK LIMITED",KARB0000019,591052402,ATHANI,"JAGADALMATH BUILDING,MAIN ROAD,ATHANI, PIN - 591304",251214,ATHANI,BELGAUM,KARNATAKA
"KARNATAKA BANK LIMITED",KARB0000018,576052003,"AMBAGILU UDUPI","SUJATHA COMPLEXMANIPAL CROSS ROADAMBAGILU, UDUPI, PIN - 576105",2580283,UDUPI,UDUPI,KARNATAKA
"KARNATAKA BANK LIMITED",KARB0000017,403052003,"ALTO BETIM GOA","NO.1(817)PANAJI-MAPUSA ROAD,ALTO PORVORIM,  BARDEZ,NORTH GOA,GOA, PIN - 403521",2410534,GOA,"NORTH GOA",GOA
"KARNATAKA BANK LIMITED",KARB0000016,576052002,"ADI UDUPI","IST FLOOR,DURGA INTERNATIONAL BUILDING,UDUPI MALPE ROAD,UDUPI, PIN - 576101",2524793,UDUPI,UDUPI,KARNATAKA
"KARNATAKA BANK LIMITED",KARB0000015,575052503,ALADANGADY,"1-161,IST FLOOR,NEHRU SANKURNA,MAIN ROAD,ALADANGADY, PIN - 574217",272231,ALADANGADY,"DAKSHINA KANNADA",KARNATAKA
"KARNATAKA BANK LIMITED",KARB0000014,515052663,AGALI,"OPP.PUSHPANJALI TALKIES MADAKASIRA ROAD,AGALI, PIN - 515311.",284827,AGALI,ANANTHAPUR,"ANDHRA PRADESH"
"KARNATAKA BANK LIMITED",KARB0000013,576052502,AMASEBAIL,"FIRST FLOOR,ABHIRAM BUILDING  AMASEBAIL, PIN - 576227",286239,AMASEBAIL,UDUPI,KARNATAKA
"KARNATAKA BANK LIMITED",KARB0000012,575052022,AIKALA,"RAMAKRISHNA NILAYA,POST KINNIGOLI,AIKALA, PIN - 574150",2295118,AIKALA,"DAKSHINA KANNADA",KARNATAKA
"KARNATAKA BANK LIMITED",KARB0000011,575052033,AMTADY,"IST FLOOR,LOURDES COMPLEX,AMTADY,LORETTO POST,AMTADY- BANTWAL TALUK., PIN - 574211",233393,AMTADY,"DAKSHINA KANNADA",KARNATAKA
"KARNATAKA BANK LIMITED",KARB0000010,577052523,AYANUR,"SITE NO.47 & 48,HARNAHALLY ROAD,AYANUR, PIN - 577211",235627,AYANUR,SHIMOGA,KARNATAKA
"KARNATAKA BANK LIMITED",KARB0000009,573052002,ARSIKERE,"LAKSHMI,B.H.ROAD,ARSIKERE, PIN 573103",231796,ARSIKERE,HASSAN,KARNATAKA
"KARNATAKA BANK LIMITED",KARB0000008,573052502,ARKALGUD,"NO.1,IST FLOOR,K ABDUL JABBAR BULIDING,HOLENARASIPUR ROAD ARKALGUD, PIN 573102",220226,ARKALGUD,HASSAN,KARNATAKA
"KARNATAKA BANK LIMITED",KARB0000007,573052501,AREHALLI,"FIRST FLOOR,AL-SADIQ COMPLEX,SAKLESHPUR ROAD,AREHALLI.(BELUR TALUK), PIN - 573101",221323,BEGUR,HASSAN,KARNATAKA
"KARNATAKA BANK LIMITED",KARB0000006,577052522,ANAVATTI,"IST FLOOR,KAMAKSHI KRIPA ANAVATTI - 577413",267149,SORABA,SHIMOGA,KARNATAKA
"KARNATAKA BANK LIMITED",KARB0000005,586052501,ALMEL,"S S GUNDAGI BUILDING, MAIN ROAD,ALMEL, PIN - 586226",232007,ALMEL,BIJAPUR,KARNATAKA
"KARNATAKA BANK LIMITED",KARB0000004,577052521,AJJAMPURA,"SHRI VENKATESHWARA NILAYA T.H. ROAD,AJJAMPURA PIN - 577547",245126,AJJAMPURA,CHICKMAGALUR,KARNATAKA
"KARNATAKA BANK LIMITED",KARB0000003,576052010,AIRODY,"NH17 HIGHWAY,AIRODY, PIN - 576226",2584120,AIRODY,UDUPI,KARNATAKA
"KARNATAKA BANK LIMITED",KARB0000002,575052501,ADYANADKA,"D.NO.492/2A,KEPU VILLAGE,ADYANADKA, PIN - 574260",270225,ADYANADKA,"DAKSHINA KANNADA",KARNATAKA
"KARNATAKA BANK LIMITED",KARB0000001,NA,RTGS-HO,"REGD. & HEAD OFFICE, P.B.NO.599, MAHAVEER CIRCLE, KANKANADY, MANGALORE - 575002",2228222,MANGALORE,"DAKSHINA KANNADA",KARNATAKA
