BANK,IFSC,MICR,BRANCH,ADDRESS,CONTACT,CITY,DISTRICT,STATE
"THE KANGRA CENTRAL COOPERATIVE BANK LIMITED",KACE0000220,NA,DAGOH,"BO DAGOH VPO DAGOH TEHSIL JAISINGHPUR DISTT KANGRA HP-176076",9418336685,JAISINGHPUR,KANGRA,"HIMACHAL PRADESH"
"THE KANGRA CENTRAL COOPERATIVE BANK LIMITED",KACE0000219,NA,JALAG,"BO JALAG VPO JALAG TEHSIL JAISINGHPUR DISTT KANGRA HP-176094",9418458577,JAISINGHPUR,KANGRA,"HIMACHAL PRADESH"
"THE KANGRA CENTRAL COOPERATIVE BANK LIMITED",KACE0000218,NA,RULHED,"BO RULHED VPO RULHED TEHSIL SHAHPUR DISTT KANGRA HP 176206",8894503116,SHAHPUR,KANGRA,"HIMACHAL PRADESH"
"THE KANGRA CENTRAL COOPERATIVE BANK LIMITED",KACE0000217,NA,PUBOWAL,"BO PUBOWAL VPO PUBOWAL TEHSIL HAROLI DISTT UNA HP 174503",0,UNA,UNA,"HIMACHAL PRADESH"
"THE KANGRA CENTRAL COOPERATIVE BANK LIMITED",KACE0000216,NA,BROW,"VILLAGE BROW POST OFFICE RAMPUR TEHSIL NIRMAND DISTT KULLU HP",9418170404,NIRMAND,KULU,"HIMACHAL PRADESH"
"THE KANGRA CENTRAL COOPERATIVE BANK LIMITED",KACE0000215,NA,SALOL,"BO SALOL VPO SALOL TEHSIL AND DISTT. KANGRA HP PIN-176214",9418077140,KANGRA,KANGRA,"HIMACHAL PRADESH"
"THE KANGRA CENTRAL COOPERATIVE BANK LIMITED",KACE0000214,NA,PADHIARKHAR,"VILLAGE DHRAMAN PO SUNGAL TEHSIL PALAMPUR DISTT KANGRA HP PIN-176061",9418156024,PALAMPUR,KANGRA,"HIMACHAL PRADESH"
"THE KANGRA CENTRAL COOPERATIVE BANK LIMITED",KACE0000213,NA,GARSA,"BO GARSA TEHSIL BHUNTAE DISTT KULLU HP PIN-175125",272207,GADSA,KULU,"HIMACHAL PRADESH"
"THE KANGRA CENTRAL COOPERATIVE BANK LIMITED",KACE0000212,NA,GUSHANI,"BO GUSHANI VPO GUSHANI TEHSIL BANJAR DISTT KULLU HP PIN-175123",228429,GUSHAINI,KULU,"HIMACHAL PRADESH"
"THE KANGRA CENTRAL COOPERATIVE BANK LIMITED",KACE0000211,NA,"BHUTTI-LAG VALLEY","BO BHUTTI(LAG VALLEY) VPO BHUTTI TEHSIL ADND DISTT KULLU HP PIN 175102",239006,KULU,KULU,"HIMACHAL PRADESH"
"THE KANGRA CENTRAL COOPERATIVE BANK LIMITED",KACE0000210,NA,DOSARKA,"NEAR POLICE LINE PO HAMIRPUR TEHSIL HAMIRPUR HP",9736143066,HAMIRPUR,HAMIRPUR,"HIMACHAL PRADESH"
"THE KANGRA CENTRAL COOPERATIVE BANK LIMITED",KACE0000209,NA,BEHDALA,"VPO BEHDALA TEHSIL AND DISTT. UNA H.P. 174306",9318856823,BEHDALA,UNA,"HIMACHAL PRADESH"
"THE KANGRA CENTRAL COOPERATIVE BANK LIMITED",KACE0000208,NA,MUHAL,"V.P.O. MUHAL TEHSIL DEHRA DISTT. KANGRA H.P.       PIN 177117",9418678687,JAWALAMUKHI,KANGRA,"HIMACHAL PRADESH"
"THE KANGRA CENTRAL COOPERATIVE BANK LIMITED",KACE0000207,NA,PATLANDER,"VPO PATLANDER TEHSIL SUJANPUR DISTT HAMIRPUR HP PIN176111",9459096299,"SUJANPUR TIRA",HAMIRPUR,"HIMACHAL PRADESH"
"THE KANGRA CENTRAL COOPERATIVE BANK LIMITED",KACE0000206,NA,UHAL,"VPO UHAL TEHSIL TOUNI DEVI DISTT HAMIRPUR PIN CODE 177022",9418009401,UHAL,HAMIRPUR,"HIMACHAL PRADESH"
"THE KANGRA CENTRAL COOPERATIVE BANK LIMITED",KACE0000205,NA,DUHAK,"PO DUKAH, TEH PALAMPUR, DISTT KANGRA H.P.- 176075",9736143066,PALAMPPUR,PALAMPUR,"HIMACHAL PRADESH"
"THE KANGRA CENTRAL COOPERATIVE BANK LIMITED",KACE0000204,NA,"GARH JAMULA","PO MALKHER TEHSIL PALAMPUR DISTT KANGRA HP PIN 176093",9805121443,"GARH JAMULA",KANGRA,"HIMACHAL PRADESH"
"THE KANGRA CENTRAL COOPERATIVE BANK LIMITED",KACE0000203,NA,GANDER,"KCC BANK, BO GANDER",9418492541,GANDER,KANGRA,"HIMACHAL PRADESH"
"THE KANGRA CENTRAL COOPERATIVE BANK LIMITED",KACE0000202,NA,RANITAL,"THE KCC BANK LTD, BO RANITAL, DISTT KANGRA HP 176029",269037,RANITAL,KANGRA,"HIMACHAL PRADESH"
"THE KANGRA CENTRAL COOPERATIVE BANK LIMITED",KACE0000201,NA,"DAH KULARA","THE KANGRA CENTRAL CO OPERATIVE BANK LTD BRANCH OFFICE DAH KULARA TEHSIL INDORA DISTT KANGRA HP",241475,INDORA,KANGRA,"HIMACHAL PRADESH"
"THE KANGRA CENTRAL COOPERATIVE BANK LIMITED",KACE0000200,NA,TABO,"TABO, TEHSIL SPITI, DISTRICT LAHUL & SPITI, HIMACHAL PRADESH 172113",222416,TABO,"LAHUL SPITI","HIMACHAL PRADESH"
"THE KANGRA CENTRAL COOPERATIVE BANK LIMITED",KACE0000199,NA,"GONDPUR BANERA","TEHSIL AMB, DISTRICT UNA, HIMACHAL PRADESH PIN 177213",268021,"GOINDPUR BANEHR",UNA,"HIMACHAL PRADESH"
"THE KANGRA CENTRAL COOPERATIVE BANK LIMITED",KACE0000198,NA,BHADSALI,"VPO BHADSALI TEHSIL AND DISTT UNA PIN 174317",9418272592,UNA,UNA,"HIMACHAL PRADESH"
"THE KANGRA CENTRAL COOPERATIVE BANK LIMITED",KACE0000197,NA,BATHU,"VPO BATHU TEHSIL HAROLI DISTT UNA PIN 174301",9882507419,TAHLIWALA,UNA,"HIMACHAL PRADESH"
"THE KANGRA CENTRAL COOPERATIVE BANK LIMITED",KACE0000196,NA,NALTI,"VPO NALTI TEHSIL AND DISTT HAMIRPUR PIN 177001",247111,NALTI,HAMIRPUR,"HIMACHAL PRADESH"
"THE KANGRA CENTRAL COOPERATIVE BANK LIMITED",KACE0000195,NA,NAGGAR,"VPO NAGGAR TEHSIL AND DISTT KULLU PIN 175130",9418433598,NAGGAR,KULLU,"HIMACHAL PRADESH"
"THE KANGRA CENTRAL COOPERATIVE BANK LIMITED",KACE0000194,NA,MASRER,"VPO MASRER TEHSIL DHARAMSHALA DISTT KANGRA PIN 176001",275306,MATOUR,KANGRA,"HIMACHAL PRADESH"
"THE KANGRA CENTRAL COOPERATIVE BANK LIMITED",KACE0000193,NA,BHALETH,"VPO BHALETH TEHSIL SUJANPUR DISTT HAMIRPUR PIN 176108",216144,"SUJANPUR TIRA",HAMIRPUR,"HIMACHAL PRADESH"
"THE KANGRA CENTRAL COOPERATIVE BANK LIMITED",KACE0000192,NA,LAPIANA,"POST OFFICE LAPIANA TEHSIL HARCHAKIAN DISTT KANGRA",9418729713,HARCHAKIAN,KANGRA,"HIMACHAL PRADESH"
"THE KANGRA CENTRAL COOPERATIVE BANK LIMITED",KACE0000191,NA,MANPUL,"POST OFFICE MAJIAR TEHSIL NADAUN DISTT HAMIRPUR PIN 177038",233655,NADAUN,HAMIRPUR,"HIMACHAL PRADESH"
"THE KANGRA CENTRAL COOPERATIVE BANK LIMITED",KACE0000190,NA,HARSI,"TEHSIL JAISINGHPUR DISTT.KANGRA H.P.PIN 176082",259354,JAISINGHPUR,KANGRA,"HIMACHAL PRADESH"
"THE KANGRA CENTRAL COOPERATIVE BANK LIMITED",KACE0000189,NA,ALAMPUR,"TEHSIL JAISINGHPUR DISTT.KANGRA H.P.PIN 176082",0,ALAMPUR,KANGRA,"HIMACHAL PRADESH"
"THE KANGRA CENTRAL COOPERATIVE BANK LIMITED",KACE0000188,NA,CHAMUNDA,"TEHSIL DHARMSHALA DISTT.KANGRA H.P.PIN 176052",0,CHAMUNDA,KANGRA,"HIMACHAL PRADESH"
"THE KANGRA CENTRAL COOPERATIVE BANK LIMITED",KACE0000187,NA,"LAREN KELO","TEHSIL MANALI DISTT. KULU  175104",248008,NAGGAR,KULU,"HIMACHAL PRADESH"
"THE KANGRA CENTRAL COOPERATIVE BANK LIMITED",KACE0000186,NA,DARAMAN,"TEHSIL SHAHPUR DISTT KANGRA",0,SHAHPUR,KANGRA,"HIMACHAL PRADESH"
"THE KANGRA CENTRAL COOPERATIVE BANK LIMITED",KACE0000185,NA,BALOH,"TEHSIL BHORANJ DISTT. HAMIRPUR 177029",0,BHORANJ,HAMIRPUR,"HIMACHAL PRADESH"
"THE KANGRA CENTRAL COOPERATIVE BANK LIMITED",KACE0000184,NA,MAJHEEN,"TEHSIL KHUNDIAN DISTT KANGRA",0,JAWALAMUKHI,KANGRA,"HIMACHAL PRADESH"
"THE KANGRA CENTRAL COOPERATIVE BANK LIMITED",KACE0000183,177850037,HARETA,"V.P.O.HARETA TEHSIL NADAUN DISTT. HAMIRPUR H.P. 174405",0,GALORE,HAMIRPUR,"HIMACHAL PRADESH"
"THE KANGRA CENTRAL COOPERATIVE BANK LIMITED",KACE0000182,174850119,"THANA KALAN","TEHSIL BANGANA DISTT. UNA H.P.",273100,"THANA KALAN",UNA,"HIMACHAL PRADESH"
"THE KANGRA CENTRAL COOPERATIVE BANK LIMITED",KACE0000181,176850083,"TANG NARWANA","VILL. TANG NARWANA P.O. TANG DISTT. KANGRA H.P. 176052",0,"YOL CAMP",KANGRA,"HIMACHAL PRADESH"
"THE KANGRA CENTRAL COOPERATIVE BANK LIMITED",KACE0000180,174850117,TAHLIWAL,"TESHIL & DISTT. UNA H.P.",257022,TAHLIWALA,UNA,"HIMACHAL PRADESH"
"THE KANGRA CENTRAL COOPERATIVE BANK LIMITED",KACE0000179,176850183,ADHWANI,"ADHWANI-BALARDU TESHIL JAWALAMUKHI DISTT. KANGRA 176066",0,JAWALAMUKHI,KANGRA,"HIMACHAL PRADESH"
"THE KANGRA CENTRAL COOPERATIVE BANK LIMITED",KACE0000178,176850082,GANOH,"TESHIL NURPUR DISTT. KANGRA H.P. 176051",274044,GUNOH,KANGRA,"HIMACHAL PRADESH"
"THE KANGRA CENTRAL COOPERATIVE BANK LIMITED",KACE0000177,174850105,DEHLAN,"TESHIL & DISTT. UNA H.P. 174306",0,UNA,UNA,"HIMACHAL PRADESH"
"THE KANGRA CENTRAL COOPERATIVE BANK LIMITED",KACE0000176,174850107,BASAL,"TESHIL & DISTT. UNA H.P. 174303",272169,UNA,UNA,"HIMACHAL PRADESH"
"THE KANGRA CENTRAL COOPERATIVE BANK LIMITED",KACE0000175,177850035,JALARI,"TESHIL NADAUN DIST. HAMIRPUR H.P. 177042",232130,NADAUN,HAMIRPUR,"HIMACHAL PRADESH"
"THE KANGRA CENTRAL COOPERATIVE BANK LIMITED",KACE0000174,177850036,UKHLI,"TESHIL & DISTT. HAMIRPUR H.P. 176042",257021,HAMIRPUR,HAMIRPUR,"HIMACHAL PRADESH"
"THE KANGRA CENTRAL COOPERATIVE BANK LIMITED",KACE0000173,176850131,BHERI,"TESHIL JAISINGHPUR DISTT. KANGRA H.P.176082",271260,BALAKRUPI,KANGRA,"HIMACHAL PRADESH"
"THE KANGRA CENTRAL COOPERATIVE BANK LIMITED",KACE0000172,176850129,THAKURDWARA,"TESHIL PALAMPUR DISTT. KANGRA H.P.176102",238128,PALAMPUR,KANGRA,"HIMACHAL PRADESH"
"THE KANGRA CENTRAL COOPERATIVE BANK LIMITED",KACE0000171,176850130,PAHRA,"TESHIL PALAMPUR DISTT. KANGRA H.P.176087",255088,PAHRA,KANGRA,"HIMACHAL PRADESH"
"THE KANGRA CENTRAL COOPERATIVE BANK LIMITED",KACE0000170,176850081,BARANDA,"TESHIL NURPUR DISTT. KANGRA H.P. 176201",238522,VARANDA,KANGRA,"HIMACHAL PRADESH"
"THE KANGRA CENTRAL COOPERATIVE BANK LIMITED",KACE0000169,177850034,"KALE AMB","TESHIL & DISTT. HAMIRPUR H.P.",246164,"AWAHA DEVI",HAMIRPUR,"HIMACHAL PRADESH"
"THE KANGRA CENTRAL COOPERATIVE BANK LIMITED",KACE0000168,177850033,"PUCA BAROH","TESHIL & DISTT. HAMIRPUR H.P.",225288,HAMIRPUR,HAMIRPUR,"HIMACHAL PRADESH"
"THE KANGRA CENTRAL COOPERATIVE BANK LIMITED",KACE0000167,177850032,AWAHDEVI,"TESHIL & DISTT. HAMIRPUR H.P.",275080,"AWAHA DEVI",HAMIRPUR,"HIMACHAL PRADESH"
"THE KANGRA CENTRAL COOPERATIVE BANK LIMITED",KACE0000166,177850031,KUTHERA,"TESHIL & DISTT. HAMIRPUR H.P.",244060,BHOTA,HAMIRPUR,"HIMACHAL PRADESH"
"THE KANGRA CENTRAL COOPERATIVE BANK LIMITED",KACE0000165,176850153,CHALWARA,"TESHIL NURPUR DISTT. KANGRA H.P.",263012,JAWALI,KANGRA,"HIMACHAL PRADESH"
"THE KANGRA CENTRAL COOPERATIVE BANK LIMITED",KACE0000164,176850070,MCLEODGANJ,"BHAGSU ROAD P.O. MCLEODGANJ DISTT. KANGRA H.P.176219",220310,MCLEODGANJ,KANGRA,"HIMACHAL PRADESH"
"THE KANGRA CENTRAL COOPERATIVE BANK LIMITED",KACE0000163,175850057,SISSU,"TEHSIL KEYLONG DISTT LAHUL & SPITI",263151,KEYLONG,"LAHUL & SPITI","HIMACHAL PRADESH"
"THE KANGRA CENTRAL COOPERATIVE BANK LIMITED",KACE0000162,174850115,"REGIONAL HOSPITAL UNA","TESHIL & DISTT.UNA H.P. 174303",225080,UNA,UNA,"HIMACHAL PRADESH"
"THE KANGRA CENTRAL COOPERATIVE BANK LIMITED",KACE0000161,175850056,UDAIPUR,"TESHIL UDAIPUR DISTT. LAHUL & SPITI H.P. 175142",222443,UDAIPUR,"LAHUL & SPITI","HIMACHAL PRADESH"
"THE KANGRA CENTRAL COOPERATIVE BANK LIMITED",KACE0000160,175850003,DURAH,"V.P.O DURAH TEHSIL NIRMAND DISTT KULUPIN 172033",0,ANI,KULU,"HIMACHAL PRADESH"
"THE KANGRA CENTRAL COOPERATIVE BANK LIMITED",KACE0000159,177850030,"TIKKER KHATRIAN","TESHIL BHORANJ DISTT. HAMIRPUR H.P. 177025",287472,"AWAHA DEVI",HAMIRPUR,"HIMACHAL PRADESH"
"THE KANGRA CENTRAL COOPERATIVE BANK LIMITED",KACE0000158,176850065,MAKROLI,"TESHIL INDORA DISTT. KANGRA H.P. 176022",200140,REHAN,KANGRA,"HIMACHAL PRADESH"
"THE KANGRA CENTRAL COOPERATIVE BANK LIMITED",KACE0000157,174850112,LATHIANI,"TEHSIL BANGANA DISTT. UNA H.P.",260578,BANGANA,UNA,"HIMACHAL PRADESH"
"THE KANGRA CENTRAL COOPERATIVE BANK LIMITED",KACE0000156,176850182,LUBH,"TESHIL JAWALI DISTT. KANGRA H.P. 176023",264027,LUBH,KANGRA,"HIMACHAL PRADESH"
"THE KANGRA CENTRAL COOPERATIVE BANK LIMITED",KACE0000155,176850167,SANTALA,"TESHIL DEHRA DISTT. KANGRA H.P. 177034",203642,PRAGPUR,KANGRA,"HIMACHAL PRADESH"
"THE KANGRA CENTRAL COOPERATIVE BANK LIMITED",KACE0000154,174850127,BHARWAIN,"VPO BHARWAIN TEHSIL AMB DISTT UNA H.P.177109",256561,BHARWAIN,UNA,"HIMACHAL PRADESH"
"THE KANGRA CENTRAL COOPERATIVE BANK LIMITED",KACE0000153,176850113,MAHAKAAL,"TESHIL BAIJNATH DISTT. KANGRA H.P. 176125",265207,MAHAKAL,KANGRA,"HIMACHAL PRADESH"
"THE KANGRA CENTRAL COOPERATIVE BANK LIMITED",KACE0000152,174850108,DULLEHAR,"TEHSIL HAROLI DISTT UNA H.P. 176601",251960,DULEHAR,UNA,"HIMACHAL PRADESH"
"THE KANGRA CENTRAL COOPERATIVE BANK LIMITED",KACE0000151,175850015,"PARLA BHUNTAR","TESHIL & DISTT KULLU H.P. 175125",265584,KULU,KULU,"HIMACHAL PRADESH"
"THE KANGRA CENTRAL COOPERATIVE BANK LIMITED",KACE0000150,177850009,RANGAS,"TESHIL NADAUN DIST. HAMIRPUR H.P. 177048",241677,RANGAS,HAMIRPUR,"HIMACHAL PRADESH"
"THE KANGRA CENTRAL COOPERATIVE BANK LIMITED",KACE0000149,177850029,CHOURI,"TESHIL SUJANPUR TIRA DISTT. HAMIRPUT 176111",240374,TAUNIDEVI,HAMIRPUR,"HIMACHAL PRADESH"
"THE KANGRA CENTRAL COOPERATIVE BANK LIMITED",KACE0000148,176850128,DAROH,"TEHSIL PALAMPUR DISTT. KANGRA H.P.176107",275582,DAROH,KANGRA,"HIMACHAL PRADESH"
"THE KANGRA CENTRAL COOPERATIVE BANK LIMITED",KACE0000147,176850069,RAJOL,"V.P.O. RAJOL DISTT KANGRA H.P.",233431,RAIT,KANGRA,"HIMACHAL PRADESH"
"THE KANGRA CENTRAL COOPERATIVE BANK LIMITED",KACE0000146,176850172,JAMANABAD,"V.P.O. JAMANABAD DISTT KANGRA H.P.",263577,KANGRA,KANGRA,"HIMACHAL PRADESH"
"THE KANGRA CENTRAL COOPERATIVE BANK LIMITED",KACE0000145,177850010,"LOWER BAZAR HAMIRPUR","TEHSIL & DISTT. HAMIRPUR H.P. 177001",222509,HAMIRPUR,HAMIRPUR,"HIMACHAL PRADESH"
"THE KANGRA CENTRAL COOPERATIVE BANK LIMITED",KACE0000144,177850027,SAMIRPUR,"TESHIL BHORANJ DISTT. HAMIRPUR H.P.",275741,TAUNIDEVI,HAMIRPUR,"HIMACHAL PRADESH"
"THE KANGRA CENTRAL COOPERATIVE BANK LIMITED",KACE0000143,177850028,LADROUR,"TEHSIL BHORANJ DISTT HAMIRPUR H.P.",267913,LADRAUR,HAMIRPUR,"HIMACHAL PRADESH"
"THE KANGRA CENTRAL COOPERATIVE BANK LIMITED",KACE0000142,176850080,BHADWAR,"TEHSIL NURPUR DISTT. KANGRA H.P.",235261,BHADWAR,KANGRA,"HIMACHAL PRADESH"
"THE KANGRA CENTRAL COOPERATIVE BANK LIMITED",KACE0000141,176850127,"SYNDICATE AREA PALAMPUR","NEAR SHEETLA MATA MANDIR . SY. AREA PALAMPUR DISTT KANGRA H.P.",230917,PALAMPUR,KANGRA,"HIMACHAL PRADESH"
"THE KANGRA CENTRAL COOPERATIVE BANK LIMITED",KACE0000140,176850114,"CHOUGAN BIR","TIBETAN COLONY BIR TEHSIL BAIJNATH DSITT. KANGRA H.P. 176077",268039,BIR,KANGRA,"HIMACHAL PRADESH"
"THE KANGRA CENTRAL COOPERATIVE BANK LIMITED",KACE0000139,175850014,JARI,"TESHIL & DISTT. KULU",276034,JARI,KULU,"HIMACHAL PRADESH"
"THE KANGRA CENTRAL COOPERATIVE BANK LIMITED",KACE0000138,176850116,DARANG,"V.P.O.DARANG TEHSIL PALAMPUR DISTT. KANGRA 176060",241067,"NAGROTA BAGWAN",KANGRA,"HIMACHAL PRADESH"
"THE KANGRA CENTRAL COOPERATIVE BANK LIMITED",KACE0000137,177850017,CHAKMOH,"VPO CHAKMOH DISTT. HAMIRPUR H.P.",286434,CHHAKMOH,HAMIRPUR,"HIMACHAL PRADESH"
"THE KANGRA CENTRAL COOPERATIVE BANK LIMITED",KACE0000136,176850166,BANKHANDI,"TESHIL DEHRA DISTT. KANGRA H.P. 177114",284595,BANKHANDI,KANGRA,"HIMACHAL PRADESH"
"THE KANGRA CENTRAL COOPERATIVE BANK LIMITED",KACE0000135,177850020,SALAUNI,"VPO SALAUNI TEHSIL BARSAR DISTT HAMIRPUR H.P.",261697,SALAUNI,HAMIRPUR,"HIMACHAL PRADESH"
"THE KANGRA CENTRAL COOPERATIVE BANK LIMITED",KACE0000134,177850026,BHARERI,"TEHSIL BHORANJ DISTT. HAMIRPUR H.P.177024",260687,BHARERI,HAMIRPUR,"HIMACHAL PRADESH"
"THE KANGRA CENTRAL COOPERATIVE BANK LIMITED",KACE0000133,177850008,"BIR BHAGERHA","VPO BIR BAGHERA DISTT HAMIRPUR",276065,"SUJANPUR TIRA",HAMIRPUR,"HIMACHAL PRADESH"
"THE KANGRA CENTRAL COOPERATIVE BANK LIMITED",KACE0000132,174850126,"SHASTRI MARKET DAULATPUR CHOWK","DAULATPUR CHOWK TEHSIL AMB DISTT UNA H.P. 177204",266321,DAULATPUR,UNA,"HIMACHAL PRADESH"
"THE KANGRA CENTRAL COOPERATIVE BANK LIMITED",KACE0000131,176850112,SANSAL,"TESHIL BAIJNATH DISTT. KANGRA H.P. 175115",262705,BAIJNATH,KANGRA,"HIMACHAL PRADESH"
"THE KANGRA CENTRAL COOPERATIVE BANK LIMITED",KACE0000130,175850021,"BHUTTI COLONY","TEHSIL & DISTT. KULU H.P. 175126",260616,KULU,KULU,"HIMACHAL PRADESH"
"THE KANGRA CENTRAL COOPERATIVE BANK LIMITED",KACE0000129,176850073,DARI,"VILL . BAROL P.O. DARI DISTT. KANGRA H.P.176057",223099,DARI,KANGRA,"HIMACHAL PRADESH"
"THE KANGRA CENTRAL COOPERATIVE BANK LIMITED",KACE0000128,174850125,MUBARAKPUR,"VPO MUBARIKPUR TEHSIL AMB DISTT.UNA H.P. 177202",264351,MUBARAKPUR,UNA,"HIMACHAL PRADESH"
"THE KANGRA CENTRAL COOPERATIVE BANK LIMITED",KACE0000127,176850156,"KASBA KOTLA","VPO KASBA KOTLA TEHSIL JASWAN DISTT. KANGRA H.P. 177111",253809,"KASBA KOTLA",KANGRA,"HIMACHAL PRADESH"
"THE KANGRA CENTRAL COOPERATIVE BANK LIMITED",KACE0000126,176850176,RAJIANA,"V.P.O. RAJIANA (53 MILES) DISTT. KANGRA H.P. 176056",267493,"NAGROTA BAGWAN",KANGRA,"HIMACHAL PRADESH"
"THE KANGRA CENTRAL COOPERATIVE BANK LIMITED",KACE0000125,176850125,RAJPURA,"TEHSIL PALAMPUR DISTT. KANGRA H.P. 176051",239129,PANCHRUKHI,KANGRA,"HIMACHAL PRADESH"
"THE KANGRA CENTRAL COOPERATIVE BANK LIMITED",KACE0000124,176850126,SULAH,"TESHIL PALAMPUR DISTT. KANGRA H.P. 176085",220335,SULAH,KANGRA,"HIMACHAL PRADESH"
"THE KANGRA CENTRAL COOPERATIVE BANK LIMITED",KACE0000123,177850025,JAHU,"TESHIL BHORANJ DISTT. HAMIRPUR H.P. 176048",263396,JAHU,HAMIRPUR,"HIMACHAL PRADESH"
"THE KANGRA CENTRAL COOPERATIVE BANK LIMITED",KACE0000122,176850165,"NEHRAN PUKHAR","TEHSIL DEHRA DISTT. KANGRA H.P. 177104",268596,PRAGPUR,KANGRA,"HIMACHAL PRADESH"
"THE KANGRA CENTRAL COOPERATIVE BANK LIMITED",KACE0000121,176850072,"YOL CAMP","YOL CAMP DISTT. KANGRA H.P. 176052",235848,"YOL CAMP",KANGRA,"HIMACHAL PRADESH"
"THE KANGRA CENTRAL COOPERATIVE BANK LIMITED",KACE0000120,176850064,"DHANGU PIR","TEHSIL INDORA DIST. KANGRA H.P. 176403",244960,DAMTAL,KANGRA,"HIMACHAL PRADESH"
"THE KANGRA CENTRAL COOPERATIVE BANK LIMITED",KACE0000119,176850111,"UPPER LAMBAGAON","TEHSIL JAISINGHPUR DISTT KANGRA H.P. 176096",227331,LAMBAGAON,KANGRA,"HIMACHAL PRADESH"
"THE KANGRA CENTRAL COOPERATIVE BANK LIMITED",KACE0000118,176850079,"CHOUGAN NURPUR","TEHSIL NURPUR DISTT. KANGRA H.P. 176202",221098,NURPUR,KANGRA,"HIMACHAL PRADESH"
"THE KANGRA CENTRAL COOPERATIVE BANK LIMITED",KACE0000117,175850011,BAIL,"P.O.KOIL TEHSIL NIRMNAD DISTT. KULU PIN 173023",265249,NITHER,KULU,"HIMACHAL PRADESH"
"THE KANGRA CENTRAL COOPERATIVE BANK LIMITED",KACE0000116,176850171,"PURANA KANGRA","TEHSIL & DISTT. KANGRA H.P. 176002",262722,KANGRA,KANGRA,"HIMACHAL PRADESH"
"THE KANGRA CENTRAL COOPERATIVE BANK LIMITED",KACE0000115,176850164,PAISA,"PAISA ROAD TEHSIL DEHRA DISTT. KANGRA H.P. 177101",288185,JAWALAMUKHI,KANGRA,"HIMACHAL PRADESH"
"THE KANGRA CENTRAL COOPERATIVE BANK LIMITED",KACE0000114,174850103,AJOULI,"TEHSIL & DISTT. UNA 174301",256526,AJOULI,UNA,"HIMACHAL PRADESH"
"THE KANGRA CENTRAL COOPERATIVE BANK LIMITED",KACE0000113,176850110,RAKKAR-BHERI,"TEHSIL BAIJNATH DISTT. KANGRA H.P. 176063",254627,PANCHRUKHI,KANGRA,"HIMACHAL PRADESH"
"THE KANGRA CENTRAL COOPERATIVE BANK LIMITED",KACE0000112,177850019,KANGOO,"VPO KANGOO TEHSIL NADAUN DISTT. HAMIRPUR",231851,KANGOO,HAMIRPUR,"HIMACHAL PRADESH"
"THE KANGRA CENTRAL COOPERATIVE BANK LIMITED",KACE0000111,176850170,GHAHLIAN,"TEHSIL & DISTT. KANGRA H.P.176029",213401,RANITAL,KANGRA,"HIMACHAL PRADESH"
"THE KANGRA CENTRAL COOPERATIVE BANK LIMITED",KACE0000110,175850020,"SAJALA AT KHAKNAL","TEHSIL & DISTT. KANGRA H.P. 175143",259401,MANALI,KULU,"HIMACHAL PRADESH"
"THE KANGRA CENTRAL COOPERATIVE BANK LIMITED",KACE0000109,175850013,JABAN,"JABAN, VILLAGE:- JABAN, P.O:- KANDAGAI, TEHSIL:- ANNI, DISTRICT:- KULLU. (H.P). PIN:- 172025.",257256,DALAS,KULU,"HIMACHAL PRADESH"
"THE KANGRA CENTRAL COOPERATIVE BANK LIMITED",KACE0000108,175850012,BAJAURA,"TEHSIL & DISTT KULU H.P. 175125",265353,BAJAURA,KULU,"HIMACHAL PRADESH"
"THE KANGRA CENTRAL COOPERATIVE BANK LIMITED",KACE0000107,175850019,RAISON,"TEHSIL & DISTT KULU H.P. 175128",245470,RAISON,KULU,"HIMACHAL PRADESH"
"THE KANGRA CENTRAL COOPERATIVE BANK LIMITED",KACE0000106,176850063,THAKURDWARA,"TEHSIL INDORA DISTT. KANGRA 176403",240168,DAMTAL,KANGRA,"HIMACHAL PRADESH"
"THE KANGRA CENTRAL COOPERATIVE BANK LIMITED",KACE0000105,176850175,PATHIAR,"V.P.O. PATHIAR DISTT. KANGRA H.P. 176047",253632,CHAMUNDA,KANGRA,"HIMACHAL PRADESH"
"THE KANGRA CENTRAL COOPERATIVE BANK LIMITED",KACE0000104,176850124,KOTLU,"TESHIL JAISINGHPUR DISTT. KANGRA H.P. 176096",274549,PALAMPUR,KANGRA,"HIMACHAL PRADESH"
"THE KANGRA CENTRAL COOPERATIVE BANK LIMITED",KACE0000103,174850111,JHALERA,"TEHSIL & DISTT. UNA H.P.",225907,UNA,UNA,"HIMACHAL PRADESH"
"THE KANGRA CENTRAL COOPERATIVE BANK LIMITED",KACE0000102,176850109,CHADIAR,"TEHSIL BAIJNATH DISTT. KANGRA 176088",257359,CHADIHYAR,KANGRA,"HIMACHAL PRADESH"
"THE KANGRA CENTRAL COOPERATIVE BANK LIMITED",KACE0000101,177850007,"DIDWIN TIKKAR","TEHSIL BARSAR DSITT. HAMIRPUR H.P.177401",255169,BHOTA,HAMIRPUR,"HIMACHAL PRADESH"
"THE KANGRA CENTRAL COOPERATIVE BANK LIMITED",KACE0000100,176850068,CHARRI,"V PO CHARRI DISTT KANGRA H.P.",277296,CHARI,KANGRA,"HIMACHAL PRADESH"
"THE KANGRA CENTRAL COOPERATIVE BANK LIMITED",KACE0000099,175850018,"GANDHI NAGAR","KULU DISTT. KULU H.P.",225545,KULU,KULU,"HIMACHAL PRADESH"
"THE KANGRA CENTRAL COOPERATIVE BANK LIMITED",KACE0000098,177850018,BANI,"VPO BANI DISTT HAMIRPUR",288070,BARSAR,HAMIRPUR,"HIMACHAL PRADESH"
"THE KANGRA CENTRAL COOPERATIVE BANK LIMITED",KACE0000097,176850169,BAGLI,"V POBAGLI DISTT KANGRA H.P.",232570,GAGGAL,KANGRA,"HIMACHAL PRADESH"
"THE KANGRA CENTRAL COOPERATIVE BANK LIMITED",KACE0000096,174850109,"GOVT. COLLEGE UNA","TEHSIL & DISTT. UNA H.P. 174303",225202,UNA,UNA,"HIMACHAL PRADESH"
"THE KANGRA CENTRAL COOPERATIVE BANK LIMITED",KACE0000094,177850024,PANJOT,"TEHSIL & DISTT. HAMIRPUR H.P. 177029",275144,TAUNIDEVI,HAMIRPUR,"HIMACHAL PRADESH"
"THE KANGRA CENTRAL COOPERATIVE BANK LIMITED",KACE0000093,176850123,BHAWARNA,"TESHIL PALAMPUR DISTT. KANGRA H.P. 176083",247290,BHAWARNA,KANGRA,"HIMACHAL PRADESH"
"THE KANGRA CENTRAL COOPERATIVE BANK LIMITED",KACE0000092,176850062,DAMTAL,"TESHIL INDORA DISTT KANGRA H.P. 176403",244775,DAMTAL,KANGRA,"HIMACHAL PRADESH"
"THE KANGRA CENTRAL COOPERATIVE BANK LIMITED",KACE0000091,176850108,PAPROLA,"TESHIL BAIJNATH DISTT. KANGRA H.P. 176115",242532,PAPROLA,KANGRA,"HIMACHAL PRADESH"
"THE KANGRA CENTRAL COOPERATIVE BANK LIMITED",KACE0000090,175850010,LARJEE,"V.P.O. LARJEE TEHSIL SAINJ DISTT. KULU PIN 175122",0,BANJAR,KULU,"HIMACHAL PRADESH"
"THE KANGRA CENTRAL COOPERATIVE BANK LIMITED",KACE0000089,177850023,"TAUNI DEVI","TEHSIL & DISTT. HAMIRPUR 177023",278005,TAUNIDEVI,HAMIRPUR,"HIMACHAL PRADESH"
"THE KANGRA CENTRAL COOPERATIVE BANK LIMITED",KACE0000088,176850067,SHAHPUR,"V PO SHAHPUR DISTT KANGRA H.P.",238001,SHAHPUR,KANGRA,"HIMACHAL PRADESH"
"THE KANGRA CENTRAL COOPERATIVE BANK LIMITED",KACE0000087,174850106,DUSHARA,"TESHIL & DISTT. UNA 174302",233002,UNA,UNA,"HIMACHAL PRADESH"
"THE KANGRA CENTRAL COOPERATIVE BANK LIMITED",KACE0000086,176850107,JAISINGHPUR,"TESHIL JAISINGHPUR DISTT. KANGRA H.P. 176095",228354,JAISINGHPUR,KANGRA,"HIMACHAL PRADESH"
"THE KANGRA CENTRAL COOPERATIVE BANK LIMITED",KACE0000085,177850022,PATTA,"TESHIL & DISTT. HAMIRPUR H.P. 173233",267128,BHORANJ,HAMIRPUR,"HIMACHAL PRADESH"
"THE KANGRA CENTRAL COOPERATIVE BANK LIMITED",KACE0000084,176850122,WAHE-DA-PATT,"TEHSIL PALAMPUR DIST. KANGRA H.P.176086",272216,KHAIRA,KANGRA,"HIMACHAL PRADESH"
"THE KANGRA CENTRAL COOPERATIVE BANK LIMITED",KACE0000083,176850115,KHUNDIAN,"TESHIL KHUNDIAN DISTT. KANGRA H.P. 176030",272053,KHUNDIAN,KANGRA,"HIMACHAL PRADESH"
"THE KANGRA CENTRAL COOPERATIVE BANK LIMITED",KACE0000082,176850106,DEOL,"TESHIL BAIJNATH DSITT. KANGRA H.P. 176125",264134,BAIJNATH,KANGRA,"HIMACHAL PRADESH"
"THE KANGRA CENTRAL COOPERATIVE BANK LIMITED",KACE0000081,176850121,NAGRI,"TESHIL PALAMPUR DISTT. KANGRA H.P. 176059",252301,CHACHIAN,KANGRA,"HIMACHAL PRADESH"
"THE KANGRA CENTRAL COOPERATIVE BANK LIMITED",KACE0000079,174850152,MEHATPUR,"TESHIL & DISTT. UNA H.P. 174315",232117,MEHATPUR,UNA,"HIMACHAL PRADESH"
"THE KANGRA CENTRAL COOPERATIVE BANK LIMITED",KACE0000078,174850118,TAKOLI,"TEHSIL BANGANA DISTT. UNA H.P. 177039",276037,"SOHARI TAKOLI",UNA,"HIMACHAL PRADESH"
"THE KANGRA CENTRAL COOPERATIVE BANK LIMITED",KACE0000077,175850017,KATRAIN,"TEHSIL & DISTT. KULU H.P. 175129",240249,KATRAIN,KULU,"HIMACHAL PRADESH"
"THE KANGRA CENTRAL COOPERATIVE BANK LIMITED",KACE0000076,176850060,INDORA,"TESHIL INDORA DISTT. KANGRA H.P. 176401",241232,INDORA,KANGRA,"HIMACHAL PRADESH"
"THE KANGRA CENTRAL COOPERATIVE BANK LIMITED",KACE0000075,176850071,"KB DHARAMSHALA","KOTWALI BAZAR DHARMSALA DISTT KANGRA 176215",223244,DHARAMSALA,KANGRA,"HIMACHAL PRADESH"
"THE KANGRA CENTRAL COOPERATIVE BANK LIMITED",KACE0000074,175850009,DALAS,"DALASH, V.P.O:- DALASH, TEHSIL:- ANNI, DISTRICT:- KULU. (H.P). PIN:- 172025.",256624,DALAS,KULU,"HIMACHAL PRADESH"
"THE KANGRA CENTRAL COOPERATIVE BANK LIMITED",KACE0000073,176850163,PRAGPUR,"TESHIL DEHRA DISTT. KANGRA H.P. 177107",245007,PRAGPUR,KANGRA,"HIMACHAL PRADESH"
"THE KANGRA CENTRAL COOPERATIVE BANK LIMITED",KACE0000072,177850006,LAMBLOO,"TEHSIL & DISTT. HAMIRPUR H.P. 177029",248021,LAMBLOO,HAMIRPUR,"HIMACHAL PRADESH"
"THE KANGRA CENTRAL COOPERATIVE BANK LIMITED",KACE0000071,176850059,SATHANA,"TESHIL FATEHPUR DISTT. KANGRA H.P. 176025",288883,BADUKHAR,KANGRA,"HIMACHAL PRADESH"
"THE KANGRA CENTRAL COOPERATIVE BANK LIMITED",KACE0000070,176850105,BIR,"TESHIL BAIJNATH DSITT. KANGRA H.P. 175041",268556,BIR,KANGRA,"HIMACHAL PRADESH"
"THE KANGRA CENTRAL COOPERATIVE BANK LIMITED",KACE0000069,176850078,SADWAN,"TEHSIL NURPUR DISTT.KANGRA H.P. 176202",234061,NURPUR,KANGRA,"HIMACHAL PRADESH"
"THE KANGRA CENTRAL COOPERATIVE BANK LIMITED",KACE0000067,174850124,PANJAWAR,"VPO PANJAWAR TEHSIL HAROLI DISTT UNA H.P. 177208",286043,PANJAWAR,UNA,"HIMACHAL PRADESH"
"THE KANGRA CENTRAL COOPERATIVE BANK LIMITED",KACE0000066,176850162,CHANOUR,"TESHIL DEHRA DISTT. KANGRA H.P. 177113",286231,DALIARA,KANGRA,"HIMACHAL PRADESH"
"THE KANGRA CENTRAL COOPERATIVE BANK LIMITED",KACE0000065,177850016,BARA,"VPO BARA DISTT. KANGRA H.P.",238040,BARA,HAMIRPUR,"HIMACHAL PRADESH"
"THE KANGRA CENTRAL COOPERATIVE BANK LIMITED",KACE0000064,175850055,SHANSHA,"TESHIL KEYLONG DISTT. LAHUL & SPITI H.P.",278102,KEYLONG,"LAHUL & SPITI","HIMACHAL PRADESH"
"THE KANGRA CENTRAL COOPERATIVE BANK LIMITED",KACE0000063,177850005,ANOO,"VPO ANOO DISTT. HAMIRPUR",222405,HAMIRPUR,HAMIRPUR,"HIMACHAL PRADESH"
"THE KANGRA CENTRAL COOPERATIVE BANK LIMITED",KACE0000062,175850008,SAINJ,"SAINJ, V.P.O:- SAINJ, TEHSIL:- SAINJ, DISTRICT:- KULU. (H.P). PIN:- 175134.",230031,SAINJ,KULU,"HIMACHAL PRADESH"
"THE KANGRA CENTRAL COOPERATIVE BANK LIMITED",KACE0000061,177850004,BHOTA,"VPO BHOTA DISTT. HAMIRPUR H.P.",255034,BHOTA,HAMIRPUR,"HIMACHAL PRADESH"
"THE KANGRA CENTRAL COOPERATIVE BANK LIMITED",KACE0000060,176850155,"SANSARPUR TERRACE","VPO SANSARPUR TERRACE TEHSIL JASWAN DISTT. KANGRA H.P.176501",256431,"SANSARPUR TERRAS",KANGRA,"HIMACHAL PRADESH"
"THE KANGRA CENTRAL COOPERATIVE BANK LIMITED",KACE0000059,176850120,THURAL,"TESHIL PALAMPUR DISTT. KANGRA H.P. 176107",276649,THURAL,KANGRA,"HIMACHAL PRADESH"
"THE KANGRA CENTRAL COOPERATIVE BANK LIMITED",KACE0000058,176850168,GAGGAL,"V PO GAGGAL DISTT KANGRA H.P.",232284,GAGGAL,KANGRA,"HIMACHAL PRADESH"
"THE KANGRA CENTRAL COOPERATIVE BANK LIMITED",KACE0000057,176850174,DANOA,"VILL DANOA P.O. BAROH DISTT KANGRA 176054",259018,BADOH,KANGRA,"HIMACHAL PRADESH"
"THE KANGRA CENTRAL COOPERATIVE BANK LIMITED",KACE0000056,176850161,JAWALAMUKHI,"TEHSILDEHRA DISTT. KANGRA H.P. 176031",222274,JAWALAMUKHI,KANGRA,"HIMACHAL PRADESH"
"THE KANGRA CENTRAL COOPERATIVE BANK LIMITED",KACE0000055,174850114,"RAIPUR MAIDAN","TESHIL & DSITT. UNA H.P.",244408,RAIPUR-MAIDAN,UNA,"HIMACHAL PRADESH"
"THE KANGRA CENTRAL COOPERATIVE BANK LIMITED",KACE0000054,176850119,PANCHRUKHI,"TEHSIL PALAMPUR DISTT. KANGRA H.P. 176103",254225,PANCHRUKHI,KANGRA,"HIMACHAL PRADESH"
"THE KANGRA CENTRAL COOPERATIVE BANK LIMITED",KACE0000053,176850154,JOURBAR,"VILL JOURBAR PO TIPRI TEHSIL JASWAN DISTT. KANGRA H.P. 177112",276123,BATHU-TIPRI,KANGRA,"HIMACHAL PRADESH"
"THE KANGRA CENTRAL COOPERATIVE BANK LIMITED",KACE0000052,176850058,BADUKHAR,"TESHIL INDORA DISTT KANGRA",257433,BADUKHAR,KANGRA,"HIMACHAL PRADESH"
"THE KANGRA CENTRAL COOPERATIVE BANK LIMITED",KACE0000051,176850057,REHAN,"TEHSIL NURPUR DISTT. KANGRA H.P. 176022",250036,REHAN,KANGRA,"HIMACHAL PRADESH"
"THE KANGRA CENTRAL COOPERATIVE BANK LIMITED",KACE0000050,176850077,KOTLA,"TEHSIL NURPUR DISTT. KANGRA H.P. 176205",236623,KOTLA,KANGRA,"HIMACHAL PRADESH"
"THE KANGRA CENTRAL COOPERATIVE BANK LIMITED",KACE0000049,176850118,DHEERA,"TEHSIL PALAMPUR DISTT. KANGRA H.P. 176101",222238,DHEERA,KANGRA,"HIMACHAL PRADESH"
"THE KANGRA CENTRAL COOPERATIVE BANK LIMITED",KACE0000048,174850110,HAROLI,"TEHSIL HAROLI DISTT. UNA H.P. 177220",284032,HAROLI,UNA,"HIMACHAL PRADESH"
"THE KANGRA CENTRAL COOPERATIVE BANK LIMITED",KACE0000047,175850054,KAZA,"VPO KAZA TEHSIL SPITI",9418556393,KAZA,"LAHUL & SPITI","HIMACHAL PRADESH"
"THE KANGRA CENTRAL COOPERATIVE BANK LIMITED",KACE0000046,177850015,GALORE,"VPO GALORE DISTT. HAMIRPUR",242025,GALORE,HAMIRPUR,"HIMACHAL PRADESH"
"THE KANGRA CENTRAL COOPERATIVE BANK LIMITED",KACE0000045,177850014,DHANETA,"VPO DHANETA TEHSIL NADAUN DISTT HAMIRPUR",234044,DHANETA,HAMIRPUR,"HIMACHAL PRADESH"
"THE KANGRA CENTRAL COOPERATIVE BANK LIMITED",KACE0000044,176850160,RAKKAR,"TEHAIL DEHRA DISTT. KANGRA H.P. 177043",279224,RAKKAR,KANGRA,"HIMACHAL PRADESH"
"THE KANGRA CENTRAL COOPERATIVE BANK LIMITED",KACE0000043,176850181,HARSAR,"TESHIL JAWALI DSITT. KANGRA",253524,HARSAR,KANGRA,"HIMACHAL PRADESH"
"THE KANGRA CENTRAL COOPERATIVE BANK LIMITED",KACE0000042,177850003,"SUJANPUR TIRA","TESHIL SUJANPUR TIRA DISTT. HAMIRPUT 176314",272042,"SUJANPUR TIRA",HAMIRPUR,"HIMACHAL PRADESH"
"THE KANGRA CENTRAL COOPERATIVE BANK LIMITED",KACE0000041,175850007,BHUNTER,"TESHIL & DSITT. KULU 175125",265090,KULU,KULU,"HIMACHAL PRADESH"
"THE KANGRA CENTRAL COOPERATIVE BANK LIMITED",KACE0000040,176850066,RAIT,"V PO RAITDISTT KANGRA H.P.",238049,RAIT,KANGRA,"HIMACHAL PRADESH"
"THE KANGRA CENTRAL COOPERATIVE BANK LIMITED",KACE0000039,176850180,BHARMAR,"TEHSIL JAWALI DSITT. KANGRA H.P. 176021",250057,BHARMAR,KANGRA,"HIMACHAL PRADESH"
"THE KANGRA CENTRAL COOPERATIVE BANK LIMITED",KACE0000038,175850006,NIRMAND,"TESHIL NIRMAND DISTT. KULU 172023",255141,NIRMAND,KULU,"HIMACHAL PRADESH"
"THE KANGRA CENTRAL COOPERATIVE BANK LIMITED",KACE0000037,174850123,GAGRET,"VPO GAGRET TEHSIL AMB DISTT UNA H.P. 177201",241302,GAGRET,UNA,"HIMACHAL PRADESH"
"THE KANGRA CENTRAL COOPERATIVE BANK LIMITED",KACE0000036,177850013,BHIJARI,"VPO BIJHARI TEHSIL BARSAR DISTT. KANGRA H.P.",283024,BIJHARI,HAMIRPUR,"HIMACHAL PRADESH"
"THE KANGRA CENTRAL COOPERATIVE BANK LIMITED",KACE0000035,175850052,MANALI,"TEHSIL MANALI DISTT. KULU 175131",252433,MANALI,KULU,"HIMACHAL PRADESH"
"THE KANGRA CENTRAL COOPERATIVE BANK LIMITED",KACE0000034,174850104,BANGANA,"TESHIL BANGANA DIST. UNA H.P. 174307",262023,BANGANA,UNA,"HIMACHAL PRADESH"
"THE KANGRA CENTRAL COOPERATIVE BANK LIMITED",KACE0000033,176850152,KANGRA,"RAJPUT BHAWANKANGRAPO KANGRA DISTT KANGRA H.P.",265057,KANGRA,KANGRA,"HIMACHAL PRADESH"
"THE KANGRA CENTRAL COOPERATIVE BANK LIMITED",KACE0000032,176850076,JASSUR,"TEHSIL NURPUR DISTT. KANGRA H.P. 176201",226090,JASUR,KANGRA,"HIMACHAL PRADESH"
"THE KANGRA CENTRAL COOPERATIVE BANK LIMITED",KACE0000031,176850075,GANGATH,"TEHSIL NURPUR DISTT. KANGRA H.P. 176204",275032,GANGATH,KANGRA,"HIMACHAL PRADESH"
"THE KANGRA CENTRAL COOPERATIVE BANK LIMITED",KACE0000030,176850179,RAJA-KA-TALAB,"TESHIL JAWALI DISTT. KANGRA H.P. 176051",250043,"RAJA KA TALAB",KANGRA,"HIMACHAL PRADESH"
"THE KANGRA CENTRAL COOPERATIVE BANK LIMITED",KACE0000028,176850056,LOHARA,"TEHSIL FATEHPUR DISTT. KANGRA H.P. 176053",256019,FATEHPUR,KANGRA,"HIMACHAL PRADESH"
"THE KANGRA CENTRAL COOPERATIVE BANK LIMITED",KACE0000027,176850178,"NAGROTA SURIAN","TEHSIL JAWALI DISTT. KANGRA H.P. 176027",265021,"NAGROTA SURIAN",KANGRA,"HIMACHAL PRADESH"
"THE KANGRA CENTRAL COOPERATIVE BANK LIMITED",KACE0000026,174850116,SANTOKHGARH,"TESHIL & DISTT. UNA H.P. 174301",256024,SANTOKHGARH,UNA,"HIMACHAL PRADESH"
"THE KANGRA CENTRAL COOPERATIVE BANK LIMITED",KACE0000025,177850021,BHORANJ,"TESHIL BHORANJ DISTT. HAMIRPUR H.P. 176045",266032,BHORANJ,HAMIRPUR,"HIMACHAL PRADESH"
"THE KANGRA CENTRAL COOPERATIVE BANK LIMITED",KACE0000024,176850177,JAWALI,"VPO JAWALI DISTT. KANGRA H.P.",264226,JAWALI,KANGRA,"HIMACHAL PRADESH"
"THE KANGRA CENTRAL COOPERATIVE BANK LIMITED",KACE0000023,176850053,DADA-SIBA,"TEHSIL JASWAN DISTT. KANGRA H.P 177106",289225,"DADA SIBA",KANGRA,"HIMACHAL PRADESH"
"THE KANGRA CENTRAL COOPERATIVE BANK LIMITED",KACE0000022,176850055,DHAMETA,"TEHSIL FATEHPUR DISTT. KANGRA H.P. 176025",254424,DHAMETA,KANGRA,"HIMACHAL PRADESH"
"THE KANGRA CENTRAL COOPERATIVE BANK LIMITED",KACE0000021,176850158,HARIPUR,"TEHSIL DEHRA DISTT. KANGRA H.P. 176028",265034,HARIPUR,KANGRA,"HIMACHAL PRADESH"
"THE KANGRA CENTRAL COOPERATIVE BANK LIMITED",KACE0000020,175850005,ANI,"V.P.O:- ANNI, TEHSIL:- ANNI, DISTRICT:- KULU.(H.P).PIN:- 172026.",253347,ANI,KULU,"HIMACHAL PRADESH"
"THE KANGRA CENTRAL COOPERATIVE BANK LIMITED",KACE0000019,176850104,LAMBAGAON,"TEHSIL JAISINGHPUR DISTT KANGRA H.P. 176096",228251,LAMBAGAON,KANGRA,"HIMACHAL PRADESH"
"THE KANGRA CENTRAL COOPERATIVE BANK LIMITED",KACE0000018,177850012,NADAUN,"TEHSIL NADAUN DISTT. HAMIRPUR H.P. 177033",232282,NADAUN,HAMIRPUR,"HIMACHAL PRADESH"
"THE KANGRA CENTRAL COOPERATIVE BANK LIMITED",KACE0000017,174850122,CHINTPURNI,"VPO CHINTPURNI TEHSIL AMB DISTT. UNA H.P. 177110",255233,CHINTPURNI,UNA,"HIMACHAL PRADESH"
"THE KANGRA CENTRAL COOPERATIVE BANK LIMITED",KACE0000016,176850103,BAIJNATH,"TEHSIL BAIJNATH DISTT. KANGRA 176225",263029,BAIJNATH,KANGRA,"HIMACHAL PRADESH"
"THE KANGRA CENTRAL COOPERATIVE BANK LIMITED",KACE0000015,176850054,KANDRORI,"TEHSIL INDORA DISTT. KANGRA 176402",244422,KANDROORI,KANGRA,"HIMACHAL PRADESH"
"THE KANGRA CENTRAL COOPERATIVE BANK LIMITED",KACE0000014,174850121,"DAULTPUR CHOWK","VPO DAULATPUR CHOWK TEHSIL AMB DISTT. UNA 177204",265034,DAULATPUR,UNA,"HIMACHAL PRADESH"
"THE KANGRA CENTRAL COOPERATIVE BANK LIMITED",KACE0000013,174850102,UNA,"TEHSIL & DISTT. UNA H.P. 174303",223386,UNA,UNA,"HIMACHAL PRADESH"
"THE KANGRA CENTRAL COOPERATIVE BANK LIMITED",KACE0000012,176850173,"NAGROTA BAGWAN","V.P.O NAGROTA BAGWAN DISTT. KANGRA 176047",252271,"NAGROTA BAGWAN",KANGRA,"HIMACHAL PRADESH"
"THE KANGRA CENTRAL COOPERATIVE BANK LIMITED",KACE0000011,177850011,BARSAR,"V.P.O. BARSAR DISTT. HAMIRPUR",288028,BARSAR,HAMIRPUR,"HIMACHAL PRADESH"
"THE KANGRA CENTRAL COOPERATIVE BANK LIMITED",KACE0000010,175850004,BANJAR,"NEAR OLD BUS STAND,V.P.O:- BANJAR,TEHSIL:- BANJAR, DISTRICT:- KULU. (H.P). PIN:- 175123.",222229,BANJAR,KULU,"HIMACHAL PRADESH"
"THE KANGRA CENTRAL COOPERATIVE BANK LIMITED",KACE0000009,174850120,AMB,"VPO AMB TEHSIL AMB DISTT UNA H.P. 177203",260021,AMB,UNA,"HIMACHAL PRADESH"
"THE KANGRA CENTRAL COOPERATIVE BANK LIMITED",KACE0000008,176850157,DEHRA,"TEHSIL DEHRA DISTT. KANGRA H.P.177101",233109,DEHRA,KANGRA,"HIMACHAL PRADESH"
"THE KANGRA CENTRAL COOPERATIVE BANK LIMITED",KACE0000007,175850053,KEYLONG,"TEHSIL KEYLONG DISTT LAHUL & SPITI 175132",222228,KEYLONG,"LAHUL & SPITI","HIMACHAL PRADESH"
"THE KANGRA CENTRAL COOPERATIVE BANK LIMITED",KACE0000006,175850002,KULU,"TEHSIL & DISTT KULU H.P. 175101",222598,KULU,KULU,"HIMACHAL PRADESH"
"THE KANGRA CENTRAL COOPERATIVE BANK LIMITED",KACE0000005,177850002,HAMIRPUR,"TEHSIL & DISTT. HAMIRPUR H.P.177001",222201,HAMIRPUR,HAMIRPUR,"HIMACHAL PRADESH"
"THE KANGRA CENTRAL COOPERATIVE BANK LIMITED",KACE0000004,176850102,"MAIN BAZAR PALAMPUR","MAIN BAZAR PALAMPUR DISTT. KANGRA H.P.",230587,PALAMPUR,KANGRA,"HIMACHAL PRADESH"
"THE KANGRA CENTRAL COOPERATIVE BANK LIMITED",KACE0000003,176850074,NURPUR,"TEHSIL NURPUR DISTT. KANGRA 176202",220051,NURPUR,KANGRA,"HIMACHAL PRADESH"
"THE KANGRA CENTRAL COOPERATIVE BANK LIMITED",KACE0000002,176850052,DHARAMSHALA,"CIVIL LINES DHARMSALA DISTT KANGRA H.P. 176215",223227,DHARAMSALA,KANGRA,"HIMACHAL PRADESH"
"THE KANGRA CENTRAL COOPERATIVE BANK LIMITED",KACE0000001,NA,RTGS-HO,"CIVIL LINES DHARMSALA DISTT KANGRA H.P. 176215",223280,DHARAMSALA,KANGRA,"HIMACHAL PRADESH"
