BANK,IFSC,MICR,BRANCH,ADDRESS,CONTACT,CITY,DISTRICT,STATE
"RBL Bank Limited",RATN0CRCARD,NA,NOC-GOREGAON,"THE RATNAKAR BANK LTD,9TH FLOOR, TECHNIPLEX-I, OFF VEER SAVARKAR FLYOVER, GOREGAON WEST, MUMBAI - 400 062",9833666862,"GREATER BOMBAY","GREATER BOMBAY",MAHARASHTRA
"RBL Bank Limited",RATN0123456,NA,"THE RATNAKAR BANK LTD","THE RATNAKAR BANK LTD,9TH FLOOR,TECHNIPLEX-I,OFF VEER SAVARKAR FLYOVER,GOREGAON WEST,MUMBAI-400062",240288100,MUMBAI,"GREATER BOMBAY",MAHARASHTRA
"RBL Bank Limited",RATN0000999,NA,"HEAD OFFICE","MAHAVEER, SHRI SHAHU MARKET YARD, KOLHAPUR. PIN 416005",2312650981,KOLHAPUR,KOLHAPUR,MAHARASHTRA
"RBL Bank Limited",RATN0000992,NA,"CORPORATE OFFICE ( IB BRANCH )","ONE INDIABULLS CENTRE, TOWER 2, 6TH FLOOR,841 SENAPATI BAPAT MARG, LOWER PAREL (W), MUMBAI 400 013.",0,"GREATER BOMBAY","GREATER BOMBAY",MAHARASHTRA
"RBL Bank Limited",RATN0000991,NA,"SERVICE BRANCH MUMBAI","THE RATNAKAR BANK LTD SERVICE BRANCH 19 J B HOUSE, R D STREET , FORT MUMBAI",2222655820,"GREATER BOMBAY","GREATER BOMBAY",MAHARASHTRA
"RBL Bank Limited",RATN0000990,NA,"CORPORATE OFFICE","ONE INDIA BULLS CENTRE, 841 6TH FLOOR, TOWER B WING, LOWER PAREL",2243020600,"GREATER BOMBAY","GREATER BOMBAY",MAHARASHTRA
"RBL Bank Limited",RATN0000237,NA,"VV NAGAR","RBL BANK LIMITED NILKANTH ESTATE PLOT NO 154 155 GROUND FLOOR SHOP NO 3 NANA BAZAR OPPOSITE UNIVERSITY GIRLS HOSTEL VALLABHVIDYA NAGAR 388120",1800123804,"VALLABHVIDYA NAGAR",AHMEDABAD,GUJARAT
"RBL Bank Limited",RATN0000236,NA,"KALYANI BRANCH","RBL BANK LIMITED B 7 20 S KALYANI BESIDES BERI HONDA SHOWROOM P O KALYANI DIST NADIA PIN 741235",1800123804,KALYANI,KALYANI,"WEST BENGAL"
"RBL Bank Limited",RATN0000235,NA,"CHAK Z  SRIGANGANAGAR","RBL BANK LIMITED GROUND FLOOR MURRABA NO 42 AND 26 SHOP NO 18 21 CHAK 7 Z TEHSIL AND DIST SRIGANGANAGAR RAJASTHAN PIN CODE 335001",1800123804,SRIGANGANAGAR,SRIGANGANAGAR,RAJASTHAN
"RBL Bank Limited",RATN0000234,NA,HAROTACHOMU,"RBL BANK LIMITED GROUND FLOOR NERA ANJANI HANUMAN MANDIR AT POST HAROTA TEHSIL CHOMU DISTRICT JAIPUR RAJASTHAN PIN CODE 303705",1800123804,CHOMU,CHOMU,RAJASTHAN
"RBL Bank Limited",RATN0000233,NA,"ZIRAKPUR BRANCH","RBL BANK LIMITED SCO 1 AND 2 GROUND FLOOR ORBIT APARTMENTS VIP ROAD ZIRAKPUR DISTRICT MOHALI 140603",1800123804,MOHALI,MOHALI,PUNJAB
"RBL Bank Limited",RATN0000232,NA,"BHOJPARA BRANCH","RBL BANK LIMITED R S NO 58 3 PLOT NO 6 NR GALAXY PETROL PUMP NATIONAL HIGHWAY 27 VILLAGE BHOJPARA TALAKU GONDAL DISTRICT RAJKOT PINCODE 360311",1800123804,GONDAL,GONDAL,GUJARAT
"RBL Bank Limited",RATN0000231,NA,"BAWARIKHEDA BRANCH","RBL BANK LIMITED GRAM PANCHAYAT DIST DEWAS MADHYA PRADESH PINCODE 455332",1800123804,BAWARIKHEDA,BAWARIKHEDA,"MADHYA PRADESH"
"RBL Bank Limited",RATN0000230,NA,"NANASA BRANCH","RBL BANK LIMITED VILLAGE NANASA P H NO 21 TEHSIL KANNOD DISTRICT MADHYA PRADESH PINCODE 455336",1800123804,NANASA,DEWAS,"MADHYA PRADESH"
"RBL Bank Limited",RATN0000229,NA,"PHAGWARA KAPURTHALA","RBL BANK LIMITED GROUND FLOOR CITY CENTRE TOWER 338 GURU HARGOBIND NAGAR PHAGWARA PINCODE 144401",1800123804,PHAGWARA,KAPURTHALA,PUNJAB
"RBL Bank Limited",RATN0000228,NA,"RAJPURA BRANCH","RBL BANK LIMITED GROUND FLOOR D 21 CALIBRE MARKET RAJPURA PIN CODE 140401",1800123804,PATIALA,"CHANDIGARH HQ",PUNJAB
"RBL Bank Limited",RATN0000227,NA,ANKLESHWAR,"RBL BANK LIMITED C BLOCK SHOP NO 1 TO 5 MAYUR NAGAR OPP LORDS PLAZA OLD N H NO 08 VILLAGE PIRAMAN TAL ANKLESHWAR DIST BHARUCH 393002",1800123804,BHARUCH,BHARUCH,GUJARAT
"RBL Bank Limited",RATN0000226,NA,"SOUTH BOPAL AHMEDBAD","RBL BANK LTD SHOP NO 8 AND 9 GROUND FLOOR ORCHID CENTRE SOUTH BHOPAL MOUJE BOPAL TALUKA DASKROI AHMEDABAD 380058",1800123804,AHMEDABAD,AHMEDABAD,GUJARAT
"RBL Bank Limited",RATN0000225,NA,"DANKUNI BRANCH","RBL BANK LIMITED FLAT NO 101 AND 102 SHREYA APARTMENTS 1ST FLOOR T N MUKHERJEE ROAD LICHUBAGAN OPP RAMSITA MANDIR DANKUNI HOOGLY PIN 712311",1800123804,DANKUNI,HOOGLY,"WEST BENGAL"
"RBL Bank Limited",RATN0000224,NA,"MADURAVOYAL CHENNAI","RBL BANK LIMITED NO 135 A P H ROAD MADURAVOYAL CHENNAI 600095",1800213804,MADURAVOYAL,CHENNAI,"TAMIL NADU"
"RBL Bank Limited",RATN0000223,NA,"KHALIKPUR BRANCH","RBL BANK LIMITED SHOP NO 16 AND 17 GROUND FLOOR SANSKRUTI COMPLEX NR SHUYOG PETROL PUMP MALPUR ROAD KHALIKPUR DIST ARAVALI GUJARAT 383315",1800123804,KHALIKPUR,ARAVALI,GUJARAT
"RBL Bank Limited",RATN0000222,NA,"KAMALPUR BRANCH","RBL BANK LIMITED SHOP NO 7 AND 8 FIRST FLOOR SAKAL AVENUE KAMALPUR TAL PRANTIJ DIST SABARKANTHA GUJARAT 383205",1800123804,KAMALPUR,SABARKANTHA,GUJARAT
"RBL Bank Limited",RATN0000221,NA,"KAGAM ERODE","RBL BANL LIMITED 49 A MANALKATTU THOTTAM ELLAKADAI KAGAM ERODE TAMIL NADU PIN CODE 638109",1800123804,"KAGAM ERODE","KAGAM ERODE","TAMIL NADU"
"RBL Bank Limited",RATN0000220,NA,COCHIN,"RBL BANK LIMITED GROUND AND FIRST FLOOR PALAL ARCADE NEXT TO BATA SHOW ROOM M G  ROAD DIST ERNAKULAM TAL KANAYANUR VILLAGE KARITHALA COCHIN 682016",1800123804,COCHIN,COCHIN,KERALA
"RBL Bank Limited",RATN0000219,NA,VISAKHAPATNAM,"RBL BANK LIMITED 47 1 4 BHUVANESHWARI PLAZA DIAMOND PARK MAIN ROAD DWARAKANAGAR VISAKHAPATNAM 530016",1800123804,VISAKHAPATNAM,VISAKHAPATNAM,"TAMIL NADU"
"RBL Bank Limited",RATN0000218,NA,"OCUS TECHNOPOLIS  GURGAON","RBL BANK LIMITED UNIT NO TGF 4 AND 5 GROUND FLOOR OCUS TECHNOPOLIS GOLF COURSE ROAD SECTOR 54 GURGAON HARYANA 122003",1800123804,GURGAON,GURGAON,HARYANA
"RBL Bank Limited",RATN0000217,NA,"GREATER KAILASH PART II","RBL BANK LIMITED M 2 GROUND FLOOR AND BASEMENT GREATER KAILASH PART 2 NEW DELHI 110048",1800123804,DELHI,DELHI,DELHI
"RBL Bank Limited",RATN0000216,400176029,"MALAD WEST","RBL BANK LIMITED SHOP NO 16-17 SIMPLEX KHUSHAANGAN 82 VIJAYARWADI S V ROAD MALAD WEST MUMBAI-400064",1800123804,"GREATER BOMBAY","GREATER BOMBAY",MAHARASHTRA
"RBL Bank Limited",RATN0000214,NA,ANAND,"RBL BANK LIMITED,GROUND FLOOR,SHOP NO 12,13,14,18,19,20, SUKETU COMPLEX,ANAND VIJAY NAGAR ROAD,ANAND - 388001",8001238040,ANAND,ANAND,GUJARAT
"RBL Bank Limited",RATN0000213,NA,JAIPUR,"RBL BANK LIMITED,SHOP NO 1, GROUND FLOOR,SILVER SQUARE,BHAGWAN DAS ROAD ,JAIPUR - 302001",8001238040,JAIPUR,JAIPUR,RAJASTHAN
"RBL Bank Limited",RATN0000212,400176031,"MIRA ROAD","RBL BANK LIMITED,SHOP 21 TO 25 GR FLR,IRASIA CHS,BEVERLY PARK,NR KANAKIA POLICE STN MIRA ROAD,THANE -401107",8001238040,"MIRA BHAYANDAR",THANE,MAHARASHTRA
"RBL Bank Limited",RATN0000211,400176030,"SANTACRUZ WEST","RBL BANK LIMITED,SHOP NO 3 GREENFIELD, S V ROAD,SANTACRUZ WEST MUMBAI - 400054",8001238040,"GREATER BOMBAY","GREATER BOMBAY",MAHARASHTRA
"RBL Bank Limited",RATN0000210,NA,MALLESWARAM,"RBL BANK LIMITED, KOMARLA PLAZA, NO 141,3RD MAIN,MARGOSA ROAD,MALLESWARAM,BANGALORE - 560003",8001238040,BANGALORE,"BANGALORE URBAN",KARNATAKA
"RBL Bank Limited",RATN0000209,NA,MADHAPUR,"RBL BANK LIMITED GROUND FLOOR MSR BLOCK KRISHE SAPPHIRE SURVAY NO 88, HITECH CITY MAIN ROAD,MADHAPUR,HYDERABAD-500081",8001238040,MADHAPUR,RANGAREDDY,TELANGANA
"RBL Bank Limited",RATN0000208,NA,KUKATPALLY,"RBL BANK LIMITED NO 10B GROUND FLOOR SURVEY NO 1051 AND 1060 MANJEERA MAJESTIC COMMERCIAL MALL KUKATPALLY 500072",8001238040,KUKATPALLY,RANGAREDDY,TELANGANA
"RBL Bank Limited",RATN0000207,NA,"INDIRA NAGAR BANGALORE","RBL BANK LIMITED,546,CMH ROAD,INDIRANAGAR,BANGALORE - 560038",8001238040,BANGALORE,"BANGALORE URBAN",KARNATAKA
"RBL Bank Limited",RATN0000206,NA,"MADURAI - TAMIL NADU","RBL BANK LIMITED, NO.98, VAKIL NEW STREET, MADURAI - 625001",8001238040,MADURAI,MADURAI,"TAMIL NADU"
"RBL Bank Limited",RATN0000205,NA,AMBUR-VELLORE,"RBL BANK LIMITED, NO.73,S S AVENUE BY PASSROAD,MELKRISHNAPURAM,AMBUR-635802",8001238040,AMBUR,VELLORE,"TAMIL NADU"
"RBL Bank Limited",RATN0000204,NA,NOIDA,"RBL BANK LIMITED GROUND FLOOR H 1A/28  SECTOR 63 NOIDA-201301",1800123804,NOIDA,"GAUTAM BUDDHA NAGAR","UTTAR PRADESH"
"RBL Bank Limited",RATN0000203,141176002,LUDHIANA,"RBL BANK LIMITED SCO NO 18-19C CANAL COLONY GREEN PARK AVENUE PAKHOWAL ROAD LUDHIANA -141001",1800123804,LUDHIANA,LUDHIANA,PUNJAB
"RBL Bank Limited",RATN0000202,160176002,CHANDIGARH,"RBL BANK LIMITED SCO 135-136 SECTOR 9-C MADHYA MARG,CHANDIGARH",1800123804,CHANDIGARH,CHANDIGARH,CHANDIGARH
"RBL Bank Limited",RATN0000201,641176003,"RBL BANK LTD","RBL BANK LIMITED FORMERLY THE RATNAKAR BANK LTD 2 139 SREE MAHALAKSHMI AMMAN COMPLEX RASAKAPALAYAM PULIAMPATTI PO POLLACHI TK POLLACHI TAMIL NADU 642002",1800123804,POLLACHI,COIMBATORE,"TAMIL NADU"
"RBL Bank Limited",RATN0000200,638176002,"RBL BANK LTD","RBL BANK LIMITED FORMERLY THE RATNAKAR BANK LTD 121 A SATHY ERODE HIGHWAYS ARIYAPPAMPALAYAM SATHYAMANGALAM TK ERODE DT SATHYAMANGALAM, TAMIL NADU 638402",1800123804,SATHYAMANGALAM,ERODE,"TAMIL NADU"
"RBL Bank Limited",RATN0000199,NA,"RBL BANK LTD","RBL BANK LIMITED FORMERLY THE RATNAKAR BANK LTD, GR FLOOR SHOP NO 3 AND 5 1ST FLOOR 3 4 AND 5 RAHEJA EXTENSION M G ROAD RAIPUR CHHATTISSGARH 492001",1800123804,RAIPUR,RAIPUR,CHHATTISGARH
"RBL Bank Limited",RATN0000198,NA,"RBL BANK LTD","RBL BANK LIMITED FORMERLY THE RATNAKAR BANK LTD GROUND FLOOR SADAR BAZAR PLOT NO 4 5332 SADAR THANA ROAD DELHI 110006",1800123804,DELHI,DELHI,DELHI
"RBL Bank Limited",RATN0000197,700176005,"KALAKAR STREET - KOLKATA","RBL BANK LTD., 19, BASAK STREET, (KALAKAR STREET), KOLKATA - 700007.",61156300,KOLKATA,KOLKATA,"WEST BENGAL"
"RBL Bank Limited",RATN0000196,700176004,"GARIAHAT - KOLKATA","RBL BANK LTD., 9/3A, GARIAHAT ROAD, GROUND FLOOR, KOLKATA - 700019.",61156300,KOLKATA,KOLKATA,"WEST BENGAL"
"RBL Bank Limited",RATN0000195,560176006,"J P NAGAR - BANGALORE","RBL BANK LTD., N 15 24TH MAIN, J P NAGAR, 1ST PHASE, BANGALORE - 560078.",1800123804,BANGALORE,"BANGALORE URBAN",KARNATAKA
"RBL Bank Limited",RATN0000194,110176012,"VIKAS MARG - DELHI","RBL BANK LTD., 6, SHANKAR VIHAR, VIKAS MARG, NEW DELHI 110092.",1800123804,DELHI,DELHI,DELHI
"RBL Bank Limited",RATN0000193,400176027,"CRAWFORD MARKET","RBL BANK LTD., GROUND FLOOR, 190/194, LOKMANYA TILAK NAGAR, SARDAR GRIHA, CRAWFORD MARKET, MUMBAI 400002.",61156300,"GREATER BOMBAY","GREATER BOMBAY",MAHARASHTRA
"RBL Bank Limited",RATN0000192,400176028,"ANDHERI MAROL BR","RBL BANK LTD., GROUND FLOOR, SHOP NO. 2, BALAJI BUSINESS PARK, CTS NO. 785, MAROL, ANDHERI EAST, MUMBAI 400059.",1800123804,"GREATOR BOMBAY","GREATOR BOMBAY",MAHARASHTRA
"RBL Bank Limited",RATN0000191,110176011,"FARIDABAD, HARYANA","RBL BANK LIMITED., SCO NO. 101, SECTOR-16, SHOP NO. G-01 TO G-05 AND G-09 TO G-10, FARIDABAD, HARYANA-121002.",1800123804,FARIDABAD,FARIDABAD,HARYANA
"RBL Bank Limited",RATN0000190,110176009,PITAMPURA,"RBL BANK LIMITED 4TH KAPIL VIHAR PITAMPURA DELHI 110034",45028843,DELHI,DELHI,DELHI
"RBL Bank Limited",RATN0000189,110176010,"CHANDNI CHOWK","RBL BANK LTD 450 454 KUCHA BRIJ NATH CHANDNI CHOWK DELHI 110006",45028843,DELHI,DELHI,DELHI
"RBL Bank Limited",RATN0000188,400176026,"GHATKOPAR EAST","SHOP NO. 13 AND 13A, ZEST BUSINESS SPACES, M G ROAD, GHATKOPAR EAST, MUMBAI 400077.",25011752,MUMBAI,MUMBAI,MAHARASHTRA
"RBL Bank Limited",RATN0000187,600176006,"ANNA NAGAR","THE RATNAKAR BANK LTD FIRST FLOOR OLD NO AB 134 AND AB 106 AND 108 4TH AVENUE SHANTI COLONY ANNA NAGAR CHENNAI 600 040",40288161,CHENNAI,CHENNAI,"TAMIL NADU"
"RBL Bank Limited",RATN0000186,600176005,"PARRYS CORNER","THE RATNAKAR BANK LTD FIRST FLOOR DASS INDIA TOWER DOOR NO 3 SECOND LINE BACH CHENNAI 600 001",40288161,CHENNAI,CHENNAI,"TAMIL NADU"
"RBL Bank Limited",RATN0000185,600176004,ADYAR,"THE RATNAKAR BANK LTD GROUND FLOOR NIBHAV BUILDING NO11 LB ROAD ADYAR CHENNAI 600020",40288161,CHENNAI,CHENNAI,"TAMIL NADU"
"RBL Bank Limited",RATN0000184,400176025,DADAR-MUMBAI,"THE RATNAKAR BANK LTD,PLOT N0-399,GOKHALE ROAD  SOUTH ,OPP BMC SCHOOL,DADAR WEST MUMBAI-400028",43020600,MUMBAI,"GREATER BOMBAY",MAHARASHTRA
"RBL Bank Limited",RATN0000183,388176501,VELETVA,"RBL BANK LTD,SHOP NO 1&2,FRIST FLOOR ATIMIYA ENCLAVE,VELETVA CROSS ROAD,NADIAD PETLAD ROAD,VELETVA,NADIAD TALUK,KHEDA DISTRICT,GUJARAT-388440",1238040,NADIAD,KHEDA,GUJARAT
"RBL Bank Limited",RATN0000182,NA,"VASANT VIHAR","THE RATNAKAR BANK LTD 23 BASANT LOK MARKET COMMUNITY CENTRE VASANT VIHAR NEW DELHI 110057",43020600,DELHI,DELHI,DELHI
"RBL Bank Limited",RATN0000181,383176001,"HIMAT NAGAR","THE RATNAKAR BANK LTD, SHOP NO 7,8,9, ASHOK VATIKA BLOCK NO A GROUND FLOOR SAHKARI JIN ROAD HIMAT NAGAR GUJARAT",43020600,GUJARAT,"SABAR KANTHA",GUJARAT
"RBL Bank Limited",RATN0000180,NA,NUNGAMBAKKAM,"THE RATNAKAR BANK LTD 1ST FLOOR RASHMI TOWER NO 1 VALLUVARKOTTAM HIGH ROAD CHENNAI 600034",43020600,CHENNAI,CHENNAI,"TAMIL NADU"
"RBL Bank Limited",RATN0000179,NA,NETRAVALI,"THE RATNAKAR BANK LTD HOUSE NO 110 MARGA VADDA NETRAVALI SANGUEM GOA 403704",43020600,SANGUEM,"SOUTH GOA",GOA
"RBL Bank Limited",RATN0000178,NA,ASSONORA,"HOUSE NO.12 BY 1,WADACHA WADA,SHIRGAON,ASSONORA,GOA 403 503",43020600,ASSONORA,"NORTH GOA",GOA
"RBL Bank Limited",RATN0000177,NA,TALERA,"PATTA NO.7,VILLAGE SEENTA,TEHSIL TALERA,DISTRICT BUNDHI PIN CODE 323021,RAJASTHAN",43020600,TALERA,BUNDI,RAJASTHAN
"RBL Bank Limited",RATN0000176,NA,MOHANPURA,"GRAM MOHANPURA,KHASRA NO.374 BY 264,PART C 1,GROUND FLOOR,AJMER 305801",43020600,MOHANPURA,JAIPUR,RAJASTHAN
"RBL Bank Limited",RATN0000175,NA,CHITTORGARH,"PLOT NO.2,SUKHSHANTI COLONY,BHILWARA ROAD,OPPOSITE SUB JAIL CHITTORGARH 312001,RAJASTHAN",43020600,CHITTORGARH,CHITTAURGARH,RAJASTHAN
"RBL Bank Limited",RATN0000174,NA,AGRA,"THE RATNAKAR BANK LTD GROUND FLOOR BLOCK NO 41 4 SANJAY PLACE SHOP NO 5 6 7 8 AND BASEMENT FLOOR",43020600,AGRA,AGRA,"UTTAR PRADESH"
"RBL Bank Limited",RATN0000173,NA,PADDHARI,"UMIYA NIVAS,MAIN BAZAR,VILLAGE KHAMBHALA,TALUKA PADDHARI,RAJKOT 360110",43020600,PADDHARI,RAJKOT,GUJARAT
"RBL Bank Limited",RATN0000172,NA,BHUJ,"B BY H.SARHAD DAIRY,BHUJ KHAVDA HIGHWAY,NR.BIRIYANDAYARA BUS STAND,BHUJ 370510",43020600,BHUJ,KACHCHH,GUJARAT
"RBL Bank Limited",RATN0000171,641176002,COIMBATORE,"THE RATNAKAR BANK LTD R.G CHAMBERS 726 AVINASHI ROAD TAMILNADU 641018",43020600,COIMBATORE,COIMBATORE,"TAMIL NADU"
"RBL Bank Limited",RATN0000170,NA,PATTUKOTTAI,"RANGANATHA VELLALAR COMP,THANJAVUR RD,ALADIKKUMULAI,PATTUKKOTAI,THANJAVUR DIST,THANJAVUR 614615",43020600,PATTUKOTTAI,THANJAVUR,"TAMIL NADU"
"RBL Bank Limited",RATN0000169,NA,TIRUCHIRAPPALLI,"SASHA COMP,MANNACHANALLUR RD,VENGANGUDI VILL,SAMAYAPURAM PO,TIRUCHIRAPALLI 621112",43020600,TIRUCHIRAPPALLI,TIRUCHIRAPALLI,"TAMIL NADU"
"RBL Bank Limited",RATN0000168,NA,KARUR,"SURVEY NO.596 BY 2A,N.H 7,BYE PASS ROAD,NANJAI PUGALUR,KARUR TALUK AND DISTRICT,KARUR 639113",43020600,KARUR,KARUR,"TAMIL NADU"
"RBL Bank Limited",RATN0000167,WAITING,"JL NEHRU ROAD KOLKATA","THE RATNAKAR BANK LTD, GROUND FLOOR, HORIZON BUILDING, 57 JAWAHAR LAL NEHRU ROAD, KOLKATA 700 071",224302060,KOLKATA,KOLKATA,"WEST BENGAL"
"RBL Bank Limited",RATN0000166,NA,GUNTUR,"DOOR NO.6 48A,SURVEY NO.333,LALUPURAM VILLAGE,GUNTUR RURAL MANDAL,GUNTUR DIST,GUNTUR 522017",43020600,GUNTUR,GUNTUR,"ANDHRA PRADESH"
"RBL Bank Limited",RATN0000165,NA,KAKINADA,"DOOR NO.1 93,KOVVADA PANCHAYAT,KAKINADA RURAL MANDAL,EAST GODAVARI DIST,KAKINADA 533006",43020600,KAKINADA,"EAST GODAVARI","ANDHRA PRADESH"
"RBL Bank Limited",RATN0000164,WAITING,INDORE,"THE RATNAKAR BANK LTD,SHOP NO.3, GROUND FLOOR, THE GRACE, PLOT NO. 1&2, KIBE COMPOUND, INDORE-452001",9833666862,INDORE,INDORE,"MADHYA PRADESH"
"RBL Bank Limited",RATN0000163,WAITING,NAGPUR,"THE RATNAKAR BANK LTD,3,4,5, ADITYA ENCLAVE, CENTRAL BAZAR ROAD, RAMDAS PETH, NAGPUR-440010",9823442373,NAGPUR,NAGPUR,MAHARASHTRA
"RBL Bank Limited",RATN0000162,WAITING,BORGAON-AMRAVATI,"THE RATNAKAR BANK LTD,SHOP NO. 13, A WING, CITILAND COMPLEX, BORGAON VILLAGE, AMRAVATI-444709",9833666862,AMRAVATI,AMRAVATI,MAHARASHTRA
"RBL Bank Limited",RATN0000161,700176002,"KOLKATA-THAPAR HOUSE","THE RATNAKAR BANK LTD,FIRST FLOOR,THAPAR HOUSE,25 BARBOURNE ROAD,KOLKATTA ┬û 700001",9833666862,KOLKATA,KOLKATA,"WEST BENGAL"
"RBL Bank Limited",RATN0000160,470176001,MAKRONIA,"GROUND FLOOR,KHASRA NO.174.21,174.23 PATWARI HALKA NO.72,MAKRONIA,MADHYA PRADESH 470001.",231488,SAGAR,SAGAR,"MADHYA PRADESH"
"RBL Bank Limited",RATN0000159,400176024,"MUMBAI - JUHU","THE RATNAKAR BANK LTD,GROUND AND FIRST FLOOR, DURU HOUSE, CTS NO. 900, VILLAGE JUHU, JUHU TARA ROAD, VILE PARLE (WEST), MUMBAI - 400049",9833666862,"GREATER BOMBAY","GREATER BOMBAY",MAHARASHTRA
"RBL Bank Limited",RATN0000158,380176004,"AHMEDABAD VIVA COMPLEX","THE RATNAKAR BANK LTD,VIVA COMPLEX, OPP. PARIMAL GARDEN, ELLISBRIDGE, AHMEDBAD - 380006",9558824663,AHMEDABAD,AHMADABAD,GUJARAT
"RBL Bank Limited",RATN0000157,411176009,PUNE-CAMP,"THE RATNAKAR BANK LTD,11 MOLEDINA ROAD,NEAR NAAZ BAKERY, EAST STREET FACING, PUNE-411001.",9833666862,PUNE,PUNE,MAHARASHTRA
"RBL Bank Limited",RATN0000156,560176005,"BANGALORE-PRESTIGE TOWERS","THE RATNAKAR BANK LTD,G-13, G-14, G-15 & G-17 PRESTIGE TOWERS,99 & 100 RESIDENCY ROAD, BANGALORE ┬û 560025",9833666862,BANGALORE,"BANGALORE URBAN",KARNATAKA
"RBL Bank Limited",RATN0000155,400176023,"MUMBAI - NARIMAN POINT","THE RATNAKAR BANK LTD,OFFICE NO./A, GROUND FLOOR, MITTAL COURT, 224 NARIMAN POINT, MUMBAI-400021",9833666862,"GREATER BOMBAY","GREATER BOMBAY",MAHARASHTRA
"RBL Bank Limited",RATN0000154,WAITING,HOSHANGABAD,"THE RATNAKAR BANK LTD,PLOT NO.34/1, AL AZIZ TOWER, BABAI PIPARYA ROAD, ANAND NAGAR, , HOSHANGABAD -461001",9833666862,HOSHANGABAD,HOSHANGABAD,"MADHYA PRADESH"
"RBL Bank Limited",RATN0000153,WAITING,"SEONI MALWA","THE RATNAKAR BANK LTD,PLOT NO.100/1/1, THAKUR COLONY, MAIN ROAD,, SEONI MALWA PIN CODE- 461223",9833666862,HOSHANGABAD,HOSHANGABAD,"MADHYA PRADESH"
"RBL Bank Limited",RATN0000152,462176002,BHOPAL,"THE RATNAKAR BANK LTD,PLOT NO.2, AKANKSHA COMPLEX GROUND FLOOR, FRONT RIGHT SIDE PORTION, ZONE-1, M.P NAGAR , BHOPAL- 462011",9833666862,BHOPAL,BHOPAL,"MADHYA PRADESH"
"RBL Bank Limited",RATN0000151,WAITING,DHAR,"THE RATNAKAR BANK LTD,SHOP  NUMBER BEARING 21-22, KASHI BAGH, DHAR-454001",9833666862,DHAR,DHAR,"MADHYA PRADESH"
"RBL Bank Limited",RATN0000150,464176051,"GANJ BASODA","THE RATNAKAR BANK LTD,WARD NO.12, GROUND FLOOR, STATION ROAD, GANJ BASODA- 464221",9833666862,VIDISHA,VIDISHA,"MADHYA PRADESH"
"RBL Bank Limited",RATN0000149,WAITING,ASHTA,"THE RATNAKAR BANK LTD,GROUND FLOOR, KHASRA NO. 416/1, ASHTA- 466116",9833666862,SEHORE,SEHORE,"MADHYA PRADESH"
"RBL Bank Limited",RATN0000148,313176002,UDAIPUR,"THE RATNAKAR BANK LTD,GROUND FLOOR, PLOT NO. 99, L ROAD, BHUPALPURA, VERMA CIRCLE, OPP. COLLECTOR BUNGALOW, UDAIPUR - 313001",9920074414,UDAIPUR,UDAIPUR,RAJASTHAN
"RBL Bank Limited",RATN0000147,636176002,SALEM,"THE RATNAKAR BANK LTD,103/105 SRIRAM NAGAR,SARADHA COLLEGE ROAD,SALEM - 636 016",9920074414,SALEM,SALEM,"TAMIL NADU"
"RBL Bank Limited",RATN0000146,132176002,PANIPAT,"THE RATNAKAR BANK LTD,SHOWROOM #1 196/7(PART), OPP. N.K. TOWER,G T ROAD, PANIPAT - 132103",9920074414,PANIPAT,PANIPAT,HARYANA
"RBL Bank Limited",RATN0000145,244176002,MORADABAD,"THE RATNAKAR BANK LTD,GF-1, PARSVNATH PLAZA -II,NEELGIRI COMMERCIAL COMPLEX,DELHI ROAD, MORADABAD-244001",9920074414,MORADABAD,MORADABAD,"UTTAR PRADESH"
"RBL Bank Limited",RATN0000144,575176002,MANGALORE,"THE RATNAKAR BANK LTD,MAXIMUS COMMERCIAL COMPLEX, LIGHT HOUSE HILL ROAD, MANGALORE - 575001",9920074414,MANGALORE,"DAKSHIN KANNAD",KARNATAKA
"RBL Bank Limited",RATN0000143,390176003,VADODARA,"THE RATNAKAR BANKLTD,CHITRAKUT COMPLEX, OPP HDFC BANK,NR PASHABHAI PARK,RACECOURSE ROAD,VADODARA - 390007",9920074414,VADODARA,VADODARA,GUJARAT
"RBL Bank Limited",RATN0000142,110176007,"RAJOURI GARDEN, NEW DELHI","THE RATNAKAR BANK LTD,J-13/52, BASEMENT & GROUND FLOOR, RAJOURI GARDEN,NEW DELHI - 110027",9920074414,DELHI,DELHI,DELHI
"RBL Bank Limited",RATN0000141,110176006,"HAUZ KHAS, NEW DELHI","THE RATNAKAR BANK LTD,GROUND FLOOR, M-6 HAUZ KHAS, NEW DELHI - 110016",9920074414,DELHI,DELHI,DELHI
"RBL Bank Limited",RATN0000140,464176001,KAMATOON,"THE RATNAKAR BANK LTD,GRD. FLOOR,389, VILLAGE KAMTOON, JJ ROAD,TEHSIL: BARELI, DIST: RAISEN,KAMTOON - 464668",9811136358,RAISEN,RAISEN,"MADHYA PRADESH"
"RBL Bank Limited",RATN0000139,WAITING,"CHAKH KAMED","THE RATNAKAR BANK LTD,GROUND FLOOR, SURVEY NO.283/2, GRAM CHAKH KAMED, TEHSIL GATHIYA, DISTRICT UJJAIN, MADYA PRADESH 456006",9811136358,DEWAS,DEWAS,"MADHYA PRADESH"
"RBL Bank Limited",RATN0000138,301176052,JAINPURAWAS,"THE RATNAKAR BANK LTD,GRAND SAPPHIRE INFRATECH PVT. LTD,NIKUNJ CITY, VILLAGE JAINPUWAS,NH-8, TAHSIL- BEHROR, DIST.- ALWAR,JAINPURWAS - 301701",9811136358,ALWAR,ALWAR,RAJASTHAN
"RBL Bank Limited",RATN0000137,WAITING,POROVORIM,"THE RATNAKAR BANK LTD,HOUSE NO. 456, NEAR CHODANKAR NURSIGN HOME, ALTO PORVORIM, BARDEZ, GOAD ┬û 403521.",9823442373,PORVORIM,"NORTH GOA",GOA
"RBL Bank Limited",RATN0000136,WAITING,CALANGUTE,"THE RATNAKAR BANK LTD,SHOP NO. 7,8,9,10 GROUND FLOOR, SIMPLEX CHAMBERS, PHASE 2 CALANGUTE, CALANGUTE BARDEZ, GOA-402516",9823442373,CALANGUTE,"NORTH GOA",GOA
"RBL Bank Limited",RATN0000135,533176102,PERAVARAM,"THE RATNAKAR BANK LTD,DOOR NO 2/43,1ST FLOOR,PERAVARAM VILLAGE AND GRAM PANCHAYAT,MAIN ROAD,ATREYAPURAM MANDAL,EAST GODAVARI DI,PERAVARAM - 533235",8978967320,ATREYAPURAM,"EAST GODAVARI","ANDHRA PRADESH"
"RBL Bank Limited",RATN0000134,384176051,UNJHA,"THE RATNAKAR BANK LTD,OPP UNJHA PHARMACY,STATION ROAD,UNJHA - 384170",9825803540,UNJHA,PATAN,GUJARAT
"RBL Bank Limited",RATN0000133,390176002,PADRA,"THE RATNAKAR BANK LTD,7/8 UMIYA NAGAR,BELOW POST OFFICE,PADRA - 391440.",8128873453,PADRA,VADODARA,GUJARAT
"RBL Bank Limited",RATN0000132,385176031,DEESA,"THE RATNAKAR BANK LTD,9-10, KIRAN COMPLEX,NEAR GAYATRI MANDIR,HIGHWAY ROAD,DEESA - 385535",9727075599,DEESA,"BANAS KANTHA",GUJARAT
"RBL Bank Limited",RATN0000131,394176051,BARDOLI,"THE RATNAKAR BANK LTD,SHOP. U/1-2, EMPIRE PLAZA, STATION ROAD,BARDOLI - 394601",9825184148,BARDOLI,SURAT,GUJARAT
"RBL Bank Limited",RATN0000130,396176131,DAMAN,"THE RATNAKAR BANK LTD,758.7.8,GR.FLOOR, OPP.PARAS MOTORS MFG.CO.,NR.PAKAS HOTEL, SOMNATH,DAMAN - 396210",0,DAMAN,DAMAN,"DAMAN AND DIU"
"RBL Bank Limited",RATN0000129,586176501,INCHAGERI,"THE RATNAKAR BANK LTD,GR.FLOOR,GRAMPANCHAYAT BUILDING,INCHAGERI VILLAGE,INDI TALUK,BIJAPUR DIST.,INCHAGERI - 586117",9901794037,INDI,BIJAPUR,KARNATAKA
"RBL Bank Limited",RATN0000128,380176003,KADI,"THE RATNAKAR BANK LTD,9/A,9/B,10,10/A,10/B,DIAMOND PLAZA,OPP.ARTS AND COMMERCE COLLEGE,THOL ROAD,KADI-382715",9974091651,KADI,MAHESANA,GUJARAT
"RBL Bank Limited",RATN0000127,WAITING,CHINCHOLI,"THE RATNAKAR BANK LTD,GUT NO 111, PLOT NO 5 & 6,JALGAON AURANGABAD ROAD,CHINCHOLI VILLAGE JALGAON DISTRICT,CHINCHOLI - 425003",9986442373,JALGAON,JALGAON,MAHARASHTRA
"RBL Bank Limited",RATN0000126,396176031,VAPI,"THE RATNAKAR BANK LTD,GR.FLOOR, SAHARA MARKET,VAPI SILVASSA ROAD,VAPI - 396195",9879603358,VAPI,VALSAD,GUJARAT
"RBL Bank Limited",RATN0000125,641176102,AVINASHI,"THE RATNAKAR BANK LTD,5/215, RAJAN NAGAR,OPP TO WEEKLY MARKET, K K PUDUR,POST AVINASHI,AVINASHI - 641654",9176699612,COIMBATORE,COIMBATORE,"TAMIL NADU"
"RBL Bank Limited",RATN0000124,587176501,MUDHOL,"THE RATNAKAR BANK LTD,NO.4026/3/D/6,NEAR RANNA CIRCLE,MUDHOL,DISTRICT BAGALKOT-KARNATAKA-587313",9901794037,MUDHOL,BAGALKOTE,KARNATAKA
"RBL Bank Limited",RATN0000123,461176301,PIPARIYA,"THE RATNAKAR BANK LTD,MURLI TOWER, CEMENT ROAD, PIPARIYA,DIST-HOSANGABAD,PIPARIYA - 461775",9826224484,HOSHANGABAD,HOSHANGABAD,"MADHYA PRADESH"
"RBL Bank Limited",RATN0000122,605176002,NELLIKUPPAM,"THE RATNAKAR BANK LTD,DOOR NO : 117/41, I FLOOR,K.S.A.R.ROAD,NELLIKUPPAM,CUDALLORE DISTRICT,NELLIKUPPAM - 607105",0,CUDDALORE,CUDDALORE,"TAMIL NADU"
"RBL Bank Limited",RATN0000121,587176102,BAGALKOT,"THE RATNAKAR BANK LTD,NO.163/2A,NEAR LIONS SCHOOL,BAGALKOT - 587101",9901794037,BAGALKOT,BAGALKOTE,KARNATAKA
"RBL Bank Limited",RATN0000120,517176002,TIRUPATHI,"THE RATNAKAR BANK LTD,D NO: 231/2, PLOT NO: 87, PADMAVATHIPURAM,TIRUCHANOOR ROAD,TIRUPATHI - 517502",0,TIRUPATI,CHITTOOR,"ANDHRA PRADESH"
"RBL Bank Limited",RATN0000119,470176501,KHURAI,"THE RATNAKAR BANK LTD,1ST FLOOR, RAI MARKET, SHRI SAI CENTER POINT,NEHROO WARD, STATION ROAD, KHURAI SAGAR,KHURAI - 470117",8109156059,SAGAR,SAGAR,"MADHYA PRADESH"
"RBL Bank Limited",RATN0000118,WAITING,MUNAVALLI,"THE RATNAKAR BANK LTD,PANCHLINGESHWAR CROSS, MAIN ROAD,MUNAVALLI,KARNATAKA - 591117",9481658492,MANOLI,BELGAUM,KARNATAKA
"RBL Bank Limited",RATN0000117,462176001,MANDIDEEP,"THE RATNAKAR BANK LTD,PLOT NO 1,GROUND FLOOR,SECTOR A,INDRA NAGAR,WARD NO 12,MANDIDEEP - 462046.",7869105253,RAISEN,RAISEN,"MADHYA PRADESH"
"RBL Bank Limited",RATN0000116,110176003,GURGAON,"THE RATNAKAR BANK LTD,ABW TOWER, AT IFFCO CHOWK,VILLAGE SUKHRAULI,NH-8, GURGAON,HARYANA - 122002",9899733770,GURGAON,GURGAON,HARYANA
"RBL Bank Limited",RATN0000115,110176005,SOHNA,"THE RATNAKAR BANK LTD,ADITYA BUILDING, GROUND FLOOR,WARD NO -5, DELHI  ALWAR ROAD,OPP BUS STAND, DIST GURGAON,SOHNA ┬û 122103.",9871115450,SOHNA,GURGAON,HARYANA
"RBL Bank Limited",RATN0000114,110176004,NOIDA,"THE RATNAKAR BANK LTD,P-7, SECTOR-18,NOIDA,UTTAR PRADESH - 201301",9999359610,"GAUTAM BUDDHA NAGAR","GAUTAM BUDDHA NAGAR","UTTAR PRADESH"
"RBL Bank Limited",RATN0000113,600176002,CHENNAI,"THE RATNAKAR BANK LTD,HMH PLAZA, OLD DOOR NO. 105, NEW DOOR NO. 56, G N CHETTY ROAD, T NAGAR, CHENNAI - 600 017",9900576962,CHENNAI,CHENNAI,"TAMIL NADU"
"RBL Bank Limited",RATN0000112,500176002,HYDERABAD,"THE RATNAKAR BANK LTD,D NO, 6-3-865, GROUND FLOOR,MY HOME JUPALLY,OPP GREEN PARK,GREEN LANDS,AMEERPET,HYDERABAD - 500016",0,HYDERABAD,HYDERABAD,"ANDHRA PRADESH"
"RBL Bank Limited",RATN0000111,423176301,SHIRDI,"THE RATNAKAR BANK LTD,SECTOR 961,NAGAR MANMAD HIGHWAY, SHIRDI,TAL- RAHATA, DIST- AHAMEDNAGAR - 423109",9923866451,AHMADNAGAR,AHMADNAGAR,MAHARASHTRA
"RBL Bank Limited",RATN0000110,571176552,RAMNAGARA,"THE RATNAKAR BANK LTD,KATHA NO 169 / 1789 /1736 / & 170 / 1781 / 1737 NORTH LAYOUT 1ST STAGE, B M ROAD RAMNAGARAM - 562159",9899733770,RAMANAGARAM,"BANGALORE RURAL",KARNATAKA
"RBL Bank Limited",RATN0000109,414176001,AHMEDNAGAR,"THE RATNAKAR BANK LTD,MAHADEV FURNITURE HOUSE,NEAR AMBEJOGAI PATPEDHI,SAVEDI ROAD, AHMEDNAGAR - 414003",9823065600,AHMADNAGAR,AHMADNAGAR,MAHARASHTRA
"RBL Bank Limited",RATN0000108,395176002,SURAT,"THE RATNAKAR BANK LTD,GROUND FLOOR, TWIN TOWER,SHOWROOM 4,SAHARA DARWAJA,SURAT - 395002.",9825300735,SURAT,SURAT,GUJARAT
"RBL Bank Limited",RATN0000107,401176001,BOISAR,"THE RATNAKAR BANK LTD,BUILDING NO 2 -A AMEYA PARK,NAVAPUR ROAD,BOISAR-WEST - 401501",8692920004,THANE,THANE,MAHARASHTRA
"RBL Bank Limited",RATN0000106,301176051,"BHIWADI ( EX -HERO HONDA)","THE RATNAKAR BANK LTD,A4, BHAGAT SINGH COLONY,ALWAR BYPASS,BHIWADI,RAJASTHAN - 301019",9810979311,ALWAR,ALWAR,RAJASTHAN
"RBL Bank Limited",RATN0000105,301176050,"BHIWADI (SWAGAT HOTEL )","THE RATNAKAR BANK LTD,THE SWAGAT PALACE ,B 294 / 295 A,RIICO CHOWK MAIN ROAD BHIWADI,BHIWADI. DIST- ALWAR,RAJASTHAN - 301019",9810979311,ALWAR,ALWAR,RAJASTHAN
"RBL Bank Limited",RATN0000104,431176002,AURANGABAD,"THE RATNAKAR BANK LTD,AG TOWER, PLOT NO.303,N-3, CIDCO, AURANGABAD - 431001",0,AURANGABAD,AURANGABAD,MAHARASHTRA
"RBL Bank Limited",RATN0000103,400176021,BADLAPUR,"THE RATNAKAR BANK LTD,NISARGAPRATIKSHA APARTMENT,OLD KATRAP ROAD,BADLAPUR (EAST),TALUKA AMBERNATH , DISTRICT THANE,MAHARASHTRA,PINCODE ┬û 421503",2243020600,"GREATER BOMBAY","GREATER BOMBAY",MAHARASHTRA
"RBL Bank Limited",RATN0000102,400176022,"VASHI, NAVI MUMBAI","THE RATNAKAR BANK LTD,ARTI CHS LTD,PLOT 29, SECTOR 2,VASHI, NAVI MUMBAI,MAHARASHTRA - 400 705",2243020600,"GREATER BOMBAY","GREATER BOMBAY",MAHARASHTRA
"RBL Bank Limited",RATN0000101,560176004,"DOD BALLARPUR","THE RATNAKAR BANK LTD,KHATA NO 1762 / 66,WARD NO 4,D CROSS MAIN ROAD,DOD BALLARPUR,KARNATAKA - 561203",9900576962,DODDABALLAPUR,"BANGALORE RURAL",KARNATAKA
"RBL Bank Limited",RATN0000100,110176002,"DLF CAPITOL-NEW DELHI","THE RATNAKAR BANK LTD,UNIT NO. 14 & 15, GROUND FLOOR,DLF CAPITOL POINT,BABA KHARAG SINGH MARG,NEW DELHI ┬û 110 001",9810211851,DELHI,DELHI,DELHI
"RBL Bank Limited",RATN00000FT,NA,"FORT MUMBAI","7,RAHIMTULLAH HOUSE, HOMJI STREET, HORNIMAN CIRCLE, FORT MUMBAI 400001",0,"FORT MUMBAI","GREATER BOMBAY",MAHARASHTRA
"RBL Bank Limited",RATN0000099,WAITING,KURUNDWAD,"THE RATNAKAR BANK LTD,123, B, BHAU SMRUTI, NEAR PLAY GROUD,KURUNDWAD - 416 106,TAL SHIROL, DIST KOLHAPUR",2322244159,KOLHAPUR,KOLHAPUR,MAHARASHTRA
"RBL Bank Limited",RATN0000098,WAITING,OMERGA,"THE RATNAKAR BANK LTD,OMERGA BRANCH,MANE HOSPITAL BUILDING NO 20/21,WARD NO 13, MAIN ROAD,OMERGA 413 606 ,DIST - OSMANABAD",2475250080,OSMANABAD,OSMANABAD,MAHARASHTRA
"RBL Bank Limited",RATN0000097,400176020,"R MALL THANE","THE RATNAKAR BANK LTD,UNITED MOTORS PVT LTD;GHODBANDAR ROAD,NEAR RUNWAL ESTATE, THANE (W) ┬û 400 601",2225853975,THANE,THANE,MAHARASHTRA
"RBL Bank Limited",RATN0000096,416176009,KAGAL,"THE RATNAKAR BANK LTD,AMEYA COMPLEX,C S NO.3611, 3612, 3613BRAHMAPURI, KAGAL, DIST ┬û KOLHAPUR ┬û 416 126",2312653720,KOLHAPUR,KOLHAPUR,MAHARASHTRA
"RBL Bank Limited",RATN0000095,416176008,"SANE GURUJI VASAHAT KOLHAPUR","THE RATNAKAR BANK LTD,PLOT NO.09,┬á R.S.NO.1012,A WARD, SADASHIV JADHAV HOUSING SOCIETY, RADHANAGRI ROAD, KOLHAPUR ┬û 416 012",2312653720,KOLHAPUR,KOLHAPUR,MAHARASHTRA
"RBL Bank Limited",RATN0000094,416176521,MALKAPUR,"THE RATNAKAR BANK LTD,MORE BUILDING, CTS NO.215,B WARD, MALKAPUR, TAL ┬û SHAHUWADIDIST ┬û KOLHAPUR",2312653720,KOLHAPUR,KOLHAPUR,MAHARASHTRA
"RBL Bank Limited",RATN0000093,400176018,AIROLI,"THE RATNAKAR BANK LTD. UNIT NO. 1 TO 6, GR FLOOR, RIPPLEZ MALL, PLOT NO 6A, SECTOR NO 7, AIROLI, NAVI MUMBAI - 400701.",0,THANE,THANE,MAHARASHTRA
"RBL Bank Limited",RATN0000092,411176008,CHAKAN,"THE RATNAKAR BANK LTD,GROUND FLOOR , SHOP NO.5 & 6,GAT NO.461, TUKARAM MARKET,MEGA CENTRE , PUNE ┬û NASIK ROAD,MEDANKARWADI ┬û 410 501",0,PUNE,PUNE,MAHARASHTRA
"RBL Bank Limited",RATN0000091,560176003,KORAMANGALA,"THE RATNAKAR BANK LTD. 631 3RD BLOCK 3RD CROSS, 100 FEET ROAD, NR. BDA COMPLEX, KORAMANGALA, BANGALORE - 560034.",0,BANGALORE,"BANGALORE URBAN",KARNATAKA
"RBL Bank Limited",RATN0000090,400176019,DOMBIVALI(EAST),"THE RATNAKAR BANK LTD. 1ST FLOOR, JAYKUL ARCADE, MANPADA ROAD, NEAR GAONDEVI MANDIR, DOMBIVALI (E) - 421201.",0,THANE,THANE,MAHARASHTRA
"RBL Bank Limited",RATN0000089,400176017,"THANE (WEST) RAM MARUTI","THE RATNAKAR BANK LTD. GR FLOOR, SHANKESHWAR ARCADE, RAM GANESH GADKARI PATH, RAM MARUTI CROSS ROAD, THANE(W) - 400602.",0,THANE,THANE,MAHARASHTRA
"RBL Bank Limited",RATN0000088,400176016,PAREL,"THE RATNAKAR BANK LTD,TOWER 2, 3RD FLOOR, ONE INDIABULLS CENTRE,SENAPATI BAPAT MARG,LOWER PAREL,MUMBAI ┬û 400 013.",0,"GREATER BOMBAY","GREATER BOMBAY",MAHARASHTRA
"RBL Bank Limited",RATN0000087,400176015,VIRAR(EAST),"THE RATNAKAR BANK LTD,SUMANT CHHAYA, PURANDAREWADI, NEAR RAILWAY STATION & TALATHI OFFICE,┬áVIRAR (EAST) ┬û 410 303. DIST. THANE.",0,THANE,THANE,MAHARASHTRA
"RBL Bank Limited",RATN0000086,411176006,"BANER PUNE","THE RATNAKAR BANK LTD, ┬æC┬Æ WING, ANMOL PRIDE, C.T.S. NO.270,BANER, PUNE ┬û 411 045.",0,PUNE,PUNE,MAHARASHTRA
"RBL Bank Limited",RATN0000085,411176007,"SINGHGAD ROAD PUNE","THE RATNAKAR BANK LTD,SHOP NO.1 & 2, GROUND FLOOR, MOHITE PARADISE, WING NO.┬ÆC┬Æ,CTS NO.16/3, 16/4, ANAND NAGAR, SINHGAD ROAD,PUNE ┬û 411 051.┬á",0,PUNE,PUNE,MAHARASHTRA
"RBL Bank Limited",RATN0000084,400176013,KALYAN,"THE RATNAKAR BANK LTD,BINDU TOWER, SHOP NO.2,3, 13 & 14,C.T.S. NO.2989, OPP. K.D.M.C. VEG. MARKET,SANTOSHI MATA ROAD, KALYAN (W) ┬û 421 301.",0,THANE,THANE,MAHARASHTRA
"RBL Bank Limited",RATN0000083,400176014,NALASOPARA,"THE RATNAKAR BANK LTD,BUILDING NO.1, SHREE RAM SANKUL,SHOP NO.1,2,3,4, ACHOLE ROAD,OPP. AAKANSHA COMMERCIAL COMPLEX, NALASOPARA (E).┬áDIST. THANE ┬û 401 209.",0,THANE,THANE,MAHARASHTRA
"RBL Bank Limited",RATN0000082,403176002,PANAJIM,"THE RATNAKAR BANK LTD,SHOP NO.G-10 & 11,NIZAMAR CENTRE,GROUND FLOOR, DR. ATMARAM ROAD,PANAJI, GOA - 403 001.",0,PANAJI,"NORTH GOA",GOA
"RBL Bank Limited",RATN0000081,400176012,DOMBIVALI(WEST),"THE RATNAKAR BANK LTD,┬æATIM TARA┬Æ, GROUND FLOOR,SUBHASH ROAD, VISHNUNAGAR,DOMBIVALI (W) ┬û 421 202.",0,THANE,THANE,MAHARASHTRA
"RBL Bank Limited",RATN0000080,396176111,SILVASSA(U.T.),"THE RATNAKAR BANK LTD,UNIT NO.1,2 & 7, ROSHAN AVENUE,SILVASSA-VAPI ROAD, SILVASSA ┬û 396 230.",0,SILVASA,"DADRA&NAGAR HAVELI","DADRA AND NAGAR HAVELI"
"RBL Bank Limited",RATN0000079,415176352,KARAD,"THE RATNAKAR BANK LTD,JANAKI PLAZA,PLOT NO.472/A & 478/2A,KOLHAPUR NAKA, SHANIWAR PETH,KARAD ┬û 415 110.",0,SATARA,SATARA,MAHARASHTRA
"RBL Bank Limited",RATN0000078,400176011,KHARGHAR,"THE RATNAKAR BANK LTD,SURYA KOTI BUILDING, SURYA CO-OP. HOUSING SOCIETY LTD. PLOT NO.16, SECTOR 19, KHARGHAR, NAVI MUMBAI - 410 210. TAL.PANVEL, DIST. RAIGAD.",0,RAIGAD,RAIGAD,MAHARASHTRA
"RBL Bank Limited",RATN0000077,403176004,MAPUSA,"THE RATNAKAR BANK LTD,SHOP NO.S1, MAPUSA TRADE CENTRE,MARODA, MAPUSA,GOA-403 507.",0,MAPUSA,"NORTH GOA",GOA
"RBL Bank Limited",RATN0000076,411176005,KALYANINAGAR,"THE RATNAKAR BANK LTD,SHOP NO.126-127, FORT LIZA COMPLEX,CENTRAL AVENUE ROAD, KALYANINGAR, PUNE ┬û 411 006.",0,PUNE,PUNE,MAHARASHTRA
"RBL Bank Limited",RATN0000075,403176005,PONDA,"THE RATNAKAR BANK LTD,DR. DADA VAIDYA CHOWK, MAIN ROAD,PONDA (GOA)-403 401.",0,PONDA,"NORTH GOA",GOA
"RBL Bank Limited",RATN0000074,416176301,TASGAON,"THE RATNAKAR BANK LTD,1565-A, SIDDHESHWAR CHOWK, A/P : TASGAON. DIST. SANGLI.",0,SANGLI,SANGLI,MAHARASHTRA
"RBL Bank Limited",RATN0000073,400176010,NERUL,"THE RATNAKAR BANK LTD,MILLENNIUM PARK, PLOT NO.17,SECTOR 25, NERUL, NAVI MUMBAI.",0,THANE,THANE,MAHARASHTRA
"RBL Bank Limited",RATN0000072,577176002,DAVANGERE,"THE RATNAKAR BANK LTD,718/1, SUBHASH ROAD,MANDI PETH,DAVANGERE ┬û 577 001.",0,DAVANGERE,DAVANGERE,KARNATAKA
"RBL Bank Limited",RATN0000071,110176001,"NEW DELHI","THE RATNAKAR BANK LTD,17 A/53, GROUND FLOOR,W.E.A. KAROL BAGH,(OPP. JESSARAM HOSPITAL),GURADWAR ROAD,NEW DELHI ┬û 110 005.",0,DELHI,DELHI,DELHI
"RBL Bank Limited",RATN0000070,400176009,"MUMBAI - FORT","THE RATNAKAR BANK LTD,UNIT NO.3 & 4, GROUND FLOOR,RAHIMTULLAH HOUSE,HOMJI STREET, HORNIMAN CIRCLE, FORT,MUMBAI - 400 001.",0,"GREATER BOMBAY","GREATER BOMBAY",MAHARASHTRA
"RBL Bank Limited",RATN0000069,422176002,NASHIK,"THE RATNAKAR BANK LTD,SHOP NO.1A, GROUND FLOOR,RIDDHI PARK,SHARANPUR ROAD,NASIK ┬û 422 002.",0,NASIK,NASIK,MAHARASHTRA
"RBL Bank Limited",RATN0000068,400176007,"VILE PARLE","THE RATNAKAR BANK LTD,NO.006, GROUND FLOOR,GALAXY ARCADE, 10 M.G. ROAD,VILE PARLE (EAST), MUMBAI ┬û 400 057.",0,"GREATER BOMBAY","GREATER BOMBAY",MAHARASHTRA
"RBL Bank Limited",RATN0000067,400176008,PANVEL,"THE RATNAKAR BANK LTD,BLOCK NO.102 & 103, FIRST FLOOR,INDRAPRASTHA BUILDING, TAPAL NAKA,URAN ROAD,PANVEL┬á - 410 206.DIST. RAIGAD",0,RAIGAD,RAIGAD,MAHARASHTRA
"RBL Bank Limited",RATN0000066,400176006,VASAI,"THE RATNAKAR BANK LTD,NIKUNJ SIGNATURE,AMBADI ROAD,VASAI (WEST) - 401202.",0,THANE,THANE,MAHARASHTRA
"RBL Bank Limited",RATN0000065,380176002,AHMEDABAD,"THE RATNAKAR BANK LTD,C/G - 8,9,10,13 & 14,MALLINATH COMPLEX,OPP. SUJATA FLATS,SHAHIBAUG,AHMEDABAD - 380004.",0,AHMEDABAD,AHMADABAD,GUJARAT
"RBL Bank Limited",RATN0000064,591176506,HARUGERI,"THE RATNAKAR BANK LTD,SADALGE BUILDING, ATHANI ROAD, HARUGERI, TALUKA RAIBAG, DIST BELGAUM - 591220",0,HARUGERI,BELGAUM,KARNATAKA
"RBL Bank Limited",RATN0000063,413176452,AKLUJ,"THE RATNAKAR BANK LTD,R.S. NO.2258/4A,MAHAVEER PATH,AKLUJ ┬û 413 101.TAL. ┬û MALSHIRAS, DIST. SOLAPUR",0,SOLAPUR,SOLAPUR,MAHARASHTRA
"RBL Bank Limited",RATN0000062,400176005,BORIWALI,"THE RATNAKAR BANK LTD,SHOP NO.2-6, SHROFF ARCADE, SODAWALA LANE, NEAR PRABODHAN THACKREY NATYAGRAHA,BORIVALI (W),MUMBAI ┬û 400 092.",0,"GREATER BOMBAY","GREATER BOMBAY",MAHARASHTRA
"RBL Bank Limited",RATN0000061,403176003,MARGAO,"THE RATNAKAR BANK LTD,VASANT ARCADE, BEHIND POLICE STATION, COMBA, MARGOA-403601.",0,MARGAO,"SOUTH GOA",GOA
"RBL Bank Limited",RATN0000060,413176002,SOLAPUR,"THE RATNAKAR BANK LTD,125, A, MURARAJI PETH,SOLAPUR ┬û 413 001.",0,SOLAPUR,SOLAPUR,MAHARASHTRA
"RBL Bank Limited",RATN0000059,413176101,BARAMATI,"THE RATNAKAR BANK LTD,SHANTILAL SHAHA (PANDARKAR) BUILDING,MAHAVIR PATH, BARAMATI ┬û 413 102.",0,PUNE,PUNE,MAHARASHTRA
"RBL Bank Limited",RATN0000058,400176004,"VARTAKNAGAR THANE","THE RATNAKAR BANK LTD,LAXMI MARKET, POKHRAN ROAD NO.1, NEAR VARTAK NAGAR, THANE (W)",0,THANE,THANE,MAHARASHTRA
"RBL Bank Limited",RATN0000057,560176002,BANGALORE,"THE RATNAKAR BANK LTD,197, 6TH CROSS, GANDHINAGAR, BANGALORE ┬û 560 009.",0,BANGALORE,"BANGALORE URBAN",KARNATAKA
"RBL Bank Limited",RATN0000056,580176302,DHARWAD,"THE RATNAKAR BANK LTD,┬æKABADI MANSION┬Æ, KOSMOS CLUB ROAD,BEHIND COURT,DHARWAD ┬û 580 001.",0,HUBLI-DHARWAD,DHARWAD,KARNATAKA
"RBL Bank Limited",RATN0000055,416176511,VISAPUR,"THE RATNAKAR BANK LTD,A/P┬á :┬á VISAPUR ┬û 416 314.TALUKA:┬á TASGAON, DIST.┬á :┬á SANGLI",0,SANGLI,SANGLI,MAHARASHTRA
"RBL Bank Limited",RATN0000054,416176525,BHADVAN,"THE RATNAKAR BANK LTD,A/P┬á :┬á BHADVAN,TALUKA :┬á AJARA,DIST.┬á :┬á KOLHAPUR ┬û 416 505.",0,KOLHAPUR,KOLHAPUR,MAHARASHTRA
"RBL Bank Limited",RATN0000053,400176003,KANDIWALI,"THE RATNAKAR BANK LTD,SHRI BUILDING, 295, SHANTILAL MODI ROAD, OPP. SINDHI COLONY,NEAR MAYUR TALKIES,IRANI WADI,KANDIWALI (W), MUMBAI ┬û 400 067.",0,"GREATER BOMBAY","GREATER BOMBAY",MAHARASHTRA
"RBL Bank Limited",RATN0000052,411176004,"CHINCHWAD PUNE","THE RATNAKAR BANK LTD,199/A ASHIRWAD BUILDING ,OLD PUNE MUMBAI ROAD,CHINCHWAD - 411019",0,PUNE,PUNE,MAHARASHTRA
"RBL Bank Limited",RATN0000051,416176524,MADILAGE,"THE RATNAKAR BANK LTD,A/P┬á :┬á MADILAGE-416 505.TALUKA┬á :┬á AJARA, DIST. : KOLHAPUR",0,KOLHAPUR,KOLHAPUR,MAHARASHTRA
"RBL Bank Limited",RATN0000050,411176003,"SWARGATE -PUNE","THE RATNAKAR BANK LTD,NO-8,GROUND FLOOR,VEGA CENTER,SHANKARSETH ROAD,SWARGATE,PUNE-411042",0,PUNE,PUNE,MAHARASHTRA
"RBL Bank Limited",RATN0000049,416176520,BORPADALE,"THE RATNAKAR BANK LTD,A/P: BORPADALE.TALUKA :┬á PANHALA, DIST.┬á :┬á KOLHAPUR",0,KOLHAPUR,KOLHAPUR,MAHARASHTRA
"RBL Bank Limited",RATN0000048,580176002,HUBLI,"THE RATNAKAR BANK LTD,C.T.S. NO.56/57, WARD NO.2,SAMARTH CENTRE,NEW MYDAR ONI,HUBLI ┬û 580 028 (K.S.)",0,HUBLI-DHARWAD,DHARWAD,KARNATAKA
"RBL Bank Limited",RATN0000047,591176302,NIPANI,"THE RATNAKAR BANK LTD,228, PADMARAJ BLDG, SAKHARWADI,PUNE-BANGALORE ROAD,NIPANI ┬û 591 237.DIST. -┬á BELGAUM (KARNATAKA)",0,NIPANI,BELGAUM,KARNATAKA
"RBL Bank Limited",RATN0000046,591176505,"ANKALI (SHITOL)","THE RATNAKAR BANK LTD,A/P┬á :┬á ANKALI ┬û 591 213.TAL.┬á CHIKODI, DIST.┬á :┬á BELGAUM",8338254275,ANKALI,BELGAUM,KARNATAKA
"RBL Bank Limited",RATN0000045,416176006,UNCHAGAON,"THE RATNAKAR BANK LTD.,SEEMA PRIDE SHOP NO.101 & 102,A/P-UCHAGAON,TAL-KARVEER,DIST-KOLHAPUR-416005",2312605682,KOLHAPUR,KOLHAPUR,MAHARASHTRA
"RBL Bank Limited",RATN0000044,591176502,GOKAK,"THE RATNAKAR BANK LTD,3195/B/2B NILAKANTH NILAYA, OPPOSITE COURT, HOSPET GALLI, GOKAK, DIST BELGAUM┬û 591307",0,GOKAK,BELGAUM,KARNATAKA
"RBL Bank Limited",RATN0000043,416176153,"GAON BHAG SANGLI","THE RATNAKAR BANK LTD,MEHENDALE ┬û KULKARNI BHAVAN,GAONBHAG,SANGLI ┬û 416416.",0,SANGLI,SANGLI,MAHARASHTRA
"RBL Bank Limited",RATN0000042,416176510,HINGANGAON,"THE RATNAKAR BANK LTD,53, GRAMPANCHAYAT BUILDING,A/P┬á :┬á HINGANGAON,TALUKA : KAVATHE-MAHANKAL,DIST.┬á :┬á SANGLI┬á -┬á 416 405",2341226058,SANGLI,SANGLI,MAHARASHTRA
"RBL Bank Limited",RATN0000041,416176509,BHOSE,"THE RATNAKAR BANK LTD,A/P┬á :┬á BHOSE,TALUKA┬á :┬á MIRAJ, DIST.┬á :┬á SANGLI PIN ┬û 416 422",2332257222,SANGLI,SANGLI,MAHARASHTRA
"RBL Bank Limited",RATN0000040,WAITING,KABNOOR,"THE RATNAKAR BANK LTD,GRAMPANCHAYAT BUILDING, KABNUR,TALUKA : HATKANANGALE,DIST.┬á :┬á KOLHAPUR,PIN. ┬û 416 129",0,KOLHAPUR,KOLHAPUR,MAHARASHTRA
"RBL Bank Limited",RATN0000039,591176504,"BELLAD BAGEWADI","THE RATNAKAR BANK LTD,395, A/P :┬á BELLAD-BAGEWADI.PIN CODE┬á 591 305,TAL. : HUKERI,┬á DIST.┬á :┬á BELGAUM.",8333257029,"BELLAD BAGEWADI",BELGAUM,KARNATAKA
"RBL Bank Limited",RATN0000038,416176508,"ANKALI SANGLI","THE RATNAKAR BANK LTD,178, A/P : ANKALI.TALUKA : MIRAJ, DIST.┬á :┬á SANGLI",2332422128,SANGLI,SANGLI,MAHARASHTRA
"RBL Bank Limited",RATN0000037,416176507,DUDHAGAON,"THE RATNAKAR BANK LTD,395/2,A/P┬á :┬á DUDHAGAON- 416 315.TALUKA┬á :┬á MIRAJ, DIST.┬á :┬á SANGLI",2332486130,SANGLI,SANGLI,MAHARASHTRA
"RBL Bank Limited",RATN0000036,415176502,NERLE,"THE RATNAKAR BANK LTD,A/P : NERLE- 415 406 TAL . : WALWA, DIST.┬á : SANGLI",2342278560,SANGLI,SANGLI,MAHARASHTRA
"RBL Bank Limited",RATN0000035,415176501,"AITAWADE BDRUK","THE RATNAKAR BANK LTD,529, SOCIETY BLDG. NO.2,A/P : AITAWADE BUDRUK.TAL. : WALWA, DIST. : SANGLI",2342253579,SANGLI,SANGLI,MAHARASHTRA
"RBL Bank Limited",RATN0000034,591176503,SHIRGUPPI,"THE RATNAKAR BANK LTD,379, A/P : SHIRGUPPI,TAL.┬á :┬á ATHANI,DIST. :┬á BELGAUM ┬û 591 242",8339265426,SHIRGUPPI,BELGAUM,KARNATAKA
"RBL Bank Limited",RATN0000033,591176507,SHEDBAL,"THE RATNAKAR BANK LTD,BAZAR PETH, SHEDBAL,TAL. : ATHANI,DIST. BELGAUM ┬û 591 315",8339264612,SHEDBAL,BELGAUM,KARNATAKA
"RBL Bank Limited",RATN0000032,416176506,BURLI,"THE RATNAKAR BANK LTD,A/P : BURLI ┬û 416 318. TAL. : PALUS, DIST. SANGLI",2346220141,SANGLI,SANGLI,MAHARASHTRA
"RBL Bank Limited",RATN0000031,411176002,"ICC TRADE CENTRE","THE RATNAKAR BANK LTD, ICC TRADE CENTRE, SHOP NO.5, GROUND FLOOR, SENAPATI BAPAT MARG, PUNE - 411 016",0,PUNE,PUNE,MAHARASHTRA
"RBL Bank Limited",RATN0000030,416176522,AKKIWAT,"THE RATNAKAR BANK LTD,C/O MR. DHANPAL J. KALLANAVAR,A/P  AKKIWAT,TAL.┬á SHIROL, DIST.┬á KOLHAPUR,PIN.┬á -┬á 416 108",2322238132,KOLHAPUR,KOLHAPUR,MAHARASHTRA
"RBL Bank Limited",RATN0000029,416176519,GHOTAWADE,"THE RATNAKAR BANK LTD,BAPU DONGALE BUILDING, MAIN ROAD,AT GHIOTAWADE,POST. KAULAV.TAL. RADHANAGRI, DIST. KOLHAPUR,GHOTAWADE - 416211",0,KOLHAPUR,KOLHAPUR,MAHARASHTRA
"RBL Bank Limited",RATN0000028,416176517,KHUPIRE,"THE RATNAKAR BANK LTD.,C/O. SHRI BALBHEEM VIVIDH KARYAKARI SAHAKARI VIKAS SEVA SANSTHA, KHUPIRE ,TAL : KARVEER,DIST. : KOLHAPUR ┬û 416205.",2312420270,KOLHAPUR,KOLHAPUR,MAHARASHTRA
"RBL Bank Limited",RATN0000027,591176501,SHAMANEWADI,"THE RATNAKAR BANK LTD,GRAMSEVA SAHAKARI SANGH BLDG┬á┬á┬á┬á SHAMNEWADI ┬û 591 505,TAL.┬á CHIKODI, DIST.:┬á BELGAUM.",8338662046,SHAMANEWADI,BELGAUM,KARNATAKA
"RBL Bank Limited",RATN0000026,416176515,RANGOLI,"THE RATNAKAR BANK LTD,A/P┬á :┬á RANGOLI,TALUKA : HATKANANGALE,DIST.┬á :┬á KOLHAPUR",2302495012,KOLHAPUR,KOLHAPUR,MAHARASHTRA
"RBL Bank Limited",RATN0000025,415176101,ISLAMPUR,"THE RATNAKAR BANK LTD,H. NO.2127/28, DR.PARDESHI BLDG.ISLAMPUR ┬û 415 409 TALUKA : WALVA, DIST.┬á :┬á SANGLI",2342222163,SANGLI,SANGLI,MAHARASHTRA
"RBL Bank Limited",RATN0000024,590176002,BELGAUM,"THE RATNAKAR BANK LTD,GROUND FLOOR,BHARATI,CTS NO 3939/1,CLUB ROAD,BELGAUM - 590001",0,BELGAUM,BELGAUM,KARNATAKA
"RBL Bank Limited",RATN0000023,416176523,ARJUNWAD,"THE RATNAKAR BANK LTD,A/P : ARJUNWAD ┬û 416 120.TALUKA┬á : SHIROL, DIST.┬á : KOLHAPUR.",2322232029,KOLHAPUR,KOLHAPUR,MAHARASHTRA
"RBL Bank Limited",RATN0000022,416176505,"INAM DHAMANI","THE RATNAKAR BANK LTD,A/P┬á : INAM DHAMANI,TAL.┬á MIRAJ, DIST.┬á :┬á SANGLI┬á┬á 416 416",2332302253,SANGLI,SANGLI,MAHARASHTRA
"RBL Bank Limited",RATN0000021,416176518,HALADI,"THE RATNAKAR BANK LTD,A/P :┬á HALADI ┬û 416 001.TALUKA : KARVEER,DIST.┬á :┬á KOLHAPUR",2312416640,KOLHAPUR,KOLHAPUR,MAHARASHTRA
"RBL Bank Limited",RATN0000020,416176005,"RAJARAMPURI KOLHAPUR","THE RATNAKAR BANK LTD,VITTHAL COMPLEX,9TH LANE, RAJARAMPURI, KOLHAPUR ┬û 416 008.",0,KOLHAPUR,KOLHAPUR,MAHARASHTRA
"RBL Bank Limited",RATN0000019,416176007,"GANDHINAGAR KOLHAPUR","THE RATNAKAR BANK LTD,MAIN ROAD, GANDHINAGAR.TALUKA:┬á KARVEER.DIST.┬á :┬á KOLHAPUR - 416 119.",2312610218,KOLHAPUR,KOLHAPUR,MAHARASHTRA
"RBL Bank Limited",RATN0000018,416176516,VASAGADE,"THE RATNAKAR BANK LTD,A/P┬á :VASGADE,TALUKA : KARVEER,DIST.┬á :┬á KOLHAPUR",2312676146,KOLHAPUR,KOLHAPUR,MAHARASHTRA
"RBL Bank Limited",RATN0000017,416176514,INGALI,"THE RATNAKAR BANK LTD,446, A/P : INGALI ┬û 416 202.TALUKA┬á :┬á HATKANANGALE,DIST.┬á :┬á KOLHAPUR",2302359079,KOLHAPUR,KOLHAPUR,MAHARASHTRA
"RBL Bank Limited",RATN0000016,416176504,SAMDOLI,"THE RATNAKAR BANK LTD,A/P┬á : SAMDOLI ┬û 416 427.TALUKA┬á :┬á MIRAJ. DIST.┬á :┬á SANGLI.",2332482435,SANGLI,SANGLI,MAHARASHTRA
"RBL Bank Limited",RATN0000015,416176503,NANDRE,"THE RATNAKAR BANK LTD,249, E WARD, SOCIETY BUILDING, A/P: NANDRE ┬û 416 423.TALUKA┬á : MIRAJ, DIST.┬á :┬á SANGLI.",2332473123,SANGLI,SANGLI,MAHARASHTRA
"RBL Bank Limited",RATN0000014,416176502,BHILWADI,"THE RATNAKAR BANK LTD,DAKSHIN BHAG BHILWADI VIKAS SOCIETY BUILDING,BHILWADI ┬û 416 303. TALUKA: PALUS, ┬áDIST .: SANGLI.",0,SANGLI,SANGLI,MAHARASHTRA
"RBL Bank Limited",RATN0000013,400176002,"GIRGAUM (KALBADEVI)","THE RATNAKAR BANK LTD.,JEWEL WORLD BUILDING,GROUND FLOOR,175,KALBADEVI ROAD,CORNER OF SHAIK MEMON STREET,MUMBAI - 400002.",0,"GREATER BOMBAY","GREATER BOMBAY",MAHARASHTRA
"RBL Bank Limited",RATN0000012,416176501,MHAISAL,"THE RATNAKAR BANK LTD,NEAR NAGOBA KATTA, SHANTI SAGAR MARG, AT POST MHAISAL, TALUKA MIRAJ, DIST SANGLI ┬û 416409",0,SANGLI,SANGLI,MAHARASHTRA
"RBL Bank Limited",RATN0000011,416176152,"MARKET YARD SANGLI","THE RATNAKAR BANK LTD,PLOT NO.88, BANK BUILDING,MARKET YARD,SANGLI 416 416.",0,SANGLI,SANGLI,MAHARASHTRA
"RBL Bank Limited",RATN0000010,416176004,"TARABAI PARK KOLHAPUR","THE RATNAKAR BANK LTD,SHOP NO.6,7& 8,SIDHIVINAYAK APPARTMAENT, NEAR VIJAYRAJ HOTEL,TARABAI PARK,KOLHAPUR-416003",0,KOLHAPUR,KOLHAPUR,MAHARASHTRA
"RBL Bank Limited",RATN0000009,416176201,ICHALKARANJI,"THE RATNAKAR BANK LTD,7356, MAIN ROAD,ICHALKARANJI -TAL. HATKANANGALE, DIST .KOLHAPUR.416 115",0,KOLHAPUR,KOLHAPUR,MAHARASHTRA
"RBL Bank Limited",RATN0000008,416176513,RUKADI,"THE RATNAKAR BANK LTD,MAIN ROAD A/P- RUKADI.TAL.:HATKANGLE, DIST.KOLHAPUR-416115",0,KOLHAPUR,KOLHAPUR,MAHARASHTRA
"RBL Bank Limited",RATN0000007,416176512,HUPARI,"THE RATNAKAR BANK LTD,1670/1 OPP. HUTATMA SMARAK,MAHAVEER NAGAR,MAIN ROAD HUPARI,KOLHAPUR - 416203",0,KOLHAPUR,KOLHAPUR,MAHARASHTRA
"RBL Bank Limited",RATN0000006,416176010,PETHVADGAON,"THE RATNAKAR BANK LTD,R. S. NO.126,BAVDEKAR COMPLEX,NEAR BUS STAND, PETH VADAGAON,TAL. : HATKANGALE,KOLHAPUR - 416112",0,KOLHAPUR,KOLHAPUR,MAHARASHTRA
"RBL Bank Limited",RATN0000005,416176155,JAYSINGPUR,"THE RATNAKAR BANK LTD,A.B.PATIL COMPLEX,SUBHASH ROAD, 9TH LANE, JAYSINGPUR-416101.",0,KOLHAPUR,KOLHAPUR,MAHARASHTRA
"RBL Bank Limited",RATN0000004,416176154,MIRAJ,"THE RATNAKAR BANK LTD,HIGH SCHOOL ROAD,JAWAHAR CHOWK, SHIVRAJ COMPLEX,MIRAJ - 416410.",0,SANGLI,SANGLI,MAHARASHTRA
"RBL Bank Limited",RATN0000003,416176151,"SANGLI MAIN","THE RATNAKAR BANK LTD,GROUND FLOOR C.S NO 1044,SUKH SHANTI HEIGHTS, COLLEGE CORNER,AMRAI ROAD, NORTH SHIVAJI NAGAR,SANGLI - 416416",0,SANGLI,SANGLI,MAHARASHTRA
"RBL Bank Limited",RATN0000002,416176003,"LAXMIPURI KOLHAPUR","THE RATNAKAR BANK LTD,LAXMI ROAD,NEAR KOLHAPUR MUNICIPAL CORPORATION, LAXMIPURI, KOLHAPUR-416002.",0,KOLHAPUR,KOLHAPUR,MAHARASHTRA
"RBL Bank Limited",RATN0000001,416176002,"SHAHUPURI KOLHAPUR","THE RATNAKAR BANK LTD,1 ST LANE, SHAHUPURI, KOLHAPUR ┬û 416 001.",0,KOLHAPUR,KOLHAPUR,MAHARASHTRA
