BANK,IFSC,MICR,BRANCH,ADDRESS,CONTACT,CITY,DISTRICT,STATE
"EQUITAS SMALL FINANCE BANK LIMITED",ESFB0020011,110756016,"CHANDNI CHOWK","NO.241-242, & 275-276,CHANDNI CHOWK.DELHI 110 006",30898015,"NORTH DELHI","NORTH DELHI",DELHI
"EQUITAS SMALL FINANCE BANK LIMITED",ESFB0020010,110756017,"PATEL NAGAR","42/9,WEST PATEL NAGAR,DELHI 110008",30898015,"WEST DELHI","WEST DELHI",DELHI
"EQUITAS SMALL FINANCE BANK LIMITED",ESFB0020009,110756015,"MALVIYA NAGAR","C- 10, Shivalik, Malviya Nagar, New Delhi- 110017",30898015,"SOUTH DELHI","SOUTH DELHI",DELHI
"EQUITAS SMALL FINANCE BANK LIMITED",ESFB0020007,110756009,KALKAJI,"3 LSC,GF,G1 TO G6,PLOT NO -3,LOCAL SHOPING CENTRE,KALKAJI -NEW DELHI 110019",30898017,"SOUTH EAST DELHI","SOUTH EAST DELHI",DELHI
"EQUITAS SMALL FINANCE BANK LIMITED",ESFB0020006,110756011,"RAJOURI GARDEN","-3A,RAJOURIGARDEN,NEWDELHI-0027",30898015,"WEST DELHI","WEST DELHI",DELHI
"EQUITAS SMALL FINANCE BANK LIMITED",ESFB0020005,110756010,"LAJPAT NAGAR","M - 19,LAJPAT NAGAR,PART - 2,NEW DELHI 110024",30898015,"SOUTH DELHI","SOUTH DELHI",DELHI
"EQUITAS SMALL FINANCE BANK LIMITED",ESFB0020004,110756004,SHAKURPAR,"O A-120,VIKAS MARG,SHAKURPAR DELHI",30898017,"EAST DELHI","EAST DELHI",DELHI
"EQUITAS SMALL FINANCE BANK LIMITED",ESFB0020003,110756007,"KAROL BAGH , DELHI","NO - 1331,NAIWALAD.B.GUPTA ROAD,KAROL BAGH,NEW DELHI -110005",30898015,"CENTRAL DELHI","CENTRAL DELHI",DELHI
"EQUITAS SMALL FINANCE BANK LIMITED",ESFB0020002,110756006,"CONNAUGHT PLACE, NEW DELHI","G1& G2,ANSAL BHAWAN 16,KASTURBA GANDHI MARG,OPP.BRITISH COUNCIL,NEW DELHI-110001",30898015,"NEW DELHI","NEW DELHI",DELHI
"EQUITAS SMALL FINANCE BANK LIMITED",ESFB0020001,110756002,ROHINI,"O-69/H-19,SEC-7,ROHINI,EWDELHI",30898015,"NORTH WEST DELHI","NORTH WEST DELHI",DELHI
"EQUITAS SMALL FINANCE BANK LIMITED",ESFB0017004,221756001,VARANASI,"RUDRA PRESTIGE,C-32/23& C-32/25,GROUND FLOOR,SIGRA,VARANASI 221 010",30898017,VARANASI,VARANASI,"UTTAR PRADESH"
"EQUITAS SMALL FINANCE BANK LIMITED",ESFB0017003,110756013,GHAZIABAD,"D-15,RS PLAZA,RDC,RAJ NAGAR,GHAZIABAD.UTTAR PRADESH",30898015,GAZIABAD,GAZIABAD,"UTTAR PRADESH"
"EQUITAS SMALL FINANCE BANK LIMITED",ESFB0017002,110756012,"NOIDA SECTOR -","B -11,SECTOR-18,NOIDA,UTTAR PRADESH - 201301",30898017,"GAUTAM BUDDHA NAGAR","GAUTAM BUDDHA NAGAR","UTTAR PRADESH"
"EQUITAS SMALL FINANCE BANK LIMITED",ESFB0017001,110756005,"GREATER NOIDA","SHOP NO.6,7,8,9,GROND FLOOR,SUNRISE TOWER,ALPHA COMMERCIAL BELT,ALPHA -I,GAUTAM BUDH NAGAR,GREATER NOIDA,UTTAR PRADESH",30898017,"GAUTAM BUDDHA NAGAR","GAUTAM BUDDHA NAGAR","UTTAR PRADESH"
"EQUITAS SMALL FINANCE BANK LIMITED",ESFB0016030,305756006,BEAWAR,"OLD MUNICIPAL NO.7/104,NEW NO.12,ROOPBANI CINEMA,STATION ROAD,NATIONAL HIGHWAY NO.08,TEHSIL -BEAWAR,DISTRICT AJMER,RAJASTHAN",30898015,AJMER,AJMER,RAJASTHAN
"EQUITAS SMALL FINANCE BANK LIMITED",ESFB0016029,313756002,UDAIPUR,"PLOT NO 12 RESIDENCY ROAD OPPOSITE P C JEWELLERS UDAIPUR RAJASTHAN 313001",30898015,UDAIPUR,UDAIPUR,RAJASTHAN
"EQUITAS SMALL FINANCE BANK LIMITED",ESFB0016028,301756002,ALWAR,"PLOT NO.2,KHASRA NO 16 85 AND 1690, ROAD NO.1,NEAR AMBEDKAR CIRCLE,NEAR GURUPRASAD COACHING,ALWAR CITY,ALWAR,RAJASTHAN -301001.",30898017,ALWAR,ALWAR,RAJASTHAN
"EQUITAS SMALL FINANCE BANK LIMITED",ESFB0016027,305756005,KEKRI,"NEAR MEER BAWARI,SHIV CHOWK,HOSPITAL ROAD,KEKRI,TEHSIL -KEKRI,DIST.AJMER,RAJASTHAN 305404",30898017,AJMER,AJMER,RAJASTHAN
"EQUITAS SMALL FINANCE BANK LIMITED",ESFB0016026,325756002,BARAN,"ARDAND PLAZA,NEAR DEENDAYAL PARK,WARD NO.12,BARAN,RAJASTHAN.325205",30898015,BARAN,BARAN,RAJASTHAN
"EQUITAS SMALL FINANCE BANK LIMITED",ESFB0016025,323756002,BUNDI,"VINAYAK COMPLEX,NEW DHAN MANDI ROAD,LANKA GATE,BUNDI,RAJASTHAN,",30898017,BUNDI,BUNDI,RAJASTHAN
"EQUITAS SMALL FINANCE BANK LIMITED",ESFB0016024,332756002,SIKAR,"S.R.V.MALL,WARD NO.16,DEVIPURA ROAD,NEAR CITY DISPENSARY NO.2,SIKAR,RAJASTHAN -332001",30898015,SIKAR,SIKAR,RAJASTHAN
"EQUITAS SMALL FINANCE BANK LIMITED",ESFB0016023,334756002,BIKANER,"SARDUL NAGAR,NEAR RAILWAY CROSSING,HOSPITAL ROAD,BIKANER,DIST.BIKANER,RAJASTHAN -334001",30898015,BIKANER,BIKANER,RAJASTHAN
"EQUITAS SMALL FINANCE BANK LIMITED",ESFB0016022,341756003,DIDWANA,"SHOP NO.5,6,7 SITUATED KHASRA NO.3004,KUCHAMAN ROAD,DIDWANA,TEHSIL -DIDWANA,DIST.NAGAUR,RAJASTHAN.341303",30898015,NAGAUR,NAGAUR,RAJASTHAN
"EQUITAS SMALL FINANCE BANK LIMITED",ESFB0016021,305756004,LOHAGAL,"PLOT NO.3,KHASRA NO.1459,GL FURNITURE,JANANA HOSPITAL ROAD,GRAM - LOHAGAL,DIST.AJMER,RAJASTHAN 305001",30898015,AJMER,AJMER,RAJASTHAN
"EQUITAS SMALL FINANCE BANK LIMITED",ESFB0016020,304756003,TONK,"Situated at Old Hatwara, Subash Bazar, Opp. Of Nizam Bidi factory, Near Central Bank of India, Tonk, Tehsil  Tonk, Rajasthan",30898015,TONK,TONK,RAJASTHAN
"EQUITAS SMALL FINANCE BANK LIMITED",ESFB0016019,306756003,PALI,"Plot No. S- 61, S-62, S-63, S-64 Situated at Kalpvarax Grah Nirman Sahakari Samiti Ltd. Scheme No. 2, Ambedkar Circle, Pali, Rajasthan",30898015,PALI,PALI,RAJASTHAN
"EQUITAS SMALL FINANCE BANK LIMITED",ESFB0016018,312756003,NIMBAHERA,"Plot no. 17B, Situated at Adarash Colony, Nimbahera, Tehsil - Nimbahera, Dist. Chittorgarh, Rajasthan",30898015,CHITTORGARH,CHITTORGARH,RAJASTHAN
"EQUITAS SMALL FINANCE BANK LIMITED",ESFB0016017,343756002,JALORE,"PLOT NO.62,SURVEY NO.03339/16,OPPOSITE CENTRAL CO OPERATIVE BANK,MANPURA COLONY,JALORE,DIST.JALORE,RAJASTHAN -343001",30898015,JALOR,JALOR,RAJASTHAN
"EQUITAS SMALL FINANCE BANK LIMITED",ESFB0016016,303756002,KOTUTLI,"Mankash Tower, Khasra No. 1225, Opp. Of Krashi upaj Mandi, Bansur Raod, Kotputli, Tehsil- Kotputli, Dist- Jaipur, Rajasthan - 303108",30898015,JAIPUR,JAIPUR,RAJASTHAN
"EQUITAS SMALL FINANCE BANK LIMITED",ESFB0016015,302756005,JHAI,"KALWAADA ROAD,BEHIND JAGDAMBA MOTORS,VILLAGE JHAI,POST BAMBHORIA,TEHSIL -SANGANER,DISTRICT JAIPUR",30898015,JAIPUR,JAIPUR,RAJASTHAN
"EQUITAS SMALL FINANCE BANK LIMITED",ESFB0016014,342756002,JODHPUR,"Plot No.-87/B/1, Situated at Bombay Motors Circle, Chopasani Road, Jodhpur, Rajasthan",30898015,JODHPUR,JODHPUR,RAJASTHAN
"EQUITAS SMALL FINANCE BANK LIMITED",ESFB0016013,302756004,C-SCHEME,"Shop No. 38, 39 and 40,Laxmi Complex, Khasara No. 381, Gram Hathori, M.I. Road, Jaipur ,Rajasthan - 302001",30898015,JAIPUR,JAIPUR,RAJASTHAN
"EQUITAS SMALL FINANCE BANK LIMITED",ESFB0016012,302756003,SANGANER,"176,SANT KUTTER,NAGAR NIGAM OFFICE,SANGANER BAZAAR,SANGANER,JAIPUR,RAJASTHAN",30898015,JAIPUR,JAIPUR,RAJASTHAN
"EQUITAS SMALL FINANCE BANK LIMITED",ESFB0016011,304756002,MALPURA,"PLOT NO.28,WARD NO.9,TODA ROAD,MALPURA,DIST -TONK,RAJASTHAN,304504",30898015,TONK,TONK,RAJASTHAN
"EQUITAS SMALL FINANCE BANK LIMITED",ESFB0016010,305756003,AJMER,"Bansal Building, Opposite Railway Station Malgodown, Station Road, Ajmer, Rajasthan - 305001",30898017,AJMER,AJMER,RAJASTHAN
"EQUITAS SMALL FINANCE BANK LIMITED",ESFB0016009,305756002,KISHANGARH,"HOTEL CITY HEART,NEAR BUS STAND,MADANGANJ,KISHANGARH,RAJASTHAN -305801",30898017,AJMER,AJMER,RAJASTHAN
"EQUITAS SMALL FINANCE BANK LIMITED",ESFB0016008,312756002,CHITTORGARH,"PLOT NO.27,RAJEEV COLONY,CHITTORGARH,RAJASTHAN-312001",30898015,CHITTORGARH,CHITTORGARH,RAJASTHAN
"EQUITAS SMALL FINANCE BANK LIMITED",ESFB0016007,306756002,SUMERPUR,"Hari Plaza, Gandhi Chauraha, Main Bazar, Sumerpur, District - Pali, Rajasthan - 306902",30898015,PALI,PALI,RAJASTHAN
"EQUITAS SMALL FINANCE BANK LIMITED",ESFB0016006,327756002,BANSWARA,"Plot No. 132, Opp. Shrinath Ashram, Mohan Colony, Banswara, Rajasthan - 327001",30898017,BANSWARA,BANSWARA,RAJASTHAN
"EQUITAS SMALL FINANCE BANK LIMITED",ESFB0016005,324756002,KOTA,"PLOT NO 396,SHOPPING CENTER,AERODROME CIRCLE,KOTA,RAJASTHAN - 324009",30898017,KOTA,KOTA,RAJASTHAN
"EQUITAS SMALL FINANCE BANK LIMITED",ESFB0016004,311756002,BHILWARA,"LEYLAND CHORAHA,PUR ROAD,BHILWARA-311001,RAJASTHAN",30898017,BHILWARA,BHILWARA,RAJASTHAN
"EQUITAS SMALL FINANCE BANK LIMITED",ESFB0016003,341756002,MAKRANA,"MANGLANA ROAD,GODAWAS MAKRANA,RAJASTHAN",30898015,NAGAUR,NAGAUR,RAJASTHAN
"EQUITAS SMALL FINANCE BANK LIMITED",ESFB0016002,344756002,BALOTRA,"Hotel Mahaveer International, Pachpadra Road, Opposite Jat Samaj, Near New Bus Stand, Balotra - 344022, Rajasthan.",30898015,BARMER,BARMER,RAJASTHAN
"EQUITAS SMALL FINANCE BANK LIMITED",ESFB0016001,302756002,VAISHALI,"NO-B-99,VAISHALI MARG,NEAR NATIONAL HANDLOOM,VAISHALI,JAIPUR",30898015,JAIPUR,JAIPUR,RAJASTHAN
"EQUITAS SMALL FINANCE BANK LIMITED",ESFB0015007,151756002,BATHINDA,"WALIA COMPLEX,NO.17823,OPPOSITE CLOCK TOWER,MAIN BIBI WALA ROAD CHOWK,BATHINDA-151001",30898015,BATHINDA,BATHINDA,PUNJAB
"EQUITAS SMALL FINANCE BANK LIMITED",ESFB0015006,144756003,JALANDHAR,"BM TOWER,76,VIJAY NAGAR,MAHAVIR MARG,JALANDHAR -144 001",30898015,JALANDHAR,JALANDHAR,PUNJAB
"EQUITAS SMALL FINANCE BANK LIMITED",ESFB0015005,160756002,CHANDIGARH,"C O 2421-22,ECTOR 22 C,CHANDIGARH",30898015,CHANDIGARH,CHANDIGARH,CHANDIGARH
"EQUITAS SMALL FINANCE BANK LIMITED",ESFB0015004,142756002,MOGA,"SCO NO -17,MPROVEMENT TRUST BUILDING,FEROZEPUR ROAD, MOGA .",30898017,MOGA,MOGA,PUNJAB
"EQUITAS SMALL FINANCE BANK LIMITED",ESFB0015003,144756002,GRUPAR,"OPPOSITE GAGAN PALACE,VILLAGE GARUPAR,NAWANSHAHR -144417",30898017,"SHAHEED BHAGAT SINGH NAGAR",SHAHEEDBHAGATSINGHNAGAR,PUNJAB
"EQUITAS SMALL FINANCE BANK LIMITED",ESFB0015002,143756002,AMRITSAR,"NO.10,DEEP COMPLEX,OPPOSITE DOABA MOTORS,AMRITSAR",30898017,AMRITSAR,AMRITSAR,PUNJAB
"EQUITAS SMALL FINANCE BANK LIMITED",ESFB0015001,141756002,"GILL ROAD, LUDHINA","JBN TOWER,NEAR VISHKARMA CHOWK,GILL ROAD,LUDHINA -141001",30898015,LUDHIANA,LUDHIANA,PUNJAB
"EQUITAS SMALL FINANCE BANK LIMITED",ESFB0014024,486756001,REWA,"GROUND FLOOR,BLOCK NO1,OPPOSITE MISHRA PETROL PUMP,NEHRU NAGAR,NH-7,REWA,M.P,PIN-486001.",30898015,REWA,REWA,"MADHYA PRADESH"
"EQUITAS SMALL FINANCE BANK LIMITED",ESFB0014023,485756001,SATNA,"AHINSA TOWER,NEAR SBI CITY BRANCH,IN F/O PUSHKARNI PARK,DIST HOSPITAL ROAD,SATNA 485001",30898017,SATNA,SATNA,"MADHYA PRADESH"
"EQUITAS SMALL FINANCE BANK LIMITED",ESFB0014022,460756001,BETUL,"AABAKARI ROAD,DILBAHAR CHOWK,BESIDE OM MEDICAL.GANJ.BETUL 460001",30898015,BETUL,BETUL,"MADHYA PRADESH"
"EQUITAS SMALL FINANCE BANK LIMITED",ESFB0014021,473756076,MP-ASHOKNAGAR,"VIDISHA BYPASS ROAD,HDFC TIRAHA,NEAR KOTAK BANK,ASHOK NAGAR,MADHYA PRADESH.473331",30898015,"ASHOK NAGAR - GUNA","ASHOK NAGAR - GUNA","MADHYA PRADESH"
"EQUITAS SMALL FINANCE BANK LIMITED",ESFB0014020,483756001,KATNI,"RADHE TRADERS,JABALPUR ROAD,BARGAWAN,OPPOSITE LIC BUILDING,DIST-KATNI,M.P 483501",30898015,KATNI,KATNI,"MADHYA PRADESH"
"EQUITAS SMALL FINANCE BANK LIMITED",ESFB0014019,480756001,CHHINDWARA,"GROUND FLOOR,SHANTINATH HEIGHTS,BESIDE PATNI PETROL PUMP,STATION ROAD,DISTT-CHHINDWARA M.P 480001",30898015,CHHINDWARA,CHHINDWARA,"MADHYA PRADESH"
"EQUITAS SMALL FINANCE BANK LIMITED",ESFB0014018,465756001,PADONIA,"BHOPAL BY PASS,CHOURGHA GRAM,TALAWADA P.O,PADONIYA,CHAMPAPURA,MADHYA PRADESH 465674",30898015,RAISEN,RAISEN,"MADHYA PRADESH"
"EQUITAS SMALL FINANCE BANK LIMITED",ESFB0014017,461756101,PIDGAON,"SURVEY NO.131/4& 132/2,SETTLEMENT NO.4,P.C.NO.12,VILLAGE - ATRASMA,(LANDMARK BHAMBU WAREHOUSE),BLOCK HARDA,RNM - HANDIYA,DIST - HARDA,M.P 461331",30898015,HARDA,HARDA,"MADHYA PRADESH"
"EQUITAS SMALL FINANCE BANK LIMITED",ESFB0014016,470756001,SAGAR,"BHOPAL SAGAR ROAD,SUBHASH NAGAR,BHAGWANGANJ,NEAR UNION BANK OF INDIA,SAGAR,MADHYA PRADESH -470001",30898015,SAGAR,SAGAR,"MADHYA PRADESH"
"EQUITAS SMALL FINANCE BANK LIMITED",ESFB0014015,457756001,RATLAM,"NO-649,SAROJ SAROVER,MITRA NIWAS ROAD,RATLAM,MADHYA PRADESH",30898015,RATLAM,RATLAM,"MADHYA PRADESH"
"EQUITAS SMALL FINANCE BANK LIMITED",ESFB0014014,484756001,SHAHDOL,"GOUND FLOOR,RAJENDRA TALKIES CHOWK, SHAHDOL (M.P)",30898015,SHAHDOL,SHAHDOL,"MADHYA PRADESH"
"EQUITAS SMALL FINANCE BANK LIMITED",ESFB0014013,454756001,DHAR,"NO -25,25/1,RAJAJAI MARG,HOTEL ROYAL RESIDENCY,NEAR BUS STAND DHAR,MADHYAPRADESH -454001",30898017,DHAR,DHAR,"MADHYA PRADESH"
"EQUITAS SMALL FINANCE BANK LIMITED",ESFB0014012,452756003,KAYASTHKHEDI,"GRAM KAYASTH KHEDI,VEH SANWER,INDORE,MADHYA PRADESH",30898017,INDORE,INDORE,"MADHYA PRADESH"
"EQUITAS SMALL FINANCE BANK LIMITED",ESFB0014011,482756001,"WRIGHT TOWN JABALPUR","NO - 1600,NEAR CHANCHALA BAI COLLAGE,WRIGHT TOWN,JABALPUR,MADHYA PRADESH",30898015,RAJKOT,RAJKOT,"MADHYA PRADESH"
"EQUITAS SMALL FINANCE BANK LIMITED",ESFB0014010,455756001,DEWAS,"PLOT NO - 3,GROUND FLOOR,NARAYAN NAGAR,A.B.ROAD,DEWAS",30898017,DEWAS,DEWAS,"MADHYA PRADESH"
"EQUITAS SMALL FINANCE BANK LIMITED",ESFB0014009,456756001,UJJAIN,"MAHAVIR NAGAR,INDORE ROAD,MADHYA PRADESH-456001",30898015,UJJAIN,UJJAIN,"MADHYA PRADESH"
"EQUITAS SMALL FINANCE BANK LIMITED",ESFB0014008,450756101,KHANDWA,"RAMACHARAN TOWER,RAMESHWAR ROAD,KHANDWA,MADHYA PRADESH-450001",30898017,"KHANDWA - EAST NIMAR","KHANDWA - EAST NIMAR","MADHYA PRADESH"
"EQUITAS SMALL FINANCE BANK LIMITED",ESFB0014007,450756001,BURHANPUR,"SAIFEE COMPLEX,NO - 282/19,AMRAVATI ROAD,BESIDE HDFC BANK,BURHANPUR,MADYAPRADESH",30898015,"BURHANPUR - EAST NIMAR","BURHANPUR - EAST NIMAR","MADHYA PRADESH"
"EQUITAS SMALL FINANCE BANK LIMITED",ESFB0014006,470756101,BINA,"Achwal Ward, Station Road, Bina Disst, Sagar M.P",30898017,SAGAR,SAGAR,"MADHYA PRADESH"
"EQUITAS SMALL FINANCE BANK LIMITED",ESFB0014005,481756001,KOSMI,"NOVELTY HOUSE ROAD,WARD NO.18,BALAGHAT,MADHYA PRADESH",30898015,BALAGHAT,BALAGHAT,"MADHYA PRADESH"
"EQUITAS SMALL FINANCE BANK LIMITED",ESFB0014004,452756002,"BHAWARKUA INDORE","O-8,ASHOKAGAR,BHAWARKUARAOD,INDORE,MADHYAPRADESH",30898015,INDORE,INDORE,"MADHYA PRADESH"
"EQUITAS SMALL FINANCE BANK LIMITED",ESFB0014003,464756201,VIDISHA,"GHARSANSAR SUPER MARKET CIVIL LINES,VIDHISHA",30898015,VIDHISHA,VIDHISHA,"MADHYA PRADESH"
"EQUITAS SMALL FINANCE BANK LIMITED",ESFB0014002,452756001,PIPLIYAHANA,"NO 83,GROUND FLOOR,SWAMI VIVEKANAND NAGAR MAIN ROAD,INDORE",30898015,INDORE,INDORE,"MADHYA PRADESH"
"EQUITAS SMALL FINANCE BANK LIMITED",ESFB0014001,462756001,GULMOHAR,"PLOT NO - E-8/360,GROUND FLOOR,ESFB GULMOHAR,BHOPAL",30898015,BHOPAL,BHOPAL,MAHARASHTRA
"EQUITAS SMALL FINANCE BANK LIMITED",ESFB0011008,132756002,KARNAL,"SCO -252,SECTOR - 12,HUDA MARKET,KARNAL.HARYANA",30898015,KARNAL,KARNAL,HARYANA
"EQUITAS SMALL FINANCE BANK LIMITED",ESFB0011007,125756002,SIRSA,"B24-1,JANTA BHAWAN ROAD,SHIVAJI COLONY,SIRSA.HARYANA",30898015,SIRSA,SIRSA,HARYANA
"EQUITAS SMALL FINANCE BANK LIMITED",ESFB0011006,110756014,BAHADURGARH,"Raj Complex, Mahaveer Park, Opp Corporation Bank, Bahadurgarh",30898015,JHAJJAR,JHAJJAR,HARYANA
"EQUITAS SMALL FINANCE BANK LIMITED",ESFB0011005,110756008,"OLD GURGAON-SEC","SCO - 40,OLD JUDICIAL COMPLEX,SECTOR - 15,GURGAON,HARYANA-122001",30898017,GURGOAN,GURGOAN,HARYANA
"EQUITAS SMALL FINANCE BANK LIMITED",ESFB0011004,124756002,ROHTAK,"NO 120/21,CIVIL ROAD,OPPOSITE TO MNYA TOURISOM,ROHTAK",30898017,ROHTAK,ROHTAK,HARYANA
"EQUITAS SMALL FINANCE BANK LIMITED",ESFB0011003,123756002,REWARI,"SCO 121,121A & 12 BRASS MARKET,REWARI,HARYANA-123401",30898017,REWARI,REWARI,HARYANA
"EQUITAS SMALL FINANCE BANK LIMITED",ESFB0011002,110756003,FARIDABAD,"H.NO -5-B-05,B.P,NIT,FARIDABAD,HARYANA",30898015,FARIDABAD,FARIDABAD,HARYANA
"EQUITAS SMALL FINANCE BANK LIMITED",ESFB0011001,127756002,BHIWANI,"PLOT NO 7,VIJAY NAGAR,MAIN HANSI ROAD,OPPOSITE EASYDAY,BHIWANI",30898015,BHIWANI,BHIWANI,HARYANA
"EQUITAS SMALL FINANCE BANK LIMITED",ESFB0009040,440756004,BAHADURA,"PLOT NO.1,PANDEY COMPLEX,NEAR NEW NAKA GONHI SIM,UMRER ROAD,BAHADURA,NAGPUR DISTRICT 440034",30898015,NAGPUR,NAGPUR,MAHARASHTRA
"EQUITAS SMALL FINANCE BANK LIMITED",ESFB0009038,440756003,KINGSWAY,"345,SHREEMOHINI USHA COMPLEX,S.V ROAD,KINGSWAY,NAGPUR 440001",30898015,NAGPUR,NAGPUR,MAHARASHTRA
"EQUITAS SMALL FINANCE BANK LIMITED",ESFB0009036,413756002,"SAAT RASTA","BALAJI BHAVAN,GROUND FLOOR,NEAR GARUD BANGLOW,SAAT RASTA SOLAPUR 413001",30898015,SOLAPUR,SOLAPUR,MAHARASHTRA
"EQUITAS SMALL FINANCE BANK LIMITED",ESFB0009035,413756327,NILANGA,"PLOT NO 10 SR NO 296/KH H NO 1/3/568 PANCHAL COLONY NILANGA DIST LATUR 431521",30898017,LATUR,LATUR,MAHARASHTRA
"EQUITAS SMALL FINANCE BANK LIMITED",ESFB0009034,411756006,PIMPRI,"FUSION PARK,UPPER GROUND FLOOR,SHOP NO.63 AND 67,MASULKAR COLONY,PIMPRI,PUNE MAHARASHTRA 411018.",30898015,PUNE,PUNE,MAHARASHTRA
"EQUITAS SMALL FINANCE BANK LIMITED",ESFB0009033,411756005,"MARKET YARD","GOLDEN EMERALD,473/14 B,GULTEKDI,SALISBURRY PARK AREA,MARKET YARD,PUNE MAHARASHTRA-411037",30898015,PUNE,PUNE,MAHARASHTRA
"EQUITAS SMALL FINANCE BANK LIMITED",ESFB0009032,411756004,KOTHRUD,"HPN.18 AND 19, DAMDARVILLE N.3AND 21,OPP KTHRUD BUSSTAND, KTHRUD, PUNE-411038",30898015,PUNE,PUNE,MAHARASHTRA
"EQUITAS SMALL FINANCE BANK LIMITED",ESFB0009031,440756005,"SHANKAR NAGAR","PLOT NO.12,WHC ROAD,SHANKAR NAGAR,NAGPUR-440010",30898015,NAGPUR,NAGPUR,MAHARASHTRA
"EQUITAS SMALL FINANCE BANK LIMITED",ESFB0009030,431756002,AURANGABAD,"PLOT NO.12,TOWN CENTER,CIDCO,AURANGABAD -431003",30898015,AURANGABAD,AURANGABAD,MAHARASHTRA
"EQUITAS SMALL FINANCE BANK LIMITED",ESFB0009029,413756151,PANDHARPUR,"GROUND FLOOR,PRABHAKAR TENDULKAR PLAZA,CTS NO.4256/A/2,NEAR BALKASHARAM,PANDHARPUR,MAHARASHTRA - 413304",30898015,SOLAPUR,SOLAPUR,MAHARASHTRA
"EQUITAS SMALL FINANCE BANK LIMITED",ESFB0009026,440756501,RAMTEK,"KHALATKAR HALL,SHOP NO.10,11& 12,OPP.TO BUS STAND,MAIN ROAD,RAMTEK,NAGPUR,MAHARASTRA",30898015,NAGPUR,NAGPUR,MAHARASHTRA
"EQUITAS SMALL FINANCE BANK LIMITED",ESFB0009024,400756007,"THANE - GHODBANDER ROAD","SHOP NO.3,GROUND FLOOR,COSMOS JEWELS,NR.D-MART,G B ROAD,THANE -400615",30898015,THANE,THANE,MAHARASHTRA
"EQUITAS SMALL FINANCE BANK LIMITED",ESFB0009023,411756003,BANER,"ELLORA PRIDE,S NO 110/11,NEAR DMART,BANER ROAD,PUNE -411 045",30898017,PUNE,PUNE,MAHARASHTRA
"EQUITAS SMALL FINANCE BANK LIMITED",ESFB0009021,400756005,"NEW PANVEL","SHOP NO.1,2,26& 27,MUNOTH EXPRESS,AMBEDKAR ROAD,OPP.S T DEPOT,PANVEL,RAIGAD -410206",30898017,RAIGAD,RAIGAD,MAHARASHTRA
"EQUITAS SMALL FINANCE BANK LIMITED",ESFB0009015,422756002,"NASHIK - GANGAPUR ROAD","SHOPNO.3,GROUNDFLOOR,RUSHIRAJREGENCY,NEARVIDYAVIKASCIRCLE,GANGAPURROAD,NASHIK-422005",30898015,NASHIK,NASHIK,MAHARASHTRA
"EQUITAS SMALL FINANCE BANK LIMITED",ESFB0009014,400756006,GHATKOPAR,"SHOP NO-6,7,8,9,GROUND FLOOR,PARMESHWAR NIKETAN CHS LTD,RAJAWADI ROAD,GHATKOPAR EAST",30898015,MUMBAI,MUMBAI,MAHARASHTRA
"EQUITAS SMALL FINANCE BANK LIMITED",ESFB0009013,410756052,NIGHOTWADI,"SAI BUNGALOW,NIGHOTWADI,POST MANCHAR,TAL - AMBEGAON,PUNE-410503",30898017,PUNE,PUNE,MAHARASHTRA
"EQUITAS SMALL FINANCE BANK LIMITED",ESFB0009012,422756201,SANGAMNER,"166,GROUNDFLOOR,SAILEELACOMPLEX,NEARBIBWEHOSPITAL,OPP.PRANTOFFICE,SANGAMNER,AHMEDNAGAR-422605",30898017,"AHMED NAGAR","AHMED NAGAR",MAHARASHTRA
"EQUITAS SMALL FINANCE BANK LIMITED",ESFB0009011,441756302,BRAMHAPURI,"BESIDE LADUKAR HOSPITAL SHESH NAGAR,BRAMHAPURI,DIST.CHANDRAPUR -441206",30898017,CHANDRAPUR,CHANDRAPUR,MAHARASHTRA
"EQUITAS SMALL FINANCE BANK LIMITED",ESFB0009010,444756101,AMRAVATI,"A-Wing, Ground floor, Vimaco Towers, Bus Stand Road, Amravati, Maharashtra ┬û 444601.",30898015,AMRAVATI,AMRAVATI,MAHARASHTRA
"EQUITAS SMALL FINANCE BANK LIMITED",ESFB0009009,445756501,WANI,"SAI MANDIR SQUARE,MAIN YAVATMAL ROAD,WANI -445304,MAHARASHTRA",30898017,YAVATMAL,YAVATMAL,MAHARASHTRA
"EQUITAS SMALL FINANCE BANK LIMITED",ESFB0009008,441756102,BHANDARA,"MRS.JYOTI PUNAMCHAND BAWANKAR,GROUND FLOOR,J.P.TOWER,RAJIV GANDHI CHOWK,JAIL ROAD,BHANDARA 441904,MAHARASHTRA",30898015,BHANDARA,BHANDARA,MAHARASHTRA
"EQUITAS SMALL FINANCE BANK LIMITED",ESFB0009007,442756001,WARDHA,"Dhantoli Chowk, Bachelor Road, Near Deshmukh Bakery, Wardha-442001.",30898015,WARDHA,WARDHA,MAHARASHTRA
"EQUITAS SMALL FINANCE BANK LIMITED",ESFB0009006,400756004,VASHI,"SHOP NO 12/13/14,APSARA SOC.SEC - 17,VASHI NAVI,MUMBAI,MAHARASHTRA",30898015,THANE,THANE,MAHARASHTRA
"EQUITAS SMALL FINANCE BANK LIMITED",ESFB0009005,416756002,SHAHUPURI,"C.T.S.NO.889,PKP EMPIRE,SHOP NO.G-1,E WARD SHAHUPURI,KOLHAPUR,DIST KOLHAPUR,PINCODE 416 001",30898017,KOLHAPUR,KOLHAPUR,MAHARASHTRA
"EQUITAS SMALL FINANCE BANK LIMITED",ESFB0009004,400756003,"MULUND WEST","ALPS HEIGHTS,SHOP NO - 4&5,DR.R.P.ROAD,MULUND ( W),MAHARASHTRA",30898015,MUMBAI,MUMBAI,MAHARASHTRA
"EQUITAS SMALL FINANCE BANK LIMITED",ESFB0009003,440756002,KANDRI,"Jabalpur-Nagpur Road, Opposite MSEB Office, Kandri-441401, Maharashtra",30898015,NAGPUR,NAGPUR,MAHARASHTRA
"EQUITAS SMALL FINANCE BANK LIMITED",ESFB0009002,400756002,KALYAN,"SHOP NO12,MURBAD ROAD,SINDHI GATE,KALYAN,THANE-110057",30898015,THANE,THANE,MAHARASHTRA
"EQUITAS SMALL FINANCE BANK LIMITED",ESFB0009001,411756002,"INDRAYANI NAGAR PUNE","BHURAT HEIGHTS,GROUND FLOOR,PLOT NO JP/11/1,J-BLOCK,INDRAYANI NAGAR,CHINCHWAD,PUNE-411057",30898015,PUNE,PUNE,"MADHYA PRADESH"
"EQUITAS SMALL FINANCE BANK LIMITED",ESFB0008006,495756301,KORBA,"PLOT NO-82 INDIRA COMMERCIAL COMPLEX,T.P NAGAR,KORBA - 495677",30898017,KORBA,KORBA,CHHATTISGARH
"EQUITAS SMALL FINANCE BANK LIMITED",ESFB0008005,491756001,DURG,"GROUND FLOOR-MEGH GANGA PLAZA,AGRASEN CHOWK(C.G)491001",30898015,DURG,UG,CHHATTISGARH
"EQUITAS SMALL FINANCE BANK LIMITED",ESFB0008004,495756001,BILASPUR,"A V TOWER GROUND FLOOR,P.H.NO 22/35 WARD NO.7 GURU GHASIDAS NAGAR WARD,MAHARAN PRATAP CHOWK,RAIPUR ROAD,BILASPUR-495001",30898017,BILASPUR,BILASPUR,CHHATTISGARH
"EQUITAS SMALL FINANCE BANK LIMITED",ESFB0008003,495756201,JANJGIR,"LINK ROAD,BHAWANI PLAZA,JANJGIR-495668",30898015,"JANJGIR CHAMPA","JANJGIR CHAMPA",CHHATTISGARH
"EQUITAS SMALL FINANCE BANK LIMITED",ESFB0008002,490756001,BHILAI,"PLOT NO -A-9& A-10,VEER SAVARKAR MARKET,POWER HOUSE,G.E.ROAD,BHILAI DIST,DURG C.G - 490011,CHHATTISGARH",30898015,DURG,DURG,CHHATTISGARH
"EQUITAS SMALL FINANCE BANK LIMITED",ESFB0008001,492756001,RAIPUR,"SAMVET SHIKHAR,SHOP NO.7,8,9,12,13,14 UPPER GROUND FLOOR,RAJBANDHA MAIDAN,RAIPUR(C.G.)492001",30898015,RAIPUR,RAIPUR,CHHATTISGARH
"EQUITAS SMALL FINANCE BANK LIMITED",ESFB0007021,365756501,LALAVADAR,"PLOT NO. 19 AND 20, OPP. BUS STAND, LALAVADAR,DISTRICT AMRELI-365601.",30898015,AMRELI,AMRELI,GUJARAT
"EQUITAS SMALL FINANCE BANK LIMITED",ESFB0007020,380756002,BODAKDEV,"SHOP NO.2,SHIVALIK HIGH STREET,KESHAVBAGH,VASTRAPUR,AHMEDABAD.",30898015,AHMEDABAD,AHMEDABAD,GUJARAT
"EQUITAS SMALL FINANCE BANK LIMITED",ESFB0007019,383756002,HIMMATNAGAR,"SHOP NO 2, GROUND FLOOR, UMIYA COMPLEX,GANDHI ROAD,NEAR PRATAP GADH PETROL PUMP,HIMMATNAGAR 383001.",30898015,SABARKANTHA,SABARKANTHA,GUJARAT
"EQUITAS SMALL FINANCE BANK LIMITED",ESFB0007018,390756002,MANJALPUR,"SHOP NO B-8/9,SAIRUTU COMPLEX,NEAR TULSIDHAM CHAR RASTA,MANJALPUR,VADODARA",30898017,VADODARA,OR,GUJARAT
"EQUITAS SMALL FINANCE BANK LIMITED",ESFB0007017,361756002,JAMNAGAR,"KUBER AVENUE,GROUND FLOOR,SHOP NO -1,GURUDWARA CHOWK,JAMNAGAR -361001,GUJARAT",30898015,JAMNAGAR,JAMNAGAR,GUJARAT
"EQUITAS SMALL FINANCE BANK LIMITED",ESFB0007016,360756002,"GONDAL ROAD,RAJKOT","SHOP NO.GF -1,NAKSHTRA 6,GONDAL ROAD,OPP RENAULT CAR SHOWROOM,RAJKOT-360002",30898015,RAJKOT,RAJKOT,GUJARAT
"EQUITAS SMALL FINANCE BANK LIMITED",ESFB0007015,364756002,"SHASTRI NAGAR","SHOP NO.G-1,TAKSHASHILA COMPLEX,NR.VIJAY COLD DRINK,SHASTRI NAGAR,BHAVNGAR -364001",30898015,BHAVNAGAR,BHAVNAGAR,GUJARAT
"EQUITAS SMALL FINANCE BANK LIMITED",ESFB0007014,364756051,BOTAD,"Hall No. 01, Ground Floor, Samruddh Complex, Paaliyad Road, Botad - 364710",30898015,BHAVNAGAR,BHAVNAGAR,GUJARAT
"EQUITAS SMALL FINANCE BANK LIMITED",ESFB0007013,395756003,VARACHHA,"PARAS STONE SUPPLIES,PLOT NO.1& 2,BESIDES SOHAMNAGAR SOCIETY,OPP.DOCTOR HOUSE,HIRABAG CIRCLE,VARACHHA ROAD,SURAT -395006",30898017,SURAT,SURAT,GUJARAT
"EQUITAS SMALL FINANCE BANK LIMITED",ESFB0007012,396756091,BILIMORA,"SHARDA SADAN, GROUND FLOOR, SHOP NO.1 AND 2, NEAR KRISHNA COMPLEX, GAUHRBAUG ROAD, BILLIMORA,TAL.GANDEVI.DIST.NAVSARI.BILLIMORA -396321.",30898017,NAVSARI,NAVSARI,GUJARAT
"EQUITAS SMALL FINANCE BANK LIMITED",ESFB0007011,387756501,MAHEMDAVAD,"SHOP NO.01& 02,RADHEKISHAN PARK,KHATRAJ-MAHEMDAVAD ROAD,MAHEMMDAVAD - 387130",30898015,KHEDA,KHEDA,GUJARAT
"EQUITAS SMALL FINANCE BANK LIMITED",ESFB0007010,391756501,BAMANGAM,"PATEL FALIYA,BAMANGAM,TA-KARAJAN,DI-BARODA -391243",30898015,BARODA,BARODA,GUJARAT
"EQUITAS SMALL FINANCE BANK LIMITED",ESFB0007009,363756001,"SURENDRANAGAR MAIN","Mega mall-2, Milan main road, Surendra Nagar.",30898015,SURENDRANAGAR,SURENDRANAGAR,GUJARAT
"EQUITAS SMALL FINANCE BANK LIMITED",ESFB0007008,384756081,"PATAN MAIN","1ST FLOOR,MARUTI BUSINESS PARK,OPPOSITE TO NEW COURT,PATAN - 384265,AHMEDABAD,GUJARAT",30898017,PATAN,PATAN,GUJARAT
"EQUITAS SMALL FINANCE BANK LIMITED",ESFB0007007,362756001,"JUNAGADH MAIN","KALPAVRIKSH TOWNSHIP,YAMUNA WADI NI SAME,JUNAGADH-363001",30898017,JUNAGADH,JUNAGADH,GUJARAT
"EQUITAS SMALL FINANCE BANK LIMITED",ESFB0007006,390756001,"VADODARA MAIN","V3,SHOP NO -1,NR GOPINATHJI CHEVROLET SHOWROOM,PADRA ROAD,VADODARA,GUJARAT",30898017,VADODARA,OR,GUJARAT
"EQUITAS SMALL FINANCE BANK LIMITED",ESFB0007005,395756002,"KUMBHARIA ROAD","NARANG HOUSE PLOT NO.6 & 7 BESIDES COSMOS BANK,MAGOB CROSS ROAD,PUNA KUMBHARIA ROAD,SURAT-395010",30898015,SURAT,SURAT,GUJARAT
"EQUITAS SMALL FINANCE BANK LIMITED",ESFB0007004,395756001,"MAIN - UDHANA , SURAT","Rivaa House, Near Udhna Darwaja, Surat, Gujarat",30898015,SURAT,SURAT,GUJARAT
"EQUITAS SMALL FINANCE BANK LIMITED",ESFB0007003,384756001,"MAIN - MEHSANA","SHOP NO 5A/5B GROUND FLOOR,SHRI MAHA LAXMI TYRE,OPP RAJKAMAL PETROL PUMP,HIGHWAY ROAD,MEHSANA-384402",30898015,MEHSANA,MEHSANA,GUJARAT
"EQUITAS SMALL FINANCE BANK LIMITED",ESFB0007002,380756001,"MAIN - C G ROAD","SARTHAK COMPLEX,GROUND FLOOR,NR.SWASTIK CHAR RASTA,SWASTIK CROSS ROAD - CG ROAD,AHMEDABAD,GUJARAT",30898015,AHMEDABAD,AHMEDABAD,GUJARAT
"EQUITAS SMALL FINANCE BANK LIMITED",ESFB0007001,388756001,"MAIN - ANAND","GROUND FLOOR,SHOP VANDEMATRAM K DIP.ADENWALA BUILDING,NEAR PIONEER HIGH SCHOOL,ANAND,GUJARAT",30898015,ANAND,ANAND,GUJARAT
"EQUITAS SMALL FINANCE BANK LIMITED",ESFB0005006,500756007,"AS RAO NAGAR","1-1-257/1,PLOT NO 263,SRINIVASA NAGAR COLONY,A S RAO NAGAR,HYDERABAD -5000062",30898017,HYDERABAD,HYDERABAD,TELANGANA
"EQUITAS SMALL FINANCE BANK LIMITED",ESFB0005005,500756006,"KPHB, HYDERABAD","MIG-288,PHASE I& II,KPHB,HYDERBAD-500072",30898017,HYDERABAD,HYDERABAD,TELANGANA
"EQUITAS SMALL FINANCE BANK LIMITED",ESFB0005004,500756005,"S R NAGAR, HYDERABAD","D.NO -8-3-191/15,M G PLAZA,VENGALRAO NAGAR,SR NAGAR,HYDERABAD",30898015,HYDERABAD,HYDERABAD,TELANGANA
"EQUITAS SMALL FINANCE BANK LIMITED",ESFB0005003,500756004,"HABSIGUDA,HYDERABAD","D.NO 1-4-60/B,ROAD NO 8,SNEHA NAGAR,HASIGUDA,HYDERABAD-500007",30898015,HYDERABAD,HYDERABAD,TELANGANA
"EQUITAS SMALL FINANCE BANK LIMITED",ESFB0005002,500756003,"L B NAGAR, HYDERABAD","SIVAGANGA COLONY,MANOORABAD,L B NAGAR-500074,TELANGANA",30898015,HYDERABAD,HYDERABAD,TELANGANA
"EQUITAS SMALL FINANCE BANK LIMITED",ESFB0005001,500756002,"PARADISE, HYDERABAD","N O - 1-8-160/8,BESIDE ANNAPURNA HOTEL,P G ROAD,PARADISE,SECUNDRABAD-500003",30898015,HYDERABAD,HYDERABAD,TELANGANA
"EQUITAS SMALL FINANCE BANK LIMITED",ESFB0004005,533756102,"RAJAHMUNDRY,EAST GODAVARI","D NO-7-26-06/1 MATURI VARI VEEDHI,T.NAGAR,RAJAHMUNDRY-533101",30898015,"EAST GODAVARI",ATGODAVARI,"ANDHRA PRADESH"
"EQUITAS SMALL FINANCE BANK LIMITED",ESFB0004004,520756102,GUNTUR,"D.NO 6-4-108/2,ARUNDULPET,4/3,GUNTUR-522002,ANDHRAPRADESH",30898015,GUNTUR,GUNTUR,"ANDHRA PRADESH"
"EQUITAS SMALL FINANCE BANK LIMITED",ESFB0004003,530756002,VISAKHAPATNAM,"NO -47-14-10,VIDISHA TOWERS,DWARAKANAGAR MAIN ROAD,VISAKHAPATNAM -530016",30898015,VISAKHAPATNAM,VISAKHAPATNAM,"ANDHRA PRADESH"
"EQUITAS SMALL FINANCE BANK LIMITED",ESFB0004002,520756003,"BENZ CIRCLE,VIJAYAWADA","D.NO 40-1-60,M G ROAD,NEAR BENZ CIRCLE,VIJAYAWADA-520010,ANDHRA PRADESH",30898015,KRISHNA,KRISHNA,"ANDHRA PRADESH"
"EQUITAS SMALL FINANCE BANK LIMITED",ESFB0004001,520756002,VIJAYAWADA,"D.NO 33-21-39A ELURU ROAD,CHUTTUGUNTA,SITARAMAPURAM,VIJAYAWADA-520004",30898015,KRISHNA,KRISHNA,"ANDHRA PRADESH"
"EQUITAS SMALL FINANCE BANK LIMITED",ESFB0003035,571756002,"K R NAGAR","SRIDEVI RESIDENCY,GROUND FLOOR,PURASABHA CIRCLE,VANIVILASROAD,LAND MARK OPP TO GOVT HOSPITAL,K.R.NAGARATOWN 571602.",30898015,MYSORE,MYSORE,KARNATAKA
"EQUITAS SMALL FINANCE BANK LIMITED",ESFB0003034,560756010,"RBI LAYOUT","632,KOTHNUR,RBIHBCSLAYOUT,BANAGLORE-560062",30898015,"BENGALURU URBAN","BENGALURU URBAN",KARNATAKA
"EQUITAS SMALL FINANCE BANK LIMITED",ESFB0003033,572756002,TUMAKURU,"53/3B,BATAWADI,OPPSITCOLLEGE,BHROAD,TUMKUR-572103",30898015,TUMKUR,TUMKUR,KARNATAKA
"EQUITAS SMALL FINANCE BANK LIMITED",ESFB0003032,571756501,THAGACHAGERE,"SOGALA NAGARAJA BUILDING,NO 390/208/1 / 76,MAHADESHWARA NAGARA.SATNUR ROAD,NEAR DIVYA CHETANA SCHOOL TAGACHAGERE VILLAGE,TAGACHAGERE GRAMA PANCHAYATH,KASABA HOBLI,CHENNAPATTANA TALUK -562160",30898017,RAMNAGAR,RAMNAGAR,KARNATAKA
"EQUITAS SMALL FINANCE BANK LIMITED",ESFB0003031,560756009,KASTURINAGAR,"NO 309/3,KVV SQUARE,GROUND FLOOR,2NDMAIN,KASTURI NAGAR,BANGALORE-560043",30898015,"BENGALURU URBAN","BENGALURU URBAN",KARNATAKA
"EQUITAS SMALL FINANCE BANK LIMITED",ESFB0003030,560756008,PRASHANTHNAGAR,"ESFB,NO 1,SANGOLLI RAYANNA CIRCLE,MUDALAPALYAMAIN ROAD,AMARJYOTI NAGAR,PRASHANTH NAGAR,BANGALORE-560040",30898015,"BENGALURU URBAN","BENGALURU URBAN",KARNATAKA
"EQUITAS SMALL FINANCE BANK LIMITED",ESFB0003029,580756002,HUNBBALLI,"SITE NO.01/542/2B/2K,NEAR CHETANA COLLEGE,SHIRUR PARK,VIDYANAGAR,HUBLI -580021",30898015,DHARWAD,DHARWAD,KARNATAKA
"EQUITAS SMALL FINANCE BANK LIMITED",ESFB0003028,583756202,HOSAPETE,"D NO.317/A,4TH WARD,STATION ROAD,HOSPET 583201",30898015,HOSPET,HOSPET,KARNATAKA
"EQUITAS SMALL FINANCE BANK LIMITED",ESFB0003027,581756102,RANEBENNUR,"P.B.ROAD,NEAR BUS STAND,RANEBENNUR TOWN,RANEBENNUR -581115",30898017,HAVERI,AEI,KARNATAKA
"EQUITAS SMALL FINANCE BANK LIMITED",ESFB0003026,580756302,DHARWAD,"SHREE RENUKA RESIDENCY,NO.342A / 17,OPP.AXIS BANK,TOLL NAKA,DHARWAD",30898017,DHARWAD,DHARWAD,KARNATAKA
"EQUITAS SMALL FINANCE BANK LIMITED",ESFB0003025,581756052,"HOSALLI HAVERI","NO.435/ 1,DEVI HOSUR CROSS,HOSALLI,TALUK HAVERI,DISTRICT HAVERI -581110",30898017,HAVERI,AEI,"TAMIL NADU"
"EQUITAS SMALL FINANCE BANK LIMITED",ESFB0003024,560756007,YALAHANKA,"NO.314,A SECTOR,CHIKKABOMMASANDRA CIRCLE,YELAHANKA NEW TOWN,HIG,KHB,BANGALORE - 5600064,KARNATAKA",30898015,"BENGALURU URBAN","BENGALURU URBAN",KARNATAKA
"EQUITAS SMALL FINANCE BANK LIMITED",ESFB0003023,577756203,SHIVAMOGGA,"NO.391-2605,BH ROAD,BESIDE ARVIND MOTORS,SHIMOGA - 577201",30898015,SHIMOGA,SHIMOGA,KARNATAKA
"EQUITAS SMALL FINANCE BANK LIMITED",ESFB0003022,570756004,"T K LAYOUT","Site bearing No.377/B, Saraswathipuram, Thonachikoppal Extension layout, Chamaraja Mohalla, Mysore",30898015,MYSORE,MYSORE,KARNATAKA
"EQUITAS SMALL FINANCE BANK LIMITED",ESFB0003021,573756302,HASSAN,"N O-12-3-574-322,ARYABHATTA ROAD,RING ROAD,JAYANAGAR,HASSAN -573201",30898015,HASSAN,HASSAN,KARNATAKA
"EQUITAS SMALL FINANCE BANK LIMITED",ESFB0003020,582756002,GADAG,"CTS NO 3812/1/4,OPP MGM HOSPITAL,NEW BUS STAND ROAD,GADAG - 582101,KARNATAKA",30898015,GADAG,GADAG,KARNATAKA
"EQUITAS SMALL FINANCE BANK LIMITED",ESFB0003019,577756002,DAVANGERE,"NO.3348/A-1,SIDDAVEERAPPA LAYOUT,SHAMANUR ROAD,DAVANGERE 577004",30898017,DAVANGERE,DAVANGERE,KARNATAKA
"EQUITAS SMALL FINANCE BANK LIMITED",ESFB0003018,571756502,MANDYA,"Khatha No. D3/347/1668, situated at Vidya Nagara, Mandya City.",30898015,MANDYA,MANDYA,KARNATAKA
"EQUITAS SMALL FINANCE BANK LIMITED",ESFB0003017,583756102,BALLARI,"NO -233/B1,1 ST CROSS,GANDHINAGAR,BELLARY -583103",30898015,BELLARY,BELLARY,KARNATAKA
"EQUITAS SMALL FINANCE BANK LIMITED",ESFB0003016,590756002,BELAGAVI,"TO52,ONGRESSROAD,TILAKWADI,BELAGAVI",30898015,BELAGAVI,BELAGAVI,KARNATAKA
"EQUITAS SMALL FINANCE BANK LIMITED",ESFB0003015,572756202,TIPTUR,"SNR COMPOUND,BH ROAD,TIPTUR 572201",30898015,TUMAKURU,TUMAKURU,KARNATAKA
"EQUITAS SMALL FINANCE BANK LIMITED",ESFB0003014,572756172,SIRA,"NO -1048,PRABHU ENTERPRISES,INDANE GAS DISTRIBUTORS,MAIN ROAD,SIRA -572137",30898015,TUMKUR,TUMKUR,KARNATAKA
"EQUITAS SMALL FINANCE BANK LIMITED",ESFB0003013,571756052,HUNSUR,"Khatha No.1613/3600, situated at BM By Pass Road, 1st Division, Hunsur Town, Mysore District.",30898015,MYSORE,MYSORE,KARNATAKA
"EQUITAS SMALL FINANCE BANK LIMITED",ESFB0003012,570756003,"H D KOTE","TARAKA SHOPPING COMPLEX,OPP K S R T C BUS STAND,H D KOTE 571114",30898015,MYSORE,MYSORE,KARNATAKA
"EQUITAS SMALL FINANCE BANK LIMITED",ESFB0003011,571756652,GUNDLUPET,"UPPI COMPLEX,BANGALORE NILGIRI ROAD,ASHIWINI LAY OUT,GUNDULPET - 571111",30898015,CHAMARAJNAGAR,CHAMARAJNAGAR,KARNATAKA
"EQUITAS SMALL FINANCE BANK LIMITED",ESFB0003010,577756102,BIRUR,"PUSHPA NILAYA,NO -2674/2605,RAILWAY STATION ROAD,BIRUR -577116 -KADUR TALUK,CHICKKAMAGALUR DIST",30898015,CHICHMAGALUR,CHICHMAGALUR,KARNATAKA
"EQUITAS SMALL FINANCE BANK LIMITED",ESFB0003009,571756452,SIDDARAYANAPURA,"NO.465,SIDDAIAHNAPURAVILLAGE,SURVEYNO.241/8,SIDDAIAHNAPURAGRAMAPANCHAYATH,KOLLEGALTALUK,CHAMARAJANAGARADISTRICT.-571440",30898015,CHAMARAJNAGAR,CHAMARAJNAGAR,KARNATAKA
"EQUITAS SMALL FINANCE BANK LIMITED",ESFB0003008,577756202,"HOLE HANASWADI","SHIMOGA HONNALI ROAD,MELINA HANASWADI POST,SHIMOGA - 577216",30898015,SHIMOGA,SHIMOGA,KARNATAKA
"EQUITAS SMALL FINANCE BANK LIMITED",ESFB0003007,571756352,RAMASAMUDRAM,"No 49, LIG Hoousing Board Colony,Ramasamudram,Chamarajan nagar-571313, Karnataka.",30898015,CHAMARAJNAGAR,CHAMARAJNAGAR,KARNATAKA
"EQUITAS SMALL FINANCE BANK LIMITED",ESFB0003006,560756006,RAJAJINAGAR,"NO 75,SHANTHA ARCADE, DR.RAJKUMAR ROAD, NEAR TVS BRIDGESTONE SHOWROOM,RAJAJINAGAR 2ND BLOCK,BENGALURU-560010.",30898015,"BENGALURU URBAN","BENGALURU URBAN",KARNATAKA
"EQUITAS SMALL FINANCE BANK LIMITED",ESFB0003005,560756005,"BASAVESHWAR NAGAR","NO.92,LIC COLONY,BASAVESHWARANAGAR MAIN ROAD,BANGLAORE 560079",30898015,"BENGALURU URBAN","BENGALURU URBAN",KARNATAKA
"EQUITAS SMALL FINANCE BANK LIMITED",ESFB0003004,560756004,"K R PURAM","NO.1,2ND CROSS,1ST BLOCK,TC PALYA,AKSHAYANAGAR,BANGALORE 560016",30898015,"BENGALURU URBAN","BENGALURU URBAN",KARNATAKA
"EQUITAS SMALL FINANCE BANK LIMITED",ESFB0003003,560756003,"HSR LAYOUT","NO - 1665/A,HSR LAYOUT,7TH SECTOR,14TH MAIN ROAD,BANGALORE -560102",30898015,"BENGALURU URBAN","BENGALURU URBAN",KARNATAKA
"EQUITAS SMALL FINANCE BANK LIMITED",ESFB0003002,570756002,"K D ROAD MYSURU","NO 141,BELAKU ARCADE,KALIDASA ROAD,MYSORE 570012",30898015,MYSORE,MYSORE,KARNATAKA
"EQUITAS SMALL FINANCE BANK LIMITED",ESFB0003001,560756002,JAYANAGAR,"No -1011, Ground Floor, Sri Krishnapoorva Arcade, 26th Main, Jayanagar 4th T Block, Bangalore - 560041",30898015,"BANGALORE METRO","BANGALORE METRO",KARNATAKA
"EQUITAS SMALL FINANCE BANK LIMITED",ESFB0001136,638756010,PERUNDURAI,"NO 123,OLD BUS STAND ROAD,PERUNDURAI -638052",30898015,ERODE,ERODE,"TAMIL NADU"
"EQUITAS SMALL FINANCE BANK LIMITED",ESFB0001134,600756028,SURAPET,"PLOT NO.213,SIVAPRAKASAM NAGAR,SURAPET,CHENNAI 600066",30898015,TIRUVALLUR,TIRUVALLUR,"TAMIL NADU"
"EQUITAS SMALL FINANCE BANK LIMITED",ESFB0001133,NA,AALAPIRANTHAN,"NO.175,PUDUKKOTTAI MAIN ROAD,ARANTHANGI.614616",30898015,PUDUKOTTAI,PUDUKOTTAI,"TAMIL NADU"
"EQUITAS SMALL FINANCE BANK LIMITED",ESFB0001132,600756027,PURASAWALKAM,"OLD NO.77,NEW NO.36,MILLERS ROAD,KILPAUK,CHENNAI 600010",30898015,CHENNAI,CHENNAI,"TAMIL NADU"
"EQUITAS SMALL FINANCE BANK LIMITED",ESFB0001131,NA,"K K NAGAR","PLOT NO.1072,D.NO.32,MUNUSAMY SALAI,K K NAGAR WEST,CHENNAI 600078",30898015,CHENNAI,CHENNAI,"TAMIL NADU"
"EQUITAS SMALL FINANCE BANK LIMITED",ESFB0001130,610756002,THIRUVARUR,"NO 87,DN COMPLEX,NORTH MAIN STREET,THIRUVARUR -610 002",30898015,TIRUVARUR,TIRUVARUR,"TAMIL NADU"
"EQUITAS SMALL FINANCE BANK LIMITED",ESFB0001129,622756003,PONNAMARAVATHI,"70/1,FIRST FLOOR,ANNA SALAI,PUDUKOTTAI ROAD,PONNAMARAVATHY-622407",30898015,PUDUKOTTAI,PUDUKOTTAI,"TAMIL NADU"
"EQUITAS SMALL FINANCE BANK LIMITED",ESFB0001128,638756009,BHAVANI,"NO.1041,MAIN ROAD,NEAR SANGEMESEEWARAR TEMPLE BUS STOP,BHAVANI -638301",30898015,ERODE,ERODE,"TAMIL NADU"
"EQUITAS SMALL FINANCE BANK LIMITED",ESFB0001127,613756005,RAGUNATHAPURAM,"PLOT NO 1 / 100A,POONKGA NAGAR ( THREE STAR ) REGUNATHAPURAM ( P),PAPANASAM(TK),TANJORE-614210",30898015,TANJAVUR,TANJAVUR,"TAMIL NADU"
"EQUITAS SMALL FINANCE BANK LIMITED",ESFB0001126,627756009,AGASTHIYARPATTI,"3/1067 B VEERAMAMUNIVAR STREET,AGASTHIYARPATTI,SIVANTHIPURAM,AMBASAMUDRAM TK,TIRUNELVELI DISTRICT -627428",30898015,TIRUNELVELI,IUVI,"TAMIL NADU"
"EQUITAS SMALL FINANCE BANK LIMITED",ESFB0001125,625756012,KOVILPAPPAKUDI,"3/299,I FLOOR,ALANGANALLUR MAIN ROAD,SIKKANDAR CHAVADI,KOVILPAPPAKUDI VILLAGE MADURAI 625018",30898015,MADURAI,MADURAI,"TAMIL NADU"
"EQUITAS SMALL FINANCE BANK LIMITED",ESFB0001124,609756102,"KARAIKKAL THIRUNALLAR RURAL","DOOR NO -162,CHURCH STREET,KARAIKKAL -TK& DT.PONDICHERRY STATE",30898015,PONDICHERRY,PONDICHERRY,PUDUCHERRY
"EQUITAS SMALL FINANCE BANK LIMITED",ESFB0001123,639756003,POIYAPUTHUR,"NO - 119,TRICHY KARUR MAIN ROAD,NEAR MANAPURAM GOLD LOAN,POIYYAPUTHUR -KRISHNARAYAPURAM -TK,KARUR -639102,TAMIL NADU",30898015,KARUR,KARUR,"TAMIL NADU"
"EQUITAS SMALL FINANCE BANK LIMITED",ESFB0001122,600756025,MUGALIVAKKAM,"LTN5,MHALIVAKKAMRAD,MANGALAKSHMINAGAR,MADHANANDAPURAM,CHENNAI600125",30898017,KANCHIPURAM,KANCHIPURAM,"TAMIL NADU"
"EQUITAS SMALL FINANCE BANK LIMITED",ESFB0001121,620756010,MANAPPARAI,"NO.14 PONNAGARAM,DINDIGUL ROAD,MANAPPARAI -621306",30898017,DINDIGUL,DINDIGUL,"TAMIL NADU"
"EQUITAS SMALL FINANCE BANK LIMITED",ESFB0001120,625756103,"UTHAMAPURAM KAMBAM","Ward No: 3, New Ward 7, Yadhavar Street, Uthamapuram Village , Kambam,Theni Dt",30898015,THENI,THENI,"TAMIL NADU"
"EQUITAS SMALL FINANCE BANK LIMITED",ESFB0001119,600756024,"KUBERAN NAGAR GUDUVANCHERY","NO 5,FIRST STREET,KUBERAN NAGAR,NANDHIVARAM,GUDUVANCHERY 603202",30898017,KANCHIPURAM,KANCHIPURAM,"TAMIL NADU"
"EQUITAS SMALL FINANCE BANK LIMITED",ESFB0001118,636756008,PALPAKKI-OMALUR,"DURAISAMY GOUNDER COMPLEX,ROJA NAGAR,KOTTAMETTUPATTY,DHARMAPURI MAIN ROAD,OMALUR POST,SALEM-636455",30898015,SALEM,AE,"TAMIL NADU"
"EQUITAS SMALL FINANCE BANK LIMITED",ESFB0001117,636756007,"ERUMMAPATTY CHETTIYAMKURICHI","8/368,OPP TO VETNARY HOSPITAL,ERUMMAPATTY VILLAGE,SANGAGIRI MAIN ROAD,KONGANAPURAM-637102",30898015,SALEM,AE,"TAMIL NADU"
"EQUITAS SMALL FINANCE BANK LIMITED",ESFB0001116,641756103,VEERANAMPALAYAM,"SF NO 76,THOTTIPATTI PIRIVU,PALAYAKOTAI ROAD,VEERNAMPALAYAM,KANGEYAM",30898017,ERODE,ERODE,"TAMIL NADU"
"EQUITAS SMALL FINANCE BANK LIMITED",ESFB0001115,636756006,"KAKAPALAYAM ELAMPILLAI","10/7-E1,GANDHI NAGAR,EDANGANASALAI,SALEM MAIN ROAD,ELAMPILLAI,SALEM-637502",30898015,SALEM,AE,"TAMIL NADU"
"EQUITAS SMALL FINANCE BANK LIMITED",ESFB0001114,600756023,"MAMBAKKAM SRIPERUMBUDUR","NO 411 BANGALORE HIGHWAY MAMBAKKAM VILLAGE SRIPERUMBUDUR 602105",30898015,KANCHIPURAM,KANCHIPURAM,"TAMIL NADU"
"EQUITAS SMALL FINANCE BANK LIMITED",ESFB0001113,625756011,"SIMMAKKAL MADURAI","Peoples  Tower 153-G-H-I, North Veli Street,Simmakkal, Madurai 625001",30898015,MADURAI,MADURAI,"TAMIL NADU"
"EQUITAS SMALL FINANCE BANK LIMITED",ESFB0001112,607756202,PANRUTI,"NO-20/81,LINK ROAD,PANRUTI - 607106,TAMIL NADU",30898015,CUDDALORE,CUDDALORE,"TAMIL NADU"
"EQUITAS SMALL FINANCE BANK LIMITED",ESFB0001111,625756302,SILAMALAI,"No. 350C, Bodi Devaram Main Road, Silamalai, Bodinayakanur Taluk, Theni Dist -625528",30898015,THENI,THENI,"TAMIL NADU"
"EQUITAS SMALL FINANCE BANK LIMITED",ESFB0001110,607756203,"KEELUR VADALUR RURAL","CUDDALORE MAIN ROAD,VADALUR,VADALUR POST -607303,TAMILNADU",30898015,CUDDALORE,CUDDALORE,"TAMIL NADU"
"EQUITAS SMALL FINANCE BANK LIMITED",ESFB0001109,605756011,VALAVANUR,"NO 111,WEST PONDY ROAD,VALLAVANUR -605108",30898015,VILLUPURAM,VILLUPURAM,"TAMIL NADU"
"EQUITAS SMALL FINANCE BANK LIMITED",ESFB0001108,641756007,IKKARAI,"D.NO.2/410-2ANNAIINDHIRASTREET,IKKARAIBOOLUVAMPATTIVILLAGE,COIMBATORE-641109",30898015,COIMBATORE,COIMBATORE,"TAMIL NADU"
"EQUITAS SMALL FINANCE BANK LIMITED",ESFB0001107,638756008,PERUNDURAI,"NO - 74,PERUNDURAI ROAD,ERODE,PINCODE 638011",30898017,ERODE,ERODE,"TAMIL NADU"
"EQUITAS SMALL FINANCE BANK LIMITED",ESFB0001106,641756008,PAPAMPATTI,"NO.14/1,PAPAMPATTI ROAD,KANNAMPALAYAM,SULUR,COIMBATORE -641402",30898015,COIMBATORE,COIMBATORE,"TAMIL NADU"
"EQUITAS SMALL FINANCE BANK LIMITED",ESFB0001105,614756202,THIRUTHURAIPOONDI,"DEEPAM MOHAN COMPLEX,NEW BUS STAND,THIRUVARUR ROAD,THIRUTHURAIPOONDI -THIRUVARUR DIST -614 713",30898017,TIRUVARUR,TIRUVARUR,"TAMIL NADU"
"EQUITAS SMALL FINANCE BANK LIMITED",ESFB0001104,641756006,"BIOSCOPE STREET, POLLACHI","NO 18,BIOSCOPE STREET,POLLACHI - 642001,TAMILNADU",30898015,COIMBATORE,COIMBATORE,"TAMIL NADU"
"EQUITAS SMALL FINANCE BANK LIMITED",ESFB0001103,636756005,NAMAKKAL,"Old No 152-F1,New No 406, Front Line Complex, Salem Main Road,Namakkal- 637001",30898017,SALEM,AE,"TAMIL NADU"
"EQUITAS SMALL FINANCE BANK LIMITED",ESFB0001102,606756102,KALLAKURICHI,"90/A&B,DURGAM MAIN ROAD,CHENNAI MAIN ROAD,KALLAKURICHI -606202",30898015,VILLUPURAM,VILLUPURAM,"TAMIL NADU"
"EQUITAS SMALL FINANCE BANK LIMITED",ESFB0001101,638756007,GOBICHETTIPALAYAM,"NO.249,KATCHERY STREET,SATHY MAIN ROAD,GOBICHETTIPALAYAM - 638452",30898015,ERODE,ERODE,"TAMIL NADU"
"EQUITAS SMALL FINANCE BANK LIMITED",ESFB0001100,632756202,ARANI,"S1,GANDHI ROAD,ARANI,THIRUVANAMALAI DISTRICT - 632301",30898017,TIRUVANAMALAI,TIRUVANAMALAI,"TAMIL NADU"
"EQUITAS SMALL FINANCE BANK LIMITED",ESFB0001099,605756010,VASISTHAPURAM,"NO.175/1 VASISTHAPURAM VILLAGE,THITAKUDI THALUK,CUDDALORE DISTRICT",30898017,CUDDALORE,CUDDALORE,"TAMIL NADU"
"EQUITAS SMALL FINANCE BANK LIMITED",ESFB0001098,613756004,THIRUVAIYARU,"120,Kumbakonam Rastha,Thiruvaiyaru(Tk),Thanjavur Dt -613204.",30898015,TANJAVUR,TANJAVUR,"TAMIL NADU"
"EQUITAS SMALL FINANCE BANK LIMITED",ESFB0001097,600756022,PALLIPETTAI,"NO.225/A GST ROAD,PALLIPETTAI,ACHRAPAKKAM POST-603301",30898015,KANCHIPURAM,KANCHIPURAM,"TAMIL NADU"
"EQUITAS SMALL FINANCE BANK LIMITED",ESFB0001096,638756006,ANTHIYUR,"11/86 - 9 BHAVANI MAIN ROAD,ANNAMEDU,PACHAMAPALAYAM POST,ANTHIYUR 638314",30898017,ERODE,ERODE,"TAMIL NADU"
"EQUITAS SMALL FINANCE BANK LIMITED",ESFB0001095,638756005,SALAIPUDUR,"157/1 KARUR MAIN ROAD,SAALIPUTUR.-638151",30898017,ERODE,ERODE,"TAMIL NADU"
"EQUITAS SMALL FINANCE BANK LIMITED",ESFB0001094,642756102,"GANDHI NAGAR, UDUMALPET","DEIVAM COMPLEX,NO 86-C OPP GANESH ELECTRICALS,DHARAPURAM MAIN ROAD,GANDHI NAGAR II,UDUMALPET.642126",30898017,COIMBATORE,COIMBATORE,"TAMIL NADU"
"EQUITAS SMALL FINANCE BANK LIMITED",ESFB0001093,613756003,THITUKATTUPALLI,"THIRUKKATUPALLI MAIN ROAD,FOUR ROAD,BOODHALUR TALUK,THANJAVUR DIST -613602",30898017,TANJAVUR,TANJAVUR,"TAMIL NADU"
"EQUITAS SMALL FINANCE BANK LIMITED",ESFB0001092,600756021,PARRYS,"DOOR NO1/2,1/3 FRANCIS JOSEPH ST,GEORGE TOWN,PARRYSCHENNAI-1",30898015,CHENNAI,CHENNAI,"TAMIL NADU"
"EQUITAS SMALL FINANCE BANK LIMITED",ESFB0001091,636756004,"RAMAKRISHAN ROAD, SALEM","VARALAKSHMI ORCHID,103/1,GROUND FLOOR,RAMAKRISHNA ROAD,SALEM-636007,TAMILNADU",30898015,SALEM,AE,"TAMIL NADU"
"EQUITAS SMALL FINANCE BANK LIMITED",ESFB0001090,629756002,NAGERCOIL,"NO -33/1 - D,RAJAKAMANGALAM ROAD,RAMANPUTHUR,NAGERCOIL -629002,TAMILNADU",30898015,KANYAKUMARI,KANYAKUMARI,"TAMIL NADU"
"EQUITAS SMALL FINANCE BANK LIMITED",ESFB0001089,611756002,NAGAPATTINAM,"NO - 80,NEELA NORTH STREET,NAGAPATINAM -611 001,TAMIL NADU",30898017,NAGAPATTINAM,NAGAPATTINAM,"TAMIL NADU"
"EQUITAS SMALL FINANCE BANK LIMITED",ESFB0001088,627756008,TUTICORIN,"NO -1C,VVD ROAD,TUTICORIN,TAMIL NADU - 628003",30898015,TUTICORIN,TUTICORIN,"TAMIL NADU"
"EQUITAS SMALL FINANCE BANK LIMITED",ESFB0001087,606756002,THIRUVANNAMALAI,"NO 78,SANNATHI STREET,THIRUVANNAMALAI -606601",30898015,THIRUVANAMALAI,THIRUVANAMALAI,"TAMIL NADU"
"EQUITAS SMALL FINANCE BANK LIMITED",ESFB0001086,630756002,KARIKUDI,"NO - 13/3,GREEN ROAD,KARAIKUDI - 630001,TAMIL NADU",30898015,SIVAGANGAI,SIVAGANGAI,"TAMIL NADU"
"EQUITAS SMALL FINANCE BANK LIMITED",ESFB0001085,600756020,KANCHIPURAM,"KBJ,GEETHA TOWERS,NO 131/53,KAMARAJAR ROAD,KANCHEEPURAM,TAMILNADU",30898015,KANCHIPURAM,KANCHIPURAM,"TAMIL NADU"
"EQUITAS SMALL FINANCE BANK LIMITED",ESFB0001084,620756009,"KATTUR, TRICHY","SAKUNTHALA TOWERS,PLOT NO 4,GANESH NAGAR,TANJORE MAIN ROAD,KATTUR,TRICHY 6200 19",30898015,TRICHY,TRICHY,"TAMIL NADU"
"EQUITAS SMALL FINANCE BANK LIMITED",ESFB0001083,635756302,AMBUR,"OLD S NO.94/4,WARD D,BLOCK 4,MELKRISHNAPURAM VILLAGE,AMBUR MUNICIPAL TOWN LIMIT,VELLORE DIST,TAMIL NADU",30898015,VELLORE,VELLORE,"TAMIL NADU"
"EQUITAS SMALL FINANCE BANK LIMITED",ESFB0001082,600756019,AMBATTUR,"NO 2,VADIVEL MUDALI STREET,VENKATAPURAM,AMBATTUR,CHENNAI -600 053,TAMIL NADU",30898015,CHENNAI,CHENNAI,"TAMIL NADU"
"EQUITAS SMALL FINANCE BANK LIMITED",ESFB0001081,638756004,"A.P.T ROAD, ERODE","NO 16/930,A.P.T ROAD,1ST FLOOR,PARK ROAD-SATHY ROAD JUNCTION,ERODE - 638003",30898015,ERODE,ERODE,"TAMIL NADU"
"EQUITAS SMALL FINANCE BANK LIMITED",ESFB0001080,627756007,VALLIOOR,"OPPOSITE RAJESH TYRES,VALLIOOR MAIN ROAD,VALLIOOR - 627117",30898015,TIRUNELVELI,IUVI,"TAMIL NADU"
"EQUITAS SMALL FINANCE BANK LIMITED",ESFB0001079,621756002,ARIYALUR,"NO -119 B,1ST FLOOR,ACANARA BANK UPSTAIRS,HOSPITAL ROAD,ARIYALUR -621704,TAMIL NADU",30898017,ARIYALUR,ARIYALUR,"TAMIL NADU"
"EQUITAS SMALL FINANCE BANK LIMITED",ESFB0001078,600756018,CHROMEPET,"NO - 10 A& B SONA TOWERS,RAJENDRA PRASAD ROAD,HASTHINAPURAM,CHROMPET,CHENNAI-600044,TAMILNADU",30898015,CHENNAI,CHENNAI,"TAMIL NADU"
"EQUITAS SMALL FINANCE BANK LIMITED",ESFB0001077,605756009,CHIDAMBARAM,"O No 57, New no ┬û 140, East car street, Chidambaram, Cudalore district, Pin 608001.",30898015,CUDDALORE,CUDDALORE,"TAMIL NADU"
"EQUITAS SMALL FINANCE BANK LIMITED",ESFB0001076,606756202,VIRUDHACHALAM,"NO.166 A JUNCTION ROAD,VIRUDHACHALAM - 606001,TAMIL NADU",30898015,CUDDALORE,CUDDALORE,"TAMIL NADU"
"EQUITAS SMALL FINANCE BANK LIMITED",ESFB0001075,605756008,VILLUPURAM,"Raja Timbers Building, 30/132 K.K Road, Villupuram - 605602, Tamil Nadu.",30898015,VILLUPURAM,VILLUPURAM,"TAMIL NADU"
"EQUITAS SMALL FINANCE BANK LIMITED",ESFB0001074,600756017,THIRUVALLUR,"NO-3676,KAKALUR BY PASS ROAD,THIRUVALLUR,602001",30898015,TIRUVALLUR,TIRUVALLUR,"TAMIL NADU"
"EQUITAS SMALL FINANCE BANK LIMITED",ESFB0001073,625756010,"THIRUMANGALAM,MADURAI","NO -23/6,WARD NO 7,DOOR NO -693,MADURAI ROAD,THIRUMANGALAM,MADURAI",30898017,MADURAI,MADURAI,"TAMIL NADU"
"EQUITAS SMALL FINANCE BANK LIMITED",ESFB0001072,605756007,TINDIVANAM,"NO-21,NEW MOSQUE STREET,NEAR RAMADOSS CLINIC,TINDIVANAM - 604001,TAMIL NADU",30898015,VILLUPURAM,VILLUPURAM,"TAMIL NADU"
"EQUITAS SMALL FINANCE BANK LIMITED",ESFB0001071,625756102,THENI,"NO -1287,KNY COMPLEX,GROUND FLOOR,THENI PERIYAKULAM MAIN ROAD,THENI,TAMIL NADU",30898015,THENI,THENI,"TAMIL NADU"
"EQUITAS SMALL FINANCE BANK LIMITED",ESFB0001070,627756006,TENKASI,"NO.45,PERUMAL KOVIL STREET,TENKASI-627811",30898017,TIRUNELVELI,IUVI,"TAMIL NADU"
"EQUITAS SMALL FINANCE BANK LIMITED",ESFB0001069,626756002,SIVAKASI,"NO -20&21,VELAYUTHAM ROAD,SIVAKASI - 626123,TAMIL NADU",30898017,VIRUDUNAGAR,VIRUDUNAGAR,"TAMIL NADU"
"EQUITAS SMALL FINANCE BANK LIMITED",ESFB0001068,609756202,SIRKALI,"NO-25/B,KATCHERY ROAD,SIRKALI-609110,TAMIL NADU",30898017,NAGAPATTINAM,NAGAPATTINAM,"TAMIL NADU"
"EQUITAS SMALL FINANCE BANK LIMITED",ESFB0001067,627756005,SANKARANKOVIL,"NO.215 THIRUVENKADAM ROAD,SANKARANKOVIL-627756",30898015,TIRUNELVELI,IUVI,"TAMIL NADU"
"EQUITAS SMALL FINANCE BANK LIMITED",ESFB0001066,636756003,RASIPURAM,"NO - 22,ARS RESIDENCY,PATTANAM MAIN ROAD,RASIPURAM 637408",30898015,SALEM,SALEM,"TAMIL NADU"
"EQUITAS SMALL FINANCE BANK LIMITED",ESFB0001065,632756102,RANIPET,"NO-9A,M.F.ROAD,RANIPET,MUNICIPAL LIMIT,VELLORE DIST,TAMIL NADU",30898015,VELLORE,VELLORE,"TAMIL NADU"
"EQUITAS SMALL FINANCE BANK LIMITED",ESFB0001064,600756016,VIRUGAMBAKKAM,"OLD NO-14/4 NEW NO 47,FIRST FLOOR,ARCOT ROAD,VIRUGAMBAKKAM,PORUR,CHENNAI",30898015,CHENNAI,CHENNAI,"TAMIL NADU"
"EQUITAS SMALL FINANCE BANK LIMITED",ESFB0001063,600756015,KATTUPAKKAM,"NO - 48A,P.H ROAD,KUMANANCHAVADY SIGNAL,SEENEERKUPPAM,NEAR EVP KALYANA MANDAPAM,POONAMALLE,KATTUPAKKAM - 600056,TAMIL NADU",30898015,TIRUVALLUR,TIRUVALLUR,"TAMIL NADU"
"EQUITAS SMALL FINANCE BANK LIMITED",ESFB0001062,621756302,PERAMBALUR,"SUGAM DENTAL CLINIC,PLOT NO 14,VENKATESA PURAM,TRICHY MAIN ROAD,PERAMBALUR - 621212",30898015,PERUMBALUR,PERUMBALUR,"TAMIL NADU"
"EQUITAS SMALL FINANCE BANK LIMITED",ESFB0001061,624756102,PALANI,"DINDIGUL ROAD,NEAR BY CTC DEPO,OPP VASANTHA BHAVAN HOTEL,PALANI,TAMIL NADU",30898015,DINDIGUL,DINDIGUL,"TAMIL NADU"
"EQUITAS SMALL FINANCE BANK LIMITED",ESFB0001060,620756008,MUSIRI,"BYE PASS ROAD,OPPOSITE TO BUS STAND,MUSIRI,TRICHY",30898015,TRICHY,TRICHY,"TAMIL NADU"
"EQUITAS SMALL FINANCE BANK LIMITED",ESFB0001059,609756002,MAYILADUTHURAI,"NO-15,MAYURANATHAN STREET,WEST STREET,MAYILADUTHURAI - 609003,TAMILNADU",30898015,NAGAPATTINAM,NAGAPATTINAM,"TAMIL NADU"
"EQUITAS SMALL FINANCE BANK LIMITED",ESFB0001058,620756007,LALGUDI,"NO 46,MRV NAGAR,POOVALUR ROAD,LALGUDI,TRICHY-621220",30898015,TRICHY,TRICHY,"TAMIL NADU"
"EQUITAS SMALL FINANCE BANK LIMITED",ESFB0001057,627756004,KOVILPATTI,"OLD NO -59,NEW NO -113,PUDHUROAD,KOVILPATTY,TAMIL NADU",30898015,TUTICORIN,TUTICORIN,"TAMIL NADU"
"EQUITAS SMALL FINANCE BANK LIMITED",ESFB0001056,605756006,KATTUMANNARKOIL,"NO-258,KACHERY STREET,KATTUMANAR KOVIL,CHIDAMBARAM,TAMILNADU",30898015,CUDDALORE,CUDDALORE,"TAMIL NADU"
"EQUITAS SMALL FINANCE BANK LIMITED",ESFB0001055,639756002,"N P ROAD, KARUR","NO.6,NEW NO.17,N.P.ROAD,M.G.M BUILDING,KARUR - 639001",30898015,KARUR,KARUR,"TAMIL NADU"
"EQUITAS SMALL FINANCE BANK LIMITED",ESFB0001054,632756302,GUDIYATHAM,"NO 4,5,6&7,ARJUNA MUDALI STREET,CHUNNAMBUPET,NEAR OLD BUSSTAND,GUDIYATTAM-632602",30898015,VELLORE,VELLORE,"TAMIL NADU"
"EQUITAS SMALL FINANCE BANK LIMITED",ESFB0001053,600756014,CHENGALPATTU,"OLD NO - 46,NEW NO - 11,DOCTOR VARADHARAJAN STREET,VEDHACHALAM NAGAR,CHENGALPATTU-603001,TAMIL NADU",30898015,KANCHIPURAM,KANCHIPURAM,"TAMIL NADU"
"EQUITAS SMALL FINANCE BANK LIMITED",ESFB0001052,625756202,BATLAGUNDU,"NO -60 A,NAGALPURAM,NEAR VETERINARY HOSPITAL,MADURAI MAIN ROAD,BATLAGUNDU -624202,TAMIL NADU",30898017,DINDIGUL,DINDIGUL,"TAMIL NADU"
"EQUITAS SMALL FINANCE BANK LIMITED",ESFB0001051,627756003,VASAVAPPAPURAM,"NO 1/139,TUTICORIN MAIN ROAD,VASAVAPPAPURAM,TUTICORIN -628252,TAMIL NADU",30898015,TIRUNELVELI,IUVI,"TAMIL NADU"
"EQUITAS SMALL FINANCE BANK LIMITED",ESFB0001050,638756003,SENATHIPALAYAM,"KONGU NAGAR,MUHUR ROAD,SENATHIPALAYAM VILLGE,VELLAKOIL - 638111,TAMIL NADU",30898015,ERODE,ERODE,"TAMIL NADU"
"EQUITAS SMALL FINANCE BANK LIMITED",ESFB0001049,605756005,NELLIKUPPAM,"NO-502,503-NELLIKUPPAM MAIN ROAD,NELLIKUPPAM 607105",30898017,CUDDALORE,CUDDALORE,"TAMIL NADU"
"EQUITAS SMALL FINANCE BANK LIMITED",ESFB0001048,625756009,THOTTAPPANAYAKKANUR,"DOOR NO 1/354,MAIN ROAD EAST STREET,THOTTAPPANAYAKKANUR ( P),USILAMPETTI ( TK),MADURAI 625532",30898015,MADURAI,MADURAI,"TAMIL NADU"
"EQUITAS SMALL FINANCE BANK LIMITED",ESFB0001047,600756013,THERVAZHI,"NO - 682/1B,THERVAZHI VILLAGE,GUMMIDIPOONDI TK,THIRUVALLUR DIST,TAMIL NADU",30898015,TIRUVALLUR,TIRUVALLUR,"TAMIL NADU"
"EQUITAS SMALL FINANCE BANK LIMITED",ESFB0001046,625756008,THANAKKANKULAM,"PLOT N0 -48(P),49(P),ASTALAKSHMI NAGAR,MULLAI NAGAR BUS STOP,OPP ANNS CARE CENTRE,THANAKKANKULAM,MADURAI 625006,TAMIL NADU",30898015,MADURAI,MADURAI,"TAMIL NADU"
"EQUITAS SMALL FINANCE BANK LIMITED",ESFB0001045,620756006,SRINIVASANALLUR,"NO-68,TRICHY MAIN ROAD,SRINIVASANALLUR,THOTTIYAM -621 215,TAMILNADU.",30898017,TRICHY,TRICHY,"TAMIL NADU"
"EQUITAS SMALL FINANCE BANK LIMITED",ESFB0001044,605756004,"KAZURA GARDEN,TIRUKKOYILUR","SM BUILDING,KAZURA GARDEN,THIRUKOVILUR -605757",30898017,VILLUPURAM,VILLUPURAM,"TAMIL NADU"
"EQUITAS SMALL FINANCE BANK LIMITED",ESFB0001043,625756007,RAMARAJAPURAM,"NO -3/2,MAIN ROAD,RAMARAJAPURAM,DINDIGUL-624219,TAMIL NADU",30898017,MADURAI,MADURAI,"TAMIL NADU"
"EQUITAS SMALL FINANCE BANK LIMITED",ESFB0001042,625756006,RAJAKKAPATTI,"S.NO.515,NEW S.NO.1006/5,RAJAKKAPATTI VILLAGE,SANARPATTI SUBDI PANCHAYAT,DINDUGAL DT -624316,TAMIL NADU",30898017,DINDIGUL,DINDIGUL,"TAMIL NADU"
"EQUITAS SMALL FINANCE BANK LIMITED",ESFB0001041,620756005,"PERUMAL MALAI ADIVARAM","NO 30,CYLONE OFFICE,PERUMAL MALAI ADIVARAM PO.THURAIYUR -621010. ( NEAR LM HOSPITAL ),TAMIL NADU",30898015,TRICHY,TRICHY,"TAMIL NADU"
"EQUITAS SMALL FINANCE BANK LIMITED",ESFB0001040,612756005,NARASINGAMPETTAI,"NO -37/ 6,7,8,9,MAYILADUTHURAI MAIN ROAD,NARASINGAMPETTAI ( PO).ADUTHURAI 612101,TAMIL NADU",30898015,TANJAVUR,TANJAVUR,"TAMIL NADU"
"EQUITAS SMALL FINANCE BANK LIMITED",ESFB0001039,624756103,NAGANAPATTI,"O-10/1,KSCOMPLEX,VEDACHANDURROAD,CHECKPOST,AGANAPATTYPIRIVU,ODDANCHATTARM,DINDUGALDIST-624619,TAMILADU",30898015,DINDIGUL,DINDIGUL,"TAMIL NADU"
"EQUITAS SMALL FINANCE BANK LIMITED",ESFB0001038,612756004,VALAYAPETTAI,"NO - 110/ 5& 110/ 6,BYE PASS ROAD,WEST STREET,VALAYAPATTI VILLAGE,MANGUDI -KUMBAKONAM TK -612 702",30898015,TANJAVUR,TANJAVUR,"TAMIL NADU"
"EQUITAS SMALL FINANCE BANK LIMITED",ESFB0001037,630756202,KOOTHANDAM,"PLOT NO.7,ALAGAPURI VILLAGE,KOOTHANDAM,SIVAGANGAI TALUK,SIVAGANGAI DISTRICT,TAMIL NADU",30898017,SIVAGANGAI,SIVAGANGAI,"TAMIL NADU"
"EQUITAS SMALL FINANCE BANK LIMITED",ESFB0001036,625756005,"KEEZHAYUR, MADURAI","DOOR NO -2/1,KEEZHAYUR,MELUR,MADURAI 625102,TAMIL NADU",30898015,MADURAI,MADURAI,"TAMIL NADU"
"EQUITAS SMALL FINANCE BANK LIMITED",ESFB0001035,641756005,KOVILPALKAYAM,"NO -2/21,SATHY MAIN ROAD,KOVILPALAIYAM,COIMBATORE -641107,TAMILNADU",30898015,COIMBATORE,COIMBATORE,"TAMIL NADU"
"EQUITAS SMALL FINANCE BANK LIMITED",ESFB0001034,620756004,SIRUGAMANI,"NO -71 C 2, KARUR MAIN RIAD, PETTAVAITHALAI SOUTH -SIRUGAMANI-TRICHY -639112.",30898017,TRICHY,TRICHY,"TAMIL NADU"
"EQUITAS SMALL FINANCE BANK LIMITED",ESFB0001033,621756003,CHINNAVALYAM,"MALAYSAIA AMMAN TOWERS,28A CHIDAMBARAM ROAD,CHINNAVALAYAM,JAYAMKONDAN - 621802",30898015,ARIYALUR,ARIYALUR,"TAMIL NADU"
"EQUITAS SMALL FINANCE BANK LIMITED",ESFB0001032,600756012,"KRISHNAPURAM, PONNERI","Old S.No.79/2, New S.No.393/6, Krishnapuram Village, Ponneri Taluk, Thiruvallur District, Tamilnadu",30898015,TIRUVALLUR,TIRUVALLUR,"TAMIL NADU"
"EQUITAS SMALL FINANCE BANK LIMITED",ESFB0001031,600756011,"KESAVAPURAM, NALLUR","NO-4,KALAINGAR NAGAR,KESAVAPURAM,NALUR,MINJUR ( PO),PONNERI TALUK,601203",30898015,TIRUVALLUR,TIRUVALLUR,"TAMIL NADU"
"EQUITAS SMALL FINANCE BANK LIMITED",ESFB0001030,612756003,ANAIKARAI,"NO 254,THATHUVACHERY MAIN ROAD,THATHUVACHERY( PO),ANAKARAI -THANJAVUR -612 502",30898015,TANJAVUR,TANJAVUR,"TAMIL NADU"
"EQUITAS SMALL FINANCE BANK LIMITED",ESFB0001029,641756004,"TRICHY ROAD, COIMBATORE","J.S EMPIRE,DOOR NO 1417,TRICHY ROAD,COIMBATORE - 641018",30898015,COIMBATORE,COIMBATORE,"TAMIL NADU"
"EQUITAS SMALL FINANCE BANK LIMITED",ESFB0001028,625756004,"K K NAGAR, MADURAI","80 FEET ROAD,K.K.NAGAR,MADURAI-20,TAMIL NADU",30898015,MADURAI,MADURAI,"TAMIL NADU"
"EQUITAS SMALL FINANCE BANK LIMITED",ESFB0001027,600756010,NANGANALLUR,"NO.14,THILLAIGANGA NAGAR,26TH STREET,NANGANALLUR,CHENNAI-600061,TAMILNADU",30898015,KANCHIPURAM,KANCHIPURAM,"TAMIL NADU"
"EQUITAS SMALL FINANCE BANK LIMITED",ESFB0001026,641756003,"GANDHIPURAM,COIMBATORE","SRI SHANMUGAA TOWERS,NO 51,9TH STREET,TATABAD,GANDHIPURAM,COIMBATORE-641012",30898015,COIMBATORE,COIMBATORE,"TAMIL NADU"
"EQUITAS SMALL FINANCE BANK LIMITED",ESFB0001025,600756009,MOGAPPAIR,"PLOT NO.4/7,HIG TYPE,FIRST FLOOR,MOGAPPAIR WEST,NOLAMBUR,CHENNAI - 600037,TAMIL NADU",30898017,TIRUVALLUR,TIRUVALLUR,"TAMIL NADU"
"EQUITAS SMALL FINANCE BANK LIMITED",ESFB0001024,600756008,SALIGRAMAM,"OLD DOOR NO.25 PART,NEW DOOR NO.34 PART,S.S.R.PANKAJAM ROAD,SALIGRAMAM VILLAGE,CHENNAI-600093",30898015,CHENNAI,CHENNAI,"TAMIL NADU"
"EQUITAS SMALL FINANCE BANK LIMITED",ESFB0001023,632756002,"KATPADI ROAD, VELLORE TOWN","NO 1,BLOCK NO 5,KATPADI ROAD,DHARMARAJA KOVIL STREET,VELLORE TOWN,VELLORE DISTRICT,TAMILNADU",30898017,VELLORE,VELLORE,"TAMIL NADU"
"EQUITAS SMALL FINANCE BANK LIMITED",ESFB0001022,600756007,MADIBAKKAM,"NO -246,MADIPAKKAM MAIN ROAD,MADIPAKKAM,CHENNAI -91,TAMIL NADU",30898017,CHENNAI,CHENNAI,"TAMIL NADU"
"EQUITAS SMALL FINANCE BANK LIMITED",ESFB0001021,605756003,"MANJAKUPPAM CUDDALORE","No 13A, Nethaji Road, Manjakuppam, Cuddalore - 607001, Tamil Nadu.",30898015,CUDDALORE,CUDDALORE,"TAMIL NADU"
"EQUITAS SMALL FINANCE BANK LIMITED",ESFB0001020,612756002,KUMBAKONAM,"No 106,Sarangapani East Street,Kumbakonam-612 001.",30898017,TANJAVUR,TANJAVUR,"TAMIL NADU"
"EQUITAS SMALL FINANCE BANK LIMITED",ESFB0001019,613756002,THANJAVUR,"NO -1889,SOUTH MAIN STREET,THANJAVUR -613 001",30898017,TANJAVUR,TANJAVUR,"TAMIL NADU"
"EQUITAS SMALL FINANCE BANK LIMITED",ESFB0001018,620756003,"SRIRANGAM TRICHY","NO - 14,G-1,EVS STREET,RENGANATHAPURAM,SRIRANGAM,TRICHY - 620006,TAMIL NADU",30898017,TRICHY,TRICHY,"TAMIL NADU"
"EQUITAS SMALL FINANCE BANK LIMITED",ESFB0001017,620756002,"THILLAI NAGAR TRICHY","OLD NO -C55,NEW NO -C 15,ANANDAMS PLAZA,THILLAI NAGAR,10TH B CROSS,TRICHY,620018 TAMIL NADU",30898015,TRICHY,TRICHY,"TAMIL NADU"
"EQUITAS SMALL FINANCE BANK LIMITED",ESFB0001016,622756002,PUDUKOTTAI,"Muthu Meena Complex,Santhanapuram 5Th Street,Near New Bus Stand,Pudukottai-622 001.",30898015,PUDUKOTTAI,PUDUKOTTAI,"TAMIL NADU"
"EQUITAS SMALL FINANCE BANK LIMITED",ESFB0001015,625756003,"DINDIGUL MAIN","NO - 94,THIRUVALLUVAR SALAI,DINDUGAL 624001,TAMILNADU",30898015,DINDIGUL,DINDIGUL,"TAMIL NADU"
"EQUITAS SMALL FINANCE BANK LIMITED",ESFB0001014,626756302,VIRUDHUNAGAR,"NO -103/1,MADURAI ROAD,VIRUDHUNAGAR,626001 TAMIL NADU",30898015,VIRUDUNAGAR,VIRUDUNAGAR,"TAMIL NADU"
"EQUITAS SMALL FINANCE BANK LIMITED",ESFB0001013,626756102,RAJAPALAYAM,"NO - 598,TENKASI ROAD,RAJAPALAYAM,PINCODE -626117",30898015,VIRUDUNAGAR,VIRUDUNAGAR,"TAMIL NADU"
"EQUITAS SMALL FINANCE BANK LIMITED",ESFB0001012,627756002,"THILAK NAGAR TIRUNELVELI","NO - 9L/10/1,THATCHANALLURROAD,THILAK NAGAR,TIRUNELVELI -627006,TAMIL NADU",30898015,TIRUNELVELI,IUVI,"TAMIL NADU"
"EQUITAS SMALL FINANCE BANK LIMITED",ESFB0001011,636756002,"PARAMATHI VELUR NAMAKKAL","NO - 74F,PONNI NAGAR,OPP SARATHY TVS,PARAMATHI VELUR,NAMAKKAL -638181",30898015,SALEM,AE,"TAMIL NADU"
"EQUITAS SMALL FINANCE BANK LIMITED",ESFB0001010,638756402,SATHYAMANGALAM,"NO 335,BAZZAR STREET,SATHYAMANGALAM,ERODE-638401",30898015,ERODE,ERODE,"TAMIL NADU"
"EQUITAS SMALL FINANCE BANK LIMITED",ESFB0001009,641756002,"R S PURAM COIMBATORE","NO - 7-1 AROKIASAMY ROAD EAST,R S PURAM,COIMBATORE-641002",30898015,COIMBATORE,COIMBATORE,"TAMIL NADU"
"EQUITAS SMALL FINANCE BANK LIMITED",ESFB0001008,641756102,"PALLADAM RURAL","NO - 8/442,ARULPURAM PO,KARAIPUDHUR VILLAGE,PALLADAM TK,TRIPPUR - 641605,TAMIL NADU",30898017,COIMBATORE,COIMBATORE,"TAMIL NADU"
"EQUITAS SMALL FINANCE BANK LIMITED",ESFB0001007,625756002,"KAMARAJAR SALAI MADURAI","T S NO 1O& 14,NO 220,KAMARAJAR SALAI,MUNICHALAI,MADURAI 625009",30898015,MADURAI,MADURAI,"TAMIL NADU"
"EQUITAS SMALL FINANCE BANK LIMITED",ESFB0001006,600756006,TAMBARAM,"NO-128,RAJAJI ROAD,TAMBARAM WEST,CHENNAI -45",30898017,CHENNAI,CHENNAI,"TAMIL NADU"
"EQUITAS SMALL FINANCE BANK LIMITED",ESFB0001005,605756002,PONDICHERRY,"NO -4&5,VALLAR SALAI,45 FEET ROAD,PONDICHERRY -605011",30898015,PONDICHERRY,PONDICHERRY,PUDUCHERRY
"EQUITAS SMALL FINANCE BANK LIMITED",ESFB0001004,600756005,VELACHERY,"NO-9/71,8TH AVENUE,7TH MAIN ROAD,DHANDEESWAR NAGAR EXTENSION,VELACHERRY,CHENNAI-600 042,TAMIL NADU",30898015,CHENNAI,CHENNAI,"TAMIL NADU"
"EQUITAS SMALL FINANCE BANK LIMITED",ESFB0001003,600756004,"ASHOK NAGAR","NO 82,4TH AVENUE,ASHOK NAGAR - CHENNAI 600083,TAMILNADU",30898017,CHENNAI,CHENNAI,"TAMIL NADU"
"EQUITAS SMALL FINANCE BANK LIMITED",ESFB0001002,600756003,"ANNA NAGAR","O-AH2,AH4,4THAVENUE,FIRSTFLOOR,SHANTHICOLONYMAINROAD,ANNAAGAR-CHENNAI600040,TAMILADU",30898015,CHENNAI,CHENNAI,"TAMIL NADU"
"EQUITAS SMALL FINANCE BANK LIMITED",ESFB0001001,600756002,"T NAGAR CHENNAI","BHAGGYAM GALLERIA,OLD NO.80 / NEW.NO.18 BAZULLA ROAD,T-NAGAR,CHENNAI-600018",30898017,CHENNAI,CHENNAI,"TAMIL NADU"
"EQUITAS SMALL FINANCE BANK LIMITED",ESFB0000002,NA,"EQUITAS TREASURY","NO 769,PHASE II,4TH FLOOR,SPENCER PLAZA,ANNA SALAI,CHENNAI-600002",30898017,CHENNAI,CHENNAI,"TAMIL NADU"
