BANK,IFSC,MICR,BRANCH,ADDRESS,CONTACT,CITY,DISTRICT,STATE
"ANDHRA PRAGATHI GRAMEENA BANK",APGB0005237,NA,NALADALAPUR,"DOOR NO 2/58,TOORPU BAZAR, NALADALAPUR VILLAGE,VALETIVARIPALEM MANDAL, PRAKASAM(DIST),ANDHRA PRADESH. PIN - 523113",8985519957,NALADALAPUR,PRAKASAM,"ANDHRA PRADESH"
"ANDHRA PRAGATHI GRAMEENA BANK",APGB0005235,NA,AYINAMUKKALA,"4/264-H,K.G.ROAD,PEDDA DORNALA,AYINAMUKKALA,PRAKASAM(DIST),ANDHRA PRADESH. PIN-523331",8985519971,"PEDDA DRONALA AYINAMUKKALA",PRAKASAM,"ANDHRA PRADESH"
"ANDHRA PRAGATHI GRAMEENA BANK",APGB0005234,NA,"ONGOLE HOUSING BOARD COLONY","DOOR NO 9/16/137, HOUSING BOARD COLONY,ONGOLE TOWN,PRAKASAM(DIST),ANDHRA PRADESH.PIN-523002",8985519976,ONGOLE,PRAKASAM,"ANDHRA PRADESH"
"ANDHRA PRAGATHI GRAMEENA BANK",APGB0005233,NA,TARLUPADU,"DNO 2/59-A, RATHAM BAZAR, NEAR VENUGOPALA SWAMY TEMPLE,TARLUPADU(VILLAGE & POST).PIN-523322. ANDHRA PRADESH",8985519987,TARLUPADU,KURNOOL,"ANDHRA PRADESH"
"ANDHRA PRAGATHI GRAMEENA BANK",APGB0005232,NA,PALLAMALLI,"4/211, NTR BC COLONY,PALLAMALLI(VILLAGE), CHIMAKURTHI(MANDAL),PRAKASAM(DIST),ANDHRA PRADESH, PIN-523263",9490158349,PALLAMALLI,PRAKASAM,"ANDHRA PRADESH"
"ANDHRA PRAGATHI GRAMEENA BANK",APGB0005231,NA,NAGULUPPALAPADU,"DOOR NO 4/61, NEAR POST OFFICE, NAGULUPPALAPADU (VILLAGE & MANDAL),PRAKASAM (DIST),ANDHRA PRADESH. PIN-523183",9441409336,NAGULUPPALAPADU,PRAKASAM,"ANDHRA PRADESH"
"ANDHRA PRAGATHI GRAMEENA BANK",APGB0005230,NA,"B CHERLOPALLI","3/90 NEAR RAMASWAMY TEMPLE,B CHERLOPALLI,PEDDARAVEEDU MANDAL,PRAKASAM DIST,ANDHRA PRADESH. PIN-523320",231110,"B CHERLOPALLI",PRAKASAM,"ANDHRA PRADESH"
"ANDHRA PRAGATHI GRAMEENA BANK",APGB0005229,NA,KUNTA,"D NO 2/7,MAIN ROAD,KUNTA,PEDDARAVEEDU MANDAL,PRAKASAM DIST,PIN-523329,ANDHRA PRADESH",8500299053,KUNTA,PRAKASAM,"ANDHRA PRADESH"
"ANDHRA PRAGATHI GRAMEENA BANK",APGB0005228,NA,CHOUTAPALEM,"DOOR NO 7/84 CHOUTAPALEM PONNALURU MANDAL PRAKASAM DIST",9494038724,CHOUTAPALEM,PRAKASAM,"ANDHRA PRADESH"
"ANDHRA PRAGATHI GRAMEENA BANK",APGB0005227,NA,"TOORPU GANGAVARAM","DOOR NO 7/201 TOORPU GANGAVARAM TALLURU MANDAL PRAKASAM DIST",9494038784,"TOORPU GANGAVARAM",PRAKASAM,"ANDHRA PRADESH"
"ANDHRA PRAGATHI GRAMEENA BANK",APGB0005226,NA,"KRISHNAMSETTY PALLI","SURVEY NO 554, KRISHNAMSETTY PALLI VILLAGE,GIDDALURU MANADAL,PRAKASHAM DISTRICT",242012,"KRISHNAMSETTY PALLI",PRAKASAM,"ANDHRA PRADESH"
"ANDHRA PRAGATHI GRAMEENA BANK",APGB0005225,NA,"ONGOLE SUJATHA NAGAR","DOOR NO. 217/1B,5TH LANE,MAIN ROAD,SUJATHA NAGAR,ONGOLE-523002",233067,ONGOLE,PRAKASAM,"ANDHRA PRADESH"
"ANDHRA PRAGATHI GRAMEENA BANK",APGB0005224,NA,"JAVAHAR NAGAR MARKAPUR","10-378 JAVAHAR NAGAR COLONY MARKAPUR",9493574389,MARKAPUR,PRAKASAM,"ANDHRA PRADESH"
"ANDHRA PRAGATHI GRAMEENA BANK",APGB0005223,NA,"YSR CIRCLE GIDDALURU","8-20-50 YSR CIRCLE KOMAROLU ROAD GIDDALURU",9493596842,GIDDALURU,PRAKASAM,"ANDHRA PRADESH"
"ANDHRA PRAGATHI GRAMEENA BANK",APGB0005222,NA,VALETIVARIPALEM,PRAKASAM,8500366952,VALETIVARIPALEM,PRAKASAM,"ANDHRA PRADESH"
"ANDHRA PRAGATHI GRAMEENA BANK",APGB0005221,NA,PUTTAVARIPALEM,SANTHMAGULURU,9490158402,PUTTAVARTIPALEM,PRAKASAM,"ANDHRA PRADESH"
"ANDHRA PRAGATHI GRAMEENA BANK",APGB0005220,NA,ARIVEMULA,"1 86, ARIVEMULA VILLAGE AND POST, CHANDRASEKHARAPURAM MANDAL",9490158401,CHANDRASEKHARAP,PRAKASAM,"ANDHRA PRADESH"
"ANDHRA PRAGATHI GRAMEENA BANK",APGB0005219,NA,MULAGUNTAPAU,"BEHIND RTC BUSTAND,MULAGUNTAPADU,PINCODE 523101",8331012072,SINGARAYAKONDA,PRAKASAM,"ANDHRA PRADESH"
"ANDHRA PRAGATHI GRAMEENA BANK",APGB0005218,523703015,ULCHI,"ULCHI, VIL & PO, ONGOLE MANDAL, PRAKASAM DISTRICT, PIN-523 182",8331019310,ONGOLE,PRAKASAM,"ANDHRA PRADESH"
"ANDHRA PRAGATHI GRAMEENA BANK",APGB0005217,523703006,INAMANAMELLORE,"INAMANAMELLORE VIL & PO, MADDIPADU MANDAL,  PRAKASAM DISTRICT, PIN-523 211",8331019311,ONGOLE,PRAKASAM,"ANDHRA PRADESH"
"ANDHRA PRAGATHI GRAMEENA BANK",APGB0005216,523703004,ALLURU,"ALLURU VIL &PO,  KOTHAPATNAM MANDAL, PRAKASAM DISTRICT, PIN-523 286",7382609271,ONGOLE,PRAKASAM,"ANDHRA PRADESH"
"ANDHRA PRAGATHI GRAMEENA BANK",APGB0005215,523703011,"ONGOLE, KAMMAPALEM","D. NO. 42-1-194/14, EAST KAMMAPALEM, ONGOLE TOWN, PRAKASAM DISTRICT,  PIN-523001",7382633820,ONGOLE,PRAKASAM,"ANDHRA PRADESH"
"ANDHRA PRAGATHI GRAMEENA BANK",APGB0005214,523703671,KOLALAPUDI,"KOLALAPUDI VILLAGE & POST, MARTURU MANDAL, PRAKASAM DISTRICT, PIN-523261",7382633816,MARTURU,PRAKASAM,"ANDHRA PRADESH"
"ANDHRA PRAGATHI GRAMEENA BANK",APGB0005213,523703625,RAJAMPALLI,"RAJAMPALLI VILLAGE, DARSI MANDAL, PRAKASAM DISTRICT,PIN-523 247",7382633708,PODILI,PRAKASAM,"ANDHRA PRADESH"
"ANDHRA PRAGATHI GRAMEENA BANK",APGB0005212,523703008,MARLAPADU,"MARLAPADU VILLAGE & POST, TANGUTUR MANDAL, PRAKASAM DISTRICT, PIN-523 272",7382633703,ONGOLE,PRAKASAM,"ANDHRA PRADESH"
"ANDHRA PRAGATHI GRAMEENA BANK",APGB0005211,523703804,PETLUR,"PETLUR VILLAGE KONDEPI MANDAL PRAKASAM DISTRICT,  PIN-523270",7382633702,KONDAPI,PRAKASAM,"ANDHRA PRADESH"
"ANDHRA PRAGATHI GRAMEENA BANK",APGB0005210,523703683,"KANDUKUR, KANIGIRI ROAD","H.NO.20-4-87, SWARNA COMPLEX, NANDAVARI STREET, KANIGIRI ROAD, KANDUKURU MANDAL, PRAKASAM DISTRICT PIN-523 105",7382633701,KANDUKUR,PRAKASAM,"ANDHRA PRADESH"
"ANDHRA PRAGATHI GRAMEENA BANK",APGB0005209,523703662,YADDANAPUDI,"D.NO.1-178, YADDANAPUDI  VIL  YADDANAPUDIPO& MANDAL, PRAKASAM DISTRICT PIN- 523 301",7382600216,YADDANAPUDI,PRAKASAM,"ANDHRA PRADESH"
"ANDHRA PRAGATHI GRAMEENA BANK",APGB0005208,523703642,"J. PANGULURU","D.NO.2/54, J. PANGULURU, J. PANGULURU  MANDAL, PRAKASAM DISTRICT PIN- 523 261",258115,PANGULURU,PRAKASAM,"ANDHRA PRADESH"
"ANDHRA PRAGATHI GRAMEENA BANK",APGB0005207,523703104,"CHIRALA (RURAL)","D.NO 8/31-156/1, VODAREVU ROAD, PERALA , CHIRALA (RURAL) VILLAGE &POST, CHIRALA MANDAL, PRAKASAM DIST -523  155",7382600205,CHIRALA,PRAKASAM,"ANDHRA PRADESH"
"ANDHRA PRAGATHI GRAMEENA BANK",APGB0005206,523703684,"VEERA RAGHAVUNI KOTA","V.R.KOTA-523113 H.NO:4-43-A,VEERA RAGHAVUNI KOTA V & POST LINGA SAMUDRAM MANDAL, PRAKASAM (D)",9491308340,KANDUKUR,PRAKASAM,"ANDHRA PRADESH"
"ANDHRA PRAGATHI GRAMEENA BANK",APGB0005205,523703014,THROVAGUNTA,"D.NO.2-13, MAIN ROAD, THROVAGUNTA VIL & PO, ONGOLE MANDAL, PRAKASAM  DISTRICT PIN- 523 262",246669,ONGOLE,PRAKASAM,"ANDHRA PRADESH"
"ANDHRA PRAGATHI GRAMEENA BANK",APGB0005204,523703010,"GANDHI BAZAR, ONGOLE","GANDHI BAZAR-523001,D.NO:26-1-67/68, PAPPU BAZAR, GANDHI ROAD, ONGOLE,PRAKASAM(DIST)",281369,ONGOLE,PRAKASAM,"ANDHRA PRADESH"
"ANDHRA PRAGATHI GRAMEENA BANK",APGB0005203,523703013,SANTHANUTHALAPADU,"D.NO.3-33, SANTHANUTHALAPADU VILLAGE & POST, SANTHANUTHALAPADU MANDAL PRAKASAM DISTRICT PIN-523 225",276559,SANTHANUTHALAPADU,PRAKASAM,"ANDHRA PRADESH"
"ANDHRA PRAGATHI GRAMEENA BANK",APGB0005202,523703016,TANGUTURU,"G.T. ROAD, TANGUTURU VILLAGE & MANDAL, PRAKASAM DISTRICT PIN-523 274",242075,TANGUTURU,PRAKASAM,"ANDHRA PRADESH"
"ANDHRA PRAGATHI GRAMEENA BANK",APGB0005201,523703722,CHINAGANJAM,"D.NO.2/128, 1 FLOOR, MAIN ROAD, CHINAGANJAM (VIL & MANDAL), PRAKASAM DISTRICT PIN-523 135",241170,CHINAGANJAM,PRAKASAM,"ANDHRA PRADESH"
"ANDHRA PRAGATHI GRAMEENA BANK",APGB0005200,523703723,UPPUGUNDUR,"D.NO.5-41/1, UPPUGUNDURU VILLAGE, NAGULUPPALAPADU MANDAL, PRAKASAM DISTRICT PIN-523 186",275155,UPPUGUNDUR,PRAKASAM,"ANDHRA PRADESH"
"ANDHRA PRAGATHI GRAMEENA BANK",APGB0005199,523703724,INKOLLU,"INKOLLUU - 523186 D.NO:11-121, PARUCHURU ROADINKOLLU (V) & (M), PRAKASAM (DIST).",244170,INKOLLU,PRAKASAM,"ANDHRA PRADESH"
"ANDHRA PRAGATHI GRAMEENA BANK",APGB0005198,523703643,KAMEPALLY,"D.NO.3/70, KAMEPALLI,JARUGUMILLI MANDAL, PRAKASAM DISTRICT, PIN-523 271",231369,KAMEPALLY,PRAKASAM,"ANDHRA PRADESH"
"ANDHRA PRAGATHI GRAMEENA BANK",APGB0005197,523703644,VALAPARLA,"D.NO.5-31, I FLOOR VALAPARLA,  MARTUR MANDAL, PRAKASAM DISTRICT,  PIN- 523 260",275199,VALAPARLA,PRAKASAM,"ANDHRA PRADESH"
"ANDHRA PRAGATHI GRAMEENA BANK",APGB0005196,523703103,KOTHAPETA,"KOTHAPETA-523 157 D.NO.9-14-6, E-SEVA BUILDING, BANK COLONY, KOTHAPETA VILLAGEAGE, VETAPALEM MANDAL, PRAKASAM DISTRICT",237722,CHIRALA,PRAKASAM,"ANDHRA PRADESH"
"ANDHRA PRAGATHI GRAMEENA BANK",APGB0005195,523703012,PERNAMITTA,"PERNAMITTA-523 225 D.NO.1-60-1, SANTHANUTHALAPADU MANDAL PRAKASAM DISTRICT",256699,ONGOLE,PRAKASAM,"ANDHRA PRADESH"
"ANDHRA PRAGATHI GRAMEENA BANK",APGB0005194,523703645,MUPPAVARAM,"MUPPAVARAM-523 261 J. PANGALURU MANDAL PRAKASAM DISTRICT",257100,MUPPAVARAM,PRAKASAM,"ANDHRA PRADESH"
"ANDHRA PRAGATHI GRAMEENA BANK",APGB0005193,523703502,KOMAROLE,"KOMAROLU-523 373 D.NO.5-243, SRIRAM NAGAR,  KOMAROLU MANDAL, PRAKASAM DISTRICT",248001,KOMAROLE,PRAKASAM,"ANDHRA PRADESH"
"ANDHRA PRAGATHI GRAMEENA BANK",APGB0005192,523703670,CHERUKURU,"CHERUKURU-522 118 PARACHARU MANDAL PRAKASAM DISTRICT",240599,PARCHOOR,PRAKASAM,"ANDHRA PRADESH"
"ANDHRA PRAGATHI GRAMEENA BANK",APGB0005191,523703602,KANIGIRI,"KANIGIRI ┬û523230 KANIGIRI MANDAL PRAKASAM DISTRICT",274004,KANIGIRI,PRAKASAM,"ANDHRA PRADESH"
"ANDHRA PRAGATHI GRAMEENA BANK",APGB0005188,523703102,CHIRALA,"CHIRALA ┬û 523155 CHIRALA MANDAL PRAKASAM DISTRICT",237303,CHIRALA,PRAKASAM,"ANDHRA PRADESH"
"ANDHRA PRAGATHI GRAMEENA BANK",APGB0005186,523703682,KANDUKUR,"KANDUKURU ┬û 523105 KANDUKURU MANDAL PRAKASAM DISTRICT",223907,KANDUKUR,PRAKASAM,"ANDHRA PRADESH"
"ANDHRA PRAGATHI GRAMEENA BANK",APGB0005169,523703646,ADDANKI,"ADDANKI -523201 ADDANKI MANDAL PRAKASAM DISTRICT",223214,ADDANKI,PRAKASAM,"ANDHRA PRADESH"
"ANDHRA PRAGATHI GRAMEENA BANK",APGB0005168,523703009,"ONGOLE- MAIN","ONGOLE  MAIN BRANCH OPP: RTC BUS STAND,  ONGOLE PRAKASAM DISTRICT. PIN 523002",233067,ONGOLE,PRAKASAM,"ANDHRA PRADESH"
"ANDHRA PRAGATHI GRAMEENA BANK",APGB0005159,523703624,AVULAMANDA,"AVULAMANDA -523304 KURICHEDU MANDAL PRAKASAM DISTRICT",275108,AVULAMANDA,PRAKASAM,"ANDHRA PRADESH"
"ANDHRA PRAGATHI GRAMEENA BANK",APGB0005158,523703586,MARRIPUDI,"MARRIPUDI - 523242 MARRIPUDI MANDAL PRAKASAM DISTRICT",240619,MARRIPUDI,PRAKASAM,"ANDHRA PRADESH"
"ANDHRA PRAGATHI GRAMEENA BANK",APGB0005152,523703669,NUTHALAPADU,"NUTHALAPADU ┬û 523169 PARCHUR MANDAL PRAKASAM DISTRICT",249220,NUTHALAPADU,PRAKASAM,"ANDHRA PRADESH"
"ANDHRA PRAGATHI GRAMEENA BANK",APGB0005132,523703503,TRIPURANTAKAM,"TRIPURANTHAKAM-523326 TRIPURANTAKAM MANDAL PRAKASAM DISTRICT",256221,TRIPURANTHAKAM,PRAKASAM,"ANDHRA PRADESH"
"ANDHRA PRAGATHI GRAMEENA BANK",APGB0005130,523703508,"NAIDU PALEM","NAIDUPALEM-523327 PULLALACHERUVU MANDAL PRAKASAM DISTRICT",205050,"NAIDU PALEM",PRAKASAM,"ANDHRA PRADESH"
"ANDHRA PRAGATHI GRAMEENA BANK",APGB0005111,523703204,THIPPAYAPALEM,"THIPPAYAPALEM-523329 MARKAPUR MANDAL PRAKASAM DISTRICT",220110,THIPPAYAPALEM,PRAKASAM,"ANDHRA PRADESH"
"ANDHRA PRAGATHI GRAMEENA BANK",APGB0005110,523703002,"MUNGAMUR ROAD, ONGOLE BRANCH","ONGOLE  MUNGAMUR ROAD BRANCH MUNGAMUR  ROAD,  ONGOLE  PRAKASAM DISTRICT.  PIN 523002",235290,ONGOLE,PRAKASAM,"ANDHRA PRADESH"
"ANDHRA PRAGATHI GRAMEENA BANK",APGB0005109,523703663,PARCHOOR,"PARCHURU ┬û 523169 PARCHURU MANDAL PRAKASAM DISTRICT",243599,PARCHOOR,PRAKASAM,"ANDHRA PRADESH"
"ANDHRA PRAGATHI GRAMEENA BANK",APGB0005108,523703726,"PANDILLA  PALLE","PANDILLAPALLI ┬û 523184 VETAPALEM MANDAL PRAKASAM DISTRICT",247142,"PANDILLA  PALLE",PRAKASAM,"ANDHRA PRADESH"
"ANDHRA PRAGATHI GRAMEENA BANK",APGB0005107,523703664,KARAMCHEDU,"KARAMCHEDU ┬û 523168 KARAMCHEDU MANDAL PRAKASAM DISTRICT",242155,KARAMCHEDU,PRAKASAM,"ANDHRA PRADESH"
"ANDHRA PRAGATHI GRAMEENA BANK",APGB0005106,523703622,DARSI,"DARSI ┬û 523247 DARSI MANDAL PRAKASAM DISTRICT",253570,DARSI,PRAKASAM,"ANDHRA PRADESH"
"ANDHRA PRAGATHI GRAMEENA BANK",APGB0005105,523703665,MARTURU,"MARTURU ┬û 523301 MARTURU MANDAL PRAKASAM DISTRICT",272211,MARTURU,PRAKASAM,"ANDHRA PRADESH"
"ANDHRA PRAGATHI GRAMEENA BANK",APGB0005102,523703686,SINGARAYAKONDA,"SINGARAYAKONDA ┬û523101  SINGARAYAKONDA MANDAL PRAKASAM DISTRICT",238107,SINGARAYAKONDA,PRAKASAM,"ANDHRA PRADESH"
"ANDHRA PRAGATHI GRAMEENA BANK",APGB0005099,523703623,KURICHEDU,"KURICHEDU ┬û 523304 KURICHEDU MANDAL PRAKASAM DISTRICT",276131,KURICHEDU,PRAKASAM,"ANDHRA PRADESH"
"ANDHRA PRAGATHI GRAMEENA BANK",APGB0005098,523703203,GAJJALAKONDA,"GAJJALAKONDA-523315 MARKAPUR MANDAL PRAKASAM DISTRICT",247234,GAJJALAKONDA,PRAKASAM,"ANDHRA PRADESH"
"ANDHRA PRAGATHI GRAMEENA BANK",APGB0005096,523703702,PAMUR,"PAMURU ┬û 523108 PAMURU MANDAL PRAKASAM DISTRICT",246888,PAMUR,PRAKASAM,"ANDHRA PRADESH"
"ANDHRA PRAGATHI GRAMEENA BANK",APGB0005095,523703762,ULAVAPADU,"ULAVAPADU ┬û 523292 ULAVAPADU MANDAL PRAKASAM DISTRICT",274921,ULAVAPADU,PRAKASAM,"ANDHRA PRADESH"
"ANDHRA PRAGATHI GRAMEENA BANK",APGB0005094,523703647,"MEDARAMETLA BRANCH","MEDARAMETLA ┬û523212 KORISAPDU MANDAL PRAKASAM DISTRICT",252996,KORISAPADU,PRAKASAM,"ANDHRA PRADESH"
"ANDHRA PRAGATHI GRAMEENA BANK",APGB0005092,523703003,"ONGOLE MARKET CENTRE","ONGOLEMARKET CENTRE  BRANCH SANTHAPETA,  ONGOLE, PRAKASAM DISTRICT.  PIN  523002",227500,ONGOLE,PRAKASAM,"ANDHRA PRADESH"
"ANDHRA PRAGATHI GRAMEENA BANK",APGB0005091,523703507,PULLALACHERUVU,"PULLALACHERUVU-523328 PULLALACHERUVU MANDAL PRAKASAM DISTRICT",252257,PULLALACHERUVU,PRAKASAM,"ANDHRA PRADESH"
"ANDHRA PRAGATHI GRAMEENA BANK",APGB0005090,523703582,PODILI,"PODILI ┬û 523240 PODILI MANDAL PRAKASAM DISTRICT",243786,PODILI,PRAKASAM,"ANDHRA PRADESH"
"ANDHRA PRAGATHI GRAMEENA BANK",APGB0005089,523703802,KONDAPI,"KONDAPI ┬û 523270 KONDAPI MANDAL PRAKASAM DISTRICT",225210,KONDAPI,PRAKASAM,"ANDHRA PRADESH"
"ANDHRA PRAGATHI GRAMEENA BANK",APGB0005088,523703506,AMMANAGUDIPADU,"AMMANAGUDIPADU ┬û 523330 DUPADU(S.O.)  YERRAGONDAPALEM MANDAL, PRAKASAM DISTRICT",228341,AMMANAGUDIPADU,PRAKASAM,"ANDHRA PRADESH"
"ANDHRA PRAGATHI GRAMEENA BANK",APGB0005086,523703505,GALIZERUGULLA,"GALIZERUGULLA-523346 BESTAVARIPET  MANDAL PRAKASAM DISTRICT",200088,GALIZERUGULLA,PRAKASAM,"ANDHRA PRADESH"
"ANDHRA PRAGATHI GRAMEENA BANK",APGB0005085,523703583,CHIMAKURTHI,"CHIMAKURTHI ┬û 523226 CHIMAKURTHI MANDAL PRAKASAM DISTRICT",272660,CHIMAKURTHI,PRAKASAM,"ANDHRA PRADESH"
"ANDHRA PRAGATHI GRAMEENA BANK",APGB0005082,523703668,KOPPERAPADU,"KOPPERAPADU ┬û 523303 BALLIKURAVA MANDAL PRAKASAM DISTRICT",278202,KOPPERAPADU,PRAKASAM,"ANDHRA PRADESH"
"ANDHRA PRAGATHI GRAMEENA BANK",APGB0005080,523703585,BODDIKURAPADU,"BODDIKURAPADU -523253 (VIA)UPPALAPADU,  TALLURU MANDAL PRAKASAM DISTRICT",259100,BODDIKURAPADU,PRAKASAM,"ANDHRA PRADESH"
"ANDHRA PRAGATHI GRAMEENA BANK",APGB0005078,523703725,EEDUMUDI,"EEDUMUDI ┬û 523186 NAGULUPPALAPADU MANDAL PRAKASAM DISTRICT",275262,EEDUMUDI,PRAKASAM,"ANDHRA PRADESH"
"ANDHRA PRAGATHI GRAMEENA BANK",APGB0005070,523703649,PAMIDIPADU,"PAMIDIPADU ┬û 523216 KORISAPADU MANDAL PRAKASAM DISTRICT",256430,PAMIDIPADU,PRAKASAM,"ANDHRA PRADESH"
"ANDHRA PRAGATHI GRAMEENA BANK",APGB0005069,523703542,CUMBUM,"CUMBUM-523333 14-12, MARKET STREET,  CUMBUM MANDAL PRAKASAM DISTRICT",232282,CUMBUM,PRAKASAM,"ANDHRA PRADESH"
"ANDHRA PRAGATHI GRAMEENA BANK",APGB0005068,523703524,MUNDLAPADU,"MUNDLAPADU-523367 GIDDALUR MANDAL PRAKASAM DISTRICT",245033,GIDDALUR,PRAKASAM,"ANDHRA PRADESH"
"ANDHRA PRAGATHI GRAMEENA BANK",APGB0005064,523703007,KARUMANCHI,"KARUMANCHI ┬û 523272 TANGUTUR MANDAL PRAKASAM DISTRICT",277090,KARUMANCHI,PRAKASAM,"ANDHRA PRADESH"
"ANDHRA PRAGATHI GRAMEENA BANK",APGB0005063,523703563,VEMULAPADU,"VEMULAPADU ┬û 523246  HANUMANTHUNIPADU MANDAL PRAKASAM DISTRICT",270222,VEMULAPADU,PRAKASAM,"ANDHRA PRADESH"
"ANDHRA PRAGATHI GRAMEENA BANK",APGB0005062,523703648,KUNDURU,"KUNDURU ┬û 523303  SANTHAMAGULUR MANDAL PRAKASAM DISTRICT",273221,KUNDURU,PRAKASAM,"ANDHRA PRADESH"
"ANDHRA PRAGATHI GRAMEENA BANK",APGB0005061,523703803,CHODAVARAM,"CHODAVARAM ┬û 523279 KONDEPI MANDAL PRAKASAM DISTRICT",249319,CHODAVARAM,PRAKASAM,"ANDHRA PRADESH"
"ANDHRA PRAGATHI GRAMEENA BANK",APGB0005060,523703667,BALLIKURAVA,"BALLIKURAVA -523301 BALLIKURAVA MANDAL PRAKASAM DISTRICT",274426,BALLIKURAVA,PRAKASAM,"ANDHRA PRADESH"
"ANDHRA PRAGATHI GRAMEENA BANK",APGB0005059,523703522,GIDDALUR,"GIDDALUR-523357 GIDDALUR MANDAL PRAKASAM DISTRICT",242012,GIDDALUR,PRAKASAM,"ANDHRA PRADESH"
"ANDHRA PRAGATHI GRAMEENA BANK",APGB0005058,523703504,YERRAGONDAPALEM,"YERRAGONDAPALEM-523327 2/168-1, JNR COMPLEX,  BRAHMAMGARI TEMPLE STREET,  YERRAGONDAPALEM MANDAL PRAKASAM DISTRICT",254239,YERRAGONDAPALEM,PRAKASAM,"ANDHRA PRADESH"
"ANDHRA PRAGATHI GRAMEENA BANK",APGB0005057,523703603,PEDACHERLOPALLI,"PEDACHERLOPALLI -523111 PEDACHERLO PALLI MANDAL PRAKASAM DISTRICT",241183,PEDACHERLOPALLI,PRAKASAM,"ANDHRA PRADESH"
"ANDHRA PRAGATHI GRAMEENA BANK",APGB0005056,523703584,MADDULUR,"MADDULURU ┬û 523226  SANTHANUTHALAPADU MANDAL PRAKASAM DISTRICT",254356,MADDULUR,PRAKASAM,"ANDHRA PRADESH"
"ANDHRA PRAGATHI GRAMEENA BANK",APGB0005055,523703666,DRONADULA,"DRONADULA ┬û 523190 MARTUR MANDAL PRAKASAM DISTRICT",279255,DRONADULA,PRAKASAM,"ANDHRA PRADESH"
"ANDHRA PRAGATHI GRAMEENA BANK",APGB0005054,523703685,TETTU(MOCHERLA),"TETTU ┬û 523291 GUDLUR MANDAL PRAKASAM DISTRICT",278246,TETTU(MOCHERLA),PRAKASAM,"ANDHRA PRADESH"
"ANDHRA PRAGATHI GRAMEENA BANK",APGB0005053,523703626,MUNDLAMUR,"MUNDLAMURU ┬û 523264 MUNDLAMURU MANDAL PRAKASAM DISTRICT",257027,MUNDLAMUR,PRAKASAM,"ANDHRA PRADESH"
"ANDHRA PRAGATHI GRAMEENA BANK",APGB0005052,523703543,BESTAVARIPET,"BESTAVARIPET ┬û 523334 BESTAVARIPET MANDAL PRAKASAM DISTRICT",237283,BESTAVARAPETA,PRAKASAM,"ANDHRA PRADESH"
"ANDHRA PRAGATHI GRAMEENA BANK",APGB0005051,523703005,EDUGUNDLAPADU,"EDUGUNDLAPADU ┬û 523269  MADDIPADU MANDAL PRAKASAM DISTRICT",247305,EDUGUNDLAPADU,PRAKASAM,"ANDHRA PRADESH"
"ANDHRA PRAGATHI GRAMEENA BANK",APGB0005046,523703202,MARKAPUR,"MARKAPUR-523316 NEHRU BAZAR,  MARKAPUR MANDAL PRAKASAM DISTRICT",222633,MARKAPUR,PRAKASAM,"ANDHRA PRADESH"
"ANDHRA PRAGATHI GRAMEENA BANK",APGB0005045,523703523,RACHERLA,"RACHERLA-523368 RACHERLA MANDAL PRAKASAM DISTRICT",247444,RACHERLA,PRAKASAM,"ANDHRA PRADESH"
"ANDHRA PRAGATHI GRAMEENA BANK",APGB0005044,523703544,ARTHAVEEDU,"ARTHAVEEDU ┬û 523355 MAIN ROAD, (VIA) CUMBUM,  ARTHAVEEDU MANDAL PRAKASAM DISTRICT",235322,ARDHAVEEDU,PRAKASAM,"ANDHRA PRADESH"
"ANDHRA PRAGATHI GRAMEENA BANK",APGB0004138,NA,APPARAOPALEM,"DOOR NO 2/29,TOORPU VEEDHI, APPARAOPALEM VILLAGE,ATMAKUR MANDAL,SPS NELLORE DIST,ANDHRA PRADESH. PIN- 524322",8985519969,APPARAOPALEM,"SPS NELLORE","ANDHRA PRADESH"
"ANDHRA PRAGATHI GRAMEENA BANK",APGB0004137,NA,"NELLORE KOTHAKALUVA","DOOR NO 6/6,KOTHA KALUVA CENTER,NELLORE RURAL MANDAL,SPSR NELLORE(DIST),ANDHRA PRADESH. PIN- 524002",8985519967,NELLORE,"SPS NELLORE","ANDHRA PRADESH"
"ANDHRA PRAGATHI GRAMEENA BANK",APGB0004136,NA,MAHIMALUR,"MAIN ROAD,MAHIMALUR VILLAGE,ATMAKUR MANDAL,SPSR NELLORE DISTRICT,ANDHRA PRADESH. PIN-524307",9490158279,MAHIMALUR,"SPSR NELLORE","ANDHRA PRADESH"
"ANDHRA PRAGATHI GRAMEENA BANK",APGB0004135,NA,TUMMALAPENTA,"MAIN ROAD,TUMMALAPENTA VILLAGE,KAVALI MANDAL,SPSR NELLORE DISTRICT,ANDHRA PRADESH",9490158302,TUMMALAPENTA,"SPSR NELLORE","ANDHRA PRADESH"
"ANDHRA PRAGATHI GRAMEENA BANK",APGB0004134,NA,"SULLURUPET-SHAR STREET","3/3/98 BAPUJI COLONY, GOODS SHED ROAD,SHAR BUS STAND CENTER,SULLURUPET MANDAL,SPSR NELLORE DISTRICT, ANDHRA PRADESH",9490158328,SULLURUPET,"SPSR NELLORE","ANDHRA PRADESH"
"ANDHRA PRAGATHI GRAMEENA BANK",APGB0004133,NA,"NELLORE RAMACHANDRAPURAM","DOOR NO 2/2/14/2, GANDLA STREET, DABBALA CENTRE,NAWABPET, NELLORE-524002.SPSR NELLORE(DIST). ANDHRA PRADESH",9494079049,NELLORE,"SPSR NELLORE","ANDHRA PRADESH"
"ANDHRA PRAGATHI GRAMEENA BANK",APGB0004132,NA,REVUR,"D.NO 3/15, SOMASILA ROAD,REVUR,ANANTHASAGARAM(M),PSR NELLORE DIST,ANDHRA PRADESH.PIN-524303",9492362522,REVUR,"PSR NELLORE","ANDHRA PRADESH"
"ANDHRA PRAGATHI GRAMEENA BANK",APGB0004131,NA,MANUBOLU,"DOOR NO 11/4,KODANDARAMAPURAM,MANUBOLU-524405",2324287,MANUBOLU,"SPSR NELLORE","ANDHRA PRADESH"
"ANDHRA PRAGATHI GRAMEENA BANK",APGB0004130,NA,"CHILDREN PARK ROAD NELLORE","16-4-1703-1 BEHIND MURALI KRISHNA MANDIRAM CHILDREN PARK ROAD NELLORE",2326814,NELLORE,NELLORE,"ANDHRA PRADESH"
"ANDHRA PRAGATHI GRAMEENA BANK",APGB0004129,NA,HARRANATHAPURAM-NELLORE,"16-3-1571 SAHAKAR BHAVAN HARANATHAPURAM NELLORE 524003",2318927,NELLORE,NELLORE,"ANDHRA PRADESH"
"ANDHRA PRAGATHI GRAMEENA BANK",APGB0004128,NA,MULAPET-NELLORE,"20-194 BESIDE SRI MAHALAKSHMI TEMPLE BRAHMIN STREET MULAPET NELLORE 524003",2313344,NELLORE,NELLORE,"ANDHRA PRADESH"
"ANDHRA PRAGATHI GRAMEENA BANK",APGB0004127,NA,"DYCUS ROAD BRANCH","25 5 310, SANJAY GANDHI NAGAR, DYCUS ROAD, PDALAKURU ROAD, NELLORE",8331012059,NELLORE,NELLORE,"ANDHRA PRADESH"
"ANDHRA PRAGATHI GRAMEENA BANK",APGB0004126,524703008,"NELLORE, KISAN NAGAR","D. NO. 28/1/1160, KISAN NAGAR, NELLORE TOWN, NELLORE DISTRICT,  PIN-524002",7382633819,NELLORE,NELLORE,"ANDHRA PRADESH"
"ANDHRA PRAGATHI GRAMEENA BANK",APGB0004125,524703007,"NELLORE, BALAJI NAGAR","D. NO. 27/1/642, BALAJI NAGAR, NELLORE TOWN, NELLORE DISTRICT,  PIN-524 002",7382633817,NELLORE,NELLORE,"ANDHRA PRADESH"
"ANDHRA PRAGATHI GRAMEENA BANK",APGB0004124,524703624,PENCHALAKONA,"PENCHALAKONA VILLAGE, RAPURU MANDAL, NELLORE DISTRICT,  PIN-524 408",7382633815,RAPUR,NELLORE,"ANDHRA PRADESH"
"ANDHRA PRAGATHI GRAMEENA BANK",APGB0004123,524703203,KOMMI,"KOMMI VILLAGE, KONDAPURAM MANDAL, NELLORE DISTRICT PIN-524201",7382600298,KONDAPURAM,NELLORE,"ANDHRA PRADESH"
"ANDHRA PRAGATHI GRAMEENA BANK",APGB0004122,524703106,CHILLAKURU,"NEAR POST OFFICE, CHILLAKUR VILLAGE, CHILLAKUR MANDAL, NELLORE DISTRICT, PIN-524 412",7382600297,GUDUR,NELLORE,"ANDHRA PRADESH"
"ANDHRA PRAGATHI GRAMEENA BANK",APGB0004121,524703010,PADUGUPADU,"1ST FLOOR , INAMADUGU CENTER VADDEPALEM STREET, PADUGUPADU VILLAGE, KOVUR MANDAL, NELLORE DISTRICT PIN-524 137",7382600296,KOVUR,NELLORE,"ANDHRA PRADESH"
"ANDHRA PRAGATHI GRAMEENA BANK",APGB0004120,524703304,"VENKATAGIRI CROSS ROADS","D.NO.9/242, CROSS ROADS, VENKATAGIRI, VENKATAGIRI MANDAL NELLORE DISTRICT PIN-524 132",7382600215,VENKATAGIRI,NELLORE,"ANDHRA PRADESH"
"ANDHRA PRAGATHI GRAMEENA BANK",APGB0004119,WAITING,"DUVVUR RAMANAMMA WOMEN'S COLLEGE","DUVVUR RAMANAMMA WOMEN'S COLLEGE,  GUDUR,NELLORE DT.-524101",250707,GUDUR,NELLORE,"ANDHRA PRADESH"
"ANDHRA PRAGATHI GRAMEENA BANK",APGB0004118,524703206,JANATHAPETA-KAVALI,"NEAR MASJID COMPLEX, 1ST FLOOR, PEDDA PAVANI ROAD, KAVALI NELLORE DIST. PIN-524 201",7382600204,KAVALI,NELLORE,"ANDHRA PRADESH"
"ANDHRA PRAGATHI GRAMEENA BANK",APGB0004117,524703683,JALADANKI,"H. NO. 2-33, JALADANKI VIL & PO, JALADANKI  MANDAL, NELLORE DISTRICT, PIN-524 228.",247255,JALADANKTI,NELLORE,"ANDHRA PRADESH"
"ANDHRA PRAGATHI GRAMEENA BANK",APGB0004116,524703663,KOTA,"KOTA MAIN ROAD NEAR GOPAL  REDDY STATUE KOTA NELLORE DISTRICT PIN- 524 411",229422,KOTA,NELLORE,"ANDHRA PRADESH"
"ANDHRA PRAGATHI GRAMEENA BANK",APGB0004115,524703009,"MULUMUDI BUS STAND NELLORE","MULUMUDI BUS STAND -524002, D.NO:9-744-745, 1ST FLOOR, MULUMUDI BUS STAND, GVR TOWERS, SANTHAPETA, NELLORE",313344,NELLORE,NELLORE,"ANDHRA PRADESH"
"ANDHRA PRAGATHI GRAMEENA BANK",APGB0004114,524703005,"NELLORE, SANGHA MITRA VIDYALAYA","NELLORE-SMV BRANCH-524004, D.NO. 26-1-831, BHAKTHAVATSALA NAGAR, NELLORE, NELLORE DISTRICT.",318927,NELLORE,NELLORE,"ANDHRA PRADESH"
"ANDHRA PRAGATHI GRAMEENA BANK",APGB0004113,524703742,TADA,"TADAKANDRIGA D.NO.210, RD STREET NELLORE DISTRICT",249170,TADA,NELLORE,"ANDHRA PRADESH"
"ANDHRA PRAGATHI GRAMEENA BANK",APGB0004112,524703004,"A.K.NAGAR , NELLORE","NELLORE  A.K. NAGAR BRANCH OPP: DISTRICT HEAD QUARTERTS HOSPITAL, NELLORE, NELLORE DISTRICT.  PIN 524004",326814,NELLORE,NELLORE,"ANDHRA PRADESH"
"ANDHRA PRAGATHI GRAMEENA BANK",APGB0004111,524703523,KALIGIRI,"KALIGIRI - 524224 KALIGIRI MANDAL NELLORE DISTRICT",248652,KALIGIRI,NELLORE,"ANDHRA PRADESH"
"ANDHRA PRAGATHI GRAMEENA BANK",APGB0004104,524703545,CHEJERLA,"CHEJARLA ┬û 524341 CHEJARLA MANDAL NELLORE DISTRICT",234938,CHEJERLA,NELLORE,"ANDHRA PRADESH"
"ANDHRA PRAGATHI GRAMEENA BANK",APGB0004103,524703642,MUTHUKUR,"MUTHUKURU ┬û524344 MUTHUKURU MANDAL NELLORE DISTRICT",2377619,MUTHUKUR,NELLORE,"ANDHRA PRADESH"
"ANDHRA PRAGATHI GRAMEENA BANK",APGB0004101,524703006,"STONEHOUSEPET BRANCH, NELLORE","NELLORE  STONE HOUSE PET BRANCH STONE HOUSE PET,  NELLORE  NELLORE DISTRICTPIN 524002",2339123,NELLORE,NELLORE,"ANDHRA PRADESH"
"ANDHRA PRAGATHI GRAMEENA BANK",APGB0004100,524703544,KALUVOY,"KALUVOY ┬û 524643 KALUVOY MANDAL NELLORE DISTRICT",235456,KALUVOY,NELLORE,"ANDHRA PRADESH"
"ANDHRA PRAGATHI GRAMEENA BANK",APGB0004098,524703543,PODALAKUR,"PODALAKURU  - 524345 PODALAKURU MANDAL NELLORE DISTRICT",225962,PODALAKUR,NELLORE,"ANDHRA PRADESH"
"ANDHRA PRAGATHI GRAMEENA BANK",APGB0004097,524703583,RAJUPALEM,"NORTH RAJUPALEM ┬û 524366 NORTH RAJUPALEM MANDAL NELLORE DISTRICT",275858,RAJUPALEM,NELLORE,"ANDHRA PRADESH"
"ANDHRA PRAGATHI GRAMEENA BANK",APGB0004093,524703542,ATMAKUR(N),"ATMAKURU (N) -524322 ATMAKURU MANDAL NELLORE DISTRICT",221681,ATMAKUR,NELLORE,"ANDHRA PRADESH"
"ANDHRA PRAGATHI GRAMEENA BANK",APGB0004087,524703702,SULLURPET,"SULLURPET * ┬û 524121 SULLURUPETA MANDAL NELLORE DISTRICT",241003,SULLURPET,NELLORE,"ANDHRA PRADESH"
"ANDHRA PRAGATHI GRAMEENA BANK",APGB0004084,524703562,BUTCHIREDDIPALEM,"BUTCHIREDDYPALEM ┬û524305 BUTCHIREDDYPALEM MANDAL NELLORE DISTRICT",273937,VAVVURU,NELLORE,"ANDHRA PRADESH"
"ANDHRA PRAGATHI GRAMEENA BANK",APGB0004083,524703105,TIKKAVARAM,"TIKKAVARAM ┬û 524412 CHILLAKURU MANDAL NELLORE DISTRICT",255828,TIKKAVARAM,NELLORE,"ANDHRA PRADESH"
"ANDHRA PRAGATHI GRAMEENA BANK",APGB0004075,524703104,BADDEVOLU,"BADDEVOLU - 524405 MANUBOLU MANDAL NELLORE DISTRICT",2394443,BADDEVOLU,NELLORE,"ANDHRA PRADESH"
"ANDHRA PRAGATHI GRAMEENA BANK",APGB0004074,524703582,KOVUR,"KOVURU ┬û 524137 KOVURU MANDAL NELLORE DISTRICT",271010,KOVUR,NELLORE,"ANDHRA PRADESH"
"ANDHRA PRAGATHI GRAMEENA BANK",APGB0004073,524703502,UDAYAGIRI,"UDAYAGIRI ┬û 524226 UDAYAGIRI MANDAL NELLORE DISTRICT",229246,UDAYAGIRI,NELLORE,"ANDHRA PRADESH"
"ANDHRA PRAGATHI GRAMEENA BANK",APGB0004072,524703506,NARRAWADA,"NARRAWADA ┬û 524222 DUTTALURU MANDAL NELLORE DISTRICT",240621,NARRAWADA,NELLORE,"ANDHRA PRADESH"
"ANDHRA PRAGATHI GRAMEENA BANK",APGB0004071,524703522,VINJAMUR,"VINJAMOOR ┬û 524228 VINJAMOOR MANDAL NELLORE DISTRICT",249363,VINJAMUR,NELLORE,"ANDHRA PRADESH"
"ANDHRA PRAGATHI GRAMEENA BANK",APGB0004067,524703622,RAPUR,"RAPURU ┬û 524408 RAPURU MANDAL NELLORE DISTRICT",226126,RAPUR,NELLORE,"ANDHRA PRADESH"
"ANDHRA PRAGATHI GRAMEENA BANK",APGB0004066,524703302,VENKATAGIRI,"VENKATAGIRI ┬û 524132 VENKATAGIRI MANDAL NELLORE DISTRICT",257105,VENKATAGIRI,NELLORE,"ANDHRA PRADESH"
"ANDHRA PRAGATHI GRAMEENA BANK",APGB0004065,524703662,NAIDUPET,"NAIDUPETA ┬û524126 NAIDUPETA MANDAL NELLORE DISTRICT",248128,NAIDUPET,NELLORE,"ANDHRA PRADESH"
"ANDHRA PRAGATHI GRAMEENA BANK",APGB0004050,524703202,KAVALI,"KAVALI ┬û 524201 KAVALI MANDAL NELLORE DISTRICT",243736,KAVALI,NELLORE,"ANDHRA PRADESH"
"ANDHRA PRAGATHI GRAMEENA BANK",APGB0004049,524703722,INDUKURPET,"INDUKURPET ┬û 524314 INDUKURPET MANDAL NELLORE DISTRICT",2384276,INDUKURPET,NELLORE,"ANDHRA PRADESH"
"ANDHRA PRAGATHI GRAMEENA BANK",APGB0004048,524703015,JONNAWADA,"JONNAWADA ┬û 524331  BUCHIREDDYPALEM MANDAL NELLORE DISTRICT",212648,JONNAWADA,NELLORE,"ANDHRA PRADESH"
"ANDHRA PRAGATHI GRAMEENA BANK",APGB0004047,524703563,DUVUURU,"DUVVURU ┬û 524306 SANGAM MANDAL NELLORE DISTRICT",281136,DUVUURU,NELLORE,"ANDHRA PRADESH"
"ANDHRA PRAGATHI GRAMEENA BANK",APGB0004045,524703014,NIDIGUNTAPALEM,"NIDIGUNTAPALEM ┬û 524323  VENKATACHALAM MANDAL NELLORE DISTRICT",2386668,NIDIGUNTAPALEM,NELLORE,"ANDHRA PRADESH"
"ANDHRA PRAGATHI GRAMEENA BANK",APGB0004044,524703549,VASILI,"VASILI ┬û 524308 (VIA) SANGAM,  ATMAKURU MANDAL NELLORE DISTRICT",242026,VASILI,NELLORE,"ANDHRA PRADESH"
"ANDHRA PRAGATHI GRAMEENA BANK",APGB0004043,524703205,RUDRAKOTA,"RUDRAKOTA ┬û 524203 KAVALI MANDAL NELLORE DISTRICT",258050,RUDRAKOTA,NELLORE,"ANDHRA PRADESH"
"ANDHRA PRAGATHI GRAMEENA BANK",APGB0004042,524703013,PEDAPUTTEDU,"PEDAPUTTEDU ┬û 524317 DAGADARTHI MANDAL NELLORE DISTRICT",289190,PEDAPUTTEDU,NELLORE,"ANDHRA PRADESH"
"ANDHRA PRAGATHI GRAMEENA BANK",APGB0004040,524703685,CHINTALAPALEM,"CHINTALAPALEM ┬û 524332 JALADANKI MANDAL NELLORE DISTRICT",211553,CHINTALAPALEM,NELLORE,"ANDHRA PRADESH"
"ANDHRA PRAGATHI GRAMEENA BANK",APGB0004039,524703682,ALLUR,"ALLURU -524315 ALLURU MANDAL NELLORE DISTRICT",276606,SINGAPETA,NELLORE,"ANDHRA PRADESH"
"ANDHRA PRAGATHI GRAMEENA BANK",APGB0004038,524703505,GUNDEMADAKALA,"GUNDEMADAKALA-524228 VINJAMURU MANDAL NELLORE DISTRICT",259020,GUNDEMADAKALA,NELLORE,"ANDHRA PRADESH"
"ANDHRA PRAGATHI GRAMEENA BANK",APGB0004037,524703548,MOHAMMADAPURAM,"MOHAMADAPURAM ┬û 524309, VIRUR (S.O.),  PODALAKURU MANDAL NELLORE DISTRICT",222428,MOHAMMADAPURAM,NELLORE,"ANDHRA PRADESH"
"ANDHRA PRAGATHI GRAMEENA BANK",APGB0004036,524703504,"NANDI PADU","NANDIPADU ┬û524230 DUTTALURU MANDAL NELLORE DISTRICT",227228,"NANDI PADU",NELLORE,"ANDHRA PRADESH"
"ANDHRA PRAGATHI GRAMEENA BANK",APGB0004035,524703547,MAMUDURU,"MAMUDURU ┬û 524309 CHEJARLA MANDAL NELLORE DISTRICT",239018,MAMUDURU,NELLORE,"ANDHRA PRADESH"
"ANDHRA PRAGATHI GRAMEENA BANK",APGB0004034,524703546,KULLUR,"KULLURU ┬û 524343 KALUVOY MANDAL NELLORE DISTRICT",213440,KULLUR,NELLORE,"ANDHRA PRADESH"
"ANDHRA PRAGATHI GRAMEENA BANK",APGB0004033,524703102,GUDUR(N),"GUDURU (N) MAIN BRANCH ICS ROAD,  GUDUR MANDAL NELLORE DISTRICT.  PIN  524101",251706,GUDUR,NELLORE,"ANDHRA PRADESH"
"ANDHRA PRAGATHI GRAMEENA BANK",APGB0004032,524703550,ADURUPALLI,"ADURUPALLI -524342 (SO) DACHURU  CHEJARLA MANDAL NELLORE DISTRICT",228456,ADURUPALLI,NELLORE,"ANDHRA PRADESH"
"ANDHRA PRAGATHI GRAMEENA BANK",APGB0004030,524703623,DAKKILI,"DAKKILI ┬û 524132 DAKKILI MANDAL NELLORE DISTRICT",258132,DAKKILI,NELLORE,"ANDHRA PRADESH"
"ANDHRA PRAGATHI GRAMEENA BANK",APGB0004028,524703103,"MALAVYA NAGAR BRANCH, GUDUR","GUDUR(N) MALAVYA  NAGAR BRANCH M.V.NAGAR,  GUDUR MANDAL NELLORE DISTRICT.PIN ┬û 524101",253642,GUDUR,NELLORE,"ANDHRA PRADESH"
"ANDHRA PRAGATHI GRAMEENA BANK",APGB0004027,524703587,VEGURU,"VEGURU ┬û524137 KOVURU MANDAL NELLORE DISTRICT",282007,VEGURU,NELLORE,"ANDHRA PRADESH"
"ANDHRA PRAGATHI GRAMEENA BANK",APGB0004026,524703667,"MANGA NELLORE","MANGANELLORE ┬û 524121  SULLURUPETA MANDAL NELLORE DISTRICT",276631,"MANGA NELLORE",NELLORE,"ANDHRA PRADESH"
"ANDHRA PRAGATHI GRAMEENA BANK",APGB0004025,524703527,GUNAPADU,"GUNAPADU ┬û 524492 CHITTAMURU MANDAL NELLORE DISTRICT",227833,GUNAPADU,NELLORE,"ANDHRA PRADESH"
"ANDHRA PRAGATHI GRAMEENA BANK",APGB0004023,524703526,KONDAPURAM,"KONDAPURAM (N) ┬û 524239 KONDAPURAM MANDAL NELLORE DISTRICT",257434,KONDAPURAM,NELLORE,"ANDHRA PRADESH"
"ANDHRA PRAGATHI GRAMEENA BANK",APGB0004022,524703012,EDURU,"EDURU ┬û 524311 T.P.GUDUR MANDAL NELLORE DISTRICT",2371722,EDURU,NELLORE,"ANDHRA PRADESH"
"ANDHRA PRAGATHI GRAMEENA BANK",APGB0004021,524703586,TALAHANCHI,"TALAMANCHI ┬û 524315 KODAVALURU MANDAL NELLORE DISTRICT",277185,TALAHANCHI,NELLORE,"ANDHRA PRADESH"
"ANDHRA PRAGATHI GRAMEENA BANK",APGB0004020,524703585,UTKUR,"UTUKURU ┬û 524318 VIDAVALURU MANDAL NELLORE DISTRICT",229377,UTKUR,NELLORE,"ANDHRA PRADESH"
"ANDHRA PRAGATHI GRAMEENA BANK",APGB0004019,524703703,POOLATHOTA,"POOLATHOTA ┬û 524123 DORAVARISATRAM MANDAL NELLORE DISTRICT",278022,POOLATHOTA,NELLORE,"ANDHRA PRADESH"
"ANDHRA PRAGATHI GRAMEENA BANK",APGB0004018,524703684,BRAHMANAKRAKA,"BRAHMANAKRAKA ┬û524228 JALADANKI MANDAL NELLORE DISTRICT",258497,BRAHMANAKRAKA,NELLORE,"ANDHRA PRADESH"
"ANDHRA PRAGATHI GRAMEENA BANK",APGB0004017,524703666,MALLAM,"MALLAM ┬û 524403 CHITTAMURU MANDAL NELLORE DISTRICT",257123,MALLAM,NELLORE,"ANDHRA PRADESH"
"ANDHRA PRAGATHI GRAMEENA BANK",APGB0004016,524703525,SIDDANAKONDURU,"SIDDANAKONDURU ┬û 524225 KALIGIRI MANDAL NELLORE DISTRICT",247834,SIDDANAKONDURU,NELLORE,"ANDHRA PRADESH"
"ANDHRA PRAGATHI GRAMEENA BANK",APGB0004015,524703524,CHAKALAKONDA,"CHAKALAKONDA ┬û524221 VINJAMURU MANDAL NELLORE DISTRICT",240015,CHAKALAKONDA,NELLORE,"ANDHRA PRADESH"
"ANDHRA PRAGATHI GRAMEENA BANK",APGB0004014,524703512,MARRIPADU,"MARRIPADU ┬û 524312  MARRIPADU MANDAL NELLORE DISTRICT",228922,MARRIPADU,NELLORE,"ANDHRA PRADESH"
"ANDHRA PRAGATHI GRAMEENA BANK",APGB0004013,524703513,CHILAKALAMARI,"CHILAKALAMARRI ┬û 524302  ANANTHASAGARAM MANDAL NELLORE DISTRICT",239444,CHILAKALAMARI,NELLORE,"ANDHRA PRADESH"
"ANDHRA PRAGATHI GRAMEENA BANK",APGB0004012,524703204,GOURAVARAM,"GOWRAVARAM ┬û 524147 KAVALI MANDAL NELLORE DISTRICT",255501,GOURAVARAM,NELLORE,"ANDHRA PRADESH"
"ANDHRA PRAGATHI GRAMEENA BANK",APGB0004011,524703665,KURUGONDA,"KURUGONDA ┬û 524402 OZILI MANDAL NELLORE DISTRICT",227922,KURUGONDA,NELLORE,"ANDHRA PRADESH"
"ANDHRA PRAGATHI GRAMEENA BANK",APGB0004010,524703303,BANGARUPET,"BANGARUPET -524404 VENKATAGIRI MANDAL NELLORE DISTRICT",257474,BANGARUPETA,NELLORE,"ANDHRA PRADESH"
"ANDHRA PRAGATHI GRAMEENA BANK",APGB0004009,524703584,VAVILLA,"VAVILLAGEA ┬û 524318 VIDAVALURU MANDAL NELLORE DISTRICT",287980,VAVILLA,NELLORE,"ANDHRA PRADESH"
"ANDHRA PRAGATHI GRAMEENA BANK",APGB0004008,524703002,"NELLORE - VEDAYAPALEM","NELLORE  VEDAYAPALEM BRANCH VEDAYAPALEM,  NELLORE, NELLORE DISTRICT. PIN 524004",2339709,NELLORE,NELLORE,"ANDHRA PRADESH"
"ANDHRA PRAGATHI GRAMEENA BANK",APGB0004007,524703011,KASUMUR,"KASUMURU ┬û 524325 VENKATACHALAM MANDAL NELLORE DISTRICT",2398977,KASUMUR,NELLORE,"ANDHRA PRADESH"
"ANDHRA PRAGATHI GRAMEENA BANK",APGB0004006,524703503,GANDIPALEM,"GANDIPALEM ┬û 524235 UDAYAGIRI MANDAL NELLORE DISTRICT",228434,GANDIPALEM,NELLORE,"ANDHRA PRADESH"
"ANDHRA PRAGATHI GRAMEENA BANK",APGB0004004,524703723,JAGADEVIPETA,"JAGADEVIPETA ┬û 524332 INDUKURPET MANDAL NELLORE DISTRICT",2381123,JAGADEVIPETA,NELLORE,"ANDHRA PRADESH"
"ANDHRA PRAGATHI GRAMEENA BANK",APGB0004003,524703664,PELLAKURU,"PELLAKURU ┬û 524129 PELLAKURU MANDAL NELLORE DISTRICT",278524,PELLAKURU,NELLORE,"ANDHRA PRADESH"
"ANDHRA PRAGATHI GRAMEENA BANK",APGB0004002,524703662,VAKADU,"VAKADU ┬û 524415 VAKADU MANDAL NELLORE DISTRICT",240256,VAKADU,NELLORE,"ANDHRA PRADESH"
"ANDHRA PRAGATHI GRAMEENA BANK",APGB0004001,524703003,"NELLORE MAIN","NELLORE MAIN BRANCH  SRINIVASA AGRAHARAM, NEAR VIJAYA MAHAL GATE  NELLORE,  NELLORE DISTRICTPIN 524001",2328514,NELLORE,NELLORE,"ANDHRA PRADESH"
"ANDHRA PRAGATHI GRAMEENA BANK",APGB0003204,NA,ELLAVATHULA,"DOOR NO 3/45, PEDDAMMA BAYALU, ELLAVATHULA VILLAGE,RUDRAVARAM(MANDAL),KURNOOL(DIST),ANDHRA PRADESH- 518583",8985519970,ELLAVATHULA,KURNOOL,"ANDHRA PRADESH"
"ANDHRA PRAGATHI GRAMEENA BANK",APGB0003203,NA,NAGALADINNE,"MANTRALAYAM ROAD,NAGALADINNE VILLAGE,NANDAVARAM MANDAL, KURNOOL (DIST),ANDHRA PRADESH. PIN- 513360",8985519974,NAGALADINNE,KURNOOL,"ANDHRA PRADESH"
"ANDHRA PRAGATHI GRAMEENA BANK",APGB0003202,NA,"NANDYAL SBI COLONY","DOOR NO 29/178/F2/AF, BESIDE RANI PRAMEELA HOSPITAL,SBI COLONY,NANDYAL,KURNOOL(DIST),ANDHRA PRADESH.PIN- 518502",8985519973,NANDYAL,KURNOOL,"ANDHRA PRADESH"
"ANDHRA PRAGATHI GRAMEENA BANK",APGB0003201,NA,KOTHAPALLI,"DNO 11/1,KOTHAPALLI(VILLAGE & POST),KURNOOL(DIST),ANDHRA PRADESH. PIN-518422",8500011328,KOTHAPALLI,KURNOOL,"ANDHRA PRADESH"
"ANDHRA PRAGATHI GRAMEENA BANK",APGB0003200,NA,GULYAM,"2/469 A,NEAR GADELINGESHWARA TEMPLE,GULYAM(VILLAGE),HALAHARVI(MANDAL),KURNOOL(DIST),ANDHRA PRADESH. PIN-518348",9490158144,GULYAM,KURNOOL,"ANDHRA PRADESH"
"ANDHRA PRAGATHI GRAMEENA BANK",APGB0003199,NA,NANDAVARAM,"CHERUVUPALLI ROAD, BESIDE SRI CHOWDESWARI TEMPLE,NANDAVARAM VILLAGE,BANAGANAPALLE MANDAL,KURNOOL(DIST),ANDHRA PRADESH.PIN-518124",8985519972,NANDAVARAM,KURNOOL,"ANDHRA PRADESH"
"ANDHRA PRAGATHI GRAMEENA BANK",APGB0003198,NA,SANTHAJUTUR,"DNO 1/65, NEAR RAMALAYAM,SANTHAJUTUR VILLAGE,BANDI ATMAKUR MANDAL,KURNOOL(DISTRICT),ANDHRA PRADESH.PIN-518513",9492106483,SANTHAJUTUR,KURNOOL,"ANDHRA PRADESH"
"ANDHRA PRAGATHI GRAMEENA BANK",APGB0003197,NA,PAMULAPADU,"DNO 3/129,CHOWDAMMA TEMPLET,PAMULAPADU(VILLAGE),PAMULAPADU(MANDAL),KURNOOL(DISTRICT),ANDHRA PRADESH. PIN-518442",9492106925,PAMULAPADU,KURNOOL,"ANDHRA PRADESH"
"ANDHRA PRAGATHI GRAMEENA BANK",APGB0003196,NA,JILLELA,"JILLELA VILLAGE,GOSPADU(MANDAL),KURNOOL(DISTRICT),ANDHRA PRADESH.PIN-518563",9492106853,JILLELA,KURNOOL,"ANDHRA PRADESH"
"ANDHRA PRAGATHI GRAMEENA BANK",APGB0003195,NA,YERRAGUNTLA,"DNO 2/127,KAPAPETA,YERRAGUNTLA (VILLAGE),SIRIVELLA(MANDAL),KURNOOL (DISTRICT),ANDHRA PRADESH. PIN-518510",9492106803,YERRAGUNTLA,KURNOOL,"ANDHRA PRADESH"
"ANDHRA PRAGATHI GRAMEENA BANK",APGB0003194,NA,"KURNOOL BALAJI NAGAR","PLOT NO 37, BALAJI NAGAR, VENKATA RAMANA COLONY,KURNOOL-518006. ANDHRA PRADESH",9494080527,KURNOOL,KURNOOL,"ANDHRA PRADESH"
"ANDHRA PRAGATHI GRAMEENA BANK",APGB0003193,NA,"KURNOOL OLD BUS STAND","DOOR NO 46/1/1C2,SAPAGIRI NAGAR, NEAR AYYAPPA SWAMY NEW TEMPLE,KURNOOL.PIN-518002. ANDHRA PRADESH.",9494080529,KURNOOL,KURNOOL,"ANDHRA PRADESH"
"ANDHRA PRAGATHI GRAMEENA BANK",APGB0003192,NA,OWK,"DOOR NO 1/71, RAJA STREET,NEAR VASAVI DEVASTHANAM,OWK(VILLAGE & MANDAL),KURNOOL DISTRICT,ANDHRA PRADESH. PIN-518122",8985410398,OWK,KURNOOL,"ANDHRA PRADESH"
"ANDHRA PRAGATHI GRAMEENA BANK",APGB0003191,NA,DHONE-KONDAPETA,"OPP. SARADA ENGLISH MEDIUM SCHOOL,SRI VENKATESWARA SWAMY TEMPLE STREET, NEHRU NAGAR, DHONE,KURNOOL DIST,ANDHRA PRADESH. PIN-518222",9441410254,DHONE,KURNOOL,"ANDHRA PRADESH"
"ANDHRA PRAGATHI GRAMEENA BANK",APGB0003190,NA,KAPPATRALLA,"DOOR NO 1/85, MAIN BAZAR, KAPATRALLA(VILLAGE & POST),DEVANAKONDA MANDAL,KURNOOL DISTRICT. PIN-518465",9492252849,KAPPATRALLA,KURNOOL,"ANDHRA PRADESH"
"ANDHRA PRAGATHI GRAMEENA BANK",APGB0003189,NA,GULLADURTHY,"DOOR NO 5/43, GULLADURTHY, KOILAKUNTLA MANADAL,KURNOOL DISTRICT, ANDHRA PRADESH",9494038535,GULLADURTHY,KURNOOL,"ANDHRA PRADESH"
"ANDHRA PRAGATHI GRAMEENA BANK",APGB0003188,NA,"KURNOOL KISAN NAGAR","PLOT NO 50, SREE LAKSHMI NAGAR COLONY, KISAN NAGAR,KURNOOL",220176,KURNOOL,KURNOOL,"ANDHRA PRADESH"
"ANDHRA PRAGATHI GRAMEENA BANK",APGB0003187,NA,"KURNOOL BABA BRINDAVAN NAGAR","PLOT NO 13 BABA BRINDAVAN NAGAR KURNOOL-518003",220176,KURNOOL,KURNOOL,"ANDHRA PRADESH"
"ANDHRA PRAGATHI GRAMEENA BANK",APGB0003186,NA,"PADMAVATHI NAGAR NANDYAL","25/685 C PADMAVATHI NAGAR NANDYAL 518502",245097,NANDYAL,KURNOOL,"ANDHRA PRADESH"
"ANDHRA PRAGATHI GRAMEENA BANK",APGB0003185,NA,"MARKET CENTER ALLAGADDA","S V PALACE STREET NEAR OLD BUS STAND ALLAGADDA",221444,ALLAGADDA,KURNOOL,"ANDHRA PRADESH"
"ANDHRA PRAGATHI GRAMEENA BANK",APGB0003184,NA,PANCHALINGALA,"2-146-3 MAIN ROAD PANCHALINGALA VILLAGE KURNOOL MANDAL",9848828176,PANCHALINGALA,KURNOOL,"ANDHRA PRADESH"
"ANDHRA PRAGATHI GRAMEENA BANK",APGB0003183,NA,"SRISAILAMGUDEM DEVASTHANAM","COTTAGE NO 69, DEVASTHANAM, NEAR PETROL BUNK, MAIN ROAD, SRISAILAM.",8331012071,SRISAILAMGUDEM,KURNOOL,"ANDHRA PRADESH"
"ANDHRA PRAGATHI GRAMEENA BANK",APGB0003182,NA,"NGO COLONY NANDYAL","JALAGAM VENGAL RAO NAGAR,NANDYAL,KURNOOL DISTRICT,AP,PIN 518501",246246,NANDYAL,KURNOOL,"ANDHRA PRADESH"
"ANDHRA PRAGATHI GRAMEENA BANK",APGB0003181,WAITING,MOOLASGARAM,"D.NO.26-349/B, 1ST FLOOR, MOOLASAGARAM VILLAGE, NANDYAL, KURNOOL",8331019659,NANDYAL,KURNOOL,"ANDHRA PRADESH"
"ANDHRA PRAGATHI GRAMEENA BANK",APGB0003180,518703633,AKUMALLA,"AKUMALLD.NO.1-117, AKUMALLA VILLAGE, SANJAMALA MANDAL, KURNOOL DISTRICT, PIN-518 196",8331019661,NOSSAM,KURNOOL,"ANDHRA PRADESH"
"ANDHRA PRAGATHI GRAMEENA BANK",APGB0003179,518703606,CHITYALA,"D.NO.3-80, PRAJABHAVANAM, CHITYALA VIL & PO, KRISHNAGIRI MANDAL, KURNOOL DISTRICT, PIN-518 222",8331019314,KRISHNAGIRI,KURNOOL,"ANDHRA PRADESH"
"ANDHRA PRAGATHI GRAMEENA BANK",APGB0003178,518703307,H.MURAVANI,"D.NO.3/32, H. MURAVANI VIL, PEDDAKADABUR MANDAL, KURNOOL DISTRICT, PIN-518 323",8331019313,PEDDAKADABURU,KURNOOL,"ANDHRA PRADESH"
"ANDHRA PRAGATHI GRAMEENA BANK",APGB0003177,518703011,ULCHALA,"D.NO.2-106, ULCHALA VIL & PO, KURNOOL MANDAL, KURNOOL DISTRICT, PIN-518 468",8331019312,KURNOOL,KURNOOL,"ANDHRA PRADESH"
"ANDHRA PRAGATHI GRAMEENA BANK",APGB0003176,518703588,HOSUR,"D.NO.1/63, HOSUR VIL & PO, PATHIKONDA MANDAL, KURNOOL DISTRICT, PIN-518 380",7382609270,PATTIKONDA,KURNOOL,"ANDHRA PRADESH"
"ANDHRA PRAGATHI GRAMEENA BANK",APGB0003175,518703605,JALADURGAM,"D.NO.2/169, IRST FLOOR, JALADURGAM, VIL & PO, PEAPULLY MANDAL, KURNOOL DISTRICT, PIN-518 220",7382609269,PEAPULLY,KURNOOL,"ANDHRA PRADESH"
"ANDHRA PRAGATHI GRAMEENA BANK",APGB0003174,518703632,RAMAPURAM,"RAMAPURAM VILLAGE, AVUKU MANDAL, KURNOOL DISTRICT - 518122",7382612439,OWK,KURNOOL,"ANDHRA PRADESH"
"ANDHRA PRAGATHI GRAMEENA BANK",APGB0003173,518703683,PANYAM,"D. NO. 14-571, PANYAM VILLAGE & POST, PANYAM MANDAL KURNOOL DISTRICT,  PIN-518 112",7382633707,PANEAM,KURNOOL,"ANDHRA PRADESH"
"ANDHRA PRAGATHI GRAMEENA BANK",APGB0003172,518703209,CHINTAKUNTA,"D. NO. 1-128, CHINTAKUNTA VILLAGE & POST, HALAHARVI MANDAL, KURNOOL DISTRICT,  PIN-518 348",7382633705,HALAHARVI,KURNOOL,"ANDHRA PRADESH"
"ANDHRA PRAGATHI GRAMEENA BANK",APGB0003171,518703544,P.KOTAKONDA,"D.NO.1/365 A, P.KOTAKONDA VILLAGE, DEVANAKONDA MANDAL, KURNOOL DISTRICT",7382600295,DEVANAKONDA,KURNOOL,"ANDHRA PRADESH"
"ANDHRA PRAGATHI GRAMEENA BANK",APGB0003170,518703665,HALVI,"D.NO.3-60, HALVI VILLAGE, KOWTHALAM MANDAL, KURNOOL DISTRICT PIN-518333",7382600294,KOWTHALAM,KURNOOL,"ANDHRA PRADESH"
"ANDHRA PRAGATHI GRAMEENA BANK",APGB0003169,518703006,"ZP OFFICE-KURNOOL","ZP OFFICE COMPLEX, KURNOOL",278899,KURNOOL,KURNOOL,"ANDHRA PRADESH"
"ANDHRA PRAGATHI GRAMEENA BANK",APGB0003168,518703009,"KURNOOL-REVENUE COLONY","87-1239-1, NANDYAL ROAD, REVENUE COLONY, C-CAMP POST, KURNOOL, KURNOOL - DISTRICT, PIN - 518 002",7382600203,KURNOOL,KURNOOL,"ANDHRA PRADESH"
"ANDHRA PRAGATHI GRAMEENA BANK",APGB0003167,518703306,"YEMMIGANUR-SIVA CIRCLE","SIVA CIRCLE, YEMMIGANUR - 518360, 1/1443-6, PARK ROAD, SIVA CIRCLE, YEMMIGANUR POST, KURNOOL",228138,YEMMIGANUR,KURNOOL,"ANDHRA PRADESH"
"ANDHRA PRAGATHI GRAMEENA BANK",APGB0003166,518703109,"SRINIVASA NAGAR, NANDYAL","D.NO.B-39, I FLOOR, BALAJI COMPLEX, SRINIVASA NAGAR, NANDYAL, KURNOOL DISTRICT, PIN-518 501",244254,NANDYAL,KURNOOL,"ANDHRA PRADESH"
"ANDHRA PRAGATHI GRAMEENA BANK",APGB0003165,518703203,"MOSQUE STREET, ADONI","D.NO.12/747 MOSQUE  STREET ADONI KURNOOL DISTRICT PIN-518 301",221666,ADONI,KURNOOL,"ANDHRA PRADESH"
"ANDHRA PRAGATHI GRAMEENA BANK",APGB0003164,518703008,"CHENNAMMA CIRCLE, KALLUR","D.NO.77-185, KALLUR, KALLUR MANDAL, KURNOOL DISTRICT, PIN-518 003",232233,KURNOOL,KURNOOL,"ANDHRA PRADESH"
"ANDHRA PRAGATHI GRAMEENA BANK",APGB0003163,518703108,"NANDYAL - S P Y REDDY DEGREE COLLEGE FOR WOMEN","NANDYAL -SPYW COLLEGE, NANDYAL-518501 D.NO12-1, FLAT NO. 9, TEJA COMPLEX, BOMMALASATRAM, NANDYAL.",246328,NANDYAL,KURNOOL,"ANDHRA PRADESH"
"ANDHRA PRAGATHI GRAMEENA BANK",APGB0003162,518703005,"KURNOOL-VR COLONY","KURNOOL-VRCOLONY, KURNOOL -518003  45/142-26-3, ROAD NO.5, VENKATA RAMANA COLONY,KURNOOL",254800,KURNOOL,KURNOOL,"ANDHRA PRADESH"
"ANDHRA PRAGATHI GRAMEENA BANK",APGB0003161,518703523,VELGODU,"VELUGODU-518 533 D.NO.19-188/3, VELUGODU VIL & MANDAL KURNOOL DISTRICT",235150,VELGODU,KURNOOL,"ANDHRA PRADESH"
"ANDHRA PRAGATHI GRAMEENA BANK",APGB0003160,518703104,"NANDYAL-BALA JUNIOR COLLEGE","NANDYAL-BALA JUNIOR COLLEGE-518 501 GANDHI CHOWK, ATMAKUR ROAD NANDYAL, KURNOOL DISTRICT",221611,NANDYAL,KURNOOL,"ANDHRA PRADESH"
"ANDHRA PRAGATHI GRAMEENA BANK",APGB0003159,518703007,"KURNOOL-POOLA BAZAR","KURNOOL-POOLABAZAR-518 001 D.NO.19/309 (UPSTAIRS) NEAR CHINNA AMMAVARISALA KURNOOL DISTRICT",241166,KURNOOL,KURNOOL,"ANDHRA PRADESH"
"ANDHRA PRAGATHI GRAMEENA BANK",APGB0003158,518703643,ALLAGADDA,"ALLAGADDA-518 543 H.NO.8-1-62, T.B. ROAD,  ALLAGADDA MANDAL KURNOOL DISTRICT",221444,ALLAGADDA,KURNOOL,"ANDHRA PRADESH"
"ANDHRA PRAGATHI GRAMEENA BANK",APGB0003157,518703631,ANKIREDDYPALLI,"ANKIREDDYPALLI, KOLIMIGUNDLA (MANDAL), KURNOOL (DIST) - 518123",288280,KOLIMIGUNDLA,KURNOOL,"ANDHRA PRADESH"
"ANDHRA PRAGATHI GRAMEENA BANK",APGB0003156,518703004,"GOVT GENERAL HOSPITAL, KURNOOL","KURNOOL-GOVT GEN HOSPITAL-518 002 BUDHAVARPET KURNOOL",255636,KURNOOL,KURNOOL,"ANDHRA PRADESH"
"ANDHRA PRAGATHI GRAMEENA BANK",APGB0003155,518703107,MAHANANDI,"MAHANANDI-518673 MAHANANDI MANDAL KURNOOL DISTRICT",234871,MAHANANDI,KURNOOL,"ANDHRA PRADESH"
"ANDHRA PRAGATHI GRAMEENA BANK",APGB0003153,518703642,CHAGALAMARRY,"CHAGALAMARRY-518553 CHAGALAMARRY MANDAL KURNOOL DISTRICT",232214,CHAGALAMARRI,KURNOOL,"ANDHRA PRADESH"
"ANDHRA PRAGATHI GRAMEENA BANK",APGB0003152,518703664,KOSIGI,"KOSIGI-518313 KOSIGI MANDAL KURNOOL DISTRICT",238717,KOSIGI,KURNOOL,"ANDHRA PRADESH"
"ANDHRA PRAGATHI GRAMEENA BANK",APGB0003149,518703545,GUDUR(K),"GUDUR  (K) -518466 GUDUR MANDAL KURNOOL DISTRICT",239395,GUDUR,KURNOOL,"ANDHRA PRADESH"
"ANDHRA PRAGATHI GRAMEENA BANK",APGB0003148,518703502,NANDIKOTKUR,"NANDIKOTKUR-518401 NANDIKOTKUR MANDAL KURNOOL DISTRICT",281601,NANDIKOTKUR,KURNOOL,"ANDHRA PRADESH"
"ANDHRA PRAGATHI GRAMEENA BANK",APGB0003147,518703627,BANGANAPALLE,"BANAGANAPALLE ┬û 518214 BANAGANAPALLE MANDAL KURNOOL DISTRICT",228430,BANGANAPALLE,KURNOOL,"ANDHRA PRADESH"
"ANDHRA PRAGATHI GRAMEENA BANK",APGB0003146,518703604,PEAPULLY,"PEAPULLY-518221 NATIONAL HIGHWAY-7,  PEAPULLY MANDAL KURNOOL DISTRICT",229084,PEAPULLY,KURNOOL,"ANDHRA PRADESH"
"ANDHRA PRAGATHI GRAMEENA BANK",APGB0003142,518703583,ASPARI,"ASPARI ┬û 518347  ASPARI MANDAL KURNOOL DISTRICT",288643,ASPARI,KURNOOL,"ANDHRA PRADESH"
"ANDHRA PRAGATHI GRAMEENA BANK",APGB0003141,518703605,KRISHNAGIRI,"KRISHNAGIRI-518216 KRISHNAGIRI MANDAL KURNOOL DISTRICT",254010,KRISHNAGIRI,KURNOOL,"ANDHRA PRADESH"
"ANDHRA PRAGATHI GRAMEENA BANK",APGB0003136,518703003,"KRISHNA NAGAR-KURNOOL","KURNOOLKRISHNA NAGAR BRANCH  * MVR PLAZA, 1ST FLOOR, MAIN ROAD,KRISHNANAGAR,B-CAMP POST,  KURNOOL DISTRICT. PIN  518002",232048,KURNOOL,KURNOOL,"ANDHRA PRADESH"
"ANDHRA PRAGATHI GRAMEENA BANK",APGB0003131,518703208,KAIRUPPALA,"KAIRUPPALA-518465 ASPARI MANDAL KURNOOL DISTRICT",202088,KAIRUPPALA,KURNOOL,"ANDHRA PRADESH"
"ANDHRA PRAGATHI GRAMEENA BANK",APGB0003129,518703207,BADINEHAL,"BADINEHAL ┬û 518344 KOWTHALAM MANDAL KURNOOL DISTRICT",202090,BADINEHAL,KURNOOL,"ANDHRA PRADESH"
"ANDHRA PRAGATHI GRAMEENA BANK",APGB0003128,NA,"NGO COLONY NANDYALA","JALAGAM VENGAL RAO NAGAR,NANDYALA,KURNOOL DIST,AP,PIN 518501",8331013548,NANDYALA,KURNOOL,"ANDHRA PRADESH"
"ANDHRA PRAGATHI GRAMEENA BANK",APGB0003127,518703305,DAIVAMDINNE,"DAIVAMDINNE-518360 YEMMIGANUR MANDAL KURNOOL DISTRICT",246003,"DAIVAM DINNE",KURNOOL,"ANDHRA PRADESH"
"ANDHRA PRAGATHI GRAMEENA BANK",APGB0003126,518703663,URUKUNDA,"URUKUNDA-518301 KOWTHALAM MANDAL KURNOOL DISTRICT",248230,URUKUNDA,KURNOOL,"ANDHRA PRADESH"
"ANDHRA PRAGATHI GRAMEENA BANK",APGB0003125,518703609,HUSSAINAPURAM-D,"HUSSAINAPURAM (D), PEAPULLY (MANDAL), KURNOOL (DIST) - 518221",200234,DHONE,KURNOOL,"ANDHRA PRADESH"
"ANDHRA PRAGATHI GRAMEENA BANK",APGB0003119,518703206,PEDDAKADABURU,"PEDDAKADABUR-518323 PEDDAKADABUR MANDAL KURNOOL DISTRICT",277316,PEDDAKADABURU,KURNOOL,"ANDHRA PRADESH"
"ANDHRA PRAGATHI GRAMEENA BANK",APGB0003114,518703111,POLURU,"POLURU-518511 NANDYAL MANDAL KURNOOL DISTRICT",235442,POLURU,KURNOOL,"ANDHRA PRADESH"
"ANDHRA PRAGATHI GRAMEENA BANK",APGB0003113,518703112,THIMMAPURAM,"THIMMAPURAM (K) -518512 MAHANANDI MANDAL KURNOOL DISTRICT",235606,THIMMAPURAM,KURNOOL,"ANDHRA PRADESH"
"ANDHRA PRAGATHI GRAMEENA BANK",APGB0003110,518703102,"NANDYAL MAIN","NANDYAL MAIN BRANCH SANJEEVA NAGAR,  NANDYAL, KURNOOL DISTRICT.  PIN 518501",245097,NANDYAL,KURNOOL,"ANDHRA PRADESH"
"ANDHRA PRAGATHI GRAMEENA BANK",APGB0003106,518703103,"NANDYAL┬á NOONEPALLE BRANCH┬á┬á","NANDYAL  NOONEPALLE BRANCH* NEAR GOVT. HOSPITAL, NOONEPALLE, KURNOOL DISTRICT.  PIN 518503",245490,NANDYAL,KURNOOL,"ANDHRA PRADESH"
"ANDHRA PRAGATHI GRAMEENA BANK",APGB0003105,518703587,JONNAGIRI,"JONNAGIRI-518390 TUGGALI MANDAL KURNOOL DISTRICT",236928,JONNAGIRI,KURNOOL,"ANDHRA PRADESH"
"ANDHRA PRAGATHI GRAMEENA BANK",APGB0003103,518703304,TUNGABHADRA,"THUNGABHADRA-518397 MANTRALAYAM MANDAL KURNOOL DISTRICT",259736,TUNGABHADRA,KURNOOL,"ANDHRA PRADESH"
"ANDHRA PRAGATHI GRAMEENA BANK",APGB0003100,518703543,POLAKAL,"POLAKAL-518473 C.BELAGAL MANDAL KURNOOL DISTRICT",249530,POLAKAL,KURNOOL,"ANDHRA PRADESH"
"ANDHRA PRAGATHI GRAMEENA BANK",APGB0003099,518703526,SUNNIPENTA,"SUNNIPENTA-518102 SRISAILAMDAM PROJECT COLONY (EAST),ATMAKUR MANDAL KURNOOL DISTRICT",286090,"SRISAILAM PRJCT.TOWNSHIP",KURNOOL,"ANDHRA PRADESH"
"ANDHRA PRAGATHI GRAMEENA BANK",APGB0003097,518703630,PETNIKOTA,"PETNIKOTA-518123 KOLIMIGUNDLA MANDAL KURNOOL DISTRICT",201446,PETNIKOTA,KURNOOL,"ANDHRA PRADESH"
"ANDHRA PRAGATHI GRAMEENA BANK",APGB0003096,518703504,"JUPADU BUNGLOW","JUPADU BUNGLOW-518401 JUPADU BUNGLOW MANDAL KURNOOL DISTRICT",282012,BANNUR,KURNOOL,"ANDHRA PRADESH"
"ANDHRA PRAGATHI GRAMEENA BANK",APGB0003093,518703205,HEBBATAM,"HEBBATAM-518310 HOLAGUNDA MANDAL KURNOOL DISTRICT",289519,HEBBATAM,KURNOOL,"ANDHRA PRADESH"
"ANDHRA PRAGATHI GRAMEENA BANK",APGB0003090,518703603,DHONE,"DHONE-518222 NEAR GOVT.DEGREE COLLEGE, DHONE MANDAL KURNOOL DISTRICT",222684,DHONE,KURNOOL,"ANDHRA PRADESH"
"ANDHRA PRAGATHI GRAMEENA BANK",APGB0003089,518703626,NOSSAM,"NOSSAM-518145 SANJAMALA MANDAL KURNOOL DISTRICT",273666,NOSSAM,KURNOOL,"ANDHRA PRADESH"
"ANDHRA PRAGATHI GRAMEENA BANK",APGB0003084,518703586,TUGGALI,"THUGGALI-518390 THUGGALI MANDAL KURNOOL DISTRICT",277626,TUGGALI,KURNOOL,"ANDHRA PRADESH"
"ANDHRA PRAGATHI GRAMEENA BANK",APGB0003081,518703582,PATTIKONDA,"PATHIKONDA-518380 PATHIKONDA MANDAL KURNOOL DISTRICT",226056,PATTIKONDA,KURNOOL,"ANDHRA PRADESH"
"ANDHRA PRAGATHI GRAMEENA BANK",APGB0003080,518703308,HALAHARVI,"HALAHARVI-518348 HALAHARVI MANDAL KURNOOL DISTRICT",249161,HALAHARVI,KURNOOL,"ANDHRA PRADESH"
"ANDHRA PRAGATHI GRAMEENA BANK",APGB0003075,518703602,VELDURTHI,"VELDURTHY-518216 VELDURTHY MANDAL KURNOOL DISTRICT",275758,VELDURTHI,KURNOOL,"ANDHRA PRADESH"
"ANDHRA PRAGATHI GRAMEENA BANK",APGB0003074,518703546,KOTHAKOTA,"KOTHAKOTA-518466 C.BELAGAL MANDAL KURNOOL DISTRICT",279405,KOTHAKOTA,KURNOOL,"ANDHRA PRADESH"
"ANDHRA PRAGATHI GRAMEENA BANK",APGB0003073,518703505,HUSSAINAPURAM(K),"HUSSAINAPURAM (K)-518011 ORVAKAL MANDAL KURNOOL DISTRICT",239158,HUSSAINAPURAM,KURNOOL,"ANDHRA PRADESH"
"ANDHRA PRAGATHI GRAMEENA BANK",APGB0003071,518703525,RAGADAGUDUR,"REGADAGUDUR-518533 VELUGODU MANDAL KURNOOL DISTRICT",284550,RAGADAGUDUR,KURNOOL,"ANDHRA PRADESH"
"ANDHRA PRAGATHI GRAMEENA BANK",APGB0003070,518703302,YEMMIGANUR,"YEMMIGANUR  *  -518360 YEMMIGANUR MANDAL KURNOOL DISTRICT",255752,YEMMIGANUR,KURNOOL,"ANDHRA PRADESH"
"ANDHRA PRAGATHI GRAMEENA BANK",APGB0003066,518703585,PERAVALI,"PERAVALI-518391 MADDIKERA MANDAL KURNOOL DISTRICT",277329,PERAVALI,KURNOOL,"ANDHRA PRADESH"
"ANDHRA PRAGATHI GRAMEENA BANK",APGB0003065,518703522,"ATMAKUR (K)","ATMAKUR (K) ** ┬û 518422  GOUD CENTRE,  ATMAKUR MANDAL, KURNOOL DISTRICT",283460,ATMAKUR,KURNOOL,"ANDHRA PRADESH"
"ANDHRA PRAGATHI GRAMEENA BANK",APGB0003064,518703503,MIDTHUR,"MIDTHUR-518405 MIDTHUR MANDAL KURNOOL DISTRICT",282645,MIDTHUR,KURNOOL,"ANDHRA PRADESH"
"ANDHRA PRAGATHI GRAMEENA BANK",APGB0003063,518703013,GARGEYAPURAM,"GARGEYAPURAM-518452 KURNOOL MANDAL KURNOOL DISTRICT",238146,GARGEYAPURAM,KURNOOL,"ANDHRA PRADESH"
"ANDHRA PRAGATHI GRAMEENA BANK",APGB0003062,518703106,GAJULAPALLE,"GAJULAPALLE-518583 MAHANANDI MANDAL KURNOOL DISTRICT",232723,GAJULAPALLE,KURNOOL,"ANDHRA PRADESH"
"ANDHRA PRAGATHI GRAMEENA BANK",APGB0003061,518703625,GOSPADU,"GOSPADU-518593 GOSPADU MANDAL KURNOOL DISTRICT",252739,GOSPADU,KURNOOL,"ANDHRA PRADESH"
"ANDHRA PRAGATHI GRAMEENA BANK",APGB0003060,518703644,DORNIPADU,"DORNIPADU-518135 DORNIPADU MANDAL KURNOOL DISTRICT",253725,DORNIPADU,KURNOOL,"ANDHRA PRADESH"
"ANDHRA PRAGATHI GRAMEENA BANK",APGB0003051,518703608,GARLADINNE,"GARLADINNE (K) -518200 PEAPULLY MANDAL KURNOOL DISTRICT",201234,GARLADINNE,KURNOOL,"ANDHRA PRADESH"
"ANDHRA PRAGATHI GRAMEENA BANK",APGB0003050,518703624,KOLIMIGUNDLA,"KOLIMIGUNDLA-518123 KOLIMIGUNDLA MANDAL KURNOOL DISTRICT",244321,KOLIMIGUNDLA,KURNOOL,"ANDHRA PRADESH"
"ANDHRA PRAGATHI GRAMEENA BANK",APGB0003049,518703623,KOILKUNTLA,"KOILAKUNTLA-518134  * RTC BUS STAND ROAD,  KOILAKUNTLA MANDAL KURNOOL DISTRICT",225209,KOILKUNTLA,KURNOOL,"ANDHRA PRADESH"
"ANDHRA PRAGATHI GRAMEENA BANK",APGB0003047,518703303,TERNEKAL,"TERNEKAL-518465 DEVANAKONDA MANDAL KURNOOL DISTRICT",233026,TERNEKAL,KURNOOL,"ANDHRA PRADESH"
"ANDHRA PRAGATHI GRAMEENA BANK",APGB0003036,518703662,MANTRALAYAM,"MANTRALAYAM-518345 MANTRALAYAM MANDAL KURNOOL DISTRICT",279432,MANTRALAYAM,KURNOOL,"ANDHRA PRADESH"
"ANDHRA PRAGATHI GRAMEENA BANK",APGB0003034,518703542,KODUMUR,"KODUMURU-518464 KODUMURU MANDAL KURNOOL DISTRICT",228057,KODUMUR,KURNOOL,"ANDHRA PRADESH"
"ANDHRA PRAGATHI GRAMEENA BANK",APGB0003031,518703682,GADIVEMULA,"GADIVEMULA-518508 GADIVEMULA MANDAL KURNOOL DISTRICT",233234,GADIVEMULA,KURNOOL,"ANDHRA PRADESH"
"ANDHRA PRAGATHI GRAMEENA BANK",APGB0003030,518703204,"PEDDA TUMBALAM","PEDDATHUMBALAM-518301 ADONI MANDAL KURNOOL DISTRICT",257416,"PEDDA TUMBALAM",KURNOOL,"ANDHRA PRADESH"
"ANDHRA PRAGATHI GRAMEENA BANK",APGB0003029,518703629,TANGUTUR,"TANGATURU (K)-518124 BANAGANAPALLI MANDAL KURNOOL DISTRICT",236036,TANGUTUR,KURNOOL,"ANDHRA PRADESH"
"ANDHRA PRAGATHI GRAMEENA BANK",APGB0003028,518703584,DEVANAKONDA,"DEVANAKONDA-518465 DEVANAKONDA MANDAL KURNOOL DISTRICT",276526,DEVANAKONDA,KURNOOL,"ANDHRA PRADESH"
"ANDHRA PRAGATHI GRAMEENA BANK",APGB0003027,518703105,DEEBAGUNTLA,"DEEBAGUNTLA-518502 GOSPADU MANDAL KURNOOL DISTRICT",232253,DEEBAGUNTLA,KURNOOL,"ANDHRA PRADESH"
"ANDHRA PRAGATHI GRAMEENA BANK",APGB0003026,518703012,UYYALAWADA,"UYYALAWADA-518155 UYYALAWADA MANDAL KURNOOL DISTRICT",234927,UYYALAWADA,KURNOOL,"ANDHRA PRADESH"
"ANDHRA PRAGATHI GRAMEENA BANK",APGB0003025,518703622,BETAMCHERLA,"BETAMCHERLA ┬û 518599  BETAMCHERLA MANDAL, KURNOOL DISTRICT",273100,BETAMCHERLA,KURNOOL,"ANDHRA PRADESH"
"ANDHRA PRAGATHI GRAMEENA BANK",APGB0003021,518703563,ALUR,"ALURU ┬û 518395 ALURU MANDAL, KURNOOL DISTRICT",228059,ALUR,KURNOOL,"ANDHRA PRADESH"
"ANDHRA PRAGATHI GRAMEENA BANK",APGB0003017,518703524,PARUMANCHALA,"PARUMANCHALA-518407 JUPADU BUNGLOW MANDAL KURNOOL DISTRICT",256030,PARUMANCHALA,KURNOOL,"ANDHRA PRADESH"
"ANDHRA PRAGATHI GRAMEENA BANK",APGB0003016,518703562,NEMAKAL,"NEMAKAL-518396 CHIPPAGIRI  MANDAL KURNOOL DISTRICT",239996,NEMAKAL,KURNOOL,"ANDHRA PRADESH"
"ANDHRA PRAGATHI GRAMEENA BANK",APGB0003011,518703010,NANOOR,"NANNOOR-518023 ORVAKAL MANDAL KURNOOL DISTRICT",238558,NANOOR,KURNOOL,"ANDHRA PRADESH"
"ANDHRA PRAGATHI GRAMEENA BANK",APGB0003010,518703628,NANDIVARGAM,"NANDIVARGAM-518176 BANAGNAPALLE MANDAL KURNOOL DISTRICT",248058,NANDIVARGAM,KURNOOL,"ANDHRA PRADESH"
"ANDHRA PRAGATHI GRAMEENA BANK",APGB0003009,518703002,KURNOOL-MAIN,"KURNOOL MAIN BRANCH CLUB ROAD,  RAILWAY STATION ROAD, KURNOOL,  KURNOOL DISTRICT.  PIN  518004",220176,KURNOOL,KURNOOL,"ANDHRA PRADESH"
"ANDHRA PRAGATHI GRAMEENA BANK",APGB0003004,WAITING,PARLA,"PARLA-518478 (VIA) K.NAGALAPURAM,  KALLUR MANDAL KURNOOL DISTRICT",200055,PARLA,KURNOOL,"ANDHRA PRADESH"
"ANDHRA PRAGATHI GRAMEENA BANK",APGB0003003,518703202,ADONI,"ADONI ┬û 518301 DOOR NO.268-12, 1ST FLOOR, ACHARI ARCHADE, NEAR POLICE CONTROL ROOM, YEMMIGANUR ROAD, KURNOOL DISTRICT",253537,ADONI,KURNOOL,"ANDHRA PRADESH"
"ANDHRA PRAGATHI GRAMEENA BANK",APGB0002200,NA,VELIDANDLA,"D NO 1/27,VELIDANDLA,LINGALA(MANDAL),YSR KADAPA(DIST),ANDHRA PRADESHE.PIN-516396",8985519978,VELIDANDLA,"YSR KADAPA","ANDHRA PRADESH"
"ANDHRA PRAGATHI GRAMEENA BANK",APGB0002199,NA,TANGATUR,"4/51,TANGATUR VILLAGE,RAJUPALEM MANDAL,YSR KADAPA(DIST),ANDHRA PRADESH",9491503120,TANGATUR,"YSR KADAPA","ANDHRA PRADESH"
"ANDHRA PRAGATHI GRAMEENA BANK",APGB0002198,NA,"KAMALAPURAM X ROADS","DNO 15/3008-1,KAMALAPURAM X ROADS,KAMALAPURAM YSR KADAPA(DIST) ANDHRA PRADESH PIN-516310",9440584291,KAMALAPURAM,"YSR KADAPA","ANDHRA PRADESH"
"ANDHRA PRAGATHI GRAMEENA BANK",APGB0002197,NA,UTUKURU,"DOOR NO 1/121-A-1, BALIJA STREET,UTUKURU (VILLAGE & POST),RAJAMPETA MANDAL,YSR KADAPA(DIST),ANDHRA PRADESH. PIN-516126",9441409957,UTUKURU,"YSR KADAPA","ANDHRA PRADESH"
"ANDHRA PRAGATHI GRAMEENA BANK",APGB0002196,NA,"CHINNA ORAMPADU","DOOR NO 2/121, GNANAMPALLI ROAD,CHINNA ORAMPADU VILLAGE, OBULAVARIPALLI MANDAL,YSR KADAPA(DIST),ANDHRA PRADESH. PIN-516108",9441409981,"CHINNA ORAMPADU","YSR KADAPA","ANDHRA PRADESH"
"ANDHRA PRAGATHI GRAMEENA BANK",APGB0002195,NA,RAYACHOTY-KOTHAPETA,"DOOR NO 51/124/1,KOTHAPETA MAIN ROAD,RAYACHOTY,YSR KADAPA (DIST),ANDHRA PRADESH.PIN-516269.",9441409479,RAYACHOTY,"YSR KADAPA","ANDHRA PRADESH"
"ANDHRA PRAGATHI GRAMEENA BANK",APGB0002194,NA,"KADAPA MARIAPURAM","HEAD OFFICE PREMISES, OPP. BISHOPS HOUSE,MARIAPURAM,YSR KADAPA-516002. YSR KADAPA(DIST),ANDHRA PRADESH",9441410391,KADAPA,"YSR KADAPA","ANDHRA PRADESH"
"ANDHRA PRAGATHI GRAMEENA BANK",APGB0002193,NA,MALLELA,"MALLELA VILLAGE, THONDUR MANDAL,KADAPA(DIST),ANDHRA PRADESH. PIN-516401",8500299051,MALLELA,"YSR KADAPA","ANDHRA PRADESH"
"ANDHRA PRAGATHI GRAMEENA BANK",APGB0002192,NA,"RAILWAY KODURU RS ROAD","D.NO 7/543, RAILWAY STATION ROAD,RAILWAY KODURU",9493327396,"RAILWAY KODURU","YSR KADAPA","ANDHRA PRADESH"
"ANDHRA PRAGATHI GRAMEENA BANK",APGB0002191,NA,"JAMMALAMADUGU NEW MARKET","DOOR NO 1/604, NEAR LIC OFFICE, NEW MARKET CENTRE,RTC BUSSTAND ROAD,JAMMALAMADUGU",9494039075,JAMMALAMADUGU,"YSR KADAPA","ANDHRA PRADESH"
"ANDHRA PRAGATHI GRAMEENA BANK",APGB0002190,NA,VONTIMITTA,"DOOR NO 2/19 MAIN BAZAR VONTIMITTA,VONTIMITTA MANDAL,YSR KADAPA DIST",9494039125,VONTIMITTA,"YSR KADAPA","ANDHRA PRADESH"
"ANDHRA PRAGATHI GRAMEENA BANK",APGB0002189,NA,"KADAPA AMEENPEER DARGA","14/154, NEAR AMEENPEER DARGA,KADAPA,YSR KADAPA DISTRICT,ANDHRA PRADESH",9490039562,KADAPA,"YSR KADAPA","ANDHRA PRADESH"
"ANDHRA PRAGATHI GRAMEENA BANK",APGB0002188,NA,"VEMPALLI FOUR ROADS CROSSING","DOOR NO 1/397, KANDULA COMPLEX, PULIVENDULA ROAD,FOUR ROADS CROSSING, VEMPALLI-516329",9490186594,VEMPALLI,"YSR KADAPA","ANDHRA PRADESH"
"ANDHRA PRAGATHI GRAMEENA BANK",APGB0002187,NA,"PULIVENDULA POOLA ANGALLU","DOOR NO 1/4/309 BESIDE LAKSHMI THEATRE,PARNAPALLI ROAD,POOLA ANGALLU",8500310155,PULIVENDULA,KADAPA,"ANDHRA PRADESH"
"ANDHRA PRAGATHI GRAMEENA BANK",APGB0002186,NA,SETTYPALLI,"SETTIPALLI VILLAGE, SAMBEPALLI MANDAL, YSR KADAPA DISTRICT",251634,SETTYPALLI,KADAPA,"ANDHRA PRADESH"
"ANDHRA PRAGATHI GRAMEENA BANK",APGB0002185,NA,"PRODDATUR NGOS COLONY","DNO 10/107 NGOS COLONY  NEAR RTC BUS STAND PRODDATUR",243636,PRODDATUR,"YSR KADAPA","ANDHRA PRADESH"
"ANDHRA PRAGATHI GRAMEENA BANK",APGB0002184,NA,"PRODDATUR GANDHI ROAD","DOOR NO 24-591,VASANTH RAO STREET, GANDHI ROAD, RAMESWARAM PRODDATUR",243636,PRODDATUR,KADAPA,"ANDHRA PRADESH"
"ANDHRA PRAGATHI GRAMEENA BANK",APGB0002183,NA,"RAVINDRA NAGAR KADAPA","5-446 RAVINDRA NAGAR KADAPA",244494,KADAPA,KADAPA,"ANDHRA PRADESH"
"ANDHRA PRAGATHI GRAMEENA BANK",APGB0002182,NA,"PP KUNTA","10/262 MAIN ROAD PEDDA POLUPALLI KUNTA VILLAGE GOPAVARAM PROJECT SITE GOPAVARAM MANDAL",8500028774,"PEDDA POLUPALLI KUNTA",CUDDAPAH,"ANDHRA PRADESH"
"ANDHRA PRAGATHI GRAMEENA BANK",APGB0002181,NA,"EGUVA RAMAPURAM","6-153 EGUVA RAMAPURAM KALASAPADU MANDAL",9015621515,"EGUVA RAMAPURAM",CUDDAPAH,"ANDHRA PRADESH"
"ANDHRA PRAGATHI GRAMEENA BANK",APGB0002180,NA,URUTURU,"D.NO.2 BY 175 C,MAIN ROAD,URUTURU VILLAGE,VEERAPUNAYUNIPALLI MANDAL,Y.S.R.KADAPA DIST,AP,516339",9966253448,"Y S R KADAPA",KADAPA,"ANDHRA PRADESH"
"ANDHRA PRAGATHI GRAMEENA BANK",APGB0002179,NA,"G V SATRAM","MAIN ROAD,G V SATRAM VILL AND POST,MYDUKURU MANDAL,Y.S.R.KADAPA DIST,AP,516172",9440043649,MYDUKUR,KADAPA,"ANDHRA PRADESH"
"ANDHRA PRAGATHI GRAMEENA BANK",APGB0002178,NA,KAMALAKURU,"270 A, MAIN ROAD, KAMALAKURU VILLAGE, ATLURU MANDAL, BADVEL POST.",8331012073,KAMALAKURU,CUDDAPAH,"ANDHRA PRADESH"
"ANDHRA PRAGATHI GRAMEENA BANK",APGB0002177,516703010,"NAGARAJUPETA, KADAPA","NAGARAJUPETA, KADAPA MANDAL, YSR DISTRICT PIN-516 001",8331019660,CUDDAPAH,CUDDAPAH,"ANDHRA PRADESH"
"ANDHRA PRAGATHI GRAMEENA BANK",APGB0002176,516703105,CHAPADU,"D.NO.2/195, CHAPADU VIL PO, CHAPADU MANDAL, KADAPA DISTRICT, PIN-516 355",7382609268,PRODDATUR,CUDDAPAH,"ANDHRA PRADESH"
"ANDHRA PRAGATHI GRAMEENA BANK",APGB0002175,516703743,PENAGALURU,"D.NO. 3/205A, PENAGALUR VILLAGE & POST KADAPA DIST",7322612440,PENGALUR,CUDDAPAH,"ANDHRA PRADESH"
"ANDHRA PRAGATHI GRAMEENA BANK",APGB0002174,516703530,MORAGUDI,"D. NO. 21/431, MORAGUDI VILLAGE & POST, JAMMALAMADUGU MANDAL, Y. S. R DISTRICT,  PIN-516 434",7382633814,JAMMALAMADUGU,CUDDAPAH,"ANDHRA PRADESH"
"ANDHRA PRAGATHI GRAMEENA BANK",APGB0002173,516703529,GUDIPADU,"D. NO. 2/34, GUDIPADU VILLAGE & POST, DUVVURU MANDAL, Y. S. R.  DISTRICT,  PIN-516 175",7382633812,DUVVUR,CUDDAPAH,"ANDHRA PRADESH"
"ANDHRA PRAGATHI GRAMEENA BANK",APGB0002172,516703782,NANDIMANDALAM,"D. NO. 6/328-2, NANDIMANDALAM VILLAGE, PENDLIMARRI MANDAL, KADAPA DISTRICT,PIN-516218",7382633704,NANDIMANDALAM,CUDDAPAH,"ANDHRA PRADESH"
"ANDHRA PRAGATHI GRAMEENA BANK",APGB0002171,516703667,NAGAVARAM,"NAGAVARAM VIL & PO VIA BP RACHAPALLI (SO) CHITVEL MANDAL KADAPA PIN-516 110",7382600299,KODUR,CUDDAPAH,"ANDHRA PRADESH"
"ANDHRA PRAGATHI GRAMEENA BANK",APGB0002169,516703545,POTLADURTHI,"DNO.1-145, POTLADURTHI VIL, YERRAGUNTLA MANDAL KADAPA PIN-516 309",7382600293,PRODDATUR,CUDDAPAH,"ANDHRA PRADESH"
"ANDHRA PRAGATHI GRAMEENA BANK",APGB0002168,WAITING,MANGAMPET,"APMDC LTD.,MANGAMPET",246214,KODUR,CUDDAPAH,"ANDHRA PRADESH"
"ANDHRA PRAGATHI GRAMEENA BANK",APGB0002167,516703104,"PRODDATUR - MODEMPALLI","MODEMPALLI - 516360, JINNAH ROAD, MODEMPALLI, PRODDUTUR POST, KADAPA DIST",7382600200,PRODDATUR,CUDDAPAH,"ANDHRA PRADESH"
"ANDHRA PRAGATHI GRAMEENA BANK",APGB0002166,516703103,GOPAVARAM,"PLOT NO.9, APHB COLONY, BHAGATH SINGH COLONY, GOPAVARAM VIL & PO, PRODDATUR MANDAL, YSR KADAPA DISTRICT PIN-516 360",200326,GOPAVARAM,CUDDAPAH,"ANDHRA PRADESH"
"ANDHRA PRAGATHI GRAMEENA BANK",APGB0002164,516703015,YERRAMUKKAPALLI,"D.NO.1/2687, APHB COLONY, R.S. ROAD, YERRAMUKKAPALLI, KADAPA YSR DISTRICT PIN-516 004",256322,CUDDAPAH,CUDDAPAH,"ANDHRA PRADESH"
"ANDHRA PRAGATHI GRAMEENA BANK",APGB0002163,516703644,"RAJAMPET - R. S. ROAD","D.NO.6/52, R.S. ROAD, RAJAMPET,  KADAPA DISTRICT PIN-516 115",251669,RAJAMPET,CUDDAPAH,"ANDHRA PRADESH"
"ANDHRA PRAGATHI GRAMEENA BANK",APGB0002162,516703007,"KADAPA NESCO","NESCO,KADAPA-516002, NEAR RTC BUS STAND, ARAVINDANAGAR, KADAPA.",200065,CUDDAPAH,CUDDAPAH,"ANDHRA PRADESH"
"ANDHRA PRAGATHI GRAMEENA BANK",APGB0002161,516703014,DEVUNIKADAPA,"KADAPA-DEVUNI KADAPA-516 001 D.NO.16/308, UPSTAIRS, D.C. ROAD, DEVUNI KADAPA, KADAPA DISTRICT",221533,CUDDAPAH,CUDDAPAH,"ANDHRA PRADESH"
"ANDHRA PRAGATHI GRAMEENA BANK",APGB0002160,516703603,LAKKIREDDIPALLE,"LAKKIREDDYPALLI-516 257 NGO HOME, LAKKIREDDYPALLI VIL & MANDAL KADAPA DISTRICT",234041,LAKKIREDDIPALLE,CUDDAPAH,"ANDHRA PRADESH"
"ANDHRA PRAGATHI GRAMEENA BANK",APGB0002159,516703544,MUDDANUR,"MUDDANUR-516 380 D.NO.5/99 A, MUDDANUR VIL & MANDAL KADAPA DISTRICT",279359,MUDDANUR,CUDDAPAH,"ANDHRA PRADESH"
"ANDHRA PRAGATHI GRAMEENA BANK",APGB0002158,516703566,KHAJIPETA,"KHAJIPETA-516 203 KHAJIPETA MANDAL KADAPA DISTRICT",238187,"SUNKESULA KHAJIPETA",CUDDAPAH,"ANDHRA PRADESH"
"ANDHRA PRAGATHI GRAMEENA BANK",APGB0002157,516703523,DUVVUR,"DUVVURU-516 175 DUVVUR MANDAL KADAPA DISTRICT",238555,DUVVUR,CUDDAPAH,"ANDHRA PRADESH"
"ANDHRA PRAGATHI GRAMEENA BANK",APGB0002156,516703006,"KADAPA POLICE LINE BRANCH","POLICE LINE-516 001 D.NO.20/1066, UPSTAIRS,  CO-OPERATIVE COLONY, KADAPA DISTRICT",223437,CUDDAPAH,CUDDAPAH,"ANDHRA PRADESH"
"ANDHRA PRAGATHI GRAMEENA BANK",APGB0002155,516703664,CHITVEL,"CHITVEL-516 104 D.NO.1/200, MAIN ROAD, CHITVEL MANDAL, KADAPA DISTRICT",240983,CHITVEL,CUDDAPAH,"ANDHRA PRADESH"
"ANDHRA PRAGATHI GRAMEENA BANK",APGB0002154,516703722,TSUNDUPALLI,"T.SUNDUPALLI-516130 T.SUNDUPALLI MANDAL KADAPA DISTRICT",248698,TSUNDUPALLI,CUDDAPAH,"ANDHRA PRADESH"
"ANDHRA PRAGATHI GRAMEENA BANK",APGB0002151,516703565,CHENNUR,"CHENNUR-516162, D.NO. 12/280, RAMALAYAM STREET,  CHENNUR MANDAL KADAPA DISTRICT",235720,CHENNUR,CUDDAPAH,"ANDHRA PRADESH"
"ANDHRA PRAGATHI GRAMEENA BANK",APGB0002150,516703663,PULLAMPET,"PULLAMPET-516107 PULLAMPET MANDAL KADAPA DISTRICT",257720,PULLAMPET,CUDDAPAH,"ANDHRA PRADESH"
"ANDHRA PRAGATHI GRAMEENA BANK",APGB0002145,516703584,PULIVENDLA,"PULIVENDULA-516390 PULIVENDULA MANDAL  KADAPA DISTRICT",287977,PULIVENDLA,CUDDAPAH,"ANDHRA PRADESH"
"ANDHRA PRAGATHI GRAMEENA BANK",APGB0002144,516703804,SIMHADRIPURAM,"SIMHADRIPURAM-516454 SIMHADRIPURAM MANDAL KADAPA DISTRICT",235114,SIMHADRIPURAM,CUDDAPAH,"ANDHRA PRADESH"
"ANDHRA PRAGATHI GRAMEENA BANK",APGB0002143,516703005,"KADAPA-JAYANAGAR COLONY BRANCH","KADAPA JAYANAGAR COLONY  BRANCH NEAR APSARA THEATRE, JAYANAGAR COLONY,  KADAPA DISTRICT. PIN  516002",244692,CUDDAPAH,CUDDAPAH,"ANDHRA PRADESH"
"ANDHRA PRAGATHI GRAMEENA BANK",APGB0002140,516703004,"KADAPA - KAGITALAPENTA","KADAPAKAGITALAPENTA BRANCH * NEAR GOVT. ITI,  KAGITALAPENTA, KADAPA DISTRICT.  PIN  516003",259082,KAGITHALAPENTA,CUDDAPAH,"ANDHRA PRADESH"
"ANDHRA PRAGATHI GRAMEENA BANK",APGB0002139,516703588,"BALA THIMMAYYAGARI PALLE","BALATHIMMAIAHGARIPALLE-516259 CHAKRAYAPET MANDAL KADAPA DISTRICT",201074,"BALA THIMMAYYAGARI PALLE",CUDDAPAH,"ANDHRA PRADESH"
"ANDHRA PRAGATHI GRAMEENA BANK",APGB0002138,516703522,JAMMALAMADUGU,"JAMMALAMADAGU-516434 JAMMALAMADUGU MANDAL KADAPA DISTRICT",270492,JAMMALAMADAGU,CUDDAPAH,"ANDHRA PRADESH"
"ANDHRA PRAGATHI GRAMEENA BANK",APGB0002137,516703106,RAJUPALEM,"RAJUPALEM-516363 RAJUPALEM MANDAL KADAPA DISTRICT",230147,RAJUPALEM,CUDDAPAH,"ANDHRA PRADESH"
"ANDHRA PRAGATHI GRAMEENA BANK",APGB0002135,516703506,ANANTHARAJUPETA,"ANANTHARAJUPET ┬û 516105 RAILWAY KODUR MANDAL KADAPA DISTRICT",200276,ANANTHARAJUPETA,CUDDAPAH,"ANDHRA PRADESH"
"ANDHRA PRAGATHI GRAMEENA BANK",APGB0002133,516703803,"ANKALAMMA GUDUR","ANKALAMMAGUDUR ┬û 516484 SIMHADRIPURAM MANDAL, KADAPA DISTRICT",239411,"ANKALAMMA GUDUR",CUDDAPAH,"ANDHRA PRADESH"
"ANDHRA PRAGATHI GRAMEENA BANK",APGB0002128,516703016,"PEDDA CHAPPALI","PEDDACHEPPALI-516289 KAMALAPURAM MANDAL KADAPA DISTRICT",277123,"PEDDA CHAPPALI",CUDDAPAH,"ANDHRA PRADESH"
"ANDHRA PRAGATHI GRAMEENA BANK",APGB0002124,516703009,"KOTHA NELLORE","KOTHA NELLORE-516163  KHAJIPET  MANDAL KADAPA DISTRICT",235055,"KOTHA NELLORE",CUDDAPAH,"ANDHRA PRADESH"
"ANDHRA PRAGATHI GRAMEENA BANK",APGB0002123,516703587,ALAVALAPADU,"ALAVALAPADU ┬û 516350 VEMULA MANDAL, KADAPA DISTRICT",283116,ALAVALAPADU,CUDDAPAH,"ANDHRA PRADESH"
"ANDHRA PRAGATHI GRAMEENA BANK",APGB0002122,516703665,VATHALUR,"VATHALUR-516107 PULLAMPET MANDAL KADAPA DISTRICT",246802,VATHALUR,CUDDAPAH,"ANDHRA PRADESH"
"ANDHRA PRAGATHI GRAMEENA BANK",APGB0002121,516703602,RAMAPURAM(K),"RAMAPURAM (K) -516504 RAMAPURAM MANDAL KADAPA DISTRICT",238080,CHITLOOR,CUDDAPAH,"ANDHRA PRADESH"
"ANDHRA PRAGATHI GRAMEENA BANK",APGB0002120,516703543,YERRAGUNTLA,"YERRAGUNTLA-516309 YERRAGUNTLA MANDAL KADAPA DISTRICT",275136,YERRAGUNTLA,CUDDAPAH,"ANDHRA PRADESH"
"ANDHRA PRAGATHI GRAMEENA BANK",APGB0002118,516703643,BOYANAPALLE,"BOYANAPALLE ┬û 516126 RAJAMPET  MANDAL, KADAPA DISTRICT",200323,AKEPADU,CUDDAPAH,"ANDHRA PRADESH"
"ANDHRA PRAGATHI GRAMEENA BANK",APGB0002117,516703504,KODUR,"KODUR (RAILWAY)-516101 KODURU MANDAL KADAPA DISTRICT",242558,KODUR,CUDDAPAH,"ANDHRA PRADESH"
"ANDHRA PRAGATHI GRAMEENA BANK",APGB0002116,516703003,"KADAPA - MOCHAMPETA","KADAPAMOCHAMPET  BRANCH TULASI COMPLEX, NEAR BAHADUR KHAN MASJID, TRUNK ROAD KADAPA, KADAPA DISTRICT.PIN 516001",245950,THUMMALURU,CUDDAPAH,"ANDHRA PRADESH"
"ANDHRA PRAGATHI GRAMEENA BANK",APGB0002112,516703503,B.KODURU,"B.KODURU ┬û 516228 B.KODURU MANDAL, KADAPA DISTRICT",286606,B.KODURU,CUDDAPAH,"ANDHRA PRADESH"
"ANDHRA PRAGATHI GRAMEENA BANK",APGB0002109,516703505,SETTIGUNTA,"SETTIGUNTA-516102 RAILWAY KODUR MANDAL KADAPA DISTRICT",247877,SETTIGUNTA,CUDDAPAH,"ANDHRA PRADESH"
"ANDHRA PRAGATHI GRAMEENA BANK",APGB0002108,516703765,NOOLIVEEDU,"NOOLIVEEDU-516272 GALIVEEDU MANDAL KADAPA DISTRICT",234890,NOOLIVEEDU,CUDDAPAH,"ANDHRA PRADESH"
"ANDHRA PRAGATHI GRAMEENA BANK",APGB0002107,516703622,RAYACHOTI,"RAYACHOTY-516268 RAYACHOTY MANDAL KADAPA DISTRICT",251634,RAYACHOTI,CUDDAPAH,"ANDHRA PRADESH"
"ANDHRA PRAGATHI GRAMEENA BANK",APGB0002102,516703568,NARASAPURAM,"NARASAPURAM-516217 AVADHOOTA KASINAYANA MANDAL KADAPA DISTRICT",286262,NARASAPURAM,CUDDAPAH,"ANDHRA PRADESH"
"ANDHRA PRAGATHI GRAMEENA BANK",APGB0002101,516703586,THONDUR,"THONDURU-516401 THONDURU MANDAL KADAPA DISTRICT",238308,THONDUR,CUDDAPAH,"ANDHRA PRADESH"
"ANDHRA PRAGATHI GRAMEENA BANK",APGB0002095,516703528,VADDIRALA,"VADDIRALA-516432 MYLAVARAM MANDAL KADAPA DISTRICT",273037,DHODIUM,CUDDAPAH,"ANDHRA PRADESH"
"ANDHRA PRAGATHI GRAMEENA BANK",APGB0002094,516703744,PONDALUR,"PONDALUR ┬û 516128 PENAGALURU MANDAL KADAPA DISTRICT",257254,PONDALUR,CUDDAPAH,"ANDHRA PRADESH"
"ANDHRA PRAGATHI GRAMEENA BANK",APGB0002092,516703763,CHINNAMANDEM,"CHINNAMANDEM-516214 CHINNAMANDEM MANDAL KADAPA DISTRICT",244023,CHINNAMANDAM,CUDDAPAH,"ANDHRA PRADESH"
"ANDHRA PRAGATHI GRAMEENA BANK",APGB0002087,516703668,NAGARIPADU,"NAGARIPADU-516110 KODUR (RAILWAY) MANDAL,  KADAPA DISTRICT",246485,NAGARIPADU,CUDDAPAH,"ANDHRA PRADESH"
"ANDHRA PRAGATHI GRAMEENA BANK",APGB0002085,516703508,ITUKALAPADU,"ITUKALAPADU-516193 B.KODUR MANDAL KADAPA DISTRICT",210599,ITUKALAPADU,CUDDAPAH,"ANDHRA PRADESH"
"ANDHRA PRAGATHI GRAMEENA BANK",APGB0002083,516703502,BADVEL,"BADVEL ┬û 516227 D.NO 8/2A, NEAR RTC BUS STAND,  BADVEL MANDAL KADAPA DISTRICT",284215,BADVEL,CUDDAPAH,"ANDHRA PRADESH"
"ANDHRA PRAGATHI GRAMEENA BANK",APGB0002082,516703537,PENDLIMARRY,"PENDLIMARRY-516216 PENDLIMARRY MANDAL KADAPA DISTRICT",202395,PENDLIMARRY,CUDDAPAH,"ANDHRA PRADESH"
"ANDHRA PRAGATHI GRAMEENA BANK",APGB0002079,516703764,SAMBEPALLI,"SAMBEPALLE-516215 SAMBEPALLE MANDAL KADAPA DISTRICT",242434,SAMBEPALLI,CUDDAPAH,"ANDHRA PRADESH"
"ANDHRA PRAGATHI GRAMEENA BANK",APGB0002078,516703564,MYDUKUR,"MYDUKUR-516172, 10TH WARD, BADVEL ROAD,  MYDUKUR MANDAL KADAPA DISTRICT",231260,MYDUKUR,CUDDAPAH,"ANDHRA PRADESH"
"ANDHRA PRAGATHI GRAMEENA BANK",APGB0002076,516703642,RAJAMPET,"RAJAMPET-516115 RAJAMPET MANDAL KADAPA DISTRICT",240330,RAJAMPET,CUDDAPAH,"ANDHRA PRADESH"
"ANDHRA PRAGATHI GRAMEENA BANK",APGB0002072,516703583,CHAKRAYPET,"CHAKRAYAPET-516260 CHAKRAYAPET MANDAL KADAPA DISTRICT",234616,CHAKRAYPET,CUDDAPAH,"ANDHRA PRADESH"
"ANDHRA PRAGATHI GRAMEENA BANK",APGB0002067,516703563,CHILAMAKUR,"CHILAMAKUR-516310 YERRAGUNTLA MANDAL KADAPA DISTRICT",276124,CHILAMKUR,CUDDAPAH,"ANDHRA PRADESH"
"ANDHRA PRAGATHI GRAMEENA BANK",APGB0002057,516703562,KAMALAPURAM,"KAMALAPURAM-516289 KAMALAPURAM MANDAL KADAPA DISTRICT",274237,KAMALAPURAM,CUDDAPAH,"ANDHRA PRADESH"
"ANDHRA PRAGATHI GRAMEENA BANK",APGB0002055,516703762,GALIVEEDU,"GALIVEEDU-516267 GALIVEEDU MANDAL KADAPA DISTRICT",233206,GALIVEEDU,CUDDAPAH,"ANDHRA PRADESH"
"ANDHRA PRAGATHI GRAMEENA BANK",APGB0002054,516703683,KALASAPADU,"KALASAPADU-516217 KALASAPADU  MANDAL KADAPA DISTRICT",286430,KALASAPADU,CUDDAPAH,"ANDHRA PRADESH"
"ANDHRA PRAGATHI GRAMEENA BANK",APGB0002053,516703703,SIDDAVATTAM,"SIDDAVATAM-516237 SIDDAVATAM MANDAL KADAPA DISTRICT",272009,SIDDAVATTAM,CUDDAPAH,"ANDHRA PRADESH"
"ANDHRA PRAGATHI GRAMEENA BANK",APGB0002043,516703570,NALLAPUREDDYPALLE,"NALLAPUREDDYPALLE-516390 PULIVENDULA MANDAL KADAPA DISTRICT",239223,NALLAPUREDDYPALLE,CUDDAPAH,"ANDHRA PRADESH"
"ANDHRA PRAGATHI GRAMEENA BANK",APGB0002042,516703802,LINGALA,"LINGALA-516396 LINGALA MANDAL KADAPA DISTRICT",238509,LINGALA,CUDDAPAH,"ANDHRA PRADESH"
"ANDHRA PRAGATHI GRAMEENA BANK",APGB0002041,516703527,MYLAVARAM,"MYLAVARAM-516439 MYLAVARAM MANDAL KADAPA DISTRICT",273446,MYLAVARAM,CUDDAPAH,"ANDHRA PRADESH"
"ANDHRA PRAGATHI GRAMEENA BANK",APGB0002040,516703526,PEDDAMUDIYAM,"PEDDAMUDIAM-516412 PEDDAMUDIAM MANDAL KADAPA DISTRICT",272842,PEDDAMUDIYAM,CUDDAPAH,"ANDHRA PRADESH"
"ANDHRA PRAGATHI GRAMEENA BANK",APGB0002039,516703011,RAMANAPALLE,"RAMANAPALLE-516162 CHENNUR MANDAL KADAPA DISTRICT",235920,RAMANAPALLE,CUDDAPAH,"ANDHRA PRADESH"
"ANDHRA PRAGATHI GRAMEENA BANK",APGB0002038,516703569,CHINNAGURUVALURU,"CHINNAGURUVALURU-516172 CHAPADU MANDAL KADAPA DISTRICT",237576,CHINNAGURUVALUR,CUDDAPAH,"ANDHRA PRADESH"
"ANDHRA PRAGATHI GRAMEENA BANK",APGB0002037,516703008,CHINTHAKOMMADINNE,"CHINTAKOMMADINNE-516003 CHINTAKOMMADINNE MANDAL KADAPA DISTRICT",231377,CHINTHAKOMMADINNE,CUDDAPAH,"ANDHRA PRADESH"
"ANDHRA PRAGATHI GRAMEENA BANK",APGB0002035,516703525,KANAGUDUR,"KANAGUDUR-516175 DUVVUR MANDAL KADAPA DISTRICT",234875,KANAGUDUR,CUDDAPAH,"ANDHRA PRADESH"
"ANDHRA PRAGATHI GRAMEENA BANK",APGB0002033,516703507,"BRAHMAM GARIMATTAM","BRAHMAMGARI MATTAM-516503 BRAHMAMGARI MATTAM MANDAL, KADAPA DISTRICT",286026,"BRAHMAM GARIMATTAM",CUDDAPAH,"ANDHRA PRADESH"
"ANDHRA PRAGATHI GRAMEENA BANK",APGB0002032,516703742,NANDALUR,"NANDALUR-516150 NANDALUR MANDAL KADAPA DISTRICT",243048,NANDALUR,CUDDAPAH,"ANDHRA PRADESH"
"ANDHRA PRAGATHI GRAMEENA BANK",APGB0002024,516703702,ATLUR,"ATLUR ┬û 516501 ATLUR MANDAL KADAPA DISTRICT",278750,ATLUR,CUDDAPAH,"ANDHRA PRADESH"
"ANDHRA PRAGATHI GRAMEENA BANK",APGB0002023,516703542,KONDAPURAM,"KONDAPURAM (K) -516444 KONDAPURAM MANDAL KADAPA DISTRICT",274213,KONDAPURAM,CUDDAPAH,"ANDHRA PRADESH"
"ANDHRA PRAGATHI GRAMEENA BANK",APGB0002022,516703582,VEMPALLE,"VAIMPALLE-516329 VAIMPALLE MANDAL KADAPA DISTRICT",281242,VEMPALLE,CUDDAPAH,"ANDHRA PRADESH"
"ANDHRA PRAGATHI GRAMEENA BANK",APGB0002020,516703723,RAYAVARAM,"RAYAVARAM-516129 T.SUNDUPALLI MANDAL KADAPA DISTRICT",243672,RAYAVARAM,CUDDAPAH,"ANDHRA PRADESH"
"ANDHRA PRAGATHI GRAMEENA BANK",APGB0002019,516703102,PRODDATUR,"PRODDUTUR-516360 GANDHI ROAD, PRODDUTUR MANDAL KADAPA DISTRICT",243636,PRODDATUR,CUDDAPAH,"ANDHRA PRADESH"
"ANDHRA PRAGATHI GRAMEENA BANK",APGB0002018,516703662,OBULAVARIPALLE,"OBULAVARIPALLE-516108 OBULAVARIPALLE MANDAL KADAPA DISTRICT",256088,OBULAVARIPALLE,CUDDAPAH,"ANDHRA PRADESH"
"ANDHRA PRAGATHI GRAMEENA BANK",APGB0002015,516703524,"PEDDA PASUPULA","PEDDAPASUPULA-516411 PEDDAMUDIAM MANDAL KADAPA DISTRICT",272607,"PEDDA PASUPULA",CUDDAPAH,"ANDHRA PRADESH"
"ANDHRA PRAGATHI GRAMEENA BANK",APGB0002014,516703531,KORRAPADU,"KORRAPADU-516359 RAJUPALEM  MANDAL KADAPA DISTRICT",230157,KORRAPADU,CUDDAPAH,"ANDHRA PRADESH"
"ANDHRA PRAGATHI GRAMEENA BANK",APGB0002013,516703002,"KADAPA MAIN","KADAPA MAIN BRANCH NEAR KRISHNA THEATRE, MADRAS ROAD, KADAPA,  KADAPA DISTRICT. PIN  516001",242910,CUDDAPAH,CUDDAPAH,"ANDHRA PRADESH"
"ANDHRA PRAGATHI GRAMEENA BANK",APGB0002012,516703585,VEMULA,"VEMULA-516349 VEMULA MANDAL KADAPA DISTRICT",282481,VEMULA,CUDDAPAH,"ANDHRA PRADESH"
"ANDHRA PRAGATHI GRAMEENA BANK",APGB0002008,516703012,UPPARAPALLE,"UPPARAPALLE-516247 SIDDAVATAM MANDAL KADAPA DISTRICT",270066,UPPARAPALLE,CUDDAPAH,"ANDHRA PRADESH"
"ANDHRA PRAGATHI GRAMEENA BANK",APGB0002007,516703682,PORUMAMILLA,"PORUMAMILLA-516193 PORUMAMILLA MANDAL KADAPA DISTRICT",285235,PORUMAMILLA,CUDDAPAH,"ANDHRA PRADESH"
"ANDHRA PRAGATHI GRAMEENA BANK",APGB0002006,516703623,VEERABALLE,"VEERABALLI-516268 VEERABALLI MANDAL KADAPA DISTRICT",243426,VEERABALLE,CUDDAPAH,"ANDHRA PRADESH"
"ANDHRA PRAGATHI GRAMEENA BANK",APGB0002005,516703013,VALLUR,"VALLUR-516293 VALLUR MANDAL KADAPA DISTRICT",236482,VALLUR,CUDDAPAH,"ANDHRA PRADESH"
"ANDHRA PRAGATHI GRAMEENA BANK",APGB0002002,516703107,VEERAPANAYANIPALLE,"VEERAPUNAYUNIPALLE-516321 VEERAPUNAYUNIPALLE MANDAL KADAPA DISTRICT",270034,VEERAPANAYANIPALLE,CUDDAPAH,"ANDHRA PRADESH"
"ANDHRA PRAGATHI GRAMEENA BANK",APGB0001116,NA,GUTTURU,"DNO 2/62,KOTHACHERUVU ROAD, GUTTURU(VILLAGE),PENUKONDA(MANDAL),ANANTAPURAM (DIST),ANDHRA PRADESH. PIN-515164",8985519989,GUTTURU,ANANTAPURAM,"ANDHRA PRADESH"
"ANDHRA PRAGATHI GRAMEENA BANK",APGB0001115,NA,KONDAKAMARLA,"DNO 5/211, MAIN ROAD, KONDAKAMARLA VILLAGE,KONDAKAMARLA POST,OBULADEVARA CHERUVU MANDAL,ANANTAPUR DIST,ANDHRA PRADESH. PIN-515531",9440570217,KONDAKAMARLA,ANANTAPURAM,"ANDHRA PRADESH"
"ANDHRA PRAGATHI GRAMEENA BANK",APGB0001114,NA,RUDRAMPETA,"DNO 1/99-1,NEAR BYEPASS ROAD,RUDRAMPETA,ANANTAPUR(TOWN),ANDHRA PRADESH",9490158195,RUDRAMPETA,ANANTAPURAM,"ANDHRA PRADESH"
"ANDHRA PRAGATHI GRAMEENA BANK",APGB0001113,NA,NARSIMPALLI,"ANDHRA PRAGATHI GRAMEENA BANK,NARASIMPALLI BRANCH,OPP POST OFFICE,NARASIMPALLI. TADIMARRI(MANDAL),ANANTAPUR(DIST),ANDHRA PRADESH",9441368438,NARASIMPALLI,ANANTAPUR,"ANDHRA PRADESH"
"ANDHRA PRAGATHI GRAMEENA BANK",APGB0001112,NA,"HINDUPUR RPGT ROAD","17/1/4, HINDUPUR RGPT ROAD, HINDUPUR, ANANTAPURAM DISTRICT,ANDHRA PRADESH.",9493327247,HINDUPUR,ANANTAPURAM,"ANDHRA PRADESH"
"ANDHRA PRAGATHI GRAMEENA BANK",APGB0001111,NA,"NANEPPA NAGAR","D.NO 5/4/13A, NANEPPA NAGAR, LEPAKSHI ROAD, HINDUPUR.",9494038574,HINDUPUR,ANANTAPURAM,"ANDHRA PRADESH"
"ANDHRA PRAGATHI GRAMEENA BANK",APGB0001110,NA,"TADIPATRI SANJEEV NAGAR","DNO 13/915, FIRST ROAD, SANJEEV NAGAR, OPP KRISHNAPURAM,TADIPATRI",227645,TADIPATRI,ANANTAPURAM,"ANDHRA PRADESH"
"ANDHRA PRAGATHI GRAMEENA BANK",APGB0001109,NA,"KALYANADURG VALMIKI CIRICLE","D.NO 8/1184, HINDUPUR ROAD, VALMIKIN NAGAR, KALYANADURG-515761",220039,KALYANADURG,ANANTAPURAM,"ANDHRA PRADESH"
"ANDHRA PRAGATHI GRAMEENA BANK",APGB0001108,NA,"VIDYUTH NAGAR ANANTAPURAM","D.NO 11/1/464/2,VIDYUTH NAGAR CIRCLE, ANANTAPURAM",225422,ANANTAPURAM,ANANTAPURAM,"ANDHRA PRADESH"
"ANDHRA PRAGATHI GRAMEENA BANK",APGB0001107,NA,"KALYANADURG ROAD","DNO 6/64/2 GANESH NAGAR KALYANADURG ROAD ANANTAPURAM",225367,ANANTAPUR,ANANTAPURAM,"ANDHRA PRADESH"
"ANDHRA PRAGATHI GRAMEENA BANK",APGB0001106,NA,"HANUMESH NAGAR","HANUMESH NAGAR GUNTAKAL",9490158418,GUNTAKAL,ANANTAPURAM,"ANDHRA PRADESH"
"ANDHRA PRAGATHI GRAMEENA BANK",APGB0001105,NA,VANAVOLU,"GORANTLA MANDAL",7382633822,VANAVOLU,ANANTAPURAM,"ANDHRA PRADESH"
"ANDHRA PRAGATHI GRAMEENA BANK",APGB0001104,515703629,BELUGUPPA,"D.NO.3/5, BELUGUPPA VIL & PO,BELUGUPPA MANDAL, ANANTAPUR, PIN515 741",7382609272,BELUGUPPA,ANANTAPUR,"ANDHRA PRADESH"
"ANDHRA PRAGATHI GRAMEENA BANK",APGB0001103,515703204,"DHARMAVARAM KOTHAPET","D.NO.30/797, DHARMAVARAM MANDAL, ANANTAPUR, PIN515 671",7382633700,DHARMAVARAM,ANANTAPUR,"ANDHRA PRADESH"
"ANDHRA PRAGATHI GRAMEENA BANK",APGB0001102,515703603,"VENGALAMMA CHERUVU","D.NO 1/54, VENGALAMMA CHERUVU VILLAGE, BUKKAPATNAM POST, PUTTAPARTHY MANDAL, ANANTAPUR DISTRICT-515144",7382612442,PUTTAPARTHI,ANANTAPUR,"ANDHRA PRADESH"
"ANDHRA PRAGATHI GRAMEENA BANK",APGB0001101,515703013,TAPOVANAM-A,"TAPOVANAM, ANANTAPUR MANDAL, ANANTAPUR DIST",7382612441,ANANTAPUR,ANANTAPUR,"ANDHRA PRADESH"
"ANDHRA PRAGATHI GRAMEENA BANK",APGB0001100,515703724,RAMAGIRI,"RAMAGIRI VILLAGE & POST, RAMAGIRI MANDAL, ANANTAPUR DISTRICT, PIN-515672",7382633821,RAMGIRI,ANANTAPUR,"ANDHRA PRADESH"
"ANDHRA PRAGATHI GRAMEENA BANK",APGB0001099,515703666,RATNAGIRI,"D. NO. 9/302 A, RATNAGIRI VILLAGE & POST, ROLLA MANDAL, ANANTAPUR.  DISTRICT, PIN-515321",7382633813,ROLLA,ANANTAPUR,"ANDHRA PRADESH"
"ANDHRA PRAGATHI GRAMEENA BANK",APGB0001098,515703668,BASAVANAHALLI,"D. NO. 1/194, BASAVANAHALLI VILLAGE, AMARAPURAM MANDAL, ANANTAPUR DISTRICT,  PIN-515305",7382633706,ROLLA,ANANTAPUR,"ANDHRA PRADESH"
"ANDHRA PRAGATHI GRAMEENA BANK",APGB0001097,515703594,GODISELAPALLI,"D. NO. 4/117, GODISELAPALLI VILLAGE & POST, D. HIREHAL  MANDAL, ANANTAPUR DISTRICT, PIN-515 871",7382633818,RAYADURG,ANANTAPUR,"ANDHRA PRADESH"
"ANDHRA PRAGATHI GRAMEENA BANK",APGB0001096,515703628,GANGAVARAM,"GANGAVARAM VILLAGE, BELAGUPPA MANDAL ANANTAPUR PIN-515 761",7382600292,BELUGUPPA,ANANTAPUR,"ANDHRA PRADESH"
"ANDHRA PRAGATHI GRAMEENA BANK",APGB0001095,515703785,CHIGICHERLA,"D.NO.1-A-170,  CHIGICHERLA VILLAGE, DHARMAVARAM MANDAL ANANTAPUR PIN-515672",7382600291,DHARMAVARAM,ANANTAPUR,"ANDHRA PRADESH"
"ANDHRA PRAGATHI GRAMEENA BANK",APGB0001094,515703627,ENUMULADODDI,"D.NO.3/30,  ENUMULADODDI VILLAGE, KUNDURPI MANDAL ANANTAPUR PIN-515766",7382600290,KALYANDURG,ANANTAPUR,"ANDHRA PRADESH"
"ANDHRA PRAGATHI GRAMEENA BANK",APGB0001093,515703707,MOHAMMADABAD,"MOHAMMADABAD-515561  MOHAMMADABAD VIL &POSTAMADAGURU (M), ANANTAPUR (D)",9491308347,HINDUPUR,ANANTAPUR,"ANDHRA PRADESH"
"ANDHRA PRAGATHI GRAMEENA BANK",APGB0001092,515703845,KODURU,"KODUR VILLAGE & PO CHILAMATHUR MANDAL ANANTAPUR DISTRICT PIN- 515 601",9491308348,HINDUPUR,ANANTAPUR,"ANDHRA PRADESH"
"ANDHRA PRAGATHI GRAMEENA BANK",APGB0001091,515703548,NAGASAMUDRAM,"NAGASAMUDRAM VIL & PO GUNTAKAL MANDAL ANANTAPUR DISTRICT PIN-515 401",200339,GUNTAKAL,ANANTAPUR,"ANDHRA PRADESH"
"ANDHRA PRAGATHI GRAMEENA BANK",APGB0001090,515703506,"M. G. ROAD, KADIRI","D.NO.6-39, M.G.ROAD, KADIRI POST & MANDAL ANANTAPUR DISTRICT PIN-515 519",225032,KADIRI,ANANTAPUR,"ANDHRA PRADESH"
"ANDHRA PRAGATHI GRAMEENA BANK",APGB0001089,515703012,"ANANTAPUR-VENUGOPAL NAGAR","D.NO.16-1-290/A, 17TH WARD, VENUGOPALNAGAR-ANANTAPUR ANANTAPUR DISTRICT PIN-515 001",274368,ANANTAPUR,ANANTAPUR,"ANDHRA PRADESH"
"ANDHRA PRAGATHI GRAMEENA BANK",APGB0001088,515703746,"BUKKARAYA SAMUDRAM","D.NO.1/261 & 262 BUKKARAYASAMUDRAM, ANANTAPUR DISTRICT PIN-515 701",277844,"BUKKARAYA SAMUDRAM",ANANTAPUR,"ANDHRA PRADESH"
"ANDHRA PRAGATHI GRAMEENA BANK",APGB0001087,515703525,PEDDAVADUGUR,"D.NO.4/11-B, PEDDAVADUGUR  VIL & MANDAL, ANANTAPUR DISTRICT, PIN-515 405",243960,PEDAVADIGURI,ANANTAPUR,"ANDHRA PRADESH"
"ANDHRA PRAGATHI GRAMEENA BANK",APGB0001086,515703505,REKKAMANU,"REKKAMANU, GANDLAPENTA (MANDAL), ANANTAPUR (DIST) - 515521",264666,GANDLAPENTA,ANANTAPUR,"ANDHRA PRADESH"
"ANDHRA PRAGATHI GRAMEENA BANK",APGB0001085,515703203,MAMILLAPALLI,"MAMILLAPALLI, MUKTHAPURAM (POST), KANAGANIPALLI (MANDAL), ANANTAPUR (DIST) - 515641",201199,ANANTAPUR,ANANTAPUR,"ANDHRA PRADESH"
"ANDHRA PRAGATHI GRAMEENA BANK",APGB0001084,515703008,"MEDICAL COLLEGE, GOVT. GEN. HOSP., ANANTAPUR","MEDICAL COLLEGE-ANATAPUR-515 001 GOVERNMENT GENERAL HOSPITAL ANANTAPUR.",240252,ANANTAPUR,ANANTAPUR,"ANDHRA PRADESH"
"ANDHRA PRAGATHI GRAMEENA BANK",APGB0001083,515703007,"SAI JR. COLLEGE, TARAKNADH NGR, ANANTAPUR","SAI JUNIOR COLLEGE-ANANTAPUR-515 001 TARAKNATH NAGAR ANANTAPUR DISTRICT",272154,ANANTAPUR,ANANTAPUR,"ANDHRA PRADESH"
"ANDHRA PRAGATHI GRAMEENA BANK",APGB0001082,515703006,"NIRMALA CONVENT, REVENUE COLONY, ANANTAPUR","NIRMALA CONVENT-ANANTAPUR-515 001 REVENUE COLONY ANANTAPUR DISTRICT",244030,ANANTAPUR,ANANTAPUR,"ANDHRA PRADESH"
"ANDHRA PRAGATHI GRAMEENA BANK",APGB0001081,515703003,"MARUTHI-NAGAR BRANCH,ANANTAPUR","ANANTAPUR  MARUTHINAGAR BRANCH, DWARAKAMAYI TOWERS,  RAMA NAGAR MAIN ROAD,  ANANTAPUR, ANANTAPUR DISTRICT. PIN  515001",243116,ANANTAPUR,ANANTAPUR,"ANDHRA PRADESH"
"ANDHRA PRAGATHI GRAMEENA BANK",APGB0001080,515703562,KANEKAL,"KANEKAL-515871 MAIN ROAD,  KANEKAL MANDAL ANANTAPUR DISTRICT",257646,KANEKAL,ANANTAPUR,"ANDHRA PRADESH"
"ANDHRA PRAGATHI GRAMEENA BANK",APGB0001079,515703664,AGALI,"AGALI-515311 MAIN ROAD, NEAR WATER TANK,  AGALI MANDAL ANANTAPUR DISTRICT",284968,AGALI,ANANTAPUR,"ANDHRA PRADESH"
"ANDHRA PRAGATHI GRAMEENA BANK",APGB0001078,515703723,KOTHACHERUVU,"KOTHACHERUVU-515133 PUTTAPARTHI ROAD, KOTHACHERUVU MANDAL ANANTAPUR DISTRICT",280188,KOTHACHERUVU,ANANTAPUR,"ANDHRA PRADESH"
"ANDHRA PRAGATHI GRAMEENA BANK",APGB0001077,515703402,TADPATRI,"TADIPATRI-515411 TADIPATRI MANDAL ANANTAPUR DISTRICT",227645,TADPATRI,ANANTAPUR,"ANDHRA PRADESH"
"ANDHRA PRAGATHI GRAMEENA BANK",APGB0001076,515703102,HINDUPUR,"HINDUPUR-515201 PENUKONDA ROAD, HINDUPUR MANDAL ANANTAPUR DISTRICT",227047,HINDUPUR,ANANTAPUR,"ANDHRA PRADESH"
"ANDHRA PRAGATHI GRAMEENA BANK",APGB0001075,515703524,GOOTY,"GOOTY-515455 OPP: RTC BUS STAND, GOOTY MANDAL, ANANTAPUR DISTRICT",251936,GOOTY,ANANTAPUR,"ANDHRA PRADESH"
"ANDHRA PRAGATHI GRAMEENA BANK",APGB0001074,515703512,MUDIGUBBA,"MUDIGUBBA-515511 MUDIGUBBA MANDAL ANANTAPUR DISTRICT",256836,MUDIGUBBA,ANANTAPUR,"ANDHRA PRADESH"
"ANDHRA PRAGATHI GRAMEENA BANK",APGB0001073,515703683,PENUKONDA,"PENUKONDA-515110 PENUKONDA MANDAL  ANANTAPUR DISTRICT",221169,PENUKONDA,ANANTAPUR,"ANDHRA PRADESH"
"ANDHRA PRAGATHI GRAMEENA BANK",APGB0001072,515703743,NARPALA,"NARPALA, NARPALA (MANDAL), ANANTAPUR (DIST) - 515435",254636,GUGUDU,ANANTAPUR,"ANDHRA PRADESH"
"ANDHRA PRAGATHI GRAMEENA BANK",APGB0001071,515703004,"ANANTAPUR-PTC BRANCH","ANANTAPUR *  POLICE TRAINING COLLEGE BR. OPP.POLICE TRAINING COLLEGE,, ANANTAPUR,  ANANTAPUR DISTRICT  PIN  515001",270922,ANANTAPUR,ANANTAPUR,"ANDHRA PRADESH"
"ANDHRA PRAGATHI GRAMEENA BANK",APGB0001070,515703002,"ANANTPUR -AMBEDKAR ROAD BRANCH","AMBEDKAR ROAD  BRANCH OPP: Z.P.OFFICE,DR.AMBEDKAR  ROAD,  ANANTAPUR. PIN ┬û515001",249142,ANANTAPUR,ANANTAPUR,"ANDHRA PRADESH"
"ANDHRA PRAGATHI GRAMEENA BANK",APGB0001069,515703009,JELLIPALLI,"JELLIPALLI-515711 KUDAIR MANDAL ANANTAPUR DISTRICT",200245,UDIRIPIKONDA,ANANTAPUR,"ANDHRA PRADESH"
"ANDHRA PRAGATHI GRAMEENA BANK",APGB0001068,515703303,GADEKAL,"GADEKAL-515801 VIDAPANAKAL MANDAL ANANTAPUR DISTRICT",258711,GADEKAL,ANANTAPUR,"ANDHRA PRADESH"
"ANDHRA PRAGATHI GRAMEENA BANK",APGB0001067,515703527,EDDULAPALLI,"EDDULAPALLI-515775 PAMIDI MANDAL ANANTAPUR DISTRICT",244654,EDDULAPALLI,ANANTAPUR,"ANDHRA PRADESH"
"ANDHRA PRAGATHI GRAMEENA BANK",APGB0001066,515703684,PEDDAMANTHUR,"PEDDAMANTHUR-515124 RODDAM MANDAL ANANTAPUR DISTRICT",202106,PEDDAMANTHUR,ANANTAPUR,"ANDHRA PRADESH"
"ANDHRA PRAGATHI GRAMEENA BANK",APGB0001065,515703542,URAVAKONDA,"URAVAKONDA-515812 URAVAKONDA MANDAL ANANTAPUR DISTRICT",257002,URAVAKONDA,ANANTAPUR,"ANDHRA PRADESH"
"ANDHRA PRAGATHI GRAMEENA BANK",APGB0001064,515703014,B.KOTHAPALLI,"B. KOTHAPALLI-515581 TALUPULA MANDAL ANANTAPUR DISTRICT",247003,B.KOTHAPALLI,ANANTAPUR,"ANDHRA PRADESH"
"ANDHRA PRAGATHI GRAMEENA BANK",APGB0001063,515703722,KANAGANAPALLI,"KANAGANIPALLI-515641 KANAGANIPALLI MANDAL  ANANTAPUR DISTRICT",248307,KANAGANAPALLI,ANANTAPUR,"ANDHRA PRADESH"
"ANDHRA PRAGATHI GRAMEENA BANK",APGB0001062,515703545,PALTHUR,"PALTHUR-515870 VIDAPANAKAL MANDAL ANANTAPUR DISTRICT",258011,PALTHUR,ANANTAPUR,"ANDHRA PRADESH"
"ANDHRA PRAGATHI GRAMEENA BANK",APGB0001061,515703563,UDDEHAL,"UDDEHAL-515871 BOMMANAHAL MANDAL ANANTAPUR DISTRICT",239043,UDDEHAL,ANANTAPUR,"ANDHRA PRADESH"
"ANDHRA PRAGATHI GRAMEENA BANK",APGB0001060,515703544,RAKETLA,"RAKETLA-515812 URAVAKONDA MANDAL ANANTAPUR DISTRICT",200033,RAKETLA,ANANTAPUR,"ANDHRA PRADESH"
"ANDHRA PRAGATHI GRAMEENA BANK",APGB0001059,515703011,KUDAIR,"KUDAIR-515711 KUDAIR MANDAL ANANTAPUR DISTRICT",258557,KUDAIR,ANANTAPUR,"ANDHRA PRADESH"
"ANDHRA PRAGATHI GRAMEENA BANK",APGB0001058,515703010,GANDLAPARTHI,"GANDLAPARTHY-515641 RAPTHADU MANDAL ANANTAPUR DISTRICT",260252,GANDLAPARTHI,ANANTAPUR,"ANDHRA PRADESH"
"ANDHRA PRAGATHI GRAMEENA BANK",APGB0001057,515703526,TARIMALA,"TARIMELA-515611 SINGANAMALA MANDAL ANANTAPUR DISTRICT",285817,TARIMALA,ANANTAPUR,"ANDHRA PRADESH"
"ANDHRA PRAGATHI GRAMEENA BANK",APGB0001056,515703705,AMADAGURU,"AMADAGURU-515566 AMADAGURU MANDAL ANANTAPUR DISTRICT",243642,AMADAGURU,ANANTAPUR,"ANDHRA PRADESH"
"ANDHRA PRAGATHI GRAMEENA BANK",APGB0001055,515703844,BUDILI,"BUDILI-515241 GORANTLA MANDAL ANANTAPUR DISTRICT",246119,BUDILI,ANANTAPUR,"ANDHRA PRADESH"
"ANDHRA PRAGATHI GRAMEENA BANK",APGB0001054,515703626,DURADAKUNTA,"DURADAKUNTA-515787 KALYANADURG MANDAL ANANTAPUR DISTRICT",289866,DURADAKUNTA,ANANTAPUR,"ANDHRA PRADESH"
"ANDHRA PRAGATHI GRAMEENA BANK",APGB0001053,515703786,DADITHOTA,"DADITHOTA-515631 TADIMARRI MANDAL ANANTAPUR DISTRICT",237267,DADITHOTA,ANANTAPUR,"ANDHRA PRADESH"
"ANDHRA PRAGATHI GRAMEENA BANK",APGB0001052,515703745,B.PAPPUR,"B. PAPPUR-515435 NARPALA MANDAL ANANTAPUR DISTRICT",201221,B.PAPPUR,ANANTAPUR,"ANDHRA PRADESH"
"ANDHRA PRAGATHI GRAMEENA BANK",APGB0001051,515703625,THAGGUPARTHI,"THAGGUPARTHY-515741 BELUGUPPA MANDAL ANANTAPUR DISTRICT",201259,THAGGUPARTHI,ANANTAPUR,"ANDHRA PRADESH"
"ANDHRA PRAGATHI GRAMEENA BANK",APGB0001050,515703782,BATHALAPALLI,"BATHALAPALLI-515661 BATHALAPALLI MANDAL ANANTAPUR DISTRICT",242366,BATHALAPALLI,ANANTAPUR,"ANDHRA PRADESH"
"ANDHRA PRAGATHI GRAMEENA BANK",APGB0001049,515703742,GARLADINNE,"GARLADINNE (A)-515731 GARLADINNE MANDAL ANANTAPUR DISTRICT",286479,GARLADINNE,ANANTAPUR,"ANDHRA PRADESH"
"ANDHRA PRAGATHI GRAMEENA BANK",APGB0001048,515703663,HEMAVATHI,"HEMAVATHI-515286 AMARAPURAM MANDAL ANANTAPUR DISTRICT",262223,HEMAVATHI,ANANTAPUR,"ANDHRA PRADESH"
"ANDHRA PRAGATHI GRAMEENA BANK",APGB0001047,515703704,NALLACHERUVU,"NALLACHERUVU-515551 NALLACHERUVU MANDAL ANANTAPUR DISTRICT",253327,NALLACHERUVU,ANANTAPUR,"ANDHRA PRADESH"
"ANDHRA PRAGATHI GRAMEENA BANK",APGB0001046,515703667,NEELAKANTAPURAM,"NEELAKANTAPURAM-515291 MADAKASIRA MANDAL ANANTAPUR DISTRICT",289344,GOVINDAPURAM,ANANTAPUR,"ANDHRA PRADESH"
"ANDHRA PRAGATHI GRAMEENA BANK",APGB0001045,515703842,GOWNIVARIPALLI,"GOWNIVARIPALLI-515231 GORANTLA MANDAL ANANTAPUR DISTRICT",204299,GOWNIVARIPALLI,ANANTAPUR,"ANDHRA PRADESH"
"ANDHRA PRAGATHI GRAMEENA BANK",APGB0001044,515703730,TALAMARLA,"TALAMARLA-515133 KOTHACHERVU MANDAL ANANTAPUR DISTRICT",246430,TALAMARLA,ANANTAPUR,"ANDHRA PRADESH"
"ANDHRA PRAGATHI GRAMEENA BANK",APGB0001043,515703682,GORANTLA,"GORANTLA-515231 GORANTLA MANDAL ANANTAPUR DISTRICT",235462,GORANTLA,ANANTAPUR,"ANDHRA PRADESH"
"ANDHRA PRAGATHI GRAMEENA BANK",APGB0001042,515703662,MADAKASIRA,"MADAKASIRA-515301 MADAKASIRA MANDAL ANANTAPUR DISTRICT",288468,MADAKASIRA,ANANTAPUR,"ANDHRA PRADESH"
"ANDHRA PRAGATHI GRAMEENA BANK",APGB0001041,515703762,TALPULA,"TALUPULA-515581 TALUPULA MANDAL ANANTAPUR DISTRICT",250838,TALPULA,ANANTAPUR,"ANDHRA PRADESH"
"ANDHRA PRAGATHI GRAMEENA BANK",APGB0001040,515703706,NALLAGUTLAPALLI,"NALLAGUTLAPALLI-515571 TANAKAL MANDAL ANANTAPUR DISTRICT",200097,THAVALAM,ANANTAPUR,"ANDHRA PRADESH"
"ANDHRA PRAGATHI GRAMEENA BANK",APGB0001039,515703729,BANDAMEEDAPALLI,"BANDAMEEDAPALLI-515641 RAPTHADU MANDAL ANANTAPUR DISTRICT",260634,M.BANDAMEEDAPALLI,ANANTAPUR,"ANDHRA PRADESH"
"ANDHRA PRAGATHI GRAMEENA BANK",APGB0001038,515703404,CHEEMALAVAGUPALLI,"CHEEMALAVAGUPALLI-515408 PEDDAPAPPUR MANDAL ANANTAPUR DISTRICT",281611,CHEEMALAVAGUPALLI,ANANTAPUR,"ANDHRA PRADESH"
"ANDHRA PRAGATHI GRAMEENA BANK",APGB0001037,515703543,PATHAKOTHACHERUVU,"PATHA KOTHA CHERUVU -515401 GUNTAKAL MANDAL ANANTAPUR DISTRICT",200352,PATHAKOTHACHERUVU,ANANTAPUR,"ANDHRA PRADESH"
"ANDHRA PRAGATHI GRAMEENA BANK",APGB0001036,515703584,BHOOPASAMUDRAM,"BHOOPASAMUDRAM-515865 GUMMAGATTA MANDAL ANANTAPUR DISTRICT",255411,BHOOPASAMUDRAM,ANANTAPUR,"ANDHRA PRADESH"
"ANDHRA PRAGATHI GRAMEENA BANK",APGB0001035,515703602,PUTTAPARTHI,"PUTTAPARTHY  *  -515134 PUTTAPARTHY MANDAL, ANANTAPUR DISTRICT",287251,PUTTAPARTHI,ANANTAPUR,"ANDHRA PRADESH"
"ANDHRA PRAGATHI GRAMEENA BANK",APGB0001034,515703824,THIMMAPURAM,"THIMMAPURAM (A)-515611 KAMBADUR MANDAL ANANTAPUR DISTRICT",200048,THIMMAPURAM,ANANTAPUR,"ANDHRA PRADESH"
"ANDHRA PRAGATHI GRAMEENA BANK",APGB0001033,515703728,KANUMUKKALA,"KANUMUKKALA-515652 CHENNE KOTHAPALLI MANDAL ANANTAPUR DISTRICT",247287,KANUMUKKALA,ANANTAPUR,"ANDHRA PRADESH"
"ANDHRA PRAGATHI GRAMEENA BANK",APGB0001032,515703502,"KADIRI - MAIN BRANCH","KADIRI-515591, BY-PASS ROAD, KADIRI MANDAL ANANTAPUR DISTRICT",224032,KADIRI,ANANTAPUR,"ANDHRA PRADESH"
"ANDHRA PRAGATHI GRAMEENA BANK",APGB0001031,515703582,RAYADURG,"RAYADURG-515865 RAYADURG MANDAL ANANTAPUR DISTRICT",252108,RAYADURG,ANANTAPUR,"ANDHRA PRADESH"
"ANDHRA PRAGATHI GRAMEENA BANK",APGB0001030,515703622,KALYANDURG,"KALYANADURG-515761 MUDIGAL ROAD, KALYANADURG MANDAL ANANTAPUR DISTRICT",220039,KALYANDURG,ANANTAPUR,"ANDHRA PRADESH"
"ANDHRA PRAGATHI GRAMEENA BANK",APGB0001029,515703202,DHARMAVARAM,"DHARMAVARAM-515671, SLV MARKET, DHARMAVARAM MANDAL ANANTAPUR DISTRICT",223059,DHARMAVARAM,ANANTAPUR,"ANDHRA PRADESH"
"ANDHRA PRAGATHI GRAMEENA BANK",APGB0001028,515703727,N.S.GATE,"N.S. GATE-515621 RAMAGIRI MANDAL ANANTAPUR DISTRICT",202397,KUNTIMADDI,ANANTAPUR,"ANDHRA PRADESH"
"ANDHRA PRAGATHI GRAMEENA BANK",APGB0001027,515703406,PUTLUR,"PUTLUR-515414 PUTLUR MANDAL ANANTAPUR DISTRICT",276113,PUTLUR,ANANTAPUR,"ANDHRA PRADESH"
"ANDHRA PRAGATHI GRAMEENA BANK",APGB0001026,515703405,"PEDDA PAPPUR","PEDDAPAPPUR-515447 PEDDAPAPPUR MANDAL ANANTAPUR DISTRICT",282020,"PEDDA PAPPUR",ANANTAPUR,"ANDHRA PRADESH"
"ANDHRA PRAGATHI GRAMEENA BANK",APGB0001025,515703302,GUNTAKAL,"GUNTAKAL-515801 MANDY BAZAR, GUNTAKAL MANDAL ANANTAPUR DISTRICT",226071,GUNTAKAL,ANANTAPUR,"ANDHRA PRADESH"
"ANDHRA PRAGATHI GRAMEENA BANK",APGB0001024,515703642,PERUR,"PERUR-515621 RAMAGIRI MANDAL ANANTAPUR DISTRICT",269644,PERUR,ANANTAPUR,"ANDHRA PRADESH"
"ANDHRA PRAGATHI GRAMEENA BANK",APGB0001023,515703726,PAMUTHURTHI,"PAMUDURTHY-515154 BUKKAPATNAM MANDAL ANANTAPUR DISTRICT",243446,PAMUTHURTHI,ANANTAPUR,"ANDHRA PRADESH"
"ANDHRA PRAGATHI GRAMEENA BANK",APGB0001022,515703532,"NAMBULA POOLAKUNTA","NAMBULA POOLA KUNTA-515521 NAMBULA POOLA KUNTA MANDAL ANANTAPUR DISTRICT",259544,"NAMBULA POOLAKUNTA",ANANTAPUR,"ANDHRA PRADESH"
"ANDHRA PRAGATHI GRAMEENA BANK",APGB0001021,515703504,GANDLAPENTA,"GANDLAPENTA-515520 GANDLAPENTA MANDAL ANANTAPUR DISTRICT",254342,GANDLAPENTA,ANANTAPUR,"ANDHRA PRADESH"
"ANDHRA PRAGATHI GRAMEENA BANK",APGB0001020,515703604,PEDABALLI,"PEDABALLI-515231 PUTTAPARTHY MANDAL ANANTAPUR DISTRICT",238927,PEDABALLI,ANANTAPUR,"ANDHRA PRADESH"
"ANDHRA PRAGATHI GRAMEENA BANK",APGB0001019,515703593,SOMALAPURAM,"SOMALAPURAM-515865 D.HIREHAL MANDAL ANANTAPUR DISTRICT",255855,SOMALAPURAM,ANANTAPUR,"ANDHRA PRADESH"
"ANDHRA PRAGATHI GRAMEENA BANK",APGB0001018,515703583,GUMMAGATTA,"GUMMAGATTA-515865 GUMMAGATTA MANDAL ANANTAPUR DISTRICT",236708,GUMMAGATTA,ANANTAPUR,"ANDHRA PRADESH"
"ANDHRA PRAGATHI GRAMEENA BANK",APGB0001017,515703592,D.HIREHAL,"D.HIREHAL-515872 D.HIREHAL MANDAL ANANTAPUR DISTRICT",238432,D.HIREHAL,ANANTAPUR,"ANDHRA PRADESH"
"ANDHRA PRAGATHI GRAMEENA BANK",APGB0001016,515703624,SHETTUR,"SHETTUR-515767 SHETTUR MANDAL ANANTAPUR DISTRICT",283553,SHETTUR,ANANTAPUR,"ANDHRA PRADESH"
"ANDHRA PRAGATHI GRAMEENA BANK",APGB0001015,515703703,"OBULA DEVARA CHERUVU","OBULA DEVARA CHERUVU-515561 OBULA DEVARA CHERUVU MANDAL ANANTAPUR DISTRICT",258842,"OBULA DEVARA CHERUVU",ANANTAPUR,"ANDHRA PRADESH"
"ANDHRA PRAGATHI GRAMEENA BANK",APGB0001014,515703702,NALLAMADA,"NALLAMADA-515591 NALLAMADA MANDAL ANANTAPUR DISTRICT",257508,NALLAMADA,ANANTAPUR,"ANDHRA PRADESH"
"ANDHRA PRAGATHI GRAMEENA BANK",APGB0001013,515703783,RAMAPURAM(A),"RAMAPURAM (A)- 515672 BATHALAPALLI MANDAL ANANTAPUR DISTRICT",201814,D.CHERLOPALLI,ANANTAPUR,"ANDHRA PRADESH"
"ANDHRA PRAGATHI GRAMEENA BANK",APGB0001012,515703744,GUGUDU,"GUGUDU-515435 NARPALA MANDAL ANANTAPUR DISTRICT",283913,GUGUDU,ANANTAPUR,"ANDHRA PRADESH"
"ANDHRA PRAGATHI GRAMEENA BANK",APGB0001011,515703665,ROLLA,"ROLLA-515321 ROLLA MANDAL ANANTAPUR DISTRICT",289126,ROLLA,ANANTAPUR,"ANDHRA PRADESH"
"ANDHRA PRAGATHI GRAMEENA BANK",APGB0001010,515703843,KODIKONDA,"KODIKONDA-515601 CHILAMATHUR MANDAL ANANTAPUR DISTRICT",243731,KODIKONDA,ANANTAPUR,"ANDHRA PRADESH"
"ANDHRA PRAGATHI GRAMEENA BANK",APGB0001009,515703523,RAYALACHERUVU,"RAYALACHERVU-515455 YADIKI MANDAL ANANTAPUR DISTRICT",277550,RAYALACHERUVU,ANANTAPUR,"ANDHRA PRADESH"
"ANDHRA PRAGATHI GRAMEENA BANK",APGB0001008,515703503,KALASAMUDRAM,"KALASAMUDRAM-515591 KADIRI MANDAL ANANTAPUR DISTRICT",251364,KALASAMUDRAM,ANANTAPUR,"ANDHRA PRADESH"
"ANDHRA PRAGATHI GRAMEENA BANK",APGB0001007,515703522,PAMIDI,"PAMIDI-515775 PAMIDI MANDAL ANANTAPUR DISTRICT",245088,PAMIDI,ANANTAPUR,"ANDHRA PRADESH"
"ANDHRA PRAGATHI GRAMEENA BANK",APGB0001006,515703403,A.KONDAPURAM,"A.KONDAPURAM, ARAKATIVEMULA (POST), PUTLUR (MANDAL),ANANTAPUR (DIST)- 515445",9490158190,TADPATRI,ANANTAPUR,"ANDHRA PRADESH"
"ANDHRA PRAGATHI GRAMEENA BANK",APGB0001005,515703725,MARALA,"MARALA-515159 BUKKAPATNAM MANDAL ANANTAPUR DISTRICT",283620,MARALA,ANANTAPUR,"ANDHRA PRADESH"
"ANDHRA PRAGATHI GRAMEENA BANK",APGB0001004,515703823,NUTHIMADUGU,"NUTHIMADUGU-515787 KAMBADUR MANDAL ANANTAPUR DISTRICT",200633,NUTHIMADUGU,ANANTAPUR,"ANDHRA PRADESH"
"ANDHRA PRAGATHI GRAMEENA BANK",APGB0001003,515703623,MUDDINAYANIPALLI,"MUDDINAYANIPALLI-515761 KALYANADURG MANDAL ANANTAPUR DISTRICT",200622,MUDDINAYANIPALLI,ANANTAPUR,"ANDHRA PRADESH"
"ANDHRA PRAGATHI GRAMEENA BANK",APGB0001002,515703005,"ANANTAPUR  MAIN BRANCH","ANANTAPUR  MAIN BRANCH  B.S.N. COMPLEX, RAJU ROAD,  ANANTAPUR,  ANANTAPUR DISTRICT. PIN 515001",221022,ANANTAPUR,ANANTAPUR,"ANDHRA PRADESH"
"ANDHRA PRAGATHI GRAMEENA BANK",APGB0001001,515703103,LEPAKSHI,"LEPAKSHI-515331 LEPAKSHI MANDAL ANANTAPUR DISTRICT",240475,LEPAKSHI,ANANTAPUR,"ANDHRA PRADESH"
"ANDHRA PRAGATHI GRAMEENA BANK",APGB0000001,NA,RTGS-HO,"POST BOX 65, OPP OFFICERS' CLUB, KADAPA",222018,CUDDAPAH,CUDDAPAH,"ANDHRA PRADESH"
