BANK,IFSC,MICR,BRANCH,ADDRESS,CONTACT,CITY,DISTRICT,STATE
"THE SHAMRAO VITHAL COOPERATIVE BANK",SVCB0053003,NA,"THE GOOTY CO-OP TOWN BANK LTD- RAILWAY STATION ROAD","9- 828, RAILWAY STATION ROAD- 515402",252345,GOOTY,ANANTAPUR,"ANDHRA PRADESH"
"THE SHAMRAO VITHAL COOPERATIVE BANK",SVCB0053002,NA,"THE GOOTY CO-OP TOWN BANK LTD- GOOTY","7- 650/B, MAIN ROAD, NEAR RTC BUS STAND- 515401",252346,GOOTY,ANANTAPUR,"ANDHRA PRADESH"
"THE SHAMRAO VITHAL COOPERATIVE BANK",SVCB0052006,587259251,"THE ARYA VAISHYA COOP BANK LTD- KERUR","B. N. TOTGERI BUILDING, TMC NO 1806, MARKET POST, KERUR- 587206",9164890700,KERUR,BAGALKOTE,KARNATAKA
"THE SHAMRAO VITHAL COOPERATIVE BANK",SVCB0052005,580259254,"THE ARYA VAISHYA COOP BANK LTD- DHARWAD","AGADI COMPLEX, OLD DALAL MARKET, DHARWAD- 580001",9620001019,HUBLI-DHARWAD,DHARWAD,KARNATAKA
"THE SHAMRAO VITHAL COOPERATIVE BANK",SVCB0052004,NA,"THE ARYA VAISHYA COOP BANK LTD- NARGUND","NARGUND BRANCH, TMC ROAD, NARGUND- 582207",9739550176,NARGUND,GADAG,KARNATAKA
"THE SHAMRAO VITHAL COOPERATIVE BANK",SVCB0052003,NA,"THE ARYA VAISHYA COOP BANK LTD- GADAG","MAKAN GALLI, BASVESHWAR ROAD, NEAR MERCHANTS LIBERAL COOP BANK, GADAG- 582101",9620198925,GADAG,GADAG,KARNATAKA
"THE SHAMRAO VITHAL COOPERATIVE BANK",SVCB0052002,580259255,"THE ARYA VAISHYA COOP BANK LTD- HOSUR","P. B. ROAD, NEAR KARNATAKA STATE WAREHOUSE, HOSUR, HUBLI- 580021",7411477994,HUBLI-DHARWAD,DHARWAD,KARNATAKA
"THE SHAMRAO VITHAL COOPERATIVE BANK",SVCB0051002,462425002,"SRI SATYA SAI NAGARIK SAHAKARI BANK MARYADIT- BHOPAL","134 ZONE -1, M. P. NAGAR, BHOPAL- 462011",2559651,BHOPAL,BHOPAL,"MADHYA PRADESH"
"THE SHAMRAO VITHAL COOPERATIVE BANK",SVCB0049003,NA,"THE INNESPETA CO-OPERATIVE URBAN BANK LTD- SYAMALA NAGAR","86-8-8, V.L.PURAM, TILAK ROAD- 533103",9440646898,RAJAHMUNDRY,"EAST GODAVARI","ANDHRA PRADESH"
"THE SHAMRAO VITHAL COOPERATIVE BANK",SVCB0049002,533821102,"THE INNESPETA CO-OPERATIVE URBAN BANK LTD- RAJAHMUNDRY","FIRST FLOOR, D.NO. 36-26-2/ 1&2, BALLAWARI STREET,BEHIND KOTIPALLI BUS STAND- 533101",9866551347,RAJAHMUNDRY,"EAST GODAVARI","ANDHRA PRADESH"
"THE SHAMRAO VITHAL COOPERATIVE BANK",SVCB0048003,NA,"SREE MAHAYOGI LAKSHAMMA CO-OP BANK LTD- MARKET YARD","AGRICULTURE MARKET COMMITTEE, PIN CODE- 518301",251868,ADONI,KURNOOL,"ANDHRA PRADESH"
"THE SHAMRAO VITHAL COOPERATIVE BANK",SVCB0047008,413585376,"GAUTAM SAHAKARI BANK LTD- RAHURI","OPPOSITE BUS STAND,A/P- RAHURI, TALUKA RAHURI, AHMEDNAGAR PIN- 413705",232866,RAHURI,AHMADNAGAR,MAHARASHTRA
"THE SHAMRAO VITHAL COOPERATIVE BANK",SVCB0047007,NA,"GAUTAM SAHAKARI BANK- POHEGAON","A/P- POHEGAON,TALUKA- KOPARGAON, DISTRICT- AHMEDNAGAR, PIN- 423605",275366,POHEGAON,AHMADNAGAR,MAHARASHTRA
"THE SHAMRAO VITHAL COOPERATIVE BANK",SVCB0047006,NA,"GAUTAM SAHAKARI BANK- SAKURI","A/P- SAKURI, TALUKA RAHATA, DISTRICT AHMEDNAGAR, PIN- 423607",242521,RAHATA,AHMADNAGAR,MAHARASHTRA
"THE SHAMRAO VITHAL COOPERATIVE BANK",SVCB0047005,NA,"GAUTAM SAHAKARI BANK LTD- WAVI","A/P- WAVI, TALUKA SINNAR, DISTRICT NASHIK, PIN CODE 422104",283511,SINNAR,NASIK,MAHARASHTRA
"THE SHAMRAO VITHAL COOPERATIVE BANK",SVCB0047004,NA,"GAUTAM SAHAKARI BANK LTD- SANVATSAR","A/P- SHINGNAPUR, TALUKA- KOPARGAON, DISTRICT- AHMEDNAGAR, PIN- 423603",222466,KOPARGAON,AHMADNAGAR,MAHARASHTRA
"THE SHAMRAO VITHAL COOPERATIVE BANK",SVCB0047003,423585001,"GAUTAM SAHAKARI BANK- KOPARGAON","A/P- KOPARGAON, DISTRICT- AHMEDNAGAR, PIN- 423601",222790,KOPARGAON,AHMADNAGAR,MAHARASHTRA
"THE SHAMRAO VITHAL COOPERATIVE BANK",SVCB0047002,NA,"GAUTAM SAHAKARI BANK LTD- GAUTAMNAGAR","A/P- KOLPEWADI, TALUKA KOPARGAON, DISTRICT AHMEDNAGAR, PIN- 423602",261266,KOPARGAON,AHMADNAGAR,MAHARASHTRA
"THE SHAMRAO VITHAL COOPERATIVE BANK",SVCB0046002,400068257,"THE SHALINI SAHAKARI BANK LTD- N.M. JOSHI MARG","395, N.M.JOSHI MARG, OPP. APOLLO MILL, MUMBAI- 400011",23093179,MUMBAI,"GREATER BOMBAY",MAHARASHTRA
"THE SHAMRAO VITHAL COOPERATIVE BANK",SVCB0045004,577898501,"SRI GANAPATHI URBAN CO-OP BANK LTD- HOSANAGAR","CHOWDAMMA BEEDI, HOSANAGAR",8185221032,HOSANAGARA,SHIMOGA,KARNATAKA
"THE SHAMRAO VITHAL COOPERATIVE BANK",SVCB0045003,577898202,"SRI GANAPATHI URBAN CO-OP BANK LT- SHIMOGA","SANTOSH BUILDING, JAIL ROAD, SHIMOGA",8182274529,SHIMOGA,SHIMOGA,KARNATAKA
"THE SHAMRAO VITHAL COOPERATIVE BANK",SVCB0045002,577898402,"SRI GANAPATHI URBAN CO-OP BANK LTD- SAGAR","CHAMRAJPET, SAGAR",8183226114,SAGAR,SHIMOGA,KARNATAKA
"THE SHAMRAO VITHAL COOPERATIVE BANK",SVCB0043006,444819502,"JANATA SAHAKARI BANK LTD AMRAVATI- ANJANGAON SURJI","PAN ATAI, NEAR VITHAL MANDIR, ANJANGAON SURJI, TQ- ANJANGAON SURJI, DISTRICT AMRAVATI",242099,"ANJANGAON SURJI",AMRAVATI,MAHARASHTRA
"THE SHAMRAO VITHAL COOPERATIVE BANK",SVCB0043005,444819103,"JANATA SAHAKARI BANK LTD AMRAVATI- RATHI NAGAR","NEAR RATHI HOSTEL, V.M.V. ROAD, AMRAVATI",2550430,AMRAVATI,AMRAVATI,MAHARASHTRA
"THE SHAMRAO VITHAL COOPERATIVE BANK",SVCB0043004,444819501,"JANATA SAHAKAR BANK LTD AMRAVATI- SHIRAGAON KASBA","GAJARI BAZAR, SHIRASGAON KASABA, TQ CHANDUR BAZAR, DIST AMRAVATI",226465,"CHANDUR BAZAR",AMRAVATI,MAHARASHTRA
"THE SHAMRAO VITHAL COOPERATIVE BANK",SVCB0043003,444819102,"JANATA SAHAKARI BANK LTD AMRAVATI- RAJAPETH","NEAR GADRE MOTERS, RAJAPETH SQUARE, AMRAVATI",2674297,AMRAVATI,AMRAVATI,MAHARASHTRA
"THE SHAMRAO VITHAL COOPERATIVE BANK",SVCB0043002,444819101,"JANATA SAHAKARI BANK LTD AMRAVATI- AMRAVATI","PANCHSHEEL CINEMA MARG, AMRAVATI",2676457,AMRAVATI,AMRAVATI,MAHARASHTRA
"THE SHAMRAO VITHAL COOPERATIVE BANK",SVCB0042005,NA,"THE REVDANDA CO-OP URBAN BANK LTD- POYNAD","AT POST- POYNAD, RADA HARI SANKUL, TALUKA ALIBAG, DISTRICT RAIGAD, PIN NO 402108",8407988777,POYNAD,RAIGAD,MAHARASHTRA
"THE SHAMRAO VITHAL COOPERATIVE BANK",SVCB0042004,NA,"THE REVDANDA CO-OP URBAN BANK LTD- ROHA","L.G.SHOPPING CENTRE, MEENA BAZAR, AT POST -ROHA, TALUKA ALIBAG, DISTRICT RAIGAD, PIN NO 402109",9545059988,ROHA,RAIGAD,MAHARASHTRA
"THE SHAMRAO VITHAL COOPERATIVE BANK",SVCB0042003,NA,"THE REVDANDA CO-OP URBAN BANK LTD- ALIBAG","SHRIBA NO 03, RADIKA APPARTMENT, ALIBAG, TALUKA ALIBAG, DISTRICT RAIGAD, PIN NO- 402201",9545069988,ALIBAG,RAIGAD,MAHARASHTRA
"THE SHAMRAO VITHAL COOPERATIVE BANK",SVCB0042002,NA,"THE REVDANDA CO-OP URBAN BANK LTD- REVDANDA","AT POST- REVDANDA, TALUKA ALIBAG, DISTRICT RAIGAD,PIN NO 402201",8407966777,Revdanda,RAIGAD,MAHARASHTRA
"THE SHAMRAO VITHAL COOPERATIVE BANK",SVCB0041392,560226392,"THE HOTEL INDUSTRIALISTS COOP BANK LTD- MATHIKERE","NO.63, SAHAKARA SUVARNA, TRIVENI ROAD, 4TH MAIN, GOKUL, 1ST STAGE, 2ND PHASE, MATHIKERE, BANGALORE",8041077282,BANGALORE,"BANGALORE URBAN",KARNATAKA
"THE SHAMRAO VITHAL COOPERATIVE BANK",SVCB0041385,560226385,"THE HOTEL INDUSTRIALISTS CO-OP BANK LTD- GANGANAGAR","NO. 18/3,1ST MAIN, OPP. 108/B BUS TERMINUS,GANGANAGAR, BANGALORE- 560032",22429754,BANGALORE,"BANGALORE URBAN",KARNATAKA
"THE SHAMRAO VITHAL COOPERATIVE BANK",SVCB0041350,560226350,"THE HOTEL INDUSTRIALISTS CO-OP BANK LTD- UTTARAHALLI","NO. 8, CHOWDESHWARI COMPLEX, 1ST FLOOR, UTTARAHALLI CIRCLE,SUBRAMANYAPURA POST,BANGALORE-560061",26396465,SUBRAMANYAPURA,"BANGALORE URBAN",KARNATAKA
"THE SHAMRAO VITHAL COOPERATIVE BANK",SVCB0041341,560226341,"THE HOTEL INDUSTRIALISTS CO-OP BANK LTD- HALASURU","NO 38, PANNA CHAMBERS, PALANI MODALIAR ROAD,HALASOORU, BANGALORE- 560008",25566859,BANGALORE,"BANGALORE URBAN",KARNATAKA
"THE SHAMRAO VITHAL COOPERATIVE BANK",SVCB0041319,560226319,"THE HOTEL INDUSTRIALISTS CO-OP BANK LTD- RAJAJINAGAR","SAHAKARA VIKASA, NO 377, 8TH CROSS,1ST MAIN, 1ST STAGE,6TH BLOCK,INDUSTRIAL TOWN, RAJAJINAGAR, BANGALORE - 560044",23153555,BANGALORE,"BANGALORE URBAN",KARNATAKA
"THE SHAMRAO VITHAL COOPERATIVE BANK",SVCB0041315,560226315,"THE HOTEL INDUSTRIALISTS CO-OP BANK LTD- JAYANAGAR","SAHAKARA KUSUSMA, NO 1350,SOUTH END MAIN ROAD,9TH BLOCK, JAYANAGAR, BANGALORE- 560069",26589888,BANGALORE,"BANGALORE URBAN",KARNATAKA
"THE SHAMRAO VITHAL COOPERATIVE BANK",SVCB0041269,560226269,"THE HOTEL INDUSTRIALISTS CO-OP BANK LTD- BALAPET","NO 553,1ST FLOOR, O.T.C ROAD,BALAPET, BANGALORE- 560053",22207204,BANGALORE,"BANGALORE URBAN",KARNATAKA
"THE SHAMRAO VITHAL COOPERATIVE BANK",SVCB0041268,560226268,"THE HOTEL INDUSTRIALISTS CO-OP BANK LTD- CHAMRAJPET","SAHAKARA SOURABHA, NO 234, 2ND CROSS, 4TH MAIN ROAD,CHAMRAJPET, BANGALORE- 560018",26678329,BANGALORE,"BANGALORE URBAN",KARNATAKA
"THE SHAMRAO VITHAL COOPERATIVE BANK",SVCB0040002,422506002,"PADMASHREE DR. VITTHALRAO VIKHE PATIL CO-OP BANK LTD - NASHIK","G-3/4, SUYOJIT AVADHOOT TOWER,OLD GANGAPUR NAKA, GANGAPUR ROAD,NASHIK",2314756,NASHIK,NASIK,MAHARASHTRA
"THE SHAMRAO VITHAL COOPERATIVE BANK",SVCB0039002,560226254,"THE CITIZEN CO OP BANK LTD - RAJAJINAGAR, DR. RAJKUMAR ROAD","651/A, D BLOCK, 2ND STAGE, FIRST MAIN ROAD, DR. RAJKUMAR ROAD, RAJAJINAGAR, BANGALORE - 560010",23321923,BANGALORE,"BANGALORE URBAN",KARNATAKA
"THE SHAMRAO VITHAL COOPERATIVE BANK",SVCB0038003,NA,"THE KALWAN MERCHANTS COOP BANK LTD-ABHONA┬á","MAIN ROAD, ABHONA AT/POST-ABHONA,TAL-KALWAN, DIST-NASHIK - 423 502",240417,ABHONA,NASHIK,MAHARASHTRA
"THE SHAMRAO VITHAL COOPERATIVE BANK",SVCB0038002,NA,"THE KALWAN MERCHANTS COOP BANK LTD-KALWAN","SAPTASHRUNGI, G.T.KOTHAWADE PATH, SHIVAJI NAGAR, KALWAN, NASHIK - 423 501",221223,KALWAN,NASHIK,MAHARASHTRA
"THE SHAMRAO VITHAL COOPERATIVE BANK",SVCB0037004,440827502,"SHRI KRISHNA CO OP BANK LTD- BHIWAPUR","GAWARISHANKAR GUPTA COMPLEX, MAIN ROAD, BHIWAPUR- 441201",8600002119,BHIWAPUR,NAGPUR,MAHARASHTRA
"THE SHAMRAO VITHAL COOPERATIVE BANK",SVCB0037003,440089251,"SHRIKRISHNA CO OP BANK LTD-NARSALA","SWASTIK SANKUL, HUDKESHWAR ROAD, NARSALA, MHALGINAGAR, NAGPUR",8600733312,NARSALA,NAGPUR,MAHARASHTRA
"THE SHAMRAO VITHAL COOPERATIVE BANK",SVCB0037002,440827501,"SHRI KRISHNA CO OP BANK LTD- UMRER","NEHRU VYAYAM MANDAL BLDG, MAIN ROAD, ITWARI, UMRER- 441203",8600002118,UMRER,NAGPUR,MAHARASHTRA
"THE SHAMRAO VITHAL COOPERATIVE BANK",SVCB0036004,NA,"THE LASALGAON MERCHANTS CO-OP BANK LTD-UGAON","UGAON, TAL NIPHAD",244415,UGAON,NASHIK,MAHARASHTRA
"THE SHAMRAO VITHAL COOPERATIVE BANK",SVCB0036003,NA,"THE LASALGAON MERCHANTS CO-OP BANK LTD-VADALI BHOI","BAZARPETH, VADALI BHOI",270559,"VADALI BHOI",NASHIK,MAHARASHTRA
"THE SHAMRAO VITHAL COOPERATIVE BANK",SVCB0036002,422806152,"THE LASALGAON MERCHANTS CO-OP BANK LTD-MAIN LASALGAON","APEKSHAPURTI, 79, M G ROAD - TAL NIPHAD - 422 306",266058,LASALGAON,NASHIK,MAHARASHTRA
"THE SHAMRAO VITHAL COOPERATIVE BANK",SVCB0035009,414807001,"THE KOPARGAON PEOPLES COOP BANK LTD- AHMEDNAGAR","GANZ BAZAR, SARAF GALLI, MATHURA LAND BLDG",2345939,AHMADNAGAR,AHMADNAGAR,MAHARASHTRA
"THE SHAMRAO VITHAL COOPERATIVE BANK",SVCB0035008,431880002,"THE KOPARGAON PEOPLES COOP BANK LTD- AURANGABAD","NARHAR COMPLEX, NEAR PAITHAN GATE, GULMANDI",2349544,AURANGABAD,AURANGABAD,MAHARASHTRA
"THE SHAMRAO VITHAL COOPERATIVE BANK",SVCB0035007,431880501,"THE KOPARGAON PEOPLES COOP BANK LTD- LASUR STATION","NEAR LASUR STATION",242200,LASUR,AURANGABAD,MAHARASHTRA
"THE SHAMRAO VITHAL COOPERATIVE BANK",SVCB0035006,423802352,"THE KOPARGAON PEOPLES COOP BANK LTD - YEOLA","BALAJI GALLI, YEOLA",267260,YEOLA,NASIK,MAHARASHTRA
"THE SHAMRAO VITHAL COOPERATIVE BANK",SVCB0035005,423802501,"THE KOPARGAON PEOPLES COOP BANK LTD- PUNTAMBA","MAIN BAZAR PETH, TAL RAHATA",274267,PUNTAMBA,AHMADNAGAR,MAHARASHTRA
"THE SHAMRAO VITHAL COOPERATIVE BANK",SVCB0035004,423802502,"THE KOPARGAON PEOPLES COOP BANK LTD- RAHATA","DR. LODHAS HOSPITAL, KHANDOBA GALLI",242032,RAHATA,AHMADNAGAR,MAHARASHTRA
"THE SHAMRAO VITHAL COOPERATIVE BANK",SVCB0035003,423802301,"THE KOPARGAON PEOPLES COOP BANK LTD- SHIRDI","SUTAR GALLI, SHIRDI",255482,SHIRDI,AHMADNAGAR,MAHARASHTRA
"THE SHAMRAO VITHAL COOPERATIVE BANK",SVCB0035002,423802001,"THE KOPARGAON PEOPLES COOP BANK LTD-KOPARGAON","M.PHULE MARG, BANK ROAD , KOPARGAON",226785,KOPARGAON,AHMADNAGAR,MAHARASHTRA
"THE SHAMRAO VITHAL COOPERATIVE BANK",SVCB0034005,NA,"THE ANANTHPUR COOP TOWN BANK  LTD - HINDUPUR","R.P.G.T ROAD, HINDUPUR",227766,HINDUPUR,ANANTAPUR,"ANDHRA PRADESH"
"THE SHAMRAO VITHAL COOPERATIVE BANK",SVCB0034004,NA,"THE ANANTHPUR COOP TOWN BANK LTD - RAM NAGAR","NEAR CRESENT SCHOOL ROAD, RAM NAGAR 515001",238899,ANANTAPUR,ANANTAPUR,"ANDHRA PRADESH"
"THE SHAMRAO VITHAL COOPERATIVE BANK",SVCB0034003,NA,"THE ANANTHPUR COOP TOWN BANK LTD- GANDHI BAZAR","SAIFULLA COMPLEX, GANDHI BAZAR 515001",231127,ANANTAPUR,ANANTAPUR,"ANDHRA PRADESH"
"THE SHAMRAO VITHAL COOPERATIVE BANK",SVCB0034002,NA,"THE ANANTHPUR COOP TOWN BANK LTD - SUBHASH ROAD","SUBHASH ROAD, ANANTAPUR 515001",275475,ANANTAPUR,ANANTAPUR,"ANDHRA PRADESH"
"THE SHAMRAO VITHAL COOPERATIVE BANK",SVCB0033008,580211256,"THE HUBLI URBAN COOP BANK  HIREPETH","JABIN BLDG, AKKI HONDA, HIREPETH",2228229,HUBLI,DHARWAD,KARNATAKA
"THE SHAMRAO VITHAL COOPERATIVE BANK",SVCB0033007,580211257,"THE HUBLI URBAN COOP BANK DHARAWAD","MUDHOLKAR BLDG, VIJAYA ROAD, BEHIND CBT",2228379,DHARWAD,DHARWAD,KARNATAKA
"THE SHAMRAO VITHAL COOPERATIVE BANK",SVCB0033006,580211255,"THE HUBLI URBAN COOP BANK GOKUL RD","AIYENGAR BAKERY BLDG, APOORVA NAGAR CROSS, GOKUL ROAD",2228329,HUBLI,DHARWAD,KARNATAKA
"THE SHAMRAO VITHAL COOPERATIVE BANK",SVCB0033005,580211254,"THE HUBLI URBAN COOP BANK KESHWAPUR","DESHPANDE BUILDING, BESIDE PETROL BUNK, BENGERI PARASWADI ROAD",2228239,HUBLI,DHARWAD,KARNATAKA
"THE SHAMRAO VITHAL COOPERATIVE BANK",SVCB0033004,580211253,"THE HUBLI URBAN COOP BANK SIRUR PRK","PREETI AASHIYANA, SIRUR PARK, VIDYA NAGAR",2228279,HUBLI,DHARWAD,KARNATAKA
"THE SHAMRAO VITHAL COOPERATIVE BANK",SVCB0033003,580211252,"THE HUBLI URBAN COOP BANK OLD HUBLI","HUBLIKAR BLDG, LATTI PETH ROAD, OLD HUBLI, DURGAD BAIL",2228339,HUBLI,DHARWAD,KARNATAKA
"THE SHAMRAO VITHAL COOPERATIVE BANK",SVCB0033002,580211251,"THE HUBLI URBAN COOP BANK HUBLI","SIR SIDDAPPA KAMBLI RD, OPP MUNICIPAL CORPORATION",2228249,HUBLI,DHARWAD,KARNATAKA
"THE SHAMRAO VITHAL COOPERATIVE BANK",SVCB0032002,500259253,"THE CATHOLIC COOP U B- SECUNDERABAD","AMRUTHAVANI, 50 SEBASTIAN ROAD, SECUNDERABAD 500003",27702130,SECUNDERABAD,HYDERABAD,"ANDHRA PRADESH"
"THE SHAMRAO VITHAL COOPERATIVE BANK",SVCB0031006,431897402,"JAIPRAKASH NARYN NAG SAH BK HINGOLI","KHURANA PETROL PUMP, NAGAR PARISHAD ROAD, DISTRICT HINGOLI 431515",223230,HINGOLI,HINGOLI,MAHARASHTRA
"THE SHAMRAO VITHAL COOPERATIVE BANK",SVCB0031002,431897000,"JAIPRAKASH NARYN NAG SAH BK-BASMATH","SHREE CHATRAPATI SHIVAJI CHOWK,PARBHANI ROAD, BASMATHNAGAR 431512",222905,BASMATH,HINGOLI,MAHARASHTRA
"THE SHAMRAO VITHAL COOPERATIVE BANK",SVCB0030014,415869352,"SARJERAO D NAIK SHIRALA BK- MALKAPUR","AKAR PRIDE, NEAR DATTA MANDIR, AGASHIVNAGAR, MALKAPUR, KARAD, DISTRICT SATARA 415110",242811,KARAD,SATARA,MAHARASHTRA
"THE SHAMRAO VITHAL COOPERATIVE BANK",SVCB0030013,WAITING,"SARJERAO D NAIK SHIRALA BK- NERLE","GRAMPANCHAYAT MILKAT NO 1056, CITY SURVEY NO 307, NERLE, TAL WALWA, DISTRICT SANGLI 415406",278577,NERLE,SANGLI,MAHARASHTRA
"THE SHAMRAO VITHAL COOPERATIVE BANK",SVCB0030012,416869509,"SARJERAO D NAIK SHIRALA BK - WATEGAON","NEAR S.T. STAND, WATEGAON, TAL. WALVA DISTRICT, SANGLI",5272194,WATEGAON,SANGLI,MAHARASHTRA
"THE SHAMRAO VITHAL COOPERATIVE BANK",SVCB0030011,416869508,"SARJERAO D NAIK SHIR BK-BAHADURWADI","NEAR S.T. STAND, ZILLA PARISHAD SCHOOL, BAHADURWADI",273455,BAHADURWADI,SANGLI,MAHARASHTRA
"THE SHAMRAO VITHAL COOPERATIVE BANK",SVCB0030010,416869507,"SARJERAO D NAIK SHIRALA BK- SARUD","GRAM SACHIVALYA BUILDING, SARUD",244900,SARUD,KOLHAPUR,MAHARASHTRA
"THE SHAMRAO VITHAL COOPERATIVE BANK",SVCB0030009,416012251,"SARJERAO D NAIK SHIRALA BK-KOLHAPUR","DABHOLKAR CORNER, ROYAL PLAZA, KOLHAPUR",2653902,KOLHAPUR,KOLHAPUR,MAHARASHTRA
"THE SHAMRAO VITHAL COOPERATIVE BANK",SVCB0030008,416869506,"SARJERAO D NAIK SHIRALA BK- KAMERI","BAZAR PETH, KAMERI",271871,KAMERI,SANGLI,MAHARASHTRA
"THE SHAMRAO VITHAL COOPERATIVE BANK",SVCB0030007,416012154,"SARJERAO D NAIK SHIRALA BK- SANGLI","JUNA STATION ROAD, SAMANTH MANSION,SANGLI",2373577,SANGLI,SANGLI,MAHARASHTRA
"THE SHAMRAO VITHAL COOPERATIVE BANK",SVCB0030006,416869504,"SARJERAO D NAIK SHIRALA BK -CHIKALI","VISHWASRAO S NAIK KHARKHANA, CHIKALI",272138,CHIKALI,SANGLI,MAHARASHTRA
"THE SHAMRAO VITHAL COOPERATIVE BANK",SVCB0030005,416869505,"SARJERAO D NAIK SHIRALA BK- KOKRUD","NEAR S.T. STAND, KOKRUD",224002,KOKRUD,SANGLI,MAHARASHTRA
"THE SHAMRAO VITHAL COOPERATIVE BANK",SVCB0030004,416869503,"SARJERAO D NAIK SHIRALA BK- SAGAON","NEAR S.T. STAND, SAGAON",225035,SAGAON,SANGLI,MAHARASHTRA
"THE SHAMRAO VITHAL COOPERATIVE BANK",SVCB0030003,416869501,"SARJERAO D NAIK SHIRALA BK- MANGLE","PETH LINE, MANGLE",220176,MANGLE,SANGLI,MAHARASHTRA
"THE SHAMRAO VITHAL COOPERATIVE BANK",SVCB0030002,416869502,"SARJERAO D NAIK SHIRALA BK- SHIRALA","SOMWAR PETH, JADHAV BUILDING, SHIRALA",272194,SHIRALA,SANGLI,MAHARASHTRA
"THE SHAMRAO VITHAL COOPERATIVE BANK",SVCB0029002,500143262,"SECUNDERABAD UCB - MUSHEERABAD","1 4 908,7,2,B,1 TO 4, MUSHEERABAD, HYDERABAD, 500020",27673537,HYDERABAD,HYDERABAD,"ANDHRA PRADESH"
"THE SHAMRAO VITHAL COOPERATIVE BANK",SVCB0028002,500143002,"TIRUMALA COOP URB BK - MALAKPET HYD","H.NO 16,10,27,105,7,5, TIRUMALAPRIDE,1 FLOOR, MALAKPET MAIN ROAD, HYDERABAD 500036",24544457,HYDERABAD,HYDERABAD,"ANDHRA PRADESH"
"THE SHAMRAO VITHAL COOPERATIVE BANK",SVCB0027004,WAITING,"MYSORE MERCHANT COOP BK- HEBBAL","GROUND FLOOR, BUILDING NO. 412, HEBBAL MAIN ROAD, 1ST STAGE, HEBBAL, MYSORE",2515077,HEBBAL,MYSORE,KARNATAKA
"THE SHAMRAO VITHAL COOPERATIVE BANK",SVCB0027003,570565003,"MYSORE MERCH COOP BANK","BANDIPALYA BRANCH,B BLOCK,APMC YARD,MYSORE 570 025",2489564,MYSORE,MYSORE,KARNATAKA
"THE SHAMRAO VITHAL COOPERATIVE BANK",SVCB0027002,570565002,"MYSORE MERCH COOP BANK","JAGANMOHAN PALACE ROAD,MYSORE 570 024",2432938,MYSORE,MYSORE,KARNATAKA
"THE SHAMRAO VITHAL COOPERATIVE BANK",SVCB0026004,WAITING,"KOILKUNTLA COOP BK LTD- BALAJI COMPLEX","2/ 428/ 129, BALAJI COMPLEX, NANDYAL- 518501",242333,NANDYAL,KURNOOL,"ANDHRA PRADESH"
"THE SHAMRAO VITHAL COOPERATIVE BANK",SVCB0026003,518869102,"KOILKUNTLA COOP BK LTD NANDYAL","D NO.3 90,BYRMAL STREET,NANDYAL 518 501",220717,NANDYAL,KURNOOL,"ANDHRA PRADESH"
"THE SHAMRAO VITHAL COOPERATIVE BANK",SVCB0026002,518869622,"KOILKUNTLA COOP BK LTD KOILKUNTLA","D NO.8 13,MAIN ROAD,KOILKUNTLA 518 134",225043,KOILKUNTLA,KURNOOL,"ANDHRA PRADESH"
"THE SHAMRAO VITHAL COOPERATIVE BANK",SVCB0025003,NA,"SIRCILLA URBAN BK YELLAREDDY PET","H NO 10 252 BY 1 YELLAREDDYPET,505 303",244112,YELLAREDDIPET,KARIMNAGAR,"ANDHRA PRADESH"
"THE SHAMRAO VITHAL COOPERATIVE BANK",SVCB0025002,505850502,"SIRCILLA URBAN BK SIRCILLA","H NO 6 6 95,THSIL ROAD,POST SIRCILLA,DIST KARIMNAGAR,505301",232241,SIRCILLA,KARIMNAGAR,"ANDHRA PRADESH"
"THE SHAMRAO VITHAL COOPERATIVE BANK",SVCB0024005,NA,"MAH. NAGARI SAH.BK-SHIRUR ANANTPAL","MAIN ROAD, SHIRUR ANANTPAL; DIST. LATUR-413544",250726,"SHIRUR ANANTPAL",LATUR,MAHARASHTRA
"THE SHAMRAO VITHAL COOPERATIVE BANK",SVCB0024004,NA,"MAH. NAGARI SAH.BK-AHMEDPUR","NANDED ┬ûLATUR ROAD, MAIN ROAD, AHMEDPUR -413515, DIST. LATUR",264686,AHMEDPUR,LATUR,MAHARASHTRA
"THE SHAMRAO VITHAL COOPERATIVE BANK",SVCB0024003,413807053,"MAH. NAGARI SAH.BK-VIVEKANAND CHWK","VIVEKANAND CHOWK, LATUR -413512",250726,LATUR,LATUR,MAHARASHTRA
"THE SHAMRAO VITHAL COOPERATIVE BANK",SVCB0024002,413807052,"MAH. NAGARI SAH.BK-MARKET YARD","MARKET YARD, KAVHA ROAD, LATUR -413512",249745,LATUR,LATUR,MAHARASHTRA
"THE SHAMRAO VITHAL COOPERATIVE BANK",SVCB0023011,431811507,"SHANKAR NAGARI SAHKARI BK- HADGAON","NEAR SHRI MAHADEV MANDIR, MAIN ROAD, HADGAON- 431712",222840,HADGAON,NANDED,MAHARASHTRA
"THE SHAMRAO VITHAL COOPERATIVE BANK",SVCB0023010,431811002,"SHANKAR NAGARI SAHKARI BK- CIDCO AURANGABAD","SAGAR PLAZA, NEAR HIGH COURT, AURANGABAD",2472444,AURANGABAD,AURANGABAD,MAHARASHTRA
"THE SHAMRAO VITHAL COOPERATIVE BANK",SVCB0023009,431811506,"SHANKAR NAGARI SAHKARI BK- NARSI","NARSI CHOWK, NARSI, TQ. NAIGAON, DIST. NANDED.",266444,NAIGAON,NANDED,MAHARASHTRA
"THE SHAMRAO VITHAL COOPERATIVE BANK",SVCB0023008,431811505,"SHANKAR NAGARI SAHKARI BK- MUDKHED","MONDHA MARKET, MUDKHED, TQ. MUDKHED , DISTRICT. NANDED",275544,NANDED,NANDED,MAHARASHTRA
"THE SHAMRAO VITHAL COOPERATIVE BANK",SVCB0023007,431811504,"SHANKAR NAGARI SAHKARI BK- PURNA","SHASTRI NAGAR, MAIN ROAD, PURNA, TQ. PURNA, DISTRICT PARBHANI",255292,PURNA,PARBHANI,MAHARASHTRA
"THE SHAMRAO VITHAL COOPERATIVE BANK",SVCB0023006,431811102,"SHANKAR NAGARI SAHKARI BK- KABRA NAGAR, NANDED","SHOP NO 3 & 4, NEAR AMBIKA MANGAL KARYALAYA, KABRA NAGAR, NANDED",266388,NANDED,NANDED,MAHARASHTRA
"THE SHAMRAO VITHAL COOPERATIVE BANK",SVCB0023005,431811503,"SHANKAR NAGARI SAHKARI BK-LOHA","MARKET YARD, LOHA, TAL: LOHA; DIST: NANDED",242208,LOHA,NANDED,MAHARASHTRA
"THE SHAMRAO VITHAL COOPERATIVE BANK",SVCB0023004,431811502,"SHANKAR NAGARI SAHKARI BK-BHOKAR","MONDHA, BHOKAR, TAL: BHOKAR; DIST: NANDED",222995,BHOKAR,NANDED,MAHARASHTRA
"THE SHAMRAO VITHAL COOPERATIVE BANK",SVCB0023003,431811501,"SHANKAR NAGARI SAHKARI BK-ARDHAPUR","MAIN ROAD, ARDHAPUR, TAL: ARDHAPUR; DIST:NANDED",272697,ARDHAPUR,NANDED,MAHARASHTRA
"THE SHAMRAO VITHAL COOPERATIVE BANK",SVCB0023002,431811101,"SHANKAR NAGARI SAHKARI BK-NANDED","POKARN COMPLEX, NEW MONDHA, NANDED",285566,"NEW MONDHA",NANDED,MAHARASHTRA
"THE SHAMRAO VITHAL COOPERATIVE BANK",SVCB0022002,411174369,"ASHOK NAGARI SAHKARI BK LTD-PIMPRI","2/9, LIG SANT TUKARAM NAGAR-PIMPRI - PUNE 411018",27423880,"PIMPRI CHINCHWAD",PUNE,MAHARASHTRA
"THE SHAMRAO VITHAL COOPERATIVE BANK",SVCB0021002,400068331,"SHREERAM SAHAKARI BK LTD-FERBUNDER","SHOP NO 8 BY 9,NEW BAWAN CHWAL NO.42,R.B.MARG,FERBUNDER,MUMBAI 400033",0,FERBUNDER,FERBUNDER,MAHARASHTRA
"THE SHAMRAO VITHAL COOPERATIVE BANK",SVCB0020007,400068409,"SREE NARAYAN GURU COOP BK- CBD BELAPUR","SHOP NO 2, KUKREJA PLAZA, D WING, GROUND FLOOR, PLOT NO 47, SECTOR 11, CBD BELAPUR, NAVI MUMBAI- 400614",27564757,"NEW BOMBAY",THANE,MAHARASHTRA
"THE SHAMRAO VITHAL COOPERATIVE BANK",SVCB0020006,400068408,"SREE NARAYAN GURU COOP BK- KOPARKHAIRANE","GIRIRAJ DARSHAN CHS LTD., SHOP NO 3&4, PLOT NO 6,SECTOR 9, KOPARKHAIRANE,NAVI MUMBAI- 400709",27545444,"NEW BOMBAY",THANE,MAHARASHTRA
"THE SHAMRAO VITHAL COOPERATIVE BANK",SVCB0020005,400068393,"SREE NARAYAN GURU COOP BK-NERUL","6 & 7, BALSHET APARTMENT, PLOT NO. B / 104, SECTOR 23/B, DARAVE, NERUL - 400706",27710055,KAMOTHE,RAIGAD,MAHARASHTRA
"THE SHAMRAO VITHAL COOPERATIVE BANK",SVCB0020004,400068389,"SREE NARAYAN GURU COOP BK-MULUND","5, HANSA┬á VILLA, J.J. ROAD, MULUND (W), MUMBAI - 400080",25617575,MUMBAI,"GREATER BOMBAY",MAHARASHTRA
"THE SHAMRAO VITHAL COOPERATIVE BANK",SVCB0020003,400068385,"SREE NARAYAN GURU COOP BK-BHANDUP","28/29; ANIRAJ TOWER, JANATA MARKET, L.B.S. MARG, BHANDUP (W); MUMBAI- 400078",25961530,MUMBAI,"GREATER BOMBAY",MAHARASHTRA
"THE SHAMRAO VITHAL COOPERATIVE BANK",SVCB0020002,400068374,"SREE NARAYAN GURU COOP BK-CHEMBUR","SREE NARAYAN NAGAR, P.L. LOKHANDE MARG, CHEMBUR (W), MUMBAI- 400089",25251740,MUMBAI,"GREATER BOMBAY",MAHARASHTRA
"THE SHAMRAO VITHAL COOPERATIVE BANK",SVCB0019005,411164324,"SHRI GANESH SAHAKARI BK- BANER BALEWADI","S.NO. 9/16, PLOT NO.1 &2, NEAR LAXMI MATA MANDIR CHOWK, BALEWADI, PUNE 411045",9011907868,BALEWADI,PUNE,MAHARASHTRA
"THE SHAMRAO VITHAL COOPERATIVE BANK",SVCB0019004,411164322,"SHRI GANESH SAH BANK- WALHEKARWADI","SR NO 133/1, GURUDWARA CHOWK, WALHEKARWADI, CHINCHWAD, PUNE 411033",9011907868,PUNE,PUNE,MAHARASHTRA
"THE SHAMRAO VITHAL COOPERATIVE BANK",SVCB0019003,411164309,"SHRI GANESH SAHAKARI BK-RAHATANI","PARL PALLADIUM, RAHATANI CHOWK, RAHATANI, PUNE 411017",9552566018,PUNE,PUNE,MAHARASHTRA
"THE SHAMRAO VITHAL COOPERATIVE BANK",SVCB0019002,411164287,"SHRI GANESH SAHAKARI BK-SANGAVI","SR NO 53/1B 2 & 14, PIMPLE GURAV, NEW SANGAVI, PUNE 411061",27286314,SANGAVI,PUNE,MAHARASHTRA
"THE SHAMRAO VITHAL COOPERATIVE BANK",SVCB0018007,560226337,SRIRAMPURAM,"NO.29 BY 1,3RD CROSS,7TH MAIN,SRIRAMPURAM,BANGALORE 560 021",0,BANGALORE,"BANGALORE URBAN",KARNATAKA
"THE SHAMRAO VITHAL COOPERATIVE BANK",SVCB0018006,560226328,VIDYARANYAPURA,"NO 703,3RD BLOCK,B E L LAYOUT,VIDYARANYAPURA,BANGALORE 560 097",0,BANGALORE,"BANGALORE URBAN",KARNATAKA
"THE SHAMRAO VITHAL COOPERATIVE BANK",SVCB0018005,560226314,VIJAYANAGAR,"NO.326 BY 327,WIDIA LAYOUT,CHANDRALAYOUT MAIN ROAD,BANGALORE 560 040",0,BANGALORE,"BANGALORE URBAN",KARNATAKA
"THE SHAMRAO VITHAL COOPERATIVE BANK",SVCB0018004,560226313,MAHALAKSHMIPURAM,"NO.1 JYOTHI COMPLEX NANDINI LAYOUT MAIN ROAD MAHALAKSHMIPURAM BANGALORE 560 096",0,BANGALORE,"BANGALORE URBAN",KARNATAKA
"THE SHAMRAO VITHAL COOPERATIVE BANK",SVCB0018003,560226292,KAMALANAGAR,"NO.55,8TH MAIN B.E.M.L.LAYOUT,KAMALANAGAR BANGALORE 560 079",0,BANGALORE,"BANGALORE URBAN",KARNATAKA
"THE SHAMRAO VITHAL COOPERATIVE BANK",SVCB0018002,560226262,RAJAJINAGAR,"NO.1703 2ND BLOCK RAJAJINAGAR BANGALORE 560 010",0,BANGALORE,"BANGALORE URBAN",KARNATAKA
"THE SHAMRAO VITHAL COOPERATIVE BANK",SVCB0017002,500015252,"SRI BHARATHI COOP BK-HIMAYATHNGR","SUNDARA SADAN,3-4-462/5,ST. NO. 5,HIMAYATNAGAR, HYDERABAD 500 026",27634914,HYDERABAD,HYDERABAD,"ANDHRA PRADESH"
"THE SHAMRAO VITHAL COOPERATIVE BANK",SVCB0016101,412801002,"WAI URBAN COOP BK LTD-WAI","591, GANPATI ALI, WAI TAL. WAI, DIST SATARA-412803",220007,WAI,SATARA,MAHARASHTRA
"THE SHAMRAO VITHAL COOPERATIVE BANK",SVCB0016024,WAITING,"WAI URBAN COOP BK LTD- SANGALI CITY","CTS NO1058/ A1 TO A5, GROUND FLOOR, NEAR MODERN BAKERY, ST STAND ROAD, GAONBHAG, SANGLI- 416416",8380012179,SANGLI-MIRAJ-KUPWAD,SANGLI,MAHARASHTRA
"THE SHAMRAO VITHAL COOPERATIVE BANK",SVCB0016023,WAITING,"WAI URBAN COOP BK LTD- NASRAPUR","SHOP NO 3 & 4, HARIOM BUILDING, PLOT NO 1& 6, GRAMPANCHAYAT MILKAT NO 620, NASARAPUR, TALUKA BHOR, PUNE- 412213",9011024778,NASARAPUR,PUNE,MAHARASHTRA
"THE SHAMRAO VITHAL COOPERATIVE BANK",SVCB0016022,411074264,"WAI URBAN COOP BK LTD- UTTAMNAGAR","PANDHARINATH NAGAR HOUSING SOCIETY, GROUND FLOOR, SHOP NO 11,12,13 NDA ROAD, SR NO 84/1, AT POST- SHIVANE UTTAMNAGAR, TALUKA HAVELI, PUNE- 411023",9922419649,SHIVANE,PUNE,MAHARASHTRA
"THE SHAMRAO VITHAL COOPERATIVE BANK",SVCB0016021,411074262,"WAI URBAN COOP BK LTD- AMBEGAON","SURVEY NO 34, HISSA NO 12/1, SHOP NO S1/S2/S3/S4, BELDARE PRESTIGE, KATRAJ AMBEGAON ROAD, AMBEGAON, PUNE - 411046",9922901643,PUNE,PUNE,MAHARASHTRA
"THE SHAMRAO VITHAL COOPERATIVE BANK",SVCB0016020,NA,"WAI URBAN COOP BK LTD- KOTHRUD","ANAND NILAY CO-OP HOUSING SOCIETY, SHOP NO 7 & 8, SURVEY NO 1, KOTHRUD, PUNE -411038",8380012179,PUNE,PUNE,MAHARASHTRA
"THE SHAMRAO VITHAL COOPERATIVE BANK",SVCB0016019,WAITING,"WAI URBAN COOP BK LTD - THERGAON","SURVEY NO 21/1A, DANGE CHOWK, THERGAON,PIMPRI-CHINCHWAD, PUNE 411033",9922419649,"PIMPRI CHINCHWAD",PUNE,MAHARASHTRA
"THE SHAMRAO VITHAL COOPERATIVE BANK",SVCB0016018,411074258,"WAI URBAN COOP BK LTD-CHAKAN","NANA SMRUTI, NEAR VEGETABLE MARKET, PROPERTY NO. 515/1, 515/2, 515/3, 514, CHAKAN, TAL:KHED; DIST: PUNE, 410501",249277,CHAKAN,PUNE,MAHARASHTRA
"THE SHAMRAO VITHAL COOPERATIVE BANK",SVCB0016017,411074257,"WAI URBAN COOP BK LTD-HADAPSAR","SHOP NO 25/26, GROUND FLOOR, FORTUNE ESTATES, PLOT NO 58, PUNE-SOLAPUR ROAD, HADAPSAR- 411028",24411977,HADAPSAR,PUNE,MAHARASHTRA
"THE SHAMRAO VITHAL COOPERATIVE BANK",SVCB0016016,411074255,"WAI URBAN COOP BK LTD-BIBVEWADI","635/2, 642,643, PLOT NO. 1, MAHESH CO-OP HOUSING SOCIETY, BIBVEWADI, PUNE- 411037",24223777,PUNE,PUNE,MAHARASHTRA
"THE SHAMRAO VITHAL COOPERATIVE BANK",SVCB0016015,411074254,"WAI URBAN COOP BK LTD-SINHAGAD RD","545/14, AJYANKATARA, SINHAGAD ROAD, OPP P.L. DESHPANDE GARDEN, PUNE, 411030",24252777,PUNE,PUNE,MAHARASHTRA
"THE SHAMRAO VITHAL COOPERATIVE BANK",SVCB0016014,416823151,"WAI URBAN COOP BK LTD-SANGLI","25, KORE TERRACE, NEMINATH NAGAR, NEAR GANPATI MANDIR, VISHRAMBAG, SANGLI-416415",2303877,SANGLI-MIRAJ-KUPWAD,SANGLI,MAHARASHTRA
"THE SHAMRAO VITHAL COOPERATIVE BANK",SVCB0016013,411074252,"WAI URBAN COOP BK LTD-SADASHIVPETH","1999, SADASHIV PETH OPP ABHINAV KALA MAHAVIDYALAYA TILAK ROAD, PUNE-411030",24477377,PUNE,PUNE,MAHARASHTRA
"THE SHAMRAO VITHAL COOPERATIVE BANK",SVCB0016012,415822151,"WAI URBAN COOP BK LTD-PHALTAN","KRISHNA HIGHTS, RAVIWAR PETH, SHIVAJI CHOWK, NEAR DHUMAL HOSPITAL, PHALTAN-115523",220077,PHALTAN,SATARA,MAHARASHTRA
"THE SHAMRAO VITHAL COOPERATIVE BANK",SVCB0016011,NA,"WAI URBAN COOP BK LTD-ARPHAL","AT ARPHAL, POST: VADUTH; TAL: SATARA; DIST: SATARA-415011",264208,VADUTH,SATARA,MAHARASHTRA
"THE SHAMRAO VITHAL COOPERATIVE BANK",SVCB0016010,415822001,"WAI URBAN COOP BK LTD-SATARA CITY","TULJABHAVANI COMPLEX, YADOGOPAL PETH, SATARA-415001",280677,SATARA,SATARA,MAHARASHTRA
"THE SHAMRAO VITHAL COOPERATIVE BANK",SVCB0016009,NA,"WAI URBAN COOP BK LTD-SONGIRWADI","DHUMAL BUILDING, NEAR MAIN POST OFFICE, SONGIRWADI, WAI-421803",227177,WAI,SATARA,MAHARASHTRA
"THE SHAMRAO VITHAL COOPERATIVE BANK",SVCB0016008,415822352,"WAI URBAN COOP BK LTD-MALKAPUR","┬á299/2, KALASH PRIDE, PUNE BANGLORE HIGHWAY, NEAR HOTEL SANGAM, MALKAPUR, KARAD, DIST: SATARA -415101",223319,KARAD,SATARA,MAHARASHTRA
"THE SHAMRAO VITHAL COOPERATIVE BANK",SVCB0016007,NA,"WAI URBAN COOP BK LTD-MEDHA","MARDHEKR BUILDING, MEDHA, TAL: JAWALI, DIST: SATARA-412012",285377,MEDHA,SATARA,MAHARASHTRA
"THE SHAMRAO VITHAL COOPERATIVE BANK",SVCB0016006,NA,"WAI URBAN COOP BK LTD-UMBRAJ","NEAR ZILLA PARISHAD PRATHMIK SHALA, GAJALAXMI COMPLEX, 1ST FLOOR, UMBRAJ, TAL: KARAD, DIST- SATARA-415109",264368,UMBRAJ,SATARA,MAHARASHTRA
"THE SHAMRAO VITHAL COOPERATIVE BANK",SVCB0016005,NA,"WAI URBAN COOP BK LTD-KRISHNANAGAR","NEAR NAIK VEET BHATTI, KRISHNANAGAR, SATARA, TAL & DIST. SATARA-415003",244119,SATARA,SATARA,MAHARASHTRA
"THE SHAMRAO VITHAL COOPERATIVE BANK",SVCB0016004,412801152,"WAI URBAN COOP BK LTD-SHIRWAL","JIWALA, NEAR S. T. STAND, SHIRWAL, TAL.- KHANDALA; DIST- SATARA-415003",244203,SHIRWAL,SATARA,MAHARASHTRA
"THE SHAMRAO VITHAL COOPERATIVE BANK",SVCB0016003,NA,"WAI URBAN COOP BK LTD-LONAND","SHASTRI CHOWK, SATARA PUNE ROAD, AT POST. LONAND, TAL. KHANDALA; DIST.- SATARA-415521",225156,LONAND,SATARA,MAHARASHTRA
"THE SHAMRAO VITHAL COOPERATIVE BANK",SVCB0016002,NA,"WAI URBAN COOP BK LTD-PANCHGANI","OPP. S.T STAND PANCHGANI TAL. MAHABALESHWAR DIST. SATARA-412805",240220,PANCHGANI,SATARA,MAHARASHTRA
"THE SHAMRAO VITHAL COOPERATIVE BANK",SVCB0015007,444823102,"ARVIND SAHAKARI BANK LTD- AMRAVATI","RAJAPETH, OPP. POLICE STATION, AMRAVATI",2567656,AMRAVATI,AMRAVATI,MAHARASHTRA
"THE SHAMRAO VITHAL COOPERATIVE BANK",SVCB0015006,444823352,"ARVIND SAHAKARI BANK LTD- WARUD","APPROACH ROAD, BEHIND KATHIWALE COMPLEX,WARUD- 444906",234142,WARUD,AMRAVATI,MAHARASHTRA
"THE SHAMRAO VITHAL COOPERATIVE BANK",SVCB0015005,440485252,"ARVIND SAHAKARI BANK LTD- GANDHIBAG","NEAR ADARSHA VIDYAMANDIR, GANDHIBAG, C.A. ROAD, NAGPUR 440018",2733314,NAGPUR,NAGPUR,MAHARASHTRA
"THE SHAMRAO VITHAL COOPERATIVE BANK",SVCB0015004,NA,"ARVIND SAHAKARI BANK LTD- SAONER","HOUSE NO 42, AWADHUT WADI,CIVIL LINES, SAONER-441107",234451,SAONER,NAGPUR,MAHARASHTRA
"THE SHAMRAO VITHAL COOPERATIVE BANK",SVCB0015003,441823152,"ARVIND SAHAKARI BANK LTD- KATOL","MAIN ROAD, KATOL TAH, DISTRICT NAGPUR",222710,NAGPUR,NAGPUR,MAHARASHTRA
"THE SHAMRAO VITHAL COOPERATIVE BANK",SVCB0015002,440485251,"ARVIND SAHKRI BK LTD-DIGDOH,HINGNA","RADAKE LAYOUT, HINGNA ROAD, DIGDOH , ┬áNAGPUR  440016",235830,HINGNA,NAGPUR,MAHARASHTRA
"THE SHAMRAO VITHAL COOPERATIVE BANK",SVCB0014004,411164274,"DEFENCE ACCOUNTS COOPBKLTD-CDA(SC)","NO.1 FINANCE ROAD, PUNE-411001",26134716,PUNE,PUNE,MAHARASHTRA
"THE SHAMRAO VITHAL COOPERATIVE BANK",SVCB0014003,411164273,"DEFENCE ACCOUNTS COOPBKLTD-CDA(O)","GOLIBAR MAIDAN, PUNE - 411001",26445519,PUNE,PUNE,MAHARASHTRA
"THE SHAMRAO VITHAL COOPERATIVE BANK",SVCB0014002,411164280,"DEFENCE ACCOUNTS COOPBKLTD-TILAKRD","2013, SADASHIV PETH, TILAK ROAD, PUNE - 411030",24472214,PUNE,PUNE,MAHARASHTRA
"THE SHAMRAO VITHAL COOPERATIVE BANK",SVCB0013999,400087001,"SAHYADRI  SAHAKARI BANK- HEAD OFFICE","446, J.S.S ROAD, CHIRABAZAR, MUMBAI- 400002",22017477,MUMBAI,"GREATER BOMBAY",MAHARASHTRA
"THE SHAMRAO VITHAL COOPERATIVE BANK",SVCB0013009,400087009,"SAHYADRI SAHAKARI BANK-DOMBIVLI","SHOP NO. 11 TO 14 CHIRAG CHS.LTD, FADKE ROAD, DOMBIVLI (E)",2439896,DOMBIVLI,THANE,MAHARASHTRA
"THE SHAMRAO VITHAL COOPERATIVE BANK",SVCB0013008,400087008,"SAHYADRI SAHAKARI BANK-BHIWANDI","SHOP NO, 1,2, & 2-A, ARJUN SAGAR APARTMENT, ANJUR NAKA, AGRA ROAD, BHIWANDI, DIST- THANE PIN- 421 302",278833,BHIWANDI,THANE,MAHARASHTRA
"THE SHAMRAO VITHAL COOPERATIVE BANK",SVCB0013007,400087007,"SAHYADRI SAHAKARI BANK-KAMOTHE","SURAJ COMPLEX, SHOP NO 2 & 3,PLOT NO. 2 &21, SECTOR NO. 36, KAMOTHE NAVI MUMBAI -410209",32194229,KAMOTHE,RAIGAD,MAHARASHTRA
"THE SHAMRAO VITHAL COOPERATIVE BANK",SVCB0013006,415087002,"SAHYADRI SAHAKARI BANK-SATARA CITY","CITY POINT, POWAI NAKA, SATARA-415001",232105,SATARA,SATARA,MAHARASHTRA
"THE SHAMRAO VITHAL COOPERATIVE BANK",SVCB0013005,400087005,"SAHYADRI SAHAKARI BANK-KANDIVLI(W)","SAHYADRI NAGAR, CHARKHOP, KANDIVLI (W), MUMBAI -400 067",28692529,MUMBAI,"GREATER BOMBAY",MAHARASHTRA
"THE SHAMRAO VITHAL COOPERATIVE BANK",SVCB0013004,400087004,"SAHYADRI SAHAKARI BANK-LALBAUG","PHANSE BUILDING, DR. B.A. ROAD, OPP. DIGVIJAY MILL, LALBAUG, MUMBAI -400 012",24703583,MUMBAI,"GREATER BOMBAY",MAHARASHTRA
"THE SHAMRAO VITHAL COOPERATIVE BANK",SVCB0013003,400087003,"SAHYADRI SAHAKARI BANK-VITHALWADI","94/96, BHAGWAN KALACHI WADI, BHULESHWAR MAR, MUMBAI -400 002",22425589,MUMBAI,"GREATER BOMBAY",MAHARASHTRA
"THE SHAMRAO VITHAL COOPERATIVE BANK",SVCB0013002,400087002,"SAHYADRI SAHAKARI BANK-CHIRA BAZAR","5/7, VIJAY WADI, DR. N. N. SHAHA MARG, CHIRA BAZAR, MUMBAI -400 002",22054671,MUMBAI,"GREATER BOMBAY",MAHARASHTRA
"THE SHAMRAO VITHAL COOPERATIVE BANK",SVCB0012005,WAITING,"SHREE MAHALAXMI COOP CRD BK- GOKAK EXTENSION","PLOT NO 14, RS NO. 201, GOKAK EXTENSION AREA, PIN- 591307",229530,GOKAK,BELGAUM,KARNATAKA
"THE SHAMRAO VITHAL COOPERATIVE BANK",SVCB0012004,NA,"SHREE MAHALAXMI COOP CRD BK- GHATAPRABHA","TPC NO 377/2, STATION ROAD, GHATAPRABHA",9916763387,GHATAPRABHA,BELGAUM,KARNATAKA
"THE SHAMRAO VITHAL COOPERATIVE BANK",SVCB0012003,NA,"SHREE MAHALAXMI COOP CRD BK- BELGAUM","CTS NO 3935/51, CLUB ROAD, NEAR CIVIL HOSPITAL, BELGAUM- 590002",9611350555,BELGAUM,BELGAUM,KARNATAKA
"THE SHAMRAO VITHAL COOPERATIVE BANK",SVCB0012002,591851502,"SHREE MAHALAXMI COOP CRD BK-GOKAK","CTS NO.3838A,GURUWARPETH GOKAK, DIST BELGAUM, KARNATAKA 591307",226530,GOKAK,BELGAUM,KARNATAKA
"THE SHAMRAO VITHAL COOPERATIVE BANK",SVCB0011002,411164290,"JAIHIND COOPBKWAKAD-PMPRI CHINCHWD","KUNAL MARKET, 1ST FLOOR, CHAPEKAR CHOWK, CHINCHWAD PUNE 411033",27614522,PUNE,PUNE,MAHARASHTRA
"THE SHAMRAO VITHAL COOPERATIVE BANK",SVCB0010999,411355002,"BHARATI SAHAKARI BANK- HEAD OFFICE","1ST FLOOR, BHARATI VIDYAPEETH BHAVAN, SADASHIV PETH, SHASTRI ROAD, PUNE 411030",24332907,PUNE,PUNE,MAHARASHTRA
"THE SHAMRAO VITHAL COOPERATIVE BANK",SVCB0010024,411355009,"BHARATI SAHAKARI BANK- HADAPSAR","SR. NO.221, RAVI DARSHAN BUILDING, SHOP NO 4,5, NEAR AKASHWANI, HADAPSAR, PUNE 411028",9822503879,HADAPSAR,PUNE,MAHARASHTRA
"THE SHAMRAO VITHAL COOPERATIVE BANK",SVCB0010023,411355008,"BHARATI SAHAKARI BANK- BANER","SR. NO. 63/2/4 BHAGVATI SUVARNA BUILDING, SHOP NO. 2C, OPP. RACHANA BEVERLY HILLS, PUNE 411045",8482818187,PUNE,PUNE,MAHARASHTRA
"THE SHAMRAO VITHAL COOPERATIVE BANK",SVCB0010022,415355002,"BHARATI SAHAKARI BANK- SATARA","SR. NO. 530 B, SARVODAY COMPLEX, SHOP NO.9, 10, 11 SADAR BAZAR, OPP. SCIENCE COLLEGE, SATARA 415001",9881077575,SATARA,SATARA,MAHARASHTRA
"THE SHAMRAO VITHAL COOPERATIVE BANK",SVCB0010021,400355003,"BHARATI SAHAKARI BANK- WORLI","SUKHADA CO-OP HOUSING SOCIETY, SHOP NO.6, SIR POCHKHANWALA RD, OPP. RTO OFFICE, WORLI, MUMBAI- 400030",7208269947,MUMBAI,"GREATER BOMBAY",MAHARASHTRA
"THE SHAMRAO VITHAL COOPERATIVE BANK",SVCB0010020,411355007,"BHARATI SHKRI BK-ERANDWANE","BHARATI VIDYAPEETH EDUCATIONAL COMPLEX, ERANDWANE, PUNE ┬û 411 038",25448502,PUNE,PUNE,MAHARASHTRA
"THE SHAMRAO VITHAL COOPERATIVE BANK",SVCB0010019,NA,"BHARATI SAHAKARI BANK-TASGAON","LAXMI-KRISHNA BLDG., JOSHI LANE, HOUSE NO.1376, TASGAON, DIST. SANGLI - 416 312",240230,TASGAON,SANGLI,MAHARASHTRA
"THE SHAMRAO VITHAL COOPERATIVE BANK",SVCB0010018,NA,"BHARATI SAHAKARI BANK-ISLAMPUR","S. NO.39/88 B, SHRI. KARANDE BLDG. ISLAMPUR, TAL. WALWA, DIST. SANGLI - 415 409",222555,ISLAMPUR,SANGLI,MAHARASHTRA
"THE SHAMRAO VITHAL COOPERATIVE BANK",SVCB0010017,NA,"BHARATI SAHAKARI BANK-BHILWADI","AGRAWAL COMPLEX, A/P BHILWADI, TAL. PALUS, DIST. SANGLI - 416 303.",238099,PALUS,SANGLI,MAHARASHTRA
"THE SHAMRAO VITHAL COOPERATIVE BANK",SVCB0010016,NA,"BHARATI SAHAKARI BANK-PALUS","HIRA COMPLEX, KARAD ROAD, NEAR PAWAR HOSPITAL, A/P PALUS, TAL. PALUS, DIST. SANGLI",223235,PALUS,SANGLI,MAHARASHTRA
"THE SHAMRAO VITHAL COOPERATIVE BANK",SVCB0010015,110094282,"BHARATI SAHAKARI BANK-NEW DELHI","A-4, ROHTAK ROAD, HIGH-WAY 10, PASCHIM VIHAR, NEW DELHI - 110 063.",25257230,DELHI,DELHI,DELHI
"THE SHAMRAO VITHAL COOPERATIVE BANK",SVCB0010014,415355352,"BHARATI SAHAKARI BK-MALKAPUR","240 A, JAIHIND PRIDE, NEAR SUYASH MANGAL KARYALAYA, SHASTRINAGAR, MALKAPUR, KARAD, TAL. KARAD, DIST. SARATA, PIN - 415 539.",228885,KARAD,SATARA,MAHARASHTRA
"THE SHAMRAO VITHAL COOPERATIVE BANK",SVCB0010013,NA,"BHARATI SAHAKARI BANK-AMBAK","SONHIRA SAHAKARI SAKHAR KARKHANA COMPLEX, AMBAK, TAL. KADEGAON, DIST.SANGLI, PIN - 415 303.",235672,KADEGAON,SANGLI,MAHARASHTRA
"THE SHAMRAO VITHAL COOPERATIVE BANK",SVCB0010012,NA,"BHARATI SAHAKARI BANK-PANCHGANI","SOMNATH COMPLEX, HANUMAN MANDIR ROAD, PANCHGANI, DIST. SATARA, PIN - 412 805.",240601,PANCHGANI,SATARA,MAHARASHTRA
"THE SHAMRAO VITHAL COOPERATIVE BANK",SVCB0010011,415355476,"BHARATI SAHAKARI BANK-VITA","BABAJI COMPLEX, OPP. S. T. STAND, VITA, TAL. KHANAPUR, DIST. SANGLI, PIN - 415 311.",272079,VITA,SANGLI,MAHARASHTRA
"THE SHAMRAO VITHAL COOPERATIVE BANK",SVCB0010010,416355002,"BHARATI SAHAKARI BANK-KOLHAPUR","BHARATI VIDYAPEETH BHAVAN KADAMWADI, KOLHAPUR - 416 001.",2666759,KOLHAPUR,KOLHAPUR,MAHARASHTRA
"THE SHAMRAO VITHAL COOPERATIVE BANK",SVCB0010009,413589251,"BHARATI SAHAKARI BANK-SOLAPUR","BHARATI VIDYAPEETH EDUCATIONAL COMPLEX, VIJAPUR ROAD, SOLAPUR - 413 001.",2343420,SOLAPUR,SOLAPUR,MAHARASHTRA
"THE SHAMRAO VITHAL COOPERATIVE BANK",SVCB0010008,400068313,"BHARATI SAHAKARI BANK-NAVI MUMBAI","BHARATI VIDYAPEETH EDUCATIONAL COMPLEX, SECTOR NO.8, C.B.D., BELAPUR, NAVI MUMBAI ┬û 400 614.",27577286,"NEW BOMBAY",THANE,MAHARASHTRA
"THE SHAMRAO VITHAL COOPERATIVE BANK",SVCB0010007,NA,"BHARATI SAHAKARI BANK-KADEGAON","KADEGAON, TAL. KADEGAON, DIST. SANGLI, PIN - 415 304.",242109,KADEGAON,SANGLI,MAHARASHTRA
"THE SHAMRAO VITHAL COOPERATIVE BANK",SVCB0010006,416355151,"BHARATI SAHAKARI BANK-SANGLI","BHARATI VIDYAPEETH BHAVAN, RAJWADA CHOWK, SANGLI ┬û 416 416.",2323750,KADEGAON,SANGLI,MAHARASHTRA
"THE SHAMRAO VITHAL COOPERATIVE BANK",SVCB0010005,411355005,"BHARATI SAHAKARI BANK-DHANKWADI","BHARATI VIDYAPEETH EDUCATIONAL COMPLEX, PUNE ┬û 411 043.",24372875,PUNE,PUNE,MAHARASHTRA
"THE SHAMRAO VITHAL COOPERATIVE BANK",SVCB0010004,411355006,"BHARATI SAHAKARI BK-VADGAON","SINHGAD ROAD, VADGAON-DHAIRY, PUNE ┬û 411 041.",24392190,PUNE,PUNE,MAHARASHTRA
"THE SHAMRAO VITHAL COOPERATIVE BANK",SVCB0010003,411355004,"BHARATI SAHAKARI BANK-AKURDI","SECTOR NO.28, PLOT NO.93, AKURDI PRADHIKARAN, PUNE ┬û 411 044",27657844,PUNE,PUNE,MAHARASHTRA
"THE SHAMRAO VITHAL COOPERATIVE BANK",SVCB0010002,411355003,"BHARATI SAHAKARI BANK-BHAVAN","BHARATI VIDYAPEETH BHAVAN, GROUND FLOOR, SHASTRI ROAD, PUNE ┬û 411 030.",24333423,PUNE,PUNE,MAHARASHTRA
"THE SHAMRAO VITHAL COOPERATIVE BANK",SVCB0009029,NA,"OMPRAKASH DEORA PEOPLES COOP BK HINGOLI- MARKET YARD, PUNE","SHOP NO. 396, LANE NO.4, MARKET YARD, GULTEKDI, PUNE",9423142654,PUNE,PUNE,MAHARASHTRA
"THE SHAMRAO VITHAL COOPERATIVE BANK",SVCB0009028,NA,"OMPRAKASH DEORA PEOPLES COOP BK HINGOLI- MALAD EAST","DEORA ESTATE, RANI SATI MARG, MALAD EAST",28735406,MUMBAI,"GREATER BOMBAY",MAHARASHTRA
"THE SHAMRAO VITHAL COOPERATIVE BANK",SVCB0009027,431809501,"OMPRAKASH DEORA PEOPLES COOP BK HINGOLI-BHOKAR","NEW MONDHA,BHOKAR- TAL BHOKAR, DIST NANDED",222210,BHOKAR,NANDED,MAHARASHTRA
"THE SHAMRAO VITHAL COOPERATIVE BANK",SVCB0009026,411240257,"OMPRAKASH DEORA PEOPLES COOP BK HINGOLI-PUNE","M.G.ROAD 5,TEZ HOUSE, CAMP, PUNE",9423142654,PUNE,PUNE,MAHARASHTRA
"THE SHAMRAO VITHAL COOPERATIVE BANK",SVCB0009025,425809501,"OMPRAKASH DEORA PEOPLES COOP BK HINGOLI-CHOPDA","KAMAL HOSPITAL BUILDING, GROUND FLOOR, NARAYANWADI ROAD, CHOPDA TQ. CHOPDA DIST. JALGAON",221021,CHOPDA,JALGAON,MAHARASHTRA
"THE SHAMRAO VITHAL COOPERATIVE BANK",SVCB0009024,442801001,"OMPRAKASH DEORA PEOPLES COOP BK HINGOLI-WARDHA","NEAR HOTEL RAMKRISHNA,WARDHA, DIST  WARDHA",231003,WARDHA,WARDHA,MAHARASHTRA
"THE SHAMRAO VITHAL COOPERATIVE BANK",SVCB0009023,440183251,"OMPRAKASH DEORA PEOPLES COOP BK HINGOLI-NAGPUR","CHAPUR NAGAR CHOWK, 13,GANDHI GRAIN MARKET, NAGPUR TALUKA & DIST  NAGPUR",2733661,NAGPUR,NAGPUR,MAHARASHTRA
"THE SHAMRAO VITHAL COOPERATIVE BANK",SVCB0009022,NA,"OMPRAKASH DEORA PEOPLES COOP BK HINGOLI-BHAISA","MARKET YARD, GANDHI GANJ, BHAISA DIST. ADILABAD - 504103,ANDHRA PRADESH.",231651,BHAINSA,ADILABAD,"ANDHRA PRADESH"
"THE SHAMRAO VITHAL COOPERATIVE BANK",SVCB0009021,569002PAB,"OMPRAKASH DEORA PEOPLES COOP BK HINGOLI-ADILABAD","NATIONAL HIGHWAY ROAD NO.7,NEAR PETROL PUMP,DHANLAXMI COMPLEX,ADILABAD-504001,ANDHRA PRADESH.",232455,ADILABAD,ADILABAD,"ANDHRA PRADESH"
"THE SHAMRAO VITHAL COOPERATIVE BANK",SVCB0009020,431809503,"OMPRAKASH DEORA PEOPLES COOP BK HINGOLI-HADGOAN","MAIN ROAD,HADGOAN-431712,TAL HADGOAN, DISTNANDED",222719,HADGAON,NANDED,MAHARASHTRA
"THE SHAMRAO VITHAL COOPERATIVE BANK",SVCB0009019,431801452,"OMPRAKASH DEORA PEOPLES COOP BK HINGOLI-DEGLUR","NEW MONDHA,DEGLOOR-431717 TAL DEGLOOR, DIST NANDED",256741,DEGLUR,NANDED,MAHARASHTRA
"THE SHAMRAO VITHAL COOPERATIVE BANK",SVCB0009018,431801506,"OMPRAKASH DEORA PEOPLES COOP BK HINGOLI-BORI","BORI-431508 ,TAL JINTUR,DISTPARBHANI",242691,JINTUR,PARBHANI,MAHARASHTRA
"THE SHAMRAO VITHAL COOPERATIVE BANK",SVCB0009017,431801505,"OMPRAKASH DEORA PEOPLES COOP BK HINGOLI-SELU","KRANTI CHOWK,NEAR NITIN TALKIES TAL SELU, DIST PARBHANI, SELU-431503",223147,SAILU,PARBHANI,MAHARASHTRA
"THE SHAMRAO VITHAL COOPERATIVE BANK",SVCB0009016,431809502,"OMPRAKASH DEORA PEOPLES COOP BK HINGOLI-DHARMABAD","MARKET YARD MONDHA, TAL DHARMABAD, DIST NANDED, DHARMABAD-431809",244559,DHARMABAD,NANDED,MAHARASHTRA
"THE SHAMRAO VITHAL COOPERATIVE BANK",SVCB0009015,445801002,"OMPRAKASH DEORA PEOPLES COOP BK HINGOLI-YAVATMAL","VASUNDHARA CHAMBERS, NEAR SHAM TAIKES TAL & DIST YAVATMAL, YAVATMAL-445001",241451,YAVATMAL,YAVATMAL,MAHARASHTRA
"THE SHAMRAO VITHAL COOPERATIVE BANK",SVCB0009014,445801501,"OMPRAKASH DEORA PEOPLES COOP BK HINGOLI-PANDHARKAWADA","SURANA COMPLEX, MAIN ROAD  PANDHARKAWADA TQ.KELAPUR PANDHARKAWADA-445302  DISTYAVATMAL",227817,PANDHARKAODA,YAVATMAL,MAHARASHTRA
"THE SHAMRAO VITHAL COOPERATIVE BANK",SVCB0009013,431569002,"OMPRAKASH DEORA PEOPLES COOP BK HINGOLI-AURANGABAD","DEVPRIYA APPT.BANSILAL NAGAR,RAILWAY STATION ROAD, AURANGABAD DIST. - AURANGABAD - 431001",2347531,AURANGABAD,AURANGABAD,MAHARASHTRA
"THE SHAMRAO VITHAL COOPERATIVE BANK",SVCB0009012,444801002,"OMPRAKASH DEORA PEOPLES COOP BK HINGOLI-AKOLA","JUNA KAPDA BAZAR,AKOLA-444001  DIST AKOLA",2439782,AKOLA,AKOLA,MAHARASHTRA
"THE SHAMRAO VITHAL COOPERATIVE BANK",SVCB0009011,431809101,"OMPRAKASH DEORA PEOPLES COOP BK HINGOLI-NANDED","JETEWAD COMPLEX, VIP ROAD, NEW MONDHA - NANDED",236069,NANDED,NANDED,MAHARASHTRA
"THE SHAMRAO VITHAL COOPERATIVE BANK",SVCB0009010,431805052,"OMPRAKASH DEORA PEOPLES COOP BK HINGOLI-JALNA","CHATRAPATI SHIVAJI MAHARAJ VYAPARI SANKUL, JALNA, DIST JALNA -431023",238535,JALNA,JALNA,MAHARASHTRA
"THE SHAMRAO VITHAL COOPERATIVE BANK",SVCB0009009,431805502,"OMPRAKASH DEORA PEOPLES COOP BK HINGOLI-MANTHA","AT POST TALUKA MANTHA-431504, MAIN ROAD DIST  JALNA",270106,MANTHA,JALNA,MAHARASHTRA
"THE SHAMRAO VITHAL COOPERATIVE BANK",SVCB0009008,431805501,"OMPRAKASH DEORA PEOPLES COOP BK HINGOLI-DEAULGOAN RAJA","TAMBATKAR GALLI,  AT POST TALUKA DEAULGOAN RAJA-443204  DIST BULDHANA",232403,"DEULGAON RAJA",BULDHANA,MAHARASHTRA
"THE SHAMRAO VITHAL COOPERATIVE BANK",SVCB0009007,431801504,"OMPRAKASH DEORA PEOPLES COOP BK HINGOLI-JINTUR","AT POST JINTUR-431609, TALUKA  JINTUR, DIST  PARBHANI",220249,JINTUR,PARBHANI,MAHARASHTRA
"THE SHAMRAO VITHAL COOPERATIVE BANK",SVCB0009006,431801503,"OMPRAKASH DEORA PEOPLES COOP BK HINGOLI-JAWALA BAZAR","AT POST JAWALA BAZAR-431705  TALUKAAUNDHA NAGNATH, DIST HINGOLI",240049,"AUNDHA NAGNATH",HINGOLI,MAHARASHTRA
"THE SHAMRAO VITHAL COOPERATIVE BANK",SVCB0009005,431801502,"OMPRAKASH DEORA PEOPLES COOP BK HINGOLI-SENGAON","AT POST TALUKA SENGAON, SENGAON-431542,  DIST HINGOLI",250261,SENGAON,HINGOLI,MAHARASHTRA
"THE SHAMRAO VITHAL COOPERATIVE BANK",SVCB0009004,431801202,"OMPRAKASH DEORA PEOPLES COOP BK HINGOLI-PARBHANI","KACCHI BAZAR, PARBHANI-431401 DIST PARBHANI",222767,PARBHANI,PARBHANI,MAHARASHTRA
"THE SHAMRAO VITHAL COOPERATIVE BANK",SVCB0009003,431801501,"OMPRAKASH DEORA PEOPLES COOP BK HINGOLI-AKHADABALAPUR","MAIN ROAD, AKHADA BALUPER -431707 DISTHINGOLI",242408,"AKHADA BALAPUR",HINGOLI,MAHARASHTRA
"THE SHAMRAO VITHAL COOPERATIVE BANK",SVCB0009002,431801402,"OMPRAKASH DEORA PEOPLES COOP BK HINGOLI-HINGOLI","MAIN ROAD, HINGOLI - 431513.",220518,HINGOLI,HINGOLI,MAHARASHTRA
"THE SHAMRAO VITHAL COOPERATIVE BANK",SVCB0008022,WAITING,"AHMEDNAGAR SHAHAR S BK- WALUJ","PLOT NO X 369, MIDC AREA, AURANGABAD- 431136",9527820022,AURANGABAD,AURANGABAD,MAHARASHTRA
"THE SHAMRAO VITHAL COOPERATIVE BANK",SVCB0008021,WAITING,"AHMEDNAGAR SHAHAR S BK- NASHIK","SHOP NO. 2,3 & 4, SHRIJI KUNJ APARTMENT,PATAHRDI ROAD, INDIRA NAGAR, NASHIK- 422009",9689631516,NASHIK,NASIK,MAHARASHTRA
"THE SHAMRAO VITHAL COOPERATIVE BANK",SVCB0008020,WAITING,"AHMEDNAGAR SHAHAR S BK- SANGAMNER","SURVEY NO 150, A/4/1 OF 2A17, NEW NAGAR ROAD, SANGAMNER BK, SANGAMNER, DISTRICT AHMEDNAGAR- 422605",221222,SANGAMNER,AHMADNAGAR,MAHARASHTRA
"THE SHAMRAO VITHAL COOPERATIVE BANK",SVCB0008019,413802376,"AHMEDNAGAR SHAHAR SAH BK- RAHURI","WARD NO 30,HOUSE NO 284/A, SHIVAJI CHOWK, TALUKA RAHURI, DISTRICT AHMEDNAGAR,MAHARASHTRA, PIN 413705",232232,RAHURI,AHMADNAGAR,MAHARASHTRA
"THE SHAMRAO VITHAL COOPERATIVE BANK",SVCB0008018,431485084,"AHMEDNAGAR SAHAR S BK- GARKHEDA","PLOT NO.8, SHIVNERI NAGAR, OPP. JAWAHARNAGAR POLICE STATION, GARKHEDA PARISAR, AURANGABAD 431005",2344636,AURANGABAD,AURANGABAD,MAHARASHTRA
"THE SHAMRAO VITHAL COOPERATIVE BANK",SVCB0008017,411485257,"AHMEDNAGAR SHAHAR S BK-NARAYANPETH","┬ôNARAYANI┬ö, SAVITRI SADAN, OPP. NARAYANPETH  POLICE STATION, NARAYANPETH, PUNE.",24443232,PUNE,PUNE,MAHARASHTRA
"THE SHAMRAO VITHAL COOPERATIVE BANK",SVCB0008016,414802012,"AHMEDNAGAR SHAHAR S BK-TARAKPUR","SHOP NO. 7 TO 14, PRERANA ARKED, WINGS 'C', TARAKPUR, AHMEDNAGAR.",2320553,AHMADNAGAR,AHMADNAGAR,MAHARASHTRA
"THE SHAMRAO VITHAL COOPERATIVE BANK",SVCB0008015,414802011,"AHMEDNAGAR SHAHAR S BK-NEPTI APMC","KRUSHI UTPANNA BAZAR SAMITI, NEPTI UPBAZAR AWAR, SHOP NO. 317,318,319 NEPTI, TAL & DIST AHMEDNAGAR.",9850047957,AHMADNAGAR,AHMADNAGAR,MAHARASHTRA
"THE SHAMRAO VITHAL COOPERATIVE BANK",SVCB0008014,411485254,"AHMEDNAGAR SHAHAR S BK-SINHGAD RD","┬ôYASHWANTI┬ö, SUN PARADISE, SHOP NO. 1,2,3 SUN CITY ROAD, ANANDNAGAR, SINHGAD ROAD, PUNE- 51.",24354041,PUNE,PUNE,MAHARASHTRA
"THE SHAMRAO VITHAL COOPERATIVE BANK",SVCB0008013,411485252,"AHMEDNAGAR SHAHAR S BK-PIMPRI","┬ôSATSANG┬ö, SERVE NO. 103(P) TO 108(P), NEAR AJAMERA, UDYAM NAGAR, NEHARU NAGAR ROAD, PIMPRI, PUNE- 18.",27432744,"PIMPRI CHINCHWAD",PUNE,MAHARASHTRA
"THE SHAMRAO VITHAL COOPERATIVE BANK",SVCB0008012,411485251,"AHMEDNAGAR SHAHAR S BK-KOTHRUD","┬ôVIJAYSHRI┬ö, ANUSAGAR BUILDING, SERVE NO. 52/40, OPP. SHRUSHTI COMPLEX, 100 D.P. ROAD, KOTHRUD, PUNE- 38.",25386394,PUNE,PUNE,MAHARASHTRA
"THE SHAMRAO VITHAL COOPERATIVE BANK",SVCB0008011,414802001,"AHMEDNAGAR SHAHAR S BK-NAVIPETH","┬ôSARVARTH┬ö, NAVIPETH, AHMEDNAGAR- 414001.",2346217,AHMADNAGAR,AHMADNAGAR,MAHARASHTRA
"THE SHAMRAO VITHAL COOPERATIVE BANK",SVCB0008010,414802009,"AHMEDNAGAR SHAHAR S BK-SUKKAR CHWK","LUNIYA-MUNOT COMPLEX, ANANDHRUSHIJI MARG, STATION ROAD, AHMEDNAGAR- 414001.",2321188,AHMADNAGAR,AHMADNAGAR,MAHARASHTRA
"THE SHAMRAO VITHAL COOPERATIVE BANK",SVCB0008009,414802010,"AHMEDNAGAR SHAHAR S BK-SUPA MIDC","┬ôUDYAM┬ö, YENARE COMPLEX, WALWANE ROAD, SUPA, TAL-PARNER, DIST. AHMEDNAGAR.",243683,SUPA,AHMADNAGAR,MAHARASHTRA
"THE SHAMRAO VITHAL COOPERATIVE BANK",SVCB0008008,414802008,"AHMEDNAGAR SHAHAR S BK-MANMAD RD","┬ôSAPTSHRUNG┬ö, NEAR SHUBHAM MANGAL KARYALAYA, SVEDI ROAD, AHMEDNAGAR- 414003.",2426174,AHMADNAGAR,AHMADNAGAR,MAHARASHTRA
"THE SHAMRAO VITHAL COOPERATIVE BANK",SVCB0008007,414802007,"AHMEDNAGAR SHAHAR S BK-M.I.D.C.","┬ôARTHKAM┬ö, THE PLACE SHOP NO. 1 TO 7, OPP. NAGAPUR PETROL PUMP, NAGAR-MANMAD ROAD, NAGAPUR, AHMEDNAGAR- 414027.",2778280,NAGAPUR,AHMADNAGAR,MAHARASHTRA
"THE SHAMRAO VITHAL COOPERATIVE BANK",SVCB0008006,414802006,"AHMEDNAGAR SHAHAR S BK-GULMOHAR RD","GULMOHAR ROAD, PARIJAT CORNER, AHMEDNAGAR- 414003.",2424061,AHMADNAGAR,AHMADNAGAR,MAHARASHTRA
"THE SHAMRAO VITHAL COOPERATIVE BANK",SVCB0008005,414802005,"AHMEDNAGAR SHAHAR S BK-MARKET YARD","┬ôSHUBHARTH┬ö, KORPE BUILDING, MAHATMA FULE CHOWK, AHMEDNAGAR- 414001.",2452268,AHMADNAGAR,AHMADNAGAR,MAHARASHTRA
"THE SHAMRAO VITHAL COOPERATIVE BANK",SVCB0008004,414802004,"AHMEDNAGAR SHAHAR S BK-ZENDIGATE","2177-A, BANSI MAHARAJ MITHAIWALA BUILDING, ADATE BAZAR CORNER, TAPKIR LANE, RAMCHANDRA KHUNT, AHMEDNAGAR- 414001.",2341849,AHMADNAGAR,AHMADNAGAR,MAHARASHTRA
"THE SHAMRAO VITHAL COOPERATIVE BANK",SVCB0008003,414802003,"AHMEDNAGAR SHAHAR S BK-MALIWADA","┬ôKRUPARTH┬ö, MALIWADA WES CHOWK, WADIA PARK ROAD, AHMEDNAGAR- 414001.",2343439,AHMADNAGAR,AHMADNAGAR,MAHARASHTRA
"THE SHAMRAO VITHAL COOPERATIVE BANK",SVCB0008002,414802002,"AHMEDNAGAR SHAHAR S BK-SAVEDI","┬ôKRUTARTH┬ö, NEAR HOTEL PREMDAN, SAVEDI ROAD, SERVE NO. 176/1, PLOT NO. 43, AHMEDNAGAR 414003.",2430502,AHMADNAGAR,AHMADNAGAR,MAHARASHTRA
"THE SHAMRAO VITHAL COOPERATIVE BANK",SVCB0007018,400345018,"ABHINAV SAHKARI BK- TALOJA","SHOP NO 7& 8, DREAM CITY, PLOT NO 41, SECTOR 11, PHASE I, TALOJA PANCHANAND, NAVI MUMBAI",9867194060,TALOJA,RAIGAD,MAHARASHTRA
"THE SHAMRAO VITHAL COOPERATIVE BANK",SVCB0007017,400345017,"ABHINAV SAHKARI BK- NANDIVLI","GROUND FLOOR, SHRI SWAMI APARTMENT, OPP. SARVODAY PARK COMPLEX, SAMARTH NAGAR, NANDIVLI PANCHANAND, DOMBIVALI EAST",9819973399,DOMBIVLI,THANE,MAHARASHTRA
"THE SHAMRAO VITHAL COOPERATIVE BANK",SVCB0007016,400345016,"ABHINAV SAHKARI BK SHAHAPUR","SHOP NO.14 TO 18,PANDURANG KRUPA APARTMENT,NEAR S.T STAND,GOTHEGHAR,SHAHAPUR 421601",9930515999,SHAHAPUR,THANE,MAHARASHTRA
"THE SHAMRAO VITHAL COOPERATIVE BANK",SVCB0007015,400345015,"ABHINAV SAHKARI BK-TITWALA","SHREE SADGURU KRUPA LAXMI NARAYAN NIWAS, GANPATI MANDIR ROAD, TITWALA EAST-421605",2381920,THANE,THANE,MAHARASHTRA
"THE SHAMRAO VITHAL COOPERATIVE BANK",SVCB0007014,400345014,"ABHINAV SAHKARI BK-KHARGHAR","SHOP NO 50/51 KESAR GARDEN CO-OP HSG STY LTD, PLOT NO 53, SECTOR 20, KHARGHAR-410210",9619744669,"NEW BOMBAY",THANE,MAHARASHTRA
"THE SHAMRAO VITHAL COOPERATIVE BANK",SVCB0007013,400345013,"ABHINAV SAHKARI BK-AMBARNATH","115, SWANAND SHOPPING CENTRE, 1ST FLOOR, B-CABIN ROAD, AMBARNATH EAST-421501",2609699,ULHASNAGAR,THANE,MAHARASHTRA
"THE SHAMRAO VITHAL COOPERATIVE BANK",SVCB0007012,400345012,"ABHINAV SAHKARI BK-THANE W","PRANAV BLDG, 1ST FLOOR, GAODEVI CROSS MAIDAN, SHIVAJI PATH, THANE WEST-400601",25403648,THANE,THANE,MAHARASHTRA
"THE SHAMRAO VITHAL COOPERATIVE BANK",SVCB0007011,400345011,"ABHINAV SAHKARI BK-NILJE","CHANDRESH AVENUE,1ST FLOOR, LODHA HEAVEN, NILJE , TAL KALYAN-421204",2831989,KALYAN,THANE,MAHARASHTRA
"THE SHAMRAO VITHAL COOPERATIVE BANK",SVCB0007010,400345010,"ABHINAV SAHKARI BK-AYRE EXTN","B R MADHAV HIGHSCHOOL, AYRE ROAD, DOMBIVALI EAST-421201",2454299,DOMBIVLI,THANE,MAHARASHTRA
"THE SHAMRAO VITHAL COOPERATIVE BANK",SVCB0007009,400345009,"ABHINAV SAHKARI BK-KALYAN WEST","BHAGWANDAS MENSION, SHIVAJI CHOWK, KALYAN WEST-421301",2304258,KALYAN,THANE,MAHARASHTRA
"THE SHAMRAO VITHAL COOPERATIVE BANK",SVCB0007008,400345008,"ABHINAV SAHKARI BK-KALYAN EAST","KAMLAKAR BLDG, MARATHA KOLSEWADI, KALYAN EAST-421306",2361359,KALYAN,THANE,MAHARASHTRA
"THE SHAMRAO VITHAL COOPERATIVE BANK",SVCB0007007,400345007,"ABHINAV SAHKARI BK-BADLAPUR E","SHREE APTS, GANDHI CHOWK, KULGAON, BADLAPUR EAST-421503",2690245,ULHASNAGAR,THANE,MAHARASHTRA
"THE SHAMRAO VITHAL COOPERATIVE BANK",SVCB0007006,400345006,"ABHINAV SAHKARI BK-MUMBRA","NEW SULTAN MANZIL , MARKET ROAD, MUMBRA EAST-400612",25465507,THANE,THANE,MAHARASHTRA
"THE SHAMRAO VITHAL COOPERATIVE BANK",SVCB0007005,400345005,"ABHINAV SAHKARI BK-ULHASNAGAR W","GREEN LAND APTS, 1ST FLOOR, NEAR SADHU WASWANI GARDEN, GOL MAIDAN,ULHASNAGAR WEST-421002",2734365,ULHASNAGAR,THANE,MAHARASHTRA
"THE SHAMRAO VITHAL COOPERATIVE BANK",SVCB0007004,400345004,"ABHINAV SAHKARI BK-DOMBIVALI MIDC","P-48, NEAR USMA PETROL PUMP, MIDC RESIDENTIAL ZONE, MIDC DOMBIVALI EAST-421203",2432810,DOMBIVLI,THANE,MAHARASHTRA
"THE SHAMRAO VITHAL COOPERATIVE BANK",SVCB0007003,400345003,"ABHINAV SAHKARI BK-DOMBIVALI EAST","ANUPAM APTS, N.C.KELKAR ROAD, DOMBIVALI EAST -421201",2861648,DOMBIVLI,THANE,MAHARASHTRA
"THE SHAMRAO VITHAL COOPERATIVE BANK",SVCB0007002,400345002,"ABHINAV SAHKARI BK-DOMBIVALI WEST","MAITRI KESHAV RAM STY,1ST FLOOR,SUBHASH ROAD,DOMBIVALI WEST-421202",2482918,DOMBIVLI,THANE,MAHARASHTRA
"THE SHAMRAO VITHAL COOPERATIVE BANK",SVCB0006019,WAITING,"CHIPLUN URBAN BANK- D.B.J. COLLEGE CAMPUS","CHIPLUN NAGAR PARISHAD, HOUSE NO. UPNAGAR 103 J, GROUND FLOOR, GALA NO. 2, MUMBAI GOA HIGHWAY, CHIPLUN, DIST. RATNAGIRI- 415605.",254387,CHIPLUN,RATNAGIRI,MAHARASHTRA
"THE SHAMRAO VITHAL COOPERATIVE BANK",SVCB0006018,416810326,"CHIPLUN URBAN BANK- KANKAVLI","SHREE BHALCHANDRA KRUPA APARTMENT, FIRST FLOOR, HOUSE NO 331, C(2), ACHARYA ROAD, A/P KANKAVLI, DISTRICT SINDHUDURG 416602",233955,KANKAVLI,SINDHUDURG,MAHARASHTRA
"THE SHAMRAO VITHAL COOPERATIVE BANK",SVCB0006017,415810052,"CHIPLUN URBAN BANK- KUWARBHAV","POLICE SANKUL KARWANCHIWADI, SURVEY NO 14-B, GROUND FLOOR, GALA NO.5 TO 8, NEAR GRAMIN POLICE STATION, A/P KUWARBAV, TALUKA AND DISTRICT RATNAGIRI",231025,RATNAGIRI,RATNAGIRI,MAHARASHTRA
"THE SHAMRAO VITHAL COOPERATIVE BANK",SVCB0006016,411235251,"CHIPLUN URBAN BANK- AKURDI, PIMPRI CHINCHWAD","MAYUR SAMRUDDHI II, D WING, GROUND FLOOR, SHOP NO 66 & 67, PIMPRI CHINCHWAD MUNICIPAL CORPORATION, SR. NO 180/1, PLOT NO A & B, AKURDI, TALUKA HAVELI, PUNE- 411035",27242824,PUNE,PUNE,MAHARASHTRA
"THE SHAMRAO VITHAL COOPERATIVE BANK",SVCB0006015,NA,"CHIPLUN URBAN BANK - LANJA","SURVEY NO 3357,B, HOUSE NO 2244, AT AND POST TALUKA LANJA, DISTRICT RATNAGIRI, PIN 416701",8411959950,LANJA,RATNAGIRI,MAHARASHTRA
"THE SHAMRAO VITHAL COOPERATIVE BANK",SVCB0006014,NA,"CHIPLUN URBAN BANK-MARGTAMHANE","SALVI HOUSE NO.61, NEAR DR.NATU HOSPITAL,A/P.MARGTAMHANE- 415 702",261273,CHIPLUN,RATNAGIRI,MAHARASHTRA
"THE SHAMRAO VITHAL COOPERATIVE BANK",SVCB0006013,415810051,"CHIPLUN URBAN BANK-RATNAGIRI","JAVKAR PLAZA, BLOCK NO.12&13,NEAR JAYSTAMBH, RATNAGIRI - 415 612",220633,RATNAGIRI,RATNAGIRI,MAHARASHTRA
"THE SHAMRAO VITHAL COOPERATIVE BANK",SVCB0006012,400235251,"CHIPLUN URBAN BANK-PANVEL","YASHASHRI┬á BUILIDNG,CSPNO.1553 SHIVAJI CHOWK,PANVEL - 410 206",27450617,PANVEL,RAIGAD,MAHARASHTRA
"THE SHAMRAO VITHAL COOPERATIVE BANK",SVCB0006011,NA,"CHIPLUN URBAN BANK-SANGMESHWAR","BHINGARDE COMPLEX, BAZARPETH, A/P/TAL.SANGMESHWAR PIN CODE NO. 415611",253229,SANGAMESHWAR,RATNAGIRI,MAHARASHTRA
"THE SHAMRAO VITHAL COOPERATIVE BANK",SVCB0006010,NA,"CHIPLUN URBAN BANK-ABLOLI","BAIT COMPLEX,BAZARPETH, A/P.ABLOLI, PIN CODE NO.415726",245092,ABLOLI,RATNAGIRI,MAHARASHTRA
"THE SHAMRAO VITHAL COOPERATIVE BANK",SVCB0006009,NA,"CHIPLUN URBAN BANK-LOTE","DR.AMBRE BUILDING, NEAR HOTEL PAIGODA,MUMBAI-GOA HIGHWAY A/P.LOTE, PIN CODE NO. 415722",272943,KHED,RATNAGIRI,MAHARASHTRA
"THE SHAMRAO VITHAL COOPERATIVE BANK",SVCB0006008,NA,"CHIPLUN URBAN BANK-DEORUKH","VANKAR BUILDING,BAZARPETH,A/P.DEVRUKH PIN CODE NO. 415804",240892,DEVRUKH,RATNAGIRI,MAHARASHTRA
"THE SHAMRAO VITHAL COOPERATIVE BANK",SVCB0006007,NA,"CHIPLUN URBAN BANK-SAWARDE","JAYASHRI PLAZA,1ST FLOOR,ABC MUMBAI-GOA HIGHWAY,OPP. SAWARDE BUS STOP,SAWARDE PIN CODE NO.415606",264294,CHIPLUN,RATNAGIRI,MAHARASHTRA
"THE SHAMRAO VITHAL COOPERATIVE BANK",SVCB0006006,415810202,"CHIPLUN URBAN BANK-UPNAGAR KHERDI","SHUBHAM APR. KARAD ROAD, A/P KHERDI PIN CODE-415604",256837,KHERDI,RATNAGIRI,MAHARASHTRA
"THE SHAMRAO VITHAL COOPERATIVE BANK",SVCB0006005,NA,"CHIPLUN URBAN BANK-SHRIGAON","KUTAREKAR BUILDING,A/P.SHRIGAON PIN CODE NO.415602",230118,CHIPLUN,RATNAGIRI,MAHARASHTRA
"THE SHAMRAO VITHAL COOPERATIVE BANK",SVCB0006004,NA,"CHIPLUN URBAN BANK-SHRUNGARTALI","BAZARPETH, SHRUNGARTALI, PIN CODE NO.415724",244531,GUHAGAR,RATNAGIRI,MAHARASHTRA
"THE SHAMRAO VITHAL COOPERATIVE BANK",SVCB0006003,NA,"CHIPLUN URBAN BANK-GUHAGAR","NEAR GUHAGAR PANCHAYAT SAMITI,┬á GUHAGAR PIN CODE NO.415703",240222,GUHAGAR,RATNAGIRI,MAHARASHTRA
"THE SHAMRAO VITHAL COOPERATIVE BANK",SVCB0006002,415810201,"CHIPLUN URBAN BANK-MAIN BR.CHIPLUN","BAZARPETH, MAIN ROAD, CHIPLUN,PIN CODE-415605",261273,CHIPLUN,RATNAGIRI,MAHARASHTRA
"THE SHAMRAO VITHAL COOPERATIVE BANK",SVCB0005013,411307013,"PUNE URBAN BANK-SANGVI THERGAON","S NO 47/1/2 RAHATANI KALEWADI RD PUNE 411033",27271737,PUNE,PUNE,MAHARASHTRA
"THE SHAMRAO VITHAL COOPERATIVE BANK",SVCB0005012,411307012,"PUNE URBAN BANK-NANDED PHATA","NANDED PHATA SINHAGAD RD PUNE 411041",24391610,PUNE,PUNE,MAHARASHTRA
"THE SHAMRAO VITHAL COOPERATIVE BANK",SVCB0005010,411307011,"PUNE URBAN BANK-MANJARI PHATA","MANJARI PHATA SHOLAPUR ROAD PUNE 411028",26990297,PUNE,PUNE,MAHARASHTRA
"THE SHAMRAO VITHAL COOPERATIVE BANK",SVCB0005009,411307009,"PUNE URBAN BANK-KATRAJ DHANKAWADI","DATTANAGAR AMBEGAON PUNE 411046",24319693,PUNE,PUNE,MAHARASHTRA
"THE SHAMRAO VITHAL COOPERATIVE BANK",SVCB0005008,411307008,"PUNE URBAN BANK-MARKET YARD","PLOT NO BC 2 MARKET YARD GULTEKDI PUNE 411037",24262031,PUNE,PUNE,MAHARASHTRA
"THE SHAMRAO VITHAL COOPERATIVE BANK",SVCB0005007,411307007,"PUNE URBAN BANK-GANESHNAGAR","KEDAR EMPIRE 42 ERANDAWANA KARVE RD PUNE 411004",25463649,PUNE,PUNE,MAHARASHTRA
"THE SHAMRAO VITHAL COOPERATIVE BANK",SVCB0005006,411307006,"PUNE URBAN BANK-PHADKE HAUD","24 KASBA PETH LOMBAR BLD PUNE 411011",24574088,PUNE,PUNE,MAHARASHTRA
"THE SHAMRAO VITHAL COOPERATIVE BANK",SVCB0005005,411307005,"PUNE URBAN BANK-WANAWADI","MIHIR APPT. SHOLAPUR ROAD WANAWADI PUNE 411040",26872110,PUNE,PUNE,MAHARASHTRA
"THE SHAMRAO VITHAL COOPERATIVE BANK",SVCB0005004,411307004,"PUNE URBAN BANK-YERAWADA","J J CHAMBERS YERAWADA PUNE 411006",26695691,PUNE,PUNE,MAHARASHTRA
"THE SHAMRAO VITHAL COOPERATIVE BANK",SVCB0005003,411307003,"PUNE URBAN BANK-UTTAM NAGAR","KRUSHI UTPANNA BAJAR SANKUL UTTAMNAGAR┬á PUNE 411023",25290685,PUNE,PUNE,MAHARASHTRA
"THE SHAMRAO VITHAL COOPERATIVE BANK",SVCB0005002,411307002,"PUNE URBAN BANK-PHULE MARKET","25 SHUKRAWAR PETH PUNE 411002",24453741,PUNE,PUNE,MAHARASHTRA
"THE SHAMRAO VITHAL COOPERATIVE BANK",SVCB0004009,411532266,"DHARMAVIR SAMBHAJI BK- DEHU ROAD","RAILWAY STATION ROAD, MAIN BAZAR, DEHU ROAD, TALUKA HAVELI, PUNE- 412101",9850832776,"DEHU ROAD",PUNE,MAHARASHTRA
"THE SHAMRAO VITHAL COOPERATIVE BANK",SVCB0004008,411532263,"DHARMAVIR SAMBHAJI BK- AMBEGAON","VITTHAL HERITAGE, S.NO 43/1/1/2, AMBEGAON BK, TALUKA HAVELI,DISTRICT PUNE",9226785052,PUNE,PUNE,MAHARASHTRA
"THE SHAMRAO VITHAL COOPERATIVE BANK",SVCB0004007,411532260,"DHARMAVIR SAMBHAJI BK- WAGHOLI","KRUSHNAI GATE NO 112,KESNAND ROAD,WAGHOLI, PUNE 412207",9922887696,WAGHOLI,PUNE,MAHARASHTRA
"THE SHAMRAO VITHAL COOPERATIVE BANK",SVCB0004006,411174458,"DHARMAVIR SAMBHAJI BK-PIRANGUT","SAI SHRADHA, 1258/4,5,6 1ST FLOOR, S NO. 1149, PIRANGUT, TAL MULSHI, DIST. PUNE - 412 115",22923030,PIRANGUT,PUNE,MAHARASHTRA
"THE SHAMRAO VITHAL COOPERATIVE BANK",SVCB0004005,411174436,"DHARMAVIR SAMBHAJI BK-VISHRANTWADI","DEEP APPARTMENT, KASTURBA HSC. SOC., OPP. SHOPPER'S ORBIT, VISHRANTWADI, PUNE - 411 015",26615440,PUNE,PUNE,MAHARASHTRA
"THE SHAMRAO VITHAL COOPERATIVE BANK",SVCB0004004,411174417,"DHARMAVIR SAMBHAJI BK-HINJEWADI","SURYANARAYAN, S. NO. 39/3, WAKAD-HINJEWADI ROAD, HINJEWADI, PUNE - 411 057",22932500,PUNE,PUNE,MAHARASHTRA
"THE SHAMRAO VITHAL COOPERATIVE BANK",SVCB0004003,411174404,"DHARMAVIR SAMBHAJI BK-SANGVI","38, SHIVDARSHAN, VINAYAK NAGAR, NEW SANGVI, PUNE - 411 061",27280389,PUNE,PUNE,MAHARASHTRA
"THE SHAMRAO VITHAL COOPERATIVE BANK",SVCB0004002,411174351,"DHARMAVIR SAMBHAJI BK-KASARWADI","251, VISHWAKIRAN BUILDING, MUMBAI-PUNE ROAD, KASARWADI, PUNE - 411 034",27119500,PUNE,PUNE,MAHARASHTRA
"THE SHAMRAO VITHAL COOPERATIVE BANK",SVCB0003999,411171001,"VIDYA BANK -HEAD OFFICE","SR NO. 1355, PLOT NO 72,NEAR BHARAT BHAVAN, NATU BAUG, SHUKRAWAR PETH, PUNE 411002",24477748,PUNE,PUNE,MAHARASHTRA
"THE SHAMRAO VITHAL COOPERATIVE BANK",SVCB0003014,411171014,"VIDYA BANK - SINHGAD ROAD","S.NO. 29, HISSA NO 1A 2,VADGAON BUDRUK PHATA, SINHGAD ROAD,PUNE, PIN CODE 411041",24350733,PUNE,PUNE,MAHARASHTRA
"THE SHAMRAO VITHAL COOPERATIVE BANK",SVCB0003013,411171013,"VIDYA BANK-NAVI PETH","722, CHINTAMANI, LAXMI PARK, LBS ROAD, NAVI PETH, PUNE - 411 030",24534530,PUNE,PUNE,MAHARASHTRA
"THE SHAMRAO VITHAL COOPERATIVE BANK",SVCB0003012,411171012,"VIDYA BANK-BHAVANI PETH","S NO 1234, SUMATI BUILDING,PALAKHI CHOWK, BHAWANI PETH, PUNE - 411 042",26384791,PUNE,PUNE,MAHARASHTRA
"THE SHAMRAO VITHAL COOPERATIVE BANK",SVCB0003011,411171011,"VIDYA BANK-GULTEKDI","ALANKAR, PLOT NO 25, MUKUNDNAGAR, GULTEKDI, PUNE - 411 037",24273658,PUNE,PUNE,MAHARASHTRA
"THE SHAMRAO VITHAL COOPERATIVE BANK",SVCB0003010,411171010,"VIDYA BANK-BHOSARI","S NO 681, HISSA NO 1/16 CITY, S NO 3403, SHOP NO 1, SAIDHAM BUILDING, BHOSARI,PUNE - 411 026",27111749,PUNE,PUNE,MAHARASHTRA
"THE SHAMRAO VITHAL COOPERATIVE BANK",SVCB0003009,411171009,"VIDYA BANK-BANER ROAD","S NO 127, HISSA NO 2, PLOT NO 2 NEAR HOTEL SARJA, AUNDH, PUNE - 411 007",25887299,PUNE,PUNE,MAHARASHTRA
"THE SHAMRAO VITHAL COOPERATIVE BANK",SVCB0003008,411171008,"VIDYA BANK-PAUD ROAD","PLOT NO 3, PRASHANT HSG SOC. NEAR KRISHNA HOSPITAL, PAUD ROAD,KOTHRUD, PUNE - 411 029",25432234,PUNE,PUNE,MAHARASHTRA
"THE SHAMRAO VITHAL COOPERATIVE BANK",SVCB0003007,411171007,"VIDYA BANK-PIRANGUT","GAT NO 78, MOUJE PIRANGUT, TAL MULASHI, DIST PUNE",20291265,MULSI,PUNE,MAHARASHTRA
"THE SHAMRAO VITHAL COOPERATIVE BANK",SVCB0003006,411171006,"VIDYA BANK-BIBWEWADI","S NO 682/A, PLOT NO 53, CHHATRAPATI RAJARAM HSG SOC, BIBWEWADI, PUNE - 411 037",24219108,PUNE,PUNE,MAHARASHTRA
"THE SHAMRAO VITHAL COOPERATIVE BANK",SVCB0003005,411171005,"VIDYA BANK-KOTHRUD","ANUPAM TERRECE, NEAR KARVE PUTALA, KOTHRUD, PUNE - 411 029",25435836,PUNE,PUNE,MAHARASHTRA
"THE SHAMRAO VITHAL COOPERATIVE BANK",SVCB0003004,411171004,"VIDYA BANK-SENAPATI BAPAT ROAD","S NO 968, PLOT NO 1, SENAPATI BAPAT ROAD, PUNE - 411 016",25656311,PUNE,PUNE,MAHARASHTRA
"THE SHAMRAO VITHAL COOPERATIVE BANK",SVCB0003003,411171003,"VIDYA BANK-SAHAKAR NAGAR","MUKTANGAN, SARANG SOCIETY, SAHAKAR NAGAR, PUNE - 411 009",24222294,PUNE,PUNE,MAHARASHTRA
"THE SHAMRAO VITHAL COOPERATIVE BANK",SVCB0003002,411171002,"VIDYA BANK-LAXMI ROAD","561, SADASHIV PETH, SARASWATI GANESH BUILDING, LAXMI ROAD, PUNE - 411 030",24454936,PUNE,PUNE,MAHARASHTRA
"THE SHAMRAO VITHAL COOPERATIVE BANK",SVCB0002005,560234257,"GUARDIAN BANK- THUMBUCHETTY PALYA","NO.163, FIRST FLOOR, ANTHONAMMA & RATHNAPPA NILAYA, THUMBUCHETTY PALYA MAIN ROAD, BOSCO NAGAR",32525722,BANGALORE,"BANGALORE URBAN",KARNATAKA
"THE SHAMRAO VITHAL COOPERATIVE BANK",SVCB0002004,560234255,"GUARDIAN BANK- SINGASANDRA","NO 500, 1ST FLOOR, HOSA ROAD, C K NAGAR, SINGASANDRA, ELECTRONIC CITY POST, BANGALORE- 560100",28528496,BANGALORE,"BANGALORE URBAN",KARNATAKA
"THE SHAMRAO VITHAL COOPERATIVE BANK",SVCB0002003,560234254,"GUARDIAN BANK -GEDDALAHALLI BRANCH","NO.38, BIRDS CAMPUS,GEDDALAHALLI, KOTHANUR POST,BANGALORE -560077",28443982,KOTHANUR,"BANGALORE URBAN",KARNATAKA
"THE SHAMRAO VITHAL COOPERATIVE BANK",SVCB0002002,560234252,"GUARDIAN BANK -BEGUR BRANCH","NO.1625,  AMALODBAVA NAGAR,OPP-ST.FRANCIS SCHOOL, BEGUR MAIN ROAD,BEGUR,BANGALORE-560068",25742233,BEGUR,"BANGALORE URBAN",KARNATAKA
"THE SHAMRAO VITHAL COOPERATIVE BANK",SVCB0002001,560234251,"GUARDIAN BANK -INFANTRY ROAD","NO.139, INFANTRY ROAD, BANGALORE -560 001",25582341,BANGALORE,"BANGALORE URBAN",KARNATAKA
"THE SHAMRAO VITHAL COOPERATIVE BANK",SVCB0001028,400801026,"HINDUSTAN COOP BK- CHEMBUR EAST","SHOP NO 3, 4 & 5, MUKTI NAGAR, KHARDEO NAGAR, N. G. ACHARYA ROAD, CHEMBUR EAST, MUMBAI- 400071",8291295662,MUMBAI,"GREATER BOMBAY",MAHARASHTRA
"THE SHAMRAO VITHAL COOPERATIVE BANK",SVCB0001027,400801022,"HINDUSTAN COOP BK- KANDIVALI EAST","SHOP NO 282, BARKYA RAMA HABALE COMPOUND, DAMUNAGAR, AKURLI ROAD, KANDIVALI EAST, MUMBAI- 400101",8291295663,MUMBAI,"GREATER BOMBAY",MAHARASHTRA
"THE SHAMRAO VITHAL COOPERATIVE BANK",SVCB0001026,400801025,"HINDUSTAN COOP BK- KHAR EAST","SHOP NO.2, HUSAIN JAMAL PATEL CHAWL, 7TH ROAD, GOLIBAR, NEAR KHAR SUBWAY, KHAR EAST, SANTACRUZ, MUMBAI- 400055",8291295666,MUMBAI,"GREATER BOMBAY",MAHARASHTRA
"THE SHAMRAO VITHAL COOPERATIVE BANK",SVCB0001025,400801023,"HINDUSTAN COOP BK- MIRA ROAD","SHOP NO. 6 TO 9, 1ST FLOOR, NARMADA HERITAGE, RAMEO PARK ROAD JUNCTION, RAMDEO PARK, MIRA ROAD, THANE- 401107",8291295664,MIRA-BHAYANDAR,THANE,MAHARASHTRA
"THE SHAMRAO VITHAL COOPERATIVE BANK",SVCB0001024,400801021,"HINDUSTAN COOP BK- MUMBRA","SHOP NO. 4 AND 5, A- WING, MATEEN APARTMENT, SANJAY NAGAR, MUMBAI PUNE ROAD, MUMBRA, DISTRICT THANE- 400612",8291295661,THANE,THANE,MAHARASHTRA
"THE SHAMRAO VITHAL COOPERATIVE BANK",SVCB0001023,400801024,"HINDUSTAN COOP BK- BHOIWADA PAREL","SHOP NO.1, B- WING, GROUND FLOOR, SUDARSHAN CO-OP. HOUSING SOCIETY LTD., ACHARYA DONDE MARG, PAREL VILLAGE, BHOIWADA, PAREL (E), MUMBAI- 400012",8291295665,MUMBAI,"GREATER BOMBAY",MAHARASHTRA
"THE SHAMRAO VITHAL COOPERATIVE BANK",SVCB0001020,400801020,"HINDUSTAN COOP BK- DIVA EAST","SIDDHIVINAYAK GARDEN, A-1 WING, SHOP NO 1,2, SURVEY NO 8,HISSA NO 1/B, DIVA EAST, THANE- 400612",8652252020,THANE,THANE,MAHARASHTRA
"THE SHAMRAO VITHAL COOPERATIVE BANK",SVCB0001019,400801019,"HINDUSTAN COOP BK- MALAD EAST","SHOP NO 3, RIDDHI-SIDDHI APARTMENT, DAFTARY ROAD, OPP SAIBABA TEMPLE, KURAR VILLAGE, MALAD EAST, MUMBAI- 400097",8652252025,MUMBAI,"GREATER BOMBAY",MAHARASHTRA
"THE SHAMRAO VITHAL COOPERATIVE BANK",SVCB0001018,400801018,"HINDUSTAN COOP BK-WADALA EAST","FNG 55/116, GROUND FLOOR, SHIVSHANKAR NAGAR, WADALA (E), MUMBAI-400037",8652252013,MUMBAI,"GREATER BOMBAY",MAHARASHTRA
"THE SHAMRAO VITHAL COOPERATIVE BANK",SVCB0001017,400801017,"HINDUSTAN COOP BK VIKROLI EAST","236/2343 GROUND FLOOR, TAGORE NAGAR, OPP B M C S SCHOOL, VIKROLI EAST, MUMBAI 400083.",23483780,MUMBAI,"GREATER BOMBAY",MAHARASHTRA
"THE SHAMRAO VITHAL COOPERATIVE BANK",SVCB0001016,400801016,"HINDUSTAN COOP BK-SEAWOOD DARAVE","HOUSE NO 2361, DALIT VIKAS SEVA SANGH, TURBHE STORE, TURBHE NAVI MUMBAI 400703",27720003,KAMOTHE,RAIGAD,MAHARASHTRA
"THE SHAMRAO VITHAL COOPERATIVE BANK",SVCB0001015,400801015,"HINDUSTAN COOP BK-KAMOTHE","SHRI YOGESHWAR COMPLEX, VIMUM TOWER, BUILDING NO.1, FIRST FLOOR, SECTOR 12, PLOT NO.1, KAMOTHE, NAVI MUMBAI",22943264,KAMOTHE,RAIGAD,MAHARASHTRA
"THE SHAMRAO VITHAL COOPERATIVE BANK",SVCB0001014,400801013,"HINDUSTAN COOPBK-KHADAKPADA,KLY(W)","PUSHPAKDHAM, NEAR SWAMI SAMARTH MANDIR, KHADAKPADA, BARAVE ROAD, KALYAN (W) 421 301.",2301208,KALYAN,THANE,MAHARASHTRA
"THE SHAMRAO VITHAL COOPERATIVE BANK",SVCB0001013,400801009,"HINDUSTAN COOPBK-LOKMANYANGR,THANE","AMIT CO-OP. HOUSING SOCIETY LTD., LOKMANYA NAGAR, NEAR YASHODHAN BUS STOP, THANE 410 606.",25881535,THANE,THANE,MAHARASHTRA
"THE SHAMRAO VITHAL COOPERATIVE BANK",SVCB0001012,400801012,"HINDUSTAN COOPBK-PMGP CLY,MANKHURD","SHOP NO.392, MOHITE PATIL NAGAR, J.B. BHOSALE ROAD, MANKHURD PANVEL LINK ROAD, MANKHURD, MUMBAI 400 043.",25481159,MUMBAI,"GREATER BOMBAY",MAHARASHTRA
"THE SHAMRAO VITHAL COOPERATIVE BANK",SVCB0001011,400801011,"HINDUSTAN COOP BK-MHADA CLY, MULUND┬á","MULUND MUKTI TOWER, MHADA COLONY, MULUND (E), MUMBAI 400 081.",25634002,MUMBAI,"GREATER BOMBAY",MAHARASHTRA
"THE SHAMRAO VITHAL COOPERATIVE BANK",SVCB0001010,400801010,"HINDUSTAN COOP BK-DOMBIVALI (W)","MAHALAXMI VIHAR, MAHATMA PHULE ROAD, DOMBIVALI (W), DIST. THANE.",2495573,DOMBIVLI,THANE,MAHARASHTRA
"THE SHAMRAO VITHAL COOPERATIVE BANK",SVCB0001009,400801003,"HINDUSTAN COOP BK-TROMBAY┬á","AMAR NAGAR CO-OP. HOUSING SOCIETY, DHOBIGHAT, CHEETA CAMP, TROMBAY, MUMBAI-400 088.",25511090,MUMBAI,"GREATER BOMBAY",MAHARASHTRA
"THE SHAMRAO VITHAL COOPERATIVE BANK",SVCB0001008,400801014,"HINDUSTAN COOPBK-NEHRU NGR,KURLA-E","BABA VIHAR, ANGULIMAL CO-OP. HSG. SOCIETY, IST FLOOR, B/101, S.G. BARVE MARG, NEHRU NAGAR, KURLA (E), MUMBAI 400 024.",25260809,MUMBAI,"GREATER BOMBAY",MAHARASHTRA
"THE SHAMRAO VITHAL COOPERATIVE BANK",SVCB0001007,400801008,"HINDUSTAN COOP BK-KOLSEWADI,KLY(E)","DEVI DAYAL TOWER, OPP. KOLSEWADI POLICE STATION, KOLSEWADI, KALYAN (E), DIST. THANE.",2363354,KALYAN,THANE,MAHARASHTRA
"THE SHAMRAO VITHAL COOPERATIVE BANK",SVCB0001006,400801007,"HINDUSTAN COOP BK-KALAMBOLI┬á","HINDUSTHAN BANK BHAVAN, SECTOR NO.8, PLOT NO.11, OPP. M.G.M. HOSPITAL, KALAMBOLI, NAVI MUMBAI 410 218.",27420003,KALAMBOLI,RAIGAD,MAHARASHTRA
"THE SHAMRAO VITHAL COOPERATIVE BANK",SVCB0001005,400801006,"HINDUSTAN COOPBK-PRATAPNGR,BHANDUP","JIJAMATA VIDYALAYA BUILDING, PRATAP NAGAR ROAD NAKA, BHANDUP (W), MUMBAI 400 078.",25944662,MUMBAI,"GREATER BOMBAY",MAHARASHTRA
"THE SHAMRAO VITHAL COOPERATIVE BANK",SVCB0001004,400801005,"HINDUSTAN COOP BK-DHARAVI┬á","LOKSEVA CO-OP. HOUSING SOCIETY, FIRST FLOOR, GARIB NAGAR, 90 FEET ROAD, DHARAVI, MUMBAI-400 017.",24078040,MUMBAI,"GREATER BOMBAY",MAHARASHTRA
"THE SHAMRAO VITHAL COOPERATIVE BANK",SVCB0001003,400801004,"HINDUSTAN COOPBK-SHIVAJI NAGAR","PITCH NO.3068 TO 3069 A, GAJANAN COLONY, SHIVAJI NAGAR, GOVANDI, MUMBAI-400 043.",32191650,MUMBAI,"GREATER BOMBAY",MAHARASHTRA
"THE SHAMRAO VITHAL COOPERATIVE BANK",SVCB0001002,400801002,"HINDUSTAN COOP BK-LOKHAND BAZAR┬á","205, SANT TUKARAM ROAD,┬á LOKHAND BAZAR, MASJID (EAST), MUMBAI-400 009.",23480131,MUMBAI,"GREATER BOMBAY",MAHARASHTRA
"THE SHAMRAO VITHAL COOPERATIVE BANK",SVCB0000303,520089002,VIJAYAWADA,"K.S.N. COMPLEX, NO. 74-1-8, M.G.ROAD, KRISHNANAGAR, OPP. AUTONAGAR BUS STAND, VJAYAWADA, ANDHRA PRADESH",2550078,VIJAYAWADA,KRISHNA,"ANDHRA PRADESH"
"THE SHAMRAO VITHAL COOPERATIVE BANK",SVCB0000302,500089003,SECUNDERABAD,"GOLECHHA ARCADE,1,2,61&62,PARK LANE, OPP. BRAND FACTORY SHOPPING MALL, SECUNDERABAD-500 003",27843314,SECUNDERABAD,HYDERABAD,"ANDHRA PRADESH"
"THE SHAMRAO VITHAL COOPERATIVE BANK",SVCB0000301,500089002,HYDERABAD,"AMRUTHA ESTATES SOMAJIGUDA, NEAR ERRAMANZIL BUS STOP, HYDERABAD, ANDHRA PRADESH 500 082",23352057,HYDERABAD,HYDERABAD,"ANDHRA PRADESH"
"THE SHAMRAO VITHAL COOPERATIVE BANK",SVCB0000252,110089004,FARIDABAD,"PLOT NO 1A/260, NEELAM BATA ROAD, NIT, NEAR KOTWALI (POLICE STATION, FARIDABAD- 121001",2423322,FARIDABAD,FARIDABAD,HARYANA
"THE SHAMRAO VITHAL COOPERATIVE BANK",SVCB0000251,110089003,"EAST PATEL NAGAR","25/36 EAST PATEL NAGAR, NEW DELHI 110008.",25753864,DELHI,DELHI,DELHI
"THE SHAMRAO VITHAL COOPERATIVE BANK",SVCB0000250,110089002,"NEHRU PLACE NEW DELHI","G/4,GURU AMARDAS BHAVAN,78-NEHRU PLACE,NEW DELHI - 110019",26411127,DELHI,DELHI,DELHI
"THE SHAMRAO VITHAL COOPERATIVE BANK",SVCB0000249,302089002,JAIPUR,"GROUND FLOOR,PLOT NO.K 11 B,ASHOK MARG,C SCHEME,JAIPUR 302001",9829244220,JAIPUR,JAIPUR,RAJASTHAN
"THE SHAMRAO VITHAL COOPERATIVE BANK",SVCB0000248,342089002,JODHPUR,"GROUND FLOOR, SHREE PRATAP TOWER, 654/A/B, JALJOG CIRCLE, JODHPUR- 342001, RAJASTHAN",5104569,JODHPUR,JODHPUR,RAJASTHAN
"THE SHAMRAO VITHAL COOPERATIVE BANK",SVCB0000205,416089151,SANGLI,"G-3, BALAJI CELEBRATIONS, NEMINATH NAGAR, VISHRAM BAUG, SANGLI ┬û 416 415",2304449,KOLHAPUR,KOLHAPUR,MAHARASHTRA
"THE SHAMRAO VITHAL COOPERATIVE BANK",SVCB0000204,416089152,JAISINGHPUR,"GANDHI CHOWK, STATION ROAD, JAYSINGPUR, TALUKA SHIROL, DIST. KOLHAPUR - 416 101.",225245,KOLHAPUR,KOLHAPUR,MAHARASHTRA
"THE SHAMRAO VITHAL COOPERATIVE BANK",SVCB0000203,416089002,SHAHUPURI,"CS NO. 681A, MAHAVEER BHAVAN, E WARD, 2ND LANE, SHAHUPURI, KOLHAPUR ┬û 416 001.",3209803,KOLHAPUR,KOLHAPUR,MAHARASHTRA
"THE SHAMRAO VITHAL COOPERATIVE BANK",SVCB0000202,416089003,LAXMIPURI,"EAGLES PRIDE, B - WARD, MIRAJKAR TIKTI, MANGALWAR PETH, KOLHAPUR ┬û 416 012.",2642195,KOLHAPUR,KOLHAPUR,MAHARASHTRA
"THE SHAMRAO VITHAL COOPERATIVE BANK",SVCB0000201,416089201,ICHALKARANJI,"DAIMA BHUVAN, ICHALKARANJI, TALUKA HATKANANGALE, DIST.KOLHAPUR -416 115",2424126,ICHALKARNJI,KOLHAPUR,MAHARASHTRA
"THE SHAMRAO VITHAL COOPERATIVE BANK",SVCB0000200,415089351,KARAD,"PLOT NO. 118, STATION ROAD, BUDHVAR PETH, KARAD, DIST. SATARA ┬û 415 110.",226623,KARAD,SATARA,MAHARASHTRA
"THE SHAMRAO VITHAL COOPERATIVE BANK",SVCB0000199,415089002,SATARA,"GROUND FLOOR, SHOP NO.G-3&4,CTS NO.501/4,RAJE BHOSALE HEIGHTS APARTMENT, SADAR BAZAR, BEHIND ST STAND, SATARA 415001.",226868,SATARA,SATARA,MAHARASHTRA
"THE SHAMRAO VITHAL COOPERATIVE BANK",SVCB0000196,444089302,KHAMGAON,"UPPER GROUND FLOOR, SHOP NO 2, SHRI CHAMUNDA COMPLEX, PLOT NO 17, SHEET NO 33/D, COTTON MARKET ROAD, KHAMGAON 444303",8805417818,KHAMGAON,BULDHANA,MAHARASHTRA
"THE SHAMRAO VITHAL COOPERATIVE BANK",SVCB0000192,411089024,"RAVIWARPETH, PUNE","SHOP NO 2, ASHA APARTMENT, CTS NO 450, BAGADE ROAD, RAVIVAR PETH, PUNE- 411002",24461133,PUNE,PUNE,MAHARASHTRA
"THE SHAMRAO VITHAL COOPERATIVE BANK",SVCB0000191,411089023,"LAW COLLEGE ROAD, PUNE","GROUND FLOOR, PLOT NO 70, SUB PLOT NO 23 AND 17, CHILPLUNKAR ROAD, ERANDWANE, TALUKA HAVELI, PUNE- 411004",25463761,PUNE,PUNE,MAHARASHTRA
"THE SHAMRAO VITHAL COOPERATIVE BANK",SVCB0000187,400089096,"SHYAM NAGAR- MAJASWADI","SHOP NO 1 & 2, BLUE MEADOWS, A WING, SHYAM NAGAR, JVLR, JOGESHWARI EAST, MUMBAI- 400060",28200283,MUMBAI,"GREATER BOMBAY",MAHARASHTRA
"THE SHAMRAO VITHAL COOPERATIVE BANK",SVCB0000186,400089095,BOISAR,"SHOP NO. 1-3, GROUND FLOOR, SURVEY NO.121, KALPAVRUKSHA C.H.S.LTD., OSTWAL EMPIRE, VILLAGE, SARAVALI, BOISAR, PALGHAR- 401404",6051004,BOISAR,PALGHAR,MAHARASHTRA
"THE SHAMRAO VITHAL COOPERATIVE BANK",SVCB0000185,400089093,"HANUMAN ROAD, VILE PARLE EAST","ASHOK GURUPRASAD CHS LTD, BLDG. NO. 04, SHOP- 1, HANUMAN ROAD,VILE PARLE EAST, MUMBAI- 400057",26189001,MUMBAI,"GREATER BOMBAY",MAHARASHTRA
"THE SHAMRAO VITHAL COOPERATIVE BANK",SVCB0000184,400089094,"CURREY ROAD","SHOP NO.3, GROUND FLOOR, GOVARDHAN BUILDING, 275-A, N.M.JOSHI MARG, CURREY ROAD, MUMBAI- 400013",23099101,MUMBAI,"GREATER BOMBAY",MAHARASHTRA
"THE SHAMRAO VITHAL COOPERATIVE BANK",SVCB0000183,400089092,"NALLASOPARA WEST","SHOP NO 1A,2,3,4& 5, GROUND FLOOR, MIRAJ- FUN FIESTA, SRI PRASTHA COMPLEX, VILLAGE NILEMORE, NALLASOPARA WEST, TALUKA VASAI, THANE- 401203",7028017114,NALLASOPARA,THANE,MAHARASHTRA
"THE SHAMRAO VITHAL COOPERATIVE BANK",SVCB0000182,400089091,"RAJAJI PATH, DOMBIVALI","SITA NIWAS, PLOT NO 2, CTS NO 8707 TO 8711, TIKKA NO 38, RAJAJI ROAD, RAMNAGAR, VILLAGE AYARE, TALUKA KALYAN, DISTRICT THANE, DOMBIVALI EAST- 421201",6520777,DOMBIVLI,THANE,MAHARASHTRA
"THE SHAMRAO VITHAL COOPERATIVE BANK",SVCB0000181,400089090,"THAKUR VILLAGE","SHOP NO 12-14, FLAT NO C-2, GOKUL RESIDENCY, THAKUR VILLAGE, KANDIVALI EAST, MUMBAI- 400101",28872171,MUMBAI,"GREATER BOMBAY",MAHARASHTRA
"THE SHAMRAO VITHAL COOPERATIVE BANK",SVCB0000178,636089002,SALEM,"130/1, LIONS ARCADE, SARADA COLLEGE ROAD, ALAGAPURAM, SALEM- 636016",2332166,ALAGAPURAM,SALEM,"TAMIL NADU"
"THE SHAMRAO VITHAL COOPERATIVE BANK",SVCB0000177,641089002,COIMBATORE,"GR. FLOOR, PLOT NO.1176, TRICHY ROAD, SUNGAM CIRCLE, RAMNATHPURAM, COIMBATORE, TAMIL NADU-641045.",2322217,COIMBATORE,COIMBATORE,"TAMIL NADU"
"THE SHAMRAO VITHAL COOPERATIVE BANK",SVCB0000176,600089003,NUNGAMBAKKAM,"MOOTHA CENTRE, KADAMBAKKAM HIGH ROAD, NUNGAMBAKKAM, CHENNAI 600034.",28218899,CHENNAI,CHENNAI,"TAMIL NADU"
"THE SHAMRAO VITHAL COOPERATIVE BANK",SVCB0000175,600089002,ANNANAGAR(E),"15,C BLOCK,6TH STREET,NEAR CHINTAMANI SIGNAL,ANNANAGAR(E),CHENNAI - 600 102",26208998,CHENNAI,CHENNAI,"TAMIL NADU"
"THE SHAMRAO VITHAL COOPERATIVE BANK",SVCB0000174,560089021,"BANASWADI, BANGALORE","GROUND FLOOR, NO 2C, 742 HRBR LAYOUT, 1ST BLOCK, BANASWADI, BANGALORE- 560043",25456917,BANGALORE,"BANGALORE URBAN",KARNATAKA
"THE SHAMRAO VITHAL COOPERATIVE BANK",SVCB0000173,572089002,TUMKUR,"SILVER LAND MARK, THE HUT HOTEL BUILDING, 2ND CROSS, M.G. ROAD, TUMKUR- 572101",2270612,TUMKUR,TUMKUR,KARNATAKA
"THE SHAMRAO VITHAL COOPERATIVE BANK",SVCB0000172,560089020,NAGANATHAPURA,"GROUND FLOOR, SITE NO 1,2,3,4, SY. NO. 47/1, RAYASANDRA MAIN ROAD,HOSA ROAD, NAGANATHAPURA, ELECTRONIC CITY POST,BANGALORE- 560100",9448546373,BANGALORE,"BANGALORE URBAN",KARNATAKA
"THE SHAMRAO VITHAL COOPERATIVE BANK",SVCB0000171,560089019,"J. P. NAGAR, BENGALURU","43 WILSON GARDEN HOUSING SOCIETY, OPP. RBI COLONY, J.P.NAGAR, 7TH PHASE, BANGALORE 560078.",23852343,BANGALORE,BANGALORE,KARNATAKA
"THE SHAMRAO VITHAL COOPERATIVE BANK",SVCB0000170,576089002,UDUPI,"10/3/1 C GURIKRIPA MOSQUE ROAD UDUPI 576101",2521900,UDUPI,UDUPI,KARNATAKA
"THE SHAMRAO VITHAL COOPERATIVE BANK",SVCB0000169,431089006,"CIDCO AURANGABAD","SHOP NO 4-8, PLOT NO 1, TOWN CENTRE, DISHA SHILP, MUKUNDWADI, CIDCO, AURANGABAD- 431001",2473031,AURANGABAD,AURANGABAD,MAHARASHTRA
"THE SHAMRAO VITHAL COOPERATIVE BANK",SVCB0000168,462089001,BHOPAL,"SURYA TOWER, E/5/7, BITTEN MARKET, ARERA COLONY, BHOPAL MADHY PRADESH 462016.",2441444,BHOPAL,BHOPAL,"MADHYA PRADESH"
"THE SHAMRAO VITHAL COOPERATIVE BANK",SVCB0000167,424089001,DHULE,"HOUSE NO 1411 MATRU SADAN LANE NO 4 DHULE 424001",238700,DHULE,DHULE,MAHARASHTRA
"THE SHAMRAO VITHAL COOPERATIVE BANK",SVCB0000166,444089002,AKOLA,"SHOP NO.4, NAZUL PLOT NO.5, NAKSHATRA SANKUL, UMRI ROAD, JATHARPETH, AKOLA 444005.",2490348,AKOLA,AKOLA,MAHARASHTRA
"THE SHAMRAO VITHAL COOPERATIVE BANK",SVCB0000165,425089002,JALGAON,"GROUND FLOOR, F.P.43/1 OF T.P.II, VISANJI NAGAR, OFF BANK STREET, JALGAON, 425001.",2236540,JALGAON,JALGAON,MAHARASHTRA
"THE SHAMRAO VITHAL COOPERATIVE BANK",SVCB0000164,422089003,AMBAD,"PARSHWANATH CHS LTD,NEAR SYMBIOSIS COLLEGE,PLOT NO 29,SECTOR S.S.A.1N.H.SHRAWAN SECTOR,AMBAD CIDCO,NASHIK-422 009",6611691,NASHIK,NASIK,MAHARASHTRA
"THE SHAMRAO VITHAL COOPERATIVE BANK",SVCB0000163,422089005,PANCHAVATI,"MAHATMA GANDHI HOTEL MGT & CATERING COLLEGE,MUMBAI-AGRA ROAD,PANCHAVATI,NASHIK-422 003",2510619,NASHIK,NASIK,MAHARASHTRA
"THE SHAMRAO VITHAL COOPERATIVE BANK",SVCB0000162,422089006,"GANGAPUR ROAD","SHOP NO 1,2 RUSHIRAJ HIGH RISE GANGAPUR ROAD NASHIK 42205",2314277,NASHIK,NASIK,MAHARASHTRA
"THE SHAMRAO VITHAL COOPERATIVE BANK",SVCB0000160,560089011,"BASAVESHWARA NGR","38/F.V GIRIYAPPA COMPLEX, 80FT ROAD,BASAVESHWARANAGER, BANGALORE-560 079",23287380,BANGALORE,"BANGALORE URBAN",KARNATAKA
"THE SHAMRAO VITHAL COOPERATIVE BANK",SVCB0000159,560089013,YESHWANTHAPUR,"MAYUR COMPLEX,NO:36, 1ST MAIN, 4TH CROSS, 1ST STAGE, YESHWANTHAPUR,BENGALURU ┬û 560022",23571244,BANGALORE,"BANGALORE URBAN",KARNATAKA
"THE SHAMRAO VITHAL COOPERATIVE BANK",SVCB0000158,560089015,"INDIRA NAGAR","853-B, 4TH CROSS, 10TH MAIN, INDIRANAGAR 2ND STAGE, BENGALURU - 560 038",25251853,BANGALORE,"BANGALORE URBAN",KARNATAKA
"THE SHAMRAO VITHAL COOPERATIVE BANK",SVCB0000157,560089016,"R.T.NAGAR,","GROUND FLOOR, NO 207/34, VENKATESHWARA NILAYA, NEXT TO ADISHWARA SHOWROOM; 4TH MAIN ROAD, GANGANAGAR, BANGALORE- 560032",23639789,BANGALORE,"BANGALORE URBAN",KARNATAKA
"THE SHAMRAO VITHAL COOPERATIVE BANK",SVCB0000156,560089017,"MYSORE ROAD","342/18,BYTARAYANAPURA,MYSORE ROAD BANGALORE-560 026,",26753482,BANGALORE,"BANGALORE URBAN",KARNATAKA
"THE SHAMRAO VITHAL COOPERATIVE BANK",SVCB0000155,560089014,NAGARBHAVI,"1210/C, 80 FEET ROAD, NEAR HOTEL DEEWAR, 1ST PHASE, 2ND STAGE, CHANDRA LAYOUT, BENGLURU- 560 040",23397210,NAGARABAVI,"BANGALORE URBAN",KARNATAKA
"THE SHAMRAO VITHAL COOPERATIVE BANK",SVCB0000154,560089012,BANASHANKARI,"292,7TH BLOCK,4TH STAGE,3RD PHASE,100 FEET ROAD, BANASHANKARI, BANGALORE-560 085",26791859,BANGALORE,"BANGALORE URBAN",KARNATAKA
"THE SHAMRAO VITHAL COOPERATIVE BANK",SVCB0000153,560089018,JAYANAGAR,"921/66,28TH MAIN ROAD,9TH BLOCK, BANGALORE - 560 069",26542043,BANGALORE,"BANGALORE URBAN",KARNATAKA
"THE SHAMRAO VITHAL COOPERATIVE BANK",SVCB0000152,560089010,"HANUMANTH NGR","27,MOUNT JOY ROAD,HANUMANTH NAGAR, BANGALORE-560 019",26603990,BANGALORE,"BANGALORE URBAN",KARNATAKA
"THE SHAMRAO VITHAL COOPERATIVE BANK",SVCB0000151,560089009,CHAMRAJPET,"1,CENTRAL BANK ROAD,CHAMRAJPET, BANGALORE-560 018",26678718,BANGALORE,"BANGALORE URBAN",KARNATAKA
"THE SHAMRAO VITHAL COOPERATIVE BANK",SVCB0000150,390089002,VADODARA,"SHREE COMPLEX, SHRENIK PARK CROSS ROAD,PRODUCTIVITY ROAD,AKOTA,VADODRA-390020",2351370,VADODARA,VADODARA,GUJARAT
"THE SHAMRAO VITHAL COOPERATIVE BANK",SVCB0000149,395089002,SURAT,"40/41,HIGHER GROUND FLOOR,RAGHUNANDAN TEXTILE MARKET,RING ROAD,SALABATPURA,SURAT-395 002",2363633,SURAT,SURAT,GUJARAT
"THE SHAMRAO VITHAL COOPERATIVE BANK",SVCB0000148,380089002,AHMEDABAD,"SHOP NO. 1&2,ASHOKA COMPLEX, SARDAR PATEL STADIUM ROAD, NEAR SARDAR PATEL STATUE, NAVJEEVAN PO, NAVRANGPURA,AHMEDABAD 380014.",26460614,AHMEDABAD,AHMADABAD,GUJARAT
"THE SHAMRAO VITHAL COOPERATIVE BANK",SVCB0000147,396089031,VAPI,"GROUND FLOOR, SHANTI COMPLEX,SHOP NO.7&8, PLOT NO.P-50/1,GUNJAN MAIN ROAD, GIDC, VAPI ┬û 396 195",2400810,VAPI,VALSAD,GUJARAT
"THE SHAMRAO VITHAL COOPERATIVE BANK",SVCB0000146,360089002,RAJKOT,"GROUND FLOOR, MANGALTIRTH,YOGINIKETAN PLOT, NIRMALA CONVENT ROAD, RAJKOT-360007",6554141,RAJKOT,RAJKOT,GUJARAT
"THE SHAMRAO VITHAL COOPERATIVE BANK",SVCB0000145,390089003,KARELIBAUG,"GROUND & 1ST FLOOR, KAPADIA HOUSE, 1- DEEPAVALI SOCIETY, WATER TANK MAIN ROAD, KARELIBAUG, VADODARA 390018",2490911,VADODARA,VADODARA,GUJARAT
"THE SHAMRAO VITHAL COOPERATIVE BANK",SVCB0000144,392089001,BHARUCH,"SHOP NO.12,SILVER SQUARE,LINK ROAD,BHARUCH 392001",71999999,BHARUCH,BHARUCH,GUJARAT
"THE SHAMRAO VITHAL COOPERATIVE BANK",SVCB0000143,380089003,"SATELLITE ROAD","UNIT NO 18, PRIMATE COMPLEX, NEAR JUDGES BUNGALOW CROSS ROAD,SATELLITE, AHMEDABAD 380015",9978584222,AHMEDABAD,AHMEDABAD,GUJARAT
"THE SHAMRAO VITHAL COOPERATIVE BANK",SVCB0000142,400089083,"KOPARI-THANE EAST","SHREE DATTA SAI TOWER, VIJAY NAGAR, OPP. THANEKAR WADI, HARIOM NAGAR ROAD, THANE (E) 400603.",25324011,THANE,THANE,MAHARASHTRA
"THE SHAMRAO VITHAL COOPERATIVE BANK",SVCB0000141,400089084,"KALYAN EAST","GAGANGIRI OPPOSITE HOTEL PRASAD TISGAON NAKA POONA LINK ROAD KALYAN EAST 421306",2358973,KALYAN,THANE,MAHARASHTRA
"THE SHAMRAO VITHAL COOPERATIVE BANK",SVCB0000140,400089085,"JAWAHAR NAGAR- GOREGAON","CITY SURVEY NO 598, PLOT NO 193,GROUND FLOOR, SURAG RESIDENCY, JAWAHAR NAGAR, ROAD NO 3, GOREGAON WEST, MUMBAI- 400062",8655199954,MUMBAI,"GREATER BOMBAY",MAHARASHTRA
"THE SHAMRAO VITHAL COOPERATIVE BANK",SVCB0000139,400089082,OSHIWARA,"HVPS INTERNATIONAL SCHOOL ,NEAR INCOME TAX QUARTERS OSHIWARA MUMBAI 400053",9987772887,MUMBAI,"GREATER MUMBAI",MAHARASHTRA
"THE SHAMRAO VITHAL COOPERATIVE BANK",SVCB0000138,400089081,PANVEL,"SHOP NO.1 TO 4, SNEH BUILDING, NITYANAND MARG, PANVEL DIST. RAIGAD 410206.",9833692396,PANVEL,RAIGAD,MAHARASHTRA
"THE SHAMRAO VITHAL COOPERATIVE BANK",SVCB0000137,400089079,"SANDHURST ROAD","SHOP NO 6 TO 9, PODDAR BUILDING NO 1,DR MAHESHWARI ROAD, DONGRI, SANDHURST ROAD, MUMBAI 400009",71999999,MUMBAI,"GREATER BOMBAY",MAHARASHTRA
"THE SHAMRAO VITHAL COOPERATIVE BANK",SVCB0000136,400089078,"BHANDUP EAST","AJINKYA APARTMENTS, DATAR COLONY ROAD, BHANDUP EAST, MUMBAI - 400 042.",25662535,MUMBAI,"GREATER BOMBAY",MAHARASHTRA
"THE SHAMRAO VITHAL COOPERATIVE BANK",SVCB0000135,400089080,"VASAI EAST","GROUND FLOOR, A1,A2,A4, NEW MANISH C.H.S, EVERSHINE CITY, VASAI EAST, THANE 401208",9820485436,VASAI,THANE,MAHARASHTRA
"THE SHAMRAO VITHAL COOPERATIVE BANK",SVCB0000134,400089088,"SHANTI GARDEN, MIRA ROAD","SHOP NO 8 TO 12, FLAT NO 001, BUILDING NO 2, SHANTI GARDEN, SECTOR 2, MIRA ROAD EAST, DISTRICT THANE- 401107",29451552,MIRA-BHAYANDAR,THANE,MAHARASHTRA
"THE SHAMRAO VITHAL COOPERATIVE BANK",SVCB0000133,400089087,"DOMBIVALI WEST","CTS NO 9/5,SURVEY NO 215, GROUND FLOOR, GURU DILASA, GUPTE ROAD, JAIHIND COLONY,DOMBIVLI WEST, THANE- 421202",8097093910,DOMBIVLI,THANE,MAHARASHTRA
"THE SHAMRAO VITHAL COOPERATIVE BANK",SVCB0000132,400089086,"PODDAR ROAD","SHOP NO 1 & 2, GROUND FLOOR, GANGA VIHAR B, PODDAR ROAD, SANTACRUZ WEST, MUMBAI- 400054",26194572,MUMBAI,"GREATER BOMBAY",MAHARASHTRA
"THE SHAMRAO VITHAL COOPERATIVE BANK",SVCB0000131,411089016,"KARVE NAGAR","GROUND FLOOR, SHWETA APARTMENTS, BLDG, NO.2, HINGNE, KARVE NAGAR, PUNE 411052.",65004020,PUNE,PUNE,MAHARASHTRA
"THE SHAMRAO VITHAL COOPERATIVE BANK",SVCB0000130,411089015,"SADASHIV PETH","LAXMAN HEIGHTS, CTS NO. 833, SADASHIV PETH,,PUNE-411030.",24440002,PUNE,PUNE,MAHARASHTRA
"THE SHAMRAO VITHAL COOPERATIVE BANK",SVCB0000129,411089017,"SAHAKAR NAGAR","GROUND & FIRST FLOOR, RAMCHANDRA APPARTMENTS, TAWRE COLONY,47/31 C, ARANYESHWAR, SAHAKAR NAGAR, PUNE 411009.",24222552,PUNE,PUNE,MAHARASHTRA
"THE SHAMRAO VITHAL COOPERATIVE BANK",SVCB0000128,411089018,"BALEWADI, PUNE","ELITE PREMIO COMMERCIAL COMPLEX, MITCON ROAD, BALEWADI, PUNE ┬û 411045.",65240002,BALEWADI,PUNE,MAHARASHTRA
"THE SHAMRAO VITHAL COOPERATIVE BANK",SVCB0000127,411089019,"WARJE BRANCH","GROUND FLOOR, SHOP.NO.9, SPANDAN, WARJE MALWADI, PUNE -411058",25236222,WARJE,PUNE,MAHARASHTRA
"THE SHAMRAO VITHAL COOPERATIVE BANK",SVCB0000126,NA,"PIMPLE SAUDAGAR","SHOP NO 3,4 AND 5,PAARVASAAKSHI BUILDING A,SHIV SAI ROAD,PIMPLE SAUDAGAR,PUNE 411027",0,PUNE,PUNE,MAHARASHTRA
"THE SHAMRAO VITHAL COOPERATIVE BANK",SVCB0000125,411089022,"PAUD ROAD","GROUND FLOOR, SHOP NO 1 & 2, VASANT PUSHP, RAJPATH HOUSING SOCIETY, PLOT NO 22, OFF PAUD ROAD, PUNE- 411038",25390023,PUNE,PUNE,MAHARASHTRA
"THE SHAMRAO VITHAL COOPERATIVE BANK",SVCB0000124,411089021,"SAHAKAR NAGAR II","GROUND FLOOR, GHORPADE CHAMBERS, CTS NO 1893, S.NO. 84/4/3, PARVATI DARSHAN, SAHAKAR NAGAR 2, PUNE- 411009",24213311,PUNE,PUNE,MAHARASHTRA
"THE SHAMRAO VITHAL COOPERATIVE BANK",SVCB0000123,403089003,MARGAO,"GROUND FLOOR, SHOP NO 1& 2, VASANT ARCADE,COMBA, MARGAO, GOA- 403601",9158332310,MARGAO,"SOUTH GOA",GOA
"THE SHAMRAO VITHAL COOPERATIVE BANK",SVCB0000122,452089003,"BHANWAR KUWA-  INDORE","7, GROUND FLOOR, MALWA TOWER, ASHOK NAGAR,BHANWAR KUWA MAIN ROAD, INDORE- 452001",9300010012,INDORE,INDORE,"MADHYA PRADESH"
"THE SHAMRAO VITHAL COOPERATIVE BANK",SVCB0000121,440089003,"GANDHIBAGH NAGPUR (E)","SURAJ SADAN, PLOT NO.10,C.A. ROAD, OPP. SOUTH GATE, GANDHIBAGH, NAGPUR (EAST) 440008.",2734077,NAGPUR,NAGPUR,MAHARASHTRA
"THE SHAMRAO VITHAL COOPERATIVE BANK",SVCB0000120,440089002,NAGPUR,"39, VRINDA KUNJ,MATAMANDIR ROAD,DHARAMPETH,NAGPUR -440 010",2542195,NAGPUR,NAGPUR,MAHARASHTRA
"THE SHAMRAO VITHAL COOPERATIVE BANK",SVCB0000119,444089101,AMRAVATI,"GROUND FLOOR, LATHIYAS COMPLEX, AUTO LANE, AMBE PETH, AMRAVATI 444601",8605505894,AMRAVATI,AMRAVATI,MAHARASHTRA
"THE SHAMRAO VITHAL COOPERATIVE BANK",SVCB0000118,430089101,NANDED,"SHOP NO 6,7,22 & 23 SANMAN PRESTIGE, STATION ROAD,NEAR ZILLA PARISHAD OFFICE, NANDED 431601.",239144,NANDED,JALGAON,MAHARASHTRA
"THE SHAMRAO VITHAL COOPERATIVE BANK",SVCB0000117,415089051,RATNAGIRI,"PANCHASHEEL SANKUL, NEAR MARUTI MANDIR, RATNAGIRI, MAHARASHTRA 415 612.",234050,RATNAGIRI,RATNAGIRI,MAHARASHTRA
"THE SHAMRAO VITHAL COOPERATIVE BANK",SVCB0000116,413089002,SOLAPUR,"SHOP NO.5 AND 6,SUN PLAZA,CITY SURVEY NO.8516 BY 11,MURARJI PETH,SOLAPUR 413002",2724263,SOLAPUR,SOLAPUR,MAHARASHTRA
"THE SHAMRAO VITHAL COOPERATIVE BANK",SVCB0000115,431089004,WALUJ,"PLOT NO.P-102,MEENATAI THAKRE MARKET, BAJAJ NAGAR, MAHARANAPRATAP CHOWK, WALUJ AURANGABAD 431136.",2554928,WALUJ,AURANGABAD,MAHARASHTRA
"THE SHAMRAO VITHAL COOPERATIVE BANK",SVCB0000114,452089002,INDORE,"GROUND FLOOR, ADITYA ENCLAVE, HIG COLONY, HIG MAIN ROAD, KHAJARANI, INDORE MADHYA PRADESH 452 008.",2539222,INDORE,INDORE,"MADHYA PRADESH"
"THE SHAMRAO VITHAL COOPERATIVE BANK",SVCB0000113,431089052,JALNA,"GROUND FLOOR, PLOT NO.27, BHOKARDAN ROAD, JALNA, 431203.",242011,JALNA,JALNA,MAHARASHTRA
"THE SHAMRAO VITHAL COOPERATIVE BANK",SVCB0000112,413089052,LATUR,"24/3-28,UKKA MARG, CHANDRA NAGAR, OPP. BASAVESHWAR MANGAL KARYALAYA, LATUR 413512.",250257,LATUR,LATUR,MAHARASHTRA
"THE SHAMRAO VITHAL COOPERATIVE BANK",SVCB0000111,414089002,AHMADNAGAR,"MARC HOUSE, PLOT NO.95/1, TOWN PLANNING SCHEME NO.IV, OPP. DATTA MANDIR, NAGAR MANMAD ROAD, SAVEDI, AHMEDNAGAR-414002.",2430422,AHMADNAGAR,AHMADNAGAR,MAHARASHTRA
"THE SHAMRAO VITHAL COOPERATIVE BANK",SVCB0000110,431089003,AURANGABAD,"RAJENDRA BHAVAN,1,OPP. HOTEL ASHOKA,ADALAT RD,AURANGABAD-431 001,",2324929,AURANGABAD,AURANGABAD,MAHARASHTRA
"THE SHAMRAO VITHAL COOPERATIVE BANK",SVCB0000109,411089014,HADAPSAR,"GROUND FLOOR, TUPE COMPLEX, SR. NO. 84, HISA NO.04&05,VILLAGE HADAPSAR, TALUKA HAVELI,PUNE-411028.",26811401,HADAPSAR,PUNE,MAHARASHTRA
"THE SHAMRAO VITHAL COOPERATIVE BANK",SVCB0000108,411089013,"SINHAGAD ROAD","35/2/1/1, VADGAON BUDRUK, MANIK BAUG, SINHAGAD ROAD,PUNE-411041.",24355004,PUNE,PUNE,MAHARASHTRA
"THE SHAMRAO VITHAL COOPERATIVE BANK",SVCB0000107,411089012,"CHINCHWAD GAON","INDRASHEEL APARTMENTS,SHOP 1 AND 2,PLOT 5,TANAJI NAGAR,CHINCHWAD,PUNE 411033",27615454,PUNE,PUNE,MAHARASHTRA
"THE SHAMRAO VITHAL COOPERATIVE BANK",SVCB0000106,411089011,BIBWEWADI,"635/1B,NEW GAJRA SOCIETY, BIBWEWADI, PUNE-411037.",24410992,PUNE,PUNE,MAHARASHTRA
"THE SHAMRAO VITHAL COOPERATIVE BANK",SVCB0000105,411089010,BHOSARI,"SNEH VISHWA PALACE,SECTOR NO 1, NEAR HOTEL HAVELI, NASHIK- PUNE HIGHWAY, INDRAYANI NAGAR, BHOSARI,PUNE 411 026",27230222,PUNE,PUNE,MAHARASHTRA
"THE SHAMRAO VITHAL COOPERATIVE BANK",SVCB0000104,411089009,KOTHRUD,"SURVEY NO 61,NARMADA HEIGHTS,D.P. ROAD,SHOP NO 2/3/4,KOTHRUD- 411 038",25386889,PUNE,PUNE,MAHARASHTRA
"THE SHAMRAO VITHAL COOPERATIVE BANK",SVCB0000103,411089008,"AUNDH - PUNE","GROUND FLOOR,VIDHATE TOWER,SURVEY NO 249,D.P.ROAD,NEAR DAV SCHOOL,AUNDH,PUNE - 411007",27299110,PUNE,PUNE,MAHARASHTRA
"THE SHAMRAO VITHAL COOPERATIVE BANK",SVCB0000102,411089006,"VIMAN NAGAR","UNIT NO.- 5,6,7,8,19 AND 20- PREMLAND, KONARK INDUSTRIAL ESTATE, PLOT NO.- 11, LOHEGAON, VIMAN NAGAR, PUNE- 411014.",26630855,PUNE,PUNE,MAHARASHTRA
"THE SHAMRAO VITHAL COOPERATIVE BANK",SVCB0000101,411089005,CAMP,"H.NO-620, S.NO-390/391, SACHAPIR STREET, SHARBHATWALA CHOWK, NEAR UNION BANK OF INDIA-IFB, CAMP, PUNE-411001",26052659,PUNE,PUNE,MAHARASHTRA
"THE SHAMRAO VITHAL COOPERATIVE BANK",SVCB0000100,422089002,NASHIK,"L-15 &G-16,UTILITY CENTRE,N M C SHARANPUR RD,NASHIK-422 001,",2311618,NASHIK,NASIK,MAHARASHTRA
"THE SHAMRAO VITHAL COOPERATIVE BANK",SVCB0000099,400089028,"EKSAR ROAD","SHOP NO. 1 TO 4, DEV KRUPA CHS, EKSAR ROAD, NEAR AQUARIA CLUB, BORIVALI (WEST), MUMBAI-400 092.",28943626,MUMBAI,"GREATER BOMBAY",MAHARASHTRA
"THE SHAMRAO VITHAL COOPERATIVE BANK",SVCB0000098,560089008,"11TH CROSS MALLESHWARAM","8TH MAIN,14TH CROSS,NEXT TO CANARA UNION, MALLESHWARAM",23316709,BANGALORE,"BANGALORE URBAN",KARNATAKA
"THE SHAMRAO VITHAL COOPERATIVE BANK",SVCB0000097,560089007,"HESSARGHATTA ROAD","TRIVENI MEMORIAL EDUCATIONAL TRUST,28/29,HESSARGATTA MAIN RD,MALLA SANDRA,PEENYA,BANGALORE-560057",28393699,BANGALORE,"BANGALORE URBAN",KARNATAKA
"THE SHAMRAO VITHAL COOPERATIVE BANK",SVCB0000096,575089003,"GANAPATHY HIGH SCHOOL ROAD","GROUND FLOOR, MOHINI VILAS COMMERCIAL COMPLEX, CASABA BAZAR VILLAGE, 13TH MARKET YARD OF MANGALORE CITY, GANAPATHY HIGH SCHOOL ROAD, HAMPANKATTA, MANGALORE ┬û 575 001",2420382,MANGALORE,"DAKSHIN KANNAD",KARNATAKA
"THE SHAMRAO VITHAL COOPERATIVE BANK",SVCB0000095,400089029,"BANDRA EAST","IES NEW ENGLISH HIGH SCHOOL,GOVT. COLONY, BANDRA (E),MUMBAI-400 051.",26571951,MUMBAI,"GREATER BOMBAY",MAHARASHTRA
"THE SHAMRAO VITHAL COOPERATIVE BANK",SVCB0000094,422089004,"NASHIK ROAD","JDC BYTCO (ENGLISH MEDIUM) HIGH SCHOOL,NASHIK ROAD,NASHIK-422101",2461168,NASHIK,NASIK,MAHARASHTRA
"THE SHAMRAO VITHAL COOPERATIVE BANK",SVCB0000093,560089006,VIJAYNAGAR,"KVV ENGLISH NURSERY, PRIMARY & HIGH SCHOOL, 3 & 3/1, SUBBANNA GARDENS, BEHIND BTS GARAGE, VIJAY NAGAR, BENGALURU - 560 040.",23218189,BANGALORE,"BANGALORE URBAN",KARNATAKA
"THE SHAMRAO VITHAL COOPERATIVE BANK",SVCB0000092,411089007,WANWORIE,"SHOP NO. 1-7, KONDAI MARUTI BLDG., SALUNKHE VIHAR ROAD,┬á WANWORIE, PUNE 411 048",26833949,PUNE,PUNE,MAHARASHTRA
"THE SHAMRAO VITHAL COOPERATIVE BANK",SVCB0000091,590089002,BELGAUM,"AASHRAYA EMPIRE, JUNCTION OF KHANAPUR ROAD & DESHMUKH ROAD (RPD CORNER),TILAKWADI, BELGAUM-590006",2461448,BELGAUM,BELGAUM,KARNATAKA
"THE SHAMRAO VITHAL COOPERATIVE BANK",SVCB0000090,580089002,HUBLI,"GND FLR,SATELLITE SPACE AGE COMPLEX,KOPPIKAR RD,HUBLI-580 020,",2366973,HUBLI-DHARWAD,DHARWAD,KARNATAKA
"THE SHAMRAO VITHAL COOPERATIVE BANK",SVCB0000089,400089089,WORLI,"SHOP NO 8-10, GROUND FLOOR, RAMODIYA MANSION NO 1, 257, OFF DR ANNIE BESANT ROAD, WORLI, MUMBAI- 400025",24365468,MUMBAI,"GREATER BOMBAY",MAHARASHTRA
"THE SHAMRAO VITHAL COOPERATIVE BANK",SVCB0000088,580089003,DHARWAD,"GROUND FLOOR,THEJA MAHAL, CTS NO.150/A, MARKET FORT, OPP. REGAL TALKIES, VIJAYARD,NEAR CBT, DHARWAD -580 001.",2447373,HUBLI-DHARWAD,DHARWAD,KARNATAKA
"THE SHAMRAO VITHAL COOPERATIVE BANK",SVCB0000087,570089002,MYSORE,"103, GROUND FLOOR, MYTHRI ARCADE, KANTHARAJ URS ROAD,  CHAMARAJA MOHALLA, SARAWATHIPURAM MYSORE 570009.",2341299,MYSORE,MYSORE,KARNATAKA
"THE SHAMRAO VITHAL COOPERATIVE BANK",SVCB0000086,400089077,"CG ROAD CHEMBUR","GROUND FLOOR,SHOP NO 1,2 AND 2A,VIKAS COMMERCIAL CENTRE,DR.C G ROAD,CHEMBUR,MUMBAI 400074",71999999,MUMBAI,"GREATER BOMBAY",MAHARASHTRA
"THE SHAMRAO VITHAL COOPERATIVE BANK",SVCB0000085,NA,KURLAWEST,"GROUND FLOOR,KOHINOOR CITY GANDHI BAL MANDIR,KURLA WEST MUMBAI 400070",0,MUMBAI,MUMBAI,MAHARASHTRA
"THE SHAMRAO VITHAL COOPERATIVE BANK",SVCB0000084,400089075,"VAZIRA NAKA","SHOP NO.2 AND 3,CREST AVENUE CHS,AT L.T.ROAD,VAZIRA NAKA,BORIVALI WEST,MUMBAI 400092",71999999,MUMBAI,"GREATER BOMBAY",MAHARASHTRA
"THE SHAMRAO VITHAL COOPERATIVE BANK",SVCB0000083,400089073,"DADAR EAST","UNIT NO. 1 & 2, GR. FLOOR, AALAP CHS LTD, PLOT NO. 173,SIR BHALCHANDRA ROAD, DADAR (EAST), MUMBAI ┬û 400 014",24144086,MUMBAI,"GREATER BOMBAY",MAHARASHTRA
"THE SHAMRAO VITHAL COOPERATIVE BANK",SVCB0000082,400089072,"PANDURANGWADI, GOREGAON (E)","GROUND FLOOR, MURARRAO RANE HIGH SCHOOL BLDG., ROAD NO.3, PANDURANGWADI, GOREGAON (E), MUMBAI ┬û 400063.",28712145,MUMBAI,"GREATER BOMBAY",MAHARASHTRA
"THE SHAMRAO VITHAL COOPERATIVE BANK",SVCB0000081,400089071,"PHADKE ROAD","GROUND FLOOR,  PITRE BUILDING, PHADKE ROAD, DOMBIVALI (EAST), THANE ┬û 421 201",6064100,DOMBIVLI,THANE,MAHARASHTRA
"THE SHAMRAO VITHAL COOPERATIVE BANK",SVCB0000080,403089002,PANJIM,"GROUND FLOOR, PRIMAVERA BLDG, NEXT TO EDC, DR.ATMARAM BORKAR ROAD, PANJIM, GOA- 403001.",2432552,PANAJI,"NORTH GOA",GOA
"THE SHAMRAO VITHAL COOPERATIVE BANK",SVCB0000079,400089070,"VASHI SECTOR 15","SHOP NOS.1-3, LAND VIEW CO-OPERATIVE HOUSING SOCIETY LTD., OPP. MARATHA BHAVAN, SECTOR 15 VASHI, NAVI MUMBAI-400 705.",27880561,"NEW BOMBAY",THANE,MAHARASHTRA
"THE SHAMRAO VITHAL COOPERATIVE BANK",SVCB0000078,400089069,AIROLI,"GROUND FLOOR, SUTAR TOWER, PLOT NO.D4, SECTOR 20, AIROLI, NAVI MUMBAI 400 708.",27792433,"NEW BOMBAY",THANE,MAHARASHTRA
"THE SHAMRAO VITHAL COOPERATIVE BANK",SVCB0000077,400089065,"FILMCITY ROAD","SHOP NO.1,2&3 , GROUND FLOOR , SATELLITE GARDEN D-2 , FILM CITY ROAD, GOREGAON- EAST, MUMBAI -400063.",28404800,MUMBAI,"GREATER BOMBAY",MAHARASHTRA
"THE SHAMRAO VITHAL COOPERATIVE BANK",SVCB0000076,400089064,GIRGAON,"GROUND FLOOR, SUNRISE VENETIA, J .S .S. ROAD , BELOW AMBEWADI POST OFFICE, GIRGAON,MUMBAI-400004.",23811125,MUMBAI,"GREATER BOMBAY",MAHARASHTRA
"THE SHAMRAO VITHAL COOPERATIVE BANK",SVCB0000075,400089063,NALLASOPARA,"GROUND FLOOR, KRISHNA RETAIL SPACE, OPP. KMPD SCHOOL, TULINJ ROAD,  NALLASOPARA (EAST), TALUKA VASAI, DIST THANE-401 209",2435722,NALLASOPARA,THANE,MAHARASHTRA
"THE SHAMRAO VITHAL COOPERATIVE BANK",SVCB0000074,400089068,"KASARVADAVLI BRANCH","GROUND FLOOR,SHOP NO.1,PURUSHOTTAM PLAZA,BLDG.NO.1,KASARVADAVLI NAKA, GHODBUNDER ROAD, THANE ┬û 400 615",25973722,THANE,THANE,MAHARASHTRA
"THE SHAMRAO VITHAL COOPERATIVE BANK",SVCB0000073,400089067,KALWA,"GROUND FLOOR,KISHORE PLAZA,OLD MUMBAI ┬û PUNE ROAD, KALWA,THANE ┬û 400 605",25362870,THANE,THANE,MAHARASHTRA
"THE SHAMRAO VITHAL COOPERATIVE BANK",SVCB0000072,400089066,"NERUL EAST","GROUND FLOOR,SHOP NO. G-9 H, HAVARE CENTURION, PLOT NO. 88 TO 91, SECTOR 19, NERUL EAST, NAVI MUMBAI 400 706.",27725040,KAMOTHE,RAIGAD,MAHARASHTRA
"THE SHAMRAO VITHAL COOPERATIVE BANK",SVCB0000071,581089352,SHIRALI,"OLD VANITA SAMAJ BUILDING, HOUSE NO.IX/25, SURVEY NO.815/A1, CHITRAPUR MAIN RD. SHIRALI -581354",258570,BHATKAL,"UTTAR KANNAD",KARNATAKA
"THE SHAMRAO VITHAL COOPERATIVE BANK",SVCB0000070,575089002,MANGALORE,"G-7,CRYSTAL ARC,BALMATTA RD,MANGALORE-575 001,",2441263,MANGALORE,"DAKSHIN KANNAD",KARNATAKA
"THE SHAMRAO VITHAL COOPERATIVE BANK",SVCB0000069,400089062,KHARGHAR,"SHOP NOS.5-8, SHUBHARAMBH COMPLEX, PLOT NO.19,SECTOR 20, KHARGHAR, NAVI MUMBAI 410210",65307070,"NEW BOMBAY",THANE,MAHARASHTRA
"THE SHAMRAO VITHAL COOPERATIVE BANK",SVCB0000068,400089061,TILAKNAGAR,"SHOP NO.10,BHAKTI HEIGHTS, CHEMBUR SANDESH CHS LTD., BLDG. NO.122, TILAKNAGAR CHEMBUR, MUMBAI-400089.",25272218,MUMBAI,"GREATER BOMBAY",MAHARASHTRA
"THE SHAMRAO VITHAL COOPERATIVE BANK",SVCB0000067,400089060,"FOUR BANGALOWS","SHOP NOS.3-5,SHREE SAGVAN CHS LTD., RTO LANE, FOUR BANGALOWS, ANDHERI (WEST), MUMBAI-400053.",26311037,MUMBAI,"GREATER BOMBAY",MAHARASHTRA
"THE SHAMRAO VITHAL COOPERATIVE BANK",SVCB0000066,400089059,VIKROLI(W),"SHOP NO.1-3,KAILASH COMMERCIAL COMPLEX,NEAR EVEREST FACTORY, LBS MARG, VIKROLI (WEST) MUMBAI-400083.",25778022,MUMBAI,"GREATER BOMBAY",MAHARASHTRA
"THE SHAMRAO VITHAL COOPERATIVE BANK",SVCB0000065,400089058,"ANDHERI EAST","SHOP NOS.2, BLDG. NO.F-2, VIJAYNAGARNITYANAND MARG,VIJAYNAGAR CHS LTD., ANDHERI (EAST), MUMBAI-400069.",26832611,MUMBAI,"GREATER BOMBAY",MAHARASHTRA
"THE SHAMRAO VITHAL COOPERATIVE BANK",SVCB0000064,400089057,SION,"UNIT NO. G-02, GROUND FLOOR, VALUE ENCLAVE, AMBEDKAR ROAD, SION, MUMBAI-400022.",24078010,MUMBAI,"GREATER BOMBAY",MAHARASHTRA
"THE SHAMRAO VITHAL COOPERATIVE BANK",SVCB0000063,560089005,KORAMANGALA,"780,ESSZED MERIDIAN,80 FT.RD,BLOCK-4,KORAMANGALA,BANGALORE, 560 034",25503861,BANGALORE,"BANGALORE URBAN",KARNATAKA
"THE SHAMRAO VITHAL COOPERATIVE BANK",SVCB0000062,560089004,"RAJAJI NAGAR","815/23,17TH'E',MAIN RD,5TH BLOCK,RAJAJI NAGAR,BANGALORE-560 010,",23403271,BANGALORE,"BANGALORE URBAN",KARNATAKA
"THE SHAMRAO VITHAL COOPERATIVE BANK",SVCB0000061,560089003,PEENYA,"KSSIDC MULTISTOREYED BLDG,PEENYA IND. EST.BANGALORE-560 058",28399355,BANGALORE,"BANGALORE URBAN",KARNATAKA
"THE SHAMRAO VITHAL COOPERATIVE BANK",SVCB0000060,560089002,MALESHWARAM,"49/1,5TH CROSS RD,MALLESHWARAM,BANGALORE-560 003",23441629,BANGALORE,"BANGALORE URBAN",KARNATAKA
"THE SHAMRAO VITHAL COOPERATIVE BANK",SVCB0000059,400089056,"VILE PARLE WEST","SHOP NO.01, SAROJ BUILDING, 10, VALLABHAAI PATEL ROAD, VILE PARLE (W), MUMBAI 400 056.",26124028,MUMBAI,"GREATER BOMBAY",MAHARASHTRA
"THE SHAMRAO VITHAL COOPERATIVE BANK",SVCB0000058,400089055,LOUISWADI,"UNIT NO.05,SUN MAGNETICA, LOUISWADI, NEAR LIC OFFICE, SERVICE ROAD, THANE (W), THANE 400 604.",25800051,THANE,THANE,MAHARASHTRA
"THE SHAMRAO VITHAL COOPERATIVE BANK",SVCB0000057,400089054,VIRAR-EAST,"GROUND FLOOR, SHOP NOS. 1-7, VARU ENCLAVE BUILDING, HARI GOVIND NAGAR, PHULPADA ROAD, VIRAR (EAST), THANE-401 303",2520298,VIRAR,THANE,MAHARASHTRA
"THE SHAMRAO VITHAL COOPERATIVE BANK",SVCB0000056,400089053,BADLAPUR,"GROUND & FIRST FLOOR, AAI BUILDING, VYANKATESH PARK, SANEWADI, KULGAON, BADLAPUR (W) 421 053.",6483116,THANE,THANE,MAHARASHTRA
"THE SHAMRAO VITHAL COOPERATIVE BANK",SVCB0000055,400089052,CHARKOP,"KESAR RESIDENCY, SECTOR-3, NEXT TO BHAGWATI RESTAURANT, CHARKOP, KANDIVALI(W), MUMBAI- 400 067.",28682570,MUMBAI,"GREATER BOMBAY",MAHARASHTRA
"THE SHAMRAO VITHAL COOPERATIVE BANK",SVCB0000054,400089051,KHADAKPADA,"GROUND FLOOR, SHOP NO.3B, NIRAJ PARK, KHADAKPADA, KALYAN (W) THANE 421301.",2305544,KALYAN,THANE,MAHARASHTRA
"THE SHAMRAO VITHAL COOPERATIVE BANK",SVCB0000053,400089050,GHATKOPAR(WEST),"SHOP NO.1-3, GROUND FLOOR, DELITE PALACE CHS LTD., PLOT NO.71/7, M G ROAD, GHATKOPAR(W), MUMBAI-400086.",25103366,MUMBAI,"GREATER BOMBAY",MAHARASHTRA
"THE SHAMRAO VITHAL COOPERATIVE BANK",SVCB0000052,411089004,"PIMPARI CHINCHWAD","63,SECTOR 27A,VILLAGE AKURDI,PCNT,NIGDI,PUNE-411 044",27659285,PUNE,PUNE,MAHARASHTRA
"THE SHAMRAO VITHAL COOPERATIVE BANK",SVCB0000051,411089003,"PUNE SATARA ROAD","SHOP NO-9-14,CHAPHALKAR CENTRE,NEAR HOTEL UTSAV,PUNE-411 037",24215075,PUNE,PUNE,MAHARASHTRA
"THE SHAMRAO VITHAL COOPERATIVE BANK",SVCB0000050,411089002,"PUNE D G","NANDITA,JUNGLI MAHARAJ RD,DECCAN GYMKHANA,PUNE-411 004",25538371,PUNE,PUNE,MAHARASHTRA
"THE SHAMRAO VITHAL COOPERATIVE BANK",SVCB0000049,400089049,"ANAND NAGAR DAHISAR EAST","SHOP NO.8C,13-15, SHIVAM CHS LTD., CHHATRAPATI SHIVAJI ROAD NO.5, ANAND NAGAR, DAHISAR(E), MUMBAI-400068.",28969001,MUMBAI,"GREATER BOMBAY",MAHARASHTRA
"THE SHAMRAO VITHAL COOPERATIVE BANK",SVCB0000048,400089048,DOMBIVALI,"SHOP NOS.4A-C, GAJANAN KRUPA, SANT NAMDEV PATH, OFF. MANPADA ROAD, DOMBIVALI(E) 421201.",2426578,DOMBIVLI,THANE,MAHARASHTRA
"THE SHAMRAO VITHAL COOPERATIVE BANK",SVCB0000047,400089047,LALBAUG,"SHOP NO.09,10,11 GROUND FLOOR, HILLA TOWER CHS LTD. DR. S S ROAD MUMBAI 400 012.",24700800,MUMBAI,"GREATER BOMBAY",MAHARASHTRA
"THE SHAMRAO VITHAL COOPERATIVE BANK",SVCB0000046,400089046,"WADALA WEST","VIJAY NIWAS,PLOT NO 193 STATION ROAD,WADALA WEST MUMBAI 400031",24160412,MUMBAI,"GREATER BOMBAY",MAHARASHTRA
"THE SHAMRAO VITHAL COOPERATIVE BANK",SVCB0000045,400089045,"KURLA EAST","GALA NO.G-6,BUILDING NO.42, KRANTI CHS,NEHRU NAGAR,KURLA(EAST),MUMBAI-400 024",25275007,MUMBAI,"GREATER BOMBAY",MAHARASHTRA
"THE SHAMRAO VITHAL COOPERATIVE BANK",SVCB0000044,400089044,"KHOPAT,THANE","SHOP NO 3,4,5 &101,BEAUTY ARCADE,KOLBAD CROSS ROAD,KHOPAT,THANE WEST- 400 602",25472587,THANE,THANE,MAHARASHTRA
"THE SHAMRAO VITHAL COOPERATIVE BANK",SVCB0000043,400089043,"MALAD (EAST)","KARISHMA PLAZA,PUSHPA PARK ,ROAD NO.1,NEAR ASHA HOSPITAL,MALAD EAST,MUMBAI -400097",28441603,MUMBAI,"GREATER BOMBAY",MAHARASHTRA
"THE SHAMRAO VITHAL COOPERATIVE BANK",SVCB0000042,400089042,VIRAR,"BUILDING NO. 10, M BARIA UNIQUE,TIRUPATI NAGAR , PHASE 2, UNITECH WESTEND ROAD,VIRAR (WEST) 401 303",2512696,VIRAR,THANE,MAHARASHTRA
"THE SHAMRAO VITHAL COOPERATIVE BANK",SVCB0000041,400089041,"VASAI WEST","GURUKRIPA BUILDING,STATION ROAD,NEAR VASAI ROAD POST OFFICE,OPP.MANIKPUR CRICKET GROUND,VASAI WEST - 401 202",2333012,VASAI,THANE,MAHARASHTRA
"THE SHAMRAO VITHAL COOPERATIVE BANK",SVCB0000040,400089040,"MULUND (EAST)","SHAGUN SADHANA,GV SCHEME,ROAD NO 2,NEAR B.M.C.SCHOOL,MULUND(E),MUMBAI-400 081",25636778,MUMBAI,"GREATER BOMBAY",MAHARASHTRA
"THE SHAMRAO VITHAL COOPERATIVE BANK",SVCB0000039,400089039,"BHAYANDER WEST","GOVIND BLDG,SALASAR BRIJ BHOOMI,150FT ROAD,NEXT TO RELIANCE FRESH,NEAR FLYOVER, BHAYANDER WEST -401 101",28193055,MUMBAI,"GREATER BOMBAY",MAHARASHTRA
"THE SHAMRAO VITHAL COOPERATIVE BANK",SVCB0000038,400089038,KOPARKHAIRANE,"GROUND FLOOR, FAM COOP. HOUSING SOCIETY LTD., SHOP NO.5A TO 9A, PLOT NO.19 & 19A, SECTOR -11, KOPARKHAIRANE, NAVI MUMBAI ┬û 400 709",27550151,MUMBAI,"GREATER BOMBAY",MAHARASHTRA
"THE SHAMRAO VITHAL COOPERATIVE BANK",SVCB0000037,400089037,BHANDUP,"WING""A"" GROUND FLOOR,VAKRATUNDA PALACE, OFF L.B.S.MARG, TANK ROAD,MUMBAI 400078",25962444,MUMBAI,"GREATER BOMBAY",MAHARASHTRA
"THE SHAMRAO VITHAL COOPERATIVE BANK",SVCB0000036,400089036,KAMOTHE,"SHOP NO.15,16, & 17,GROUND FLOOR,BLUE HEAVEN,PLOT NO 8-A,SECTOR NO 35, KAMOTHE,NAVI MUMBAI -410 206",64562200,MUMBAI,"GREATER BOMBAY",MAHARASHTRA
"THE SHAMRAO VITHAL COOPERATIVE BANK",SVCB0000035,400089035,"SAIBABA NAGAR,BORIVILI(W)","GROUND FLOOR,BUILDING NO. D,BASANTI CHS LTD,OPP.SAIBABA TEMPLE,SAIBABA NAGAR,BORIVILI(W),MUMBAI -400 092",28620999,MUMBAI,"GREATER BOMBAY",MAHARASHTRA
"THE SHAMRAO VITHAL COOPERATIVE BANK",SVCB0000034,400089034,"SANPADA EAST","BHUMIRAJ MANOR CHS LTD, SECTOR 14,SANPADA (EAST),NAVI MUMBAI 400705",27811791,MUMBAI,"GREATER BOMBAY",MAHARASHTRA
"THE SHAMRAO VITHAL COOPERATIVE BANK",SVCB0000033,400089033,"BANGUR NAGAR - GOREGAON W","SHOPS NO 31-34,34A & 34 B,HEERAMANI RATAN CHS,BANGUR NAGAR,GOREGAON(W),MUMBAI - 400090",28712690,MUMBAI,"GREATER BOMBAY",MAHARASHTRA
"THE SHAMRAO VITHAL COOPERATIVE BANK",SVCB0000032,400089032,DAHISAR(EAST),"GROUND FLOOR,SHIVANI SANKUL VIDYABHUSHAN SHIKSHAN SANSTHA,SHIV VALLABH CROSS ROAD,ASHOK VAN,DAHISAR(E),MUMBAI-400 068",28965761,MUMBAI,"GREATER BOMBAY",MAHARASHTRA
"THE SHAMRAO VITHAL COOPERATIVE BANK",SVCB0000031,400089031,DADAR,"GROUND FLOOR,LAXMI NARAYAN NIVAS (KANE BLDG),RANADE ROAD,DADAR,MUMBAI-400028 MAHARASHTRA.",24320791,MUMBAI,"GREATER BOMBAY",MAHARASHTRA
"THE SHAMRAO VITHAL COOPERATIVE BANK",SVCB0000030,400089030,KANDIVILI(E),"NIRMALA MEMORIAL FOUNDATION'S COLLEGE OF COMMERCE & SCIENCE,ASHA NAGAR,KANDIVILI(E),MUMBAI-400 101.",67256531,MUMBAI,"GREATER BOMBAY",MAHARASHTRA
"THE SHAMRAO VITHAL COOPERATIVE BANK",SVCB0000027,400089027,GAMDEVI,"SARASWAT COLONY,DR.K.N.MARG,GRANT ROAD,MUMBAI-400 007",23885013,MUMBAI,"GREATER BOMBAY",MAHARASHTRA
"THE SHAMRAO VITHAL COOPERATIVE BANK",SVCB0000026,400089026,VAKOLA,"SVC TOWER,JAWAHARLAL NEHRU ROAD,VAKOLA MARKET, SANTACRUZ (E),MUMBAI  -400 055",66999701,MUMBAI,"GREATER BOMBAY",MAHARASHTRA
"THE SHAMRAO VITHAL COOPERATIVE BANK",SVCB0000025,400089025,KHAR,"VANVARIA APPT,2ND ROAD CORNER,S V RD,KHAR(W),MUMBAI-400 052",26465991,MUMBAI,"GREATER BOMBAY",MAHARASHTRA
"THE SHAMRAO VITHAL COOPERATIVE BANK",SVCB0000024,400089024,VASHI,"BANKING COMPLEX-II, UNIT NO.3, GROUND FLOOR, COMMERCIAL CO-OP. PREMISES SOCIETY LTD., PLOT NO.9&10, SECTOR ┬û 19A,VASHI, NAVI MUMBAI ┬û 400 703",27847651,MUMBAI,"GREATER BOMBAY",MAHARASHTRA
"THE SHAMRAO VITHAL COOPERATIVE BANK",SVCB0000023,400089023,THANE,"SHOP NO.11 & 12, SITA VIHAR, DAMANI ESTATE, L. B. S. MARG, NAUPADA, THANE(W)-400 602.",25338715,THANE,THANE,MAHARASHTRA
"THE SHAMRAO VITHAL COOPERATIVE BANK",SVCB0000022,400089022,"MIRA ROAD","ROYAL CHALLENGE BLDG,MIRA-BHAYENDER RD,DIST- THANE 401 107",28122372,THANE,THANE,MAHARASHTRA
"THE SHAMRAO VITHAL COOPERATIVE BANK",SVCB0000021,400089021,MALAD,"47/A,S M HOUSE LOURDES COLONY,ORLEM,MALAD,MUMBAI-400 064",28069163,MUMBAI,"GREATER BOMBAY",MAHARASHTRA
"THE SHAMRAO VITHAL COOPERATIVE BANK",SVCB0000020,400089020,CHEMBUR,"913,NATASHA PLAZZA,D K SANDHU MARG,CHEMBUR,MUMBAI-400 071",25235389,MUMBAI,"GREATER BOMBAY",MAHARASHTRA
"THE SHAMRAO VITHAL COOPERATIVE BANK",SVCB0000019,400089019,KANDIVALI,"6 MANEK NAGAR,M G RD,KANDIVALI (W),MUMBAI-400 067",28634490,MUMBAI,"GREATER BOMBAY",MAHARASHTRA
"THE SHAMRAO VITHAL COOPERATIVE BANK",SVCB0000018,400089018,GHATKOPAR,"JAYANT ARCADE,RAJAWADI NAKA,GHATKOPAR(E),MUMBAI-400 077",21027308,MUMBAI,"GREATER BOMBAY",MAHARASHTRA
"THE SHAMRAO VITHAL COOPERATIVE BANK",SVCB0000017,400089017,"MAHAKALI CAVES RD","SANSKRITI PARK,OPP. CANOSSA HIGH SCHOOL,ANDHERI(E), MUMBAI-400 093",28370781,MUMBAI,"GREATER BOMBAY",MAHARASHTRA
"THE SHAMRAO VITHAL COOPERATIVE BANK",SVCB0000016,400089016,MULUND,"SABNIS NIWAS,RHB RD,MULUND(W),MUMBAI-400 080",25605735,MUMBAI,"GREATER BOMBAY",MAHARASHTRA
"THE SHAMRAO VITHAL COOPERATIVE BANK",SVCB0000015,400089015,KALYAN,"SAI VIHAR,CHHATRAPATI SHIVAJI PATH,SHIVAJI CHAWK,KALYAN-421 301",2313479,KALYAN,THANE,MAHARASHTRA
"THE SHAMRAO VITHAL COOPERATIVE BANK",SVCB0000013,400089013,VERSOVA,"7,SARKAR CORNER,J P RD,ANDHERI(W),MUMBAI-400 058",26770151,MUMBAI,"GREATER BOMBAY",MAHARASHTRA
"THE SHAMRAO VITHAL COOPERATIVE BANK",SVCB0000012,400089012,MANDVI,"82/84,ANAND BLDG,KAZI SYED STREET,MANDVI,MUMBAI-400 003",23446206,MUMBAI,"GREATER BOMBAY",MAHARASHTRA
"THE SHAMRAO VITHAL COOPERATIVE BANK",SVCB0000011,400089011,GOREGAON,"12,UDYOG NAGAR,TIME STAR BLDG,S V RD,GOREGAON,MUMBAI-400 062",28740578,MUMBAI,"GREATER BOMBAY",MAHARASHTRA
"THE SHAMRAO VITHAL COOPERATIVE BANK",SVCB0000010,400089010,"VILE PARLE","GEETANJALI,NEHRU ROAD,VILEPARLE(E),MUMBAI-400 057",26133210,MUMBAI,"GREATER BOMBAY",MAHARASHTRA
"THE SHAMRAO VITHAL COOPERATIVE BANK",SVCB0000009,400089009,"SLEATER ROAD","A/3-4,GANESH PRASAD,NAUSHIR BHARUCHA MARG,MUMBAI-400 007",23812092,MUMBAI,"GREATER BOMBAY",MAHARASHTRA
"THE SHAMRAO VITHAL COOPERATIVE BANK",SVCB0000008,400089008,SANTACRUZ,"8/1,SARASWAT COLONY,SANTACRUZ(W),MUMBAI-400 054",26600584,MUMBAI,"GREATER BOMBAY",MAHARASHTRA
"THE SHAMRAO VITHAL COOPERATIVE BANK",SVCB0000007,400089007,SAKINAKA,"SHOP NO. 11, 12, 30, 31, GROUND FLOOR, SAGAR TECH PLAZA ┬û A PREMISES CHS LTD., VILLAGE MOHILI, ANDHERI ┬û KURLA ROAD, SAKINAKA, MUMBAI - 400072",28522508,MUMBAI,"GREATER BOMBAY",MAHARASHTRA
"THE SHAMRAO VITHAL COOPERATIVE BANK",SVCB0000006,400089006,"S V MARG","H/2, ANANDASHRAM,SHAMRAO VITHAL MARG,MUMBAI-400 007",23867924,MUMBAI,"GREATER BOMBAY",MAHARASHTRA
"THE SHAMRAO VITHAL COOPERATIVE BANK",SVCB0000005,400089005,MATUNGA,"5,KANARA HOUSE,MOGAL LANE,MAHIM,MUMBAI-400 016",24379927,MUMBAI,"GREATER BOMBAY",MAHARASHTRA
"THE SHAMRAO VITHAL COOPERATIVE BANK",SVCB0000004,400089004,BORIVALI,"BAL VATSALAYA BLDG,KASTURBA CROSS RD NO-1,BORIVALI,MUMBAI-400 066",28058425,MUMBAI,"GREATER BOMBAY",MAHARASHTRA
"THE SHAMRAO VITHAL COOPERATIVE BANK",SVCB0000003,400089003,BANDRA,"C,CHITRAPUR CHS,27TH RD TPS III,BANDRA(W), MUMBAI 400 050",26426280,MUMBAI,"GREATER BOMBAY",MAHARASHTRA
"THE SHAMRAO VITHAL COOPERATIVE BANK",SVCB0000002,400089002,"CUFFE PARADE","MAKER TOWERS'E',CUFFEPARADE,MUMBAI-400 005",67444545,MUMBAI,"GREATER BOMBAY",MAHARASHTRA
"THE SHAMRAO VITHAL COOPERATIVE BANK",SVCB0000001,400089014,RTGS-HO,"S V C TOWER, NEHRU ROAD, SANTACRUZ MUMBAI 400055",71991201,MUMBAI,"GREATER BOMBAY",MAHARASHTRA
