BANK,IFSC,MICR,BRANCH,ADDRESS,CONTACT,CITY,DISTRICT,STATE
"PRAGATHI KRISHNA GRAMIN BANK",PKGB0011191,585697573,GURMITKAL,"TQ.YADGIR DIST.YADGIR",225363,YADGIR,YADGIR,KARNATAKA
"PRAGATHI KRISHNA GRAMIN BANK",PKGB0011190,585697003,"N.V.LAYOUT GULBARGA","TQ.GULBARGA DIST.GULBARGA",232371,GULBARGA,GULBARGA,KARNATAKA
"PRAGATHI KRISHNA GRAMIN BANK",PKGB0011189,NA,CHOUBARA,"TQ.BIDAR DIST.BIDAR",229897,BIDAR,BIDAR,KARNATAKA
"PRAGATHI KRISHNA GRAMIN BANK",PKGB0011188,585697504,KALGI,"MAIN BAZAR LANE",257022,CHITAPUR,GULBARGA,KARNATAKA
"PRAGATHI KRISHNA GRAMIN BANK",PKGB0011187,585697508,MALLAB,"MAIN BAZAR LANE",257022,SHORAPUR,YADGIR,KARNATAKA
"PRAGATHI KRISHNA GRAMIN BANK",PKGB0011186,585697507,BALONDAGI,"MAIN BAZAR LANE",257022,JEWARGI,GULBARGA,KARNATAKA
"PRAGATHI KRISHNA GRAMIN BANK",PKGB0011185,585697205,"GUNJ AREA, YADGIR","STAION AREA",257022,YADGIR,YADGIR,KARNATAKA
"PRAGATHI KRISHNA GRAMIN BANK",PKGB0011184,585697506,"REVAGGI TEMPLE","MAIN BAZAR LANE",257022,CHITAPUR,GULBARGA,KARNATAKA
"PRAGATHI KRISHNA GRAMIN BANK",PKGB0011183,585697505,NALWAR,"KUMBAR ONI",257022,CHITAPUR,GULBARGA,KARNATAKA
"PRAGATHI KRISHNA GRAMIN BANK",PKGB0011181,585697503,SHAHABAD,"MAIN BAZAR LANE",257022,CHITAPUR,GULBARGA,KARNATAKA
"PRAGATHI KRISHNA GRAMIN BANK",PKGB0011180,585697599,"HUMNABAD OLD CITY","OLD CITY",270482,HUMNABAD,BIDAR,KARNATAKA
"PRAGATHI KRISHNA GRAMIN BANK",PKGB0011179,585697598,EKAMBA,"MAIN BAZAR LANE",223422,AURAD,BIDAR,KARNATAKA
"PRAGATHI KRISHNA GRAMIN BANK",PKGB0011178,585697106,"DARGI GALLI, BIDAR","DARJI GALLI",223422,BIDAR,BIDAR,KARNATAKA
"PRAGATHI KRISHNA GRAMIN BANK",PKGB0011177,585697597,NITTUR,"MAIN BAZAR LANE",264452,BHALKI,BIDAR,KARNATAKA
"PRAGATHI KRISHNA GRAMIN BANK",PKGB0011176,585697501,MUNNALLI,"MAIN BAZAR LANE",275100,ALAND,GULBARGA,KARNATAKA
"PRAGATHI KRISHNA GRAMIN BANK",PKGB0011175,585697403,"SEDAM OLD CITY","SEDAM OLD CITY",275100,SEDAM,GULBARGA,KARNATAKA
"PRAGATHI KRISHNA GRAMIN BANK",PKGB0011174,585697654,RUDRAVADI,"MAIN BAZAR LANE",275100,ALAND,GULBARGA,KARNATAKA
"PRAGATHI KRISHNA GRAMIN BANK",PKGB0011173,585697014,"SHEROF BAZAR","SHEROF BAZAR",275100,GULBARGA,GULBARGA,KARNATAKA
"PRAGATHI KRISHNA GRAMIN BANK",PKGB0011172,585697015,"LALGERI CROSS","LALGERI CROSS",232111,GULBARGA,GULBARGA,KARNATAKA
"PRAGATHI KRISHNA GRAMIN BANK",PKGB0011171,585697013,"ESI HOSPITAL GULBARGA","SEDAM ROAD ESI HOSPITAL",232111,GULBARGA,GULBARGA,KARNATAKA
"PRAGATHI KRISHNA GRAMIN BANK",PKGB0011170,585697502,GUNDGURTI,"MAIN BAZAR LANE",257022,CHITAPUR,GULBARGA,KARNATAKA
"PRAGATHI KRISHNA GRAMIN BANK",PKGB0011169,585697646,MIRKAL,"MAIN BAZAR LANE",283344,BASAVAKALYAN,BIDAR,KARNATAKA
"PRAGATHI KRISHNA GRAMIN BANK",PKGB0011168,585697595,RANJOL,"TQ.SEDAM DIST.GULBARGA",232111,SEDAM,GULBARGA,KARNATAKA
"PRAGATHI KRISHNA GRAMIN BANK",PKGB0011167,585697647,WADAGAON,"TQ.AURAD DIST.BIDAR",283344,AURAD,BIDAR,KARNATAKA
"PRAGATHI KRISHNA GRAMIN BANK",PKGB0011166,585697593,HIROLLI,"TQ.ALAND DIST.GULBARGA",232111,ALAND,GULBARGA,KARNATAKA
"PRAGATHI KRISHNA GRAMIN BANK",PKGB0011165,585697592,AMBALAGA,"TQ.ALAND DIST.GULBARGA",232111,ALAND,GULBARGA,KARNATAKA
"PRAGATHI KRISHNA GRAMIN BANK",PKGB0011164,585697591,NAIKAL,"TQ.SHORAPUR DIST.YADGIR",257022,SHORAPUR,YADGIR,KARNATAKA
"PRAGATHI KRISHNA GRAMIN BANK",PKGB0011163,585697590,MUDBUL,"TQ.SHORAPUR DIST.YADGIR",257022,SHORAPUR,YADGIR,KARNATAKA
"PRAGATHI KRISHNA GRAMIN BANK",PKGB0011162,585697589,MUDNUR,"TQ.SHORAPUR DIST.YADGIR",257022,SHORAPUR,YADGIR,KARNATAKA
"PRAGATHI KRISHNA GRAMIN BANK",PKGB0011161,585697104,"GUMPA BIDAR","TQ.BIDAR DIST.BIDAR",235400,BIDAR,BIDAR,KARNATAKA
"PRAGATHI KRISHNA GRAMIN BANK",PKGB0011160,585697011,"OLD JEWARGI ROAD","TQ.GULBARGA DIST.GULBARGA",232111,GULBARGA,GULBARGA,KARNATAKA
"PRAGATHI KRISHNA GRAMIN BANK",PKGB0011159,585697012,"GODUTAYI NAGAR","TQ.GULBARGA DIST.GULBARGA",232111,GULBARGA,GULBARGA,KARNATAKA
"PRAGATHI KRISHNA GRAMIN BANK",PKGB0011158,585697587,AYNAPUR,"TQ.CHINCHOLI DIST.GULBARGA",232111,CHINCHOLI,GULBARGA,KARNATAKA
"PRAGATHI KRISHNA GRAMIN BANK",PKGB0011157,585697645,DUBULGUNDI,"TQ.HUMNABAD DIST.BIDAR",273434,HUMNABAD,BIDAR,KARNATAKA
"PRAGATHI KRISHNA GRAMIN BANK",PKGB0011156,585697655,RANGAMPETH,"TQ.SHORAPUR DIST.YADGIR",257022,SHORAPUR,YADGIR,KARNATAKA
"PRAGATHI KRISHNA GRAMIN BANK",PKGB0011155,585697644,RAJESHWAR,"TQ.BASAVAKALYAN DIST.BIDAR",258077,BASAVAKALYAN,BIDAR,KARNATAKA
"PRAGATHI KRISHNA GRAMIN BANK",PKGB0011154,585697640,BAGADAL,"TQ.BIDAR DIST.BIDAR",242933,BIDAR,BIDAR,KARNATAKA
"PRAGATHI KRISHNA GRAMIN BANK",PKGB0011153,585697585,BALASHETTIHAL,"TQ.SHORAPUR DIST.YADGIR",290222,SHORAPUR,YADGIR,KARNATAKA
"PRAGATHI KRISHNA GRAMIN BANK",PKGB0011152,585697204,SAIDAPUR,"TQ.YADGIR DIST.YADGIR",224038,YADGIR,YADGIR,KARNATAKA
"PRAGATHI KRISHNA GRAMIN BANK",PKGB0011151,585697586,HATTIKUNI,"TQ.YADGIR DIST.YADGIR",212611,YADGIR,YADGIR,KARNATAKA
"PRAGATHI KRISHNA GRAMIN BANK",PKGB0011150,585697641,"HALLIKHED B","TQ.HUMNABAD DIST.BIDAR",274400,HUMNABAD,BIDAR,KARNATAKA
"PRAGATHI KRISHNA GRAMIN BANK",PKGB0011149,585697581,KAMALANAGAR,"TQ.ALAND DIST.GULBARGA",232111,ALAND,GULBARGA,KARNATAKA
"PRAGATHI KRISHNA GRAMIN BANK",PKGB0011148,585697643,HALBARGA,"TQ.BHALKI DIST.BIDAR",263600,BHALKI,BIDAR,KARNATAKA
"PRAGATHI KRISHNA GRAMIN BANK",PKGB0011147,585697642,CHITAGUPPA,"TQ.HUMNABAD DIST.BIDAR",277377,HUMNABAD,BIDAR,KARNATAKA
"PRAGATHI KRISHNA GRAMIN BANK",PKGB0011146,585697009,"N R COLONY","TQ.GULBARGA DIST.GULBARGA",254105,GULBARGA,GULBARGA,KARNATAKA
"PRAGATHI KRISHNA GRAMIN BANK",PKGB0011145,585697583,"SHAHPUR YADGIR ROAD","TQ.SHAHAPUR DIST.YADGIR",244600,SHAHAPUR,YADGIR,KARNATAKA
"PRAGATHI KRISHNA GRAMIN BANK",PKGB0011144,585697584,HATTIGUDUR,"TQ.SHAHAPUR DIST.YADGIR",215425,SHAHAPUR,YADGIR,KARNATAKA
"PRAGATHI KRISHNA GRAMIN BANK",PKGB0011143,585697582,KEMBHAVI,"TQ.SHORAPUR DIST.YADGIR",278301,SHORAPUR,YADGIR,KARNATAKA
"PRAGATHI KRISHNA GRAMIN BANK",PKGB0011142,585697580,BILWAR,"TQ.JEWARGI DIST.GULBARGA",280025,JEWARGI,GULBARGA,KARNATAKA
"PRAGATHI KRISHNA GRAMIN BANK",PKGB0011141,585697588,FARHATABAD,"TQ.GULBARGA DIST.GULBARGA",213200,GULBARGA,GULBARGA,KARNATAKA
"PRAGATHI KRISHNA GRAMIN BANK",PKGB0011140,585697008,"AIWAN-E-SHAHI GULBARGA","TQ.GULBARGA DIST.GULBARGA",240093,GULBARGA,GULBARGA,KARNATAKA
"PRAGATHI KRISHNA GRAMIN BANK",PKGB0011139,585697579,RAVOOR,"TQ.CHITAPUR,DIST GULBARGA",288023,CHITAPUR,GULBARGA,KARNATAKA
"PRAGATHI KRISHNA GRAMIN BANK",PKGB0011138,585697006,"INDUSTRIAL AREA GLB","TQ.GULBARGA DIST.GULBARGA",273907,GULBARGA,GULBARGA,KARNATAKA
"PRAGATHI KRISHNA GRAMIN BANK",PKGB0011137,585697103,"CHIDRI ROAD BIDAR","TQ.BIDAR DIST.BIDAR",240454,BIDAR,BIDAR,KARNATAKA
"PRAGATHI KRISHNA GRAMIN BANK",PKGB0011136,585697105,"SHIVANAGAR BIDAR","TQ.BIDAR DIST.BIDAR",240370,BIDAR,BIDAR,KARNATAKA
"PRAGATHI KRISHNA GRAMIN BANK",PKGB0011135,585697010,"BIDAPUR COLONY GLB","TQ.GULBARGA DIST.GULBARGA",273907,GULBARGA,GULBARGA,KARNATAKA
"PRAGATHI KRISHNA GRAMIN BANK",PKGB0011134,585697578,RAMSAMUDRA,"TQ.YADGIR DIST.YADGIR",250466,YADGIR,YADGIR,KARNATAKA
"PRAGATHI KRISHNA GRAMIN BANK",PKGB0011133,585697203,"SUBHASH CHOWK YADGIR","TQ.YADGIR DIST.YADGIR",250466,YADGIR,YADGIR,KARNATAKA
"PRAGATHI KRISHNA GRAMIN BANK",PKGB0011132,585697577,"MAHAGAON CROSS","TQ.GULBARGA DIST.GULBARGA",220188,GULBARGA,GULBARGA,KARNATAKA
"PRAGATHI KRISHNA GRAMIN BANK",PKGB0011125,585697639,MANTHAL,"TQ.BASAVAKALYAN DIST.BIDAR",257888,BASAVAKALYAN,BIDAR,KARNATAKA
"PRAGATHI KRISHNA GRAMIN BANK",PKGB0011124,585697576,YADRAMI,"TQ.JEWARGI DIST.GULBARGA",226543,JEWARGI,GULBARGA,KARNATAKA
"PRAGATHI KRISHNA GRAMIN BANK",PKGB0011122,585697638,KAMALNAGAR,"TQ.AURAD DIST.BIDAR",285377,AURAD,BIDAR,KARNATAKA
"PRAGATHI KRISHNA GRAMIN BANK",PKGB0011121,585697637,NOUBAD,"TQ.BIDAR DIST.BIDAR",282690,BIDAR,BIDAR,KARNATAKA
"PRAGATHI KRISHNA GRAMIN BANK",PKGB0011119,585697574,HUNASAGI,"TQ.SHORAPUR DIST.YADGIR",200087,SHORAPUR,YADGIR,KARNATAKA
"PRAGATHI KRISHNA GRAMIN BANK",PKGB0011118,585697575,KAMALAPUR,"TQ.GULBARGA DIST.GULBARGA",221548,GULBARGA,GULBARGA,KARNATAKA
"PRAGATHI KRISHNA GRAMIN BANK",PKGB0011117,585697572,"SHAHA BAZAR","TQ.GULBARGA DIST.GULBARGA",274305,GULBARGA,GULBARGA,KARNATAKA
"PRAGATHI KRISHNA GRAMIN BANK",PKGB0011116,585697004,"NEHRU GUNJ","TQ.GULBARGA DIST.GULBARGA",268263,GULBARGA,GULBARGA,KARNATAKA
"PRAGATHI KRISHNA GRAMIN BANK",PKGB0011115,585697005,"KARUNESHWAR NAGAR","TQ.GULBARGA DIST.GULBARGA",252300,GULBARGA,GULBARGA,KARNATAKA
"PRAGATHI KRISHNA GRAMIN BANK",PKGB0011114,585697007,OMNAGAR,"TQ.GULBARGA DIST.GULBARGA",245220,GULBARGA,GULBARGA,KARNATAKA
"PRAGATHI KRISHNA GRAMIN BANK",PKGB0011112,585697569,"DESAI KALLUR","TQ.AFZALPUR DIST.GULBARGA",268568,AFZALPUR,GULBARGA,KARNATAKA
"PRAGATHI KRISHNA GRAMIN BANK",PKGB0011110,585697570,HAGARGUNDAGI,"TQ.GULBARGA DIST.GULBARGA",213259,GULBARGA,GULBARGA,KARNATAKA
"PRAGATHI KRISHNA GRAMIN BANK",PKGB0011109,585697633,JAMAGI,"TQ.AURAD DIST.BIDAR",283370,AURAD,BIDAR,KARNATAKA
"PRAGATHI KRISHNA GRAMIN BANK",PKGB0011108,585697635,HARKUD,"TQ.BASAVAKALYAN DIST.BIDAR",254490,BASAVAKALYAN,BIDAR,KARNATAKA
"PRAGATHI KRISHNA GRAMIN BANK",PKGB0011107,585697634,ALGUD,"TQ.BASAVAKALYAN DIST.BIDAR",257507,BASAVAKALYAN,BIDAR,KARNATAKA
"PRAGATHI KRISHNA GRAMIN BANK",PKGB0011105,585697571,M.B.NAGAR,"TQ.GULBARGA DIST.GULBARGA",224983,GULBARGA,GULBARGA,KARNATAKA
"PRAGATHI KRISHNA GRAMIN BANK",PKGB0011103,585697566,CHINCHANSUR,"TQ.ALAND DIST.GULBARGA",231051,ALAND,GULBARGA,KARNATAKA
"PRAGATHI KRISHNA GRAMIN BANK",PKGB0011102,585697565,MALAGATTI,"TQ.SHORAPUR DIST.YADGIR",329784,SHORAPUR,YADGIR,KARNATAKA
"PRAGATHI KRISHNA GRAMIN BANK",PKGB0011101,585697564,BALABATTI,"TQ.JEWARGI DIST.GULBARGA",280409,JEWARGI,GULBARGA,KARNATAKA
"PRAGATHI KRISHNA GRAMIN BANK",PKGB0011099,585697202,YADGIR,"TQ.YADGIR DIST.YADGIR",252987,YADGIR,YADGIR,KARNATAKA
"PRAGATHI KRISHNA GRAMIN BANK",PKGB0011098,585697626,MURKI,"TQ.AURAD DIST.BIDAR",286605,AURAD,BIDAR,KARNATAKA
"PRAGATHI KRISHNA GRAMIN BANK",PKGB0011097,585697625,HOKRANA,"TQ.AURAD DIST.BIDAR",284555,AURAD,BIDAR,KARNATAKA
"PRAGATHI KRISHNA GRAMIN BANK",PKGB0011096,585697602,"BASAVA KALYAN","TQ.BASAVAKALYAN DIST.BIDAR",250442,BASAVAKALYAN,BIDAR,KARNATAKA
"PRAGATHI KRISHNA GRAMIN BANK",PKGB0011095,585697648,CHANGLAIR,"TQ.HUMNABAD DIST.BIDAR",279069,HUMNABAD,BIDAR,KARNATAKA
"PRAGATHI KRISHNA GRAMIN BANK",PKGB0011094,NA,SHORAPUR,"TQ.SHORAPUR DIST.YADGIR",256069,SHORAPUR,YADGIR,KARNATAKA
"PRAGATHI KRISHNA GRAMIN BANK",PKGB0011093,585697567,MADYAL,"TQ.ALAND DIST.GULBARGA",217980,ALAND,GULBARGA,KARNATAKA
"PRAGATHI KRISHNA GRAMIN BANK",PKGB0011092,585697631,HUMNABAD,"TQ.HUMNABAD DIST.BIDAR",270483,HUMNABAD,BIDAR,KARNATAKA
"PRAGATHI KRISHNA GRAMIN BANK",PKGB0011091,585697627,SIDDESHWAR,"TQ.BHALKI DIST.BIDAR",263128,BHALKI,BIDAR,KARNATAKA
"PRAGATHI KRISHNA GRAMIN BANK",PKGB0011090,585697628,UJALAM,"TQ.BASAVAKALYAN DIST.BIDAR",239353,BASAVAKALYAN,BIDAR,KARNATAKA
"PRAGATHI KRISHNA GRAMIN BANK",PKGB0011089,585697623,BELURA,"TQ.BASAVAKALYAN DIST.BIDAR",259431,BASAVAKALYAN,BIDAR,KARNATAKA
"PRAGATHI KRISHNA GRAMIN BANK",PKGB0011087,585697102,BIDAR,"TQ.BIDAR DIST.BIDAR",228578,BIDAR,BIDAR,KARNATAKA
"PRAGATHI KRISHNA GRAMIN BANK",PKGB0011086,585697629,BHALKI,"TQ.BHALKI DIST.BIDAR",262510,BHALKI,BIDAR,KARNATAKA
"PRAGATHI KRISHNA GRAMIN BANK",PKGB0011084,585697630,ALANDI,"TQ.BHALKI DIST.BIDAR",265653,BHALKI,BIDAR,KARNATAKA
"PRAGATHI KRISHNA GRAMIN BANK",PKGB0011083,585697624,SONALA,"TQ.AURAD DIST.BIDAR",287377,AURAD,BIDAR,KARNATAKA
"PRAGATHI KRISHNA GRAMIN BANK",PKGB0011082,585697563,"STN GANAGAPUR","TQ.AFZALPUR DIST.GULBARGA",267236,AFZALPUR,GULBARGA,KARNATAKA
"PRAGATHI KRISHNA GRAMIN BANK",PKGB0011081,585697622,MUCHALAM,"TQ.BASAVAKALYAN DIST.BIDAR",256713,BASAVAKALYAN,BIDAR,KARNATAKA
"PRAGATHI KRISHNA GRAMIN BANK",PKGB0011080,585697562,ALAND,"TQ.ALAND DIST.GULBARGA",202530,ALAND,GULBARGA,KARNATAKA
"PRAGATHI KRISHNA GRAMIN BANK",PKGB0011078,585697620,MEHKAR,"TQ.BHALKI DIST.BIDAR",269367,BHALKI,BIDAR,KARNATAKA
"PRAGATHI KRISHNA GRAMIN BANK",PKGB0011077,585697621,KAMTHANA,"TQ.BIDAR DIST.BIDAR",245224,BIDAR,BIDAR,KARNATAKA
"PRAGATHI KRISHNA GRAMIN BANK",PKGB0011076,585697568,PUTPAK,"TQ.YADGIR DIST.YADGIR",290720,YADGIR,YADGIR,KARNATAKA
"PRAGATHI KRISHNA GRAMIN BANK",PKGB0011074,585697632,SAIGOAN,"TQ.BHALKI DIST.BIDAR",267045,BHALKI,BIDAR,KARNATAKA
"PRAGATHI KRISHNA GRAMIN BANK",PKGB0011073,585697557,"LAD MUGALI","TQ.ALAND DIST.GULBARGA",233075,ALAND,GULBARGA,KARNATAKA
"PRAGATHI KRISHNA GRAMIN BANK",PKGB0011071,585697561,WANADURGA,"TQ.SHAHAPUR DIST.YADGIR",221073,SHAHAPUR,YADGIR,KARNATAKA
"PRAGATHI KRISHNA GRAMIN BANK",PKGB0011070,585697617,BYALAHALLI,"TQ.BHALKI DIST.BIDAR",210082,BHALKI,BIDAR,KARNATAKA
"PRAGATHI KRISHNA GRAMIN BANK",PKGB0011069,585697610,BEMALKHED,"TQ.HUMNABAD DIST.BIDAR",276121,HUMNABAD,BIDAR,KARNATAKA
"PRAGATHI KRISHNA GRAMIN BANK",PKGB0011067,585697615,SASTAPUR,"TQ.BASAVAKALYAN DIST.BIDAR",259074,BASAVAKALYAN,BIDAR,KARNATAKA
"PRAGATHI KRISHNA GRAMIN BANK",PKGB0011066,585697616,MORKHANDI,"TQ.BASAVAKALYAN DIST.BIDAR",254746,BASAVAKALYAN,BIDAR,KARNATAKA
"PRAGATHI KRISHNA GRAMIN BANK",PKGB0011064,585697619,"KURUB KHELGI","TQ.BHALKI DIST.BIDAR",267735,BHALKI,BIDAR,KARNATAKA
"PRAGATHI KRISHNA GRAMIN BANK",PKGB0011063,585697618,BHATAMBRA,"TQ.BHALKI DIST.BIDAR",268130,BHALKI,BIDAR,KARNATAKA
"PRAGATHI KRISHNA GRAMIN BANK",PKGB0011062,585697611,"GHAT BORAL","TQ.HUMNABAD DIST.BIDAR",275951,HUMNABAD,BIDAR,KARNATAKA
"PRAGATHI KRISHNA GRAMIN BANK",PKGB0011061,585697559,KODLI,"TQ.CHINCHOLI DIST.GULBARGA",292093,CHINCHOLI,GULBARGA,KARNATAKA
"PRAGATHI KRISHNA GRAMIN BANK",PKGB0011060,585697556,BANDARWAD,"TQ.AFZALPUR DIST.GULBARGA",261116,AFZALPUR,GULBARGA,KARNATAKA
"PRAGATHI KRISHNA GRAMIN BANK",PKGB0011059,585697558,CHINCHOLI,"TQ.CHINCHOLI DIST.GULBARGA",273104,CHINCHOLI,GULBARGA,KARNATAKA
"PRAGATHI KRISHNA GRAMIN BANK",PKGB0011058,585697555,UDACHAN,"TQ.AFZALPUR DIST.GULBARGA",231513,AFZALPUR,GULBARGA,KARNATAKA
"PRAGATHI KRISHNA GRAMIN BANK",PKGB0011057,585697560,DONGARGAON,"TQ.GULBARGA DIST.GULBARGA",224059,GULBARGA,GULBARGA,KARNATAKA
"PRAGATHI KRISHNA GRAMIN BANK",PKGB0011056,585697613,TALAMADAGI,"TQ.HUMNABAD DIST.BIDAR",279904,HUMNABAD,BIDAR,KARNATAKA
"PRAGATHI KRISHNA GRAMIN BANK",PKGB0011055,585697612,HALLIKHED,"TQ.HUMNABAD DIST.BIDAR",278677,HUMNABAD,BIDAR,KARNATAKA
"PRAGATHI KRISHNA GRAMIN BANK",PKGB0011054,585697600,JANAWADA,"TQ.BIDAR DIST.BIDAR",244180,BIDAR,BIDAR,KARNATAKA
"PRAGATHI KRISHNA GRAMIN BANK",PKGB0011053,585697614,AURAD,"TQ.AURAD DIST.BIDAR",280029,AURAD,BIDAR,KARNATAKA
"PRAGATHI KRISHNA GRAMIN BANK",PKGB0011052,585697554,ALHALLI,"TQ.CHITAPUR,DIST GULBARGA",222874,CHITAPUR,GULBARGA,KARNATAKA
"PRAGATHI KRISHNA GRAMIN BANK",PKGB0011051,585697546,"PETH AMMAPUR","TQ.SHORAPUR DIST.YADGIR",273002,SHORAPUR,YADGIR,KARNATAKA
"PRAGATHI KRISHNA GRAMIN BANK",PKGB0011050,585697543,KHAJURI,"TQ.ALAND DIST.GULBARGA",227449,ALAND,GULBARGA,KARNATAKA
"PRAGATHI KRISHNA GRAMIN BANK",PKGB0011049,585697553,ANKALAGA,"TQ.JEWARGI DIST.GULBARGA",222041,JEWARGI,GULBARGA,KARNATAKA
"PRAGATHI KRISHNA GRAMIN BANK",PKGB0011048,585697552,MALLI,"TQ.JEWARGI DIST.GULBARGA",220027,JEWARGI,GULBARGA,KARNATAKA
"PRAGATHI KRISHNA GRAMIN BANK",PKGB0011047,585697551,BENDEBEMBLI,"TQ.SHAHAPUR DIST.YADGIR",598481,SHAHAPUR,YADGIR,KARNATAKA
"PRAGATHI KRISHNA GRAMIN BANK",PKGB0011046,585697544,YANAGUNDI,"TQ.SEDAM DIST.GULBARGA",280055,SEDAM,GULBARGA,KARNATAKA
"PRAGATHI KRISHNA GRAMIN BANK",PKGB0011045,585697550,YARGOL,"TQ.YADGIR DIST.YADGIR",215566,YADGIR,YADGIR,KARNATAKA
"PRAGATHI KRISHNA GRAMIN BANK",PKGB0011044,585697541,SHAHAPUR,"TQ.SHAHAPUR DIST.YADGIR",243209,SHAHAPUR,YADGIR,KARNATAKA
"PRAGATHI KRISHNA GRAMIN BANK",PKGB0011043,585697539,GAJARKOT,"TQ.YADGIR DIST.YADGIR",225605,YADGIR,YADGIR,KARNATAKA
"PRAGATHI KRISHNA GRAMIN BANK",PKGB0011042,585697547,DORANAHALLI,"TQ.SHAHAPUR DIST.YADGIR",212753,SHAHAPUR,YADGIR,KARNATAKA
"PRAGATHI KRISHNA GRAMIN BANK",PKGB0011041,585697545,ARALGUNDIGI,"TQ.JEWARGI DIST.GULBARGA",283181,JEWARGI,GULBARGA,KARNATAKA
"PRAGATHI KRISHNA GRAMIN BANK",PKGB0011040,585697549,SULEPETH,"TQ.CHINCHOLI DIST.GULBARGA",285336,CHINCHOLI,GULBARGA,KARNATAKA
"PRAGATHI KRISHNA GRAMIN BANK",PKGB0011039,585697548,SARSAMBA,"TQ.ALAND DIST.GULBARGA",238642,ALAND,GULBARGA,KARNATAKA
"PRAGATHI KRISHNA GRAMIN BANK",PKGB0011038,585697542,NAGANUR,"TQ.SHORAPUR DIST.YADGIR",271073,SHORAPUR,YADGIR,KARNATAKA
"PRAGATHI KRISHNA GRAMIN BANK",PKGB0011037,585697540,RAJANKOLLUR,"TQ.SHORAPUR DIST.YADGIR",290138,SHORAPUR,YADGIR,KARNATAKA
"PRAGATHI KRISHNA GRAMIN BANK",PKGB0011036,585697526,VAJJAL,"TQ.SHORAPUR DIST.YADGIR",290138,SHORAPUR,YADGIR,KARNATAKA
"PRAGATHI KRISHNA GRAMIN BANK",PKGB0011035,585697537,IJERI,"TQ.JEWARGI DIST.GULBARGA",223974,JEWARGI,GULBARGA,KARNATAKA
"PRAGATHI KRISHNA GRAMIN BANK",PKGB0011034,585697535,KODLA,"TQ.SEDAM DIST.GULBARGA",283814,SEDAM,GULBARGA,KARNATAKA
"PRAGATHI KRISHNA GRAMIN BANK",PKGB0011032,585697532,SONTH,"TQ.GULBARGA DIST.GULBARGA",225808,GULBARGA,GULBARGA,KARNATAKA
"PRAGATHI KRISHNA GRAMIN BANK",PKGB0011031,585697538,NARONA,"TQ.ALAND DIST.GULBARGA",228404,ALAND,GULBARGA,KARNATAKA
"PRAGATHI KRISHNA GRAMIN BANK",PKGB0011030,585697536,KONCHAVARAM,"TQ.CHINCHOLI DIST.GULBARGA",249291,CHINCHOLI,GULBARGA,KARNATAKA
"PRAGATHI KRISHNA GRAMIN BANK",PKGB0011029,585697531,CHITTAPUR,"TQ.CHITAPUR,DIST GULBARGA",236234,CHITAPUR,GULBARGA,KARNATAKA
"PRAGATHI KRISHNA GRAMIN BANK",PKGB0011027,585697402,SEDAM,"TQ.SEDAM DIST.GULBARGA",276149,SEDAM,GULBARGA,KARNATAKA
"PRAGATHI KRISHNA GRAMIN BANK",PKGB0011026,585697524,"GOBBUR B","TQ.AFZALPUR DIST.GULBARGA",265018,AFZALPUR,GULBARGA,KARNATAKA
"PRAGATHI KRISHNA GRAMIN BANK",PKGB0011025,585697523,KODEKAL,"TQ.SHORAPUR DIST.YADGIR",222867,SHORAPUR,YADGIR,KARNATAKA
"PRAGATHI KRISHNA GRAMIN BANK",PKGB0011024,585697522,KADECHUR,"TQ.YADGIR DIST.YADGIR",281055,YADGIR,YADGIR,KARNATAKA
"PRAGATHI KRISHNA GRAMIN BANK",PKGB0011023,585697533,CHIMMANCHOD,"TQ.CHINCHOLI DIST.GULBARGA",291102,CHINCHOLI,GULBARGA,KARNATAKA
"PRAGATHI KRISHNA GRAMIN BANK",PKGB0011022,585697529,JEWARGI,"TQ.JEWARGI DIST.GULBARGA",236079,JEWARGI,GULBARGA,KARNATAKA
"PRAGATHI KRISHNA GRAMIN BANK",PKGB0011021,585697519,ATHANUR,"TQ.AFZALPUR DIST.GULBARGA",260071,AFZALPUR,GULBARGA,KARNATAKA
"PRAGATHI KRISHNA GRAMIN BANK",PKGB0011020,585697530,AFZALPUR,"TQ.AFZALPUR DIST.GULBARGA",283051,AFZALPUR,GULBARGA,KARNATAKA
"PRAGATHI KRISHNA GRAMIN BANK",PKGB0011019,585697534,KOLLUR,"TQ.CHITAPUR,DIST GULBARGA",226581,CHITAPUR,GULBARGA,KARNATAKA
"PRAGATHI KRISHNA GRAMIN BANK",PKGB0011018,585697528,HEBBAL,"TQ.CHITAPUR,DIST GULBARGA",225180,CHITAPUR,GULBARGA,KARNATAKA
"PRAGATHI KRISHNA GRAMIN BANK",PKGB0011017,585697527,TENGLI,"TQ.CHITAPUR,DIST GULBARGA",220565,CHITAPUR,GULBARGA,KARNATAKA
"PRAGATHI KRISHNA GRAMIN BANK",PKGB0011016,585697520,DANDOTI,"TQ.CHITAPUR,DIST GULBARGA",224071,CHITAPUR,GULBARGA,KARNATAKA
"PRAGATHI KRISHNA GRAMIN BANK",PKGB0011015,585697514,BHUSANOOR,"TQ.ALAND DIST.GULBARGA",210140,ALAND,GULBARGA,KARNATAKA
"PRAGATHI KRISHNA GRAMIN BANK",PKGB0011014,585697525,HARSOOR,"TQ.GULBARGA DIST.GULBARGA",222754,GULBARGA,GULBARGA,KARNATAKA
"PRAGATHI KRISHNA GRAMIN BANK",PKGB0011013,585697521,KOLKUNDA,"TQ.SEDAM DIST.GULBARGA",222064,SEDAM,GULBARGA,KARNATAKA
"PRAGATHI KRISHNA GRAMIN BANK",PKGB0011012,585697594,RATKAL,"TQ.CHINCHOLI DIST.GULBARGA",297818,CHINCHOLI,GULBARGA,KARNATAKA
"PRAGATHI KRISHNA GRAMIN BANK",PKGB0011011,585697517,KONKAL,"TQ.YADGIR DIST.YADGIR",213737,YADGIR,YADGIR,KARNATAKA
"PRAGATHI KRISHNA GRAMIN BANK",PKGB0011010,585697518,WADAGERA,"TQ.SHAHAPUR DIST.YADGIR",219127,SHAHAPUR,YADGIR,KARNATAKA
"PRAGATHI KRISHNA GRAMIN BANK",PKGB0011009,585697596,NIDAGUNDA,"TQ.CHINCHOLI DIST.GULBARGA",296087,CHINCHOLI,GULBARGA,KARNATAKA
"PRAGATHI KRISHNA GRAMIN BANK",PKGB0011008,585697516,SALAGERA.V.K.,"TQ.ALAND DIST.GULBARGA",222182,ALAND,GULBARGA,KARNATAKA
"PRAGATHI KRISHNA GRAMIN BANK",PKGB0011007,585697512,TADAKAL,"TQ.ALAND DIST.GULBARGA",229160,ALAND,GULBARGA,KARNATAKA
"PRAGATHI KRISHNA GRAMIN BANK",PKGB0011006,585697509,DEVAPUR,"TQ.SHORAPUR DIST.YADGIR",291025,SHORAPUR,YADGIR,KARNATAKA
"PRAGATHI KRISHNA GRAMIN BANK",PKGB0011005,585697513,NELOGI,"TQ.JEWARGI DIST.GULBARGA",225010,JEWARGI,GULBARGA,KARNATAKA
"PRAGATHI KRISHNA GRAMIN BANK",PKGB0011004,585697510,ANDOLA,"TQ.JEWARGI DIST.GULBARGA",221691,JEWARGI,GULBARGA,KARNATAKA
"PRAGATHI KRISHNA GRAMIN BANK",PKGB0011003,585697515,MUDHOL,"TQ.SEDAM DIST.GULBARGA",220860,SEDAM,GULBARGA,KARNATAKA
"PRAGATHI KRISHNA GRAMIN BANK",PKGB0011002,585697511,"REVOOR B","TQ.AFZALPUR DIST.GULBARGA",269439,AFZALPUR,GULBARGA,KARNATAKA
"PRAGATHI KRISHNA GRAMIN BANK",PKGB0011001,585697002,"SUPER MARKET, GULBARGA","SUPER MARKET,GULBARGA-1",279958,GULBARGA,GULBARGA,KARNATAKA
"PRAGATHI KRISHNA GRAMIN BANK",PKGB0010999,NA,GODEHAL,"PARAMADEVANAHALLI POST   GODEHAL",236444,BELLARY,BELLARY,KARNATAKA
"PRAGATHI KRISHNA GRAMIN BANK",PKGB0010998,NA,CHANAHAL,"CHANAHAL VILL & POST,BALLARY TQ,BALLARI DIST",236406,CHANAHAL,BALLARI,KARNATAKA
"PRAGATHI KRISHNA GRAMIN BANK",PKGB0010997,WAITING,"KAPPAGAL ROAD","PAWAN NILAYA 1ST FLOOR ,4TH CROSS 18TH WARD,NEAR ANNAPURNA BHANDAR,KAPPAGAL ROAD,BALLRI DT,PIN - 583103",254008,BELLARY,BELLARY,KARNATAKA
"PRAGATHI KRISHNA GRAMIN BANK",PKGB0010996,WAITING,GUNDERI,"ESHWARA KALYANA MANTAPA BUILDING",234315,HOLALKERE,CHITRADURGA,KARNATAKA
"PRAGATHI KRISHNA GRAMIN BANK",PKGB0010995,NA,SAGAR-GANDHINAGAR,"SAGAR-GANDHINAGAR,SHIMOGA",279904,SHIMOGA,SHIMOGA,KARNATAKA
"PRAGATHI KRISHNA GRAMIN BANK",PKGB0010994,NA,PARANDAHALLY,"PARANDAHALLY,KOLAR",278677,KOLAR,KOLAR,KARNATAKA
"PRAGATHI KRISHNA GRAMIN BANK",PKGB0010993,WAITING,CHANDANKERA,"CHANDANKERA,GULBARGA",280029,GULBARGA,GULBARGA,KARNATAKA
"PRAGATHI KRISHNA GRAMIN BANK",PKGB0010992,WAITING,SHINGRIHALLI,"SHINGRIHALLI,DAVANGERE",279904,DAVANAGERE,DAVANGERE,KARNATAKA
"PRAGATHI KRISHNA GRAMIN BANK",PKGB0010991,WAITING,HARLAPURA,"HARLAPURA,DAVANGERE",279904,DAVANAGERE,DAVANGERE,KARNATAKA
"PRAGATHI KRISHNA GRAMIN BANK",PKGB0010990,WAITING,SAVALANGA,"SAVALANGA,DAVANGERE",278677,DAVANAGERE,DAVANGERE,KARNATAKA
"PRAGATHI KRISHNA GRAMIN BANK",PKGB0010989,NA,KUNTACHIKKANAHALLY,"KUNTACHIKKANAHALLY,CHICKABALLAPURA",244180,CHIKKABALLAPURA,CHIKKABALLAPURA,KARNATAKA
"PRAGATHI KRISHNA GRAMIN BANK",PKGB0010988,WAITING,MANNAKELI,"MANNAKELI,BIDAR",244180,BIDAR,BIDAR,KARNATAKA
"PRAGATHI KRISHNA GRAMIN BANK",PKGB0010987,WAITING,HOLALU,"HOLALU,BELLARY",280029,BELLARY,BELLARY,KARNATAKA
"PRAGATHI KRISHNA GRAMIN BANK",PKGB0010986,WAITING,"BIDAR MAILOR ROAD","BIDAR MAILOR ROAD,BIDAR",244180,BIDAR,BIDAR,KARNATAKA
"PRAGATHI KRISHNA GRAMIN BANK",PKGB0010985,NA,BOMMAGATTA,"BOMMAGATTA,BELLARY",280029,BELLARY,BELLARY,KARNATAKA
"PRAGATHI KRISHNA GRAMIN BANK",PKGB0010984,NA,"HONDADA ROAD DAVANAGERE","NO 867 -1 WARD NO 22 RAJAVEERA MADAKARI NAYAK,CIRCLE HONDADA ROAD DAVANAGERE",258801,DAVANGERE,DAVANGERE,KARNATAKA
"PRAGATHI KRISHNA GRAMIN BANK",PKGB0010983,NA,"JULAY NAGAR GANGAVATHI","RANGANATHA COMPLEX, 1ST FLOOR,WARD NO 13,JULAY NAGAR KAMPLI ROAD GANGAVATHI",276125,GANGAVATHI,KOPPAL,KARNATAKA
"PRAGATHI KRISHNA GRAMIN BANK",PKGB0010982,577697207,"HUTHA COLONY BHADRAVATHI","THE MANAGER,PRAGATHI KRISHNA GRAMIN BANK, HUTTA COLONY, MAIN ROAD, BHADRAVATHI TOWN, BHADRAVATHI TQ, SHIMOGA DIST",262655,BHADRAVATHI,SHIMOGA,KARNATAKA
"PRAGATHI KRISHNA GRAMIN BANK",PKGB0010981,NA,"KUSANOOR ROAD GULBARGA","S NO 84 PKGB BUILDING OPP ZP ENGINEER DIVISIO,OFFICE KUSANOOR ROAD GULBARGA",224055,GULBARGA,GULBARGA,KARNATAKA
"PRAGATHI KRISHNA GRAMIN BANK",PKGB0010980,NA,"VIDYANAGAR DAVANAAGERE","DOOR NO 1261 27 1,VIDYANAGARA 2 ND STOP OPPOSITE TO PARK DAVANAGERE",258801,DAVANGERE,DAVANGERE,KARNATAKA
"PRAGATHI KRISHNA GRAMIN BANK",PKGB0010979,584697007,"IDSMT LAYOUT RAICHUR","IDSMT LAYOUT",201201,RAICHUR,RAICHUR,KARNATAKA
"PRAGATHI KRISHNA GRAMIN BANK",PKGB0010978,577697507,"DODDAPETE CHITRADURGA","K T NO 55 1532 947,DODDAPETE CHITRADURGA,577501",224445,CHITRADURGA,CHITRADURGA,KARNATAKA
"PRAGATHI KRISHNA GRAMIN BANK",PKGB0010977,NA,"ALLIPURA BELLARY","THE MANAGER, PRAGATHI KRISHNA GRAMIN BANK,ALLIPURA BRANCH,NEAR BITM COLLEGE,BELLARY583103",249389,BELLARY,BELLARY,KARNATAKA
"PRAGATHI KRISHNA GRAMIN BANK",PKGB0010976,NA,"APMC YARD BELLARY","APMC OFFICE OLD BUILDING BANGALORE ROAD,APMC YARD BELLARY",249389,BELLARY,BELLARY,KARNATAKA
"PRAGATHI KRISHNA GRAMIN BANK",PKGB0010975,583697622,THAMBRAHALLI,"THE MANAGER, PRAGATHI KRISHNA GRAMIN BANK,TAMBRAHALLI,HAGARIBOMMANAHALLI TQ, BELLARY DIST",249389,HAGARIBOMMANAHALLI,BELLARY,KARNATAKA
"PRAGATHI KRISHNA GRAMIN BANK",PKGB0010974,585697651,┬áKITTA,"BASAVAKALYAN TQ-BIDARDIST",254386,BASAVAKALYAN,BIDAR,KARNATAKA
"PRAGATHI KRISHNA GRAMIN BANK",PKGB0010973,585697653,┬áMANHALLI,"BIDAR TQ - BIDAR DIST",246046,BIDAR,BIDAR,KARNATAKA
"PRAGATHI KRISHNA GRAMIN BANK",PKGB0010972,585697652,┬áSANTHPUR,"AURAD TQ - BIDAR DIST",287644,AURAD,BIDAR,KARNATAKA
"PRAGATHI KRISHNA GRAMIN BANK",PKGB0010971,585697649,┬áMOTAKAPALLI,"SEDAM TQ - GULBARGA DIST",224055,SEDAM,GULBARGA,KARNATAKA
"PRAGATHI KRISHNA GRAMIN BANK",PKGB0010970,585697650,"┬áKALLUR ROAD","CHINCHOLI TQ ,GULBARGA DIST",200284,CHINCHOLI,GULBARGA,KARNATAKA
"PRAGATHI KRISHNA GRAMIN BANK",PKGB0010969,577697685,THAVANANDI,"THE MANAGER, PRAGATHI KRISHNA GRAMIN BANK,TAVANANDI BRANCH, SORAB TQ, SHIMOGA DIST",269672,SORABA,SHIMOGA,KARNATAKA
"PRAGATHI KRISHNA GRAMIN BANK",PKGB0010968,577697684,"MADASURU LINGADAHALLI","THE MANAGER,PRAGATHI KRISHNA GRAMIN BANK, M. LINGADAHALLI BRANCH, SAGAR TQ, SHIMOGA DIST",230000,SAGARA,SHIMOGA,KARNATAKA
"PRAGATHI KRISHNA GRAMIN BANK",PKGB0010967,577697683,GAJANUR,"SHIMOGA TQ & DIST",279103,SHIMOGA,SHIMOGA,KARNATAKA
"PRAGATHI KRISHNA GRAMIN BANK",PKGB0010966,584697204,"PWD CAMP","THE MANAGER,PRAGATHI KRISHNA GRAMIN BANK,SINDANUR PWD CAMP BRANCH,SINDANUR TQ,RAICHUR DIST",201201,SINDHANUR,RAICHUR,KARNATAKA
"PRAGATHI KRISHNA GRAMIN BANK",PKGB0010965,584697554,"AMARESHWAR CAMP","THE MANAGER,PRAGATHI KRISHNA GRAMIN BANK,AMARESHWAR CAMP BRANCH,MANVI TQ,RAICHUR DIST584213",201201,MANVI,RAICHUR,KARNATAKA
"PRAGATHI KRISHNA GRAMIN BANK",PKGB0010964,584697553,JAWALAGERE,"THE MANAGER,PRAGATHI KRISHNA GRAMIN BANK,JAWALAGERA BRANCH,SINDHABUR TQ,RAICHUR DIST",264402,SINDHANUR,RAICHUR,KARNATAKA
"PRAGATHI KRISHNA GRAMIN BANK",PKGB0010963,584697552,KYADIGERE,"THE MANAGER,PRAGATHI KRISHNA GRAMIN BANK,KYADIGERE BRANCH,DEODURGA TQ,RAICHUR DIST584129",202199,DEODURGA,RAICHUR,KARNATAKA
"PRAGATHI KRISHNA GRAMIN BANK",PKGB0010962,583697621,SRIRAMNAGAR,"THE MANAGER,PRAGATHI KRISHNA GRAMIN BANK,SRIRAMANAGARA BRANCH, GANGAVATHI TQ,KOPPAL DIST 583282",276125,GANGAVATHI,KOPPAL,KARNATAKA
"PRAGATHI KRISHNA GRAMIN BANK",PKGB0010961,583697620,KANAKAGIRI,"THE MANAGER,PRAGATHI KRISHNA GRAMIN BANK, KANAKAGIRI BRANCH,GANGAVATHI TQ,KOPPAL DIST",240177,GANGAVATHI,KOPPAL,KARNATAKA
"PRAGATHI KRISHNA GRAMIN BANK",PKGB0010960,563697552,THORNAHALLY,"THE MANAGER, PRAGATHI KRISHNA GRAMIN BANK, THORANAHALLI BRANCH, MALUR TQ, KOLAR DIST 563 130",239066,MALUR,KOLAR,KARNATAKA
"PRAGATHI KRISHNA GRAMIN BANK",PKGB0010959,563697551,SHAPUR,"THE MANAGER, PRAGATHI KRISHNA GRAMIN BANK, SHAPUR, KOLAR TQ, KOLAR DIST563103",231422,KOLAR,KOLAR,KARNATAKA
"PRAGATHI KRISHNA GRAMIN BANK",PKGB0010958,577697682,NALLUR,"THE MANAGER,PRAGATHI KRISHNA GRAMIN BANK,NALLUR BRANCH, CHANNAGIRI TQ,DAVANAGERE DIST",258801,CHANNAGIRI,DAVANGERE,KARNATAKA
"PRAGATHI KRISHNA GRAMIN BANK",PKGB0010957,577697681,KONDLAHALLI,"THE MANAGER,PRAGATHI KRISHNA GRAMIN BANK,KONDLAHALLIBRANCH,MOLAKALMUR TQ,CHITRADURGA DIST 577529",268912,MOLAKALMURU,CHITRADURGA,KARNATAKA
"PRAGATHI KRISHNA GRAMIN BANK",PKGB0010956,577697680,TYAGARAJNAGAR,"THE MANAGER,PRAGATHI KRISHNA GRAMIN BANK,TYAGARAJ NAGAR BRANCH,CHALLAKERE TQ,CHITRADURGA DIST",223033,CHALLAKERE,CHITRADURGA,KARNATAKA
"PRAGATHI KRISHNA GRAMIN BANK",PKGB0010955,577697679,BELAGURU,"THE MANAGER,PRAGATHI KRISHNA GRAMIN BANK,BELAGURU BRANCH,HOSADURGA TQ,CHITRADURGA DIST",283121,HOSADURGA,CHITRADURGA,KARNATAKA
"PRAGATHI KRISHNA GRAMIN BANK",PKGB0010954,583697619,TEKKALKOTE,"THE MANAGER, PRAGATHI KRISHNA GRAMIN BANK,TEKKALUKOTE BRANCH, SIRUGUPPA TQ,BELLARY DIST",248006,SIRUGUPPA,BELLARY,KARNATAKA
"PRAGATHI KRISHNA GRAMIN BANK",PKGB0010953,583697618,KAMALAPURA,"THE MANAGER, PRAGATHI KRISHNA GRAMIN BANK,KAMALAPURA BRANCH,HOSPET TQ,BELLARY DIST",241277,HOSPET,BELLARY,KARNATAKA
"PRAGATHI KRISHNA GRAMIN BANK",PKGB0010952,577697676,BIJJAVALI,"THE MANAGER, PRAGATHI KRISHNA GRAMIN BANK, BIJJAVALLI BRANCH, THIRTHAHALLI TALUK, SHIVAMOGGA DISTRICT,PIN - 577 232,",235044,THIRTHAHALLI,SHIMOGA,KARNATAKA
"PRAGATHI KRISHNA GRAMIN BANK",PKGB0010951,577697677,AYANUR,"GRAM PANCHAYATH BUILDING,APMC YARD,AT POST AYANURU SHIMOGA TQ DIST AYA",279103,SHIMOGA,SHIMOGA,KARNATAKA
"PRAGATHI KRISHNA GRAMIN BANK",PKGB0010950,577697675,BARANDUR,"THE MANAGER, PRAGATHI KRISHNA GRAMIN BANK, BARANDUR BRANCH, BHDRAVATHI TALUK, SHIVAMOGGA DISTRICT, PIN - 577 245,",240088,BHADRAVATHI,SHIMOGA,KARNATAKA
"PRAGATHI KRISHNA GRAMIN BANK",PKGB0010949,584697549,"PAGADADINNI CAMP","THE MANAGER,PRAGATHI KRISHNA GRAMIN BANK,PAGADADINNI CAMP BRANCH,SINDHANUR TALUK,RAICHUR DISTRICT,PIN - 584 128",254111,SINDHANUR,RAICHUR,KARNATAKA
"PRAGATHI KRISHNA GRAMIN BANK",PKGB0010948,584697555,GANADHAL,"THE MANAGER,PRAGATHI KRISHNA GRAMIN BANK,GANADHAL R BRANCH,RAICHUR TALUK,RAICHUR DISTRICT,PIN - 584 140",202199,RAICHUR,RAICHUR,KARNATAKA
"PRAGATHI KRISHNA GRAMIN BANK",PKGB0010947,563697549,DODDAGAJANUR,"THE MANAGER, PRAGATHI KRISHNA GRAMIN BANK, DODDAGANJUR BRANCH, CHINTHAMANI TALUK, CHIKKABALLAPURA DISTRICT, PIN - 563 125",238066,CHINTAMANI,CHIKKABALLAPURA,KARNATAKA
"PRAGATHI KRISHNA GRAMIN BANK",PKGB0010946,563697548,SANTHEKALLAHALLI,"THE MANAGER, PRAGATHI KRISHNA GRAMIN BANK, SANTHEKALLAHALLI BRANCH, CHINTHAMANI TALUK, CHIKKABALLAPURA DIST, PIN - 563 128",246633,CHINTAMANI,CHIKKABALLAPURA,KARNATAKA
"PRAGATHI KRISHNA GRAMIN BANK",PKGB0010945,577697554,SURAHAONNE,"THE MANAGER,PRAGATHI KRISHNA GRAMIN BANK,SURAHONNE BRANCH, HONNALI TALUK, DAVANAGERE DISTRICT, PIN - 577 223,",265444,HONNALI,DAVANGERE,KARNATAKA
"PRAGATHI KRISHNA GRAMIN BANK",PKGB0010944,577697555,BENNIHALLI,"THE MANAGER, PRAGATHI KRISHNA GRAMIN BANK,BENNI HALLI BRANCH,HARAPANAHALLI TALUK, DAVANAGERE DISTRICT, PIN - 583 127,",210261,HARAPANAHALLY,DAVANGERE,KARNATAKA
"PRAGATHI KRISHNA GRAMIN BANK",PKGB0010943,577697558,KUNDUR,"THE MANAGER,PRAGATHI KRISHNA GRAMIN BANK,KUNDUR BRANCH, HONNALI TALUK,DAVANAGERE DISTRICT, PIN - 577 217,",262799,HONNALI,DAVANGERE,KARNATAKA
"PRAGATHI KRISHNA GRAMIN BANK",PKGB0010942,577697557,MADIHALLI,"THE MANAGER, PRAGATHI KRISHNA GRAMIN BANK, MADIHALLI BRANCH, HARAPANAHALLI TALUK, DAVANAGERE DISTRICT, PIN - 583 125,",288016,HARAPANAHALLY,DAVANGERE,KARNATAKA
"PRAGATHI KRISHNA GRAMIN BANK",PKGB0010941,577697553,GOVINAKOVI,"THE MANAGER,PRAGATHI KRISHNA GRAMIN BANK, GOVINAKOOVI BRANCH, HONNALI TALUK, DAVANAGERE DISTRICT, PIN - 577 230,",202233,HONNALI,DAVANGERE,KARNATAKA
"PRAGATHI KRISHNA GRAMIN BANK",PKGB0010940,577697556,LINGAPURA,"THE MANAGER,PRAGATHI KRISHNA GRAMIN BANK, LINGAPURA BRANCH, HONNALI TALUK, DAVANAGERE DISTRICT, PIN - 577 224,",294670,HONNALI,DAVANGERE,KARNATAKA
"PRAGATHI KRISHNA GRAMIN BANK",PKGB0010939,577697627,"DEVAREDDY HALLY","THE MANAGER,PRAGATHI KRISHNA GRAMIN BANK,DEVAREDDI HALLY BRANCH,CHALLAKERE TALUK,CHITRADURGA DISTRICT,PIN - 577 529",210400,CHALLAKERE,CHITRADURGA,KARNATAKA
"PRAGATHI KRISHNA GRAMIN BANK",PKGB0010938,572697513,ALUR,"THE MANAGER,PRAGATHI KRISHNA GRAMIN BANK,ALUR BRANCH,HIRIYUR TALUK,CHITRADURGA DISTRICT,PIN - 577 598",289009,HIRIYUR,CHITRADURGA,KARNATAKA
"PRAGATHI KRISHNA GRAMIN BANK",PKGB0010937,577697628,SIRIGERE,"THE MANAGER,PRAGATHI KRISHNA GRAMIN BANK,SIRIGERE BRANCH,CHITRADURGA TALUK,CHITRADURGA DISTRICT,PIN - 577 541",268333,CHITRADURGA,CHITRADURGA,KARNATAKA
"PRAGATHI KRISHNA GRAMIN BANK",PKGB0010936,572697512,"BUGUJINA ROPPA","THE MANAGER,PRAGATHI KRISHNA GRAMIN BANK,BUGUJINA ROPPA BRANCH,HIRIYUR TALUK,CHITRADURGA DISTRICT,PIN - 577 532",206444,HIRIYUR,CHITRADURGA,KARNATAKA
"PRAGATHI KRISHNA GRAMIN BANK",PKGB0010935,577697626,"GUDDADA NERALAKERE","THE MANAGER,PRAGATHI KRISHNA GRAMIN BANK,GUDDADA NERALAKERE BR,HOSADURGA TALUK,CHITRADURGA DISTRICT,PIN - 577 533",208982,HOSADURGA,CHITRADURGA,KARNATAKA
"PRAGATHI KRISHNA GRAMIN BANK",PKGB0010934,577697629,SRIRAMPURA,"THE MANAGER,PRAGATHI KRISHNA GRAMIN BANK,SRIRAMPURA BRANCH,HOSADURGA TALUK,CHITRADURGA DISTRICT,PIN - 577 542",242492,HOSADURGA,CHITRADURGA,KARNATAKA
"PRAGATHI KRISHNA GRAMIN BANK",PKGB0010933,583697561,GUDEKOTE,"THE MANAGER, PRAGATHI KRISHNA GRAMIN BANK,GUDEKOTE BRANCHKUDLIGI TALUKBELLARYDISTRICTPIN - 583 130",227851,KUDLIGI,BELLARY,KARNATAKA
"PRAGATHI KRISHNA GRAMIN BANK",PKGB0010932,583697560,SWAMIHALLI,"THE MANAGER, PRAGATHI KRISHNA GRAMIN BANK,SWAMIHALLI BRANCHSANDUR TALUKBELLARY DISTRICTPIN - 583 112",214548,SANDUR,BELLARY,KARNATAKA
"PRAGATHI KRISHNA GRAMIN BANK",PKGB0010931,583697562,BAGEWADI,"THE MANAGER, PRAGATHI KRISHNA GRAMIN BANK,BAGEWADI BRANCHSIRUGUPPA TALUKBELLARY DISTRICT PIN - 583 121",253222,SIRUGUPPA,BELLARY,KARNATAKA
"PRAGATHI KRISHNA GRAMIN BANK",PKGB0010930,583697559,EMMIGANUR,"THE MANAGER, PRAGATHI KRISHNA GRAMIN BANK,EMMIGANUR BRANCH BELLARY TALUK BELLARY DISTRICT PIN - 583 113",262399,BELLARY,BELLARY,KARNATAKA
"PRAGATHI KRISHNA GRAMIN BANK",PKGB0010929,NA,"CURRENCY CHEST","NH-4, IUDP LAYOUT,CHITRADURGA",234511,CHITRADURGA,CHITRADURGA,KARNATAKA
"PRAGATHI KRISHNA GRAMIN BANK",PKGB0010928,NA,"BELLARY-SERVICE BR-MILLERPET","THE MANAGER, PRAGATHI KRISHNA GRAMIN BANK,BELLARY-MILLERPER SERVICE BRANCH CPC BRANCH, BELLARY",270542,BELLARY,BELLARY,KARNATAKA
"PRAGATHI KRISHNA GRAMIN BANK",PKGB0010927,583697110,"PATEL NAGAR","THE MANAGER, PRAGATHI KRISHNA GRAMIN BANK,RAGHAVENDRA COLONY1ST CROSSPATEL NAGAR BELLARY TOWN - 583 104BELLARY TALUK & DISTRICT",260022,BELLARY,BELLARY,KARNATAKA
"PRAGATHI KRISHNA GRAMIN BANK",PKGB0010926,583697109,"TILAK NAGAR","THE MANAGER, PRAGATHI KRISHNA GRAMIN BANK,NEAR NANDI SCHOOLINFANTRY ROAD TILAK NAGARBELLARY TOWN - 583 104 BELLARY TALUK & DISTRICT",242022,BELLARY,BELLARY,KARNATAKA
"PRAGATHI KRISHNA GRAMIN BANK",PKGB0010925,577697206,"SHANKAR MUTT CIRCLE SHIMOGA","THE MANAGER, PRAGATHI KRISHNA GRAMIN BANK,NEAR HOLE STOP,B H ROAD, SHANKARMUTT CIRCLE BRANCH,SHIVAMOGGA TOWN, PIN - 577 201,",220866,SHIVAMOGGA,SHIMOGA,KARNATAKA
"PRAGATHI KRISHNA GRAMIN BANK",PKGB0010924,577697004,"SARASWATI BADAVANE DAVANAGERE","HRH COMPLEX, NEAR DURGAMBIKA SCHOOL,DAVANAGERE-SARASWATHI BADAVANE,DAVNGERE",263611,DAVANGERE,DAVANGERE,KARNATAKA
"PRAGATHI KRISHNA GRAMIN BANK",PKGB0010923,577697503,"VIJAYANAGAR,CHITRADURGA","THE MANAGER,PRAGATHI KRISHNA GRAMIN BANK,VIJAYANAGAR,CHITRADURGATOWN,CHITRADURGA DISTRICT",223155,CHITRADURGA,CHITRADURGA,KARNATAKA
"PRAGATHI KRISHNA GRAMIN BANK",PKGB0010922,563697544,BYRAKUR,"THE MANAGER, PRAGATHI KRISHNA GRAMIN BANK, BYRAKUR BRANCH, MULBAGIL TALUK, KOLAR DISTRICT, PIN - 563 131",231212,MULBAGALU,KOLAR,KARNATAKA
"PRAGATHI KRISHNA GRAMIN BANK",PKGB0010921,577697674,HEDDARIPURA,"THE MANAGER,PRAGATHI KRISHNA GRAMIN BANK, HEDDARIPURA BRANCH,HIOSANAGARA TALUK,SHIVAMOGGA DISTRICT,PIN - 577 436,",244355,HOSANAGARA,SHIMOGA,KARNATAKA
"PRAGATHI KRISHNA GRAMIN BANK",PKGB0010920,563697550,"JODI KRISHNAMRAPURAM","THE MANAGER, PRAGATHI KRISHNA GRAMIN BANK, JODIKRISHNARAJAPURAM, BANGARPET TALUK, KOLAR DISTRICT, PIN563 121",267207,BANGARPET,KOLAR,KARNATAKA
"PRAGATHI KRISHNA GRAMIN BANK",PKGB0010919,577697552,PANDOMATTI,"THE MANAGER,PRAGATHI KRISHNA GRAMIN BANK, PANDOMATTI BRANCH, CHANNAGIRI TALUK,DAVANAGERE DISTRICT, PIN577 213,",237231,CHANNAGIRI,DAVANGERE,KARNATAKA
"PRAGATHI KRISHNA GRAMIN BANK",PKGB0010918,577697625,MADHURE,"THE MANAGER,PRAGATHI KRISHNA GRAMIN BANK,MADHURE BRANCH,HOSADURGA TALUK,CHITRADURGA DISTRICT,PIN577 527",280060,HOSADURGA,CHITRADURGA,KARNATAKA
"PRAGATHI KRISHNA GRAMIN BANK",PKGB0010917,583697563,HURULIHAL,"THE MANAGER, PRAGATHI KRISHNA GRAMIN BANK,HURALIHAL BRANCH - 583 126 VIA C J HALLI KUDLIGI TALUKBELLARY DISTRICT",224223,KUDLIGI,BELLARY,KARNATAKA
"PRAGATHI KRISHNA GRAMIN BANK",PKGB0010916,577697673,INDUVALLI,"THE MANAGER, PRAGATHI KRISHNA GRAMIN BANK,INDUVALLI BRANCH, SORABA TALUK, SHIVAMOGGA DISTRICT,PIN577 434,",255858,SORABA,SHIMOGA,KARNATAKA
"PRAGATHI KRISHNA GRAMIN BANK",PKGB0010915,577697551,DAGINAKATTE,"THE MANAGER,PRAGATHI KRISHNA GRAMIN BANK, DAGINAKATTE BRANCH, CHANNAGIRI TALUK,DAVANAGERE DISTRICT,PIN - 577 551,",272744,CHANNAGIRI,DAVANGERE,KARNATAKA
"PRAGATHI KRISHNA GRAMIN BANK",PKGB0010914,577697624,KELLODU,"THE MANAGER,PRAGATHI KRISHNA GRAMIN BANK,KELLODU BRANCH,HOSADURGA TALUK,CHITRADURGA DISTRICT,PIN577 527",203967,HOSADURGA,CHITRADURGA,KARNATAKA
"PRAGATHI KRISHNA GRAMIN BANK",PKGB0010913,584697544,MUKKUNDA,"THE MANAGER,PRAGATHI KRISHNA GRAMIN BANK,MUKKUNDA BRANCH,SINDHANUR TALUK,RAICHUR DISTRICT,PIN584 138",280375,SINDHANUR,RAICHUR,KARNATAKA
"PRAGATHI KRISHNA GRAMIN BANK",PKGB0010912,583697558,Y.BUDHIHAL,"THE MANAGER, PRAGATHI KRISHNA GRAMIN BANK,Y. BUDIHAL BRANCHBELLARY TALUKBELLARY DISTRICT PIN - 584 138",285828,BELLARY,BELLARY,KARNATAKA
"PRAGATHI KRISHNA GRAMIN BANK",PKGB0010911,577697672,KARANAGIRI,"THE MANAGER,PRAGATHI KRISHNA GRAMIN BANK,KARANAGIRI BANCH, HOSANAGARA TALUK,SHIVAMOGGA DISTRICT, PIN577 418,",256055,HOSANAGARA,SHIMOGA,KARNATAKA
"PRAGATHI KRISHNA GRAMIN BANK",PKGB0010910,577697671,SIRIVANTE,"THE MANAGER, PRAGATHI KRISHNA GRAMIN BANK, SIRIVANTHE BRANCH, SAGARA TALUK,SHIVAMOGGA DISTRICT, PIN577 401,",231516,SAGARA,SHIMOGA,KARNATAKA
"PRAGATHI KRISHNA GRAMIN BANK",PKGB0010909,577697670,GUDDEKOPPA,"THE MANAGER, PRAGATHI KRISHNA GRAMIN BANK, GUDEKOPPA BRANCH, THIRTHAHALLI TALUK,SHIVAMOGGA DISTRICT, PIN - 577 414,",256275,THIRTHAHALLI,SHIMOGA,KARNATAKA
"PRAGATHI KRISHNA GRAMIN BANK",PKGB0010908,584697543,CHAGABHAVI,"THE MANAGER,PRAGATHI KRISHNA GRAMIN BANK,CHAGABHAVI BRANCH,MANVI TALUK,RAICHUR DISTRICT,PIN584 129",258000,MANVI,RAICHUR,KARNATAKA
"PRAGATHI KRISHNA GRAMIN BANK",PKGB0010907,584697542,VIRUPAPURA,"THE MANAGER,PRAGATHI KRISHNA GRAMIN BANK,VIRUPAPURA BRANCH,SINDHANUR TALUK,RAICHUR DISTRICT,PIN - 584 128",265075,SINDHANUR,RAICHUR,KARNATAKA
"PRAGATHI KRISHNA GRAMIN BANK",PKGB0010906,584697540,BYAGAVAT,"THE MANAGER,PRAGATHI KRISHNA GRAMIN BANK,BYAGAVAT BRANCH,MANVI TALUK,RAICHUR DISTRICT,PIN584 120",230023,MANVI,RAICHUR,KARNATAKA
"PRAGATHI KRISHNA GRAMIN BANK",PKGB0010905,584697541,KURDI,"THE MANAGER,PRAGATHI KRISHNA GRAMIN BANK,KURDI BRANCH,MANVI TALUK,RAICHUR DISTRICT,PIN584 203",232174,MANVI,RAICHUR,KARNATAKA
"PRAGATHI KRISHNA GRAMIN BANK",PKGB0010904,583697617,KATHARKI,"THE MANAGER,PRAGATHI KRISHNA GRAMIN BANK,KATHARKI BRANCH,KOPPAL TALUK &DISTRICT, PIN583 238",255122,KOPPAL,KOPPAL,KARNATAKA
"PRAGATHI KRISHNA GRAMIN BANK",PKGB0010903,583697616,HIREHGONNAGARA,"THE MANAGER,PRAGATHI KRISHNA GRAMIN BANK,HIREGONNAGARA BRANCH,KUSTAGI TALUK,KOPPAL DISTRICT,PIN - 583 280",204066,KUSTAGI,KOPPAL,KARNATAKA
"PRAGATHI KRISHNA GRAMIN BANK",PKGB0010902,583697615,BANNIKOPPA,"THE MANAGER,PRAGATHI KRISHNA GRAMIN BANK,BANNIKOPPA BRANCH,YELBURGA TALUK,KOPPAL DISTRICT,PIN583 238",248244,YELBURGA,KOPPAL,KARNATAKA
"PRAGATHI KRISHNA GRAMIN BANK",PKGB0010901,583697614,GONDABAL,"THE MANAGER,PRAGATHI KRISHNA GRAMIN BANK, GONDABAL BRANCH, KOPPAL TALUK &DISTRICT, PIN - 583 237",266844,KOPPAL,KOPPAL,KARNATAKA
"PRAGATHI KRISHNA GRAMIN BANK",PKGB0010900,583697613,NILOGAL,"THE MANAGER, PRAGATHI KRISHNA GRAMIN BANK, NILOGAL BRANCH,KUSTAGI TALUK,KOPPAL DISTRICT,PIN583 280",204055,KUSTAGI,KOPPAL,KARNATAKA
"PRAGATHI KRISHNA GRAMIN BANK",PKGB0010899,561697506,KALLUDI,"THE MANAGER, PRAGATHI KRISHNA GRAMIN BANK, KALLUDI BRANCH, GOWRIBIDANUR TALUK, CHIKKABALLAPURA DISTRICT, PIN561 208",286085,GOWRIBIDANUR,CHIKKABALLAPURA,KARNATAKA
"PRAGATHI KRISHNA GRAMIN BANK",PKGB0010898,563697543,TORALAKKI,"THE MANAGER, PRAGATHI KRISHNA GRAMIN BANK, TORLAKKI BRANCH, MALUR TALUK, KOLAR DISTRICT, PIN - 563 137",231111,MALUR,KOLAR,KARNATAKA
"PRAGATHI KRISHNA GRAMIN BANK",PKGB0010897,562697516,MALLUR,"THE MANAGER, PRAGATHI KRISHNA GRAMIN BANK, MALLUR BRANCH, SIDLAGHATTA TALUK, CHIKKABALLAPURA DIST, PIN562 105",251155,SIDLAGHATTA,CHIKKABALLAPURA,KARNATAKA
"PRAGATHI KRISHNA GRAMIN BANK",PKGB0010896,562697517,MANCHANABELE,"THE MANAGER, PRAGATHI KRISHNA GRAMIN BANK, MANCHENABALE BRANCH, CHIKKABALLAPURA TALUK, CHIKKABALLAPURA DISTRICT, PIN562 101",270234,CHIKKABALLAPURA,CHIKKABALLAPURA,KARNATAKA
"PRAGATHI KRISHNA GRAMIN BANK",PKGB0010895,577697550,CHIRADONI,"THE MANAGER, PRAGATHI KRISHNA GRAMIN BANK,CHIRADONI BRANCH, CHANNAGIRI TALUK, DAVANAGERE DISTRICT, PIN577 321,",272722,CHANNAGIRI,DAVANGERE,KARNATAKA
"PRAGATHI KRISHNA GRAMIN BANK",PKGB0010894,577697549,NUGGEHALLI,"THE MANAGER,PRAGATHI KRISHNA GRAMIN BANK,NUGGIHALLI BRANCH, CHANNAGIRI TALUK, DAVANAGERE DISTRICT, PIN577 215,",239060,CHANNAGIRI,DAVANGERE,KARNATAKA
"PRAGATHI KRISHNA GRAMIN BANK",PKGB0010893,577697548,KABBALA,"THE MANAGER,PRAGATHI KRISHNA GRAMIN BANK,KABBALA BRANCH,CHANNAGIRI TALUK, DAVANAGERE DISTRICT, PIN577 544,",276220,CHANNAGIRI,DAVANGERE,KARNATAKA
"PRAGATHI KRISHNA GRAMIN BANK",PKGB0010892,577697547,KUMBALUR,"THE MANAGER,PRAGATHI KRISHNA GRAMIN BANK, KUMBALUR HNL BRANCH, HONNALI TALUK,DAVANAGERE DISTRICT, PIN577 519,",262355,HONNALI,DAVANGERE,KARNATAKA
"PRAGATHI KRISHNA GRAMIN BANK",PKGB0010891,572697511,KANDENAHALLI,"THE MANAGER,PRAGATHI KRISHNA GRAMIN BANK,KANDENAHALLI BRANCH,HIRIYUR TALUK,CHITRADURGA DISTRICT,PIN577 546",204141,HIRIYUR,CHITRADURGA,KARNATAKA
"PRAGATHI KRISHNA GRAMIN BANK",PKGB0010890,577697623,UPPARIGENAHALLI,"THE MANAGER,PRAGATHI KRISHNA GRAMIN BANK,UPPARIGENAHALLI BR,HOLALKERE TALUK,CHITRADURGA DISTRICT,PIN - 577 557",281200,HOLALKERE,CHITRADURGA,KARNATAKA
"PRAGATHI KRISHNA GRAMIN BANK",PKGB0010889,577697622,DUMMI,"THE MANAGER,PRAGATHI KRISHNA GRAMIN BANK,DUMMY BRANCH,HOLALKERE TALUK,CHITRADURGA DISTRICT,PIN - 577 331",289234,HOLALKERE,CHITRADURGA,KARNATAKA
"PRAGATHI KRISHNA GRAMIN BANK",PKGB0010888,583697557,KOLAGAL,"THE MANAGER, PRAGATHI KRISHNA GRAMIN BANK,KOLAGAL BRANCH BELLARY TALUKBELLARY DISTRICT PIN583 102",290011,BELLARY,BELLARY,KARNATAKA
"PRAGATHI KRISHNA GRAMIN BANK",PKGB0010887,583697404,"D.C.OFFICE KOPPAL","THE MANAGER,PRAGATHI KRISHNA GRAMIN BANK,D C OFFICE COMPLEXHOSPET ROAD, KOPPAL TOWN - 583 231,KOPPAL TALUK & DISTRICT",220095,KOPPAL,KOPPAL,KARNATAKA
"PRAGATHI KRISHNA GRAMIN BANK",PKGB0010886,563697103,"D C OFFICE COMPOND KOLAR","THE MANAGER, PRAGATHI KRISHNA GRAMIN BANK, OPP ASST. COMM. OFFICE, D C OFFICE COMPLEX, KOLAR TOWN - 563 161, KOLAR TALUK & DISTRICT",220225,KOLAR,KOLAR,KARNATAKA
"PRAGATHI KRISHNA GRAMIN BANK",PKGB0010885,577697505,"DISTRICT COURT COMPLEX","THE MANAGER,PRAGATHI KRISHNA GRAMIN BANK,DISTRICT COURT COMPLEX,CHITRADURGA TOWN,CHITRADURGA DISTRICT",222472,CHITRADURGA,CHITRADURGA,KARNATAKA
"PRAGATHI KRISHNA GRAMIN BANK",PKGB0010884,583697102,"PREMISES OF VIJAYANAGAR ENG COLLEGE","THE MANAGER, PRAGATHI KRISHNA GRAMIN BANK,BELLARY VEC, BELLARY",244979,BELLARY,BELLARY,KARNATAKA
"PRAGATHI KRISHNA GRAMIN BANK",PKGB0010883,563697542,VEMGAL,"THE MANAGER, PRAGATHI KRISHNA GRAMIN BANK, VEMGAL BRANCH, KOLAR TALUK, KOLAR DISTRICT, PIN - 563 157",246600,KOLAR,KOLAR,KARNATAKA
"PRAGATHI KRISHNA GRAMIN BANK",PKGB0010882,584697548,TIDIGOL,"THE MANAGER,PRAGATHI KRISHNA GRAMIN BANK,TIRIGOL BRANCH,SINDHANUR TALUK,RAICHUR DISTRICT,PIN - 548 128",235066,SINDHANUR,RAICHUR,KARNATAKA
"PRAGATHI KRISHNA GRAMIN BANK",PKGB0010881,577697003,"MCC B BLOCK, DAVANAGERE","THE MANAGER,PRAGATHI KRISHNA GRAMIN BANK,OPP BAPUJI HIGH SCHOOL,BIET RD, 13TH MAIN,3RD CROSS,MCC B- BLOCK, DAVANAGERE CITY",226464,DAVANGERE,DAVANGERE,KARNATAKA
"PRAGATHI KRISHNA GRAMIN BANK",PKGB0010880,577697205,"GOPALA GOWDA EXTENSION SHIMOGA","THE MANAGER, PRAGATHI KRISHNA GRAMIN BANK,1ST FLOOR,GOPALA ROAD, GOPALA GOWDA EXTENTION, SHIMOGA - 577 201, SHIMOGA DISTRICT,",256576,SHIVAMOGGA,SHIMOGA,KARNATAKA
"PRAGATHI KRISHNA GRAMIN BANK",PKGB0010879,583697207,ANANTHASHAYANGUDIHOSPET,"THE MANAGER, PRAGATHI KRISHNA GRAMIN BANK,ANANTHA SHAYANA GUDI HOSPET TALUKBELLARY DISTRICT PIN 583 201",221658,HOSPET,BELLARY,KARNATAKA
"PRAGATHI KRISHNA GRAMIN BANK",PKGB0010878,583697108,"MOTHI CIRCLE","THE MANAGER, PRAGATHI KRISHNA GRAMIN BANK,BUDA COMPLEX MOTI CIRCLEBELLARY TOWNBELLARY DISTRICTPIN583 101",277680,BELLARY,BELLARY,KARNATAKA
"PRAGATHI KRISHNA GRAMIN BANK",PKGB0010877,583697206,"INDIRANAGAR HOSPET","THE MANAGER, PRAGATHI KRISHNA GRAMIN BANK,PDIT CAMPUS T B DAMINDIRA NAGARBRANCH HOSAPET - 583 201 BELLARY DISTRICT",259370,HOSPET,BELLARY,KARNATAKA
"PRAGATHI KRISHNA GRAMIN BANK",PKGB0010876,NA,"KGF MV NAGAR","THE MANAGER, PRAGATHI KRISHNA GRAMIN BANK, M V NAGAR BRANCH563 122, BEML NAGAR POST, BANGARPET TALUK, KOLAR DISTRICT",278909,BANGARPET,KOLAR,KARNATAKA
"PRAGATHI KRISHNA GRAMIN BANK",PKGB0010875,577697631,"RAMPURA C","THE MANAGER,PRAGATHI KRISHNA GRAMIN BANK,RAMPURA C BRANCH,MOLAKALMURU TALUK,CHITRADURGA DISTRICT,PIN577 512",267267,MOLAKALMURU,CHITRADURGA,KARNATAKA
"PRAGATHI KRISHNA GRAMIN BANK",PKGB0010874,584697547,SUNKESHWARAHAL,"THE MANAGER,PRAGATHI KRISHNA GRAMIN BANK,SUNKESHWARAHAL BRANCH,DEODURGA TALUK,RAICHUR DISTRICT,PIN584 126",201339,DEODURGA,RAICHUR,KARNATAKA
"PRAGATHI KRISHNA GRAMIN BANK",PKGB0010873,584697546,GANADHAL,"THE MANAGER,PRAGATHI KRISHNA GRAMIN BANK,GANADHAL D BRANCH,DEODURGA TALUK,RAICHUR DISTRICT,PIN - 587 316",202199,DEODURGA,RAICHUR,KARNATAKA
"PRAGATHI KRISHNA GRAMIN BANK",PKGB0010872,583697612,ALAWANDI,"THE MANAGER,PRAGATHI KRISHNA GRAMIN BANK,ALAVANDI BRANCH,KOPPAL TALUK & DISTRICT PIN583226",285234,KOPPAL,KOPPAL,KARNATAKA
"PRAGATHI KRISHNA GRAMIN BANK",PKGB0010871,561697505,THONDEBHAVI,"THE MANAGER, PRAGATHI KRISHNA GRAMIN BANK, THONDEBHAVI BRANCH, GOWRIBIDANUR TALUK, CHIKKABALLAPURA DISTRICT, PIN - 561 213",288697,GOWRIBIDANUR,CHIKKABALLAPURA,KARNATAKA
"PRAGATHI KRISHNA GRAMIN BANK",PKGB0010870,577697546,HIREKOGALUR,"THE MANAGER,PRAGATHI KRISHNA GRAMIN BANK, HIREKOGALUR BRANCH, CHANNAGIRI TALUK, DAVANAGERE DISTRICT, PIN - 577 522,",255006,CHANNAGIRI,DAVANGERE,KARNATAKA
"PRAGATHI KRISHNA GRAMIN BANK",PKGB0010869,577697005,"DEVARAJA URS LAYOUT DAVANAGERE","THE MANAGER, PRAGATHI KRISHNA GRAMIN BANK,HOTEL PUJA INTERNATIONAL COMPLEX,P B ROAD, DAVANAGERE CITY - 577 004, DAVANAGEREDISTRICT,",237184,DAVANGERE,DAVANGERE,KARNATAKA
"PRAGATHI KRISHNA GRAMIN BANK",PKGB0010868,577697504,"CHITRADURGA IUDP LAYOUT","IUDP LAYOUT ,BANGALORE ROAD, CHITRADURGA",235231,CHITRADURGA,CHITRADURGA,KARNATAKA
"PRAGATHI KRISHNA GRAMIN BANK",PKGB0010867,577697203,"MISSION COMPOUND SHIMOGA","THE MANAGER, PRAGATHI KRISHNA GRAMIN BANK, DURGIGUDI, MISSION COMPOUND, SHIVAMOGGA TOWN SHIVAMOGGA TALUK & DT, PIN577 201,",270600,SHIVAMOGGA,SHIMOGA,KARNATAKA
"PRAGATHI KRISHNA GRAMIN BANK",PKGB0010866,583697611,KINNAL,"THE MANAGER, PRAGATHI KRISHNA GRAMIN BANK,KINNAL BRANCH, KOPPAL TALUK & DISTRICT,PIN583 230",284922,KOPPAL,KOPPAL,KARNATAKA
"PRAGATHI KRISHNA GRAMIN BANK",PKGB0010865,563697510,NARASAPURA,NARASAPURA,244891,KOLAR,KOLAR,KARNATAKA
"PRAGATHI KRISHNA GRAMIN BANK",PKGB0010864,584697006,"YERGERA ROAD","THE MANAGER,PRAGATHI KRISHNA GRAMIN BANK,STATION RD, NEAR POLICE STN,YERIGERA RD BRANCH,RAICHUR TOWN - 584 101,PIN - 584 140",230995,RAICHUR,RAICHUR,KARNATAKA
"PRAGATHI KRISHNA GRAMIN BANK",PKGB0010863,584697545,YERIGERE,"THE MANAGER,PRAGATHI KRISHNA GRAMIN BANK,YERIGERA BRANCH,RAICHUR TALUK,RAICHUR DISTRICT,PIN - 584 133",200677,RAICHUR,RAICHUR,KARNATAKA
"PRAGATHI KRISHNA GRAMIN BANK",PKGB0010862,584697551,"YARAMARUS CAMP","THE MANAGER,PRAGATHI KRISHNA GRAMIN BANK,YERAMARAS CAMP BRANCH,RAICHUR TALUK,RAICHUR DISTRICT,PIN - 584 135",251109,RAICHUR,RAICHUR,KARNATAKA
"PRAGATHI KRISHNA GRAMIN BANK",PKGB0010861,584697534,YERDONA,"THE MANAGER,PRAGATHI KRISHNA GRAMIN BANK,YERADONA BRANCH,LINGASUGUR TALUK,RAICHUR DISTRICT,PIN - 584 115",200108,LINGASUGUR,RAICHUR,KARNATAKA
"PRAGATHI KRISHNA GRAMIN BANK",PKGB0010860,562697504,YELLODU,"THE MANAGER, PRAGATHI KRISHNA GRAMIN BANK, YELLODU BRANCH, GUDIBANDE TALUK, CHIKKABALLAPURA DISTRICT, PIN - 561 208",279409,GUDIBANDE,CHIKKABALLAPURA,KARNATAKA
"PRAGATHI KRISHNA GRAMIN BANK",PKGB0010859,583697597,YELBURGA,"THE MANAGER,PRAGATHI KRISHNA GRAMIN BANK,1ST FLOOR,BUSSTAND ROAD,YELBURGA BR - 583 236, YELBURGA TALUK,KOPPAL DISTRICT",220114,YELBURGA,KOPPAL,KARNATAKA
"PRAGATHI KRISHNA GRAMIN BANK",PKGB0010858,572697506,YARABALLI,"THE MANAGER,PRAGATHI KRISHNA GRAMIN BANK,YARABALLI BRANCH,HIRIYUR TALUK,CHITRADURGA DISTRICT,PIN - 577 537",259927,HIRIYUR,CHITRADURGA,KARNATAKA
"PRAGATHI KRISHNA GRAMIN BANK",PKGB0010857,563697527,YAGAVAKOTE,"THE MANAGER, PRAGATHI KRISHNA GRAMIN BANK, YAGAVAKOTE BRANCH, CHINTHAMANI TALUK, CHIKKABALLAPURA DISTRICT, PIN - 563 146",257055,CHINTAMANI,CHIKKABALLAPURA,KARNATAKA
"PRAGATHI KRISHNA GRAMIN BANK",PKGB0010856,561697501,VIDURASWATHA,"THE MANAGER, PRAGATHI KRISHNA GRAMIN BANK, VIDURASWATH BRANCH, GOWRIBIDANUR TALUK, KOLAR DISTRICT, PIN - 562 108",288124,GOWRIBIDANUR,CHIKKABALLAPURA,KARNATAKA
"PRAGATHI KRISHNA GRAMIN BANK",PKGB0010855,577697532,VASANA,"THE MANAGER,PRAGATHI KRISHNA GRAMIN BANK, VASANA BRANCH, HARIHARA TALUK, DAVANAGERE DISTRICT, PIN - 577 516,",287007,HARIHARA,DAVANGERE,KARNATAKA
"PRAGATHI KRISHNA GRAMIN BANK",PKGB0010854,584697526,VALABELLARY,"THE MANAGER,PRAGATHI KRISHNA GRAMIN BANK,VALABALLARY BRANCH,SINDHANUR TALUK,RAICHUR DISTRICT,PIN - 584 167",200951,SINDHANUR,RAICHUR,KARNATAKA
"PRAGATHI KRISHNA GRAMIN BANK",PKGB0010853,572697505,"V V PURA","THE MANAGER,PRAGATHI KRISHNA GRAMIN BANK,V V PURA BRANCH,HIRIYUR TALUK,CHITRADURGA DISTRICT,PIN - 577 144",286701,HIRIYUR,CHITRADURGA,KARNATAKA
"PRAGATHI KRISHNA GRAMIN BANK",PKGB0010852,577697571,UMBLEBYLU,"THE MANAGER,PRAGATHI KRISHNA GRAMIN BANK, UMBLEBYLU BRANCH,SHIVAMOGGA TALUK, SHIVAMOGGA DISTRICT,PIN - 577 115,",252536,SHIVAMOGGA,SHIMOGA,KARNATAKA
"PRAGATHI KRISHNA GRAMIN BANK",PKGB0010851,584697524,UDBAL,"THE MANAGER,PRAGATHI KRISHNA GRAMIN BANK,UDBAL BRANCH,SINDHANUR TALUK,RAICHUR DISTRICT,PIN - 584 138",285164,SINDHANUR,RAICHUR,KARNATAKA
"PRAGATHI KRISHNA GRAMIN BANK",PKGB0010850,577697513,UCHANGIDURGA,"THE MANAGER, PRAGATHI KRISHNA GRAMIN BANK, UCHANGIDURGA BRANCH, HARAPANAHALLI TALUK,DAVANAGERE DISTRICT, PIN - 583 125,",286020,HARAPANAHALLY,DAVANGERE,KARNATAKA
"PRAGATHI KRISHNA GRAMIN BANK",PKGB0010849,584697525,TURVIHAL,"THE MANAGER,PRAGATHI KRISHNA GRAMIN BANK,TURVIHAL BRANCH,SINDHANUR TALUK,RAICHUR DISTRICT,PIN - 584 132",244271,SINDHANUR,RAICHUR,KARNATAKA
"PRAGATHI KRISHNA GRAMIN BANK",PKGB0010848,584697518,TORALDINNI,"THE MANAGER,PRAGATHI KRISHNA GRAMIN BANK,1ST FLOOR, VIA KOWTAL,TORALADINNI BR - 584 120,MANVI TALUK,RAICHUR DISTRICT",268136,MANVI,RAICHUR,KARNATAKA
"PRAGATHI KRISHNA GRAMIN BANK",PKGB0010847,577697524,THURCHAGHATTA,"THE MANAGER,PRAGATHI KRISHNA GRAMIN BANK,THURCHAGHATTA BRANCH, DAVANGERE TALUK, DAVANAGERE DISTRICT, PIN - 577 556,",218016,DAVANGERE,DAVANGERE,KARNATAKA
"PRAGATHI KRISHNA GRAMIN BANK",PKGB0010846,577697536,THORANAGHATTA,"THE MANAGER, PRAGATHI KRISHNA GRAMIN BANK,THORANAGHATTA BRANCH, JAGALUR TALUK,DAVANAGERE DISTRICT,PIN - 577 521,",295732,JAGALUR,DAVANGERE,KARNATAKA
"PRAGATHI KRISHNA GRAMIN BANK",PKGB0010845,577697586,THIRUMALAPURA,"THIRUMALAPURA,HOLALKERE",297589,HOLALKERE,CHITRADURGA,KARNATAKA
"PRAGATHI KRISHNA GRAMIN BANK",PKGB0010844,577697452,THIRTHAHALLI,"THE MANAGER, PRAGATHI KRISHNA GRAMIN BANK,1ST FLOOR,AZAD RAOD, THIRTHAHALLI BRANCH, SHIVAMOGGA DISTRICT, PIN - 577 432,",228021,THIRTHAHALLI,SHIMOGA,KARNATAKA
"PRAGATHI KRISHNA GRAMIN BANK",PKGB0010843,583697537,THYAKANAHALLI,"THE MANAGER, PRAGATHI KRISHNA GRAMIN BANK,THAYAKANAHALLI BRANCHKUDLIGI TALUKBELLARY DISTRICTPIN - 583 218",210749,KUDLIGI,BELLARY,KARNATAKA
"PRAGATHI KRISHNA GRAMIN BANK",PKGB0010842,563697515,THAMBAHALLI,"THE MANAGER, PRAGATHI KRISHNA GRAMIN BANK, THAMBIHALLI BRANCH, KOLAR TALUK, KOLAR DISTRICT, PIN - 563 102",236206,KOLAR,KOLAR,KARNATAKA
"PRAGATHI KRISHNA GRAMIN BANK",PKGB0010841,577697568,THALLAK,"THE MANAGER,PRAGATHI KRISHNA GRAMIN BANK,THALLAK BRANCH,CHALLAKERE TALUK,CHITRADURGA DISTRICT,PIN - 577 543",206602,CHALLAKERE,CHITRADURGA,KARNATAKA
"PRAGATHI KRISHNA GRAMIN BANK",PKGB0010840,577697611,THALIKATTE,"THE MANAGER,PRAGATHI KRISHNA GRAMIN BANK,THALIKATTE BRANCH,HOLALKERE TALUK,CHITRADURGA DISTRICT,PIN - 577 539",286685,HOLALKERE,CHITRADURGA,KARNATAKA
"PRAGATHI KRISHNA GRAMIN BANK",PKGB0010839,577697639,THAGARTHI,"THE MANAGER,PRAGATHI KRISHNA GRAMIN BANK, THAGARTHI BRANCH, SAGARA TALUK, SHIVAMOGGA DISTRICT, PIN - 577 431,",233339,SAGARA,SHIMOGA,KARNATAKA
"PRAGATHI KRISHNA GRAMIN BANK",PKGB0010838,577697510,TELIGI,"THE MANAGER,PRAGATHI KRISHNA GRAMIN BANK, TELIGI BRANCH, HARAPANAHALLI TALUK, DAVANAGERE DISTRICT, PIN - 583 137,",276041,HARAPANAHALLY,DAVANGERE,KARNATAKA
"PRAGATHI KRISHNA GRAMIN BANK",PKGB0010837,584697003,"TEEN KANDIL RAICHUR","THE MANAGER,PRAGATHI KRISHNA GRAMIN BANK,1ST FLOOR,KHM COMPLEX,ASHOKA ROAD,TEENKANDIL,RAICHUR TOWN - 584 101,RAICHUR TAULK & DIST",232376,RAICHUR,RAICHUR,KARNATAKA
"PRAGATHI KRISHNA GRAMIN BANK",PKGB0010836,583697585,TAVARAGERE,"THE MANAGER,PRAGATHI KRISHNA GRAMIN BANK,TAVARAGERA BRANCH,KUSTAGI TALUK,KOPPAL DISTRICT,PIN - 584 131",275396,KUSTAGI,KOPPAL,KARNATAKA
"PRAGATHI KRISHNA GRAMIN BANK",PKGB0010835,577697633,TATTURU,"THE MANAGER,PRAGATHI KRISHNA GRAMIN BANK,TATTUR BRANCH, SORABA TALUK,SHIVAMOGGA DISTRICT, PIN - 577 433,",293369,SORABA,SHIMOGA,KARNATAKA
"PRAGATHI KRISHNA GRAMIN BANK",PKGB0010834,583697522,TARANAGAR,"THE MANAGER, PRAGATHI KRISHNA GRAMIN BANK, TARANAGAR SANDUR TALUK BELLARY DISTRICT PIN - 583 119",273188,SANDUR,BELLARY,KARNATAKA
"PRAGATHI KRISHNA GRAMIN BANK",PKGB0010833,577697572,TALYA,"THE MANAGER,PRAGATHI KRISHNA GRAMIN BANK,TALYA BRANCH,HOLALKERE TALUK,CHITRADURGA DISTRICT,PIN577 527",283112,HOLALKERE,CHITRADURGA,KARNATAKA
"PRAGATHI KRISHNA GRAMIN BANK",PKGB0010832,583697515,TALUR,"THE MANAGER, PRAGATHI KRISHNA GRAMIN BANK,TALUR BRANCHSIRUGUPPA TALUKBELLARY DISTRICTPIN583 103",247845,SIRUGUPPA,BELLARY,KARNATAKA
"PRAGATHI KRISHNA GRAMIN BANK",PKGB0010831,563697532,THALAGAWARA,"THE MANAGER, PRAGATHI KRISHNA GRAMIN BANK, TALAGAWARA BRANCH, CHINTHAMANI TALUK, CHIKKABALLAPURA DISTRICT, PIN563 128",239629,CHINTAMANI,CHIKKABALLAPURA,KARNATAKA
"PRAGATHI KRISHNA GRAMIN BANK",PKGB0010830,577697577,"T N KOTE","THE MANAGER,PRAGATHI KRISHNA GRAMIN BANK,T N KOTE BRANCH,CHALLAKERE TALUK,CHITRADURGA DISTRICT,PIN577 538",256519,CHALLAKERE,CHITRADURGA,KARNATAKA
"PRAGATHI KRISHNA GRAMIN BANK",PKGB0010829,563697516,SUGATUR,"THE MANAGER, PRAGATHI KRISHNA GRAMIN BANK, SUGUTUR BRANCH, KOLAR TALUK, KOLAR DISTRICT, PIN563 126",248053,KOLAR,KOLAR,KARNATAKA
"PRAGATHI KRISHNA GRAMIN BANK",PKGB0010828,563697540,SRINIVASPURA,"THE MANAGER, PRAGATHI KRISHNA GRAMIN BANK, OPP GOVT HOSPITAL,M G ROAD, SRINIVASAPURA TOWN -563 135, SRINIVASAPURA TALUK, KOLAR DISTRICT",246004,SRINIVASPURA,KOLAR,KARNATAKA
"PRAGATHI KRISHNA GRAMIN BANK",PKGB0010827,577697643,SORABA,"THE MANAGER, PRAGATHI KRISHNA GRAMIN BANK,SORABA TOWN, SORABA TALUK, SHIVAMOGGA DISTRICT, PIN577 429,",272124,SORABA,SHIMOGA,KARNATAKA
"PRAGATHI KRISHNA GRAMIN BANK",PKGB0010826,577697638,SONALE,"THE MANAGER,PRAGATHI KRISHNA GRAMIN BANK,SONALI BRANCH,HOSANAGARA TALUK,SHIVAMOGGA DISTRICT,PIN577 418,",245001,HOSANAGARA,SHIMOGA,KARNATAKA
"PRAGATHI KRISHNA GRAMIN BANK",PKGB0010825,562697505,SOMENAHALLI,"THE MANAGER, PRAGATHI KRISHNA GRAMIN BANK, VIA PERESANDRA, SOMENAHALLI BRANCH, GUDIBANDE TQ,C B PURA DIST, PIN562 104",279713,GUDIBANDE,CHIKKABALLAPURA,KARNATAKA
"PRAGATHI KRISHNA GRAMIN BANK",PKGB0010824,563697519,SOMAYAJALAPALLI,"THE MANAGER, PRAGATHI KRISHNA GRAMIN BANK, VIA YELDUR, SOMAYAJALAPALLI BRANCH, SRINIVASAPURA TALUK,KOLAR DIST, PIN563 138",248403,SRINIVASPURA,KOLAR,KARNATAKA
"PRAGATHI KRISHNA GRAMIN BANK",PKGB0010823,583697512,SOMASAMUDRA,"THE MANAGER, PRAGATHI KRISHNA GRAMIN BANK,KASHINAGARA SOMASAMUDRA BRANCHBELLARYTALUK & DISTRICTPIN583 102",283033,BELLARY,BELLARY,KARNATAKA
"PRAGATHI KRISHNA GRAMIN BANK",PKGB0010822,584697523,SOMALAPUR,"THE MANAGER,PRAGATHI KRISHNA GRAMIN BANK,SOMALAPURA BRANCH,SINDHANUR TALUK,RAICHUR DISTRICT,PIN584 128",256860,SINDHANUR,RAICHUR,KARNATAKA
"PRAGATHI KRISHNA GRAMIN BANK",PKGB0010821,577697526,SOKKE,"THE MANAGER,PRAGATHI KRISHNA GRAMIN BANK, SOKKE BRANCH, JAGALUR TALUK,DAVANAGERE DISTRICT, PIN577 528,",283237,JAGALUR,DAVANGERE,KARNATAKA
"PRAGATHI KRISHNA GRAMIN BANK",PKGB0010820,583697546,SOGI,"THE MANAGER, PRAGATHI KRISHNA GRAMIN BANK,SOGI BRANCHHUVINAHADAGALI TALUKBELLARY DISTRICT PIN583 219",251022,HUVINAHADAGALI,BELLARY,KARNATAKA
"PRAGATHI KRISHNA GRAMIN BANK",PKGB0010819,584697516,SIRWAR,"THE MANAGER,PRAGATHI KRISHNA GRAMIN BANK,SIRWARRBRANCH",270123,MANVI,RAICHUR,KARNATAKA
"PRAGATHI KRISHNA GRAMIN BANK",PKGB0010818,583697510,SIRIVARA,"THE MANAGER, PRAGATHI KRISHNA GRAMIN BANK,SIRIWAR B BRANCH BELLARY TALUK BELLARY DISTRICT PIN583 103",291114,BELLARY,BELLARY,KARNATAKA
"PRAGATHI KRISHNA GRAMIN BANK",PKGB0010817,583697518,SIRUGUPPA,"THE MANAGER, PRAGATHI KRISHNA GRAMIN BANK, HALLUR COMPLEX BELLARY RD SIRUGUPPA TOWN583 121 SIRUGUPPA TALUKBELLARY DISTRICT",220360,SIRUGUPPA,BELLARY,KARNATAKA
"PRAGATHI KRISHNA GRAMIN BANK",PKGB0010816,577697678,SIRIGERE,"THE MANAGER, PRAGATHI KRISHNA GRAMIN BANK, SIRIGERE SMG BRANCH, SHIVAMOGGA TALUK & DISTRICT,PIN577 211,",263028,SHIVAMOGGA,SHIMOGA,KARNATAKA
"PRAGATHI KRISHNA GRAMIN BANK",PKGB0010815,577697521,SIRIGERE,"THE MANAGER, PRAGATHI KRISHNA GRAMIN BANK,SIRIGERE HRR BRANCH, HARIHARA TALUK,DAVANAGERE DISTRICT, PIN577 516,",282596,HARIHARA,DAVANGERE,KARNATAKA
"PRAGATHI KRISHNA GRAMIN BANK",PKGB0010814,583697556,SIRIGERE,"THE MANAGER, PRAGATHI KRISHNA GRAMIN BANK,SIRIGERE BRANCHSIRUGUPPA TALUK BELLARY DISTRICTPIN583 120",244685,SIRUGUPPA,BELLARY,KARNATAKA
"PRAGATHI KRISHNA GRAMIN BANK",PKGB0010813,583697511,SINDHIGERI,"THE MANAGER, PRAGATHI KRISHNA GRAMIN BANK,SINDHIGERI BRANCH BELLARY TALUKBELLARY DISTRICT PIN583 122",281390,BELLARY,BELLARY,KARNATAKA
"PRAGATHI KRISHNA GRAMIN BANK",PKGB0010812,584697202,"SINDHANUR MAIN","THE MANAGER,PRAGATHI KRISHNA GRAMIN BANK,SINDHANUR BRANCH,SINDHANUR TALUK,RAICHUR DISTRICT,PIN584 128",220106,SINDHANUR,RAICHUR,KARNATAKA
"PRAGATHI KRISHNA GRAMIN BANK",PKGB0010811,562697512,SIDLAGHATTA,"THE MANAGER, PRAGATHI KRISHNA GRAMIN BANK, OPP VENUGOPALASWAMY TEMPLE, ASHOKA ROAD, SIDLAGHATTA TOWN562 105, CHIKKABALLAPURA DISTRICT",254183,SIDLAGHATTA,CHIKKABALLAPURA,KARNATAKA
"PRAGATHI KRISHNA GRAMIN BANK",PKGB0010810,583697569,SIDDAPUR,"THE MANAGER,PRAGATHI KRISHNA GRAMIN BANK,SIDDAPURA BRANCH,GANGAVATHI TALUK,KOPPAL DISTRICT,PIN584 130",280040,GANGAVATHI,KOPPAL,KARNATAKA
"PRAGATHI KRISHNA GRAMIN BANK",PKGB0010809,583697508,SIDDAMMANAHALLI,"THE MANAGER, PRAGATHI KRISHNA GRAMIN BANK,SIDDAMMANAHALLI BRANCHBELLARY TALUK BELLARY DISTRICTPIN583 116",285252,BELLARY,BELLARY,KARNATAKA
"PRAGATHI KRISHNA GRAMIN BANK",PKGB0010808,583697545,SIDARAGADDA,"THE MANAGER, PRAGATHI KRISHNA GRAMIN BANK,SIDARAGADDA BRANCH BELLARY TALUK BELLARY DISTRICT PIN583 103",288008,BELLARY,BELLARY,KARNATAKA
"PRAGATHI KRISHNA GRAMIN BANK",PKGB0010807,563697513,SHIVARAPATNA,"THE MANAGER, PRAGATHI KRISHNA GRAMIN BANK, SHIVARAPATNA BRANCH, MALUR TALUK, KOLAR DISTRICT, PIN53 130",230069,MALUR,KOLAR,KARNATAKA
"PRAGATHI KRISHNA GRAMIN BANK",PKGB0010806,577697573,SHIVAGANGA,"SHIVAGANGA,HOLALKERE TQ",277049,HOLALKERE,CHITRADURGA,KARNATAKA
"PRAGATHI KRISHNA GRAMIN BANK",PKGB0010805,577697645,SHIRALAKOPPA,"THE MANAGER, PRAGATHI KRISHNA GRAMIN BANK,SHIRALAKOPPA BRANCH, SHIKARIPURA TALUK, SHIVAMOGGA DISTRICT, PIN577 428,",234664,SHIKARIPURA,SHIMOGA,KARNATAKA
"PRAGATHI KRISHNA GRAMIN BANK",PKGB0010804,577697202,"SHIMOGA MAIN",SHIMOGA,224394,SHIMOGA,SHIMOGA,KARNATAKA
"PRAGATHI KRISHNA GRAMIN BANK",PKGB0010803,577697152,SHIKARIPUR,"THE MANAGER,PRAGATHI KRISHNA GRAMIN BANK, SHIKARIPURA TOWN, SHIKARIPURA TALUK, SHIVAMOGGA DISTRICT, PIN577 427,",222649,SHIKARIPURA,SHIMOGA,KARNATAKA
"PRAGATHI KRISHNA GRAMIN BANK",PKGB0010802,584697556,SHAKTHINAGAR,"THE MANAGER,PRAGATHI KRISHNA GRAMIN BANK,SHAKTHINAGAR BRANCH,RAICHUR TALUK,RAICHUR DISTRICT,PIN584 170",247265,RAICHUR,RAICHUR,KARNATAKA
"PRAGATHI KRISHNA GRAMIN BANK",PKGB0010801,584697533,SANTHEKALLUR,"THE MANAGER,PRAGATHI KRISHNA GRAMIN BANK,SANTHEKALLUR BRANCH,LINGASUGUR TALUK,RAICHUR DISTRICT,PIN584 122",284522,LINGASUGUR,RAICHUR,KARNATAKA
"PRAGATHI KRISHNA GRAMIN BANK",PKGB0010800,577697579,SANIKERE,"THE MANAGER,PRAGATHI KRISHNA GRAMIN BANK,SANIKERE BRANCH,CHALLAKERE TALUK,CHITRADURGA DISTRICT,PIN577 522",295585,CHALLAKERE,CHITRADURGA,KARNATAKA
"PRAGATHI KRISHNA GRAMIN BANK",PKGB0010799,583697568,SANGAPUR,"THE MANAGER,PRAGATHI KRISHNA GRAMIN BANK,SANGAPURA BRANCH, GANGAVATHI TALUK,KOPPAL DISTRICT,PIN583 227",200201,GANGAVATHI,KOPPAL,KARNATAKA
"PRAGATHI KRISHNA GRAMIN BANK",PKGB0010798,583697502,SANGANAKAL,"THE MANAGER, PRAGATHI KRISHNA GRAMIN BANK,SANGANAKAL BRANCH BELLARY TALUKBELLARY DISTRICTPIN583 103",201501,BELLARY,BELLARY,KARNATAKA
"PRAGATHI KRISHNA GRAMIN BANK",PKGB0010797,583697596,SANGANAHAL,"THE MANAGER,PRAGATHI KRISHNA GRAMIN BANK,SANGANAHAL BRANCH, YELBURGA TALUK,KOPPAL DISTRICT,PIN583 236",288447,YELBURGA,KOPPAL,KARNATAKA
"PRAGATHI KRISHNA GRAMIN BANK",PKGB0010796,577697585,SANEHALLI,"THE MANAGER,PRAGATHI KRISHNA GRAMIN BANK,SANEHALLI BRANCH,HOSADURGA TALUK,CHITRADURGA DISTRICT,PIN577 502",243801,HOSADURGA,CHITRADURGA,KARNATAKA
"PRAGATHI KRISHNA GRAMIN BANK",PKGB0010795,583697602,SANDUR,"THE MANAGER, PRAGATHI KRISHNA GRAMIN BANK,SANDUR CHETRIKI COMPLEXSANDUR TOWN583 119SANDUR TALUKBELLARY DISTRICT",260365,SANDUR,BELLARY,KARNATAKA
"PRAGATHI KRISHNA GRAMIN BANK",PKGB0010794,583697570,SANAPUR,"THE MANAGER, PRAGATHI KRISHNA GRAMIN BANK,VIA MUNIRABAD,SANAPUR BRANCH583 234, GANGAVATHI TALUK,KOPPAL DISTRICT",287050,GANGAVATHI,KOPPAL,KARNATAKA
"PRAGATHI KRISHNA GRAMIN BANK",PKGB0010793,577697644,SAMPEKATTE,"THE MANAGER, PRAGATHI KRISHNA GRAMIN BANK,SAMPEKATTE BRANCH,HOSANAGARA TALUK,SHIVAMOGGA DISTRICT, PIN577 452,",253650,HOSANAGARA,SHIMOGA,KARNATAKA
"PRAGATHI KRISHNA GRAMIN BANK",PKGB0010792,577697647,SALUR,"THE MANAGER,PRAGATHI KRISHNA GRAMIN BANK, SALUR BRANCH, THIRTHAHALLI TALUK, SHIVAMOGGA DISTRICT, PIN577 414,",236006,THIRTHAHALLI,SHIMOGA,KARNATAKA
"PRAGATHI KRISHNA GRAMIN BANK",PKGB0010791,577697402,SAGAR,"THE MANAGER,PRAGATHI KRISHNA GRAMIN BANK,ASHOKA ROAD,SAGARA TOWN577 401, SAGARA TALUK,SHIVAMOGGADISTRICT,",227437,SAGARA,SHIMOGA,KARNATAKA
"PRAGATHI KRISHNA GRAMIN BANK",PKGB0010790,583697107,"S G NAGAR","THE MANAGER, PRAGATHI KRISHNA GRAMIN BANK,MANJUNATHA COMPLEX BESIDE BJP OFFICES P CIRCLES G NAGAR BELLARY-583 101 BELLARY TALUK & DISTRICT",266256,BELLARY,BELLARY,KARNATAKA
"PRAGATHI KRISHNA GRAMIN BANK",PKGB0010789,563697524,RONUR,"THE MANAGER, PRAGATHI KRISHNA GRAMIN BANK, RONUR BRANCH, SRINIVASAPURA TALUK, KOLAR DISTRICT, PIN563 135",242102,SRINIVASPURA,KOLAR,KARNATAKA
"PRAGATHI KRISHNA GRAMIN BANK",PKGB0010788,583697516,RARAVI,"THE MANAGER, PRAGATHI KRISHNA GRAMIN BANK,RARAVI BRANCH SIRUGUPPA TALUK BELLARY DISTRICT PIN583 121",246150,SIRUGUPPA,BELLARY,KARNATAKA
"PRAGATHI KRISHNA GRAMIN BANK",PKGB0010787,577697535,RAMPURA,"THE MANAGER,PRAGATHI KRISHNA GRAMIN BANK,RAMPURA D BRANCH, DAVANAGERE TALUK & DISTRICT,PIN577 512,",219053,DAVANGERE,DAVANGERE,KARNATAKA
"PRAGATHI KRISHNA GRAMIN BANK",PKGB0010786,583697533,RAMASAGARA,"THE MANAGER, PRAGATHI KRISHNA GRAMIN BANK,RAMASAGAR BRANCH HOSPET TALUK BELLARY DISTRICT PIN583 132",261048,HOSPET,BELLARY,KARNATAKA
"PRAGATHI KRISHNA GRAMIN BANK",PKGB0010785,561697503,RAMAPURA,"THE MANAGER, PRAGATHI KRISHNA GRAMIN BANK, VIA HOSUR,RAMAPURA BR, GOWRIBIDANUR TALUK, CHIKKABALLAPURA DIST, PIN561 210",282161,GOWRIBIDANUR,CHIKKABALLAPURA,KARNATAKA
"PRAGATHI KRISHNA GRAMIN BANK",PKGB0010784,583697542,RAMADURGA,"THE MANAGER, PRAGATHI KRISHNA GRAMIN BANK,RAMADURGA BRANCHKUDLIGI TALUKBELLARY DISTRICTPIN583 130",247117,KUDLIGI,BELLARY,KARNATAKA
"PRAGATHI KRISHNA GRAMIN BANK",PKGB0010783,577697599,"R NULENUR","THE MANAGER,PRAGATHI KRISHNA GRAMIN BANK,R. NULENUR BRANCH,HOLALKERE TALUK,CHITRADURGA DISTRICT,PIN577 539",207189,HOLALKERE,CHITRADURGA,KARNATAKA
"PRAGATHI KRISHNA GRAMIN BANK",PKGB0010782,577697635,PURAPPENMANE,"THE MANAGER, PRAGATHI KRISHNA GRAMIN BANK, PURAPPEMANE BRANCH, HOSANAGARA TALUK, SHIVAMOGGA DISTRICT, PIN577 417,",265151,HOSANAGARA,SHIMOGA,KARNATAKA
"PRAGATHI KRISHNA GRAMIN BANK",PKGB0010781,584697514,POTANHAL,"THE MANAGER,PRAGATHI KRISHNA GRAMIN BANK,POTNAL BRANCH,MANVI TALUK,RAICHUR DISTRICT,PIN583 123",281026,MANVI,RAICHUR,KARNATAKA
"PRAGATHI KRISHNA GRAMIN BANK",PKGB0010780,572697509,PATREHALLI,"THE MANAGER,PRAGATHI KRISHNA GRAMIN BANK,PATREHALLI BRANCH,HIRIYUR TALUK,CHITRADURGA DISTRICT,PIN577 511",274090,HIRIYUR,CHITRADURGA,KARNATAKA
"PRAGATHI KRISHNA GRAMIN BANK",PKGB0010779,577697620,PARASHURAMPURA,"THE MANAGER,PRAGATHI KRISHNA GRAMIN BANK,PARASHURAMPURA BR,CHALLAKERE TALUK,CHITRADURGA DISTRICT,PIN577 538",254635,CHALLAKERE,CHITRADURGA,KARNATAKA
"PRAGATHI KRISHNA GRAMIN BANK",PKGB0010778,584697517,PAMANAKALLUR,"THE MANAGER,PRAGATHI KRISHNA GRAMIN BANK,PAMANAKALLUR BRANCH,MANVI TALUK,RAICHUR DISTRICT,PIN583 120",203206,MANVI,RAICHUR,KARNATAKA
"PRAGATHI KRISHNA GRAMIN BANK",PKGB0010777,577697587,PALLAGHATTA,"THE MANAGER,PRAGATHI KRISHNA GRAMIN BANK,PALLAGHATTA BRANCH, JAGALUR TALUK,DAVANAGERE DISTRICT",249533,JAGALUR,DAVANGERE,KARNATAKA
"PRAGATHI KRISHNA GRAMIN BANK",PKGB0010776,583697538,UJJINI,"THE MANAGER, PRAGATHI KRISHNA GRAMIN BANK,OOJEIN BRANCHKUDLIGI TALUKBELLARY DISTRICT PIN583 136",228461,KUDLIGI,BELLARY,KARNATAKA
"PRAGATHI KRISHNA GRAMIN BANK",PKGB0010775,577697576,OBALAPURA,"THE MANAGER,PRAGATHI KRISHNA GRAMIN BANK,OBALAPURA BRANCH,CHALLAKERE TALUK,CHITRADURGA DISTRICT,PIN577 537",205587,CHALLAKERE,CHITRADURGA,KARNATAKA
"PRAGATHI KRISHNA GRAMIN BANK",PKGB0010774,584697515,NIRMANVI,"THE MANAGER,PRAGATHI KRISHNA GRAMIN BANK,NIRMANVI BRANCH,MANVI TALUK,RAICHUR DISTRICT,PIN583 118",250182,MANVI,RAICHUR,KARNATAKA
"PRAGATHI KRISHNA GRAMIN BANK",PKGB0010773,584697005,"NIJALINGAPPA COLONY","THE MANAGER,PRAGATHI KRISHNA GRAMIN BANK,1ST FLOOR,NEAR D C BANGLOW,NIJALINGAPPA COLONY,RAICHUR TOWN584 101,RAICHUR TALUK & DIST",220141,RAICHUR,RAICHUR,KARNATAKA
"PRAGATHI KRISHNA GRAMIN BANK",PKGB0010772,583697523,"NEW DAROJI","THE MANAGER, PRAGATHI KRISHNA GRAMIN BANK,NEW DAROJI BRANCH SANDUR TALUKBELLARY DISTRICTPIN583 129",279449,SANDUR,BELLARY,KARNATAKA
"PRAGATHI KRISHNA GRAMIN BANK",PKGB0010771,577697615,NERLAGUNTE,"THE MANAGER,PRAGATHI KRISHNA GRAMIN BANK,NERLAGUNTE BRANCH,CHALLAKERE TALUK,CHITRADURGA DISTRICT,PIN577 536",263014,CHALLAKERE,CHITRADURGA,KARNATAKA
"PRAGATHI KRISHNA GRAMIN BANK",PKGB0010770,577697517,NEELAGUNDA,"THE MANAGER,PRAGATHI KRISHNA GRAMIN BANK,NEELAGUNDA BRANCH,HARAPANAHALLI TALUK,DAVANAGERE DISTRICT, PIN583 213,",262155,HARAPANAHALLY,DAVANGERE,KARNATAKA
"PRAGATHI KRISHNA GRAMIN BANK",PKGB0010769,583697574,NAVALI,"THE MANAGER,PRAGATHI KRISHNA GRAMIN BANK,NAVALI BRANCH,GANGAVATHI TALUK, KOPPAL DISTRICT,PIN583 229",279452,GANGAVATHI,KOPPAL,KARNATAKA
"PRAGATHI KRISHNA GRAMIN BANK",PKGB0010768,577697529,NANDITAVARE,"THE MANAGER,PRAGATHI KRISHNA GRAMIN BANK, NANDITAVARE BRANCH, HARIHARA TALUK,DAVANAGERE DISTRICT, PIN577 601,",215183,HARIHARA,DAVANGERE,KARNATAKA
"PRAGATHI KRISHNA GRAMIN BANK",PKGB0010767,577697516,"NANDI BEVURU","THE MANAGER, PRAGATHI KRISHNA GRAMIN BANK,NANDI BEVOOR BRANCH,HARAPANAHALLI TALUK,DAVANAGERE DISTRICT, PIN583 131,919",285822,HARAPANAHALLY,DAVANGERE,KARNATAKA
"PRAGATHI KRISHNA GRAMIN BANK",PKGB0010766,584697536,NAGARAHALL,"THE MANAGER,PRAGATHI KRISHNA GRAMIN BANK,NAGARAHAL BRANCH,LINGASUGUR TALUK,RAICHUR DISTRICT,PIN584 127",286311,LINGASUGUR,RAICHUR,KARNATAKA
"PRAGATHI KRISHNA GRAMIN BANK",PKGB0010765,563697534,"N.VADDAHALLI CROSS","THE MANAGER, PRAGATHI KRISHNA GRAMIN BANK, VIA NANGLI,N VADDAHALLI BRANCH563 132, MULBAGAL TALUK, KOLAR DISTRICT",234113,MULBAGALU,KOLAR,KARNATAKA
"PRAGATHI KRISHNA GRAMIN BANK",PKGB0010764,577697621,"N GHALLI","THE MANAGER,PRAGATHI KRISHNA GRAMIN BANK,N G HALLI BRANCH,HOLALKERE TALUK,CHITRADURGA DISTRICT,PIN577 526",280417,HOLALKERE,CHITRADURGA,KARNATAKA
"PRAGATHI KRISHNA GRAMIN BANK",PKGB0010763,583697544,MYLARA,"THE MANAGER, PRAGATHI KRISHNA GRAMIN BANK,MYLAR BRANCHHUVINAHADAGALI TALUKBELLARY DISTRICT PIN583 217",254473,HUVINAHADAGALI,BELLARY,KARNATAKA
"PRAGATHI KRISHNA GRAMIN BANK",PKGB0010762,563697545,MYLANDALAHALLY,"THE MANAGER, PRAGATHI KRISHNA GRAMIN BANK, MYLANDLAHALLI BRANCH, CHINTHAMANI TALUK, CHIKKABALLAPURA DIST, PIN563 125",238040,CHINTAMANI,CHIKKABALLAPURA,KARNATAKA
"PRAGATHI KRISHNA GRAMIN BANK",PKGB0010761,577697590,MUTHUGADUR,"THE MANAGER,PRAGATHI KRISHNA GRAMIN BANK,MUTHUGADUR BRANCH,HOLALKERE TALUK,CHITRADURGA DISTRICT,PIN577 518",284222,HOLALKERE,CHITRADURGA,KARNATAKA
"PRAGATHI KRISHNA GRAMIN BANK",PKGB0010760,577697522,MUSTUR,"THE MANAGER, PRAGATHI KRISHNA GRAMIN BANK,MUSTUR BRANCH, JAGALUR TALUK, DAVANAGERE DISTRICT, PIN577 528,777",249750,JAGALUR,DAVANGERE,KARNATAKA
"PRAGATHI KRISHNA GRAMIN BANK",PKGB0010759,583697575,MUSLAPUR,"THE MANAGER,PRAGATHI KRISHNA GRAMIN BANK, MUSALAPURA BRANCH,GANGAVATHI TALUK,KOPPAL DISTRICT,PIN584 119",202018,GANGAVATHI,KOPPAL,KARNATAKA
"PRAGATHI KRISHNA GRAMIN BANK",PKGB0010758,NA,MULBAGAL,"THE MANAGER, PRAGATHI KRISHNA GRAMIN BANK, 1ST FLOOR,M C ROAD,MULBAGALU TOWN563 131, MULBAGALU TALUK, KOLAR DISTRICT",244212,MULBAGALU,KOLAR,KARNATAKA
"PRAGATHI KRISHNA GRAMIN BANK",PKGB0010757,563697530,MADUVATHI,"THE MANAGER, PRAGATHI KRISHNA GRAMIN BANK, MUDUVATHI BRANCH, KOLAR TALUK, KOLAR DISTRICT, PIN563 101",233201,KOLAR,KOLAR,KARNATAKA
"PRAGATHI KRISHNA GRAMIN BANK",PKGB0010756,584697537,MUDUGAL,"THE MANAGER,PRAGATHI KRISHNA GRAMIN BANK,MUDUGAL BRANCH,LINGASUGUR TALUK,RAICHUR DISTRICT,PIN584 125",280580,LINGASUGUR,RAICHUR,KARNATAKA
"PRAGATHI KRISHNA GRAMIN BANK",PKGB0010755,583697591,MUDHOL,"THE MANAGER,PRAGATHI KRISHNA GRAMIN BANK,MUDHOL BRANCH,YELBURGA TALUK,KOPPAL DISTRICT,PIN583 236",249254,YELBURGA,KOPPAL,KARNATAKA
"PRAGATHI KRISHNA GRAMIN BANK",PKGB0010754,583697588,MUDENUR,"THE MANAGER, PRAGATHI KRISHNA GRAMIN BANK,MUDENUR BRANCH,KUSTAGI TALUK,KOPPAL DISTRICT,PIN584 112",200234,KUSTAGI,KOPPAL,KARNATAKA
"PRAGATHI KRISHNA GRAMIN BANK",PKGB0010753,583697520,MUDDATNUR,"THE MANAGER, PRAGATHI KRISHNA GRAMIN BANK, MUDDATANUR BRANCHSIRUGUPPA TALUK BELLARY DISTRICT PIN583 120",210662,SIRUGUPPA,BELLARY,KARNATAKA
"PRAGATHI KRISHNA GRAMIN BANK",PKGB0010752,577697582,MUDDAPURA,"THE MANAGER,PRAGATHI KRISHNA GRAMIN BANK,MUDDAPURA BRANCH,CHITRADURGA TALUK,CHITRADURGA DISTRICT,PIN577 521",210474,CHITRADURGA,CHITRADURGA,KARNATAKA
"PRAGATHI KRISHNA GRAMIN BANK",PKGB0010751,583697529,MOREGERE,"THE MANAGER, PRAGATHI KRISHNA GRAMIN BANK,MOREGERE BRANCHH B HALLY TALUK BELLARY DISTRICT PIN583 220",247117,HAGARIBOMMANAHALLI,BELLARY,KARNATAKA
"PRAGATHI KRISHNA GRAMIN BANK",PKGB0010750,577697588,MOLAKALMURU,"THE MANAGER,PRAGATHI KRISHNA GRAMIN BANK,RAIDURGA ROAD,MOLAKALMURU BRANCH,MOLAKALMURU TALUK,CHITRADURGA DISTRICT577 535",229252,MOLAKALMURU,CHITRADURGA,KARNATAKA
"PRAGATHI KRISHNA GRAMIN BANK",PKGB0010749,583697505,MOKAGONAL,"THE MANAGER, PRAGATHI KRISHNA GRAMIN BANK,MOKAGONAL BRANCH BELLARY TALUKBELLARY DISTRICT PIN583 117",203284,BELLARY,BELLARY,KARNATAKA
"PRAGATHI KRISHNA GRAMIN BANK",PKGB0010748,562697502,MITTEMARI,"THE MANAGER, PRAGATHI KRISHNA GRAMIN BANK, MITTEMARI BRANCH, BAGEPALLI TALUK, CHIKKABALLAPURA DISTRICT, PIN561 207",287007,BAGEPALLI,CHIKKABALLAPURA,KARNATAKA
"PRAGATHI KRISHNA GRAMIN BANK",PKGB0010747,583697105,"MILLERPET BELLARY","THE MANAGER, PRAGATHI KRISHNA GRAMIN BANK,SHARADA KRISHNAN COMPLEXMILLER PET BELLARY TOWNBELLARY TALUK & DISTRICTPIN583 101",230542,BELLARY,BELLARY,KARNATAKA
"PRAGATHI KRISHNA GRAMIN BANK",PKGB0010746,583697534,METRI,"THE MANAGER, PRAGATHI KRISHNA GRAMIN BANK,METRI BRANCH HOSPET TALUK BELLARY DISTRICTPIN583 129",256455,HOSPET,BELLARY,KARNATAKA
"PRAGATHI KRISHNA GRAMIN BANK",PKGB0010745,572697508,METIKURKE,"THE MANAGER,PRAGATHI KRISHNA GRAMIN BANK,METIKURKE BRANCH,HIRIYUR TALUK,CHITRADURGA DISTRICT,PIN572 144",284413,HIRIYUR,CHITRADURGA,KARNATAKA
"PRAGATHI KRISHNA GRAMIN BANK",PKGB0010744,584697502,MATAMARI,"THE MANAGER,PRAGATHI KRISHNA GRAMIN BANK,MATMARI BRANCH,RAICHUR TALUK,RAICHUR DISTRICT,PIN584 202",248616,RAICHUR,RAICHUR,KARNATAKA
"PRAGATHI KRISHNA GRAMIN BANK",PKGB0010743,577697570,MATHODU,"THE MANAGER,PRAGATHI KRISHNA GRAMIN BANK,MATHODU BRANCH,HOSADURGA TALUK,CHITRADURGA DISTRICT,PIN577 533",240007,HOSADURGA,CHITRADURGA,KARNATAKA
"PRAGATHI KRISHNA GRAMIN BANK",PKGB0010742,577697518,MATHIHALLI,"THE MANAGER, PRAGATHI KRISHNA GRAMIN BANK,MATTIHALLI BRANCH, HARAPANAHALLI TALUK, DAVANAGERE DISTRICT, PIN583 127,",287204,HARAPANAHALLY,DAVANGERE,KARNATAKA
"PRAGATHI KRISHNA GRAMIN BANK",PKGB0010741,584697531,MASKI,"THE MANAGER,PRAGATHI KRISHNA GRAMIN BANK,DESHMUKH BLDG,4TH WARD,MASKI BRANCH584 124,LINGASUGUR TALUK,RAICHUR DISTRICT",270239,LINGASUGUR,RAICHUR,KARNATAKA
"PRAGATHI KRISHNA GRAMIN BANK",PKGB0010740,584697511,MASARKAL,"THE MANAGER,PRAGATHI KRISHNA GRAMIN BANK,MASARKAL BRANCH,DEODURGA TALUK,RAICHUR DISTRICT,PIN584 126",274148,DEODURGA,RAICHUR,KARNATAKA
"PRAGATHI KRISHNA GRAMIN BANK",PKGB0010739,583697553,MARIYAMMANAHALLI,"THE MANAGER, PRAGATHI KRISHNA GRAMIN BANK,HUBLI RAMAKRISHNA BLDG MARIYAMMANAHALLIBRANCHHOSPET TALUKBELLARY DISTRICT583 222",244578,HOSPET,BELLARY,KARNATAKA
"PRAGATHI KRISHNA GRAMIN BANK",PKGB0010738,562697518,MARAGANAKUNTE,"THE MANAGER, PRAGATHI KRISHNA GRAMIN BANK, MARGANUKUNTE BRANCH, BAGEPALLI TALUK, CHIKKABALLAPURA DISTRICT, PIN561 207",288526,BAGEPALLI,CHIKKABALLAPURA,KARNATAKA
"PRAGATHI KRISHNA GRAMIN BANK",PKGB0010737,583697567,MARALI,"THE MANAGER,PRAGATHI KRISHNA GRAMIN BANK,MARALI BRANCH,GANGAVATHI TALUK, KOPPAL DISTRICT,PIN583 268",276008,GANGAVATHI,KOPPAL,KARNATAKA
"PRAGATHI KRISHNA GRAMIN BANK",PKGB0010736,583697564,MARALANAHALLI,"THE MANAGER, PRAGATHI KRISHNA GRAMIN BANK, SALUNCHIMARA,MARLANAHALLI BRANCH,GANGAVATHI TALUK,KOPPAL DISTRICT -583 229",283280,GANGAVATHI,KOPPAL,KARNATAKA
"PRAGATHI KRISHNA GRAMIN BANK",PKGB0010735,572697510,MARADIHALLI,"THE MANAGER,PRAGATHI KRISHNA GRAMIN BANK,MARADIHALLI BRANCH,HIRIYUR TALUK,CHITRADURGA DISTRICT,PIN577 532",273237,HIRIYUR,CHITRADURGA,KARNATAKA
"PRAGATHI KRISHNA GRAMIN BANK",PKGB0010734,584697520,MANVI,"THE MANAGER,PRAGATHI KRISHNA GRAMIN BANK,BUS STAND ROAD,MANVI TOWN584 123,MANVI TALUK,RAICHUR DISTRICT",220460,MANVI,RAICHUR,KARNATAKA
"PRAGATHI KRISHNA GRAMIN BANK",PKGB0010733,583697590,MANGALURU,"THE MANAGER,PRAGATHI KRISHNA GRAMIN BANK, MANGALURU BRANCH,YELBURGA TALUK,KOPPAL DISTRICT,PIN583 237",259040,YELBURGA,KOPPAL,KARNATAKA
"PRAGATHI KRISHNA GRAMIN BANK",PKGB0010732,563697536,MANDIKALB,"THE MANAGER, PRAGATHI KRISHNA GRAMIN BANK, VIA KOLADEVI, MANDIKAL-B BRANCH, MULBAGALU TALUK, KOLAR DISTRICT562 131",233717,MULBAGALU,KOLAR,KARNATAKA
"PRAGATHI KRISHNA GRAMIN BANK",PKGB0010731,562697501,MANDIKALA,"THE MANAGER,PRAGATHI KRISHNA GRAMIN BANK, MANDIKAL - A BRANCH,CHIKKABALLAPURA TALUK, CHIKKABALLAPURA DISTRICT, PIN562 104",276511,CHIKKABALLAPURA,KOLAR,KARNATAKA
"PRAGATHI KRISHNA GRAMIN BANK",PKGB0010730,561697504,MANCHENAHALLY,"THE MANAGER, PRAGATHI KRISHNA GRAMIN BANK, MANCHENAHALLI BRANCH, GOWRIBIDANUR TALUK, CHIKKABALLAPURA DIST, PIN561 211",280259,GOWRIBIDANUR,CHIKKABALLAPURA,KARNATAKA
"PRAGATHI KRISHNA GRAMIN BANK",PKGB0010729,NA,MALUR,MALUR,233987,MALUR,KOLAR,KARNATAKA
"PRAGATHI KRISHNA GRAMIN BANK",PKGB0010728,577697592,MALLURAHALLI,"THE MANAGER,PRAGATHI KRISHNA GRAMIN BANK,MALLURAHALLI BRANCH,CHALLAKERE TALUK,CHITRADURGA DISTRICT,PIN577 536",203575,CHALLAKERE,CHITRADURGA,KARNATAKA
"PRAGATHI KRISHNA GRAMIN BANK",PKGB0010727,577697541,MALLAPURA,"THE MANAGER, PRAGATHI KRISHNA GRAMIN BANK, MALLAPURA BRANCH, JAGALUR TALUK,DAVANAGERE DISTRICT, PIN577 528,",274140,JAGALUR,DAVANGERE,KARNATAKA
"PRAGATHI KRISHNA GRAMIN BANK",PKGB0010726,563697511,MALLANAYAKANAHALLI,"THE MANAGER, PRAGATHI KRISHNA GRAMIN BANK, VIA TAYALUR, MALLANAYAKANAHALLI BRANCH, MULBAGALU TALUK, KOLAR DISTRICT PIN563 136",240822,MULBAGALU,KOLAR,KARNATAKA
"PRAGATHI KRISHNA GRAMIN BANK",PKGB0010725,583697548,MAKARABBI,"THE MANAGER, PRAGATHI KRISHNA GRAMIN BANK,MAKARABBI BRANCHHUVINAHADAGALI TALUK BELLARY DISTRICTPIN583 216",212170,HUVINAHADAGALI,BELLARY,KARNATAKA
"PRAGATHI KRISHNA GRAMIN BANK",PKGB0010724,583697550,MAGALA,"THE MANAGER, PRAGATHI KRISHNA GRAMIN BANK,MAGALA BRANCH HUVINAHADAGALITALUK BELLARYDISTRICTPIN583 216",258146,HUVINAHADAGALI,BELLARY,KARNATAKA
"PRAGATHI KRISHNA GRAMIN BANK",PKGB0010723,577697593,MADADAKERE,"THE MANAGER,PRAGATHI KRISHNA GRAMIN BANK,MADADAKERE BRANCH,HOSADURGA TALUK,CHITRADURGA DISTRICT,PIN577 527",241470,HOSADURGA,CHITRADURGA,KARNATAKA
"PRAGATHI KRISHNA GRAMIN BANK",PKGB0010722,577697566,"M S HALLI","THE MANAGER,PRAGATHI KRISHNA GRAMIN BANK,M S HALLI BRANCH,CHALLAKERE TALUK,CHITRADURGA DISTRICT,PIN577 522",261059,CHALLAKERE,CHITRADURGA,KARNATAKA
"PRAGATHI KRISHNA GRAMIN BANK",PKGB0010721,NA,"M HOSAHALLI","THE MANAGER, PRAGATHI KRISHNA GRAMIN BANK, VIA KAMASAMUDRA,GULLAHALLI POST, M HOSAHALLI BRANCH563 114, BANGARPET TALUK, KOLAR DISTRICT",290749,BANGARPET,KOLAR,KARNATAKA
"PRAGATHI KRISHNA GRAMIN BANK",PKGB0010720,577697596,"M G DIBBA","THE MANAGER,PRAGATHI KRISHNA GRAMIN BANK,M G DIBBA BRANCH,HOSADURGA TALUK,CHITRADURGA DISTRICT,PIN577 527",200401,HOSADURGA,CHITRADURGA,KARNATAKA
"PRAGATHI KRISHNA GRAMIN BANK",PKGB0010719,584697535,LINGASUGUR,"THE MANAGER,PRAGATHI KRISHNA GRAMIN BANK,BASAVA COMPLEX,NEAR POST OFFICE,LINGASUGUR TOWN -584 122,LINGASUGUR TALUK,RAICHUR DISTRICT",257341,LINGASUGUR,RAICHUR,KARNATAKA
"PRAGATHI KRISHNA GRAMIN BANK",PKGB0010718,563697541,LAKKUR,LAKKUR,239560,MALUR,KOLAR,KARNATAKA
"PRAGATHI KRISHNA GRAMIN BANK",PKGB0010717,563697518,KYASAMBALLY,"THE MANAGER, PRAGATHI KRISHNA GRAMIN BANK, KYASAMBALLI BRANCH, BANGARPET TALUK, KOLAR DISTRICT, PIN563 121",267407,BANGARPET,KOLAR,KARNATAKA
"PRAGATHI KRISHNA GRAMIN BANK",PKGB0010716,577697565,KYADIGUNTE,"THE MANAGER,PRAGATHI KRISHNA GRAMIN BANK,KYADIGUNTE BRANCH,CHALLAKERE TALUK,CHITRADURGA DISTRICT,PIN577 517",265226,CHALLAKERE,CHITRADURGA,KARNATAKA
"PRAGATHI KRISHNA GRAMIN BANK",PKGB0010715,583697584,KUSHTAGI,"THE MANAGER, PRAGATHI KRISHNA GRAMIN BANK,OPP BASAVESHWARA TALKIES,KUSTAGI TOWN584121KUSTAGITALUK,KOPPAL DISTRICT",267106,KUSTAGI,KOPPAL,KARNATAKA
"PRAGATHI KRISHNA GRAMIN BANK",PKGB0010714,583697506,KURUGODU,"THE MANAGER, PRAGATHI KRISHNA GRAMIN BANK,KURUGODU BRANCH BELLARY TALUKBELLARY DISTRICTPIN583 116",263561,BELLARY,BELLARY,KARNATAKA
"PRAGATHI KRISHNA GRAMIN BANK",PKGB0010713,577697561,KURUBARAHALLI,"THE MANAGER,PRAGATHI KRISHNA GRAMIN BANK,KURUBARAHALLI BRANCH,CHITRADURGA TALUK,CHITRADURGA DISTRICT,PIN577 520",251454,CHITRADURGA,CHITRADURGA,KARNATAKA
"PRAGATHI KRISHNA GRAMIN BANK",PKGB0010712,577697531,KUMBALUR,KUMBALUR,268731,HARIHARA,DAVANGERE,KARNATAKA
"PRAGATHI KRISHNA GRAMIN BANK",PKGB0010711,583697599,KUKUNUR,"THE MANAGER,PRAGATHI KRISHNA GRAMIN BANK,KUKANUR BRANCH,YELBURGA TALUK,KOPPAL DISTRICT,PIN583 232",230544,YELBURGA,KOPPAL,KARNATAKA
"PRAGATHI KRISHNA GRAMIN BANK",PKGB0010710,583697539,KUDLIGI,"THE MANAGER, PRAGATHI KRISHNA GRAMIN BANK,KUDLIGI BRANCH KUDLIGI TALUKBELLARY DISTRICTPIN583 135",220342,KUDLIGI,BELLARY,KARNATAKA
"PRAGATHI KRISHNA GRAMIN BANK",PKGB0010709,563697517,KUDIYANUR,"THE MANAGER, PRAGATHI KRISHNA GRAMIN BANK, KUDIYANUR BRANCH, MALUR TALUK, KOLAR DISTRICT, PIN563 130",233641,MALUR,KOLAR,KARNATAKA
"PRAGATHI KRISHNA GRAMIN BANK",PKGB0010708,583697555,KUDITHINI,"THE MANAGER, PRAGATHI KRISHNA GRAMIN BANK,KUDATHINI BRANCH BELLARY TALUK BELLARY DISTRICTPIN583 115",248244,BELLARY,BELLARY,KARNATAKA
"PRAGATHI KRISHNA GRAMIN BANK",PKGB0010707,583697552,KOTTUR,"THE MANAGER, PRAGATHI KRISHNA GRAMIN BANK,BALASUBRAMANYA COMPLEXKOTTUR BRANCH583 134 KUDLIGI TALUKBELLARY DISTRICT",226501,KUDLIGI,BELLARY,KARNATAKA
"PRAGATHI KRISHNA GRAMIN BANK",PKGB0010706,583697507,KORLAGUNDI,"THE MANAGER, PRAGATHI KRISHNA GRAMIN BANK,KORLAGUNDI BRANCHBELLARY TALUK BELLARY DISTRICT PIN583 103",282262,BELLARY,BELLARY,KARNATAKA
"PRAGATHI KRISHNA GRAMIN BANK",PKGB0010705,584697512,KOPPAR,"THE MANAGER,PRAGATHI KRISHNA GRAMIN BANK,KOPPAR BRANCH,DEODURGA TALUK,RAICHUR DISTRICT,PIN584 111",267062,DEODURGA,RAICHUR,KARNATAKA
"PRAGATHI KRISHNA GRAMIN BANK",PKGB0010704,583697402,KOPPAL,"THE MANAGER,PRAGATHI KRISHNA GRAMIN BANK,1ST FLOOR,JAWAHARA ROAD,KOPPAL TOWN , KOPPAL TALUK & DISTRICT,PIN583 219",221450,KOPPAL,KOPPAL,KARNATAKA
"PRAGATHI KRISHNA GRAMIN BANK",PKGB0010703,583697551,KOMBLI,"THE MANAGER, PRAGATHI KRISHNA GRAMIN BANK,KOMBLI BRANCHHUVINA HADAGALI TALUK BELLARY DISTRICT PIN583 219",253631,HUVINAHADAGALI,BELLARY,KARNATAKA
"PRAGATHI KRISHNA GRAMIN BANK",PKGB0010702,583697513,KOLUR,"THE MANAGER, PRAGATHI KRISHNA GRAMIN BANK,KOLUR BRANCH BELLARY TALUK BELLARY DISTRICT PIN583 102",213491,BELLARY,BELLARY,KARNATAKA
"PRAGATHI KRISHNA GRAMIN BANK",PKGB0010701,NA,"KOLAR MAIN","1 ST FLOOR, M G ROAD ,KOLAR",222643,KOLAR,KOLAR,KARNATAKA
"PRAGATHI KRISHNA GRAMIN BANK",PKGB0010700,583697530,KOGALI,"THE MANAGER, PRAGATHI KRISHNA GRAMIN BANK,KOGALI BRANCHH B HALLY TALUKBELLARY DISTRICT PIN583 220",247700,HAGARIBOMMANAHALLI,BELLARY,KARNATAKA
"PRAGATHI KRISHNA GRAMIN BANK",PKGB0010699,577697542,KODAGANUR,"THE MANAGER, PRAGATHI KRISHNA GRAMIN BANK,KODAGANUR BRANCH, DAVANAGERE TALUK, DAVANAGERE DISTRICT, PIN577 534,",217790,DAVANGERE,DAVANGERE,KARNATAKA
"PRAGATHI KRISHNA GRAMIN BANK",PKGB0010698,577697569,KITTADAL,"THE MANAGER,PRAGATHI KRISHNA GRAMIN BANK,KITTADAL BRANCH,HOSADURGA TALUK,CHITRADURGA DISTRICT,PIN577 533",282310,HOSADURGA,CHITRADURGA,KARNATAKA
"PRAGATHI KRISHNA GRAMIN BANK",PKGB0010697,563697529,KENCHARLAHALLI,"THE MANAGER, PRAGATHI KRISHNA GRAMIN BANK, KENCHARALAHALLI BRANCH, CHINTHAMANI TALUK, CHIKKABALLAPURA DISTRICT, PIN563 150",258620,CHINTAMANI,CHIKKABALLAPURA,KARNATAKA
"PRAGATHI KRISHNA GRAMIN BANK",PKGB0010696,563697512,KEMBODI,"THE MANAGER, PRAGATHI KRISHNA GRAMIN BANK, KEMBODI BRANCH, KOLAR TALUK, KOLAR DISTRICT",245110,KOLAR,KOLAR,KARNATAKA
"PRAGATHI KRISHNA GRAMIN BANK",PKGB0010695,577697506,"CHITRADURGA BD ROAD","CHITRADURGA MAIN B D ROAD",222791,CHITRADURGA,CHITRADURGA,KARNATAKA
"PRAGATHI KRISHNA GRAMIN BANK",PKGB0010694,563697535,KEELUKOTE,"THE MANAGER, PRAGATHI KRISHNA GRAMIN BANK, GOKUL COMPLEX,M B ROAD, KEELUKOTE,KOLAR TOWN, KOLAR TALUK & DISTRICT, PIN563 101",222954,KOLAR,KOLAR,KARNATAKA
"PRAGATHI KRISHNA GRAMIN BANK",PKGB0010693,583697580,KAVALOOR,"THE MANAGER, PRAGATHI KRISHNA GRAMIN BANK,KAVALURU BRANCH, KOPPAL TALUK &DISTRICT,PIN584 226",283257,KOPPAL,KOPPAL,KARNATAKA
"PRAGATHI KRISHNA GRAMIN BANK",PKGB0010692,563697520,KASHIPURA,"THE MANAGER, PRAGATHI KRISHNA GRAMIN BANK, KASHIPURA BRANCH, MULBAGALU TALUK, KOLAR DISTRICT, PIN563 131",230159,MULBAGALU,KOLAR,KARNATAKA
"PRAGATHI KRISHNA GRAMIN BANK",PKGB0010691,583697517,KARUR,"THE MANAGER, PRAGATHI KRISHNA GRAMIN BANK,KARUR BRANCHSIRUGUPPA TALUKBELLARY DISTRICT PIN583 120",255674,SIRUGUPPA,BELLARY,KARNATAKA
"PRAGATHI KRISHNA GRAMIN BANK",PKGB0010690,583697598,KARATAGI,"THE MANAGER,PRAGATHI KRISHNA GRAMIN BANK,VBC BUILDING,MAIN ROAD,KARATAGI BRANCH583 229,GANGAVATHI TALUK,KOPPAL DISTRICT",275468,GANGAVATHI,KOPPAL,KARNATAKA
"PRAGATHI KRISHNA GRAMIN BANK",PKGB0010689,577697640,KANNANGI,"THE MANAGER, PRAGATHI KRISHNA GRAMIN BANK,KANNANGI BRANCH, THIRTHAHALLI TALUK, SHIVAMOGGA DISTRICT, PIN577 226,",234664,THIRTHAHALLI,SHIMOGA,KARNATAKA
"PRAGATHI KRISHNA GRAMIN BANK",PKGB0010688,577697523,KANDANAKOVI,"THE MANAGER, PRAGATHI KRISHNA GRAMIN BANK, KANDANA KOOVI BRANCH, DAVANAGERE TALUK, DAVANAGERE DISTRICT, PIN577 556,",210870,DAVANGERE,DAVANGERE,KARNATAKA
"PRAGATHI KRISHNA GRAMIN BANK",PKGB0010687,577697519,KANCHIKERE,"THE MANAGER,PRAGATHI KRISHNA GRAMIN BANK,KANCHIKERE BRANCH, HARAPANAHALLI TALUK, DAVANAGERE DISTRICT, PIN583 125,",271006,HARAPANAHALLY,DAVANGERE,KARNATAKA
"PRAGATHI KRISHNA GRAMIN BANK",PKGB0010686,583697532,KAMPLI,"THE MANAGER, PRAGATHI KRISHNA GRAMIN BANK,KAMPLI BRANCH HOSPET TALUK BELLARY DISTRICTPIN583 132",250328,HOSPET,BELLARY,KARNATAKA
"PRAGATHI KRISHNA GRAMIN BANK",PKGB0010685,583697509,KAMARCHEDU,"THE MANAGER, PRAGATHI KRISHNA GRAMIN BANK,KAMMARCHEDU BRANCHBELLARY TALUK BELLARY DISTRICT PIN583 102",289838,BELLARY,BELLARY,KARNATAKA
"PRAGATHI KRISHNA GRAMIN BANK",PKGB0010684,563697531,KAMADENAHALLI,"THE MANAGER, PRAGATHI KRISHNA GRAMIN BANK, KAMADHENAHALLI BRANCH, KOLAR TALUK, KOLAR DISTRICT, PIN563 101",210296,KOLAR,KOLAR,KARNATAKA
"PRAGATHI KRISHNA GRAMIN BANK",PKGB0010683,584697513,KALLUR,"THE MANAGER,PRAGATHI KRISHNA GRAMIN BANK,KALLUR BRANCH,MANVI TALUK,RAICHUR DISTRICT,PIN584 118",262002,MANVI,RAICHUR,KARNATAKA
"PRAGATHI KRISHNA GRAMIN BANK",PKGB0010682,577697642,KALLIHAL,"THE MANAGER, PRAGATHI KRISHNA GRAMIN BANK, KALLI HAL BRANCH,BHADRAVATHI TALUK,SHIVAMOGGA DISTRICT, PIN577 233,",236838,BHADRAVATHI,SHIMOGA,KARNATAKA
"PRAGATHI KRISHNA GRAMIN BANK",PKGB0010681,577697614,KALLAHALLI,"THE MANAGER,PRAGATHI KRISHNA GRAMIN BANK,KALLAHALLI BRANCH,CHITRADURGA TALUK,CHITRADURGA DISTRICT,PIN577 524",242547,CHITRADURGA,CHITRADURGA,KARNATAKA
"PRAGATHI KRISHNA GRAMIN BANK",PKGB0010680,583697104,"KALAMMA STREET","THE MANAGER, PRAGATHI KRISHNA GRAMIN BANK,SONA COMPLEXKALAMMA STBELLARY TOWN BELLARY TALUK & DIST PIN583 101",275701,BELLARY,BELLARY,KARNATAKA
"PRAGATHI KRISHNA GRAMIN BANK",PKGB0010679,584697550,KALMALA,"THE MANAGER,PRAGATHI KRISHNA GRAMIN BANK,KALMALA BRANCH,RAICHUR TALUK,RAICHUR DISTRICT,PIN584 136",245423,RAICHUR,RAICHUR,KARNATAKA
"PRAGATHI KRISHNA GRAMIN BANK",PKGB0010678,577697537,KAKKARAGOLLA,"THE MANAGER,PRAGATHI KRISHNA GRAMIN BANK,KAKKARAGOLLA BRANCH, DAVANAGERE TALUK & DISTRICT, PIN577 589,",279111,DAVANGERE,DAVANGERE,KARNATAKA
"PRAGATHI KRISHNA GRAMIN BANK",PKGB0010677,577697530,KOKKANUR,"THE MANAGER,PRAGATHI KRISHNA GRAMIN BANK, KOKKANUR BRANCH, HARIHARA TALUK, DAVANAGERE DISTRICT, PIN577 530,",289007,HARIHARA,DAVANGERE,KARNATAKA
"PRAGATHI KRISHNA GRAMIN BANK",PKGB0010676,NA,"KGF MAIN","THE MANAGER, PRAGATHI KRISHNA GRAMIN BANK, GEETHA ROAD,ROBERTSONPET, K G F MAIN BRANCH563 122, BANGARPET TALUK, KOLAR DISTRICT",262602,BANGARPET,KOLAR,KARNATAKA
"PRAGATHI KRISHNA GRAMIN BANK",PKGB0010675,583697519,K.BELAGALLU,"THE MANAGER, PRAGATHI KRISHNA GRAMIN BANK,K BELAGALU BRANCH SIRUGUPPA TALUKBELLARY DISTRICTPIN583 121",208470,SIRUGUPPA,BELLARY,KARNATAKA
"PRAGATHI KRISHNA GRAMIN BANK",PKGB0010674,NA,JEGARKAL,"THE MANAGER,PRAGATHI KRISHNA GRAMIN BANK,JEGARKAL BRANCH,RAICHUR TALUK,RAICHUR DISTRICT,PIN584 134",244111,RAICHUR,RAICHUR,KARNATAKA
"PRAGATHI KRISHNA GRAMIN BANK",PKGB0010673,584697004,JAWAHARNAGAR,"THE MANAGER,PRAGATHI KRISHNA GRAMIN BANK,JAWAHAR NAGAR BRANCH,RAICHUR TOWN - 584 101,RAICHUR TALUK,RAICHUR DISTRICT",240045,RAICHUR,RAICHUR,KARNATAKA
"PRAGATHI KRISHNA GRAMIN BANK",PKGB0010672,584697509,JALHALLI,"THE MANAGER,PRAGATHI KRISHNA GRAMIN BANK,JALAHALLI BRANCH,DEODURGA TALUK,RAICHUR DISTRICT,PIN584 116",265122,DEODURGA,RAICHUR,KARNATAKA
"PRAGATHI KRISHNA GRAMIN BANK",PKGB0010671,572697503,JAJUR,"THE MANAGER,PRAGATHI KRISHNA GRAMIN BANK,JAJUR BRANCH,CHALLAKERE TALUK,CHITRADURGA DISTRICT,PIN577 522",270001,CHALLAKERE,CHITRADURGA,KARNATAKA
"PRAGATHI KRISHNA GRAMIN BANK",PKGB0010670,577697540,JAGALUR,"THE MANAGER, PRAGATHI KRISHNA GRAMIN BANK,RUDRAMBIKA NILAYA,JAGALUR BRANCH -577 528, JAGALUR TALUK, DAVANAGERE DISTRICT",227316,JAGALUR,DAVANGERE,KARNATAKA
"PRAGATHI KRISHNA GRAMIN BANK",PKGB0010669,572697514,"J G HALLY","THE MANAGER,PRAGATHI KRISHNA GRAMIN BANK,J G HALLY BRANCH,HIRIYUR TALUK,CHITRADURGA DISTRICT,PIN577 511",276249,HIRIYUR,CHITRADURGA,KARNATAKA
"PRAGATHI KRISHNA GRAMIN BANK",PKGB0010668,583697593,ITAGIK,"THE MANAGER,PRAGATHI KRISHNA GRAMIN BANK,ITTAGI K BRANCH,YELBURGA TALUK, KOPPAL DISTRICT,PIN583 232",258826,YELBURGA,KOPPAL,KARNATAKA
"PRAGATHI KRISHNA GRAMIN BANK",PKGB0010667,583697554,ITTIGI,"THE MANAGER, PRAGATHI KRISHNA GRAMIN BANK,VENKATESWARA NILAYAITTAGI BRANCH HUVINAHADAGALI TALUK BELLARY DISTRICT 583 220",256465,HUVINAHADAGALI,BELLARY,KARNATAKA
"PRAGATHI KRISHNA GRAMIN BANK",PKGB0010666,583697579,IRAKALAGAD,"THE MANAGER,PRAGATHI KRISHNA GRAMIN BANK,IRKALAGADA BRANCH,KOPPAL TALUK &DISTRICT,PIN583 237",244456,KOPPAL,KOPPAL,KARNATAKA
"PRAGATHI KRISHNA GRAMIN BANK",PKGB0010665,583697547,HUVINAHADAGALI,"THE MANAGER, PRAGATHI KRISHNA GRAMIN BANK,HUVINA HADAGALI BRANCH HUVINA HADAGALI TALUKBELLARY DISTRICT PIN - 583 219",240270,HUVINAHADAGALI,BELLARY,KARNATAKA
"PRAGATHI KRISHNA GRAMIN BANK",PKGB0010664,584697538,HUTTI,"THE MANAGER,PRAGATHI KRISHNA GRAMIN BANK,HUTTI BRANCH,LINGASUGUR TALUK,RAICHUR DISTRICT,PIN - 583 203",276189,LINGASUGUR,RAICHUR,KARNATAKA
"PRAGATHI KRISHNA GRAMIN BANK",PKGB0010663,577697634,HUMCHADAKATTE,"THE MANAGER,PRAGATHI KRISHNA GRAMIN BANK, HUMCHADAKATTE BRANCH, THIRTHAHALLI TALUK,SHIVAMOGGA DISTRICT, PIN - 577 436,",251316,THIRTHAHALLI,SHIMOGA,KARNATAKA
"PRAGATHI KRISHNA GRAMIN BANK",PKGB0010662,563697528,HULADENAHALLI,"THE MANAGER, PRAGATHI KRISHNA GRAMIN BANK, HULUDENAHALLY BRANCH - 563 137, VIA TEKAL,MALUR ROAD, MALUR TALUK, KOLAR DISTRICT",237514,MALUR,KOLAR,KARNATAKA
"PRAGATHI KRISHNA GRAMIN BANK",PKGB0010661,563697521,HUDUKULA,"THE MANAGER, PRAGATHI KRISHNA GRAMIN BANK, HUDUKULA BRANCH, BANGARPET TALUK, KOLAR DISTRICT, PIN - 563 114",250245,BANGARPET,KOLAR,KARNATAKA
"PRAGATHI KRISHNA GRAMIN BANK",PKGB0010660,561697502,HUDUGUR,"THE MANAGER, PRAGATHI KRISHNA GRAMIN BANK, HUDUGUR BRANCH, GOWRIBIDANUR TALUK, CHIKKABALLAPURA DISTRICT, PIN - 561 206",290296,GOWRIBIDANUR,CHIKKABALLAPURA,KARNATAKA
"PRAGATHI KRISHNA GRAMIN BANK",PKGB0010659,562697508,HOSAPETE,"THE MANAGER, PRAGATHI KRISHNA GRAMIN BANK, JANGAMA KOTE CROSS, HOSAPETE BRANCH - 562 105, SIDLAGHATTA TALUK, CHIKKABALLAPURA DISTRICT",252050,SIDLAGHATTA,CHIKKABALLAPURA,KARNATAKA
"PRAGATHI KRISHNA GRAMIN BANK",PKGB0010658,577697637,HOSANAGARA,"THE MANAGER, PRAGATHI KRISHNA GRAMIN BANK, CHOWDAMMA ROAD,HOSANAGARA BRANCH,SHIVAMOGGA DISTRICT,PIN - 577 418,",221281,HOSANAGARA,SHIMOGA,KARNATAKA
"PRAGATHI KRISHNA GRAMIN BANK",PKGB0010657,577697527,HOSAKERE,"THE MANAGER, PRAGATHI KRISHNA GRAMIN BANK,HOSAKERE BRANCH, JAGALUR TALUK,DAVANAGERE DISTRICT, PIN - 577 528,",296949,JAGALUR,DAVANGERE,KARNATAKA
"PRAGATHI KRISHNA GRAMIN BANK",PKGB0010656,563697538,M.HOSAHALLI,"THE MANAGER, PRAGATHI KRISHNA GRAMIN BANK,HOSAHALLIBRANCHKUDLIGI TALUKBELLARY DISTRICTPIN - 583 218",229415,KUDLIGI,BELLARY,KARNATAKA
"PRAGATHI KRISHNA GRAMIN BANK",PKGB0010655,577697613,HOSADURGA,"THE MANAGER,PRAGATHI KRISHNA GRAMIN BANK,HOSADURGA BRANCH,HOSADURGA TALUK,CHITRADURGA DISTRICT,PIN - 577 527",230372,HOSADURGA,CHITRADURGA,KARNATAKA
"PRAGATHI KRISHNA GRAMIN BANK",PKGB0010654,577697651,HOSABALE,"THE MANAGER, PRAGATHI KRISHNA GRAMIN BANK, HOSABALE BRANCH, SORABA TALUK,SHIVAMOGGA DISTRICT, PIN - 577 434,",263478,SORABA,SHIMOGA,KARNATAKA
"PRAGATHI KRISHNA GRAMIN BANK",PKGB0010653,577697544,HONALI,"THE MANAGER,PRAGATHI KRISHNA GRAMIN BANK,NYAMATHI ROAD, HONNALI BRANCH , DAVANAGERE DISTRICT, PIN - 577 217,",251219,HONNALI,DAVANGERE,KARNATAKA
"PRAGATHI KRISHNA GRAMIN BANK",PKGB0010652,563697526,HOLUR,"THE MANAGER, PRAGATHI KRISHNA GRAMIN BANK, HOLUR BRANCH , VIA DALASANUR, KOLAR TALUK & DISTRICT, PIN - 563 126",238272,KOLAR,KOLAR,KARNATAKA
"PRAGATHI KRISHNA GRAMIN BANK",PKGB0010651,577697649,HOLEHONNUR,HOLEHONNUR,235666,BHADRAVATHI,SHIMOGA,KARNATAKA
"PRAGATHI KRISHNA GRAMIN BANK",PKGB0010650,577697617,HOLALKERE,"THE MANAGER,PRAGATHI KRISHNA GRAMIN BANK,HOLALKERE BRANCH,HOLALKERE TALUK,CHITRADURGA DISTRICT,PIN - 577 526",275212,HOLALKERE,CHITRADURGA,KARNATAKA
"PRAGATHI KRISHNA GRAMIN BANK",PKGB0010649,583697576,HITTNAL,"THE MANAGER,PRAGATHI KRISHNA GRAMIN BANK,HITNAL BRANCH,KOPPAL TALUK &DISTRICT,PIN - 583 234",274752,KOPPAL,KOPPAL,KARNATAKA
"PRAGATHI KRISHNA GRAMIN BANK",PKGB0010648,572697302,HIRIYUR,"THE MANAGER,PRAGATHI KRISHNA GRAMIN BANK,HIRIYUR BRANCH,HIRIYUR TALUK,CHITRADURGA DISTRICT,PIN - 572 143",263484,HIRIYUR,CHITRADURGA,KARNATAKA
"PRAGATHI KRISHNA GRAMIN BANK",PKGB0010647,583697594,HIREVANKALAKUNTA,"THE MANAGER,PRAGATHI KRISHNA GRAMIN BANK,HIREVANKALA KUNTA BR,YELBURGA TALUK,KOPPAL DISTRICT, PIN - 583 237",247369,YELBURGA,KOPPAL,KARNATAKA
"PRAGATHI KRISHNA GRAMIN BANK",PKGB0010646,583697577,HIRESINDOGI,"THE MANAGER, PRAGATHI KRISHNA GRAMIN BANK,HIRESINDOGI BRANCH,KOPPAL TALUK &DISTRICT, PIN - 583 231",275144,KOPPAL,KOPPAL,KARNATAKA
"PRAGATHI KRISHNA GRAMIN BANK",PKGB0010645,583697587,HIREMANNAPUR,"THE MANAGER, PRAGATHI KRISHNA GRAMIN BANK,HIREMANNAPURA,KUSTAGI TALUK,KOPPAL DISTRICT,PIN - 584 121",286067,KUSTAGI,KOPPAL,KARNATAKA
"PRAGATHI KRISHNA GRAMIN BANK",PKGB0010644,577697515,HIREMAGALAGERE,HIREMAGALAGERE,260162,HARAPANAHALLY,DAVANGERE,KARNATAKA
"PRAGATHI KRISHNA GRAMIN BANK",PKGB0010643,583697302,GANGAVATHI,"THE MANAGER, PRAGATHI KRISHNA GRAMIN BANK,1ST FLOOR,NEAR N K TEMPLE, BUS STAND ROAD,GANGAVATHI TOWN - 583227, KOPPAL DISTRICT",230930,GANGAVATHI,KOPPAL,KARNATAKA
"PRAGATHI KRISHNA GRAMIN BANK",PKGB0010642,577697610,HIREHALLY,"THE MANAGER,PRAGATHI KRISHNA GRAMIN BANK,HIREHALLY BRANCH,CHALLAKERE TALUK,CHITRADURGA DISTRICT,PIN - 577 529",204001,CHALLAKERE,CHITRADURGA,KARNATAKA
"PRAGATHI KRISHNA GRAMIN BANK",PKGB0010641,583697543,HIREHADAGALI,"THE MANAGER, PRAGATHI KRISHNA GRAMIN BANK,HIREHADAGALI BRANCHHUVINAHADAGALI TALUKBELLARY DISTRICT PIN - 583 216",250242,HUVINAHADAGALI,BELLARY,KARNATAKA
"PRAGATHI KRISHNA GRAMIN BANK",PKGB0010640,577697562,HIREGUNTANUR,"THE MANAGER,PRAGATHI KRISHNA GRAMIN BANK,HIREGUNTANUR BRANCH,CHITRADURGA TALUK,CHITRADURGA DISTRICT,PIN - 577 520",262286,CHITRADURGA,CHITRADURGA,KARNATAKA
"PRAGATHI KRISHNA GRAMIN BANK",PKGB0010639,583697565,HERUR,"THE MANAGER,PRAGATHI KRISHNA GRAMIN BANK, HEROOR BRANCH,GANGAVATHI TALUK,KOPPAL DISTRICT, PIN - 583 227",201188,GANGAVATHI,KOPPAL,KARNATAKA
"PRAGATHI KRISHNA GRAMIN BANK",PKGB0010638,563697514,HEBBANI,"THE MANAGER, PRAGATHI KRISHNA GRAMIN BANK, HEBBANI BRANCH, MULBAGALU TALUK, KOLAR DISTRICT , PIN - 563 131",241008,MULBAGALU,KOLAR,KARNATAKA
"PRAGATHI KRISHNA GRAMIN BANK",PKGB0010637,577697538,HEBBALU,"THE MANAGER, PRAGATHI KRISHNA GRAMIN BANK,HEBBALU BRANCH, DAVANAGERE TALUK & DISTRICT,PIN - 577 556,",202094,DAVANGERE,DAVANGERE,KARNATAKA
"PRAGATHI KRISHNA GRAMIN BANK",PKGB0010636,583697514,HACHOLI,"THE MANAGER, PRAGATHI KRISHNA GRAMIN BANK,HATCHOLLI BRANCH SIRUGUPPA TALUKBELLARY DISTRICTPIN - 583 114",241617,SIRUGUPPA,BELLARY,KARNATAKA
"PRAGATHI KRISHNA GRAMIN BANK",PKGB0010635,577697646,HAROGOPPA,"THE MANAGER,PRAGATHI KRISHNA GRAMIN BANK,HAROGOPPA BRANCH, SHIKARIPURA TALUK, SHIVAMOGGA DISTRICT, PIN -577 214,",290650,SHIKARIPURA,SHIMOGA,KARNATAKA
"PRAGATHI KRISHNA GRAMIN BANK",PKGB0010634,577697641,HARISHI,"THE MANAGER, PRAGATHI KRISHNA GRAMIN BANK,HARISHI BRANCH, SORABA TALUK, SHIVAMOGGA DISTRICT, PIN - 577 429,",253210,SORABA,SHIMOGA,KARNATAKA
"PRAGATHI KRISHNA GRAMIN BANK",PKGB0010633,577697602,HARIHAR,"THE MANAGER, PRAGATHI KRISHNA GRAMIN BANK, RPN COMPLEX, P B ROAD,HARIHARA BRANCH,DAVANAGERE DISTRICT, PIN - 577 601,",242763,HARIHARA,DAVANGERE,KARNATAKA
"PRAGATHI KRISHNA GRAMIN BANK",PKGB0010632,572697507,HARIYABBE,"THE MANAGER,PRAGATHI KRISHNA GRAMIN BANK,HARIYABBE BRANCH,HIRIYUR TALUK,CHITRADURGA DISTRICT,PIN -577 546",278172,HIRIYUR,CHITRADURGA,KARNATAKA
"PRAGATHI KRISHNA GRAMIN BANK",PKGB0010631,583697549,HARIVI,"THE MANAGER, PRAGATHI KRISHNA GRAMIN BANK,HARAVI BRANCH VIA HOLALU HUVINAHADAGALITALUK BELLAR Y DISTRICTPIN - 583 217",218824,HUVINAHADAGALI,BELLARY,KARNATAKA
"PRAGATHI KRISHNA GRAMIN BANK",PKGB0010630,563697523,HARATI,"THE MANAGER, PRAGATHI KRISHNA GRAMIN BANK, HARATI BRANCH, KOLAR TALUK, KOLAR DISTRICT, PIN - 563 102",234673,KOLAR,KOLAR,KARNATAKA
"PRAGATHI KRISHNA GRAMIN BANK",PKGB0010629,584697529,HARAPURA,"THE MANAGER,PRAGATHI KRISHNA GRAMIN BANK,HARAPURA BRANCH,SINDHANUR TALUK,RAICHUR DISTRICT,PIN - 584 128",266046,SINDHANUR,RAICHUR,KARNATAKA
"PRAGATHI KRISHNA GRAMIN BANK",PKGB0010628,577697520,HARAPANAHALLI,"THE MANAGER,PRAGATHI KRISHNA GRAMIN BANK,CHANDRAMOULISWAMY BLDG,OPP BUSSTAND,TALKIES RD, HARAPANAHALLI - 583 131",280260,HARAPANAHALLY,DAVANGERE,KARNATAKA
"PRAGATHI KRISHNA GRAMIN BANK",PKGB0010627,583697610,HANUMASAGAR,"THE MANAGER,PRAGATHI KRISHNA GRAMIN BANK,HANUMA SAGARA BRANCH,KUSTAGI TALUK,KOPPAL DISTRICT,PIN - 584 114",270111,KUSTAGI,KOPPAL,KARNATAKA
"PRAGATHI KRISHNA GRAMIN BANK",PKGB0010626,583697586,HANUMANHAL,"THE MANAGER,PRAGATHI KRISHNA GRAMIN BANK, HANUMANAHAL BRANCH,KUSTAGI TALUK, KOPPAL DISTRICT ,PIN - 584 166",289622,KUSTAGI,KOPPAL,KARNATAKA
"PRAGATHI KRISHNA GRAMIN BANK",PKGB0010625,583697528,HANSI,"THE MANAGER, PRAGATHI KRISHNA GRAMIN BANK,HANSI BRANCHH. B. HALLY TALUK BELLARY DISTRICT PIN - 583 135",233910,HAGARIBOMMANAHALLI,BELLARY,KARNATAKA
"PRAGATHI KRISHNA GRAMIN BANK",PKGB0010624,583697572,HANAWAL,"THE MANAGER, PRAGATHI KRISHNA GRAMIN BANK,HANAWAL BRANCH,GANGAVATHI TALUK,KOPPAL DISTRICT,PIN - 584 130",278258,GANGAVATHI,KOPPAL,KARNATAKA
"PRAGATHI KRISHNA GRAMIN BANK",PKGB0010623,577697616,HANAGAL,"THE MANAGER,PRAGATHI KRISHNA GRAMIN BANK,HANAGAL BRANCH,MOLAKALMURU TALUK,CHITRADURGA DISTRICT,PIN - 577 535",229449,MOLAKALMURU,CHITRADURGA,KARNATAKA
"PRAGATHI KRISHNA GRAMIN BANK",PKGB0010622,583697525,HAMPASAGAR,"THE MANAGER, PRAGATHI KRISHNA GRAMIN BANK,HAMPA SAGARA BRANCH H B HALLY TALUK BELLARY DISTRICT PIN - 583 214",233542,HAGARIBOMMANAHALLI,BELLARY,KARNATAKA
"PRAGATHI KRISHNA GRAMIN BANK",PKGB0010621,583697526,HAMPAPATNA,"THE MANAGER, PRAGATHI KRISHNA GRAMIN BANK,HAMPA PATNA BRANCHH B HALLY TALUKBELLARY DISTRICT PIN - 583 222",249749,HAGARIBOMMANAHALLI,BELLARY,KARNATAKA
"PRAGATHI KRISHNA GRAMIN BANK",PKGB0010620,577697514,HALAVAGALU,"THE MANAGER, PRAGATHI KRISHNA GRAMIN BANK, HALAVAGALU BRANCH, HARAPANAHALLI TALUK, DAVANAGERE DISTRICT, PIN - 583 213,644",272024,HARAPANAHALLY,DAVANGERE,KARNATAKA
"PRAGATHI KRISHNA GRAMIN BANK",PKGB0010619,583697582,HALAGERA,"THE MANAGER,PRAGATHI KRISHNA GRAMIN BANK,HALAGERA BRANCH, KOPPAL TALUK &DISTRICT,PIN - 583 231",280322,KOPPAL,KOPPAL,KARNATAKA
"PRAGATHI KRISHNA GRAMIN BANK",PKGB0010618,577697564,HAIKAL,"THE MANAGER,PRAGATHI KRISHNA GRAMIN BANK,HAIKAL BRANCH,CHITRADURGA TALUK,CHITRADURGA DISTRICT,PIN - 577 517",216628,CHITRADURGA,CHITRADURGA,KARNATAKA
"PRAGATHI KRISHNA GRAMIN BANK",PKGB0010617,583697527,"OLD HAGARIBOMMANAHALLI","THE MANAGER, PRAGATHI KRISHNA GRAMIN BANK,1ST FLOOR BASAVESWARA BAZAR HAGARIBOMMANAHALLI BELLARY DISTRICT PIN - 583 212",238275,HAGARIBOMMANAHALLI,BELLARY,KARNATAKA
"PRAGATHI KRISHNA GRAMIN BANK",PKGB0010616,577697563,"H D PURA","THE MANAGER,PRAGATHI KRISHNA GRAMIN BANK,H D PURA BRANCH,HOLALKERE TALUK,CHITRADURGA DISTRICT,PIN - 577 577",281407,HOLALKERE,CHITRADURGA,KARNATAKA
"PRAGATHI KRISHNA GRAMIN BANK",PKGB0010615,562697510,H.CROSS,"THE MANAGER, PRAGATHI KRISHNA GRAMIN BANK, 1ST FLOOR,VIA NANDA GUDI, H CROSS BRANCH - 562 122, HINDIGINALA POST, SIDLAGHATTA TQ,C B PURA DIST",259278,SIDLAGHATTA,CHIKKABALLAPURA,KARNATAKA
"PRAGATHI KRISHNA GRAMIN BANK",PKGB0010614,584697530,GURUGUNTA,"THE MANAGER,PRAGATHI KRISHNA GRAMIN BANK,GURUGUNTA BRANCH,LINGASUGUR TALUK,RAICHUR DISTRICT,PIN - 584 139",285056,LINGASUGUR,RAICHUR,KARNATAKA
"PRAGATHI KRISHNA GRAMIN BANK",PKGB0010613,584697002,"RAICHUR GUNJ","THE MANAGER,PRAGATHI KRISHNA GRAMIN BANK,1ST FLOOR,RAJENDRA GUNJ,NEAR CHANDRAKANTHA TALKIES,RAICHUR TOWN - 584 102,RAICHUR DISTRICT",235125,RAICHUR,RAICHUR,KARNATAKA
"PRAGATHI KRISHNA GRAMIN BANK",PKGB0010612,562697514,GUDIBANDE,"THE MANAGER, PRAGATHI KRISHNA GRAMIN BANK,B BLOCK,OPPPWD QUART, GUDIBANDE TOWN",261285,GUDIBANDE,CHIKKABALLAPURA,KARNATAKA
"PRAGATHI KRISHNA GRAMIN BANK",PKGB0010611,561697202,GAURIBIDANUR,"THE MANAGER, PRAGATHI KRISHNA GRAMIN BANK, 1ST FLOOR,B H ROAD, KARNATAKA SUPPLIERS BLDG, GOWRIBIDANUR - 561 208, CHIKKABALLAPURA DIST",285262,GOWRIBIDANUR,CHIKKABALLAPURA,KARNATAKA
"PRAGATHI KRISHNA GRAMIN BANK",PKGB0010610,584697522,GOREBAL,"THE MANAGER,PRAGATHI KRISHNA GRAMIN BANK,GOREBAL BRANCH - 584 128,HANCHINAL CAMP POST,SINDHANUR TALUK,RAICHUR DISTRICT",277050,SINDHANUR,RAICHUR,KARNATAKA
"PRAGATHI KRISHNA GRAMIN BANK",PKGB0010609,577697583,GODABANAHAL,"THE MANAGER,PRAGATHI KRISHNA GRAMIN BANK,GODABANAHAL BRANCH,CHITRADURGA TALUK,CHITRADURGA DISTRICT,PIN - 577 521",256287,CHITRADURGA,CHITRADURGA,KARNATAKA
"PRAGATHI KRISHNA GRAMIN BANK",PKGB0010608,583697578,GINIGERA,"THE MANAGER, PRAGATHI KRISHNA GRAMIN BANK, GINIGERA BRANCH, KOPPAL TALUK & DISTRICT,PIN 0 583 232",286621,KOPPAL,KOPPAL,KARNATAKA
"PRAGATHI KRISHNA GRAMIN BANK",PKGB0010607,584697505,GILLESUGUR,"THE MANAGER,PRAGATHI KRISHNA GRAMIN BANK,GILLESUGUR BRANCH,RAICHUR TALUK,RAICHUR DISTRICT,PIN - 584 140",281116,RAICHUR,RAICHUR,KARNATAKA
"PRAGATHI KRISHNA GRAMIN BANK",PKGB0010606,583697504,GENKEHAL,"THE MANAGER, PRAGATHI KRISHNA GRAMIN BANK,GENIKEHAL BRANCHBELLARYTALUKBELLARY DISTRICT PIN - 583 116",263681,BELLARY,BELLARY,KARNATAKA
"PRAGATHI KRISHNA GRAMIN BANK",PKGB0010605,583697103,"GANDHINAGAR BELLARY","THE MANAGER, PRAGATHI KRISHNA GRAMIN BANK,SOWRABHA 2ND CROSSGANDHINAGARBELLARY TOWN - 583 103 BELLARY TALUK & DIST",256382,BELLARY,BELLARY,KARNATAKA
"PRAGATHI KRISHNA GRAMIN BANK",PKGB0010604,584697557,"GANDHINAGAR R","THE MANAGER,PRAGATHI KRISHNA GRAMIN BANK,GANDHINAGARR ,SINDHANUR TALUK",270050,SINDHANUR,RAICHUR,KARNATAKA
"PRAGATHI KRISHNA GRAMIN BANK",PKGB0010603,584697510,GALAG,"THE MANAGER,PRAGATHI KRISHNA GRAMIN BANK,GALAG BRANCH,DEODURGA TALUK,RAICHUR DISTRICT,PIN - 584 116",209051,DEODURGA,RAICHUR,KARNATAKA
"PRAGATHI KRISHNA GRAMIN BANK",PKGB0010602,584697507,GABBUR,"THE MANAGER,PRAGATHI KRISHNA GRAMIN BANK,GABBUR BRANCH,DEODURGA TALUK,RAICHUR DISTRICT ,PIN - 584 113",275263,DEODURGA,RAICHUR,KARNATAKA
"PRAGATHI KRISHNA GRAMIN BANK",PKGB0010601,577697584,"G R HALLI","G R HALLI,CHITRADURGA",202635,CHITRADURGA,CHITRADURGA,KARNATAKA
"PRAGATHI KRISHNA GRAMIN BANK",PKGB0010600,583697583,DOTHIHAL,"THE MANAGER, PRAGATHI KRISHNA GRAMIN BANK, DOTHIHAL BRANCH,KUSTAGI TALUK, KOPPAL DISTRICT,PIN - 583 112",265016,KUSTAGI,KOPPAL,KARNATAKA
"PRAGATHI KRISHNA GRAMIN BANK",PKGB0010599,584697504,DONGARAMPUR,"THE MANAGER,PRAGATHI KRISHNA GRAMIN BANK,DONGARAMPURA BRANCH,VIA YARAMARAS CAMP,RAICHUR TALUK & DIST,PIN - 584 134",280611,RAICHUR,RAICHUR,KARNATAKA
"PRAGATHI KRISHNA GRAMIN BANK",PKGB0010598,577697580,DODDAULLARTHY,"THE MANAGER,PRAGATHI KRISHNA GRAMIN BANK,DODDAULLARTHY BRANCH,CHALLAKERE TALUK,CHITRADURGA DISTRICT,PIN - 577 537",261100,CHALLAKERE,CHITRADURGA,KARNATAKA
"PRAGATHI KRISHNA GRAMIN BANK",PKGB0010597,562697503,DIBBUR,"THE MANAGER, PRAGATHI KRISHNA GRAMIN BANK, DIBBUR BRANCH, CHIKKABALLAPURA TALUK, CHIKKABALLAPURA DISTRICT, PIN - 562 101",276018,CHIKKABALLAPURA,CHIKKABALLAPURA,KARNATAKA
"PRAGATHI KRISHNA GRAMIN BANK",PKGB0010596,583697536,DHARMASAGARA,"THE MANAGER, PRAGATHI KRISHNA GRAMIN BANK,DHARMASAGARA BRANCHHOSPET TALUKBELLARY DISTRICTPIN - 583 223",212259,HOSPET,BELLARY,KARNATAKA
"PRAGATHI KRISHNA GRAMIN BANK",PKGB0010595,572697501,DHARMAPURA,"THE MANAGER,PRAGATHI KRISHNA GRAMIN BANK,DHARMAPURA BRANCH,HIRIYUR TALUK,CHITRADURGA DISTRICT,PIN - 577 546",278190,HIRIYUR,CHITRADURGA,KARNATAKA
"PRAGATHI KRISHNA GRAMIN BANK",PKGB0010594,584697527,DHADESUGUR,"THE MANAGER,PRAGATHI KRISHNA GRAMIN BANK,DHADESUGUR BRANCH,SINDHANUR TALUK,RAICHUR DISTRICT,PIN - 584 167",284024,SINDHANUR,RAICHUR,KARNATAKA
"PRAGATHI KRISHNA GRAMIN BANK",PKGB0010593,577697591,DEVIGERE,"THE MANAGER,PRAGATHI KRISHNA GRAMIN BANK, DEVIGERE BRANCH, JAGALUR TALUK,DAVANGERE DISTRICT, PIN - 577 553,",287467,JAGALUR,DAVANGERE,KARNATAKA
"PRAGATHI KRISHNA GRAMIN BANK",PKGB0010592,583697535,DEVASAMUDRA,"THE MANAGER, PRAGATHI KRISHNA GRAMIN BANK,DEVASAMUDRA BRANCH HOSPET TALUK BELLARY DISTRICT PIN - 583 129",243296,HOSPET,BELLARY,KARNATAKA
"PRAGATHI KRISHNA GRAMIN BANK",PKGB0010591,584697506,DEODURG,"THE MANAGER,PRAGATHI KRISHNA GRAMIN BANK,NEAR HOSPITAL,DEODURGA TOWN - 584 111,DEODURGA TALUK,RAICHUR DISTRICT",260029,DEODURGA,RAICHUR,KARNATAKA
"PRAGATHI KRISHNA GRAMIN BANK",PKGB0010590,577697002,"P J EXTENSION DVG","78/5 1ST FLOOR, RAITHRA BEEDI ,AKKAMAHADEVI ROAD,DAVNGERE",250694,DAVANGERE,DAVANGERE,KARNATAKA
"PRAGATHI KRISHNA GRAMIN BANK",PKGB0010589,NA,"HOSPET DAM ROAD","THE MANAGER, PRAGATHI KRISHNA GRAMIN BANK,1ST FLOOR MANJUNATHA COMPLEXDAM ROAD BRANCHHOSPET TOWN - 583 201BELLARY DISTRICT",265936,HOSPET,BELLARY,KARNATAKA
"PRAGATHI KRISHNA GRAMIN BANK",PKGB0010588,563697533,DALASANUR,"THE MANAGER, PRAGATHI KRISHNA GRAMIN BANK, DALASANUR BRANCH, SRINIVASAPURA TALUK, KOLAR DISTRICT, PIN - 563 126",249570,SRINIVASPURA,KOLAR,KARNATAKA
"PRAGATHI KRISHNA GRAMIN BANK",PKGB0010587,577697595,"DT VATTY","THE MANAGER,PRAGATHI KRISHNA GRAMIN BANK,DTVATTY,HOSADURGA TALUK,CHITRADURGA DISTRICT,PIN - 577 533",285672,HOSADURGA,CHITRADURGA,KARNATAKA
"PRAGATHI KRISHNA GRAMIN BANK",PKGB0010586,577697600,"D S HALLY","D S HALLY,CHITRADURGA TQ",246151,CHITRADURGA,CHITRADURGA,KARNATAKA
"PRAGATHI KRISHNA GRAMIN BANK",PKGB0010585,577697534,DEVARABELAKERE,"THE MANAGER,PRAGATHI KRISHNA GRAMIN BANK, D B KERE BRANCH, HARIHARA TALUK, DAVANGERE DISTRICT, PIN - 577 002,",293136,HARIHARA,DAVANGERE,KARNATAKA
"PRAGATHI KRISHNA GRAMIN BANK",PKGB0010584,583697106,"COWL BAZAR","THE MANAGER, PRAGATHI KRISHNA GRAMIN BANK,JUMMA MASJID COMPLEXCOUL BAZAR BELLARY TOWN583 102BELLARY DISTRICT",240395,BELLARY,BELLARY,KARNATAKA
"PRAGATHI KRISHNA GRAMIN BANK",PKGB0010583,583697205,"COLLEGE ROAD HOSPET","THE MANAGER, PRAGATHI KRISHNA GRAMIN BANK,NEAR SHANBHOGE CIRCLE COLLEGE ROADHOSPET TOWN PIN583 201",227257,HOSPET,BELLARY,KARNATAKA
"PRAGATHI KRISHNA GRAMIN BANK",PKGB0010582,583697521,CHORANUR,"THE MANAGER, PRAGATHI KRISHNA GRAMIN BANK,CHORNUR BRANCH SANDUR TALUK BELLARY DISTRICT PIN583 128",272501,SANDUR,BELLARY,KARNATAKA
"PRAGATHI KRISHNA GRAMIN BANK",PKGB0010581,563697302,CHINTAMANI,"THE MANAGER, PRAGATHI KRISHNA GRAMIN BANK, NANDI COMPLEX,VASAVI CHOULTRY RD, CHINTHAMANI TOWN, CHIKKABALLAPURA DISTRICT, PIN563 125",252246,CHINTAMANI,CHIKKABALLAPURA,KARNATAKA
"PRAGATHI KRISHNA GRAMIN BANK",PKGB0010580,563697547,CHILAKALLANERPU,"THE MANAGER, PRAGATHI KRISHNA GRAMIN BANK, CHILAKALANERPU BRANCH, CHINTHAMANI TALUK, CHIKKABALLAPURA DIST, PIN563 153",256001,CHINTAMANI,CHIKKABALLAPURA,KARNATAKA
"PRAGATHI KRISHNA GRAMIN BANK",PKGB0010579,577697589,CHIKKAYAMMIGANUR,"THE MANAGER,PRAGATHI KRISHNA GRAMIN BANK,CHIKKAYAMMIGANUR BR,HOLALKERE TALUK,CHITRADURGA DISTRICT,PIN577 523",207250,HOLALKERE,CHITRADURGA,KARNATAKA
"PRAGATHI KRISHNA GRAMIN BANK",PKGB0010578,577697594,CHIKKABENNUR,"THE MANAGER,PRAGATHI KRISHNA GRAMIN BANK,CHIKKABANNUR BRANCH,CHITRADURGA TALUK,CHITRADURGA DISTRICT,PIN577 541",245853,CHITRADURGA,CHITRADURGA,KARNATAKA
"PRAGATHI KRISHNA GRAMIN BANK",PKGB0010577,562697002,CHICKBALLAPUR,"THE MANAGER, PRAGATHI KRISHNA GRAMIN BANK, TAPCMS COMPLEX,B B ROAD, , CHIKKABALLAPURA TOWN, CHIKKABALLAPURA DISTRICT, PIN562 101",271015,CHIKKABALLAPURA,CHIKKABALLAPURA,KARNATAKA
"PRAGATHI KRISHNA GRAMIN BANK",PKGB0010576,584697521,CHIKALAPARVI,"THE MANAGER,PRAGATHI KRISHNA GRAMIN BANK,CHIKALAPARVI BRANCH,MANVI TALUK,RAICHUR DISTRICT,PIN584 123",202722,MANVI,RAICHUR,KARNATAKA
"PRAGATHI KRISHNA GRAMIN BANK",PKGB0010575,577697512,CHIGATERI,"THE MANAGER,PRAGATHI KRISHNA GRAMIN BANK,CHIGATERI BRANCH, HARAPANAHALLI TALUK, DAVANAGERE DISTRICT, PIN584 127,",274893,HARAPANAHALLY,DAVANGERE,KARNATAKA
"PRAGATHI KRISHNA GRAMIN BANK",PKGB0010574,562697513,CHELUR,"THE MANAGER, PRAGATHI KRISHNA GRAMIN BANK, CHELUR BRANCH, BAGEPALLI TALUK, CHIKKABALLAPURA DIST, PIN563 124",280172,BAGEPALLI,CHIKKABALLAPURA,KARNATAKA
"PRAGATHI KRISHNA GRAMIN BANK",PKGB0010573,583697571,CHELLUR,"THE MANAGER,PRAGATHI KRISHNA GRAMIN BANK,CHELLUR BRANCH,GANGAVATHI TALUK, KOPPAL DISTRICT,PIN583 117",258447,GANGAVATHI,KOPPAL,KARNATAKA
"PRAGATHI KRISHNA GRAMIN BANK",PKGB0010572,583697503,CHELLAGURKI,"THE MANAGER, PRAGATHI KRISHNA GRAMIN BANK,CHELLAGURKE BRANCHBELLARY TALUK BELLARY DISTRICTPIN583 111",295452,BELLARY,BELLARY,KARNATAKA
"PRAGATHI KRISHNA GRAMIN BANK",PKGB0010571,562697507,CHEEMANGALA,"THE MANAGER, PRAGATHI KRISHNA GRAMIN BANK, CHEEMANGALA BRANCH, SIDLAGHATTA TALUK, CHIKKABALLAPURA DISTRICT, PIN562 102",257487,SIDLAGHATTA,CHIKKABALLAPURA,KARNATAKA
"PRAGATHI KRISHNA GRAMIN BANK",PKGB0010570,577697545,CHANNAGIRI,"THE MANAGER, PRAGATHI KRISHNA GRAMIN BANK, MURUGHARAJENDRA COMPLEX, CHANNAGIRI TOWN,DAVANGERE DISTRICT, PIN577 213,",228186,CHANNAGIRI,DAVANGERE,KARNATAKA
"PRAGATHI KRISHNA GRAMIN BANK",PKGB0010569,584697501,CHANDRABANDA,"THE MANAGER,PRAGATHI KRISHNA GRAMIN BANK,CHANDRABANDA BRANCH,RAICHUR TALUK,RAICHUR DISTRICT,PIN584 102",280193,RAICHUR,RAICHUR,KARNATAKA
"PRAGATHI KRISHNA GRAMIN BANK",PKGB0010568,577697612,CHALLAKERE,"THE MANAGER,PRAGATHI KRISHNA GRAMIN BANK,BANGALORE ROAD,CHALLAKERE TOWN,CHITRADURGA DISTRICT,PIN577 522",222358,CHALLAKERE,CHITRADURGA,KARNATAKA
"PRAGATHI KRISHNA GRAMIN BANK",PKGB0010567,583697589,CHALGERA,"THE MANAGER, PRAGATHI KRISHNA GRAMIN BANK, CHALAGERA BRANCH,KUSTAGI TALUK,KOPPAL DISTRICT,PIN584 120",288119,KUSTAGI,KOPPAL,KARNATAKA
"PRAGATHI KRISHNA GRAMIN BANK",PKGB0010566,577697575,"CHITRANAYAKANA HALLY","THE MANAGER,PRAGATHI KRISHNA GRAMIN BANK,CHITRANAYAKANA HALLY,CHALLAKERE TALUK,CHITRADURGA DISTRICT,PIN563 161",200042,CHALLAKERE,CHITRADURGA,KARNATAKA
"PRAGATHI KRISHNA GRAMIN BANK",PKGB0010565,577697630,CHIKKAGONDANAHALLI,"THE MANAGER,PRAGATHI KRISHNA GRAMIN BANK,CHIKKAGONDANAHALLI BRANCH,CHITRADURGA TALUK,CHITRADURGA DISTRICT,PIN563 161",252032,CHITRADURGA,CHITRADURGA,KARNATAKA
"PRAGATHI KRISHNA GRAMIN BANK",PKGB0010564,572697502,BYADARAHALLY,"THE MANAGER,PRAGATHI KRISHNA GRAMIN BANK,BYEDARAHALLY BRANCH,HIRIYUR TALUK,CHITRADURGA DISTRICT,PIN577 546",206197,HIRIYUR,CHITRADURGA,KARNATAKA
"PRAGATHI KRISHNA GRAMIN BANK",PKGB0010563,563697546,BURUDUGUNTE,"THE MANAGER, PRAGATHI KRISHNA GRAMIN BANK, BURUDUGUNTE BRANCH, CHINTHAMANI TALUK, CHIKKABALLAPURA DISTRICT, PIN563 159",247624,CHINTAMANI,CHIKKABALLAPURA,KARNATAKA
"PRAGATHI KRISHNA GRAMIN BANK",PKGB0010562,583697581,BUDUGUMPAK,"THE MANAGER,PRAGATHI KRISHNA GRAMIN BANK,BUDUGUMPA K, BRANCH,KOPPAL TALUK &DISTRICT, PIN583 228",277772,KOPPAL,KOPPAL,KARNATAKA
"PRAGATHI KRISHNA GRAMIN BANK",PKGB0010561,583697573,BUDUGUMPAG,"THE MANAGER,PRAGATHI KRISHNA GRAMIN BANK,BUDUGUMPA G BRANCH,GANGAVATHI TALUK,KOPPAL DISTRICT, PIN583 229",275810,GANGAVATHI,KOPPAL,KARNATAKA
"PRAGATHI KRISHNA GRAMIN BANK",PKGB0010560,584697528,"BOODIVAL CAMP","THE MANAGER,PRAGATHI KRISHNA GRAMIN BANK,BOODIVAL CAMP BRANCH,SINDHANUR TALUK,RAICHUR DISTRICT,PIN584 167",256824,SINDHANUR,RAICHUR,KARNATAKA
"PRAGATHI KRISHNA GRAMIN BANK",PKGB0010559,577697528,BIDARAKERE,"THE MANAGER,PRAGATHI KRISHNA GRAMIN BANK,BIDARKERE BRANCH, JAGALUR TALUK, DAVANGERE DISTRICT, PIN577 521,",269677,JAGALUR,DAVANGERE,KARNATAKA
"PRAGATHI KRISHNA GRAMIN BANK",PKGB0010558,583697403,"BHAGYANAGAR KOPPAL","THE MANAGER, PRAGATHI KRISHNA GRAMIN BANK, BHAGYANAGARBRANCH,KOPPAL TALUK &DISTRICT,PIN538 213",234129,KOPPAL,KOPPAL,KARNATAKA
"PRAGATHI KRISHNA GRAMIN BANK",PKGB0010557,577697204,BHADRAVATHI,"THE MANAGER, PRAGATHI KRISHNA GRAMIN BANK,1ST FLOOR, TALUK OFFICE ROAD, BHADRAVATHI TOWN,SHIVAMOGGA DISTRICT, PIN577 301,",269389,BHADRAVATHI,SHIMOGA,KARNATAKA
"PRAGATHI KRISHNA GRAMIN BANK",PKGB0010556,583697592,BEVOOR,"THE MANAGER,PRAGATHI KRISHNA GRAMIN BANK, BEVOOR BRANCH,YELBURGA TALUK,KOPPAL DISTRICT, PIN583 237",227617,YELBURGA,KOPPAL,KARNATAKA
"PRAGATHI KRISHNA GRAMIN BANK",PKGB0010555,577697539,BETHUR,"THE MANAGER,PRAGATHI KRISHNA GRAMIN BANK,BETHUR BRANCH, DAVANAGERE TALUK & DISTIRCT,PIN577 002,",277114,DAVANGERE,DAVANGERE,KARNATAKA
"PRAGATHI KRISHNA GRAMIN BANK",PKGB0010554,577697543,BENAKANAHALLI,"THE MANAGER, PRAGATHI KRISHNA GRAMIN BANK, BENAKANAHALLIBRANCH, HONNALI TALUK,DAVANAGERE DISTRICT, PIN577 224,",242528,HONNALI,DAVANGERE,KARNATAKA
"PRAGATHI KRISHNA GRAMIN BANK",PKGB0010553,577697533,BELLODI,"THE MANAGER,PRAGATHI KRISHNA GRAMIN BANK,BELLODI BRANCH, HARIHARA TALUK, DAVANAGERE DISTRICT,PIN577 601,",280548,HARIHARA,DAVANGERE,KARNATAKA
"PRAGATHI KRISHNA GRAMIN BANK",PKGB0010552,583697204,"BELLARY ROADHOSPET","THE MANAGER, PRAGATHI KRISHNA GRAMIN BANK,D NO.39/1 1ST FLOOR J P NAGARBELLARY ROAD BRANCHHOSPET TOWN583 201 BELLARY DISTRICT",265936,HOSPET,BELLARY,KARNATAKA
"PRAGATHI KRISHNA GRAMIN BANK",PKGB0010551,563697539,BELAMARANAHALLI,BELAMARANAHALLI,231092,KOLAR,KOLAR,KARNATAKA
"PRAGATHI KRISHNA GRAMIN BANK",PKGB0010550,577697578,BELAGERE,"THE MANAGER,PRAGATHI KRISHNA GRAMIN BANK,BELAGERE BRANCH,CHALLAKERE TALUK,CHITRADURGA DISTRICT,PIN577 522",266556,CHALLAKERE,CHITRADURGA,KARNATAKA
"PRAGATHI KRISHNA GRAMIN BANK",PKGB0010549,562697509,BILLUR,"THE MANAGER, PRAGATHI KRISHNA GRAMIN BANK, BILLUR BRANCH, BAGEPALLI TALUK, CHIKKABALLAPURA DIST, PIN563 124",288850,BAGEPALLI,CHIKKABALLAPURA,KARNATAKA
"PRAGATHI KRISHNA GRAMIN BANK",PKGB0010548,562697506,BASETTIHALLI,"THE MANAGER, PRAGATHI KRISHNA GRAMIN BANK, BASHETTIHALLI BRANCH, SIDLAGHATTA TALUK, CHIKKABALLAPURA DIST, PIN562 105",257820,SIDLAGHATTA,CHIKKABALLAPURA,KARNATAKA
"PRAGATHI KRISHNA GRAMIN BANK",PKGB0010547,577697525,BASAVANAKOTE,"THE MANAGER, PRAGATHI KRISHNA GRAMIN BANK,BASAVANAKOTE BRANCH, JAGALUR TALUK, DAVANGERE DISTRICT, PIN577 513,",246592,JAGALUR,DAVANGERE,KARNATAKA
"PRAGATHI KRISHNA GRAMIN BANK",PKGB0010546,583697566,BASAPATNA,"THE MANAGER, PRAGATHI KRISHNA GRAMIN BANK,BASAPATNA BRANCH, GANGAVATHI TALUK, KOPPAL DISTRICT,PIN583 235",238207,GANGAVATHI,KOPPAL,KARNATAKA
"PRAGATHI KRISHNA GRAMIN BANK",PKGB0010545,563697502,BANGARPET,"THE MANAGER, PRAGATHI KRISHNA GRAMIN BANK, BAPNA COMPLEX,KUVEMPU CIRCLE, BANGARPET TOWN563 114, BANGARPET TOWN, KOLAR DISTRICT",257733,BANGARPET,KOLAR,KARNATAKA
"PRAGATHI KRISHNA GRAMIN BANK",PKGB0010544,583697524,BANDRI,"THE MANAGER,PRAGATHI KRISHNA GRAMIN BANK, VASAVI BANDRI BRANCH SANDUR TALUK BELLARYDISTRICTPIN583 124",277345,SANDUR,BELLARY,KARNATAKA
"PRAGATHI KRISHNA GRAMIN BANK",PKGB0010543,583697595,BANDI,"THE MANAGER,PRAGATHI KRISHNA GRAMIN BANK,BANDI BRANCH,YELBURGA TALUK, KOPPAL DISTRICT,PIN584 131",288471,YELBURGA,KOPPAL,KARNATAKA
"PRAGATHI KRISHNA GRAMIN BANK",PKGB0010542,583697541,BANVIKAL,"THE MANAGER, PRAGATHI KRISHNA GRAMIN BANK,BANAVIKAL BRANCH KUDLIGI TALUKBELLARY DISTRICT PIN583 126",229022,KUDLIGI,BELLARY,KARNATAKA
"PRAGATHI KRISHNA GRAMIN BANK",PKGB0010541,583697501,BANAPURA,"THE MANAGER, PRAGATHI KRISHNA GRAMIN BANK,GOTUR POST VIA MOKABANAPURA BRANCH BELLARY TALUK & DISTPIN583 117",296612,BELLARY,BELLARY,KARNATAKA
"PRAGATHI KRISHNA GRAMIN BANK",PKGB0010540,584697539,BALLATGI,"THE MANAGER,PRAGATHI KRISHNA GRAMIN BANK,BALLATAGI BRANCH,MANVI TALUK,RAICHUR DISTRICT,PIN584 123",242499,MANVI,RAICHUR,KARNATAKA
"PRAGATHI KRISHNA GRAMIN BANK",PKGB0010539,577697581,"BALLALA SAMUDRA","THE MANAGER,PRAGATHI KRISHNA GRAMIN BANK,BALLALA SAMUDRA BRANCH,HOSADURGA TALUK,CHITRADURGA DISTRICT,PIN573 114",245534,HOSADURGA,CHITRADURGA,KARNATAKA
"PRAGATHI KRISHNA GRAMIN BANK",PKGB0010538,577697574,BAHADDURGHATTA,"THE MANAGER,PRAGATHI KRISHNA GRAMIN BANK,BAHADDURGHATTA BRANCH,CHITRADURGA TALUK,CHITRADURGA DISTRICT,PIN577 519",247607,CHITRADURGA,CHITRADURGA,KARNATAKA
"PRAGATHI KRISHNA GRAMIN BANK",PKGB0010537,577697597,BAGURU,"THE MANAGER,PRAGATHI KRISHNA GRAMIN BANK,BAGURU BRANCH,HOSADURGA TALUK,CHITRADURGA DISTRICT,PIN577 515",286005,HOSADURGA,CHITRADURGA,KARNATAKA
"PRAGATHI KRISHNA GRAMIN BANK",PKGB0010536,562697515,BAGEPALLY,"THE MANAGER, PRAGATHI KRISHNA GRAMIN BANK, K G BUILDING,DVG ROAD, BAGEPALLI TOWN561 207, BAGEPALLI TALUK, CHIKKABALLAPURA DISTRICT",283057,BAGEPALLI,CHIKKABALLAPURA,KARNATAKA
"PRAGATHI KRISHNA GRAMIN BANK",PKGB0010535,584697519,BAGALWAD,"THE MANAGER,PRAGATHI KRISHNA GRAMIN BANK,BAGALWADA BRANCH,MANVI TALUK,RAICHUR DISTRICT,PIN584 120",272037,MANVI,RAICHUR,KARNATAKA
"PRAGATHI KRISHNA GRAMIN BANK",PKGB0010534,563697525,BADAMAKANAHALLI,BADAMAKANAHALLI,212325,BANGARPET,KOLAR,KARNATAKA
"PRAGATHI KRISHNA GRAMIN BANK",PKGB0010533,577697559,BADA,"THE MANAGER, PRAGATHI KRISHNA GRAMIN BANK, BADA BRANCH, DAVANGERE TALUK&DISTRICT,PIN577 574,",210330,DAVANGERE,DAVANGERE,KARNATAKA
"PRAGATHI KRISHNA GRAMIN BANK",PKGB0010532,583697531,BACHIGONDANHALLI,"THE MANAGER, PRAGATHI KRISHNA GRAMIN BANK,BACHI GONDANA HALLIH B HALLI TALUKBELLARY DISTRICT PIN583 238",233082,HAGARIBOMMANAHALLI,BELLARY,KARNATAKA
"PRAGATHI KRISHNA GRAMIN BANK",PKGB0010531,577697598,"B T CROSS","THE MANAGER,PRAGATHI KRISHNA GRAMIN BANK,B T CROSS BRANCH,MOLAKALMURU TALUK,CHITRADURGA DISTRICT,PIN577 540",212589,MOLAKALMURU,CHITRADURGA,KARNATAKA
"PRAGATHI KRISHNA GRAMIN BANK",PKGB0010530,577697567,"B G KERE","THE MANAGER,PRAGATHI KRISHNA GRAMIN BANK,B G KERE BRANCH,MOLAKALMURU TALUK,CHITRADURGA DISTRICT,PIN577 529",272191,MOLAKALMURU,CHITRADURGA,KARNATAKA
"PRAGATHI KRISHNA GRAMIN BANK",PKGB0010529,577697619,B.DURGA,"THE MANAGER,PRAGATHI KRISHNA GRAMIN BANK,B. DURGA BRANCH,HOLALKERE TALUK,CHITRADURGA DISTRICT,PIN 577 518",284361,HOLALKERE,CHITRADURGA,KARNATAKA
"PRAGATHI KRISHNA GRAMIN BANK",PKGB0010528,577697636,AVINAHALLI,"THE MANAGER, PRAGATHI KRISHNA GRAMIN BANK, AVINAHALLI BRANCH, SAGARA TALUK,SHIVAMOGGA DISTRICT, PIN 577 401,",255858,SAGARA,SHIMOGA,KARNATAKA
"PRAGATHI KRISHNA GRAMIN BANK",PKGB0010527,563697522,AVANI,"THE MANAGER, PRAGATHI KRISHNA GRAMIN BANK, VIA DEVARAYASAMUDRAM, AVANI BRANCH563 141, MULBAGALU TALUK, KOLAR DISTRICT",230025,MULBAGALU,KOLAR,KARNATAKA
"PRAGATHI KRISHNA GRAMIN BANK",PKGB0010526,577697560,ATTIGERE,"THE MANAGER,PRAGATHI KRISHNA GRAMIN BANK, ATTIGERE BRANCH, DAVANGERE TALUK,DAVANGERE DISTRICT, PIN577 574,",267267,DAVANGERE,DAVANGERE,KARNATAKA
"PRAGATHI KRISHNA GRAMIN BANK",PKGB0010525,584697508,ARKERA,"THE MANAGER,PRAGATHI KRISHNA GRAMIN BANK,ARKERA BRANCH,DEODURGA TALUK,RAICHUR DISTRICT,PIN 584 111",269048,DEODURGA,RAICHUR,KARNATAKA
"PRAGATHI KRISHNA GRAMIN BANK",PKGB0010524,577697618,AREHALLI,"THE MANAGER,PRAGATHI KRISHNA GRAMIN BANK,AREHALLI BRANCH,HOLALKERE TALUK,CHITRADURGA DISTRICT,PIN577 518",275380,HOLALKERE,CHITRADURGA,KARNATAKA
"PRAGATHI KRISHNA GRAMIN BANK",PKGB0010523,577697511,ARASIKERE,"THE MANAGER, PRAGATHI KRISHNA GRAMIN BANK,1ST FLOOR,MAIN ROAD, ARASIKERE BRANCH, HARAPANAHALLY TALUK,DAVANAGERE DISTRICT PIN - 583125,",270094,HARAPANAHALLY,DAVANGERE,KARNATAKA
"PRAGATHI KRISHNA GRAMIN BANK",PKGB0010522,572697504,ARANAKATTE,"THE MANAGER,PRAGATHI KRISHNA GRAMIN BANK,ARANAKATTE BRANCH,HIRIYUR TALUK,CHITRADURGA DISTRICT,PIN577 596",281969,HIRIYUR,CHITRADURGA,KARNATAKA
"PRAGATHI KRISHNA GRAMIN BANK",PKGB0010521,577697632,ARALIHALLY,ARALIHALLY,242804,BHADRAVATHI,SHIMOGA,KARNATAKA
"PRAGATHI KRISHNA GRAMIN BANK",PKGB0010520,584697203,"APMC YARD","THE MANAGER,PRAGATHI KRISHNA GRAMIN BANK,SINDHANURAPMC YARD,SINDHANUR TALUK,RAICHUR DISTRICT,PIN584 128",221402,SINDHANUR,RAICHUR,KARNATAKA
"PRAGATHI KRISHNA GRAMIN BANK",PKGB0010519,584697532,ANEHOSUR,"THE MANAGER,PRAGATHI KRISHNA GRAMIN BANK,ANE HOSUR BRANCH,LINGASUGUR TALUK,RAICHUR DISTRICT,PIN 584 122",287147,LINGASUGUR,RAICHUR,KARNATAKA
"PRAGATHI KRISHNA GRAMIN BANK",PKGB0010518,577697650,ANAVATTI,"THE MANAGER,PRAGATHI KRISHNA GRAMIN BANK,ANAVATTI BRANCH, SORABA TALUK, SHIVAMOGGA DISTRICT, PIN 577 413,",267234,SORABA,SHIMOGA,KARNATAKA
"PRAGATHI KRISHNA GRAMIN BANK",PKGB0010517,563697537,ADDAGAL,"THE MANAGER, PRAGATHI KRISHNA GRAMIN BANK, ADDAGAL BRANCH, SRINIVASAPURA TALUK, KOLAR DISTRICT, PIN563 161",247641,SRINIVASPURA,KOLAR,KARNATAKA
"PRAGATHI KRISHNA GRAMIN BANK",PKGB0010516,562697511,ABBALUDU,"THE MANAGER, PRAGATHI KRISHNA GRAMIN BANK, ABBULODU BRANCH, SIDLAGHATTA TALUK, CHIKKABALLAPURA DISTRICT, PIN562 105",258518,SIDLAGHATTA,CHIKKABALLAPURA,KARNATAKA
"PRAGATHI KRISHNA GRAMIN BANK",PKGB0010514,NA,"RO RAICHUR","REGIONAL OFFICE,RAICHUR",232543,RAICHUR,RAICHUR,KARNATAKA
"PRAGATHI KRISHNA GRAMIN BANK",PKGB0010513,NA,"KOPPAL REGIONAL OFFICE","OPP D.C OFFICE COMPLEX,HOSPET ROAD,KOPPAL REGIONAL OFFICE",221318,KOPPAL,KOPPAL,KARNATAKA
"PRAGATHI KRISHNA GRAMIN BANK",PKGB0010512,NA,"REGIONAL OFFICE KOLAR","NO.900, BEHIND ST.ANNE SCHOOL, SULTHAN,KOLAR-REGIONAL OFFICE",222473,KOLAR,KOLAR,KARNATAKA
"PRAGATHI KRISHNA GRAMIN BANK",PKGB0010511,NA,"REGIONAL OFFICE YADGIR","KHAJA COMPLEX CHITTAPUR ROAD,YADGIR",225363,YADGIR,YADGIR,KARNATAKA
"PRAGATHI KRISHNA GRAMIN BANK",PKGB0010510,NA,"REGIONAL OFFICE BIDAR","HAVAPPA COMPLEX,SHIVANAGAR,UDGIR ROAD,BIDAR",226060,BIDAR,BIDAR,KARNATAKA
"PRAGATHI KRISHNA GRAMIN BANK",PKGB0010509,NA,"REGIONAL OFFICE GULBARGA","KUSHNOOR ROAD GULBARGA",224055,GULBARGA,GULBARGA,KARNATAKA
"PRAGATHI KRISHNA GRAMIN BANK",PKGB0010508,NA,"DAVANAGEREREGIONAL OFFICE","NO,2766, CHAITRA COMPLEX ,MAMAS JOINT ROAD,DAVANAGERE",233494,DAVANGERE,DAVANGERE,KARNATAKA
"PRAGATHI KRISHNA GRAMIN BANK",PKGB0010506,NA,"RO CHITRADURGA","P B NO 70 , I.U.D.P. LAY-OUT, N.H-4,CHITRADURGA",234374,CHITRADURGA,CHITRADURGA,KARNATAKA
"PRAGATHI KRISHNA GRAMIN BANK",PKGB0010504,NA,"RO BELLARY","MODI CHAMBERS , I I CROSS , GANDHINAGAR,BELLARY",254008,BELLARY,BELLARY,KARNATAKA
"PRAGATHI KRISHNA GRAMIN BANK",PKGB0010503,NA,"RO SHIMOGA","P.B. NO 136, K.V.VENKATARAMAIH ROAD,NEAR HOT,SHIMOGA",279103,SHIMOGA,SHIMOGA,KARNATAKA
"PRAGATHI KRISHNA GRAMIN BANK",PKGB0010500,NA,"HO BELLARY","P.B.NO 55,32,SANGANAKAL ROAD,GANDHINAGAR,BELLARY",236403,BELLARY,BELLARY,KARNATAKA
