BANK,IFSC,MICR,BRANCH,ADDRESS,CONTACT,CITY,DISTRICT,STATE
"STATE BANK OF MYSORE",SBMY0TREA00,NA,RTGS-HO,"TREASURY BRANCH,SBI LHO BLD,SYNERGY,6TH FLOOR,BANDRA KURLA COMPLEX,BANDRA EAST MUMBAI-400068",0,MUMBAI,MUMBAI,MAHARASHTRA
"STATE BANK OF MYSORE",SBMY0RRCKGB,NA,"CAUVERI KALPATARU GRAMEENA BANK","CA 20,VIJAYNAGAR 2ND STAGE MYSORE 570017",0,MYSORE,MYSORE,KARNATAKA
"STATE BANK OF MYSORE",SBMY0041214,571006507,KERAGODU,"NEAR BY BUS STOP KERAGODU MANDYA",9482939609,MANDYA,MANDYA,KARNATAKA
"STATE BANK OF MYSORE",SBMY0041213,571006506,SHANKARNAGAR,"415,1ST FLOOR MC COMPLEX BANNUR ROAD CHAMUNDESHWARI NAGAR MANDYA",221213,MANDYA,MANDYA,KARNATAKA
"STATE BANK OF MYSORE",SBMY0041212,584006004,"ASHAPUR ROAD","NO 44 AND 51 NEAR KK LAKSHMIDEVI KALYANA MANTAP OPP FCI GODOWN ASHAPUR ROAD RAICHUR 584101",9980751142,RAICHUR,RAICHUR,KARNATAKA
"STATE BANK OF MYSORE",SBMY0041211,584006003,CHIKKASUGUR,"114/1 CHIKKASUGUR VADLOOR CROSS HYDERABAD ROAD CHIKKASUGUR RAICHUR",9980751142,RAICHUR,RAICHUR,KARNATAKA
"STATE BANK OF MYSORE",SBMY0041210,560006213,"KENCHANAPURA CROSS","BHASTHI MAIN ROAD BHUVANESWARINAGAR BANGALORE 560056",9480029678,BANGALORE,BANGALORE,KARNATAKA
"STATE BANK OF MYSORE",SBMY0041209,560006211,"HESARAGHATTA MAIN ROAD","31/38 HESARAGHATTA MAIN ROAD,BAGALGUNTE, BANGALORE 560073",9902314911,BANGALORE,BANGALORE,KARNATAKA
"STATE BANK OF MYSORE",SBMY0041208,560006205,THINDLU,"NO. 262/239, KODIGEHALLI MAIN ROAD, THINDLU, BANGALORE 560097",9743143400,BANGALORE,BANGALORE,KARNATAKA
"STATE BANK OF MYSORE",SBMY0041207,560006209,NAGAVARA,"BVR LAKE FRONT,NO 40/32/50/1/2, FLAT 001, NAGAVARA VILLAGE,KASABA HOBLI,OUTER RING ROAD,VEERANNAPALYA, BANGALORE 560045",9986120042,BANGALORE,BANGALORE,KARNATAKA
"STATE BANK OF MYSORE",SBMY0041206,560006203,SUBHASHNAGAR,"MADHU COMPLEX NO 9 TC PALYA MAIN ROAD SUBHASHNAGAR BATTERAHALLI BANGALORE 560049",9880537271,BANGALORE,BANGALORE,KARNATAKA
"STATE BANK OF MYSORE",SBMY0041205,560006212,NAYANDAHALLI,"21 PANTHRAPALYA MYSORE ROAD NAYANDAHALLI BANGALORE 560039",9500885664,BANGALORE,BANGALORE,KARNATAKA
"STATE BANK OF MYSORE",SBMY0041204,570006052,ARAVINDANAGAR,"NO 651 1ST STAGE ARAVINDANAGAR MYSORE 570023",0,MYSORE,MYSORE,KARNATAKA
"STATE BANK OF MYSORE",SBMY0041203,560006207,"ANANTHAPURA GATE","NO 388/1 NPA REDDY ARCADE ANANTHAPURA YELHANKA BANGALORE 560085",0,BANGALORE,BANGALORE,KARNATAKA
"STATE BANK OF MYSORE",SBMY0041202,560006208,ANDRAHALLI,"3,4 & 5,ANDRAHALLI MAIN ROAD,ANDRAHALLI, BANGALURU 560091",22354948,BANGALORE,BANGALORE,KARNATAKA
"STATE BANK OF MYSORE",SBMY0041201,560006206,"ADITYA NAGAR","STATE BANK OF MYSORE 12 AND 13 YELAHANKA MS PALYA MAIN ROAD ADITYA NAGAR BANGALORE 560097",9964891409,BANGALORE,"BANGALORE URBAN",KARNATAKA
"STATE BANK OF MYSORE",SBMY0041198,560006210,"BHARATHNAGAR II PHASE","VIJAYLAKSHMI COMPLEX, S 1207,BHARATHNAGAR II PHASE, BANGALORE 560091",9632545001,BANGALORE,BANGALORE,KARNATAKA
"STATE BANK OF MYSORE",SBMY0041197,581006538,KAIKINI,"GRAM PANCHAYAT BUILDING KAIKINI 581421",0,BHATKAL,"UTTAR KANNAD",KARNATAKA
"STATE BANK OF MYSORE",SBMY0041196,560006198,"SRINIDHI LAYOUT","SRINIDHI LAYOUT SY NO 29/1A, NO 673/2 ANJINAPPA LAYOUT NEAR SRINIDHI LAYOUT CHUNCHAGHATTA MAIN ROAD KONANKUNTE POST BANGALORE 560062",0,BANGALORE,BANGALORE,KARNATAKA
"STATE BANK OF MYSORE",SBMY0041195,560006195,"DAIRY CIRCLE","DAIRY CIRCLE NO 5 SRINIVASA ARCADE KRISHNA NAGAR LAYOUT (NEAR DAIRY CIRCLE) KORAMANGALA HOSUR MAIN ROAD BANGALORE 560029",0,BANGALORE,BANGALORE,KARNATAKA
"STATE BANK OF MYSORE",SBMY0041194,560006199,"VIJAYA BANK LAYOUT","NO.195/175/E/13,VIJAYA BANK LAYOUT, 60FT MAIN ROAD, SHANBHAG NAGAPPA LAYOUT, BILEKAHALLY, OFF BANNERUGHATTA ROAD,BANGALORE 560076",0,BANGALORE,BANGALORE,KARNATAKA
"STATE BANK OF MYSORE",SBMY0041193,560006197,NAGANATHAPURA,"NARMADA,48/3,NAGANATHAPURA,RAYASANDRA ROAD,BANGALORE 560100",0,BANGALORE,BANGALORE,KARNATAKA
"STATE BANK OF MYSORE",SBMY0041192,560006204,"VISVESVARAYA LAYOUT","384/4/1 AKSHAYA LAKE VIEW GIDADAKONENAHALLI MUDDENPALYA MAIN ROAD NEAR 60 FEET ROAD BANGALORE 560097",8884086192,BANGALORE,BANGALORE,KARNATAKA
"STATE BANK OF MYSORE",SBMY0041191,560006200,"HSR II SECTOR PARANGIPALYA","NO.2341,17TH CROSS,HSR LAYOUT SECTOR 1, PARANGIPALYA, OPPOSITE TO GAYATRI TEMPLE, BANGALORE 560102",0,BANGALORE,BANGALORE,KARNATAKA
"STATE BANK OF MYSORE",SBMY0041190,560006196,"AECS B LAYOUT","NO 739 THE AIRCRAFT EMPLOYEES CO OPERATIVE SOCIETY LTD LAYOUT B LOCK BEGUR HOBLI SINGASANDRA VILLAGE 80FEET MAIN ROAD BANGALORE 560027",0,BANGALORE,BANGALORE,KARNATAKA
"STATE BANK OF MYSORE",SBMY0041189,560006202,HOSAKEREHALLI,"NO 23 24 KALABHAVAN KEREKODI MAIN ROAD BSK III STAGE HOSAKEREHALLI BANGALORE 560085",9886977631,BANGALORE,BANGALORE,KARNATAKA
"STATE BANK OF MYSORE",SBMY0041188,NA,"BGS NAGAR BEERASANDRA","BGS COMPLEX, BEERSANDRA VILLAGE ALUR DUDDANAHALLI POST, DEVANAHALLI DODDABALLAPUR ROAD, 562110",9845323063,BANGALORE,"BANGALORE RURAL",KARNATAKA
"STATE BANK OF MYSORE",SBMY0041187,560006888,HESARGHATTA,"NO 406/9/1 SIDDESHWARA COMPLEX, T B CROSS, HESARGHATTA, BANGALORE 560089",9611574727,BANGALORE,"BANGALORE NORTH",KARNATAKA
"STATE BANK OF MYSORE",SBMY0041186,572006103,"G B GATE","WARD 23,GOWRIBIDANUR GATE CIRCLE, MADHUGIRI, TUMKUR DIST 572132",0,TUMKUR,TUMKUR,KARNATAKA
"STATE BANK OF MYSORE",SBMY0041185,572006173,JYOTHINAGARA,"42/1, GURUKULA EXTN ,AMARAPURA ROAD, PRESEDENCY SCHOOL BUILDING, SIRA",0,TUMKUR,TUMKUR,KARNATAKA
"STATE BANK OF MYSORE",SBMY0041184,577006222,RANGENAHALLI,"RANGENAHALLI VILLAGE HIRIYUR TALUK CHITRADURGA DIST 577454 KARNATAKA",0,CHITRADURGA,CHITRADURGA,KARNATAKA
"STATE BANK OF MYSORE",SBMY0041183,561006511,KURUDI,"GRAM PANCHAYAT BUILDING KURUDI VILLAGE GAURIBIDANUR TALUK 561210",8867265770,CHIKBALLAPUR,CHIKABALLAPUR,KARNATAKA
"STATE BANK OF MYSORE",SBMY0041182,563006535,ANOOR,"ANOOR VILLAGE AND POST CHINTAMANI TALUK CHICKBALLAPUR DISTRICT KARNATAKA PIN 563125",238088,CHIKBALLAPUR,CHIKBALLAPUR,KARNATAKA
"STATE BANK OF MYSORE",SBMY0041181,635006408,AVALAPALLY,"DOOR NO 65 GROUND FLOOR TNHB, AVALAPALLY HUDCO,BAGALUR ROAD HOSUR TALUK 635109",243200,HOSUR,KRISHANGIRI,"TAMIL NADU"
"STATE BANK OF MYSORE",SBMY0041178,NA,"PRASHANTH NAGAR CHITRADURGA","APPAJI PARISARA NEAR STADIUM PRASHANTH NAGARA CHITRADURGA 577501",235555,CHITRADURGA,CHITRADURGA,KARNATAKA
"STATE BANK OF MYSORE",SBMY0041177,572006576,"KODIGEHALLY BRANCH","GRADE COLLEGE, YEDIYUR TIPTUR ROAD",0,TUMKUR,TUMKUR,KARNATAKA
"STATE BANK OF MYSORE",SBMY0041176,577006592,ANUPINAKATTE,"R/O DEVENDRAPPA I FLOOR ANUPINAKATTE",9448244212,SHIMOGA,SHIMOGA,KARNATAKA
"STATE BANK OF MYSORE",SBMY0041175,577006219,NAGATHIBELAGALU,"IFLOOR ABOVE GRAM PANCHAYATH OFFICE BHADRAVATHI - HOLEHONNUR ROAD",8762823097,BHADRAVATI,SHIMOGA,KARNATAKA
"STATE BANK OF MYSORE",SBMY0041174,577006218,GARTHIKERE,"OPP GRAM PANCHAYAT OFFICE THIRTHAHALLI ROAD GARTHIKERE HOSANAGAR TALUK SHIMOGA DIST 577436",9480282653,SAGAR,SHIMOGA,KARNATAKA
"STATE BANK OF MYSORE",SBMY0041173,571006624,KETHUPURA,"KETHUPURA T NARSIPUR TALUQ KETHUPURA 571101",0,MYSORE,MYSORE,KARNATAKA
"STATE BANK OF MYSORE",SBMY0041172,572006015,"B H ROAD","B PARIHARS BHAWAN, B H ROAD, GUBBI 572216",0,TUMKUR,TUMKUR,KARNATAKA
"STATE BANK OF MYSORE",SBMY0041171,560006194,BELLANDUR,"NO.28, THANUSH ARCADE, BELLANDUR OUTER RING ROAD,NEXT TO COFFEE DAY, PIN 560103",9611869409,BANGALORE,BANGALORE,KARNATAKA
"STATE BANK OF MYSORE",SBMY0041170,585006064,"SEDAM ROAD","PLOT NO 37 AND 46 OPP ESI HOSPITAL SEDAM ROAD GULBARGA 585106 KARNATAKA",9916260622,GULBARGA,GULBARGA,KARNATAKA
"STATE BANK OF MYSORE",SBMY0041169,575006504,ARAMBODY,"SITE NO 154/303 HOKALIGOLI KUDURASTE ARAMBODY VILLAGE SIDDAKATTE POST BELTHANGADY TALUK DAKSHINA KANNADA DIST",8197595534,BELTHANGADY,"DAKSHINA KANNADA",KARNATAKA
"STATE BANK OF MYSORE",SBMY0041168,563006536,RAMASAGARA,"RAMASAGARA VILLAGE AND POST BANGARPET TALUK KOLAR DIST 563116",9740976102,BANGARPET,KOLAR,KARNATAKA
"STATE BANK OF MYSORE",SBMY0041166,560006201,"ELECTRONIC CITY","ELECTRONIC CITY NO 56B 6TH CROSS HOSUR MAIN ROAD HEBBAGODI P O ELECTRONIC CITY PHASE I BANGALORE 560100",0,BANGALORE,BANGALORE,KARNATAKA
"STATE BANK OF MYSORE",SBMY0041165,560006193,"AMC ENGINEERING COLLEGE","AMC ENGINEERING COLLEGE BANNERAGHATTA MAIN ROAD KALKERE VILLAGE BANGALORE 560083",22352564,BANNERGHATTA,"BANGALORE URBAN",KARNATAKA
"STATE BANK OF MYSORE",SBMY0041164,577006591,KAMBLIKOPPA,"IKKERI ROAD OPPOSITE VEERABHADRESHWARA TEMPLE IST FLOOR KAMBLIKOPPA SAGAR TALUK",227006,SAGAR,SHIMOGA,KARNATAKA
"STATE BANK OF MYSORE",SBMY0041163,670006002,KANNUR,"CALTEX, THALASSERY ROAD, KANNUR 670702",7411784829,CANNUR,CANNUR,KERALA
"STATE BANK OF MYSORE",SBMY0041162,570006051,SRIRAMPURA,"NO-91 2ND MAIN ROAD SRIRAMPURA MYSORE 570023",0,MYSORE,MYSORE,KARNATAKA
"STATE BANK OF MYSORE",SBMY0041161,NA,RACPC,"SBM RACPC BZ 1 178 PLATFORM ROAD SESHADRIPURAM BENGALURU 560020",23568819,BANGALORE,"BANGALORE URBAN",KARNATAKA
"STATE BANK OF MYSORE",SBMY0041159,577006107,"GOVT BUSINESS BRANCH","HOSAMANE EXTENSION CHIKMAGALUR PIN 577101",7829914928,CHIKMAGALUR,CHIKMAGALUR,KARNATAKA
"STATE BANK OF MYSORE",SBMY0041158,682006004,KAKKANAD,"DOOR NO. D1, D2/822, AIMON SQUARE, EDACHIRA-VAYANASALA ROAD, KAKKANAD, ERNAKULAM 682030",9846124012,ERNAKULAM,ERNAKULAM,KERALA
"STATE BANK OF MYSORE",SBMY0041157,577006590,YEDAJIGALEMANE,"OPPOSITE SETTISARA GRAM PANCHAYATH VARADALLI ROAD YEDAJIGALEMANE SAGAR TALUK",223006,SAGAR,SHIMOGA,KARNATAKA
"STATE BANK OF MYSORE",SBMY0041156,NA,"BANGALORE ZONE THREE","3RD FLOOR C WING BKG COMPLEX AVENUE ROAD BANGALURU 560254",22343761,BANGALORE,"BANGALORE URBAN",KARNATAKA
"STATE BANK OF MYSORE",SBMY0041155,560006501,DODDADUNNASANDRA,"KHATHA NO 129 OLD SY NO.33 DODDADUNNASANDRA VILLAGE DEVANAGUNDI POST HOSKOTE TALUK",9008471018,HOSKOTE,"BANGALORE RURAL",KARNATAKA
"STATE BANK OF MYSORE",SBMY0041154,560006192,"BASHYAM CIRCLE BANGALORE","JVN TOWERS NO 21 792 17TH B GROUND FLOOR MAIN ROAD 59TH CROSS 5TH BLOCK RAJAJINAGAR NEAR BASHYAM CIRCLE BANGALORE 560010",9449081236,BANGALORE,"BANGALORE URBAN",KARNATAKA
"STATE BANK OF MYSORE",SBMY0041153,560006190,VASANTHAPURA,"BIKASIPURA SY NO 3 BANASHANKARI 5 TH STAGE NO 4 VASANTHAPURA MAIN ROAD VASANTHPURA BANGALORE 560061",9686642999,BANGALORE,"BANGALORE URBAN",KARNATAKA
"STATE BANK OF MYSORE",SBMY0041152,560006191,"HMT LAY OUT","952 HMT LAYOUT NAGASANDRA MAIN ROAD BANGALORE 560073",9902357857,BANGALORE,"BANGALORE URBAN",KARNATAKA
"STATE BANK OF MYSORE",SBMY0041151,560006188,PANATHUR,"NO 18 PRAKRUTHI ENCLAVE BALGERE ROAD PANATHUR BANGALORE 560103",9686680222,BANGALORE,"BANGALORE URBAN",KARNATAKA
"STATE BANK OF MYSORE",SBMY0041150,560006187,"KALYAN NAGAR","NO1 3RD CROSS NANJAPPA GARDEN BABUSAPALAYA KALYAN NAGAR POST BANGALORE 560043",9844867617,BANGALORE,"BANGALORE URBAN",KARNATAKA
"STATE BANK OF MYSORE",SBMY0041149,560006189,KUDLU,"NO 35 YASHODAMMA LAYOUT KUDLU MAIN ROAD NEAR BBMP OFFICE KUDLU BANGALORE 560065",8197625497,"BANGALORE URBAN","BANGALORE URBAN",KARNATAKA
"STATE BANK OF MYSORE",SBMY0041147,572006014,"S S PURAM BRANCH","S S PURAM BRANCH TUMKUR DISTRICT KARNATAKA",9886828449,TUMKUR,TUMKUR,KARNATAKA
"STATE BANK OF MYSORE",SBMY0041146,WAITING,SIDDARAMANAHUNDI,"SRIRAMAMANDIRA ROAD,YEDAKOLA GP AND PO,MYSORE TALUK",2594657,SIDDARAMANAHUNDI,MYSORE,KARNATAKA
"STATE BANK OF MYSORE",SBMY0041145,571006505,"MIMS MANDYA","MIMS COMPOUND BANGALORE MYSORE ROAD MANDYA 571401",9448084298,MANDYA,MANDYA,KARNATAKA
"STATE BANK OF MYSORE",SBMY0041144,689006002,THIRUVALLA,"AVS SERENE RESIDENCY DOOR NO G1 RSPO ROAD NEAR MARTHOMA RESIDENTIAL SCHOOL KUTTAPUZHA THIRUVALLA 689111",9443252515,THIRUVALLA,PATHANAMTHITTA,KERALA
"STATE BANK OF MYSORE",SBMY0041143,NA,ALAPUZHA,"2 DNO 31/13A VENICE SQUARE NH 47 SOUTH THIRUVAMBADY ALAPUZHA 688009 KERALA STATE",9585503325,ALAPPUZHA,ALAPUZHA,KERALA
"STATE BANK OF MYSORE",SBMY0041142,302006003,"SUBHASHNAGAR JAIPUR","KRISHAN KRIPA 2 SHOP NO 3 4 5 SUBHASHNAGAR JAIPUR 302016",9783199911,JAIPUR,JAIPUR,RAJASTHAN
"STATE BANK OF MYSORE",SBMY0041141,NA,"JANKIPURAM VISTAR LUCKNOW","7-391 JANKIPURAM VISTAR OPPOSITE CENTMARRY INTER SCHOOL NEAR BHAWANI CHAURAHA LUCKNOW  226021",7860033913,LUCKNOW,LUCKNOW,"UTTAR PRADESH"
"STATE BANK OF MYSORE",SBMY0041140,NA,LUDHIANA,"233 A UPPER GROUND FLOOR SARABHA NAGAR PAKHOWAL ROAD LUDHIANA PUNJAB",9811663233,SARABHA,LUDHIANA,PUNJAB
"STATE BANK OF MYSORE",SBMY0041139,572006575,GULEHARAVI,"GULEHARAVI BRANCH PALASANDRA POST 572118 TUMKUR",2246628,TUMKUR,TUMKUR,KARNATAKA
"STATE BANK OF MYSORE",SBMY0041138,560006138,"SANJAY NAGAR","91 AECS LAYOUT POST OFFICE ROAD SANJAY NAGAR BANGALORE 560094",9844262641,BANGALORE,"BANGALORE URBAN",KARNATAKA
"STATE BANK OF MYSORE",SBMY0041137,NA,TAKKALAKI,"GRAM PANCHYAT OFFICE TAKKALAKI BIJAPUR TQ  AND DIST KARNATAKA 586130",9731065829,BIJAPUR,BIJAPUR,KARNATAKA
"STATE BANK OF MYSORE",SBMY0041136,NA,HALETORGAL,"NEXT TO GRAM PANCHAYATH HALETORGAL RAMDURG TAQ BELGAUM DISTRICT KARNATAKA 591123",8904242069,RAMDURG,BELGAUM,KARNATAKA
"STATE BANK OF MYSORE",SBMY0041135,581006537,YADALLI,"GRAM PANCHAYAT BUILDING SIRI SIDDAPUR ROAD YADALLI 581340 SIRSI TALUK UTTARA KANNADA DIST",272211,SIRSI,"UTTAR KANNAD",KARNATAKA
"STATE BANK OF MYSORE",SBMY0041134,NA,KITTUR,"GP NO 1720 3 4 5 6 GURUWARPET 1ST FLOOR KITTUR BELGAUM DIST KARNATAKA 591115",9483526975,KITTUR,BELGAUM,KARNATAKA
"STATE BANK OF MYSORE",SBMY0041133,573006524,KIRISAVE,"HONNADEVIHALLY KADABAHALLI POST NAGAMANGALA TALUK MANDYA DIST 571432",0,NAGAMANGALA,MANDYA,KARNATAKA
"STATE BANK OF MYSORE",SBMY0041132,573006523,JANIVARA,"PANCHAYAT BUILDING JANIVARA VILLAGE CHANNARAYAPATNA TALUK  573116",9483546628,CHANNARAYAPATNA,HASSAN,KARNATAKA
"STATE BANK OF MYSORE",SBMY0041131,NA,"DOUBLE ROAD CHAMARAJANAGAR","806/862, BR HILLS ROAD CHAMARAJANAGAR 571313",9711121976,CHAMARAJANAGAR,CHAMARAJANAGAR,KARNATAKA
"STATE BANK OF MYSORE",SBMY0041130,583006535,LEBGERA,"192 LEBGERA KOPPAL TALUK AND DISTRICT 583237 KARNATAKA",9632919105,KOPPAL,KOPPAL,KARNATAKA
"STATE BANK OF MYSORE",SBMY0041129,577006653,KALASA,"1 ST FLOOR KAMATH TOWERS MAIN ROAD KALASA MUDIGERE TALUK",274200,KALASA,CHIKMAGALUR,KARNATAKA
"STATE BANK OF MYSORE",SBMY0041128,560006184,SRINAGAR,"NO 15B KUKKE 14TH MAIN HANUMANTH NAGAR BSK 1ST STAGE BANGALORE 560050",8722306789,BANGALORE,BANGALORE,KARNATAKA
"STATE BANK OF MYSORE",SBMY0041127,NA,"A K KAVAL","SGR BUILDING TUMKUR KUNIGAL ROAD HONNUDIKE HAND POST A K KAVAL TUMKUR 572122",9945047939,HONNUDIKE,TUMKUR,KARNATAKA
"STATE BANK OF MYSORE",SBMY0041126,573006136,KERALAPURA,"945 GANESHA COMPLEX RAMANATHAPURA MYSORE HIGHWAY ARAKALGUD TALUK",9686478677,KERALAPURA,HASSAN,KARNATAKA
"STATE BANK OF MYSORE",SBMY0041125,NA,"SIDDAGANGA MUTT","SIDDAGANGA MUTT BRANCH KYATASANDRA TUMKUR KARNATAKA 572104",0,TUMKUR,TUMKUR,KARNATAKA
"STATE BANK OF MYSORE",SBMY0041123,NA,KANAKAGIRI,"NEAR NANDI THEATRE GANGAVATHI ROAD KANAKAGIRI 583283",9731284279,KANAKAGIRI,KOPPAL,KARNATAKA
"STATE BANK OF MYSORE",SBMY0041122,NA,ROJARPALLI,"VENKATESWARA COMPLEX HOLUR ROAD VALAGERNAHALLI CROSS (ROJARPALLI CROSS) SRINIVASPUR TALUK",221071,SRINIVASAPUR,KOLAR,KARNATAKA
"STATE BANK OF MYSORE",SBMY0041121,583006999,KUKNOOR,"PLOT NO 58, INDIRA NAGAR YELBURGA TQ,KOPPAL DISTRICT KUKNOOR 583232",7760294595,KUKNOOR,KOPPAL,KARNATAKA
"STATE BANK OF MYSORE",SBMY0041120,583006114,"NEHRU COLONY","NEHRU COLONY, 1ST MAIN CROSS, BELLARY",9980620283,BELLARY,BELLARY,KARNATAKA
"STATE BANK OF MYSORE",SBMY0041119,570006050,"MANASAGANGOTHRI CAMPUS","MANASAGANGOTRI CAMPUS BEHIND LIBERARY MANASAGANGOTHRI MYSORE 570006",2512511,MYSORE,MYSORE,KARNATAKA
"STATE BANK OF MYSORE",SBMY0041118,573006211,"KHB COLONY BRANCH","420/2 KARITHIMMANAGUDI ROAD HOLENARASIPURA HASSAN DISTRICT KARNATAKA",8884547566,HOLENARSIPUR,HASSAN,KARNATAKA
"STATE BANK OF MYSORE",SBMY0041117,NA,BOGADI,"BOGADI RING ROAD JUNCTION BOGADI MYSORE 570026",2341686,MYSORE,MYSORE,KARNATAKA
"STATE BANK OF MYSORE",SBMY0041116,NA,"ANJANI EXTENSION","NEAR KSRTC DEPOT BANGALORE ROAD CHINTAMANI KOLAR DISTRICT 563125",9986946784,CHINTAMANI,KOLAR,KARNATAKA
"STATE BANK OF MYSORE",SBMY0041115,NA,HULIYAR,"909 INDIRA NAGAR NEAR RAMGOPAL CIRCLE BH ROAD HULIYAR 572218",994504793,HULIYAR,TUMKUR,KARNATAKA
"STATE BANK OF MYSORE",SBMY0041114,NA,"HASSAN CIRCLE TIPTUR","SHIV PLAZA OPPOSITE KALPATHARTU INSTITUTE OF TECHNOLOGY HASSAN CIRCLE TIPTUR 572202",994504793,TIPTUR,TUMKUR,KARNATAKA
"STATE BANK OF MYSORE",SBMY0041113,583006115,"DR. TEKUR SUBRAMANYAM ROAD","AKSHAYA NILAYA, DR. TEKUR SUBRAMANYAM ROAD, BELLARY",9448678773,BELLARY,BELLARY,KARNATAKA
"STATE BANK OF MYSORE",SBMY0041112,585006506,"CHITTAPUR GULBARGA","DNO 1 2 49 FIRST FLOOR MOHALLA JAFFAR GUNJ ABOVE BSNL OFFICE CHITTAPUR 585211",236239,CHITAPUR,KA,KARNATAKA
"STATE BANK OF MYSORE",SBMY0041111,NA,AURAD,"PLOT NO 4 SHASTRI GUNJ APMC YARD AURAD",281111,AURAD,BIDAR,KARNATAKA
"STATE BANK OF MYSORE",SBMY0041110,NA,KAMALAPUR,"REVANASIDDESHWAR COMPLEX, MAIN ROAD, KAMALAPUR",221522,GULBARGA,GULBARGA,KARNATAKA
"STATE BANK OF MYSORE",SBMY0041109,680006002,THRISSUR,"KALYANRAM RESIDENCY NEAR OUSHADI 29 702 G SHORANUR ROAD THRISSUR 680001",9677321982,THRISSUR,THRISSUR,"TAMIL NADU"
"STATE BANK OF MYSORE",SBMY0041108,580006013,DIMHANS,"DISTRICT INSTITUTE OF MENTAL HEALTH AND NEURO SCIENCE BELGAUM ROAD DHARWAD 580008",0,DHARWAD,DHARWAD,KARNATAKA
"STATE BANK OF MYSORE",SBMY0041107,581006555,"HOSUR HUBLI ZONE","GRAM PANCHAYATBUILDING HOSUR VILLAGE HAVERI DISTRICT PIN 581193",0,HOSUR,HAVERI,KARNATAKA
"STATE BANK OF MYSORE",SBMY0041106,581006053,"DC OFFICE COMPLEX","ROOM NO.01 D.C.OFFICE COMPOUND,DEVAGIRI,HAVERI 581110",249148,HAVERI,HAVERI,KARNATAKA
"STATE BANK OF MYSORE",SBMY0041105,572006577,"Y N HOSAKOTE","OPP GOVT HOSPITAL, M G ROAD, Y N HOSAKOTE, PAVAGADA TALUK TUMKUR DIST",0,TUMKUR,TUMKUR,KARNATAKA
"STATE BANK OF MYSORE",SBMY0041104,572006013,"APMC BATAWADI","APMC BATAWADI BRANCH VISHRUTHA BUILDING BATAWADI BYEPASS 572104",9480542270,TUMKUR,TUMKUR,KARNATAKA
"STATE BANK OF MYSORE",SBMY0041103,NA,BHEEMASANDRA,"BHEEMASANDRA CIRCLE BELLAVI BHEEMASANDRA TUMKUR DISTRICT KARNATAKA 572107",0,BELLAVI,TUMKUR,KARNATAKA
"STATE BANK OF MYSORE",SBMY0041102,573006525,"FORT ARKALGUD","SASO5 MALLIPATNA ROAD FORT BRANCH ARKALGUD",9731332792,ARKALGUD,HASSAN,KARNATAKA
"STATE BANK OF MYSORE",SBMY0041101,NA,GOWNIPALLI,"CHOTU SAB BUILDING MAIN ROAD SRINIVASAPUR TQ 563161",248833,GOWNIPALLI,KOLAR,KARNATAKA
"STATE BANK OF MYSORE",SBMY0041100,NA,"NANJANGUD ROAD","SRI LAXMI VENKATESHWARA COMPLEX MYSORE NANJANGUD ROAD CHAMARAJANAGAR",9449070742,BADANAGUPPE,CHAMARAJANAGAR,KARNATAKA
"STATE BANK OF MYSORE",SBMY0041099,NA,"RAJEEVANAGAR MYSORE","NO 887 1ST STAGE DEVANUR RAJEEVANAGAR NIRMA MOSQUE ROAD MYSORE 570019",9448291241,MYSORE,MYSORE,KARNATAKA
"STATE BANK OF MYSORE",SBMY0041098,NA,"JSS LAYOUT","NO 1212 SATHAGALLI EXTENSION 1ST STAGE NAZARBAD MOHALLA MYSORE 570011",2341686,MYSORE,MYSORE,KARNATAKA
"STATE BANK OF MYSORE",SBMY0041097,380006005,"CG ROAD","1 DEV COMPLEX PARIMAL GARDEN CROSS ROAD AMBAVADI AHMEDABAD 380006",26405988,AHMEDABAD,AHMADABAD,GUJARAT
"STATE BANK OF MYSORE",SBMY0041096,560006181,"AIRPORT ROAD YELAHANKA","309 289 KOGILU CROSS MARUTHINAGAR MAIN ROAD YELAHANKA BANGALORE",28571069,YELAHANKA,"BANGALORE URBAN",KARNATAKA
"STATE BANK OF MYSORE",SBMY0041095,560006182,HANUMAGIRI,"FIRST FLOOR NO 69 ANJANAYA NAGAR 5TH MAIN ROAD ITTAMADU MAIN ROAD BANASHANKARI 3RD STAGE 560085",9741354071,BANGALORE,"BANGALORE URBAN",KARNATAKA
"STATE BANK OF MYSORE",SBMY0041094,NA,MANIPAL,"VAISHNAVI RESIDENCY FIRST FLOOR MANIPAL PARKALA ROAD",226260,MANIPAL,UDIPI,KARNATAKA
"STATE BANK OF MYSORE",SBMY0041093,NA,AMBAGILU,"DOOR NO 10 28 H KAYYA ARCADE 1ST FLOOR KALSANKA ROAD AMBAGILU 576101",226260,AMBAGILU,UDIPI,KARNATAKA
"STATE BANK OF MYSORE",SBMY0041092,NA,KOTESHWARA,"LAXMIDEVI COMPLEX OPP SHRI PATTABHI RAMACHANDRA TEMPLE MARUTHI VANA ROAD KUNDAPURA TALUK 576222",226260,KOTESHWAR,UDIPI,KARNATAKA
"STATE BANK OF MYSORE",SBMY0041091,NA,SHIRIYARA,"KALMARGI 1ST FLOOR SHIRIYARA UDUPI TALUK 576210",226260,UDUPI,UDIPI,KARNATAKA
"STATE BANK OF MYSORE",SBMY0041090,NA,GOKARNA,"DOOR NO 446 SHRI GURURAGHAVENDRA TRADERS TARAMAKKI ROAD KUMTA TALUK 581326",226260,GOKARN,"UTTAR KANNAD",KARNATAKA
"STATE BANK OF MYSORE",SBMY0041089,570006046,"INDUSTRIAL FINANCE","BUILDING NO 11 KAMAKSHI HOSPITAL ROAD SARASWATHIPURAM MYSORE 570009",2561089,MYSORE,MYSORE,KARNATAKA
"STATE BANK OF MYSORE",SBMY0041088,638006003,GOBICHETTIPALAYAM,"SHRINIVAS CENTRE NO 126 A MODACHUR ROAD GOBICHETTIPALAYAM 638476",226888,GOBICHETTIPALAYAM,ERODE,"TAMIL NADU"
"STATE BANK OF MYSORE",SBMY0041087,577006589,NILUVAGILU,"SRI LAKSHMI COMPLEX NILUVAGILU KOPPA TALUK 577120",9483920559,CHICKMAGALUR,CHICKMAGALUR,KARNATAKA
"STATE BANK OF MYSORE",SBMY0041086,577006105,"MALLANDUR ROAD","RAJESHWAR COMPLEX MALLANDUR ROAD CHIKKAMAGALUR 577101",8904295997,CHIKMAGALUR,CHIKMAGALUR,KARNATAKA
"STATE BANK OF MYSORE",SBMY0041085,577006106,"MARKET ROAD","SHARADAMBA COMPLEX, AMBEDKAR ROAD,CHICKMAGALUR",9481054853,CHICKMAGALUR,CHICKMAGALUR,KARNATAKA
"STATE BANK OF MYSORE",SBMY0041084,575006020,"M G ROAD MANGALORE","DIVYA ENCLAVE JAIL ROAD OPPOSITE CANARA COLLEGE MANGALORE 575003",2495458,MANGALORE,"DAKSHINA KANNADA",KARNATAKA
"STATE BANK OF MYSORE",SBMY0041082,577006104,"HOUSING BOARD COLONY","ADICHUNCHANAGIRI INST OF TECH COLLEGE CAMPUS JYOTHI NAGAR CHIKMAGALUR 577102",8951122610,CHIKMAGALUR,CHIKMAGALUR,KARNATAKA
"STATE BANK OF MYSORE",SBMY0041081,NA,CUTTACK,"PLOT NO 2406 H GROUND FLOOR H NO 117 NEAR JP DAS HEART CLINIC RANIHAT CUTTACK 753001",9000232463,CUTTACK,CUTTACK,ODISHA
"STATE BANK OF MYSORE",SBMY0041080,NA,KHAMMAM,"SMC COMPLEX D NO 4 2 657 1A MAMATHA MEDICAL HOSPITAL ROAD KHAMMAM 507001",9000232463,KHAMMAM,KHAMMAM,"ANDHRA PRADESH"
"STATE BANK OF MYSORE",SBMY0041079,590006013,"SUVARNA VIDHANA SOUDHA","C BLOCK, BASEMENT SUVARNA VIDHANA SOUDHA, PB ROAD,HALAGA,BELGAUM -580012",9538622207,BELGAUM,BELGAUM,KARNATAKA
"STATE BANK OF MYSORE",SBMY0041078,NA,"NMMC NAVI MUMBAI","PLOT NO 1 NMMC HEAD OFFICE BUILDING SECTOR 15 A CBD BELAPUR NAVI MUMBAI 400614",0,"NEW BOMBAY",THANE,MAHARASHTRA
"STATE BANK OF MYSORE",SBMY0041077,NA,"NEHRU PLACE","DDA BUILDING NO 3 4 5 NEHRU PLACE",9910765768,DELHI,DELHI,DELHI
"STATE BANK OF MYSORE",SBMY0041076,572006573,DANDINASHIVARA,"RAILWAY STATION ROAD DANDINASHIVARA TURUVEKERE TALUK",278411,TURUVEKERE,TUMKUR,KARNATAKA
"STATE BANK OF MYSORE",SBMY0041075,573006522,KUNDUR,"KHATA NO 354 KUNDURU VILLAGE DANDIGANAHALLI HOBLI",9916564604,HASSAN,HASSAN,KARNATAKA
"STATE BANK OF MYSORE",SBMY0041074,572006571,ACHAMMANAHALLI,"J ACHAMMANAHALLI VILLAGE KOTAGADDU ROAD Y N HOSKOTE POST PAVAGADA TALUK TUMKUR DIST 572141",247200,TUMKUR,TUMKUR,KARNATAKA
"STATE BANK OF MYSORE",SBMY0041073,NA,CHIKKAJALA,"1ST FLOOR KHANASHUMARI NO 131 AND 132 CHIKKAJALA VILLAGE DODDAJALA POST BANGALORE NORTH TALUK",9167392565,BANGALORE,BANGALORE,KARNATAKA
"STATE BANK OF MYSORE",SBMY0041072,560006179,"KANDAYA BHAVAN","GROUND FLOOR KANDAYA BHAVAN COMPLEX KEMPE GOWDA ROAD BANGALORE 560009",9900255327,BANGALORE,"BANGALORE URBAN",KARNATAKA
"STATE BANK OF MYSORE",SBMY0041071,400006019,"MIRA ROAD","B4,B5,C1,C2, DEV PARADISE, BEVERELY PARK ROAD, MIRA ROAD EAST, THANE, MAHARASHTRA. PIN 401 107",28118005,"MIRA BHAYANDAR",THANE,MAHARASHTRA
"STATE BANK OF MYSORE",SBMY0041069,NA,BAJAPUR,"SAMANTRAY BUILDING AT PO BAJAPUR KHURDA DIST ORISA",9000232463,BAJPUR,KHURDA,ODISHA
"STATE BANK OF MYSORE",SBMY0041068,584006134,MARCHED,"H NO 1 68 GROUND FLOOR NEAR MAREMMA TEMPLE MARCHED 584134",7829673817,RAICHUR,RAICHUR,KARNATAKA
"STATE BANK OF MYSORE",SBMY0041067,NA,ANCHEPALYA,"ANCHEPALYA NAGASANDRA POST DASANAPURA HOBLI BANGALORE NORTH TALUK",9449013512,NARASANDRA,"BANGALORE RURAL",KARNATAKA
"STATE BANK OF MYSORE",SBMY0041066,NA,BASAVANAHALLI,"SY NO 185 20 DODDABALLAPUR ROAD NEAR PANCHAYATH OFFICE BASAVANAHALLI VILLAGE NELMANGALA TALUK BANGALORE NORTH",9590133605,NELAMANGALA,"BANGALORE RURAL",KARNATAKA
"STATE BANK OF MYSORE",SBMY0041065,577006586,TUMKURLAHALLI,"GRAMAPANCHAYAT SAMUDAYA BHAVANA,TUMKURLAHALLI,MOLAKALAMURU TALUK,CHITRADURGA DISTRICT",260503,MOLAKALMURU,CHITRADURGA,KARNATAKA
"STATE BANK OF MYSORE",SBMY0041064,600006029,"REDHILLS ROAD","PLOT NO-1AND2 GROUND FLOOR MMS COMPLEX VIGNESH NAGAR VINAYAGAPURAM REDHILLS ROAD CHENNAI 600099",25651520,TIRUVALLUR,THIRUVALLUR,"TAMIL NADU"
"STATE BANK OF MYSORE",SBMY0041063,571006621,DODDABAGILU,"SURVEY NO 106 1 JANGER NO 257 BUS STAND CIRCLE T NARASIPURA TALUK",0,"TIRUMAKUDAL NARSIPUR",MYSORE,KARNATAKA
"STATE BANK OF MYSORE",SBMY0041062,577006588,HALIVANA,"HALIVANA P O MALEBENNUR HARIHAR 577530",9449190400,MALEBENNUR,DAVANGERE,KARNATAKA
"STATE BANK OF MYSORE",SBMY0041061,587006510,KESARAGOPPA,"SY NO 42 WARD NO 1 KESARAGOPPA 587312 MUDHOL TALUK BAGALKOTE DIST",9880926322,MUDHOL,BAGALKOTE,KARNATAKA
"STATE BANK OF MYSORE",SBMY0041060,583006534,SUGGENAHALLI,"H NO 248 RAMANJANEY BUILDING VIA DEVALAPUR HOSPET TALUK BELLARY DISTRICT SUGGENAHALLI 583129",9591811708,HOSPET,BELLARY,KARNATAKA
"STATE BANK OF MYSORE",SBMY0041059,577006587,MADLIGERI,"MADLIGERE 583131 HARAPANAHALLI TALUK",8147973971,HARPANAHALLI,DAVANGERE,KARNATAKA
"STATE BANK OF MYSORE",SBMY0041058,571006622,HEGGADAHALLI,"788 VIJAYALAKSHMI RICE MILL COMPUND NANJANGUD HDKOTE ROAD NANJANGUD TALUK",0,NANJANGUD,MYSORE,KARNATAKA
"STATE BANK OF MYSORE",SBMY0041056,583006533,THIMMALAPURA,"BASAPPA BUILDING HUVINAHADAGALI TALUK BELLARY DISTRICT THIMMALAPURA 583134",7760294595,"HUVINA HADGALLI",BELLARY,KARNATAKA
"STATE BANK OF MYSORE",SBMY0041055,583006532,MAKANADUKU,"ONKARI BUILDING KUDLIGI TALUK BELLARY DISTRICT MANADUKU 583126",8971359672,KUDLIGI,BELLARY,KARNATAKA
"STATE BANK OF MYSORE",SBMY0041054,574006303,IVARDADU,"GRAMA PANCHAYAT SEVA KENDRA BUILDING IVARNADU SULLIA TALUK",8867947942,SULLIA,"DAKSHINA KANNADA",KARNATAKA
"STATE BANK OF MYSORE",SBMY0041053,583006531,GUNDUMUNUGU,"CHIDANANDAGOUDA BUILDING KUDLIGI TALUK BELLARY DISTRICT GUNDUMUNUGU 583126",9449119121,KUDLIGI,BELLARY,KARNATAKA
"STATE BANK OF MYSORE",SBMY0041052,571006623,"KAVERIPURA HOLESALU","45 OPP GRAM PANCHAYAT OFFICE MALAVALLI ROAD T NARASIPURA TALUK",0,"TIRUMAKUDAL NARSIPUR",MYSORE,KARNATAKA
"STATE BANK OF MYSORE",SBMY0041051,571006620,GANDHANAHALLI,"NO 782 3RD BLOCK GANDHANAHALLI POST HOSA AGRAHARA HOBLI",8223282222,KRISHNARAJANAGAR,MYSORE,KARNATAKA
"STATE BANK OF MYSORE",SBMY0041050,575006503,NARIMOGARU,"S A COMPLEX PURUSHARAKATTE NARIMOGARU PUTTUR 574202",280887,PUTTUR,"DAKSHINA KANNADA DIST",KARNATAKA
"STATE BANK OF MYSORE",SBMY0041049,577006585,NANNIVALA,"NANNIVALA CHALLAKERE TALUK 577522 CHITRADURGA DIST",9448424465,CHALLAKERE,CHITRADURGA,KARNATAKA
"STATE BANK OF MYSORE",SBMY0041048,NA,"MINI VIDHANA SOUDHA","ROOM NO 14 GROUND FLOOR TALUK OFFICE NAZARBAD",2442171,MYSORE,MYSORE,KARNATAKA
"STATE BANK OF MYSORE",SBMY0041047,572006303,"HULIYAR ROAD BRANCH","SIR GURU BUILDING OPPOSITE PUSHPANAJALI THEATRE HULIYAR ROAD",263003,HIRIYUR,CHITRADURGA,KARNATAKA
"STATE BANK OF MYSORE",SBMY0041046,NA,MARKET,"CHANDRASHEKAR BUILDING AGRAHARA BEEDHI MARKET",9312243572,CHANNARAYAPATNA,HASSAN,KARNATAKA
"STATE BANK OF MYSORE",SBMY0041045,NA,"MINI VIDHANA SOUDHA","KALPATHARU COMPLEX KADUR ROAD",9945463059,ARSIKERE,HASSAN,KARNATAKA
"STATE BANK OF MYSORE",SBMY0041044,NA,"BANAVASI ROAD","NETRAVATHI COMPLEX NEAR MARIKAMBA TEMPLE BANAVASI ROAD SIRSI 581401",0,SIRSI,"UTTAR KANNAD",KARNATAKA
"STATE BANK OF MYSORE",SBMY0041043,562006004,"ZILLA ADALITHA BHAVANA","SIDLAGHATTA ROAD CHIKBALLAPUR 562101",9741895716,CHICKBALLAPUR,CHICKBALLAPUR,KARNATAKA
"STATE BANK OF MYSORE",SBMY0041038,NA,CHANNASANDRA,"SITE NO 66 AND 67,OMKAR LAYOUT,UTTARAHALLI KENGERI MAIN ROAD,NEAR JSS COLLEGE,BANGALORE 560060",0,BANGALORE,"BANGALORE URBAN",KARNATAKA
"STATE BANK OF MYSORE",SBMY0041037,NA,CHANDIGARH,"SCO NO 26 SECTOR 33 D CHANDIGARH",0,CHANDIGARH,CHANDIGARH,CHANDIGARH
"STATE BANK OF MYSORE",SBMY0041036,NA,"JASOLA DELHI","NO 93 POCKET 1 JASOLA JASOAL KALINDI KUNJ ROAD DELHI 110025",0,DELHI,DELHI,DELHI
"STATE BANK OF MYSORE",SBMY0041035,NA,PANCHKULA,"SCO NO 90 SECTOR 21 PANCHKULA HARYANA 134112",0,PANCHKULA,PANCHKULA,HARYANA
"STATE BANK OF MYSORE",SBMY0041034,NA,"SCHEME NUMBER 94 INDORE","EB 247 SCHEME NO 94 NEAR PUNJAB NATIONAL BANK RING ROAD INDORE MP",0,INDORE,INDORE,"MADHYA PRADESH"
"STATE BANK OF MYSORE",SBMY0041033,NA,MANKI,"1ST FLOOR MANKI NURSING HOME MANKI TALUK HONNAVAR UTTAR KANNADA DISTRICT 581348",0,MANKI,"UTTAR KANNAD",KARNATAKA
"STATE BANK OF MYSORE",SBMY0041032,NA,"THEKKATTE RANCH","KAUSTUBHA NEAR BUS STAND THEKKATTE UDUPI DISTT.576231",0,THEKKATTE,UDIPI,KARNATAKA
"STATE BANK OF MYSORE",SBMY0041031,NA,MASTHI,"NEAR MASTHI VENKATESH IYENGAR PU COLLEGE MASTHI 563139 MALUR TALUK KOLAR DIST",0,MASTI,KOLAR,KARNATAKA
"STATE BANK OF MYSORE",SBMY0041030,NA,SEEGEHALLI,"WHITEFIELD HOSEKOTE MAIN ROAD SEEGAHALLI OPPOSITE STERLING VILLA BANGALORE EAST TALUK 560049",0,BANGALORE,"BANGALORE URBAN",KARNATAKA
"STATE BANK OF MYSORE",SBMY0041029,NA,"N R COLONY","39 BY 1,SANNIDHI ROAD,N.R.COLONY,BASAVANAGUDI,BANGALORE 560004",0,BANGALORE,"BANGALORE URBAN",KARNATAKA
"STATE BANK OF MYSORE",SBMY0041028,NA,PERESANDRA,"BESIDE B H ROAD NH 7 PERESANDRA 562104 CHICKBALLAPUR TALUK AND DIST PIN 562104",0,PERESANDRA,KOLAR,KARNATAKA
"STATE BANK OF MYSORE",SBMY0041027,NA,ONGOLE,"SY.NO.253 D.NO.4 331 4 MANGAMURU ROAD ONGOLE 523002",0,ONGOLE,PRAKASAM,"ANDHRA PRADESH"
"STATE BANK OF MYSORE",SBMY0041025,NA,GOPALAPATNAM,"6 59 BY 2,6 59 BY 3 MAIN ROAD GOPALAPATNAM VISAKHAPATNAM 530027",0,GOPALAPATNAM,VISHAKHAPATNAM,"ANDHRA PRADESH"
"STATE BANK OF MYSORE",SBMY0041024,NA,KURMANAPALEM,"FLAT NO.103 AND 104,KURMANAPALEM OPP.CANARA BANK HOUSING LOAN DIVISION,VISAKHAPATNAM 530046",0,VISAKHAPATNAM,VISHAKHAPATNAM,"ANDHRA PRADESH"
"STATE BANK OF MYSORE",SBMY0041023,NA,VILLUPURAM,"NO 25 BY N KK ROAD VILLUPURAM",0,VILLUPURAM,VILLUPURAM,"TAMIL NADU"
"STATE BANK OF MYSORE",SBMY0041022,NA,PARVATHINAGAR,"SWAJAY CENTER WARD NO 1 MAIN ROAD NEAR S P CIRCLE PARVATHI NAGAR BELLARY",0,BELLARY,BELLARY,KARNATAKA
"STATE BANK OF MYSORE",SBMY0041021,NA,MELKAR,"GANGA PUSHPA ARCADE MELKAR PANE MANGALORE POST BANTWAL TALUK 574321",0,BANTVAL,"DAKSHIN KANNAD",KARNATAKA
"STATE BANK OF MYSORE",SBMY0041020,NA,JAYAPURA,"VENKATNAG COMPLEX MAIN ROAD JAYAPURA KOPPA TALUK 577123",0,JAYAPURA,CHIKMAGALUR,KARNATAKA
"STATE BANK OF MYSORE",SBMY0041019,NA,"NEHRU NAGAR BELUR","NEHRU NAGAR HASSAN CIKKAMAGALUR MAIN ROAD BELUR TALUK HASSAN DIST",0,BELUR,HASSAN,KARNATAKA
"STATE BANK OF MYSORE",SBMY0041018,NA,DARASAGUPPE,"PKK COMPLEX MAIN ROAD 571435",9611889009,SRIRANGAPATNA,MANDYA,KARNATAKA
"STATE BANK OF MYSORE",SBMY0041017,NA,"ARASIKERE TUMKUR","MYSORE ARASIKERE PAVAGADA TALUK TUMKRU",0,PAVAGADA,TUMKUR,KARNATAKA
"STATE BANK OF MYSORE",SBMY0041016,571006616,ARAKERE,"SRI MANJUNATHA CINEMA COMPLEX MANDYA MYSORE ROAD",9886736306,SRIRANGAPATNA,MANDYA,KARNATAKA
"STATE BANK OF MYSORE",SBMY0041015,571006404,"LEELAVATHI EXTENSION","NO 13 BY 13 2ND CROSS OLD MC ROAD LEELAVATION EXT",9731203633,MADDUR,MANDYA,KARNATAKA
"STATE BANK OF MYSORE",SBMY0041014,571006619,"TB EXTENTION","SUKRUTHA 2684 BY 2911 OPP GOVT JR COLLEGE",9886960535,NAGAMANGALA,MANDYA,KARNATAKA
"STATE BANK OF MYSORE",SBMY0041013,NA,"KOLLI CIRCLE MADDUR","NO 969 FIRST FLOOR THYLOOR MALLAIAH COMPLEX",0,MADDUR,MANDYA,KARNATAKA
"STATE BANK OF MYSORE",SBMY0041012,NA,"HEMAVATHI EXTENTION","J.K.ROAD,OLD KIKKERI ROAD,K R PET 571426",9448037132,"K R PET",MANDYA,KARNATAKA
"STATE BANK OF MYSORE",SBMY0041011,NA,"HEBBAL II STAGE","NO.359 BY 360,BALAJI ARCADE,HEBBAL II STAGE MYSORE 570017",0,MYSORE,MYSORE,KARNATAKA
"STATE BANK OF MYSORE",SBMY0041010,NA,"ADMINISTRATIVE TRAINING INSTITUTE","LALITHAMAHAL HOTEL ROAD,MYSORE 570011",0,MYSORE,MYSORE,KARNATAKA
"STATE BANK OF MYSORE",SBMY0041009,571006009,"T SETTIGERI","OPP GOVT HIGH SCHOOL HUDIKERI KUTTA ROAD 571249",246009,"T SETTIGERI",KODAGU,KARNATAKA
"STATE BANK OF MYSORE",SBMY0041008,NA,KUNDLI,"SCO NO 55 COMMERCIAL COMPLEX HSIIDC KUNDLI SONEPAT HARYANA 131028",0,KUNDLI,SONIPAT,HARYANA
"STATE BANK OF MYSORE",SBMY0041006,NA,"NEW BEL ROAD","M S COMPLEX MORE BUILDING NEW BEL ROAD CHIKKAMARANAHALLY BANGALORE 560054",0,BANGALORE,"BANGALORE URBAN",KARNATAKA
"STATE BANK OF MYSORE",SBMY0041005,NA,"EIGHT MILE HESARAGHATTA","TOWERS 2 AND 3,1ST CROSS NETHAJINAGAR,CHOKKSANDRA NH4 NEAR JALAHALLI CIRCLE T DASARAHALLY",0,JALAHALLI,"BANGALORE URBAN",KARNATAKA
"STATE BANK OF MYSORE",SBMY0041004,NA,ANANDNAGAR,"AKASH AVENUE NO 34 1ST MAIN SBM COLONY ANANDNAGAR BANGALORE 560024",0,BANGALORE,"BANGALORE URBAN",KARNATAKA
"STATE BANK OF MYSORE",SBMY0041003,NA,KOTHANUR,"NO.6,KOTHANUR DHINNE,B.K.CIRCLE,KOTHANUR MAIN ROAD,JP NAGAR 7TH PHASE,BANGALORE 560078",0,BANGALORE,"BANGALORE URBAN",KARNATAKA
"STATE BANK OF MYSORE",SBMY0041002,NA,AKSHAYANAGAR,"NO.8,80 FEET ROAD,NYANAPPANAHALLI,AKSHAYANAGAR,BANGALORE 560070",0,BANGALORE,"BANGALORE URBAN",KARNATAKA
"STATE BANK OF MYSORE",SBMY0041001,NA,ALNAWAR,"NO.401,OPP SANJIVINI HOSPITAL,BEHIND BUSSTAND,INDIARANAGAR,ALNAVAR,DISTRICT 581103",0,ALNAWAR,DHARWAD,KARNATAKA
"STATE BANK OF MYSORE",SBMY0041000,NA,LAKSHMESHWAR,"CTS NO.3891 BY 2B,BAZAR ROAD,LAKSHMESHWAR DISTRICT GADAG PIN 582116",0,LAKSHMESHWAR,GADAG,KARNATAKA
"STATE BANK OF MYSORE",SBMY0040999,NA,"LINK OFFICE","SBI ADM BLDG III FLOOR,SECTOR II CDBBELAPUR NAVI MUMBAI",0,MUMBAI,MUMBAI,MAHARASHTRA
"STATE BANK OF MYSORE",SBMY0040998,NA,NIZAMABAD,"5 6 687 BY 4 PHULONG CROSS ROAD NIZAMABAD",0,NIZAMABAD,NIZAMABAD,"ANDHRA PRADESH"
"STATE BANK OF MYSORE",SBMY0040997,NA,"SATTUR DHARWAD","PLOT NO 109 AND 110 RAJAJINAGAR SATTUR DHARWAD 580001",0,DHUMMAWAD,DHARWAD,KARNATAKA
"STATE BANK OF MYSORE",SBMY0040996,NA,"BANKAPURCHOWK HUBLI","CTS NO 1986 1987 AND 1988 PB ROAD BANKAPUR CHOWK HUBLI 580024",0,"HUBLI DHARWAD",DHARWAD,KARNATAKA
"STATE BANK OF MYSORE",SBMY0040995,NA,GAJENDRAGAD,"CTS NO.1281,V M MALAGI COMPLEX,KUSTAGI ROAD,GAJENDRAGAD,GADAG DISTRICT PIN 582114",0,GAJENDRAGAD,GADAG,KARNATAKA
"STATE BANK OF MYSORE",SBMY0040994,NA,NANDYAL,"25 BY 557 SRINIVASA NAGAR NANDYAL 518501 KURNOOL DISTRICET ANDHRA PRADESH",0,NANDYAL,KURNOOL,"ANDHRA PRADESH"
"STATE BANK OF MYSORE",SBMY0040993,NA,MAHABUBNAGAR,"FAIZI TRADE CENTRE NO 7 50 BY 5 PLOT NO 2 PADMAVATHI COLONY MAHABUBNAGAR 509001",0,MAHBUBNAGAR,MAHBUBNAGAR,"ANDHRA PRADESH"
"STATE BANK OF MYSORE",SBMY0040992,NA,JADE,"JADE VILLAGE SORABA TALUK SHIMOGA DIST",0,JADE,SHIMOGA,KARNATAKA
"STATE BANK OF MYSORE",SBMY0040991,NA,TRIPLICANE,"OLD NO 181 NEW NO 240 BHARATHI SALAI CHENNAI",0,CHENNAI,CHENNAI,"TAMIL NADU"
"STATE BANK OF MYSORE",SBMY0040990,NA,AMBATTUR,"NO KALLIKUPPAM MAIN ROAD AMBATTUR CHENNAI",0,CHENNAI,CHENNAI,"TAMIL NADU"
"STATE BANK OF MYSORE",SBMY0040989,NA,CHROMPET,"NO 108 SHANTHI NAGAR CHROMPET CHENNAI",0,CHENNAI,CHENNAI,"TAMIL NADU"
"STATE BANK OF MYSORE",SBMY0040988,NA,KANCHEEPURAM,"NO 126 WEST RAJA STREET KANCHEEPURAM",0,KANCHIPURAM,KANCHEEPURAM,"TAMIL NADU"
"STATE BANK OF MYSORE",SBMY0040987,NA,SEDAM,"PLOT NO 11,SYNO 917 BY 1 BY A BY 3,OPP YOUTH CLUB,RAILWAY STATION RAOD,SEDAM 585222",0,SEDAM,GULBARGA,KARNATAKA
"STATE BANK OF MYSORE",SBMY0040986,NA,HUMNABAD,"SUHAIL COMPLEX,SY NO 490,TMC 22 405 BY 1,HUMNABAD 585330",0,HUMNABAD,BIDAR,KARNATAKA
"STATE BANK OF MYSORE",SBMY0040985,NA,GIRINAGAR,"7 BY C,2ND CROSS,NEHRU ROAD,60 FEET ROAD,I PHASE GIRINAGAR,BANGALORE 560085",0,BANGALORE,"BANGALORE URBAN",KARNATAKA
"STATE BANK OF MYSORE",SBMY0040984,NA,"IDEAL HOMES","DHANUSH PLAZA 915,IDEAL HOMES,80 FT RD,RAJA RAJESHWARI NAGAR,OPP ICICI BANK,BANGALORE 560061",0,BANGALORE,"BANGALORE URBAN",KARNATAKA
"STATE BANK OF MYSORE",SBMY0040983,NA,ULLAL,"32 BY 33 MUNESWARANAGAR ULLAL MAIN ROAD BANGALORE 560056",0,BANGALORE,"BANGALORE URBAN",KARNATAKA
"STATE BANK OF MYSORE",SBMY0040982,NA,"BAILUR BRANCH","DR.AROOR CLINIC AND NURSING HOME BAILUR KARKALA TALUK UDUPI DISTT 574102",0,BAILUR,UDIPI,KARNATAKA
"STATE BANK OF MYSORE",SBMY0040981,NA,UPPAL,"PLOT NO 13  130 2 FRIENDS COLONY ENTRANCE SRI VENKATESWARA SWAMY TEMPLE ROAD UPPAL HYDERABAD 500039",9000232463,UPPAL,RANGAREDDY,TELANGANA
"STATE BANK OF MYSORE",SBMY0040980,560006167,BUDIGERE,"VIJAYAPURA ROAD NEAR BUDIGERE BUS STAND",9379738160,DEVANAHALLY,"BANGALORE RURAL",KARNATAKA
"STATE BANK OF MYSORE",SBMY0040979,560006166,SULIBELE,"NO 57 VALMIKINAGAR DEVANAHALLI CROSS SULIBELE POST HOSKOTE TALUK BANGALORE RURAL 562129",0,"BANGALORE RURAL","BANGALORE RURAL",KARNATAKA
"STATE BANK OF MYSORE",SBMY0040978,NA,DASANAPURA,"GRAMAPANCHYATH OFFICE DASANAPURA HOBLI BANGALORE NORTH TALUK BANGALORE 562123",0,DASANAPURA,"BANGALORE URBAN",KARNATAKA
"STATE BANK OF MYSORE",SBMY0040977,NA,SHIRALAKOPPA,"OLD BUS STAND COMPLEX SHIRALAKOPPA SHIMOGA DIST",0,SHIRALKOPPA,SHIMOGA,KARNATAKA
"STATE BANK OF MYSORE",SBMY0040976,NA,RIPPONPETE,"OPP POST OFFICE SAGAR ROAD RIPPONPETE HOSANAGARA TALUK SHIMOGA DIST",0,HOSANAGARA,SHIMOGA,KARNATAKA
"STATE BANK OF MYSORE",SBMY0040975,NA,TALAGUPPA,"MAIN ROAD TALAGUPPA SAGAR TALUK SHIMOGA DIST",0,TALGUPPA,SHIMOGA,KARNATAKA
"STATE BANK OF MYSORE",SBMY0040974,NA,ANNIGERI,"CTS NO.48 BY C,PLOT NO 36,NEAR BUSSTAND,ANNIGERI,DHARWAD DISTRICT PIN 582201",0,ANNIGERI,DHARWAD,KARNATAKA
"STATE BANK OF MYSORE",SBMY0040973,NA,"JAYANAGAR DHARWAD","NO 79 BY A BY 12 BY SP MUNICIPAL NO 10920 WARD NO 14 SAPTAPUR JAYANAGAR DHARWAD PIN 580008",0,DHUMMAWAD,DHARWAD,KARNATAKA
"STATE BANK OF MYSORE",SBMY0040972,571006618,"CHIKKA MANDYA","NO 544 BY 9 GOPALAPURA POST",9448978875,MANDYA,MANDYA,KARNATAKA
"STATE BANK OF MYSORE",SBMY0040971,NA,ALANAHALLY,"NO.356 BY 306 GROUND FLOOR,SUJATHA COMPLEX T.NARASIPURA ROAD,ALANAHALLY MYSORE 570028",0,MYSORE,MYSORE,KARNATAKA
"STATE BANK OF MYSORE",SBMY0040969,590006502,YARAGATTI,"1287 A B SHRI VENKATESH COMPLEX BELGAUM BAGALKOT ROAD 591129",9978096877,YARAGATTI,BELGAUM,KARNATAKA
"STATE BANK OF MYSORE",SBMY0040967,NA,NIPPANI,"CTS NO 3499 B 1C OPP CITY MUNICIPAL COUNCIL SHINTRE COLONY NIPPANI 591237",9483526975,NIPANI,BELGAUM,KARNATAKA
"STATE BANK OF MYSORE",SBMY0040966,NA,LOKAPUR,"PLOT NO.2319 BY 1 WARD NO.5 BAGALKOT ROAD LOKAPUR",0,LOKAPUR,BAGALKOTE,KARNATAKA
"STATE BANK OF MYSORE",SBMY0040965,NA,"SADASHIVANAGAR BELGAUM","PLOT NO. 17, R.S. NO. 1736, CTS NO. 4838/21, MAIN ROAD, SADASHIVANAGAR, BELGAUM 590019",2474124,BELGAUM,BELGAUM,KARNATAKA
"STATE BANK OF MYSORE",SBMY0040964,NA,"RAMTHIRTHA NAGAR","PLOT NO 2070 CTS NO 2964 DOUBLE ROAD RAMTHIRTHA NAGARA BELGAUM",0,BELGAUM,BELGAUM,KARNATAKA
"STATE BANK OF MYSORE",SBMY0040963,NA,GALATAGA,"PLOT NO.2197 KHADAKLAT ROAD RENUKA TEMPLE ROAD GALATAGA 591212 LOKAPUR",0,GALATGA,BELGAUM,KARNATAKA
"STATE BANK OF MYSORE",SBMY0040962,NA,"PATAMATA VIJAYAWADA","D NO 40 1 90,9TH AVENUE KANNA NAGAR BENZ CIRCLE VIJAYAWADA 520010 ANDHRA PRADESH",0,PATAMATA,KRISHNA,"ANDHRA PRADESH"
"STATE BANK OF MYSORE",SBMY0040961,NA,VIZIANAGARAM,"D NO 20 20 1 SRI RAVERA PLAZA 100 FT.RING ROAD VIZIANAGARAM 535003",0,VIZIANAGARAM,VIZIANAGARAM,"ANDHRA PRADESH"
"STATE BANK OF MYSORE",SBMY0040960,NA,BOPAL,"HARI DARSHAN COMPLEX OPP.MARUT NANDAN SOCIETY BOPAL GHUMA ROAD BOPAL AHEMEDABAD 380058",0,BOPAL,AHMEDABAD,GUJARAT
"STATE BANK OF MYSORE",SBMY0040959,NA,"FERGUSSON COLLEGE PUNE","COMPUTER SCIENCE BUILDING FURGUSSON COLLEGE CAMPUS NEAR DNYANESHWAR PADUKA CHOWK SHIVAJI NAGAR PUNE",0,PUNE,PUNE,MAHARASHTRA
"STATE BANK OF MYSORE",SBMY0040958,NA,"REGIONAL INSTITUTE OF EDUCATION","SRI JAYACHAMARAJENDRA COLLEGE OF ENGINERRING ROAD,MYSORE 570006",0,MYSORE,MYSORE,KARNATAKA
"STATE BANK OF MYSORE",SBMY0040957,NA,"VEDAYAPALEM NELLORE","K V K TOWERS NO 15 292 A BRINDAVAN BANK STREET NELLORE 524001",0,NELLORE,NELLORE,"ANDHRA PRADESH"
"STATE BANK OF MYSORE",SBMY0040956,NA,ARALIKATTE,"COOL WELL TOWER OPPOSITE DOUBLE TANK SALAGAME ROAD HASSAN",0,HASSAN,HASSAN,KARNATAKA
"STATE BANK OF MYSORE",SBMY0040955,NA,HEBBALE,"GRAMA PANCHAYAT BUILDING HEBBALE ARKALGUD TALUK HASSAN",0,ARKALGUD,HASSAN,KARNATAKA
"STATE BANK OF MYSORE",SBMY0040954,NA,"SPECIALISED NRI BRANCH","NO 2 1 2 BY 6 HILL GROVE CHILIMBI MANGALORE 575006",0,MANGALORE,"DAKSHIN KANNAD",KARNATAKA
"STATE BANK OF MYSORE",SBMY0040953,NA,KADABA,"SHALOM TOWERS,MAIN ROAD,KADABA,PUTTUR TALUK,DAKSHINA KANNADA DISTRICT 574221",0,KADABA,"DAKSHIN KANNAD",KARNATAKA
"STATE BANK OF MYSORE",SBMY0040952,NA,VITTAL,"REEHA AND PARKLINE COMPLEX,OPP JAIN BASADI,VITTAL,BANTWAL TALUK PIN 574243 DAKSHIN KANNADA",0,BANTVAL,"DAKSHIN KANNAD",KARNATAKA
"STATE BANK OF MYSORE",SBMY0040951,NA,SUBRAMANYA,"SRINIKETANA BUILDING CAR STREET SUBRAMANYA SULLIA TALUK 574238",0,SUBRAMANYA,"DAKSHIN KANNAD",KARNATAKA
"STATE BANK OF MYSORE",SBMY0040950,NA,SERILINGAMPALLY,"MEGHANA HEIGHTS D NO 20 M BY 622 PLOT NO 622 MATRUSHREE NAGAR MIYAPUR SERILINGAMPALLY",0,"SER LINGAMPALLY",RANGAREDDY,"ANDHRA PRADESH"
"STATE BANK OF MYSORE",SBMY0040949,NA,"LAKSHMIPURAM GUNTUR","3 29 218 BY A BHAVYA CASTLE KRISHNA NAGAR MAIN ROAD OPP.ESI HOSPITAL GUNTUR 522007",0,GUNTUR,GUNTUR,"ANDHRA PRADESH"
"STATE BANK OF MYSORE",SBMY0040948,NA,"VIDYA NAGAR","SITE NO 30 2ND CROSS MITRA LAY OUT VIDYANAGAR LAYOUT DAVANAGERE",0,DAVANGERE,DAVANGERE,KARNATAKA
"STATE BANK OF MYSORE",SBMY0040947,NA,"SHANKAR VIHAR","DOOR NO 1946 BY 33 NEAR LIC OFFICE PB ROAD SHANKAR VIHAR DAVANAGERE",0,DAVANGERE,DAVANGERE,KARNATAKA
"STATE BANK OF MYSORE",SBMY0040946,NA,"SARSWATHI NAGAR","SARSWATHI NAGAR BADAVANE DURGAMBIKA SCHOOL ROAD DAVANGERE",0,DAVANGERE,DAVANGERE,KARNATAKA
"STATE BANK OF MYSORE",SBMY0040945,NA,"PATEL NAGAR","OPP MG AUTOMOBILES ANATHAPUR ROAD PATELNAGAR BELLARY",0,BELLARY,BELLARY,KARNATAKA
"STATE BANK OF MYSORE",SBMY0040944,NA,"BASAVESHWARA NAGAR","GANDHINAGAR 3RD CROSS OPP.BASAVESHWARA NAGAR II CROSS BELLARY",0,BELLARY,BELLARY,KARNATAKA
"STATE BANK OF MYSORE",SBMY0040943,NA,MARIYAMMANAHALLI,"D NO 5 BY 44 VENKATAGIRI ARCADE MAIN ROAD MARIYAMMANAHALLI BELLARY KARNATAKA",0,MARIAMMANAHALLI,BELLARY,KARNATAKA
"STATE BANK OF MYSORE",SBMY0040942,NA,"REGION 3 MZ","SRI LAKSHMI VENKATESHWARA COMPLEX NANJANGUD ROAD",224127,CHAMARAJANAGAR,CHAMARAJANAGAR,KARNATAKA
"STATE BANK OF MYSORE",SBMY0040938,NA,RAMANJANEYANAGAR,"NO.28,SRI ANJANEYA HBCS LTD,AREHALLI VILLAGE,UTTARAHALLY HOBLI,BANGALORE 560061",0,BANGALORE,"BANGALORE URBAN",KARNATAKA
"STATE BANK OF MYSORE",SBMY0040934,NA,"NRI BRANCH KORAMANGALA","NO.11,KORAMANGALA 1ST BLOCK,WARD NO 68,EJIPURA,KORAMANGALA,BANGALORE 560034",0,BANGALORE,"BANGALORE URBAN",KARNATAKA
"STATE BANK OF MYSORE",SBMY0040933,NA,"KRISHNA CAF","AYYA ARCADE OPP DEEPAK PETROL BUNK BH ROAD SHIMOGA 577201",0,SHIMOGA,SHIMOGA,KARNATAKA
"STATE BANK OF MYSORE",SBMY0040932,NA,KADATHI,"KADATHI VILLAGE AND POST HARAPANAHALLI TALUK DAVANAGERE DIST",0,HARPANAHALLI,DAVANGERE,KARNATAKA
"STATE BANK OF MYSORE",SBMY0040931,NA,MACHILIPATNAM,"SIRI ESTATES K NO 11 BY 305 TO 315 ROBERTSON PET MACHILIPATNAM",0,MACHILIPATNAM,KRISHNA,"ANDHRA PRADESH"
"STATE BANK OF MYSORE",SBMY0040930,NA,KANNUR,"SONAPANAHALLI CROSS,KANNUR POST,BANGALORE EAST TALUK BANGALORE URBAN DIST PIN 562149",0,BANGALORE,"BANGALORE URBAN",KARNATAKA
"STATE BANK OF MYSORE",SBMY0040929,NA,ANANTAPUR,"18 BY 251 OLD TOWN GURUPRASAD COMPLEX RF ROAD ANANTAPUR 515001 ANDHRA PRADESH",0,ANANTAPUR,ANANTAPUR,"ANDHRA PRADESH"
"STATE BANK OF MYSORE",SBMY0040928,NA,DHARMAVARAM,"D NO 25 619 BY 1 LAKSHMI CHENNAKESAV PURAM CHARMAVARAM 515671",0,DHARMAVARAM,ANANTAPUR,"ANDHRA PRADESH"
"STATE BANK OF MYSORE",SBMY0040927,NA,CHITTOR,"2 930 POSTAL COLONY KONGA REDDY PALLI CHITTOR 517001",0,CHITTOOR,CHITTOOR,"ANDHRA PRADESH"
"STATE BANK OF MYSORE",SBMY0040926,NA,"KAMA REDDY","ASSOCIATES RAILWAY STATION ROAD KAMAREDDY NIZAMABAD 503111",0,KAMAREDDY,NIZAMABAD,"ANDHRA PRADESH"
"STATE BANK OF MYSORE",SBMY0040925,NA,TANUKU,"27 9 6 NSC BOSE ROAD TANUKU 534211 WEST GODAVARI",0,TANUKU,"WEST GODAVARI","ANDHRA PRADESH"
"STATE BANK OF MYSORE",SBMY0040924,NA,"VINOBANAGAR SAGAR","VINOBANAGAR EXTENSION SAGAR SHIMOGA DIST 577401",0,SAGAR,SHIMOGA,KARNATAKA
"STATE BANK OF MYSORE",SBMY0040923,NA,"HOSAMANE EXTENSION","MARUTHI KRUPA JAIL ROAD HOSAMANE EXTENSION SHIMOGA 577201",0,SHIMOGA,SHIMOGA,KARNATAKA
"STATE BANK OF MYSORE",SBMY0040922,NA,POTHERI,"RAM COMPLEX,NO8 BY 11,GST ROAD POTHERI,CHENNAI,PIN 603203",0,GUDUVANCHERI,KANCHEEPURAM,"TAMIL NADU"
"STATE BANK OF MYSORE",SBMY0040921,NA,THIRUPORUR,"NO7,PUDHU STREET,OMR MAIN ROAD,THIRUPORUR,PIN 603110",0,TIRUPPORUR,KANCHEEPURAM,"TAMIL NADU"
"STATE BANK OF MYSORE",SBMY0040920,NA,SATHANUR,"KHATA NO 67 BY 1 SATHANUR VILLAGE JALA HOBLI BANGALORE NORTH TALUK KARNATAKA 562157",0,BANGALORE,BANGALORE,KARNATAKA
"STATE BANK OF MYSORE",SBMY0040919,NA,MANDUR,"MANDUR BUDIGERE CROSS RD.BANGALORE EAST TALUK BANGALORE DIST PIN 560 049",0,BUDIGERE,"BANGALORE RURAL",KARNATAKA
"STATE BANK OF MYSORE",SBMY0040918,NA,AVALAHALLI,"SITE NO 60 SY NO 4 BESCOM ROAD,AVALAHALLI,BIDARALLI,BANGALORE 560049",0,HOSKOTE,"BANGALORE RURAL",KARNATAKA
"STATE BANK OF MYSORE",SBMY0040917,NA,KUDITHINE,"SY NO 552 BY B PALLEDA LINGAPPA BADAWANE OPP DARGAH NH 63 BELLARY HOSPET ROAD KUDITHINE",0,KUDATHINI,BELLARY,KARNATAKA
"STATE BANK OF MYSORE",SBMY0040916,NA,VIMS,"VIJAYANAGAR INSTITUTE OF MEDICAL SCIENCES CAMPUS,CATONMENT,BELLARY 583104",0,BELLARY,BELLARY,KARNATAKA
"STATE BANK OF MYSORE",SBMY0040915,NA,CHAGANUR,"B SURESH BABU BUILDING CHAGANUR BELLARY DIST KARNATAKA",0,BELLARY,BELLARY,KARNATAKA
"STATE BANK OF MYSORE",SBMY0040914,NA,BHAGYANAGAR,"PLOT NO 691 BY B BHAGYANAGAR KOPPA KARNATAKA",0,KOPPAL,KOPPAL,KARNATAKA
"STATE BANK OF MYSORE",SBMY0040913,NA,MEDAVAKKAM,"PLOT NO 31 AND 31A,DOOR NO 6 BY 16,VELACHERY MAIN ROAD,MEDAVAKKAM PIN 600100",0,TAMBARAM,KANCHEEPURAM,"TAMIL NADU"
"STATE BANK OF MYSORE",SBMY0040912,NA,URAPPAKKAM,"G N COMPLEX,NO29 IYANCHERRY ROAD,URAPPAKKAM,KANCHEEPURAM DISTRICT PIN603210",0,GUDUVANCHERI,KANCHEEPURAM,"TAMIL NADU"
"STATE BANK OF MYSORE",SBMY0040911,NA,"R G UNIVERSITY OF HEALTH SCIENCE","4TH BLOCK JAYANGAR BANGALORE 560041",0,BANGALORE,BANGALORE,KARNATAKA
"STATE BANK OF MYSORE",SBMY0040910,NA,BILIKERE,"NO.537 BY 2 BILIKERE IRAHALLI ROAD,BILIKERE,HUNSUR,MYSORE 571103",0,BILIKERE,MYSORE,KARNATAKA
"STATE BANK OF MYSORE",SBMY0040909,NA,BETTADAPURA,"NO.741 BY 1,2,3,PERIYAPATNA HASSAN ROAD,BETTADAPURA PERIYAPATNA MYSORE 571102",0,BETTADAPURA,MYSORE,KARNATAKA
"STATE BANK OF MYSORE",SBMY0040908,NA,VENUR,"GARDEN VIEW COMPLEX NEAR BUS STAND VENUR BELTHANGADY TALUK",0,VENOOR,"DAKSHIN KANNAD",KARNATAKA
"STATE BANK OF MYSORE",SBMY0040907,NA,DUDDA,"RS DUDDA SAMPIGE ROAD DUDDA HASSAN",0,DUDDA,HASSAN,KARNATAKA
"STATE BANK OF MYSORE",SBMY0040906,NA,"GULBARGA REGION","RAGHOJI COMPLEX,119 BY 8,OPP TV STATION,HUMNABAD ROAD,GULBARGA 585104",0,GULBARGA,GULBARGA,KARNATAKA
"STATE BANK OF MYSORE",SBMY0040905,NA,"BELGAUM ZONAL OFFICE","OPP MARATHA MANGAL KARYALAY NEAR RAILWAY OVER BRIDGE KANAPURA ROAD",0,BELGAUM,BELGAUM,KARNATAKA
"STATE BANK OF MYSORE",SBMY0040904,NA,HALEBEEDU,"KHATA NO 42 BY 1 RAJANA SHIRIYUR ROAD HALEBEEDU BELUR TALUK HASSAN DIST",0,HALEBEEDU,HASSAN,KARNATAKA
"STATE BANK OF MYSORE",SBMY0040903,NA,BELAVADI,"KHATA NO 529 MAIN ROAD BELAVADI ARKALGUD TALUK HASSAN",0,ARKALGUD,HASSAN,KARNATAKA
"STATE BANK OF MYSORE",SBMY0040902,NA,SATHYAMANGALA,"KHATA NO 228 GOWRIKOPPAL EXTENTION VIDYA NAGAR HASSAN",0,HASSAN,HASSAN,KARNATAKA
"STATE BANK OF MYSORE",SBMY0040901,NA,"MANGALORE ZONE","MANJUSHA BUILDING BEJAI CHURCH ROAD BEJAI MANGALORE 575004 KARNATAKA",9482589035,MANGALORE,"DAKSHIN KANNAD",KARNATAKA
"STATE BANK OF MYSORE",SBMY0040900,NA,"REGIONAL OFFICE KARWAR","3RD FLOOR,JANAKI PLAZA,DR PIKALE ROAD,ABOVE SBI BRANCH KARWAR 581301",0,KARWAR,"UTTAR KANNAD",KARNATAKA
"STATE BANK OF MYSORE",SBMY0040899,NA,HUNASAMARANAHALLI,"BIAR ROAD HUNASAMARANAHALLI JAALA HOBLI BANGALORE NORTH TALUK 562157",0,HUNSIMARANAHALI,HUNSIMARANAHALI,KARNATAKA
"STATE BANK OF MYSORE",SBMY0040898,NA,ISEC,"ISEC BRANCH DR V K R V ROAD NAGARABHAVI POST BANGALORE 560072",0,NAGARABAVI,"BANGALORE URBAN",KARNATAKA
"STATE BANK OF MYSORE",SBMY0040897,NA,BHATKAL,"NO 1443 1 F 1ST FLOOR NEW ENGLISH SCHOOL ROAD NAIK CHANDRU CHAMBERS BHATKAL",0,BHATKAL,BHATKAL,KARNATAKA
"STATE BANK OF MYSORE",SBMY0040896,NA,"BELLUR CROSS","NO 338 YALADALLY ROAD B G NAGARA POST BELLUR CROSS BELLUR HOBLI NAGAMANGALA TALUK",0,BELLUR,MANDYA,KARNATAKA
"STATE BANK OF MYSORE",SBMY0040895,NA,HALAGUR,"AM DEVAGIRI CHANNAPATNA ROAD 1ST CROSS HALAGUR 571421 MALAVALLI TALUK MANDYA DIST",0,HALAGUR,MANDYA,KARNATAKA
"STATE BANK OF MYSORE",SBMY0040894,NA,CHIKKAGOLLARAHATTI,"SITE NO 1,CHIKKAGOLLARAHATTI,MAGADI MAIN ROAD,OPP SAI GARMENTS,DASANAPURA HOBLI,BANGALORE 562123",0,NELAMANGALA,"BANGALORE RURAL",KARNATAKA
"STATE BANK OF MYSORE",SBMY0040893,NA,"KADABAGERE CROSS","MACHOHALLY POST MAGADI MAIN ROAD BANGALORE 560091",0,MAGADI,"BANGALORE RURAL",KARNATAKA
"STATE BANK OF MYSORE",SBMY0040892,NA,AMBALE,"NO 107SC STREET AMBALE VILLAGE571441 YELANDUR TALUK CHAMRAJNAGAR DIST",0,YELANDUR,CHAMARAJANAGAR,KARNATAKA
"STATE BANK OF MYSORE",SBMY0040891,NA,TELLANUR,"NO30 MARAMMA STREET TELLANUR VILLAGE571440 KOLLEGAL TALUK CHAMRAJNAGAR DIST",0,KOLLEGAL,CHAMARAJANAGAR,KARNATAKA
"STATE BANK OF MYSORE",SBMY0040890,NA,SHAGYA,"GARDEN HOUSE THOMIYAR PALYAM ROAD SHAGYA VILLAGE571440 KOLLEGAL TALUK CHMRAJNAGAR DIST",0,KOLLEGAL,CHAMARAJANAGAR,KARNATAKA
"STATE BANK OF MYSORE",SBMY0040889,NA,YERGAMBALLI,"NO 9071NEW EXTENSION MANDAL PANCHAT ROAD YERGAMBALLI571441 YELANDUR TALUK CHAMRAJNAGAR",0,YELANDUR,CHAMARAJANAGAR,KARNATAKA
"STATE BANK OF MYSORE",SBMY0040887,NA,HEBSUR,"NO 122BRHAMIN STREET HEBSUR VILLAGE571342 CHAMRAJNAGAR TALUK CHAMRAJNAGAR DIST",0,YELANDUR,CHAMARAJANAGAR,KARNATAKA
"STATE BANK OF MYSORE",SBMY0040886,NA,HONGANUR,"NO 61BRHAMIN STREET HONGANUR VILLAGE PIN 571117 CHAMRAJNAGAR TALUK CHAMRAJ NAGAR DIST",0,YELANDUR,CHAMARAJANAGAR,KARNATAKA
"STATE BANK OF MYSORE",SBMY0040885,NA,HOOGYA,"NO 502MINYAM MAIN ROAD HOOGYA VILLAGE571444 KOLLEGAL TALUK CHAMRAJNAGAR DIST",0,KOLLEGAL,CHAMARAJANAGAR,KARNATAKA
"STATE BANK OF MYSORE",SBMY0040884,NA,DODDAHINDAVADI,"NO1489 GOVT HIGH SCHOOL ROAD DODDINDUVADI VILLAGE PIN571443 KOLLEGAL TAUK CHAMRAJNAGAR",0,KOLLEGAL,CHAMARAJANAGAR,KARNATAKA
"STATE BANK OF MYSORE",SBMY0040883,NA,BHIWADI,"A 100 103 AND 118 121 BHIWADI INDUSTRIAL AREA DIST ALWAR RAJSTHAN",0,BHIWADI,ALWAR,RAJASTHAN
"STATE BANK OF MYSORE",SBMY0040881,NA,"H CROSS","VIJAYAPURA ROAD H CROSS SIDLAGHATTA TALUK CIKKABALLAPURA DIST 562102",0,"H CROSS",KOLAR,KARNATAKA
"STATE BANK OF MYSORE",SBMY0040880,NA,CHIKKABANAVARA,"SITE NO 1 AND 2 SY NO 53 BY 2 HESARAGHATTA MAIN ROAD CHIKKABANAVARA BANGALORE 560090",0,HESARAGHATTA,"BANGALORE URBAN",KARNATAKA
"STATE BANK OF MYSORE",SBMY0040879,NA,BOMMASANDRA,"JIGANI HOBLI ANEKAL TALUK 560105 BANGALORE URBAN KARNATAKA",0,BOMMASANDRA,"BANGALORE URBAN",KARNATAKA
"STATE BANK OF MYSORE",SBMY0040878,NA,BASHETTIHALLI,"444 SVB COMPLEX DODDABALLAPUR MAIN ROAD BESHETTIHALLI 561203",0,DODDABALLAPUR,"BANGALORE RURAL",KARNATAKA
"STATE BANK OF MYSORE",SBMY0040877,NA,SARJAPURA,"HNR COMPLEX BANGALORE ROAD SARJAPURA 562125 BANGALORE DIST",0,SARJAPURA,"BANGALORE URBAN",KARNATAKA
"STATE BANK OF MYSORE",SBMY0040876,NA,"VIDYANAGAR SHIMOGA","NO 1 ANUGRAHA BH ROAD VIDYA NAGAR SHIOMA 577201 KARNATAKA",0,SHIMOGA,SHIMOGA,KARNATAKA
"STATE BANK OF MYSORE",SBMY0040875,NA,"MYSORE MEDICAL COLLEGE BRANCH","MEDICAL COLLEGE BUILDING,RAILWAYSTATIONROAD,MYSORE 570001 KARNATAKA",0,MYSORE,MYSORE,KARNATAKA
"STATE BANK OF MYSORE",SBMY0040874,NA,JAVAGAL,"STATE BANK OF MYSORE P N COMPLEX OPPOSITE POLICE STATION JAVAGAL 573125",0,JAVAGAL,HASSAN,KARNATAKA
"STATE BANK OF MYSORE",SBMY0040873,NA,BANAVARA,"BH ROAD NH 206 BANAVARA 573112 ARSIKERE TALUK HASSAN DT KARNATAKA",0,BANAVAR,HASSAN,KARNATAKA
"STATE BANK OF MYSORE",SBMY0040872,NA,"DAIRY CIRCLE","DAIRY CIRCLE BM ROAD HASSAN 573201 KARNATKA",0,HASSAN,HASSAN,KARNATAKA
"STATE BANK OF MYSORE",SBMY0040871,NA,"THE ART OF LIVING BRANCH UDAYAPURA","VED VIGNAN MAHA VIDYA PEETH,21 ST KM,KANAKAPURA MAIN RD,UDAYAPURA,BANGALORE 560 082",0,UDAYAPURA,UDAYAPURA,KARNATAKA
"STATE BANK OF MYSORE",SBMY0040870,NA,"HIGH COURT CIRCUIT BENCH","HIGH COURT CIRCUIT BENCH BRANCH HIGH COURT BELUR DHARWARD 580011",0,HUBLIDHARWAD,DHARWAD,KARNATAKA
"STATE BANK OF MYSORE",SBMY0040869,NA,"DAVANAGERE UNIVERSITY CAMPUS","SHIVAGANGOTHRI THOLAHUNSE 577002 DAVANAGERE",0,DAVANGERE,DAVANGERE,KARNATAKA
"STATE BANK OF MYSORE",SBMY0040868,NA,"SPB SARJAPUR ROAD BRANCH","40,KHAMESHWARI KAIKONDRAHALLI SARJAPUR ROAD CARMELRAM POST BANGALORE 560035 KARNATAKA",0,BANGALORE,"BANGALORE URBAN",KARNATAKA
"STATE BANK OF MYSORE",SBMY0040867,NA,ANKOLA,"ABOVE SHENVI ENTERPRISES KARWAR ROAD ANKOLA 581314",0,ANKOLA,"UTTAR KANNAD",KARNATAKA
"STATE BANK OF MYSORE",SBMY0040866,NA,HALIYAL,"OPPOSITE KSRTC BUS STAND HALIYAL UTTARA KANNADA DIST 581329",0,HALIYAL,"UTTAR KANNAD",KARNATAKA
"STATE BANK OF MYSORE",SBMY0040865,NA,PONNACHI,"NO6GOVERNMENT ROADPONNACHI VILLAGE PIN571444 KOLLEGAL TALUKCHAMARAJANAGAR DISTRICT",0,KOLLEGAL,CHAMARAJANAGAR,KARNATAKA
"STATE BANK OF MYSORE",SBMY0040864,NA,"SULERI PALYA","NO38 SULERI PALYA VILLAGE PIN571439 KOLLEGAL TALUKCHAMARAJANAGAR DISTRICT",0,KOLLEGAL,CHAMARAJANAGAR,KARNATAKA
"STATE BANK OF MYSORE",SBMY0040863,NA,MULLURU,"NO 964 MULLUR VILLAGE PIN 571442 KOLLEGAL TALUK",0,KOLLEGAL,CHAMARAJANAGAR,KARNATAKA
"STATE BANK OF MYSORE",SBMY0040861,NA,ATHANI,"PLOT NO 978 B 5 A IST FLOOR SATTI ROAD ATHANI 591304",0,ATHANI,BELGAUM,KARNATAKA
"STATE BANK OF MYSORE",SBMY0040859,NA,MUDDEBIHAL,"BUILDING NO 3 AND 4 SHOP NO 3 AND 4,SURVEY NO 79,85 BY 1,85 BY 2,85 BY 3 MUDDEBIHAL BIJAPUR DT",0,MUDDEBIHAL,BIJAPUR,KARNATAKA
"STATE BANK OF MYSORE",SBMY0040858,NA,MUDHOL,"CTS NO 2655 WARD NO 05 OPP GANESH TEMPLE MUDHOL 587313 BAGALKOT DIST",0,MUDHOL,BAGALKOTE,KARNATAKA
"STATE BANK OF MYSORE",SBMY0040857,NA,"BASAVAN AGEWADI","GROUND FLOOR,CTS NO.1760,OPPOSITE BASAVESHWAR TEMPLE,BASAVAN BAGEWADI,DIST BIJAPUR",0,"BASVAN BAGEVADI",BIJAPUR,KARNATAKA
"STATE BANK OF MYSORE",SBMY0040856,NA,SHIGGAON,"SHIGGAON BRANCH,RAIKAR BUILDING,NEAR OLD BUS STAND,SHIGGAON581250,HAVERI DIST",0,SHIGGAON,HAVERI,KARNATAKA
"STATE BANK OF MYSORE",SBMY0040855,NA,"CCPC MANGAORE","48793 BY 9 DIVYA ENCLAVE,OPP CANARA COLLEGE M G ROAD MANGALORE 575003",0,MANGALORE,"DAKSHIN KANNAD",KARNATAKA
"STATE BANK OF MYSORE",SBMY0040854,NA,KUREKUPPA,"MAIN ROAD KUREKUPPA 583123 SANDUR TALUK BELLARY DIST",0,SANDUR,BELLARY,KARNATAKA
"STATE BANK OF MYSORE",SBMY0040853,NA,AFZALPUR,"P NO04 MAKKIKARJUNA CHOWK 4 ROAD JUNCTION AFZALPUR GULBARGA DIST KARNATAKA",0,AFZALPUR,GULBARGA,KARNATAKA
"STATE BANK OF MYSORE",SBMY0040852,NA,"PESITM CAMPUS SHIMOGA","GUDDADA AREKERE SAGARA ROAD,SHIMOGA SHIMOGA SHIMOGA 577204",0,SHIMOGA,SHIMOGA,KARNATAKA
"STATE BANK OF MYSORE",SBMY0040851,NA,VEMAGAL,"SETTHI ROAD VEMAGAL VILLAGE AND POST KOLAR TALUK",0,VEMGAL,KOLAR,KARNATAKA
"STATE BANK OF MYSORE",SBMY0040850,NA,"TUMKUR UNIVERSITY CAMPUS","GOVERNMENT SCIENCE COLLEGE PREMISES,TUMKUR UNIVERSITY CAMPUS,B H ROAD TUMKUR 572102",0,TUMKUR,TUMKUR,KARNATAKA
"STATE BANK OF MYSORE",SBMY0040849,NA,RAJANUKUNTE,"KOKOLU MAIN ROAD RAJANUKUNTE VILLAGE BANGALORE NORTH TALUK BANGALORE URBAN DIT",0,RAJANAKUNTE,"BANGALORE URBAN",KARNATAKA
"STATE BANK OF MYSORE",SBMY0040848,NA,KHANAPUR,"TPC 1558,WAZ BUILDING,BELGAUM GOA ROAD,OPP MINI VIDHANASOUDHA,KHANAPUR 591302 BELGAUM DIST",0,KHANAPUR,BELGAUM,KARNATAKA
"STATE BANK OF MYSORE",SBMY0040847,NA,JIGANI,"JIGANI MAIN ROAD,OPP V INN HOTEL AND GOVT HOSPITAL,ANEKAL TALUK,JIGANI,BANGALORE URBAN",0,JIGANI,"BANGALORE URBAN",KARNATAKA
"STATE BANK OF MYSORE",SBMY0040846,NA,KOPPA,"SARVODAYA VIDYAVARDAKA TRUST BUILDING,KOPPAKOWDLE ROAD,KOPPA 571425 MADDUR TALUK",0,KOPPA,MANDYA,KARNATAKA
"STATE BANK OF MYSORE",SBMY0040845,NA,ATTIBELE,"NO 169BY1,2,3,J.P.COMPLEX,ATTIBELE TOWN,ANEKAL TALUK,BANGALORE URBAN 562017",0,ATTIBELE,"BANGALORE URBAN",KARNATAKA
"STATE BANK OF MYSORE",SBMY0040844,NA,KUMBALGODU,"SY NO.63BY1,ANCHEPALYA,KUMBALGODU VIL,BANGALORE MYSORE ROAD,BANGALORE URBAN DIST 560060",0,KUMBALAGODU,"BANGALORE URBAN",KARNATAKA
"STATE BANK OF MYSORE",SBMY0040843,NA,GONIKOPPAL,"HARIDARSHAN ARCADE MAIN ROAD GONIKOPPAL VIRAJPET TALUK 571213 KARNATAKA",0,GONIKOPPAL,KODAGU,KARNATAKA
"STATE BANK OF MYSORE",SBMY0040842,NA,SAVANUR,"A P M C BUILDING,NEAR BUS STAND,SAVANUR 581118 HAVERI DIST",0,SAVANUR,HAVERI,KARNATAKA
"STATE BANK OF MYSORE",SBMY0040841,NA,HANAGAL,"OLD SBI BUILDING,NEAR NEW BUS STAND,CHIDAMBARNAGAR,HANGAL 581104 HAVERI DIST",0,HANAGAL,HAVERI,KARNATAKA
"STATE BANK OF MYSORE",SBMY0040840,NA,AMRUTHUR,"AMRUTHUR KUNIGAL TALUK TUMKUR DISTRICT PIN 572111",0,AMRUTHUR,TUMKUR,KARNATAKA
"STATE BANK OF MYSORE",SBMY0040838,NA,YELBURGA,"PLOT NO 7,NEAR BUS STAND,YELBURGA 583236",0,YELBURGA,KOPPAL,KARNATAKA
"STATE BANK OF MYSORE",SBMY0040837,NA,LINGASUGUR,"ADINAL COMPLEX,NO 2 12 116,LINGASUGUR 584122",0,LINGASUGUR,RAICHUR,KARNATAKA
"STATE BANK OF MYSORE",SBMY0040836,NA,MANVI,"ARUNODAYA COMPLEX MAIN ROAD,RAICHUR GANIGERA STATE HIGHWAY MANVI 584123",0,MANVI,RAICHUR,KARNATAKA
"STATE BANK OF MYSORE",SBMY0040835,NA,MOKA,"OPP TO NEW KSRTC BUS STAND MAIN ROAD MOKA 583117",0,MOKA,BELLARY,KARNATAKA
"STATE BANK OF MYSORE",SBMY0040834,583006530,KADLEBALU,"NAGARAJ BUILDING NEAR ANJANEYA TEMPLE HAGARIBOMMANAHALLI TALUK BELLARY DISTRICT KADLEBALU 583212",9880548573,BELLARY,BELLARY,KARNATAKA
"STATE BANK OF MYSORE",SBMY0040833,NA,SHIRAHATTI,"DR BURBURE BLDG CHABBI ROAD NEAR BUS STAND SHIRAHATTI",0,SHIRAHATTI,GADAG,KARNATAKA
"STATE BANK OF MYSORE",SBMY0040832,NA,NARAGUND,"NARAGUND BRANCH,CTS NO.2115 BY 2116,TMC ROAD,MARKET,NARAGUND 582207,GADAG DIST",0,NARGUND,GADAG,KARNATAKA
"STATE BANK OF MYSORE",SBMY0040831,NA,KUNDGOL,"DHARWAD SHETTAR ONI NEAR BUS STAND KUNDAGOL",0,KUNDGOL,DHARWAD,KARNATAKA
"STATE BANK OF MYSORE",SBMY0040830,NA,HIREKURUR,"TPC NO 853 D D1 D2 PD SHETTAR COMPLEX BESIDE KSRTC BUS STAND HIREKUR 581111",0,HIREKERUR,HAVERI,KARNATAKA
"STATE BANK OF MYSORE",SBMY0040829,NA,SIDDAPURA,"DURGA KRUPA COMPLEX,MAIN ROAD,SIDDAPURA 576229,KUNDAPUR TALUK,UDUPI DIST",0,SIDDAPUR,UDIPI,KARNATAKA
"STATE BANK OF MYSORE",SBMY0040828,NA,NAVALGUND,"GANESH COMPLEX NEAR BUS STAND NAVALGUND 582208",0,NAVALGUND,DHARWAD,KARNATAKA
"STATE BANK OF MYSORE",SBMY0040827,NA,RON,"MULLANBHAVI CROSS GADAG MAIN ROAD RON 582209",0,RON,GADAG,KARNATAKA
"STATE BANK OF MYSORE",SBMY0040826,NA,KALGHATGI,"NEAR APMC HUBLI KARWAR ROAD KALAGHATAGI 581204",0,KALAGHATAGI,DHARWAD,KARNATAKA
"STATE BANK OF MYSORE",SBMY0040825,NA,MUNDARGI,"DR Y S METI BUILDING OPP J A COLLEGE MAIN ROAD MUNDARGI 582118",0,MUNDARGI,GADAG,KARNATAKA
"STATE BANK OF MYSORE",SBMY0040823,NA,YADGIR,"MALHAR COMPLEX OPPOSITE TO DC OFFICE,YADGIR,585202",0,YADGIRI,GULBARGA,KARNATAKA
"STATE BANK OF MYSORE",SBMY0040822,NA,SHAHPUR,"P NO60 BASAVESHWAR GUNJ,UADGIR ROAD,SHAHPUR 585223 YADGIR DIST KARNATAKA",0,SHAHAPUR,GULBARGA,KARNATAKA
"STATE BANK OF MYSORE",SBMY0040821,NA,BASAVAKALYAN,"CMC NO 30 259 BY 261 BY 261 BY 1N SY NO 4 BY 7,BASAVAKALYAN 585327 BIDAR DIST KARNATAKA",0,BASAVAKALYAN,"BANGALORE URBAN",KARNATAKA
"STATE BANK OF MYSORE",SBMY0040820,NA,CHIKKODI,"B K COLLEGE ROAD CHIKKODI CHIKKODI TALUK BELGAUM DIST KARNATAKA",0,CHIKODI,CHIKODI,KARNATAKA
"STATE BANK OF MYSORE",SBMY0040819,NA,SINDAGI,"TMC NO 1278,HUGAR COMPLEX,NEAR VIVEKANANDA CIRCLE,SINDAGI 586128 BIJAPUR DIST",0,SINDGI,BIJAPUR,KARNATAKA
"STATE BANK OF MYSORE",SBMY0040818,NA,RAIBAG,"TPC 2746 SHREE SADAN,SHREE NAGAR,COURT CIRCLE,STATION ROAD,RAIBAG,591317",0,BELGAUM,BELGAUM,KARNATAKA
"STATE BANK OF MYSORE",SBMY0040817,NA,SAUNDATTI,"PLOT NO 2030BY4,KARADGI BUILDING,APMC YARD,NEAR OLD BUSTAND,SAUNDATTI",0,SAUNDATTI,BELGAUM,KARNATAKA
"STATE BANK OF MYSORE",SBMY0040816,NA,BADAMI,"CTS 2843BBY5B,OPP KABBALGERI CROSS,STATION ROAD,BADAMI,BAGALKOT,PIN 587201",0,BADAMI,BAGALKOTE,KARNATAKA
"STATE BANK OF MYSORE",SBMY0040815,NA,BILGI,"GUDUR COMPLEX,JAMAKHANDI ROAD,BILGI,BAGALKOT,PIN 587116",0,BILGI,BAGALKOTE,KARNATAKA
"STATE BANK OF MYSORE",SBMY0040813,NA,BAILHONGAL,"METGUD COMPLEX,BAGWAN CHAWL,BELGAUM ROAD,BAILHONGAL 591102",0,BAILHONGAL,BELGAUM,KARNATAKA
"STATE BANK OF MYSORE",SBMY0040812,NA,GOKAK,"CTS NO.3412BYA,DALAWAI BUILDING,FIRST FLOOR,BATNA CHOWK,HOSPET GALLI,GOKAK 591307",0,GOKAK,BELGAUM,KARNATAKA
"STATE BANK OF MYSORE",SBMY0040810,NA,"SPECIALISED SME PEENYA II STAGE","EXPORT BHAVAN,PLOT NO 488 BY B,14TH CROSS 4TH PHASE,PEENYA 2ND STAGE,BANGALORE 560058",0,BANGALORE,"BANGALORE URBAN",KARNATAKA
"STATE BANK OF MYSORE",SBMY0040809,NA,"GNDEC CAMPUS BIDAR","GURUNANAK DEV ENGINEERING COLLEGE CAMPUS,MAILOOR ROAD BIDAR",0,BIDAR,BIDAR,KARNATAKA
"STATE BANK OF MYSORE",SBMY0040808,NA,MANGALWARPET,"NO 635BY6 AND 635BY6A,MANGALWARPET,BANGAOLRE MYSORE ROAD,CHIKKAMALUR,CHANNAPATNA 562160",0,CHANNAPATNA,"BANGALORE RURAL",KARNATAKA
"STATE BANK OF MYSORE",SBMY0040807,NA,HORAMAVU,"NO 21 AND 22,OPPSYCON APARTMENTS,HORAMAVU MAINROAD,HORAMAVU,BENGALURU 560043",0,BANGALORE,BANGALORE,KARNATAKA
"STATE BANK OF MYSORE",SBMY0040806,NA,THOOTHUKUDI,"20,VICTORIA EXTENTION ROAD,OPP.TO HOLY CROSS CONVENT,THOOTHUKUDI 628002,TAMIL NADU",0,TUTICORIN,THOOTHUKUDI,"TAMIL NADU"
"STATE BANK OF MYSORE",SBMY0040803,NA,"IIM CAMPUS","IIM CAMPUSBANNERGHATTA ROADBANGALORE 560076",0,BANGALORE,"BANGALORE URBAN",KARNATAKA
"STATE BANK OF MYSORE",SBMY0040802,NA,"REGION V HZ","NEAR RAILWAY OVER BRIDGE,KHANAPUR ROAD,BELGAUM 590011",0,BELGAUM,BELGAUM,KARNATAKA
"STATE BANK OF MYSORE",SBMY0040801,NA,"THANIKACHALAM ROAD","NO 13 6,PLOT NO 31,THANIKACHALAM ROAD,T,NAGAR,CHENNAI 600 017",0,CHENNAI,CHENNAI,"TAMIL NADU"
"STATE BANK OF MYSORE",SBMY0040800,NA,BALEHONNUR,"V S S N BUILDING,OPP GRAM PANCHAYATH OFFICE,NEAR JAYEE CIRCLE,BALEHONNUR 577112",0,BALEHONNUR,CHIKMAGALUR,KARNATAKA
"STATE BANK OF MYSORE",SBMY0040799,NA,DATTAGALLI,"3400RING ROADNEAR NETAJI CIRCLEDATTAGALLI 3RD STAGE,MYSORE 570022",0,MYSORE,MYSORE,KARNATAKA
"STATE BANK OF MYSORE",SBMY0040798,NA,KALKAJI,"K 135,KALKAJI,NEW DELHI 110019",0,DELHI,DELHI,DELHI
"STATE BANK OF MYSORE",SBMY0040797,NA,AMBUR,"BETHESDA HOSPITAL COMPLEXP.BNO.56 MISSION COMPOUNDAMBUR 635802",0,AMBUR,VELLORE,"TAMIL NADU"
"STATE BANK OF MYSORE",SBMY0040796,NA,"VIDYA NAGAR","OPP KANDAYA BHAVANA,BANGALORE MYSORE ROAD,RAMANAGARAM 571511",0,RAMANAGARAM,"BANGALORE RURAL",KARNATAKA
"STATE BANK OF MYSORE",SBMY0040795,NA,"VIKASA SOUDHA","SAMRUDHI,BUDIGERE ROAD,DEVANAHALLI 562110",0,DEVANAHALLI,"BANGALORE RURAL",KARNATAKA
"STATE BANK OF MYSORE",SBMY0040794,NA,"MAHAVEERA CIRCLE","SATHYAM ARCADE,BANGALORE MANGALORE ROAD,PUMP WELL,MANAGALORE 575002",0,MANGALORE,"DAKSHIN KANNAD",KARNATAKA
"STATE BANK OF MYSORE",SBMY0040793,NA,YELLAPURA,"NO 19 BY 3,TUMKUR MADHUGIRI MAIN ROAD,YELLAPURA 572106,ARAKERE POST,TUMKUR TALUK",0,TUMKUR,TUMKUR,KARNATAKA
"STATE BANK OF MYSORE",SBMY0040792,NA,"SRI NIJALINGAPPA LAYOUT","PLOT NO 331,BESIDE MORE SHOP,SRI NIJALINGAPPA LAYOUT,DAVANGERE 577004",0,DAVANGERE,DAVANGERE,KARNATAKA
"STATE BANK OF MYSORE",SBMY0040791,NA,BYATARAYANAPURA,"NO 492,AMRUTHAHALLI MAIN ROAD,TALA CAUVERY LAYOUT,BANGALORE 560092",0,BANGALORE,"BANGALORE URBAN",KARNATAKA
"STATE BANK OF MYSORE",SBMY0040790,NA,"VINAYAKA LAYOUT","SLV RESIDENCY,1ST MAIN ROAD,VINAYAKA LAYOUT,3RD STAGE,VIJAYANAGAR,BANGALORE URBAN,KARNATAKA 560040",0,BANGALORE,"BANGALORE URBAN",KARNATAKA
"STATE BANK OF MYSORE",SBMY0040789,NA,HEBBUR,"SRI RENUKAMBA RICE MILL UPSTAIRS,HEBBUR,TUMKUR,KARNATAKA 572120",0,TUMKUR,TUMKUR,KARNATAKA
"STATE BANK OF MYSORE",SBMY0040788,NA,NAVANAGAR,"CHIKKENKOPPA SRI CHANNAVEERA SHARANARA ANDHARA KALYANA ASHRAM,MAIN ROAD,NAVANAGAR,HUBLI580025",0,"HUBLI DHARWAD",DHARWAD,KARNATAKA
"STATE BANK OF MYSORE",SBMY0040787,NA,BAGALUR,"NO 486,BAGALUR MAIN ROAD,BANGALORE NORTH TALUK BAGALUR 562149",0,BAGALUR,"BANGALORE URBAN",KARNATAKA
"STATE BANK OF MYSORE",SBMY0040786,NA,"HANUMAN NAGAR","SCHEME 40,BEHIND HIDALGA GANESH TEMPLE,HANUMAN NAGAR BELGAUM 591108",0,BELGAUM,BELGAUM,KARNATAKA
"STATE BANK OF MYSORE",SBMY0040785,NA,"BEGUR CROSS","NO.8 BY 1,BOMMANAHALLI ROAD,DEVARACHIKKANAHALLI, BILEKAHALLI POST,BANGALORE 560076",0,BANGALORE,"BANGALORE URBAN",KARNATAKA
"STATE BANK OF MYSORE",SBMY0040784,NA,"AECS LAYOUT","589,60 FT MAIN ROAD,C BLOCK,AECS LAYOUT,KUNDALAHALLY,BANGALORE 560037",0,BANGALORE,"BANGALORE URBAN",KARNATAKA
"STATE BANK OF MYSORE",SBMY0040783,NA,"ASHRAM ROAD","SADGURU SRI SIDHARUDH COMPLEX,OPPBLEDA HOSPITAL,BASWESHWAR NAGAR,ASHRAM ROAD,BIJAPUR 586101",0,BIJAPUR,BIJAPUR,KARNATAKA
"STATE BANK OF MYSORE",SBMY0040781,NA,TAVAREKERE,"KEMPEGOWDA COMPLEX,MAGADI MAIN ROAD,TAVAREKERE562130,BANGALORE SOUTH TALUK",0,TAVAREKERE,"BANGALORE RURAL",KARNATAKA
"STATE BANK OF MYSORE",SBMY0040780,NA,"PRASHANTH NAGAR","NO. 32,9TH MAIN,BINNY LAYOUT,2ND STAGE,VIJAYNAGAR,BANGALORE,KARNATAKA 560040",0,BANGALORE,"BANGALORE URBAN",KARNATAKA
"STATE BANK OF MYSORE",SBMY0040779,NA,KAIKAMBA,"SERRAO COMPLEX,MAIN ROAD,KAIKAMBA,KINNIKAMBLA P.O.574151,MANGALORE TALUK",0,KAIKAMBA,"DAKSHIN KANNAD",KARNATAKA
"STATE BANK OF MYSORE",SBMY0040777,NA,NAVANAGAR,"PLOT NO.69,SECTOR NO.63,NAVANAGAR,BAGALKOT,KARNATAKA 587103",0,BAGALKOT,BAGALKOTE,KARNATAKA
"STATE BANK OF MYSORE",SBMY0040776,NA,MUDDENAHALLI,"SIR M.VISVESVARAYA MUSEUM COMPLEX MUDDENAHALLI 562101.",0,CHIKBALLAPUR,KOLAR,KARNATAKA
"STATE BANK OF MYSORE",SBMY0040771,NA,MEHDIPATNAM,"D NO 12 2 826 BY A BY 25,GROUND FLOOR,BUS DEPOT ROAD,LIC COLONY,MEHDIPATNAM HYDERABAD,AP",0,HYDERABAD,HYDERABAD,"ANDHRA PRADESH"
"STATE BANK OF MYSORE",SBMY0040770,NA,GOTTIGERE,"NO.12 BY 5234 JAYAVIJAY GOTTIGERE BANNERGHATTA ROAD BANGALORE 560083",0,HULIMAVU,"BANGALORE URBAN",KARNATAKA
"STATE BANK OF MYSORE",SBMY0040769,NA,"RING ROAD SURAT","M 1 EMPIRE STATE BUILDING RING ROAD SURAT 395002",0,SURAT,SURAT,GUJARAT
"STATE BANK OF MYSORE",SBMY0040768,NA,BANER,"SAI HERITAGE BANER MAIN ROAD PUNE 400045.",0,PUNE,PUNE,MAHARASHTRA
"STATE BANK OF MYSORE",SBMY0040767,NA,DWARKA,"B 299 300 SECTOR 7 DWARKA NEW DELHI 110045",0,DELHI,DELHI,DELHI
"STATE BANK OF MYSORE",SBMY0040766,NA,RAMDEVNAGAR,"NO.7 BY 8 ISKON PARK OPP OM TOWER SATELLITE ROAD AHMEDABAD 380015",0,AHMEDABAD,AHMADABAD,GUJARAT
"STATE BANK OF MYSORE",SBMY0040765,NA,BANDIPALYA,"NO.3 A B BLOCK APMC YARD BANDIPALYA MYSORE 570025",0,MYSORE,MYSORE,KARNATAKA
"STATE BANK OF MYSORE",SBMY0040764,NA,HARADANAHALLY,"NEAR VENKATAINA CHATRA HARADANA HALLY 571127",0,VENKATAIAHNACH,CHAMARAJANAGAR,KARNATAKA
"STATE BANK OF MYSORE",SBMY0040763,NA,SHAMSHABAD,"RALLAGUDA ROAD MADHURA NAGAR SHAMSHABAD 501218",0,SHAMSHABAD,RANGAREDDY,"ANDHRA PRADESH"
"STATE BANK OF MYSORE",SBMY0040761,NA,ROHINI,"A 1 BY 20 SECTOR 14 PRASHANT VIHAR DELHI 110085",0,DELHI,DELHI,DELHI
"STATE BANK OF MYSORE",SBMY0040760,NA,"YELAHANKA NEW TOWN","16TH B CROSS YELAHANKA NEW TOWN BANGALORE 560106",0,BANGALORE,"BANGALORE URBAN",KARNATAKA
"STATE BANK OF MYSORE",SBMY0040759,NA,JNANASAHYADRI,"KUVEMPU UNIVERSITY SHAKARAGHATTA 577451 SHIMOGA DISTRICT",0,SHANKARAGHATTA,SHIMOGA,KARNATAKA
"STATE BANK OF MYSORE",SBMY0040758,NA,CHANDAPURA,"NO. 350 BY 361 ANEKAL ROAD BANGALORE 560088",0,BANGALORE,"BANGALORE URBAN",KARNATAKA
"STATE BANK OF MYSORE",SBMY0040757,NA,"TFCPC HYDERABAD","MYHOME JUPAHALLY COMPLEX AMEERPET HYDERABAD 500016",0,HYDERABAD,HYDERABAD,"ANDHRA PRADESH"
"STATE BANK OF MYSORE",SBMY0040756,NA,DEODURG,"NAGARGUNDA CROSS,DEVADURGA 584111",0,DEVADURGA,RAICHUR,KARNATAKA
"STATE BANK OF MYSORE",SBMY0040755,NA,SIRWAR,"R K KAMALAMMA COMPLEX SIRWAR 584129",0,SIRWAR,RAICHUR,KARNATAKA
"STATE BANK OF MYSORE",SBMY0040754,NA,KUSHTAGI,"KANAKADASA CIRCLE,PANCHAM COMPLEX,KUSHTAGI 584121",0,KUSHTAGI,KOPPAL,KARNATAKA
"STATE BANK OF MYSORE",SBMY0040753,NA,HOOTAGALLI,"K H B COLONY,HOOTAGALLI,MYSORE 570018",0,MYSORE,MYSORE,KARNATAKA
"STATE BANK OF MYSORE",SBMY0040752,NA,"DOMBIVLI EAST","NO1 PATKAR BUILDING OPPOSITE KDMC DOMBIVLI EAST 421201",0,DOMBIVLI,THANE,MAHARASHTRA
"STATE BANK OF MYSORE",SBMY0040748,NA,"TFCPC MUMBAI","NO.199,SYBIL MANSION,S V ROAD,SANTACRUZ WEST MUMBAI 400054.",0,MUMBAI,MUMBAI,MAHARASHTRA
"STATE BANK OF MYSORE",SBMY0040747,NA,"TRADE FINANCE CPC NEW DELHI","22,ANTRIKSH BHAVAN CONNAUGHT PLACE NEW DELHI 110001",0,DELHI,DELHI,DELHI
"STATE BANK OF MYSORE",SBMY0040746,NA,HANUR,"NO.390 JAYALAXMI COMPLEX HANUR 571439",0,HANUR,CHAMARAJANAGAR,KARNATAKA
"STATE BANK OF MYSORE",SBMY0040745,NA,THANISANDRA,"NANDA GOKULA LAYOUT THANISANDRA MAIN ROAD BANGALORE 560045",0,BANGALORE,"BANGALORE URBAN",KARNATAKA
"STATE BANK OF MYSORE",SBMY0040744,NA,"KRISHNARAJA PURAM","K R PURAM BANGALORE 560036",0,BANGALORE,"BANGALORE URBAN",KARNATAKA
"STATE BANK OF MYSORE",SBMY0040741,NA,BELTHANGADY,"1ST FLOOR PRAJWAL HOTEL COMPLEX,SANTHEKATTE MAIN ROAD BELTHANGADY 574214",0,BELTHANGADY,"DAKSHIN KANNAD",KARNATAKA
"STATE BANK OF MYSORE",SBMY0040740,NA,BEJAI,"BEJAI KAPIKAD ROAD MANGALORE 575004",0,MANGALORE,"DAKSHIN KANNAD",KARNATAKA
"STATE BANK OF MYSORE",SBMY0040739,NA,THOKKOTTU,"NH 17 HIGH LAND COMPLEX THOKKOTTU MANGALORE 575017",0,MANGALORE,"DAKSHIN KANNAD",KARNATAKA
"STATE BANK OF MYSORE",SBMY0040738,NA,RANEBENNUR,"NEAR INSPECTION BANGALOW RANEBENNUR 581115",0,RANEBENNUR,HAVERI,KARNATAKA
"STATE BANK OF MYSORE",SBMY0040737,NA,KARUR,"NO45 WEST PRADHAKSHANAM ROAD KARUR 639001",0,KARUR,KARUR,"TAMIL NADU"
"STATE BANK OF MYSORE",SBMY0040736,NA,SRIPERUMBUDUR,"NO35 BY 1 GANDHI ROAD SRIPERUMBUDUR 602105",0,SRIPERUMBUDUR,KANCHEEPURAM,"TAMIL NADU"
"STATE BANK OF MYSORE",SBMY0040735,NA,"KENGERI SATELLITE TOWN","NO18 MIRLE MANSION KENGERI SATELLITE TOWN BANGALORE 560060",0,KENGERI,"BANGALORE URBAN",KARNATAKA
"STATE BANK OF MYSORE",SBMY0040734,NA,"INT AIRPORT ROAD","NO26,27 CVA COMPLEX DODDAJALA BANGALORE 562157",0,BANGALORE,"BANGALORE URBAN",KARNATAKA
"STATE BANK OF MYSORE",SBMY0040733,NA,CHOKKAHALLI,"CHOKKAHALLI INDUSTRIAL AREA GATE CHINTAMANI ROAD HOSKOTE TALUK 562114",0,HOSKOTE,"BANGALORE RURAL",KARNATAKA
"STATE BANK OF MYSORE",SBMY0040732,NA,VIJAYAPURA,"NEAR TMC OFFICE MELUR ROAD VIJAYAPURA 562135",0,VIJAYAPURA,"BANGALORE RURAL",KARNATAKA
"STATE BANK OF MYSORE",SBMY0040731,NA,DOBBESPET,"UDDENESWAR COMPLEX SERVICE ROAD DOBBESPET 562111",0,NELAMANGALA,"BANGALORE RURAL",KARNATAKA
"STATE BANK OF MYSORE",SBMY0040730,NA,HAROHALLI,"R R COMPLEX BIDADI ROAD HAROHALLI 562112",0,HAROHALLI,"BANGALORE RURAL",KARNATAKA
"STATE BANK OF MYSORE",SBMY0040729,NA,"OFFICE ADMINISTRATION DEPT H O","K G ROAD BANGALORE 560009",0,BANGALORE,"BANGALORE URBAN",KARNATAKA
"STATE BANK OF MYSORE",SBMY0040727,NA,"REGION I BZ 2","BKG COMPLEX,A BLOCK,AVENUE ROAD,BANGALORE 560 009",0,BANGALORE,"BANGALORE URBAN",KARNATAKA
"STATE BANK OF MYSORE",SBMY0040726,NA,"BANGALORE ZONE 2","BANGALORE ZONE II,BKG COMPLEX,A BLOCK,A BLOCK,2ND FLOOR,AVENUE ROAD,BANGALORE 560 009",0,BANGALORE,"BANGALORE URBAN",KARNATAKA
"STATE BANK OF MYSORE",SBMY0040724,NA,"REGION II CZ","REGION II,CENTRAL ZONE,COIMBATORE REGION,75 76,IST FLOOR,OPPANKARA STREET,COIMBATORE 641 001",0,COIMBATORE,COIMBATORE,KARNATAKA
"STATE BANK OF MYSORE",SBMY0040723,NA,PITAMPURA,"PLOT NO 32 ROAD NO 44 DDA COMMERCIAL COMPLEX VARDHMAN PLAZA NEW DELHI 110034",0,DELHI,"NEW DELHI",DELHI
"STATE BANK OF MYSORE",SBMY0040722,NA,"INDUSTRIAL FINANCE BRANCH BELLARY","SUDHA CIRCLE BELLARY 583104",0,BELLARY,BELLARY,KARNATAKA
"STATE BANK OF MYSORE",SBMY0040720,NA,"TFCPC CHENNAI","231  ERD FLOOR  NSC BOSE RD  CHENNAI600001",0,CHENNAI,CHENNAI,"TAMIL NADU"
"STATE BANK OF MYSORE",SBMY0040712,NA,"CHANDRA LAYOUT","1575 3RD MAIN IST CROSS GANGONDANAHALLI 560040",0,BANGALORE,"BANGALORE URBAN",KARNATAKA
"STATE BANK OF MYSORE",SBMY0040711,NA,RAJARHAT,"G 4 AND 6 GROUND FLOOR,VIP RD KOYLA VIHAR ABHINANDAN PO AIRPORT KILKOTTA",0,KOLKATA,KOLKATA,"WEST BENGAL"
"STATE BANK OF MYSORE",SBMY0040710,NA,"SERVICE HUBLI","NO163 BY 48 3RD MAIN DESHPANDE NAGAR HUBLI 5800029",0,HUBLI,HUBLI,KARNATAKA
"STATE BANK OF MYSORE",SBMY0040708,NA,"BEHALA CHOWRASTHA","7A, SOURIN ROY RD, 1ST FLOOR, BEHALA KOLKITTA 700034",0,KOLKATA,KOLKATA,"WEST BENGAL"
"STATE BANK OF MYSORE",SBMY0040707,NA,MULUND,"3 SAMRIDDI OFF LBS MARG NEAR MULUND TELEPHONE EXCHANGE",0,MUMBAI,"GREATER BOMBAY",MAHARASHTRA
"STATE BANK OF MYSORE",SBMY0040706,NA,KHARGHAR,"SHREE TOWER PLOT NO.16 SECTOR-20 KHARGHAR NAVI MUMBAI 410210",0,PANVEL,RAIGAD,MAHARASHTRA
"STATE BANK OF MYSORE",SBMY0040705,NA,VASAI,"SHOP NO.1,2,3 RICHMOND TOWN PHASELL, BLDG NO 4 BHABOLA",0,VASAI,THANE,MAHARASHTRA
"STATE BANK OF MYSORE",SBMY0040704,NA,KONDAPUR,"PLOTNO 2 AND 3, WHITEFIELDS, KONDAPUR HYDERABAD",0,HYDERABAD,"HYDERABAD URBAN","ANDHRA PRADESH"
"STATE BANK OF MYSORE",SBMY0040702,NA,"RAMAMANDIR ROAD","RAMMANDIR RD  DARSHAN APRTMENTS  P AND T QRTS  GULBARGA",0,GULBARGA,GULBERGA,KARNATAKA
"STATE BANK OF MYSORE",SBMY0040701,NA,BARKATPURA,"2 1 340 BY 16  NEAR NALLAKUNTA BARKATPURA HYDERABAD 500027",0,HYDERABAD,"HYDERABAD URBAN","ANDHRA PRADESH"
"STATE BANK OF MYSORE",SBMY0040700,NA,"DISTRICT OFFICE COMPLEX BR","DIST OFFICE COMPLEX B RACHAIAH DOUBLE ROAD CHAMARAJANAGAR 571313",0,"C RAMASAMUDRA",CHAMRAJNAGAR,KARNATAKA
"STATE BANK OF MYSORE",SBMY0040699,NA,KURNOOL,"MAYURI HEIGHTS GROUND FLOOR KING MARKET KURNOOL  518001",0,KURNOOL,KURNOOL,"ANDHRA PRADESH"
"STATE BANK OF MYSORE",SBMY0040691,NA,"TRADE FINANCE BANGALORE","LALITHA 2 ND CROSS 1ST FLOOR 24 SAMPIGE ROAD MALLESHWARAM BANGALORE 560003",0,BANGALORE,"BANGALORE URBAN",KARNATAKA
"STATE BANK OF MYSORE",SBMY0040690,NA,RACPC,"NO73 SHANTHARAM BESTOWAL I ST FLOOR LALBAGH ROAD SUDHAMANAGAR BANGALORE 560027",0,BANGALORE,"BANGALORE URBAN",KARNATAKA
"STATE BANK OF MYSORE",SBMY0040686,NA,SADASHIVANAGAR,TUMKUR572102,0,TUMKUR,TUMKUR,KARNATAKA
"STATE BANK OF MYSORE",SBMY0040685,NA,MARTHAHALLI,BANGALORE560037,0,BANGALORE,"BANGALORE URBAN",KARNATAKA
"STATE BANK OF MYSORE",SBMY0040683,NA,"TREASURY BELLARY","SBM BUILDINGS STATION ROAD",0,BELLARY,BELLARY,KARNATAKA
"STATE BANK OF MYSORE",SBMY0040682,NA,MADIPAKKAM,"29,MANIKANDAN ST, AYYAPPANAGAR",0,CHENNAI,CHENNAI,"TAMIL NADU"
"STATE BANK OF MYSORE",SBMY0040681,NA,"G SEVA BRANCH","NO.2 LADY CURZON ROAD SHIVAJI NAGAR BANGALORE 560001.",0,BANGALORE,"BANGALORE URBAN",KARNATAKA
"STATE BANK OF MYSORE",SBMY0040680,NA,"VIJAYANAGAR IIIRD STAGE","762 B BLOCK VIJYANAGRA 3RD STAGE BRANCH VIJAYANAGAR 3RD STAGE MYSORE",0,MYSORE,"BANGALORE URBAN",KARNATAKA
"STATE BANK OF MYSORE",SBMY0040679,NA,"DEDICATED ACCOUNTING UNIT","SBI L H O BLDG ,6TH FLOOR,BANDRA KURLA COMPLEX,MUMBAI 400051",0,MUMBAI,MUMBAI,MAHARASHTRA
"STATE BANK OF MYSORE",SBMY0040678,NA,"COFFEE BOARD LAYOUT","COFFEE BOARD LAYOUT,KARNATAKA,BANGALORE",0,BANGALORE,"BANGALORE URBAN",KARNATAKA
"STATE BANK OF MYSORE",SBMY0040677,NA,"REGION IV BZ 2","REGION IV,BANGALORE ZONE II,1ST FLOOR,TUMKUR MAIN BRANCH,CHURCH SQUARE,TUMKUR 572101",0,TUMKUR,TUMKUR,KARNATAKA
"STATE BANK OF MYSORE",SBMY0040676,NA,BIDADI,"BIDADI,KARNATAKA,BANGALORE MYSORE RD",0,BANGALORE,"BANGALORE URBAN",KARNATAKA
"STATE BANK OF MYSORE",SBMY0040675,NA,NIMHANS,"NIMHANS,KARNATAKA,BANGALORE 560029",0,BANGALORE,"BANGALORE URBAN",KARNATAKA
"STATE BANK OF MYSORE",SBMY0040674,NA,KOPPAL,"HOTEL MALLIKA COMP KOPPAL,KAR",0,KOPPAL,KOPPAL,KARNATAKA
"STATE BANK OF MYSORE",SBMY0040672,NA,"APMC YARD BELLARY","APMC YARD BELLARY,KARNATAKA,BANGALORE RD BELLARY",0,BELLARY,BELLARY,KARNATAKA
"STATE BANK OF MYSORE",SBMY0040671,NA,"DAM ROAD","DAM ROAD,HOSPET,BELLARY,KARNATAKA,HOSPET 583 203",0,HOSPET,BELLARY,KARNATAKA
"STATE BANK OF MYSORE",SBMY0040670,NA,KAPURBAWDI,"I ANAND PLAZA LBS MARG NEAR CASTLE MILL NAKA THANE W",0,THANE,THANE,MAHARASHTRA
"STATE BANK OF MYSORE",SBMY0040669,NA,"INTEGRATED DOMESTIC TREASURY","SBI LHO BUILDING,6TH FLOOR,PLOT NO C 6,G BLOCK,BANDRA KURLA COMPLEX,BANDRA EAST,MUMBAI 400051",0,MUMBAI,"GREATER BOMBAY",MAHARASHTRA
"STATE BANK OF MYSORE",SBMY0040668,NA,"PC EXTN KOLAR","PC EXTN KOLAR ,KARNATAKA,KOLAR",0,KOLAR,KOLAR,KARNATAKA
"STATE BANK OF MYSORE",SBMY0040667,NA,"KORAMANGALA BLOCK","KORAMANGALA 6TH BLOCK,KARNATAKA,BANGALORE 560095",0,BANGALORE,"BANGALORE URBAN",KARNATAKA
"STATE BANK OF MYSORE",SBMY0040666,NA,"KADRI SHIVABAGH","KADRI SHIVABAGH,MANGALORE,KARNATAKA,MANGALORE 575003",0,MANGALORE,"DAKSHINA KANNADA",KARNATAKA
"STATE BANK OF MYSORE",SBMY0040665,NA,"B C ROAD","B C ROAD,BANTWAL,DAKSHINA KANNADA,KARNATAKA,BANTWAL TALUK D K DIST",0,BANTWAL,"DAKSHINA KANNADA",KARNATAKA
"STATE BANK OF MYSORE",SBMY0040664,NA,"GOPALAGOWDA EXTN","GOPALAGOWDA EXTN,SHIMOGA,KARNATAKA,SHIMOGA 577204",0,SHIMOGA,SHIMOGA,KARNATAKA
"STATE BANK OF MYSORE",SBMY0040663,NA,"HSR LAYOUT SECTOR","HSR LAYOUT 6TH SECTOR,BANGALORE,KARNATAKA,9TH MAIN HSR LAYOUT BANGALORE",0,BANGALORE,"BANGALORE URBAN",KARNATAKA
"STATE BANK OF MYSORE",SBMY0040662,NA,"SECTOR III SALT LAKE","IB20 SECTOR III,SALT LAKE CITY KOLKATA",0,"NEW DELHI",KOLKATA,"WEST BENGAL"
"STATE BANK OF MYSORE",SBMY0040661,NA,SUSHANTHLOK,"CENTRE POINT A BLOCK SUSHANTLOK PHASE I GURGAON",0,GURGAON,GURGAON,HARYANA
"STATE BANK OF MYSORE",SBMY0040660,NA,HULIMAVU,"HULIMAVU,KARNATAKA,BANGALORE 560076",0,BANGALORE,"BANGALORE URBAN",KARNATAKA
"STATE BANK OF MYSORE",SBMY0040659,NA,VIDYARNYAPURA,"VIDYARNYAPURA,BANGALORE,KARNATAKA,BANGALOR 560097",0,BANGALORE,"BANGALORE URBAN",KARNATAKA
"STATE BANK OF MYSORE",SBMY0040658,NA,TREASURY,"2 LC RD SHIVAJINAGAR BANGALORE",0,BANGALORE,"BANGALORE URBAN",KARNATAKA
"STATE BANK OF MYSORE",SBMY0040657,NA,SUNKADAKATTE,"SUNKADAKATTE,KARNATAKA,BANGALORE 560091",0,BANGALORE,"BANGALORE URBAN",KARNATAKA
"STATE BANK OF MYSORE",SBMY0040656,NA,KOYAMBEDU,"KOYAMBEDU,CHENNAI,TAMIL NADU,CHENNAI 600107",0,CHENNAI,CHENNAI,"TAMIL NADU"
"STATE BANK OF MYSORE",SBMY0040655,NA,"NAGARABHAVI STAGE","NAGARABHAVI 2ND STAGE,KARNATAKA,BANGALORE 560056",0,BANGALORE,"BANGALORE URBAN",KARNATAKA
"STATE BANK OF MYSORE",SBMY0040654,NA,NITTUVALLI,"NITTUVALLI,DAVANAGERE,KARNATAKA,NITTUVALLI MAIN RD DAVANGERE",0,DAVANAGERE,DAVANAGARE,KARNATAKA
"STATE BANK OF MYSORE",SBMY0040653,NA,DODDAKALLASANDRA,"DODDAKALLASANDRA,KARNATAKA,BANGALORE 560062",0,BANGALORE,"BANGALORE URBAN",KARNATAKA
"STATE BANK OF MYSORE",SBMY0040652,NA,"HBR LAYOUT","HBR LAYOUT,KARNATAKA,BANGALORE",0,BANGALORE,"BANGALORE URBAN",KARNATAKA
"STATE BANK OF MYSORE",SBMY0040651,NA,VIPULKHAND,"1 BY 49 GOMTI NGR VIPULKHAND LUCKNOW",0,LUCKNOW,LUCKNOW,"UTTAR PRADESH"
"STATE BANK OF MYSORE",SBMY0040650,NA,"SHIRUR PARK","SHIRUR PARK,HUBLI,KARNATAKA,HUBLI 580031",0,HUBLI,DHARWAD,KARNATAKA
"STATE BANK OF MYSORE",SBMY0040649,NA,"VTU CAMPUS MATCHE","VTU CAMPUS MATCHE,BELGAUM,KARNATAKA,MACHE 590014",0,BELGAUM,BELGAUM,KARNATAKA
"STATE BANK OF MYSORE",SBMY0040648,NA,CHAITANYAPURI,"CHAITANYAPURI BESIDE FOODWORLD HYDERABAD",0,HYDERABAD,"HYDERABAD URBAN","ANDHRA PRADESH"
"STATE BANK OF MYSORE",SBMY0040647,NA,KUKKATPALLY,"DHARMAREDDY COL,HYD",0,HYDERABAD,"HYDERABAD URBAN","ANDHRA PRADESH"
"STATE BANK OF MYSORE",SBMY0040646,NA,VIJAYANAGAR,"VIJAYANAGAR,MYSORE,KARNATAKA,MYSORE 570017",0,MYSORE,MYSORE,KARNATAKA
"STATE BANK OF MYSORE",SBMY0040645,NA,"TREASURY MYSORE","TREASURY MYSORE,KARNATAKA,MYSORE 570001",0,MYSORE,MYSORE,KARNATAKA
"STATE BANK OF MYSORE",SBMY0040644,NA,"HSR LAYOUT","HSR LAYOUT,BANGALORE,KARNATAKA",0,BANGALORE,"BANGALORE URBAN",KARNATAKA
"STATE BANK OF MYSORE",SBMY0040643,NA,"GOLF GREEN KOLKOTTA","GOLF GREEN KOLKOTTA,WEST BENGAL,DT 12 A, UDAYASHANKAR SARANI KOLKATTA 95",0,KOLKATA,KOLKATA,"WEST BENGAL"
"STATE BANK OF MYSORE",SBMY0040642,NA,MAHALINGAPUR,"MAHALINGAPUR,BAGALKOT,KARNATAKA,MAHALINGAPUR 587312",0,MAHALINGAPUR,BAGALKOT,KARNATAKA
"STATE BANK OF MYSORE",SBMY0040641,NA,KESHAVAPUR,"KESHAVAPUR,HUBLI,DHARWAD,KARNATAKA,HUBLI 580 023",0,HUBLI,DHARWAD,KARNATAKA
"STATE BANK OF MYSORE",SBMY0040640,NA,"RUBY PARK","P 27,PHASE I KASBA IND ESTATE EM BYPASS EAST KOLKOTTA",0,KOLKOTTA,KOLKATA,"WEST BENGAL"
"STATE BANK OF MYSORE",SBMY0040639,NA,SINDHANUR,"GANGAVATHI RD,SINDHANUR",0,SINDHANUR,RAICHUR,KARNATAKA
"STATE BANK OF MYSORE",SBMY0040638,NA,VELACHERRY,"VELACHERRY,CHENNAI,TAMIL NADU,CHENNAI 600042",0,CHENNAI,CHENNAI,"TAMIL NADU"
"STATE BANK OF MYSORE",SBMY0040637,NA,"FIVE ROADS SALEM","FIVE ROADS SALEM,TAMIL NADU,SALEM 636004",0,SALEM,SALEM,"TAMIL NADU"
"STATE BANK OF MYSORE",SBMY0040636,NA,ATTUR,"ATTUR,SALEM,TAMIL NADU,ATTUR 636102",0,ATTUR,SALEM,"TAMIL NADU"
"STATE BANK OF MYSORE",SBMY0040635,NA,"JCR EXTENSION","JCR EXTENSION,CHITRADURGA,KARNATAKA,CHITRADURGA 571455",0,CHITRADURGA,CHITRADURGA,KARNATAKA
"STATE BANK OF MYSORE",SBMY0040634,NA,SAHAKARANAGAR,"SAHAKARANAGAR,KARNATAKA,BANGALORE 560092",0,BANGALORE,"BANGALORE URBAN",KARNATAKA
"STATE BANK OF MYSORE",SBMY0040633,NA,VIKRAMNAGAR,"VIKRAMNAGAR,KARNATAKA,BANGALORE 78",0,BANGALORE,"BANGALORE URBAN",KARNATAKA
"STATE BANK OF MYSORE",SBMY0040632,NA,"GANDHI NAGAR DELHI","GANDHI NAGAR DELHI,NEW DELHI 110031",0,"N DELHI","NEW DELHI",DELHI
"STATE BANK OF MYSORE",SBMY0040631,NA,VIRAJPET,"VIRAJPET,KODAGU DIST,KARNATAKA,VIRAJPET 571 218",0,VIRAJPET,MADIKERI,KARNATAKA
"STATE BANK OF MYSORE",SBMY0040630,NA,KARATAGI,"KANAKACHALA COMP KARATAGI",0,KARATAGI,KOPPAL,KARNATAKA
"STATE BANK OF MYSORE",SBMY0040629,NA,BORIVLI,"WEST PARK GROUND FLOOR I C COLONY,BORIVLIW  MUMBAI",0,MUMBAI,"GREATER BOMBAY",MAHARASHTRA
"STATE BANK OF MYSORE",SBMY0040628,NA,JAMKHANDI,"JAMKHANDI,BAGALKOT,KARNATAKA,JAMAKHAMDI 587301",0,JAMKHANDI,BAGALKOT,KARNATAKA
"STATE BANK OF MYSORE",SBMY0040627,NA,"RAJARAJESHWARI NAGAR","RAJARAJESHWARI NAGAR,KARNATAKA,BANGALORE 560039",0,BANGALORE,"BANGALORE URBAN",KARNATAKA
"STATE BANK OF MYSORE",SBMY0040626,NA,"PBB GANDHI NGR","NO.38 5TH CROSS GANDHI NGR BANGALORE",0,BANGALORE,"BANGALORE URBAN",KARNATAKA
"STATE BANK OF MYSORE",SBMY0040625,NA,"PBB ANNANAGAR","PBB ANNANAGAR,CHENNAI,TAMIL NADU, ANNANAGAR CHENNAI 600040",0,CHENNAI,CHENNAI,"TAMIL NADU"
"STATE BANK OF MYSORE",SBMY0040624,NA,BASAVESWARANAGAR,"BASAVESWARANAGAR,KARNATAKA,BANGALORE 560079",0,BANGALORE,"BANGALORE URBAN",KARNATAKA
"STATE BANK OF MYSORE",SBMY0040623,NA,BYNDOOR,"BYNDOOR,KUNDAPURA,UDUPI,KARNATAKA,BYNDOOR 576214",0,KUNDAPURA,UDUPI,KARNATAKA
"STATE BANK OF MYSORE",SBMY0040622,NA,PUTTENAHALLI,"PUTTENAHALLI,KARNATAKA,BANGALORE 560078",0,BANGALORE,"BANGALORE URBAN",KARNATAKA
"STATE BANK OF MYSORE",SBMY0040621,NA,UTTARAHALLI,"UTTARAHALLI,KARNATAKA,BANGALORE 560 061",0,BANGALORE,"BANGALORE URBAN",KARNATAKA
"STATE BANK OF MYSORE",SBMY0040620,NA,"RAMAMURTY NAGAR","RAMAMURTY NAGAR,KARNATAKA,BANGALORE 560 016",0,BANGALORE,"BANGALORE URBAN",KARNATAKA
"STATE BANK OF MYSORE",SBMY0040619,NA,"PBB INDIRANAGAR","PBB INDIRANAGAR,KARNATAKA,BANGALORE 560038",0,BANGALORE,"BANGALORE URBAN",KARNATAKA
"STATE BANK OF MYSORE",SBMY0040618,NA,KATHRIGUPPE,"KATHRIGUPPE,KARNATAKA,BANGALORE 560070",0,BANGALORE,"BANGALORE URBAN",KARNATAKA
"STATE BANK OF MYSORE",SBMY0040617,NA,"R T NAGAR","R T NAGAR,KARNATAKA,BANGALORE 560032",0,BANGALORE,"BANGALORE URBAN",KARNATAKA
"STATE BANK OF MYSORE",SBMY0040616,NA,NOIDA,"RUPCHAND AND SONS MKT,SEVTOR 27 ATTA MKT NOIDA",0,NOIDA,"GAUTAM BODDA NAGAR","UTTAR PRADESH"
"STATE BANK OF MYSORE",SBMY0040615,NA,GANGAVATHI,"KOPPAL RD GANGAVATHI,KAR",0,GANGAVATHI,KOPPAL,KARNATAKA
"STATE BANK OF MYSORE",SBMY0040614,NA,"TKG LAYOUT MYSORE","TKG LAYOUT MYSORE,KARNATAKA,MYSORE 570009",0,MYSORE,MYSORE,KARNATAKA
"STATE BANK OF MYSORE",SBMY0040613,NA,MUNDGOD,"MUNDGOD,U K DISTRICT,UTTAR KANNADA,KARNATAKA,MUNDGOD 581349",0,"U K DIST","UTTARA KANNADA",KARNATAKA
"STATE BANK OF MYSORE",SBMY0040612,NA,"HOLEHONNUR ROAD","HOLEHONNUR ROAD,BHADRAVATHI,SHIMOGA,KARNATAKA,BHADRAVATHI 577301",0,BHADRAVATHI,SHIMOGA,KARNATAKA
"STATE BANK OF MYSORE",SBMY0040611,NA,KASARGOD,"SRI VV CENTENARY COMPLEX KARANDAKKKAD,KER",0,KASARGOD,KASARAGOD,KERALA
"STATE BANK OF MYSORE",SBMY0040610,NA,GOKULAM,"GOKULAM,MYSORE,KARNATAKA,MYSORE 570002",0,MYSORE,MYSORE,KARNATAKA
"STATE BANK OF MYSORE",SBMY0040609,NA,"M BLOCK MYSORE","M BLOCK, MYSORE,KARNATAKA,MYSORE 570023",0,MYSORE,MYSORE,KARNATAKA
"STATE BANK OF MYSORE",SBMY0040608,NA,PONDICHERRY,"NO.23 CHINNA SUBBARAYA PILLAI ST PONDICHERRY",0,PONDICHERRY,PONDICHERRY,PUDUCHERRY
"STATE BANK OF MYSORE",SBMY0040607,NA,KOTARACHOWKI,"KOTARACHOWKI,MANGALORE,KARNATAKA,MANGALORE 575006",0,MANGALORE,"DAKSHINA KANNADA",KARNATAKA
"STATE BANK OF MYSORE",SBMY0040606,NA,"GOKUL ROAD","GOKUL ROAD,HUBLI,DHARWAD,KARNATAKA,HUBLI 580030",0,HUBLI,DHARWAD,KARNATAKA
"STATE BANK OF MYSORE",SBMY0040605,NA,MATHIKERE,"MATHIKERE,KARNATAKA,BANGALORE 560054",0,BANGALORE,"BANGALORE URBAN",KARNATAKA
"STATE BANK OF MYSORE",SBMY0040604,NA,"REGION I CZ","REGION I,CENTRAL ZONE,CHENNAI REGION,4TH FLOOR,MYSORE BANK BULDG,231,N S C BOSE ROAD,CHENNAI 600 001",0,CHENNAI,CHENNAI,KARNATAKA
"STATE BANK OF MYSORE",SBMY0040603,NA,"REGION II BZ 2","STATE BANK OF MYSORE REGIONAL OFFICE II,NEAR DOOM LIGHT CIRCLE,NEW EXTENSION,KOLAR 563 101",0,KOLAR,KOLAR,KARNATAKA
"STATE BANK OF MYSORE",SBMY0040602,NA,"REGION III CZ","IIND FLOOR,MY HOME JUPALLY COMPLEX,AMEERPET,HYDERABAD 500016",0,HYDERABAD,HYDERABAD,KARNATAKA
"STATE BANK OF MYSORE",SBMY0040601,NA,"DELHI REGION","IST FLOOR,APRA PLAZA,PLOT NO.28,ROAD NO.44,COMMUNITY CENTRE,PITAMPURA,DELHI 110 034",0,DELHI,DELHI,KARNATAKA
"STATE BANK OF MYSORE",SBMY0040600,NA,"MUMBAI REGION","STATE BANK OF MYSORE,REGIONAL OFFICE,DHARMAKSHETRA,MAHAKALI CAVES ROAD.ANDHERI E,MUMBAI 400093",0,MUMBAI,"GREATER BOMBAY",KARNATAKA
"STATE BANK OF MYSORE",SBMY0040599,NA,"REGION IV HZ","STATE BANK OF MYSORE,HUBLI ZONE,REGIONAL OFFICE,SBM BUILDING UPSTAIRS,STATION ROAD,BELLARY 583 101",0,BELLARY,BELLARY,KARNATAKA
"STATE BANK OF MYSORE",SBMY0040598,NA,"REGION III HZ","STATE BANK OF MYSORE,HUBLI ZONE,DAVANAGERE REGION,6 119 MANDIPET,DAVANAGAERE 577001",0,DAVANGERE,DAVANGERE,KARNATAKA
"STATE BANK OF MYSORE",SBMY0040597,NA,"REGION II HZ","STATE BANK OF MYSORE,HUBLI ZONE,NO.26,SIDDAPPA KAMBLI ROAD,P.B.NO.134,HUBLI 580 020",0,"HUBLI DHARWAD",DHARWAD,KARNATAKA
"STATE BANK OF MYSORE",SBMY0040596,NA,"REGION I HZ","GRADUATES CO OPERATIVE SOCIETY BUILDING,KUVEMPU ROAD,SHIMOGA 577 201",0,SHIMOGA,SHIMOGA,KARNATAKA
"STATE BANK OF MYSORE",SBMY0040595,NA,"REGION IV MZ","STATE BANK OF MYSORE,REGION IV,MYSORE ZONE,REGIONAL OFFICE,PB NO.1,VISVESHWARAIAH ROAD,MANDYA",0,MANDYA,MANDYA,KARNATAKA
"STATE BANK OF MYSORE",SBMY0040594,NA,"REGION III MZ","MYSORE ZONE,REGIONAL OFFICE,BELUVE APARTMENTS,VALENCIA,MANGALORE 575002",0,MANGALORE,"DAKSHIN KANNAD",KARNATAKA
"STATE BANK OF MYSORE",SBMY0040593,NA,"REGION II MZ","STATE BANK OF MYSORE REGION II MYSORE ZONE REGIONAL OFFICE,949 1A SAMPIGE ROAD,HASSAN 573 201",0,HASSAN,HASSAN,KARNATAKA
"STATE BANK OF MYSORE",SBMY0040592,NA,"REGION I MZ","REGION I MZ,P.B.NO.17,SAHUKAR CHENNIAH ROAD,T.K.G.LAYOUT,KUVEMPUNAGAR,MYSORE 570 009",0,MYSORE,MYSORE,KARNATAKA
"STATE BANK OF MYSORE",SBMY0040591,NA,"REGION III BZ 2","1ST FLOOR,TUMKUR MAIN BRANCH,CHURCH SQUARE,TUMKUR 572101",0,TUMKUR,TUMKUR,KARNATAKA
"STATE BANK OF MYSORE",SBMY0040590,NA,"REGION IV BZ 1","BANGALORE ZONE I,B K G COMPLEX,AVENUE ROAD,BANGALORE 560009",0,BANGALORE,"BANGALORE URBAN",KARNATAKA
"STATE BANK OF MYSORE",SBMY0040589,NA,"REGION III BZ 1","BANGALORE ZONE I,B K G COMPLEX,AVENUE ROAD,BANGALORE 560009",0,BANGALORE,"BANGALORE URBAN",KARNATAKA
"STATE BANK OF MYSORE",SBMY0040588,NA,"REGION II","BANGALORE ZONE I,B K G COMPLEX,AVENUE ROAD,BANGALORE 560009",0,BANGALORE,"BANGALORE URBAN",KARNATAKA
"STATE BANK OF MYSORE",SBMY0040587,NA,"REGION I","BANGALORE ZONE I,B K G COMPLEX,AVENUE ROAD,BANGALORE 560009",0,BANGALORE,"BANGALORE URBAN",KARNATAKA
"STATE BANK OF MYSORE",SBMY0040586,NA,"HRBR LAYOUT","HRBR LAYOUT,KARNATAKA,BANGALORE 560043",0,BANGALORE,"BANGALORE URBAN",KARNATAKA
"STATE BANK OF MYSORE",SBMY0040585,NA,NERUL,"GREAT EASTERN GALLERIA SECTOR 4 PLOT 20, DIST. THANE NAVI MUMBAI 400706",0,"NAVI MUMBAI",THANE,MAHARASHTRA
"STATE BANK OF MYSORE",SBMY0040584,NA,"R K LAYOUT","R K LAYOUT,KARNATAKA,BANGALORE 560070",0,BANGALORE,"BANGALORE URBAN",KARNATAKA
"STATE BANK OF MYSORE",SBMY0040583,NA,"BTM LAYOUT","BTM LAYOUT,KARNATAKA,BANGALORE 560 076",0,BANGALORE,"BANGALORE URBAN",KARNATAKA
"STATE BANK OF MYSORE",SBMY0040582,NA,"CGO COMPLEX","CGO COMPLEX,KARNATAKA,BANGALORE 560068",0,BANGALORE,"BANGALORE URBAN",KARNATAKA
"STATE BANK OF MYSORE",SBMY0040581,NA,"LOKHANDWALA COMPLEX","B 12,UTW BLDG,VEERA IND ESTATE,OFF LINK ROAD,ANDHERI W, MUMBAI",0,MUMBAI,"GREATER BOMBAY",MAHARASHTRA
"STATE BANK OF MYSORE",SBMY0040580,NA,"APMC YARD","APMC YARD,SHIMOGA,KARNATAKA,SHIMOGA 577201",0,SHIMOGA,SHIMOGA,KARNATAKA
"STATE BANK OF MYSORE",SBMY0040579,NA,"IFB N","23 BY 1 REGAL BLDG.CONNAUGHT PLACE NEW DELHI",0,"NEW DELHI","NEW DELHI",DELHI
"STATE BANK OF MYSORE",SBMY0040578,NA,"J P NAGAR","J P NAGAR,KARNATAKA,BANGALORE 560041",0,BANGALORE,"BANGALORE URBAN",KARNATAKA
"STATE BANK OF MYSORE",SBMY0040577,NA,"RMV II STAGE","RMV II STAGE,KARNATAKA,BANGALORE 560094",0,BANGALORE,"BANGALORE URBAN",KARNATAKA
"STATE BANK OF MYSORE",SBMY0040576,NA,"BELUR INDL AREA","BELUR INDL AREA,DHARWAD,KARNATAKA,DHARWAD 580001",0,DHARWAD,DHARWAD,KARNATAKA
"STATE BANK OF MYSORE",SBMY0040575,NA,"SBM COLONY","SBM COLONY,KARNATAKA,BANGALORE 560050",0,BANGALORE,"BANGALORE URBAN",KARNATAKA
"STATE BANK OF MYSORE",SBMY0040574,NA,"RAGHAVENDRA NAGAR","RAGHAVENDRA NAGAR,TUMKUR,KARNATAKA,TUMKUR 572 102",0,TUMKUR,TUMKUR,KARNATAKA
"STATE BANK OF MYSORE",SBMY0040573,NA,"R P C LAYOUT","R P C LAYOUT,KARNATAKA,BANGALORE 560 040",0,BANGALORE,"BANGALORE URBAN",KARNATAKA
"STATE BANK OF MYSORE",SBMY0040572,NA,SUTTUR,"SUTTUR,MYSORE,KARNATAKA,SUTTUR 571 159",0,SUTTUR,MYSORE,KARNATAKA
"STATE BANK OF MYSORE",SBMY0040571,NA,"GOLF GREEN","DT 12A GOLF GREEN KOLKOTTA",0,KOLKOTTA,KOLKATA,"WEST BENGAL"
"STATE BANK OF MYSORE",SBMY0040570,NA,"SERVICE BR HYDERABAD","SERVICE BR HYDERABAD,ANDHRA PRADESH,HYDERABAD 500 001",0,HYDERABAD,"HYDERABAD URBAN","ANDHRA PRADESH"
"STATE BANK OF MYSORE",SBMY0040569,NA,"MARKET YARD YESHWANTHPUR","MARKET YARD YESHWANTHPUR,KARNATAKA,BANGALORE 560022",0,BANGALORE,"BANGALORE URBAN",KARNATAKA
"STATE BANK OF MYSORE",SBMY0040568,NA,SHIRVA,"SHIRVA,UDUPI,KARNATAKA,SHIRVA 574116",0,SHIRVA,UDUPI,KARNATAKA
"STATE BANK OF MYSORE",SBMY0040567,NA,KANKANADY,"MANGALORE 575002",0,MANGALORE,"DAKSHINA KANNADA",KARNATAKA
"STATE BANK OF MYSORE",SBMY0040566,NA,KOTTAYAM,"KOTTAYAM,KERALA,KOTTAYAM 686004",0,KOTTAYAM,KOTTAYAM,KERALA
"STATE BANK OF MYSORE",SBMY0040565,NA,KOLLAM,"KOLLAM,KERALA,ANDAMUKKAM, 691001",0,KOLLAM,KOLLAM,KERALA
"STATE BANK OF MYSORE",SBMY0040563,NA,IFB,"2ND FLOOR,MY HOMEJUPALLY COMPLEX AMEERPET MAIN RD HYDERABAD",0,HYDERABAD,"HYDERABAD URBAN","ANDHRA PRADESH"
"STATE BANK OF MYSORE",SBMY0040561,NA,KUMTA,"SHANTHERI KAMAKSHI ARCADE SUBHASH RD,KAR",0,KUMTA,"UTTARA KANNADA",KARNATAKA
"STATE BANK OF MYSORE",SBMY0040560,NA,HONNAVAR,"MAHALE COMPLEX PRABHAT CROSS RD M NH 17 HONNAVAR,KAR",0,HONNAVAR,"UTTARA KANNADA",KARNATAKA
"STATE BANK OF MYSORE",SBMY0040559,NA,IFB,"576,2ND FLOOR,M O H BLDGS ANNA SALAI TEYNAMPET CHENNAI",0,CHENNAI,CHENNAI,"TAMIL NADU"
"STATE BANK OF MYSORE",SBMY0040558,NA,"JVSL COMPLEX","JVSL PROJ SITE TORANAGALLU",0,TORANAGALLU,BELLARY,KARNATAKA
"STATE BANK OF MYSORE",SBMY0040557,NA,"SSI TUMKUR","SSI TUMKUR,KARNATAKA,TUMKUR 572101",0,TUMKUR,TUMKUR,KARNATAKA
"STATE BANK OF MYSORE",SBMY0040555,NA,"SSI BELGAUM","SSI BELGAUM,KARNATAKA,BELGAUM 590 008",0,BELGAUM,BELGAUM,KARNATAKA
"STATE BANK OF MYSORE",SBMY0040554,NA,INDORE,"SUNRISE TOWERS 579 M G RD INDORE",0,INDORE,INDORE,"MADHYA PRADESH"
"STATE BANK OF MYSORE",SBMY0040553,NA,"PBB MALLESWARAM","PBB MALLESWARAM,KARNATAKA,BANGALORE 560 003",0,BANGALORE,"BANGALORE URBAN",KARNATAKA
"STATE BANK OF MYSORE",SBMY0040552,NA,"SSI SINGASANDRA","SSI SINGASANDRA,BANGLORE,KARNATAKA,BANGALORE 560 068",0,BANGLORE,"BANGALORE URBAN",KARNATAKA
"STATE BANK OF MYSORE",SBMY0040551,NA,AVINASHI,"POST OFFICE MAIN RD,AVINASHI",0,AVINASHI,COIMBOTORE,"TAMIL NADU"
"STATE BANK OF MYSORE",SBMY0040550,NA,BRAMHAVARA,"BRAMHAVARA,UDUPI,KARNATAKA,BRAHMAVARA 596123",0,BRAMHAVARA,UDUPI,KARNATAKA
"STATE BANK OF MYSORE",SBMY0040549,NA,MOODABIDRI,"MOODBIDRI,UDUPI,KARNATAKA,MOODABIDRI 574 227",0,MOODBIDRI,"DAKSHINA KANNADA",KARNATAKA
"STATE BANK OF MYSORE",SBMY0040548,NA,JAIPUR,"TAMBI TOWERS S C RD JAIPUR",0,JAIPUR,JAIPUR,RAJASTHAN
"STATE BANK OF MYSORE",SBMY0040547,NA,"SHIVARATHRESWARA NAGAR","SHIVARATHRESWARA NAGAR,MYSORE,KARNATAKA,MYSORE 570 015",0,MYSORE,MYSORE,KARNATAKA
"STATE BANK OF MYSORE",SBMY0040546,NA,VISAKHAPATNAM,"M V P COLONY,VISAKHAPATNAM",0,VISAKHAPATNAM,VISHAKAPATNAM,"ANDHRA PRADESH"
"STATE BANK OF MYSORE",SBMY0040545,NA,LSTS,"L S T S,BYLAKUPPE,MYSORE,KARNATAKA,BYLAKUPPE P O 571104",0,BYLAKUPPE,MYSORE,KARNATAKA
"STATE BANK OF MYSORE",SBMY0040544,NA,SIRSI,"OPP LOKDHAWANI OFFICE YELLAPUR RD,KAR",0,SIRSI,"UTTARA KANNADA",KARNATAKA
"STATE BANK OF MYSORE",SBMY0040543,NA,"SSI MYSORE","SSI MYSORE,KARNATAKA,MYSORE 570 021",0,MYSORE,MYSORE,KARNATAKA
"STATE BANK OF MYSORE",SBMY0040542,NA,"BAZAAR ARSIKERE","BAZAAR ARSIKERE,HASSAN,KARNATAKA,ARSIKERE 573103",0,ARSIKERE,HASSAN,KARNATAKA
"STATE BANK OF MYSORE",SBMY0040541,NA,VELANDIPALAYAM,"VELANDIPALAYAM,COIMBATORE,TAMIL NADU,COIMBATORE 641 038",0,COIMBATORE,COIMBOTORE,"TAMIL NADU"
"STATE BANK OF MYSORE",SBMY0040540,NA,"SULTANPET PALAKKAD","SULTANPET PALAKKAD,KERALA,PALAKKAD 678 001",0,PALAKKAD,PALAKKAD,KERALA
"STATE BANK OF MYSORE",SBMY0040539,NA,"SALT LAKE CITY","C1 25 26 SECTOR II SALT LAKE CITY KARUNAMOYEE KOLOKOTTA",0,KOLKOTTA,"NORTH 24 PARGANAS","WEST BENGAL"
"STATE BANK OF MYSORE",SBMY0040538,NA,"PUNJABI BAGH","BLOCK I,SECTOR IV MKT,NORTH WEST AVENUE,PUNJABI BAGH,W NEW DELHI",0,"NEW DELHI","NEW DELHI",DELHI
"STATE BANK OF MYSORE",SBMY0040537,NA,VADODARA,"VIMALNATH COMP PLAZA,VADODARA",0,VADODARA,VADODARA,GUJARAT
"STATE BANK OF MYSORE",SBMY0040536,NA,SURAT,"ASHWINIKUMAR RD,SURAT",0,SURAT,SURAT,GUJARAT
"STATE BANK OF MYSORE",SBMY0040535,NA,BHUBANESWAR,"IDCOL HOUSE, UNIT II, BHUBANESWAR",0,BHUBANESWAR,KHURDA,ODISHA
"STATE BANK OF MYSORE",SBMY0040534,NA,PANAJI,"LAR COMMERCIAL PANAJI",0,PANAJI,"NORTH GOA",GOA
"STATE BANK OF MYSORE",SBMY0040533,NA,"MES COLLEGE MALLESWARAM","MES COLLEGE, MALLESWARAM,KARNATAKA,BANGALORE 560 003",0,BANGALORE,"BANGALORE URBAN",KARNATAKA
"STATE BANK OF MYSORE",SBMY0040532,NA,UDUPI,"REHMAN COMM COMPLEX NETHAJI CROSS RD UDUPI,KAR",0,UDUPI,UDUPI,KARNATAKA
"STATE BANK OF MYSORE",SBMY0040531,NA,KAKINADA,"21 50 BY 1 HOSPITAL COMPLEX BAHANUGUDI CENTRE,AP",0,KAKINADA,"EAST GODAVARI","ANDHRA PRADESH"
"STATE BANK OF MYSORE",SBMY0040530,NA,BHOPAL,"NIRMAL TOWERS BHOPAL",0,BHOPAL,BHOPAL,"MADHYA PRADESH"
"STATE BANK OF MYSORE",SBMY0040529,NA,"MYSORE ROAD BRANCH BHEL","MYSORE ROAD BRANCH BHEL ,KARNATAKA,BANGALORE 560 026",0,BANGALORE,"BANGALORE URBAN",KARNATAKA
"STATE BANK OF MYSORE",SBMY0040528,NA,TIRUPUR,"TIRUPUR,COIMBATORE,TAMIL NADU,TIRUPUR 641607",0,TIRUPUR,COIMBOTORE,"TAMIL NADU"
"STATE BANK OF MYSORE",SBMY0040527,NA,"DHONDELING TS","DHONDELING TS,KOLLEGAL,CHAMARAJNAGAR,KARNATAKA,KOLLEGAL TALUK 571457",0,KOLLEGAL,CHAMRAJNAGAR,KARNATAKA
"STATE BANK OF MYSORE",SBMY0040526,NA,"M S BLDGS","M S BLDGS,KARNATAKA,BANGALORE 560 001",0,BANGALORE,"BANGALORE URBAN",KARNATAKA
"STATE BANK OF MYSORE",SBMY0040524,NA,BELAPUR,"BELAPUR BHAVANOFFICE NO 3 CBD BELAPUR NAVI MUMBAI",0,"NAVI MUMBAI",THANE,MAHARASHTRA
"STATE BANK OF MYSORE",SBMY0040523,NA,HULIBELE,"HULIBELE,KOLAR,KARNATAKA,HULIBELE 563 114",0,HULIBELE,KOLAR,KARNATAKA
"STATE BANK OF MYSORE",SBMY0040522,NA,IFB,"RAMANSHREE ARCADE NO.18,M.G.RD,BANGALORE",0,BANGALORE,"BANGALORE URBAN",KARNATAKA
"STATE BANK OF MYSORE",SBMY0040521,NA,"METAGALLI BRANCH","METAGALLI BRANCH,MYSORE,KARNATAKA,MYSORE 570 016",0,MYSORE,MYSORE,KARNATAKA
"STATE BANK OF MYSORE",SBMY0040520,NA,PADUBIDRI,"1ST FLOOR,SRI MAHALAXMI COMPLEX,KARKAL ROAD",0,UDUPI,UDUPI,KARNATAKA
"STATE BANK OF MYSORE",SBMY0040519,NA,NARASANDRA,"NARASANDRA,BANGALORE,KARNATAKA,NARASANDRA 562 127",0,NARASANDRA,"BANGALORE RURAL",KARNATAKA
"STATE BANK OF MYSORE",SBMY0040518,NA,BYATHARAHOSAHALLI,"BYATHARAHOSAHALLI,TUMKUR,KARNATAKA,BYTHARAHOSAHALLY 572 221",0,TUMKUR,TUMKUR,KARNATAKA
"STATE BANK OF MYSORE",SBMY0040516,NA,HULIKAL,"HULIKAL,MYSORE,KARNATAKA,HULIKAL 561101",0,HULIKAL,"BANGALORE RURAL",KARNATAKA
"STATE BANK OF MYSORE",SBMY0040515,NA,KURIGEPALLI,"KURIGEPALLI,KOLAR,KARNATAKA,KURIGEPALLI 563134",0,KURIGEPALI,KOLAR,KARNATAKA
"STATE BANK OF MYSORE",SBMY0040514,NA,SULIKUNTE,"SULIKUNTE,KOLAR,KARNATAKA,KOLAR DIST",0,SULIKUNTE,KOLAR,KARNATAKA
"STATE BANK OF MYSORE",SBMY0040513,NA,"NANDINI LAYOUT","NANDINI LAYOUT,KARNATAKA,BANGALORE 560 096",0,BANGALORE,"BANGALORE URBAN",KARNATAKA
"STATE BANK OF MYSORE",SBMY0040512,NA,ANKASANDRA,"ANKASANDRA,TUMKUR,KARNATAKA,ANKASANDRA 572117",0,ANKASANDRA,TUMKUR,KARNATAKA
"STATE BANK OF MYSORE",SBMY0040511,NA,ATTIKOLLA,"ATTIKOLLA,DHARWAD,KARNATAKA,DHARWAD 580 007",0,DHARWAD,DHARWAD,KARNATAKA
"STATE BANK OF MYSORE",SBMY0040510,NA,BHAKTARAHALLI,"BHAKTARAHALLI,TUMKUR,KARNATAKA,BHAKTHARAHALLI 572 120",0,BHAKTARHALI,TUMKUR,KARNATAKA
"STATE BANK OF MYSORE",SBMY0040509,NA,"H S GUTTI","HIRESINGANAGUTTI,BAGALKOT,KARNATAKA,HIRESINGANAGUTTI 587 154",0,HIRESINGANGUTI,BAGALKOT,KARNATAKA
"STATE BANK OF MYSORE",SBMY0040507,NA,CHALLAHALLI,"CHALLAHALLI,MYSORE,KARNATAKA,CHALLAHALLI 571103",0,CHALLAHALLI,MYSORE,KARNATAKA
"STATE BANK OF MYSORE",SBMY0040506,NA,"PASCHIM ENCLAVE","PASCHIM ENCLAVE,NEW DELHI,NEW DELHI,NEW DELHI 87",0,"NEW DELHI","NEW DELHI",DELHI
"STATE BANK OF MYSORE",SBMY0040505,NA,SUDAMBI,"SUDAMBI,HAVERI,KARNATAKA,SUDAMBI 581120",0,SUDAMBI,HAVERI,KARNATAKA
"STATE BANK OF MYSORE",SBMY0040504,NA,KANCHIPURA,"KANCHIPURA,CHITRADURGA,KARNATAKA,KANCHIPURA 577533",0,KANCHIPURA,CHITRADURGA,KARNATAKA
"STATE BANK OF MYSORE",SBMY0040503,NA,THAMMENAHALLI,"THAMMENAHALLI,CHITRADURGA,KARNATAKA,CHITRADURGA DIST 577540",0,THAMENAHALI,CHITRADURGA,KARNATAKA
"STATE BANK OF MYSORE",SBMY0040502,NA,HANDANAKERE,"HANDANAKERE,TUMKUR,KARNATAKA,HANDANAKERE 572 119",0,HANDANAKERE,TUMKUR,KARNATAKA
"STATE BANK OF MYSORE",SBMY0040499,NA,GUJAMAGADI,"GUJAMAGADI,GADAG,KARNATAKA,GUJAMAGADI 582 102",0,GUJAMAGADI,GADAK,KARNATAKA
"STATE BANK OF MYSORE",SBMY0040498,NA,DODDAHALLI,"DODDAHALLI,HASSAN,KARNATAKA,DODDAHALLI 573210",0,DODDAHALLI,HASSAN,KARNATAKA
"STATE BANK OF MYSORE",SBMY0040497,NA,KANATHUR,"KANATHUR,HASSAN,KARNATAKA,KANATHUR 573213",0,KANATHUR,HASSAN,KARNATAKA
"STATE BANK OF MYSORE",SBMY0040496,NA,THIMMAMPALLY,"THIMMAMPALLI,KOLAR,KARNATAKA,THIMMAMPALLI 561207",0,THIMAMPALI,KOLAR,KARNATAKA
"STATE BANK OF MYSORE",SBMY0040495,NA,SEEGEHALLY,"SEEGEHALLY,TUMKUR,KARNATAKA,SEEGEHALLI 572213",0,SEEGEHALLY,TUMKUR,KARNATAKA
"STATE BANK OF MYSORE",SBMY0040493,NA,"DESHPANDE NAGAR","DESHPANDE NAGAR,HUBLI,DHARWAD,KARNATAKA,HUBLI 580 029",0,HUBLI,DHARWAD,KARNATAKA
"STATE BANK OF MYSORE",SBMY0040492,NA,"SERVICE BR DELHI","SERVICE BR DELHI,NEW DELHI 110 001",0,"NEW DELHI","NEW DELHI",DELHI
"STATE BANK OF MYSORE",SBMY0040491,NA,BALUVANERALU,"BALUVANERALU,TUMKUR,KARNATAKA,BALUVANERALU 572217",0,BALVANERALU,TUMKUR,KARNATAKA
"STATE BANK OF MYSORE",SBMY0040490,NA,KOPPARISIKOPPA,"KOPPARISIKOPPA,HAVERI,KARNATAKA,KOPPARASIKOPPA 581104",0,KOPARISIKOPA,HAVERI,KARNATAKA
"STATE BANK OF MYSORE",SBMY0040489,NA,YELERAMAPURA,"YELERAMAPURA,TUMKUR,KARNATAKA,TUMKUR DIST",0,TUMKUR,TUMKUR,KARNATAKA
"STATE BANK OF MYSORE",SBMY0040488,NA,"RAJENDRA NAGAR","RAJENDRA NAGAR,MYSORE,KARNATAKA,MYSORE 570 007",0,MYSORE,MYSORE,KARNATAKA
"STATE BANK OF MYSORE",SBMY0040487,NA,NAGATHIBASAPURA,"NAGATHIBASAPURA,BELLARY,KARNATAKA,NAGATHIBASAPURA 583 219",0,NAGTHIBASPURA,BELLARY,KARNATAKA
"STATE BANK OF MYSORE",SBMY0040486,NA,NIMBALAGERE,"NIMBALAGERE,BELLARY,KARNATAKA,NIMBALAGERE 583 136",0,NIMBALAGERE,BELLARY,KARNATAKA
"STATE BANK OF MYSORE",SBMY0040485,NA,"K HONNAMACHANAHALLI","K HONNAMACHANAHALLI,TUMKUR,KARNATAKA,K HONNAMACHANAHALLY 592111",0,"K HONMCHANHALI",TUMKUR,KARNATAKA
"STATE BANK OF MYSORE",SBMY0040484,NA,"AGRAHARA GATE","AGRAHARA GATE,BEECHANAHALLY,HASSAN,KARNATAKA,BEECHANAHALLY 573 211",0,BECHANHALY,HASSAN,KARNATAKA
"STATE BANK OF MYSORE",SBMY0040483,NA,SADAHALLI,"SADAHALLI,KARNATAKA,BANGALORE DIST",0,SADAHALLI,"BANGALORE RURAL",KARNATAKA
"STATE BANK OF MYSORE",SBMY0040482,NA,CHAGACHAGERE,"CHAGACHAGERE,ARSIKERE,KARNATAKA,CHAGACHAGERE 573 164",0,CHAGACHAGERE,HASSAN,KARNATAKA
"STATE BANK OF MYSORE",SBMY0040481,NA,HONGADAHALLA,"HONGADAHALLA,ATTIHALLI,HASSAN,KARNATAKA,ATTIHALLI POST 573123",0,ATTIHALLI,HASSAN,KARNATAKA
"STATE BANK OF MYSORE",SBMY0040480,NA,"SERVICE BRANCH MUMBAI","SERVICE BRANCH MUMBAI,MAHARASHTRA,MUMBAI 400 021",0,MUMBAI,"GREATER BOMBAY",MAHARASHTRA
"STATE BANK OF MYSORE",SBMY0040479,NA,"BANJARA HILLS","PLOT NO.8A RD NO.5 JUBILEE HILLS CO.OP SCTY BANJARA HILLS HYDERABAD",0,HYDERABAD,"HYDERABAD URBAN","ANDHRA PRADESH"
"STATE BANK OF MYSORE",SBMY0040478,NA,NAJAFGARH,"NEW ANAJMANDI BAHADURGARH RD NAJAFGARH,N DELHI",0,"NEW DELHI","NEW DELHI",DELHI
"STATE BANK OF MYSORE",SBMY0040477,NA,RANJOULIKHENI,"RANJOLKHENI,BIDAR,KARNATAKA,RANJOLKHENI 585 329",0,RANJOLKHENI,BIDAR,KARNATAKA
"STATE BANK OF MYSORE",SBMY0040476,NA,THIPPASANDRA,"THIPPASANDRA,BANGALORE,KARNATAKA,THIPPASANDRA 562131",0,THIPPASANDRA,"BANGALORE RURAL",KARNATAKA
"STATE BANK OF MYSORE",SBMY0040475,NA,KAIMARA,"KAIMARA,SHIMOGA,KARNATAKA,KAIMARA 577 424",0,KAIMARA,SHIMOGA,KARNATAKA
"STATE BANK OF MYSORE",SBMY0040474,NA,NAVILUR,"NAVILUR,GANAGANUR,CHAMARAJNAGAR,KARNATAKA,GANAGANUR POST 571124",0,GANAGANUR,CHAMRAJNAGAR,KARNATAKA
"STATE BANK OF MYSORE",SBMY0040473,NA,"SERVICE BR CHENNAI","SERVICE BR CHENNAI,TAMIL NADU,CHENNAI 600002",0,CHENNAI,CHENNAI,"TAMIL NADU"
"STATE BANK OF MYSORE",SBMY0040472,NA,"ANDHERI EAST","MAHAKALI CAVES RD ANDHERI E MUMBAI",0,MUMBAI,"GREATER BOMBAY",MAHARASHTRA
"STATE BANK OF MYSORE",SBMY0040471,NA,BALA,"BALA,DAKSHINA KANNADA,KARNATAKA,KATIPALLA 574 149",0,BALA,"DAKSHINA KANNADA",KARNATAKA
"STATE BANK OF MYSORE",SBMY0040470,NA,CHENAGANNUR,"CHENAGANNUR,ALUVA,KERALA,CHENGANUR 689 121",0,CHENAGANNUR,ALAPUZZHA,KERALA
"STATE BANK OF MYSORE",SBMY0040468,NA,KUMBANAD,"KUMBANAD,KUMBANAD,KERALA,KUMBANAD 682 547",0,KUMBANAD,PATHANAMTHITTA,KERALA
"STATE BANK OF MYSORE",SBMY0040467,NA,SHEDBAL,"SHEDBAL,BELGAUM,KARNATAKA,SHEDBAL 591315",0,SHEDBAL,BELGAUM,KARNATAKA
"STATE BANK OF MYSORE",SBMY0040466,NA,MALEBENNUR,"MALEBENNUR,DAVANAGERE DIST,KARNATAKA,MALEBENNUR 577 530",0,MALEBENNUR,DAVANAGARE,KARNATAKA
"STATE BANK OF MYSORE",SBMY0040465,NA,"SERVICE BR MYSORE","SERVICE BR MYSORE,KARNATAKA,MYSORE 570 021",0,MYSORE,MYSORE,KARNATAKA
"STATE BANK OF MYSORE",SBMY0040464,NA,"SERVICE BRANCH BLORE","SERVICE BRANCH B LORE,KARNATAKA,BANGALORE 560001",0,BANGALORE,"BANGALORE URBAN",KARNATAKA
"STATE BANK OF MYSORE",SBMY0040463,NA,"B S K STAGE","B S K 2ND STAGE,KARNATAKA,BANGALORE 560 070",0,BANGALORE,"BANGALORE URBAN",KARNATAKA
"STATE BANK OF MYSORE",SBMY0040462,NA,"MAHENDRA HILLS","BALARAMRAJ HSG SOC SECBAD",0,SECUNDERABAD,"HYDERABAD URBAN","ANDHRA PRADESH"
"STATE BANK OF MYSORE",SBMY0040461,NA,ADONI,"467 GHOSHA HOSPITAL RD ADONI,AP",0,ADONI,KURNOOL,"ANDHRA PRADESH"
"STATE BANK OF MYSORE",SBMY0040460,NA,HARITA,"SUNDARAM CLAYTON LTD HARITA,TN",0,HARITA,KRISHNAGIRI,"TAMIL NADU"
"STATE BANK OF MYSORE",SBMY0040459,NA,KADRA,"KADRA,UTTAR KANNADA,KARNATAKA,KADRA 581 396",0,KADRA,"UTTARA KANNADA",KARNATAKA
"STATE BANK OF MYSORE",SBMY0040458,NA,BOOKINAKERE,"BOOKINAKERE,MANDYA,KARNATAKA,BOOKINAKERE 571 812",0,BOOKINAKERE,MANDYA,KARNATAKA
"STATE BANK OF MYSORE",SBMY0040457,NA,MALLATHAHALLY,"MALLATHAHALLY,KARNATAKA,BANGALORE 560 072",0,BANGALORE,"BANGALORE URBAN",KARNATAKA
"STATE BANK OF MYSORE",SBMY0040456,NA,"CANTONMENT BELLARY","CANTONMENT BELLARY,BELLARY,KARNATAKA,BELLARY 583102",0,BELLARY,BELLARY,KARNATAKA
"STATE BANK OF MYSORE",SBMY0040455,NA,RAJAHMUNDRY,"MAIN RD JETTY COMPLEX D NO.8 24 154 RAJAHMUNDRY",0,RAJAHMUNDRY,"EAST GODAVARI","ANDHRA PRADESH"
"STATE BANK OF MYSORE",SBMY0040454,NA,HALLAGERE,"HALLAGERE,MANDYA,KARNATAKA,HALLEGERE 571 446",0,HALLAGERE,MANDYA,KARNATAKA
"STATE BANK OF MYSORE",SBMY0040453,NA,TRIVANDRUM,"D NO TC BY 38 BY 5992 PONNI BLDG POWER HOUSE RD TRIVANDRUM",0,TRIVANDRUM,TRIVANDRUM,KERALA
"STATE BANK OF MYSORE",SBMY0040452,NA,"SHAKTI NAGAR","SHAKTI NAGAR,RAICHUR,KARNATAKA,SHAKTHINAGAR 584 170",0,RAICHUR,RAICHUR,KARNATAKA
"STATE BANK OF MYSORE",SBMY0040450,NA,NAGPUR,"WARDHA RD,NAGPUR",0,NAGPUR,NAGPUR,MAHARASHTRA
"STATE BANK OF MYSORE",SBMY0040449,NA,THIRUVANMIYUR,"THIRUVANMIYUR,CHENNAI,TAMIL NADU,CHENNAI 600041",0,CHENNAI,CHENNAI,"TAMIL NADU"
"STATE BANK OF MYSORE",SBMY0040448,NA,"CENTRAL ZONE","STATE BANK OF MYSORE BUILDG.CENTRAL ZONE,CHENNAI,3RD FLOOR,NO.231,NSC BOSE ROAD,CHENNAI 600001",0,CHENNAI,CHENNAI,KARNATAKA
"STATE BANK OF MYSORE",SBMY0040447,NA,"RAGHAVENDRA COLONY","RAGHAVENDRA COLONY,BELLARY,KARNATAKA,BELLARY 583 101",0,BELLARY,BELLARY,KARNATAKA
"STATE BANK OF MYSORE",SBMY0040446,NA,VADAGAON,"VADAGAON,BELGAUM,KARNATAKA,BELGAUM 590 005",0,BELGAUM,BELGAUM,KARNATAKA
"STATE BANK OF MYSORE",SBMY0040445,NA,BELLALE,"BELLALE,MANDYA,KARNATAKA,BELLALE 571 434",0,BELLALE,MANDYA,KARNATAKA
"STATE BANK OF MYSORE",SBMY0040444,NA,VINOBANAGARA,"VINOBANAGARA,SHIMOGA,KARNATAKA,SHIMOGA 577 201",0,SHIMOGA,SHIMOGA,KARNATAKA
"STATE BANK OF MYSORE",SBMY0040442,NA,UNKAL,"UNKAL,HUBLI,DHARWAD,KARNATAKA,HUBLI 580 031",0,HUBLI,DHARWAD,KARNATAKA
"STATE BANK OF MYSORE",SBMY0040441,NA,KUVEMPUNAGAR,"KUVEMPUNAGAR,MYSORE,KARNATAKA,MYSORE 570009",0,MYSORE,MYSORE,KARNATAKA
"STATE BANK OF MYSORE",SBMY0040440,NA,GONIMARUR,"GONIMARUR,KODAGU,KARNATAKA,GONIMARUR 571 236",0,GONIMARUR,MADIKERI,KARNATAKA
"STATE BANK OF MYSORE",SBMY0040439,NA,PATTADUR,"PATTADUR,BILLUR KADIDAL,CHICKMAGALUR,KARNATAKA,BILLUR KADIDAL 577 132",0,"BILLUR KADIDAL",CHICKMAGALUR,KARNATAKA
"STATE BANK OF MYSORE",SBMY0040438,NA,ATHIMUGAM,"ATHIMUGAM,DHARMAPURI,TAMIL NADU,ATHIMUGAM 635 105",0,ATHIMUGAM,KRISHNAGIRI,"TAMIL NADU"
"STATE BANK OF MYSORE",SBMY0040437,NA,KUNCHEBYLU,"KUNCHEBYLU,CHICKMAGALUR,KARNATAKA,KUNCHEBYLU 577 139",0,KUNCHEBYLU,CHICKMAGALUR,KARNATAKA
"STATE BANK OF MYSORE",SBMY0040436,NA,KORAMANGALA,"KORAMANGALA,KARNATAKA,BANGALORE 560 034",0,KORAMANGALA,"BANGALORE URBAN",KARNATAKA
"STATE BANK OF MYSORE",SBMY0040435,NA,AGHALAYA,"AGHALAYA,MANDYA,KARNATAKA,AGHALAYA 571 436",0,AGHALAYA,MANDYA,KARNATAKA
"STATE BANK OF MYSORE",SBMY0040434,NA,JANAKPURI,"JANAK CINEMA COMP NEW DELHI",0,"NEW DELHI","NEW DELHI",DELHI
"STATE BANK OF MYSORE",SBMY0040433,NA,"DALAL STREET","24 BY 26 DALAL ST,FORT MUMBAI",0,MUMBAI,"GREATER BOMBAY",MAHARASHTRA
"STATE BANK OF MYSORE",SBMY0040432,NA,"BANGALORE ZONAL OFFICEBZ1","BKG COMPLEX AVENUE ROAD BANGALORE 560254",0,BANGALORE,"BANGALORE URBAN",KARNATAKA
"STATE BANK OF MYSORE",SBMY0040431,NA,KADABALLI,"KADABALLI,MANDYA,KARNATAKA,MANDYA 571 418",0,MANDYA,MANDYA,KARNATAKA
"STATE BANK OF MYSORE",SBMY0040430,NA,"HUBLI ZONE","SIDDAPPA KAMBLI ROAD,SHWETHA COMPLEX,P.B.NO.134,HUBLI 580 020,KARNATAKA STATE",0,"HUBLI DHARWAD",DHARWAD,KARNATAKA
"STATE BANK OF MYSORE",SBMY0040429,NA,VELLORE,"CSI COM COMPLEX BLDG OFFICERS LINE VELLORE",0,VELLORE,VELLORE,"TAMIL NADU"
"STATE BANK OF MYSORE",SBMY0040428,NA,BELAVANAKODIGE,"BELAVANAKODIGE,UTTAMESHWARA,CHICKMAGALUR,KARNATAKA,UTTAMESHWARA 577 126",0,UTAMESHWARA,CHICKMAGALUR,KARNATAKA
"STATE BANK OF MYSORE",SBMY0040427,NA,KANNAPURA,"KANNAPURA,MUDIGERE,CHICKMAGALUR,KARNATAKA,MUDIGERE 577 132",0,MUDIGERE,CHICKMAGALUR,KARNATAKA
"STATE BANK OF MYSORE",SBMY0040426,NA,SAULANGA,"SAULANGA,SHIMOGA,KARNATAKA,SAULANGA 577 225",0,SAULANGA,DAVANAGARE,KARNATAKA
"STATE BANK OF MYSORE",SBMY0040425,NA,"MYSORE ZONE","MYSORE ZONE,P B NO 19,SAHUKAR CHENNIAH ROAD,KUVEMPUNAGAR,MYSORE 570 023",0,MYSORE,MYSORE,KARNATAKA
"STATE BANK OF MYSORE",SBMY0040424,NA,KUDRIGE,"KUDRIGE,SAMSI,UTTAR KANNADA,KARNATAKA,SAMSI 581334",0,SAMSI,"UTTARA KANNADA",KARNATAKA
"STATE BANK OF MYSORE",SBMY0040423,NA,MACHENAHALLI,"MACHENAHALLI,SHIMOGA,KARNATAKA,MACHENAHALLI 577 222",0,MACHENAHALI,SHIMOGA,KARNATAKA
"STATE BANK OF MYSORE",SBMY0040422,NA,ITTIGEGUD,"ITTIGEGUD,MYSORE,KARNATAKA,MYSORE 570 010",0,MYSORE,MYSORE,KARNATAKA
"STATE BANK OF MYSORE",SBMY0040421,NA,AHMEDABAD,"SHITY RATNA BLDG,PANCHAVATI CIRCLE OFF CG RD AMBAWADI AHMEDABAD",0,"NEW DELHI",AHMEDABAD,GUJARAT
"STATE BANK OF MYSORE",SBMY0040420,NA,SHRAVANDAHALLI,"SHRAVANDAHALLI,KOLAR,KARNATAKA,SHRAVANDANAHALLY 572 127",0,SHRAVANDAHALI,TUMKUR,KARNATAKA
"STATE BANK OF MYSORE",SBMY0040419,NA,"MALAMARUTHI EXTN","MALAMARUTHI EXTN,BELGAUM,KARNATAKA,BELGAUM 590 016",0,BELGAUM,BELGAUM,KARNATAKA
"STATE BANK OF MYSORE",SBMY0040418,NA,SIRAGATE,"SIRAGATE,TUMKUR,KARNATAKA,SIRA 572106",0,TUMKUR,TUMKUR,KARNATAKA
"STATE BANK OF MYSORE",SBMY0040417,NA,TAVAREKERE,"TAVAREKERE,DAVANAGERE,KARNATAKA,TAVAREKERE 577213",0,TAVAREKERE,DAVANAGARE,KARNATAKA
"STATE BANK OF MYSORE",SBMY0040416,NA,BILEKAHALLY,"BILEKAHALLY,KARNATAKA,BANGALORE 560 076",0,BANGALORE,"BANGALORE URBAN",KARNATAKA
"STATE BANK OF MYSORE",SBMY0040415,NA,"NEHRU PLACE","DDA BLDGS 3,4 AND 5 NEHRU PLACE NEW DELHI",0,"NEW DELHI","NEW DELHI",DELHI
"STATE BANK OF MYSORE",SBMY0040414,NA,"APMC C BALLAPUR","APMC ,CHICKBALLAPUR,KOLAR,KARNATAKA,CHICKBALLAPUR 562 101",0,CHICKBALAPUR,KOLAR,KARNATAKA
"STATE BANK OF MYSORE",SBMY0040413,NA,KULAMBI,"KULAMBI,DAVANAGERE,KARNATAKA,KULAMBI 577 239",0,KULAMBI,DAVANAGARE,KARNATAKA
"STATE BANK OF MYSORE",SBMY0040412,NA,DABBEGHATTA,"DABBEGHATTA,TUMKUR,KARNATAKA,DABBEGHATTA 572 227",0,DABBEGHATTA,TUMKUR,KARNATAKA
"STATE BANK OF MYSORE",SBMY0040411,NA,"K K NAGAR","K K NAGAR,CHENNAI,TAMIL NADU,CHENNAI 600078",0,CHENNAI,CHENNAI,"TAMIL NADU"
"STATE BANK OF MYSORE",SBMY0040410,NA,"ADARSH NAGAR","ADARSH NAGAR,HUBLI,DHARWAD,KARNATAKA,HUBLI 580 032",0,HUBLI,DHARWAD,KARNATAKA
"STATE BANK OF MYSORE",SBMY0040409,NA,"KULAGERI CROSS","KULAGERI CROSS,BAGALKOT,KARNATAKA,KULAGERI CROSS 587 155",0,"KULAGERI CROSS",BAGALKOT,KARNATAKA
"STATE BANK OF MYSORE",SBMY0040408,NA,HADLI,"HADLI,MANDYA,KARNATAKA,HADLI 571 430",0,HADLI,MANDYA,KARNATAKA
"STATE BANK OF MYSORE",SBMY0040407,NA,GUTHALU,"GUTHALU,MANDYA,KARNATAKA,MANDYA 571403",0,MANDYA,MANDYA,KARNATAKA
"STATE BANK OF MYSORE",SBMY0040406,NA,KAGGALIPURA,"KAGGALIPURA,BANGALORE,KARNATAKA,KAGGALIPURA 560 062",0,KAGALIPURA,"BANGALORE URBAN",KARNATAKA
"STATE BANK OF MYSORE",SBMY0040405,NA,NITTUR,"NITTUR,TUMKUR,KARNATAKA,NITTUR 572 223",0,NITTUR,TUMKUR,KARNATAKA
"STATE BANK OF MYSORE",SBMY0040404,NA,PALAHALLY,"PALAHALLY,MANDYA,KARNATAKA,PALAHALLY 571 438",0,PALAHALLY,MANDYA,KARNATAKA
"STATE BANK OF MYSORE",SBMY0040403,NA,"RAJMAHAL VILAS EXTN","RAJMAHAL VILAS EXTN,KARNATAKA,BANGALORE 560080",0,BANGALORE,"BANGALORE URBAN",KARNATAKA
"STATE BANK OF MYSORE",SBMY0040402,NA,"BAZAAR BR BELLARY","BAZAAR BR, BELLARY,KARNATAKA,BELLARY 583 101",0,BELLARY,BELLARY,KARNATAKA
"STATE BANK OF MYSORE",SBMY0040401,NA,PURAVARA,"PURAVARA,TUMKUR,KARNATAKA,PURAWARA 572 175",0,PURAVARA,TUMKUR,KARNATAKA
"STATE BANK OF MYSORE",SBMY0040400,NA,LOKKANAHALLY,"LOKKANAHALLY,CHAMARAJNAGAR,KARNATAKA,LOKKANAHALLY 571 479",0,LOKNAHALY,CHAMRAJNAGAR,KARNATAKA
"STATE BANK OF MYSORE",SBMY0040399,NA,MALLAPPANAHALLY,"MALLAPPANAHALLY,CHITRADURGA,KARNATAKA,MALLAPPANAHALLY 577 554",0,MALPANAHALY,CHITRADURGA,KARNATAKA
"STATE BANK OF MYSORE",SBMY0040398,NA,ANCHETTY,"ANCHETTY,DHARMAPURI,TAMIL NADU,ANCHETTY 635 102",0,ANCHETTY,KRISHNAGIRI,"TAMIL NADU"
"STATE BANK OF MYSORE",SBMY0040397,NA,MUDAGERE,"MUDAGERE,BANGALORE,KARNATAKA,MUDAGERE 571 501",0,MUDAGERE,"BANGALORE RURAL",KARNATAKA
"STATE BANK OF MYSORE",SBMY0040396,NA,SUNDARAPALYA,"SUNDARAPALYA,KOLAR,KARNATAKA,SUNDARAPALYA 563 122",0,SUNDARAPALYA,KOLAR,KARNATAKA
"STATE BANK OF MYSORE",SBMY0040395,NA,MALAD,"657 S V RD SAHAKAR APTMTS MALAD WEST",0,MUMBAI,"GREATER BOMBAY",MAHARASHTRA
"STATE BANK OF MYSORE",SBMY0040394,NA,BIDAR,"BIDAR,KARNATAKA,BIDAR 585 401",0,BIDAR,BIDAR,KARNATAKA
"STATE BANK OF MYSORE",SBMY0040393,NA,HIREHALLY,"HIREHALLY,TUMKUR,KARNATAKA,HIREHALLY 572 168",0,HIREHALLY,TUMKUR,KARNATAKA
"STATE BANK OF MYSORE",SBMY0040392,NA,BELLAVI,"BELLAVI,TUMKUR,KARNATAKA,BELLAVI 572 107",0,BELLAVI,TUMKUR,KARNATAKA
"STATE BANK OF MYSORE",SBMY0040391,NA,HOODY,"HOODY,KARNATAKA,BANGALORE 560 048",0,BANGALORE,"BANGALORE URBAN",KARNATAKA
"STATE BANK OF MYSORE",SBMY0040390,NA,JALAMANGALA,"JALAMANGALA,BANGALORE,KARNATAKA,JALAMANGALA 571 511",0,JALAMANGALA,"BANGALORE RURAL",KARNATAKA
"STATE BANK OF MYSORE",SBMY0040389,NA,DODDAGUNI,"DODDAGUNI,GUBBI,TUMKUR,KARNATAKA,DODDAGUNI 572211",0,GUBBI,TUMKUR,KARNATAKA
"STATE BANK OF MYSORE",SBMY0040388,NA,KUSHALNAGAR,"KUSHALNAGAR,KODAGU,KARNATAKA,KUSHALNAGAR 571 234 KODAGU DIST",0,KUSHALNAGAR,MADIKERI,KARNATAKA
"STATE BANK OF MYSORE",SBMY0040387,NA,"I D HALLY","I D HALLY,TUMKUR,KARNATAKA,I D HALLY 572 124 TUMKUR DIST",0,"I D HALLY",TUMKUR,KARNATAKA
"STATE BANK OF MYSORE",SBMY0040386,NA,BEVINAHALLI,"BEVINAHALLI,TUMKUR,KARNATAKA,BEVINAHALLY 572 135 TUMKUR DIST",0,BEVINAHALLI,TUMKUR,KARNATAKA
"STATE BANK OF MYSORE",SBMY0040385,NA,CHINNAKURALI,"CHINNAKURALI,MANDYA,KARNATAKA,CHINAKURALI 571 455 MANDYA DIST",0,CHINNAKURALI,MANDYA,KARNATAKA
"STATE BANK OF MYSORE",SBMY0040384,NA,JAYALAKSHMIPURAM,"JAYALAKSHMIPURAM,MYSORE,KARNATAKA,3RD BLOCK MYSORE 570 012",0,MYSORE,MYSORE,KARNATAKA
"STATE BANK OF MYSORE",SBMY0040383,NA,GULBARGA,"SUPER MARKET COMPLEX RD SPC RD,KAR",0,GULBARGA,GULBERGA,KARNATAKA
"STATE BANK OF MYSORE",SBMY0040382,NA,RAICHUR,"11 1 90 BY 1 AND 3 BRESTHEWARPET RAICHUR",0,RAICHUR,RAICHUR,KARNATAKA
"STATE BANK OF MYSORE",SBMY0040381,NA,"PEARLITE INDL ESTATE","PEARLITE INDL ESTATE,SHIMOGA,KARNATAKA,SHIMOGA 577 201",0,SHIMOGA,SHIMOGA,KARNATAKA
"STATE BANK OF MYSORE",SBMY0040380,NA,HAGALWADI,"HAGALWADI,TUMKUR,KARNATAKA,HAGALWADI 572 239",0,HAGALWADI,TUMKUR,KARNATAKA
"STATE BANK OF MYSORE",SBMY0040379,NA,HARALAHALLY,"HARALAHALLY,HASSAN,KARNATAKA,HARALAHALLY 573 201",0,HARALAHALLY,HASSAN,KARNATAKA
"STATE BANK OF MYSORE",SBMY0040378,NA,"VISWESHWAR NAGAR","VISWESHWAR NAGAR,MYSORE,KARNATAKA,MYSORE 570 008",0,MYSORE,MYSORE,KARNATAKA
"STATE BANK OF MYSORE",SBMY0040377,NA,ERODE,"738,NETHAJI STREET PERIYAR MANDRAN COMPLEX ERODE",0,ERODE,ERODE,"TAMIL NADU"
"STATE BANK OF MYSORE",SBMY0040376,NA,SAMPANGIRAMNAGAR,"SAMPANGIRAMNAGAR,KARNATAKA,BANGALORE 560 027",0,BANGALORE,"BANGALORE URBAN",KARNATAKA
"STATE BANK OF MYSORE",SBMY0040375,NA,TIRUPATI,"564 BY C IST D BALAJI COLONY THIRUPATHI",0,TIRUPATI,CHITTOR,"ANDHRA PRADESH"
"STATE BANK OF MYSORE",SBMY0040374,NA,"LANGFORD TOWN BRANCH","LANGFORD TOWN BRANCH,KARNATAKA,BANGALORE 560 025",0,BANGALORE,"BANGALORE URBAN",KARNATAKA
"STATE BANK OF MYSORE",SBMY0040373,NA,KOTAGUDDA,"KOTAGUDDA,TUMKUR,KARNATAKA,KOTAGUDDA 561 215",0,KOTAGUDDA,TUMKUR,KARNATAKA
"STATE BANK OF MYSORE",SBMY0040372,NA,"D P HALLI","D P HALLI,KOLAR,KARNATAKA,DODDAPONNADAHALLI 563129",0,DODAPONDAHALI,KOLAR,KARNATAKA
"STATE BANK OF MYSORE",SBMY0040371,NA,"BENSON TOWN","BENSON TOWN,KARNATAKA,BANGALORE 560046",0,BANGALORE,"BANGALORE URBAN",KARNATAKA
"STATE BANK OF MYSORE",SBMY0040370,NA,"ADB MANDYA","ADB MANDYA,KARNATAKA,MANDYA 571401",0,MANDYA,MANDYA,KARNATAKA
"STATE BANK OF MYSORE",SBMY0040369,NA,SHRAVANABELAGOLA,"SHRAVANABELAGOLA,HASSAN,KARNATAKA,SHRAVANABELAGOLA 573 135",0,SHRAVANBELAGLA,HASSAN,KARNATAKA
"STATE BANK OF MYSORE",SBMY0040368,NA,KHAR,"199 SYBIL MANSION S V RD SANTA CRUZ",0,MUMBAI,"GREATER BOMBAY",MAHARASHTRA
"STATE BANK OF MYSORE",SBMY0040367,NA,"GAYATHRI NAGAR","GAYATHRI NAGAR,KARNATAKA,BANGALORE 560 021",0,BANGALORE,"BANGALORE URBAN",KARNATAKA
"STATE BANK OF MYSORE",SBMY0040366,NA,AKKUR,"AKKUR,BANGALORE,KARNATAKA,AKKUR 562 124",0,AKKUR,"BANGALORE RURAL",KARNATAKA
"STATE BANK OF MYSORE",SBMY0040365,NA,MADURAI,"NORTH VELI STREET MADURAI",0,MADURAI,MADURAI,"TAMIL NADU"
"STATE BANK OF MYSORE",SBMY0040364,NA,"INDIRAGANDHI ROAD","INDIRAGANDHI ROAD,CHICKMAGALUR,KARNATAKA,CHICKMAGALUR 577 101",0,CHICKMAGULUR,CHICKMAGALUR,KARNATAKA
"STATE BANK OF MYSORE",SBMY0040363,NA,HINDWADI,"HINDWADI,BELGAUM,KARNATAKA,HINDWADI 590 011",0,BELGAUM,BELGAUM,KARNATAKA
"STATE BANK OF MYSORE",SBMY0040362,NA,KOLHAPUR,"659 C E WARD 2ND LANE SHAHPURI KOLHAPUR",0,KOLHAPUR,KOLHAPUR,MAHARASHTRA
"STATE BANK OF MYSORE",SBMY0040361,NA,"P J EXTENSION","P J EXTENSION,DAVANAGERE,KARNATAKA,DAVANAGERE 577 004",0,DAVANGERE,DAVANAGARE,KARNATAKA
"STATE BANK OF MYSORE",SBMY0040360,NA,MARGAO,"MARGAO,GOA",0,MARGAO,"SOUTH GOA",GOA
"STATE BANK OF MYSORE",SBMY0040359,NA,VIJAYAWADA,"N R P RD,VIJAYAWADA",0,VIJAYAWADA,KRISHNA,"ANDHRA PRADESH"
"STATE BANK OF MYSORE",SBMY0040358,NA,KUMBARWADA,"KUMBARWADA,UTTAR KANNADA,KARNATAKA,KUMBARWADA 581 187",0,KUMBARWADA,"UTTARA KANNADA",KARNATAKA
"STATE BANK OF MYSORE",SBMY0040357,NA,"SABAGERI EXTN","SABAGERI EXTN,YELLAPUR,UTTAR KANNADA,KARNATAKA,YELLAPUR 581350",0,YELLAPUR,"UTTARA KANNADA",KARNATAKA
"STATE BANK OF MYSORE",SBMY0040356,NA,"R S PURAM","R S PURAM,COIMBATORE,TAMIL NADU,COIMBATORE 641 002",0,COIMBATORE,COIMBOTORE,"TAMIL NADU"
"STATE BANK OF MYSORE",SBMY0040355,NA,SARAKKI,"SARAKKI,KARNATAKA,BANGALORE 560 078",0,BANGALORE,"BANGALORE URBAN",KARNATAKA
"STATE BANK OF MYSORE",SBMY0040354,NA,"ADB MARANAGERE","ADB MARANAGERE,TIPTUR,TUMKUR,KARNATAKA,TIPTUR 572202",0,TIPTUR,TUMKUR,KARNATAKA
"STATE BANK OF MYSORE",SBMY0040353,NA,"CUNNINGHAM RD","11 CUNNINGHAM RD BANGALORE",0,BANGALORE,"BANGALORE URBAN",KARNATAKA
"STATE BANK OF MYSORE",SBMY0040352,NA,DHARWAD,"DHARWAD,KARNATAKA,DHARWAD 580 001",0,DHARWAD,DHARWAD,KARNATAKA
"STATE BANK OF MYSORE",SBMY0040351,NA,DOMMASANDRA,"DOMMASANDRA,BANGALORE,KARNATAKA,DOMMASANDRA 562 148",0,DOMASANDRA,"BANGALORE URBAN",KARNATAKA
"STATE BANK OF MYSORE",SBMY0040350,NA,HONGANUR,"HONGANUR,BANGALORE,KARNATAKA,HONGANOOR 562 138",0,HONGANUR,"BANGALORE RURAL",KARNATAKA
"STATE BANK OF MYSORE",SBMY0040349,NA,"ADB ABBUR","ADB ABBUR,PERIYAPATNA,MYSORE,KARNATAKA,PERIYAPATNA 571 107",0,PERIYAPATNA,MYSORE,KARNATAKA
"STATE BANK OF MYSORE",SBMY0040348,NA,SALEM,"NO.19 BY 35 B CAR STREET SALEM",0,SALEM,SALEM,"TAMIL NADU"
"STATE BANK OF MYSORE",SBMY0040347,NA,KONDAJJI,"KONDAJJI,DAVANAGERE,KARNATAKA,KONDAJJI 577 589",0,KONDAJJI,DAVANAGARE,KARNATAKA
"STATE BANK OF MYSORE",SBMY0040346,NA,NAGOONAHALLI,"NAGOONAHALLI,MANDYA,KARNATAKA,NAGOONAHALLI 571 805",0,NAGOONAHALLI,MANDYA,KARNATAKA
"STATE BANK OF MYSORE",SBMY0040345,NA,"INDIRANAGAR HAL II STAGE","INDIRANAGAR HAL II STAGE ,KARNATAKA,BANGALORE 560 038",0,BANGALORE,"BANGALORE URBAN",KARNATAKA
"STATE BANK OF MYSORE",SBMY0040344,NA,KOZHIKODE,"CHIRAKKAL COMP CALICUT",0,CALICUT,KOZHIKODE,KERALA
"STATE BANK OF MYSORE",SBMY0040343,NA,"SHAKESPEARE SARANI","24A PARIJAT SHAKESPEARE SARANI KOLKOTTA",0,KOLKOTTA,KOLKATA,"WEST BENGAL"
"STATE BANK OF MYSORE",SBMY0040342,NA,DARINAYAKANAPALYA,"DARINAYAKANAPALYA,KOLAR,KARNATAKA,DARINAYAKANAPALYA 561206",0,DARINAYKAPALY,KOLAR,KARNATAKA
"STATE BANK OF MYSORE",SBMY0040341,NA,SUNDAKERE,"SUNDAKERE,HASSAN,KARNATAKA,SUNDEKERE 573 115",0,SUNDAKERE,HASSAN,KARNATAKA
"STATE BANK OF MYSORE",SBMY0040340,NA,KEREBILCHI,"KEREBILICHI,DAVANAGERE,KARNATAKA,KEREBILICHI 577 218",0,KEREBILICHI,DAVANAGARE,KARNATAKA
"STATE BANK OF MYSORE",SBMY0040339,NA,SETTIKERE,"SETTIKERE,TUMKUR,KARNATAKA,SETTIKERE 572 226",0,SETTIKERE,TUMKUR,KARNATAKA
"STATE BANK OF MYSORE",SBMY0040338,NA,BHANUVALLI,"BHANUVALLI,DAVANAGERE,KARNATAKA,BHANUVALLI 577 516",0,BHANUVALLI,DAVANAGARE,KARNATAKA
"STATE BANK OF MYSORE",SBMY0040337,NA,YIDAGUR,"YIDAGUR,KOLAR,KARNATAKA,YIDAGUR 561 208",0,YIDAGUR,KOLAR,KARNATAKA
"STATE BANK OF MYSORE",SBMY0040336,NA,BUDIKOTE,"BUDIKOTE,KOLAR,KARNATAKA,BUDIKOTE 563 147",0,BUDIKOTE,KOLAR,KARNATAKA
"STATE BANK OF MYSORE",SBMY0040335,NA,SRIRAMPURA,"SRIRAMPURA,TUMKUR,KARNATAKA,SRIRAMPURA 577 542",0,SRIRAMPURA,CHITRADURGA,KARNATAKA
"STATE BANK OF MYSORE",SBMY0040334,NA,"SIDDAGANGA EXTN","SIDDAGANGA EXTN,TUMKUR,KARNATAKA,TUMKUR 572 102",0,TUMKUR,TUMKUR,KARNATAKA
"STATE BANK OF MYSORE",SBMY0040333,NA,"C S PURA","C S PURA,CHANDRASHEKARAPURA,TUMKUR,KARNATAKA,CHANDRASHEKARAPURA 572213",0,CHANDRSHEKRPUR,TUMKUR,KARNATAKA
"STATE BANK OF MYSORE",SBMY0040332,NA,NAGASAMUDRA,"NAGASAMUDRA,TUMKUR,KARNATAKA,NAGASAMUDRA 577 572",0,NAGASAMUDRA,CHITRADURGA,KARNATAKA
"STATE BANK OF MYSORE",SBMY0040331,NA,NELAMANGALA,"NELAMANGALA,BANGALORE,KARNATAKA,NELAMANGALA 562 123",0,NELAMANGALA,"BANGALORE RURAL",KARNATAKA
"STATE BANK OF MYSORE",SBMY0040330,NA,MATHIGIRI,"MATHIGIRI,DHARMAPURI DIST,TAMIL NADU,HOSUR CATTLE FARM 635 110",0,MATHIGIRI,KRISHNAGIRI,"TAMIL NADU"
"STATE BANK OF MYSORE",SBMY0040329,NA,MADIKERI,"ANUSHREE COMPLEX MADIKERI",0,MADIKERI,MADIKERI,KARNATAKA
"STATE BANK OF MYSORE",SBMY0040328,NA,MASTIKATTE,"MASTIKATTE,SHIMOGA,KARNATAKA,MASTIKATTE 577 448",0,MASTIKATTE,SHIMOGA,KARNATAKA
"STATE BANK OF MYSORE",SBMY0040327,NA,BAGALUR,"BAGALUR,DHARMAPURI DIST,TAMIL NADU,BAGALUR 635103",0,BAGALUR,KRISHNAGIRI,"TAMIL NADU"
"STATE BANK OF MYSORE",SBMY0040326,NA,HOLALU,"HOLALU,BELLARY,KARNATAKA,HOLALU 583217",0,HOLALU,BELLARY,KARNATAKA
"STATE BANK OF MYSORE",SBMY0040325,NA,NIDAGHATTA,"NIDAGHATTA,CHICKMAGALUR,KARNATAKA,NIDAGHATTA 577 135",0,NIDAGHATTA,CHICKMAGALUR,KARNATAKA
"STATE BANK OF MYSORE",SBMY0040324,NA,SHIVARAMPET,"SHIVARAMPET,MYSORE,KARNATAKA,MYSORE 570 001",0,MYSORE,MYSORE,KARNATAKA
"STATE BANK OF MYSORE",SBMY0040323,NA,"BLOCK RAJAJINAGAR","4TH BLOCK RAJAJINAGAR,KARNATAKA,BANGALORE 560 010",0,BANGALORE,"BANGALORE URBAN",KARNATAKA
"STATE BANK OF MYSORE",SBMY0040322,NA,HONGAHALLI,"HONGAHALLY,MANDYA,KARNATAKA,HONGAHALLY 571 607",0,HONGAHALLY,MANDYA,KARNATAKA
"STATE BANK OF MYSORE",SBMY0040321,NA,NAYABAZAR,"NO.4101 4157 NAYABAZAR,NEWDELHI",0,"NEW DELHI","NEW DELHI",DELHI
"STATE BANK OF MYSORE",SBMY0040320,NA,PONNAMPET,"PONNAMPET,KODAGU DIST,KARNATAKA,PONNAMPET 571 216",0,PONNAMPET,MADIKERI,KARNATAKA
"STATE BANK OF MYSORE",SBMY0040319,NA,NALLUDIKOTTALA,"NALLUDIKOTTALA,BELLARY,KARNATAKA,NALLUDIKOTTALA 583 113",0,NALUDIKOTALA,BELLARY,KARNATAKA
"STATE BANK OF MYSORE",SBMY0040318,NA,TIRUCHIRAPAAI,"TIRUCHIRAPALLI,TAMIL NADU,TIRUCHIRAPALLI 620 002",0,TIRUCHIRAPALI,TIRUCHIORAPPALLI,"TAMIL NADU"
"STATE BANK OF MYSORE",SBMY0040317,NA,KALKUNI,"KALKUNI,MANDYA,KARNATAKA,KALKUNI 571 424",0,KALKUNI,MANDYA,KARNATAKA
"STATE BANK OF MYSORE",SBMY0040316,NA,SHIVASAMUDRAM,"SHIVASAMUDRAM,MANDYA,KARNATAKA,SHIVASAMUDRAM 571 437",0,SHIVASAMUDRAM,MANDYA,KARNATAKA
"STATE BANK OF MYSORE",SBMY0040315,NA,"J C PURA","J C PURA,JAYACHAMARAJAPURA,TUMKUR,KARNATAKA,JAYACHAMARAJAPURA 573 126",0,JAYACHAMRAJPUR,TUMKUR,KARNATAKA
"STATE BANK OF MYSORE",SBMY0040313,NA,TALLIKOTE,"TALLIKOTE,BIJAPUR,KARNATAKA,TALIKOTE 586 214",0,TALLIKOTE,BIJAPUR,KARNATAKA
"STATE BANK OF MYSORE",SBMY0040312,NA,ILKAL,"KSRTC BUS STAND ILKAL",0,ILKAL,BAGALKOT,KARNATAKA
"STATE BANK OF MYSORE",SBMY0040311,NA,KADAGATHUR,"KADAGATHUR,TUMKUR,KARNATAKA,KADAGATHUR 572 149",0,KADAGATHUR,TUMKUR,KARNATAKA
"STATE BANK OF MYSORE",SBMY0040310,NA,HOSAKERE,"HOSAKERE,TUMKUR,KARNATAKA,HOSAKERE 572 132",0,HOSAKERE,TUMKUR,KARNATAKA
"STATE BANK OF MYSORE",SBMY0040309,NA,GULUR,"GULUR,TUMKUR,KARNATAKA,GULUR 572 118",0,GULUR,TUMKUR,KARNATAKA
"STATE BANK OF MYSORE",SBMY0040308,NA,HONNALI,"HONNALI,DAVANAGERE,KARNATAKA,HONNALI 577 217",0,HONNALI,DAVANAGARE,KARNATAKA
"STATE BANK OF MYSORE",SBMY0040307,NA,HOSANAGAR,"HOSANAGAR,SHIMOGA,KARNATAKA,HOSANAGAR 577 418",0,HOSANAGAR,SHIMOGA,KARNATAKA
"STATE BANK OF MYSORE",SBMY0040306,NA,HOSADURGA,"HOSADURGA,CHITRADURGA,KARNATAKA,HOSADURGA 577 527",0,HOSADURGA,CHITRADURGA,KARNATAKA
"STATE BANK OF MYSORE",SBMY0040305,NA,HOLALKERE,"HOLALKERE,CHITRADURGA,KARNATAKA,HOLALKERE 577 526",0,HOLALKERE,CHITRADURGA,KARNATAKA
"STATE BANK OF MYSORE",SBMY0040304,NA,"GULUR KOLAR","GULUR,KOLAR,KARNATAKA,GULUR 561 218",0,GULUR,KOLAR,KARNATAKA
"STATE BANK OF MYSORE",SBMY0040303,NA,BATLAHALLI,"BATLAHALLI,KOLAR,KARNATAKA,BATLAHALLI 563 123",0,BATLAHALLI,KOLAR,KARNATAKA
"STATE BANK OF MYSORE",SBMY0040302,NA,HUKKERI,"HUKKERI,BELGAUM,KARNATAKA,HUKKERI 591 309",0,HUKKERI,BELGAUM,KARNATAKA
"STATE BANK OF MYSORE",SBMY0040301,NA,GUNTUR,"5 BY 1 ARUNDALPET IV LANE,AP",0,GUNTUR,GUNTUR,"ANDHRA PRADESH"
"STATE BANK OF MYSORE",SBMY0040300,NA,BIJAPUR,"BIJAPUR,KARNATAKA,BIJAPUR 586 101",0,BIJAPUR,BIJAPUR,KARNATAKA
"STATE BANK OF MYSORE",SBMY0040299,NA,"JAYANAGAR BLOCK","JAYANAGAR 9TH BLOCK,KARNATAKA,BANGALORE 560 041",0,BANGALORE,"BANGALORE URBAN",KARNATAKA
"STATE BANK OF MYSORE",SBMY0040298,NA,GOKHALENAGAR,"390 CHANDRALOK APARTMENT GOKHALENAGAR,MAH",0,PUNE,PUNE,MAHARASHTRA
"STATE BANK OF MYSORE",SBMY0040297,NA,KILPAUK,"KILPAUK,CHENNAI,TAMIL NADU,CHENNAI 600010",0,CHENNAI,CHENNAI,"TAMIL NADU"
"STATE BANK OF MYSORE",SBMY0040296,NA,YELANDUR,"YELANDUR,CHAMARAJNAGAR,KARNATAKA,YELANDUR 571 441",0,YELANDUR,CHAMRAJNAGAR,KARNATAKA
"STATE BANK OF MYSORE",SBMY0040295,NA,HETHUR,"HETHUR,HASSAN,KARNATAKA,HETHUR 573 123",0,HETHUR,HASSAN,KARNATAKA
"STATE BANK OF MYSORE",SBMY0040294,NA,"SUBEDARCHATRAM ROAD","SUBEDARCHATRAM ROAD,KARNATAKA,BANGALORE 560 020",0,BANGLORE,"BANGALORE URBAN",KARNATAKA
"STATE BANK OF MYSORE",SBMY0040293,NA,ABIDS,"4 14978 ABIDS RD  HYDERABAD",0,HYDERABAD,"HYDERABAD URBAN","ANDHRA PRADESH"
"STATE BANK OF MYSORE",SBMY0040292,NA,VISWESWARAPURAM,"VISWESWARAPURAM,KARNATAKA,BANGALORE 560 004",0,BANGALORE,"BANGALORE URBAN",KARNATAKA
"STATE BANK OF MYSORE",SBMY0040291,NA,ERNAKULAM,"38 BY 1119 M G RD ERNAKULAM",0,ERNAKULAM,ERNAKULAM,KERALA
"STATE BANK OF MYSORE",SBMY0040290,NA,SRINGERI,"SRINGERI,CHICKMAGALUR,KARNATAKA,SRINGERI 577 139",0,SRINGERI,CHICKMAGALUR,KARNATAKA
"STATE BANK OF MYSORE",SBMY0040289,NA,JAYANAGAR,"JAYANAGAR,KARNATAKA,MYSORE 570 014",0,MYSORE,MYSORE,KARNATAKA
"STATE BANK OF MYSORE",SBMY0040288,NA,PUNE,"PURNIMA TOWERS NEAR ST GARAGE SHANKARSHET RD,PUNE",0,PUNE,PUNE,MAHARASHTRA
"STATE BANK OF MYSORE",SBMY0040287,NA,KARWAR,"458 CIVIL COURT RD KARWAR,KAR",0,KARWAR,"UTTARA KANNADA",KARNATAKA
"STATE BANK OF MYSORE",SBMY0040286,NA,GANESHGUDI,"GANESHGUDI,UTTAR KANNADA,KARNATAKA,GANESHGUDI 581 365",0,GANESHGUDI,"UTTARA KANNADA",KARNATAKA
"STATE BANK OF MYSORE",SBMY0040285,NA,"KAVAL BYRASANDRA","KAVAL BYRASANDRA,KARNATAKA,BANGALORE 560032",0,BANGALORE,"BANGALORE URBAN",KARNATAKA
"STATE BANK OF MYSORE",SBMY0040284,NA,"SSI PEENYA IND ESTATE","120 100 FT RD INDUSTRIAL ESTATE III PHASE PEENY",0,BANGALORE,"BANGALORE URBAN",KARNATAKA
"STATE BANK OF MYSORE",SBMY0040283,NA,LINGARAJAPURAM,"5 BY 56 HENNUR MAIN RD,BLORE",0,BANGALORE,"BANGALORE URBAN",KARNATAKA
"STATE BANK OF MYSORE",SBMY0040282,NA,"VINAYAKANAGAR EXTN","VINAYAKANAGAR EXTN,TUMKUR,KARNATAKA,TUMKUR 572 101",0,TUMKUR,TUMKUR,KARNATAKA
"STATE BANK OF MYSORE",SBMY0040281,NA,SADALI,"SADALI,SADALI,KOLAR,KARNATAKA,SADALI 562 104",0,SADALI,KOLAR,KARNATAKA
"STATE BANK OF MYSORE",SBMY0040280,NA,"WEST OF CHORD ROAD","WEST OF CHORD ROAD,KARNATAKA,BANGALORE 560 086",0,BANGALORE,"BANGALORE URBAN",KARNATAKA
"STATE BANK OF MYSORE",SBMY0040279,NA,KUKKUWADA,"KUKKUWADA,DAVANAGERE,KARNATAKA,KUKKUWADA 577 525",0,KUKKUWADA,DAVANAGARE,KARNATAKA
"STATE BANK OF MYSORE",SBMY0040278,NA,"CONNAUGHT PLACE","2 K.G.MARG ANTHRIX BHAVAN NEWDELHI",0,"NEW DELHI","NEW DELHI",DELHI
"STATE BANK OF MYSORE",SBMY0040277,NA,"VIDHANA SOUDHA","VIDHANA SOUDHA,KARNATAKA,BANGALORE 560 001",0,BANGALORE,"BANGALORE URBAN",KARNATAKA
"STATE BANK OF MYSORE",SBMY0040276,NA,GANGENAHALLI,"GANGENAHALLI,KARNATAKA,BANGALORE 560 032",0,BANGALORE,"BANGALORE URBAN",KARNATAKA
"STATE BANK OF MYSORE",SBMY0040275,NA,GUDEMARANAHALLI,"GUDEMARANAHALLI,TUMKUR,KARNATAKA,GUDEMARANAHALLI 562 127",0,GUDEMARANHALI,"BANGALORE RURAL",KARNATAKA
"STATE BANK OF MYSORE",SBMY0040274,NA,"BRINDAVAN EXTN","BRINDAVAN EXTN,KARNATAKA,MYSORE 570020",0,MYSORE,MYSORE,KARNATAKA
"STATE BANK OF MYSORE",SBMY0040273,NA,SIDDARTHANAGAR,"SIDDARTHANAGAR,KARNATAKA,MYSORE 570 011",0,MYSORE,MYSORE,KARNATAKA
"STATE BANK OF MYSORE",SBMY0040272,NA,YADAVAGIRI,"YADAVAGIRI,KARNATAKA,MYSORE 570 020",0,MYSORE,MYSORE,KARNATAKA
"STATE BANK OF MYSORE",SBMY0040271,NA,HAGARIBOMMANAHALLI,"HAGARIBOMMANAHALLI,BELLARY,KARNATAKA,HAGARIBOMMANAHALLI 583212",0,HAGRIBOMANHALI,BELLARY,KARNATAKA
"STATE BANK OF MYSORE",SBMY0040270,NA,"RAVINDRANAGAR EXTN","RAVINDRANAGAR EXTN,SHIMOGA,KARNATAKA,SHIMOGA 577 201",0,SHIMOGA,SHIMOGA,KARNATAKA
"STATE BANK OF MYSORE",SBMY0040269,NA,"S M C BRANCH JAYANAGAR","S M C BRANCH,JAYANAGAR,KARNATAKA,BANGALORE 560 011",0,BANGALORE,"BANGALORE URBAN",KARNATAKA
"STATE BANK OF MYSORE",SBMY0040268,NA,BANNUR,"BANNUR,MYSORE,KARNATAKA,BANNUR 571 101",0,BANNUR,MYSORE,KARNATAKA
"STATE BANK OF MYSORE",SBMY0040267,NA,"P U B BRANCH BANGALORE","P U B BRANCH, KARNATAKA,BANGALORE 560 001",0,BANGALORE,"BANGALORE URBAN",KARNATAKA
"STATE BANK OF MYSORE",SBMY0040266,NA,HALEYUR,"HALEYUR,KARNATAKA,HALEYUR 571 672",0,HALEYUR,MYSORE,KARNATAKA
"STATE BANK OF MYSORE",SBMY0040264,NA,NYAMATHI,"NYAMATHI,DAVANAGERE,KARNATAKA,NYAMATHI 577 223",0,NYAMATHI,DAVANAGARE,KARNATAKA
"STATE BANK OF MYSORE",SBMY0040263,NA,SESHADRIPURAM,"SESHADRIPURAM,KARNATAKA,BANGALORE 560 020",0,BANGALORE,"BANGALORE URBAN",KARNATAKA
"STATE BANK OF MYSORE",SBMY0040262,NA,ADIVALA,"ADIVALA,CHITRADURGA,KARNATAKA, 577 511",0,ADIVALA,CHITRADURGA,KARNATAKA
"STATE BANK OF MYSORE",SBMY0040261,NA,"BR PROJECT","BR PROJECT,SHIMOGA,KARNATAKA, 577 115",0,"BR PROJECT",SHIMOGA,KARNATAKA
"STATE BANK OF MYSORE",SBMY0040260,NA,COTTONPET,"COTTONPET,BANGALORE 560 053",0,BANGALORE,"BANGALORE URBAN",KARNATAKA
"STATE BANK OF MYSORE",SBMY0040259,NA,"BENTINCK STREET","1ST FLOOR TOBACCO HOUSE, BR ABOURNE RD KOLKOTTA",0,KOLKOTTA,KOLKATA,"WEST BENGAL"
"STATE BANK OF MYSORE",SBMY0040258,NA,MCC,"MYSORE,KARNATAKA,MYSORE 570 024",0,MYSORE,MYSORE,KARNATAKA
"STATE BANK OF MYSORE",SBMY0040257,NA,"MAHALAKSHMI LAYOUT","MAHALAKSHMI LAYOUT,BANGALORE 560 086",0,BANGALORE,"BANGALORE URBAN",KARNATAKA
"STATE BANK OF MYSORE",SBMY0040256,NA,BAGALKOT,"MELLIGIRI COMPLEX KALADGI RD",0,BAGALKOT,BAGALKOT,KARNATAKA
"STATE BANK OF MYSORE",SBMY0040255,NA,"VISL  BHADRA","BHADRAVATHI,SHIMOGA,KARNATAKA, 577 301",0,BHADRAVATHI,SHIMOGA,KARNATAKA
"STATE BANK OF MYSORE",SBMY0040254,NA,KOTTUR,"KOTTUR,BELLARY,KARNATAKA, 583 134",0,KOTTUR,BELLARY,KARNATAKA
"STATE BANK OF MYSORE",SBMY0040253,NA,"GANDHI NAGAR","BELLARY,KARNATAKA, 583 101",0,BELLARY,BELLARY,KARNATAKA
"STATE BANK OF MYSORE",SBMY0040252,NA,SUDHAMANAGAR,"SUDHAMANAGAR,BANGALORE 560 027",0,BANGALORE,"BANGALORE URBAN",KARNATAKA
"STATE BANK OF MYSORE",SBMY0040251,NA,MAHIM,"6 BY 7 KARMABHUMI MORI RD MAHIM WEST",0,MUMBAI,"GREATER BOMBAY",MAHARASHTRA
"STATE BANK OF MYSORE",SBMY0040250,NA,"ST THOMAS MOUNT","CHENNAI,TAMIL NADU, 600016",0,CHENNAI,CHENNAI,"TAMIL NADU"
"STATE BANK OF MYSORE",SBMY0040249,NA,"J S S COLLEGE","MYSORE,KARNATAKA, 570 004",0,MYSORE,MYSORE,KARNATAKA
"STATE BANK OF MYSORE",SBMY0040248,NA,VONTIKOPPAL,"MYSORE,KARNATAKA, 570 002",0,MYSORE,MYSORE,KARNATAKA
"STATE BANK OF MYSORE",SBMY0040247,NA,BELAGULA,"BELAGULA,MANDYA,KARNATAKA, 571 606",0,BELAGULA,MANDYA,KARNATAKA
"STATE BANK OF MYSORE",SBMY0040246,NA,BANGURNAGAR,"DANDELI,UTTAR KANNADA,KARNATAKA, 581 325",0,DANDELI,"UTTARA KANNADA",KARNATAKA
"STATE BANK OF MYSORE",SBMY0040245,NA,CHEMBUR,"BALA BHAVAN CENTRAL AVENUE RD CHEMBUR MUMBAI",0,MUMBAI,"GREATER BOMBAY",MAHARASHTRA
"STATE BANK OF MYSORE",SBMY0040244,NA,"COX TOWN","COX TOWN,BANGALORE 560 005",0,BANGALORE,"BANGALORE URBAN",KARNATAKA
"STATE BANK OF MYSORE",SBMY0040243,NA,MATUNGA,"NAYAK SHANTINATH BHAVAN DR AMBEDKAR RD MATUNGA",0,MUMBAI,"GREATER BOMBAY",MAHARASHTRA
"STATE BANK OF MYSORE",SBMY0040242,NA,KANAKATTE,"KANAKATTE,HASSAN,KARNATAKA, 573 144",0,KANAKATTE,HASSAN,KARNATAKA
"STATE BANK OF MYSORE",SBMY0040241,NA,PAPERTOWN,"BHADRAVATHI,SHIMOGA,KARNATAKA, 577 302",0,SHIMOGA,SHIMOGA,KARNATAKA
"STATE BANK OF MYSORE",SBMY0040240,NA,HARIGE,"SHIMOGA,KARNATAKA, 577 222",0,SHIMOGA,SHIMOGA,KARNATAKA
"STATE BANK OF MYSORE",SBMY0040239,NA,MADHAVARA,"MADHAVARA,BANGALORE,KARNATAKA, 562123",0,MADHAVARA,"BANGALORE URBAN",KARNATAKA
"STATE BANK OF MYSORE",SBMY0040238,NA,HONNUDIKE,"HONNUDIKE,TUMKUR,KARNATAKA, 572 122",0,HONNUDIKE,TUMKUR,KARNATAKA
"STATE BANK OF MYSORE",SBMY0040237,NA,RABKAVI,"RABKAVI,BAGALKOT,KARNATAKA, 587 314",0,RABKAVI,BAGALKOT,KARNATAKA
"STATE BANK OF MYSORE",SBMY0040236,NA,SANTHOME,"CHENNAI,TAMIL NADU, 600 004",0,CHENNAI,CHENNAI,"TAMIL NADU"
"STATE BANK OF MYSORE",SBMY0040234,NA,SHASTRINAGAR,"CHENNAI,TAMIL NADU 600 020",0,CHENNAI,CHENNAI,"TAMIL NADU"
"STATE BANK OF MYSORE",SBMY0040233,NA,YEDIYUR,"YEDIYUR,TUMKUR,KARNATAKA,572 142",0,YEDIYUR,TUMKUR,KARNATAKA
"STATE BANK OF MYSORE",SBMY0040232,NA,"MANDI MOHALLA","MYSORE,KARNATAKA, 570 021",0,MYSORE,MYSORE,KARNATAKA
"STATE BANK OF MYSORE",SBMY0040231,NA,"VIJAYA NAGAR","VIJAYA NAGAR,BANGALORE 560 040",0,BANGALORE,"BANGALORE URBAN",KARNATAKA
"STATE BANK OF MYSORE",SBMY0040230,NA,"KM DODDI","KM DODDI,MANDYA,KARNATAKA, 571422",0,"KM DODDI",MANDYA,KARNATAKA
"STATE BANK OF MYSORE",SBMY0040229,NA,"RASHBEHARI AVENUE","180 RASH BEHARI AVENUE KOLKATA",0,"NEW DELHI",KOLKATA,"WEST BENGAL"
"STATE BANK OF MYSORE",SBMY0040228,NA,THONDEBHAVI,"THONDEBHAVI,KOLAR,KARNATAKA, 561 213",0,THONDEBHAVI,KOLAR,KARNATAKA
"STATE BANK OF MYSORE",SBMY0040227,NA,SECUNDERABAD,"1 7 265 274 SARAGAN RD,SECBAD",0,SECUNDERABAD,"HYDERABAD URBAN","ANDHRA PRADESH"
"STATE BANK OF MYSORE",SBMY0040226,NA,"WHITES ROAD","41 WHITES RD CHENNAI",0,CHENNAI,CHENNAI,"TAMIL NADU"
"STATE BANK OF MYSORE",SBMY0040225,NA,SULLIA,"SULLIA,DAKSHINA KANNADA,KARNATAKA, 574 239",0,SULLIA,"DAKSHINA KANNADA",KARNATAKA
"STATE BANK OF MYSORE",SBMY0040224,NA,"JOG FALLS","JOGFALLS,SHIMOGA,SHIMOGA,KARNATAKA, 577 435",0,SHIMOGA,SHIMOGA,KARNATAKA
"STATE BANK OF MYSORE",SBMY0040223,NA,NGEF,"NGEF,BANGALORE 560 038",0,BANGALORE,"BANGALORE URBAN",KARNATAKA
"STATE BANK OF MYSORE",SBMY0040222,NA,"COWL BAZAR BELLARY","BELLARY,KARNATAKA, 583 102",0,BELLARY,BELLARY,KARNATAKA
"STATE BANK OF MYSORE",SBMY0040221,NA,"HOLALU  BELLARY","HOLALU,BELLARY,KARNATAKA, 583217",0,HOLALU,BELLARY,KARNATAKA
"STATE BANK OF MYSORE",SBMY0040220,NA,GADAG,"SIDDALINGESWAR COMPLEX STATION RD GADAG,KAR",0,GADAG,GADAK,KARNATAKA
"STATE BANK OF MYSORE",SBMY0040219,NA,YELAHANKA,"YELAHANKA,BANGALORE 560 064",0,BANGALORE,"BANGALORE URBAN",KARNATAKA
"STATE BANK OF MYSORE",SBMY0040218,NA,KHANDEPAR,"103 LAKHSMI KUNJ KHANDEPAR,GOA",0,PONDA,"NORTH GOA",GOA
"STATE BANK OF MYSORE",SBMY0040217,NA,"CBAB COMPLEX","CAUVERY BHAVAN BANGALORE",0,BANGALORE,"BANGALORE URBAN",KARNATAKA
"STATE BANK OF MYSORE",SBMY0040216,NA,KAROLBAGH,"62 BY 2191 GURUDWARA RD KAROL BAGH,N DELHI",0,"NEW DELHI","NEW DELHI",DELHI
"STATE BANK OF MYSORE",SBMY0040215,NA,"KANAKAPURA ROAD","KANAKAPURA ROAD,BANGALORE 560 082",0,BANGALORE,"BANGALORE URBAN",KARNATAKA
"STATE BANK OF MYSORE",SBMY0040213,NA,"H HOSAHALLI","H HOSAHALLI,BELLARY,KARNATAKA,583 120",0,HHOSAHALLI,BELLARY,KARNATAKA
"STATE BANK OF MYSORE",SBMY0040212,NA,AJJAMPURA,"AJJAMPURA,CHICKMAGALUR,KARNATAKA, 577 547",0,AJJAMPURA,CHICKMAGALUR,KARNATAKA
"STATE BANK OF MYSORE",SBMY0040211,NA,NAGARABHAVI,"NAGARABHAVI,BANGALORE 560 056",0,BANGALORE,"BANGALORE URBAN",KARNATAKA
"STATE BANK OF MYSORE",SBMY0040210,NA,SOLAPUR,"KANNA CHOWK,SOLAPUR",0,SOLAPUR,SHOLAPUR,MAHARASHTRA
"STATE BANK OF MYSORE",SBMY0040209,NA,BELGAUM,"779 RAVIVARPET,BELGAUM,KAR",0,BELGAUM,BELGAUM,KARNATAKA
"STATE BANK OF MYSORE",SBMY0040208,NA,TATABAD,"COIMBATORE,COIMBATORE,TAMIL NADU, 641 012",0,COIMBATORE,COIMBOTORE,"TAMIL NADU"
"STATE BANK OF MYSORE",SBMY0040207,NA,GURUPURA,"GURUPURA,MYSORE,KARNATAKA,571 188",0,GURUPURA,MYSORE,KARNATAKA
"STATE BANK OF MYSORE",SBMY0040206,NA,"ADB SANTHEMARAHALLI","SANTHEMARAHALLI,CHAMARAJNAGAR,KARNATAKA, 571 115",0,SANTHEMARHLI,CHAMRAJNAGAR,KARNATAKA
"STATE BANK OF MYSORE",SBMY0040205,NA,"ADB KOLLEGAL","KOLLEGAL,CHAMARAJNAGAR,KARNATAKA, 571 440",0,KOLLEGAL,CHAMRAJNAGAR,KARNATAKA
"STATE BANK OF MYSORE",SBMY0040204,NA,"ADB SANDUR","SANDUR,BELLARY,KARNATAKA, 583 119",0,SANDUR,BELLARY,KARNATAKA
"STATE BANK OF MYSORE",SBMY0040203,NA,ABHIRAMAPURAM,"67 RAMASWAMY RD CHENNAI",0,CHENNAI,CHENNAI,"TAMIL NADU"
"STATE BANK OF MYSORE",SBMY0040202,NA,HUBLI,"USA TOWERS COEN RD HUBLI",0,HUBLI,DHARWAD,KARNATAKA
"STATE BANK OF MYSORE",SBMY0040201,NA,"ADB KORATAGERE","KORATAGERE,TUMKUR,KARNATAKA,572 129",0,KORATAGERE,TUMKUR,KARNATAKA
"STATE BANK OF MYSORE",SBMY0040200,NA,"ADB HASSAN","HASSAN,KARNATAKA,573 201",0,HASSAN,HASSAN,KARNATAKA
"STATE BANK OF MYSORE",SBMY0040199,NA,"TATA SILK FARM","TATA SILK FARM,BANGALORE 560 004",0,BANGALORE,"BANGALORE URBAN",KARNATAKA
"STATE BANK OF MYSORE",SBMY0040198,NA,"ADB HUNSUR","HUNSUR,MYSORE,KARNATAKA, 571 105",0,HUNSUR,MYSORE,KARNATAKA
"STATE BANK OF MYSORE",SBMY0040197,NA,RAJAJINAGAR,"RAJAJINAGAR,BANGALORE 560 010",0,BANGALORE,"BANGALORE URBAN",KARNATAKA
"STATE BANK OF MYSORE",SBMY0040196,NA,MADHAVANAGAR,"CRESCENT TOWERS BANGALORE",0,BANGALORE,"BANGALORE URBAN",KARNATAKA
"STATE BANK OF MYSORE",SBMY0040195,NA,SHANKARAPURAM,"SHANKARAPURAM,BANGALORE 560004",0,BANGALORE,"BANGALORE URBAN",KARNATAKA
"STATE BANK OF MYSORE",SBMY0040194,NA,KALLUR,"KALLUR,TUMKUR,KARNATAKA, 572 220",0,KALLUR,TUMKUR,KARNATAKA
"STATE BANK OF MYSORE",SBMY0040193,NA,JADIGENAHALLI,"JADIGENAHALLI,BANGALORE,KARNATAKA, 562 114",0,JADIGENAHALLI,"BANGALORE RURAL",KARNATAKA
"STATE BANK OF MYSORE",SBMY0040192,NA,BILIGIRE,"BILIGERE,TUMKUR,KARNATAKA, 572 114",0,BILIGERE,TUMKUR,KARNATAKA
"STATE BANK OF MYSORE",SBMY0040191,NA,YESWANTPUR,"YESWANTPUR,BANGALORE 560 022",0,BANGALORE,"BANGALORE URBAN",KARNATAKA
"STATE BANK OF MYSORE",SBMY0040190,NA,"COOKE TOWN","COOKE TOWN,BANGALORE 560 084",0,BANGALORE,"BANGALORE URBAN",KARNATAKA
"STATE BANK OF MYSORE",SBMY0040189,NA,"HALLY MYSORE","HALLY MYSORE,HASSAN,KARNATAKA, 573 210",0,"HALLY MYSORE",HASSAN,KARNATAKA
"STATE BANK OF MYSORE",SBMY0040188,NA,GANDASI,"GANDASI,HASSAN,KARNATAKA, 573 119",0,GANDASI,HASSAN,KARNATAKA
"STATE BANK OF MYSORE",SBMY0040187,NA,SHANTIGRAMA,"SHANTHIGRAMA,HASSAN,KARNATAKA, 573 220",0,SHANTHIGRAMA,HASSAN,KARNATAKA
"STATE BANK OF MYSORE",SBMY0040186,NA,HIRISAVE,"HIRISAVE,HASSAN,KARNATAKA, 573 124",0,HIRISAVE,HASSAN,KARNATAKA
"STATE BANK OF MYSORE",SBMY0040185,NA,BINDIGANAVILE,"BINDIGANAVILE,MANDYA,KARNATAKA,571 802",0,BINDIGANAVILE,MANDYA,KARNATAKA
"STATE BANK OF MYSORE",SBMY0040184,NA,"DONIMALAI T S","DONIMALAI T S,BELLARY,KARNATAKA, 583118",0,DONIMALAITS,BELLARY,KARNATAKA
"STATE BANK OF MYSORE",SBMY0040183,NA,THIMMANAHALLI,"THIMMANAHALLI,TUMKUR,KARNATAKA, 572 228",0,THIMMANAHALLI,TUMKUR,KARNATAKA
"STATE BANK OF MYSORE",SBMY0040182,NA,KAMAGERI,"KAMAGERI,CHAMARAJNAGAR,KARNATAKA, 571 443",0,KAMAGERI,CHAMRAJNAGAR,KARNATAKA
"STATE BANK OF MYSORE",SBMY0040181,NA,VATADAHOSAHALLI,"VATADAHOSAHALLI,KOLAR,KARNATAKA, 561 228",0,VATDAHOSAHALI,KOLAR,KARNATAKA
"STATE BANK OF MYSORE",SBMY0040180,NA,NANGLI,"NANGLI,KOLAR,KARNATAKA, 563132",0,NANGLI,KOLAR,KARNATAKA
"STATE BANK OF MYSORE",SBMY0040179,NA,TALAKAD,"TALAKAD,MYSORE,KARNATAKA, 571 122",0,TALAKAD,MYSORE,KARNATAKA
"STATE BANK OF MYSORE",SBMY0040178,NA,YELDUR,"YELDUR,KOLAR,KARNATAKA, 563 138",0,YELDUR,KOLAR,KARNATAKA
"STATE BANK OF MYSORE",SBMY0040177,NA,AMMASANDRA,"AMMASANDRA,TUMKUR,KARNATAKA, 572 211",0,AMMASANDRA,TUMKUR,KARNATAKA
"STATE BANK OF MYSORE",SBMY0040176,NA,"ADB DAVANAGER","DAVANAGERE,KARNATAKA, 577 002",0,DAVANAGERE,DAVANAGARE,KARNATAKA
"STATE BANK OF MYSORE",SBMY0040175,NA,BADAVANAHALLI,"BADAVANAHALLI,TUMKUR,KARNATAKA, 572 112",0,BADAVANAHALLI,TUMKUR,KARNATAKA
"STATE BANK OF MYSORE",SBMY0040174,NA,CHELUR,"CHELUR,TUMKUR,KARNATAKA, 572 117",0,CHELUR,TUMKUR,KARNATAKA
"STATE BANK OF MYSORE",SBMY0040173,NA,SINGATAGERE,"SINGATAGERE,CHICKMAGALUR,KARNATAKA, 577 138",0,SINGATAGERE,CHICKMAGALUR,KARNATAKA
"STATE BANK OF MYSORE",SBMY0040172,NA,KOTHATHI,"KOTHATHI,MANDYA,KARNATAKA, 571 471",0,KOTHATHI,MANDYA,KARNATAKA
"STATE BANK OF MYSORE",SBMY0040171,NA,KIKKERI,"KIKKERI,MANDYA,KARNATAKA, 571 423",0,KIKKERI,MANDYA,KARNATAKA
"STATE BANK OF MYSORE",SBMY0040170,NA,KUMARAPATNAM,"PUNE BLORE RD,KUMARPATNA",0,KUMARAPATNAM,HAVERI,KARNATAKA
"STATE BANK OF MYSORE",SBMY0040169,NA,"T NAGAR","CHENNAI,TAMIL NADU, 600 017",0,CHENNAI,CHENNAI,"TAMIL NADU"
"STATE BANK OF MYSORE",SBMY0040168,NA,"BEML NAGAR","KOLAR GOLD FIELDS,KOLAR,KARNATAKA, 563 115",0,KGF,KOLAR,KARNATAKA
"STATE BANK OF MYSORE",SBMY0040167,NA,TORANAGALLU,"TORANAGALLU,BELLARY,KARNATAKA, 583 123",0,TORANAGALLU,BELLARY,KARNATAKA
"STATE BANK OF MYSORE",SBMY0040166,NA,MANASAGANGOTRI,"MYSORE,KARNATAKA, 570 006",0,MYSORE,MYSORE,KARNATAKA
"STATE BANK OF MYSORE",SBMY0040164,NA,"V C FARM","V C FARM,MANDYA,KARNATAKA, 571 405",0,"V C FARM",MANDYA,KARNATAKA
"STATE BANK OF MYSORE",SBMY0040163,NA,VAYALIKAVAL,"VAYALIKAVAL,BANGALORE 560 003",0,BANGALORE,"BANGALORE URBAN",KARNATAKA
"STATE BANK OF MYSORE",SBMY0040162,NA,BIRUR,"BIRUR,CHICKMAGALUR,KARNATAKA, 577 116",0,BIRUR,CHICKMAGALUR,KARNATAKA
"STATE BANK OF MYSORE",SBMY0040161,NA,MUNIRABAD,"MUNIRABAD,BELLARY,KARNATAKA, 583 234",0,MUNIRABAD,KOPPAL,KARNATAKA
"STATE BANK OF MYSORE",SBMY0040160,NA,HULIYURDURGA,"HULIYURDURGA,TUMKUR,KARNATAKA, 572 123",0,HULIYURDURGA,TUMKUR,KARNATAKA
"STATE BANK OF MYSORE",SBMY0040159,NA,HANUMANTHANAGAR,"HANUMANTHANAGAR,BANGALORE 560 019",0,BANGALORE,"BANGALORE URBAN",KARNATAKA
"STATE BANK OF MYSORE",SBMY0040158,NA,"N R MOHALLA","N R MOHALLA,MYSORE,KARNATAKA, 570 007",0,MYSORE,MYSORE,KARNATAKA
"STATE BANK OF MYSORE",SBMY0040157,NA,KOCHI,"5 BY 695,NEW RD KOCHI",0,KOCHI,ERNAKULAM,KERALA
"STATE BANK OF MYSORE",SBMY0040156,NA,COIMBATORE,"75 76 OPPANKAR STREET COIMBATORE",0,COIMBATORE,COIMBOTORE,"TAMIL NADU"
"STATE BANK OF MYSORE",SBMY0040155,NA,HOSUR,"149,RAJAJI RD,HOSUR",0,HOSUR,KRISHNAGIRI,"TAMIL NADU"
"STATE BANK OF MYSORE",SBMY0040154,NA,"CHENNAI MAIN","231,NSC BOSE RD,PARRY,S CORNER,CHENNAI",0,CHENNAI,CHENNAI,"TAMIL NADU"
"STATE BANK OF MYSORE",SBMY0040153,NA,SOMWARPET,"SOMWARPET,KODAGU,KARNATAKA, 571 236",0,SOMWARPET,MADIKERI,KARNATAKA
"STATE BANK OF MYSORE",SBMY0040152,NA,PUTTUR,"DAKSHINA KANNADA,KARNATAKA,PUTTUR 574 201",0,PUTTUR,"DAKSHINA KANNADA",KARNATAKA
"STATE BANK OF MYSORE",SBMY0040151,NA,KARKALA,"KARKALA,UDUPI,KARNATAKA, 574 104",0,KARKALA,UDUPI,KARNATAKA
"STATE BANK OF MYSORE",SBMY0040150,NA,KUNDAPURA,"KUNDAPURA,UDUPI,KARNATAKA, 576 201",0,KUNDAPURA,UDUPI,KARNATAKA
"STATE BANK OF MYSORE",SBMY0040149,NA,MANGALORE,"GHS RD MANGALORE",0,MANGALORE,"DAKSHINA KANNADA",KARNATAKA
"STATE BANK OF MYSORE",SBMY0040148,NA,"N R PURA","NARASIMHARAJAPURA,CHICKMAGALUR,KARNATAKA, 577 134",0,NARSIMHRAJPUR,CHICKMAGALUR,KARNATAKA
"STATE BANK OF MYSORE",SBMY0040147,NA,MUDIGERE,"MUDIGERE,CHICKMAGALUR,KARNATAKA, 577 139",0,MUDIGERE,CHICKMAGALUR,KARNATAKA
"STATE BANK OF MYSORE",SBMY0040146,NA,KOPPA,"KOPPA,CHICKMAGALUR,KARNATAKA, 577 126",0,CHICKMAGALUR,CHICKMAGALUR,KARNATAKA
"STATE BANK OF MYSORE",SBMY0040145,NA,TARIKERE,"TARIKERE,CHICKMAGALUR,KARNATAKA, 577 228",0,TARIKERE,CHICKMAGALUR,KARNATAKA
"STATE BANK OF MYSORE",SBMY0040144,NA,KADUR,"KADUR,CHICKMAGALUR,KARNATAKA, 577 548",0,KADUR,CHICKMAGALUR,KARNATAKA
"STATE BANK OF MYSORE",SBMY0040143,NA,CHICKMAGALUR,"CHICKMAGALUR,CHICKMAGALUR,KARNATAKA, 577 101",0,CHICKMAGALUR,CHICKMAGALUR,KARNATAKA
"STATE BANK OF MYSORE",SBMY0040142,NA,THIRTHAHALLI,"THIRTHAHALLY,SHIMOGA,KARNATAKA, 577 432",0,THIRTHAHALLY,SHIMOGA,KARNATAKA
"STATE BANK OF MYSORE",SBMY0040141,NA,SORABA,"SORABA,SHIMOGA,KARNATAKA, 577 429",0,SORABA,SHIMOGA,KARNATAKA
"STATE BANK OF MYSORE",SBMY0040140,NA,MEGARAVALLI,"MEGARAVALLI,SHIMOGA,KARNATAKA, 577 424",0,MEGARAVALLI,SHIMOGA,KARNATAKA
"STATE BANK OF MYSORE",SBMY0040139,NA,CHANNAGIRI,"CHANNAGIRI,DAVANAGERE,KARNATAKA, 577 213",0,CHANNAGIRI,DAVANAGARE,KARNATAKA
"STATE BANK OF MYSORE",SBMY0040138,NA,ANANDAPURAM,"ANANDAPURAM,SHIMOGA,KARNATAKA, 577 412",0,SHIMOGA,SHIMOGA,KARNATAKA
"STATE BANK OF MYSORE",SBMY0040137,NA,SHIKARIPUR,"SHIKARIPUR,SHIMOGA,KARNATAKA, 577 427",0,SHIMOGA,SHIMOGA,KARNATAKA
"STATE BANK OF MYSORE",SBMY0040136,NA,SAGAR,"SAGAR,SHIMOGA,KARNATAKA, 577 401",0,SHIMOGA,SHIMOGA,KARNATAKA
"STATE BANK OF MYSORE",SBMY0040135,NA,"O T AREA BHADRAVATHI","BHADRAVATHI,SHIMOGA,KARNATAKA, 577 301",0,SHIMOGA,SHIMOGA,KARNATAKA
"STATE BANK OF MYSORE",SBMY0040134,NA,BHADRAVATHI,"NEW TOWN RD BHADRAVATHI",0,BHADRAVATHI,SHIMOGA,KARNATAKA
"STATE BANK OF MYSORE",SBMY0040133,NA,"BAZAAR SHIMOGA","SHIMOGA,KARNATAKA, 577 202",0,SHIMOGA,SHIMOGA,KARNATAKA
"STATE BANK OF MYSORE",SBMY0040132,NA,"SHIMOGA MAIN","SHIMOGA,KARNATAKA, 577 201",0,SHIMOGA,SHIMOGA,KARNATAKA
"STATE BANK OF MYSORE",SBMY0040131,NA,SIDDAPUR,"SIDDAPUR,UTTARA KANNADA,KARNATAKA, 581 355",0,SIDDAPUR,"UTTARA KANNADA",KARNATAKA
"STATE BANK OF MYSORE",SBMY0040130,NA,DANDELI,"DANDELI,UTTARA KANNADA,KARNATAKA, 581 325",0,DANDELI,"UTTARA KANNADA",KARNATAKA
"STATE BANK OF MYSORE",SBMY0040129,NA,RAMDURG,"RAMDURG,BELGAUM,KARNATAKA, 591 123",0,RAMDURG,BELGAUM,KARNATAKA
"STATE BANK OF MYSORE",SBMY0040128,NA,HOLEALUR,"HOLEALUR,GADAG,KARNATAKA, 582 203",0,HOLEALUR,GADAK,KARNATAKA
"STATE BANK OF MYSORE",SBMY0040127,NA,HAVERI,"HAVERI,KARNATAKA, 581 110",0,HAVERI,HAVERI,KARNATAKA
"STATE BANK OF MYSORE",SBMY0040126,NA,BYADGI,"BYADGI,HAVERI,KARNATAKA, 581 106",0,BYADGI,HAVERI,KARNATAKA
"STATE BANK OF MYSORE",SBMY0040125,NA,KURUGODU,"KURUGODU,BELLARY,KARNATAKA, 583 116",0,KURUGODU,BELLARY,KARNATAKA
"STATE BANK OF MYSORE",SBMY0040124,NA,SANDUR,"SANDUR,BELLARY,KARNATAKA, 583 119",0,SANDUR,BELLARY,KARNATAKA
"STATE BANK OF MYSORE",SBMY0040123,NA,KUDLIGI,"KUDLIGI,BELLARY,KARNATAKA, 583 135",0,KUDLIGI,BELLARY,KARNATAKA
"STATE BANK OF MYSORE",SBMY0040122,NA,HUVINAHADAGALI,"HUVINAHADAGALI,BELLARY,KARNATAKA, 583219",0,HUVINAHADAGALI,BELLARY,KARNATAKA
"STATE BANK OF MYSORE",SBMY0040121,NA,CHICKJOGIHALLI,"CHICKJOGIHALLI,BELLARY,KARNATAKA, 583 126",0,CHICKJOGIHALLI,BELLARY,KARNATAKA
"STATE BANK OF MYSORE",SBMY0040120,NA,"MAIN BAZAAR HOSPET","HOSPET,BELLARY,KARNATAKA, 583 201",0,HOSPET,BELLARY,KARNATAKA
"STATE BANK OF MYSORE",SBMY0040119,NA,SIRUGUPPA,"KENCHANAGUDDA RD,SIRUGUPPA",0,SIRUGUPPA,BELLARY,KARNATAKA
"STATE BANK OF MYSORE",SBMY0040118,NA,KAMPLI,"KAMPLI,BELLARY,KARNATAKA, 583 132",0,KAMPLI,BELLARY,KARNATAKA
"STATE BANK OF MYSORE",SBMY0040117,NA,HARAPANAHLLY,"HARAPANAHLLY,DAVANAGERE,KARNATAKA, 583131",0,HARAPANAHLLY,DAVANAGARE,KARNATAKA
"STATE BANK OF MYSORE",SBMY0040116,NA,HOSPET,"TALUK OFFICE RD,HOSPET",0,HOSPET,BELLARY,KARNATAKA
"STATE BANK OF MYSORE",SBMY0040115,NA,BELLARY,"BELLARY,KARNATAKA, 583 101",0,BELLARY,BELLARY,KARNATAKA
"STATE BANK OF MYSORE",SBMY0040114,NA,MOLAKALAMURU,"MOLAKALAMURU,CHITRADURGA,KARNATAKA, 577 535",0,MOLAKALAMURU,CHITRADURGA,KARNATAKA
"STATE BANK OF MYSORE",SBMY0040113,NA,JAGALUR,"JAGALUR,CHITRADURGA,KARNATAKA, 577 528",0,JAGALUR,DAVANAGARE,KARNATAKA
"STATE BANK OF MYSORE",SBMY0040112,NA,HIRIYUR,"HIRIYUR,CHITRADURGA,KARNATAKA, 572 143",0,HIRIYUR,CHITRADURGA,KARNATAKA
"STATE BANK OF MYSORE",SBMY0040111,NA,HARIHAR,"HARIHAR,DAVANAGERE,KARNATAKA, 577 601",0,HARIHAR,DAVANAGARE,KARNATAKA
"STATE BANK OF MYSORE",SBMY0040110,NA,CHALLAKERE,"CHALLAKERE,CHITRADURGA,KARNATAKA, 577 522",0,CHITRADURGA,CHITRADURGA,KARNATAKA
"STATE BANK OF MYSORE",SBMY0040109,NA,CHITRADURGA,"CHITRADURGA,KARNATAKA, 571 455",0,CHITRADURGA,CHITRADURGA,KARNATAKA
"STATE BANK OF MYSORE",SBMY0040108,NA,DAVANAGERE,"DAVANAGERE,KARNATAKA, 577 001",0,DAVANAGERE,DAVANAGARE,KARNATAKA
"STATE BANK OF MYSORE",SBMY0040107,NA,SAMPIGE,"SAMPIGE,TUMKUR,KARNATAKA, 572 225",0,SAMPIGE,TUMKUR,KARNATAKA
"STATE BANK OF MYSORE",SBMY0040106,NA,HOLAVANAHALLI,"HOLAVANAHALLI,TUMKUR,KARNATAKA, 572 121",0,HOLAVANAHALLI,TUMKUR,KARNATAKA
"STATE BANK OF MYSORE",SBMY0040105,NA,BANASANDRA,"BANASANDRA,TUMKUR,KARNATAKA, 572 212",0,BANASANDRA,TUMKUR,KARNATAKA
"STATE BANK OF MYSORE",SBMY0040104,NA,TURUVEKERE,"TURUVEKERE,TUMKUR,KARNATAKA, 572 227",0,TURUVEKERE,TUMKUR,KARNATAKA
"STATE BANK OF MYSORE",SBMY0040103,NA,PAVAGADA,"PAVAGADA,TUMKUR,KARNATAKA, 561 202",0,PAVAGADA,TUMKUR,KARNATAKA
"STATE BANK OF MYSORE",SBMY0040102,NA,MAYASANDRA,"MAYASANDRA,TUMKUR,KARNATAKA, 572 221",0,MAYASANDRA,TUMKUR,KARNATAKA
"STATE BANK OF MYSORE",SBMY0040101,NA,KORATAGERE,"KORATAGERE,TUMKUR,KARNATAKA, 572 129",0,KORATAGERE,TUMKUR,KARNATAKA
"STATE BANK OF MYSORE",SBMY0040100,NA,KADABA,"KADABA,TUMKUR,KARNATAKA, 572 219",0,KADABA,TUMKUR,KARNATAKA
"STATE BANK OF MYSORE",SBMY0040099,NA,GUBBI,"GUBBI,TUMKUR,KARNATAKA, 572 216",0,GUBBI,TUMKUR,KARNATAKA
"STATE BANK OF MYSORE",SBMY0040098,NA,BUKKAPATNA,"BUKKAPATNA,TUMKUR,KARNATAKA, 572 115",0,BUKKAPATNA,TUMKUR,KARNATAKA
"STATE BANK OF MYSORE",SBMY0040097,NA,TIPTUR,"TIPTUR,TUMKUR,KARNATAKA, 572 201",0,TIPTUR,TUMKUR,KARNATAKA
"STATE BANK OF MYSORE",SBMY0040096,NA,SIRA,"SIRA,TUMKUR,KARNATAKA, 572 137",0,SIRA,TUMKUR,KARNATAKA
"STATE BANK OF MYSORE",SBMY0040095,NA,MADHUGIRI,"MADHUGIRI,TUMKUR,KARNATAKA, 572 132",0,MADHUGIRI,TUMKUR,KARNATAKA
"STATE BANK OF MYSORE",SBMY0040094,NA,KUNIGAL,"KUNIGAL,TUMKUR,KARNATAKA, 572 130",0,KUNIGAL,TUMKUR,KARNATAKA
"STATE BANK OF MYSORE",SBMY0040093,NA,CHIKKANAYAKANHALLI,"CHICKNAYAKANAHALLI,TUMKUR,KARNATAKA, 57221",0,CHICKNYAKAALLI,TUMKUR,KARNATAKA
"STATE BANK OF MYSORE",SBMY0040092,NA,TUMKUR,"97 1 BANK RD TUMKUR,KAR",0,TUMKUR,TUMKUR,KARNATAKA
"STATE BANK OF MYSORE",SBMY0040091,NA,SRINIVASAPUR,"SRINIVASAPUR,KOLAR,KARNATAKA, 563 135",0,SRINIVASAPUR,KOLAR,KARNATAKA
"STATE BANK OF MYSORE",SBMY0040090,NA,SIDLAGHATTA,"SIDLAGHATTA,KOLAR,KARNATAKA, 562 105",0,SIDLAGHATTA,KOLAR,KARNATAKA
"STATE BANK OF MYSORE",SBMY0040089,NA,KGF,"KGF,KOLAR,KARNATAKA, 563 122",0,KGF,KOLAR,KARNATAKA
"STATE BANK OF MYSORE",SBMY0040088,NA,MALUR,"MALUR,KOLAR,KARNATAKA, 563 130",0,MALUR,KOLAR,KARNATAKA
"STATE BANK OF MYSORE",SBMY0040087,NA,GUDIBANDA,"GUDIBANDA,KOLAR,KARNATAKA, 561 209",0,GUDIBANDA,KOLAR,KARNATAKA
"STATE BANK OF MYSORE",SBMY0040086,NA,GAURIBIDANUR,"GAURIBIDANUR,KOLAR,KARNATAKA, 561 208",0,GAURIBIDANUR,KOLAR,KARNATAKA
"STATE BANK OF MYSORE",SBMY0040085,NA,BAGEPALLI,"BAGEPALLI,KOLAR,KARNATAKA, 561 207",0,BAGEPALLI,KOLAR,KARNATAKA
"STATE BANK OF MYSORE",SBMY0040084,NA,MULBAGAL,"MULBAGAL,KOLAR,KARNATAKA, 563 131",0,KOLAR,KOLAR,KARNATAKA
"STATE BANK OF MYSORE",SBMY0040083,NA,CHINTAMANI,"N R EXTNCHINTAMANI,KOLAR,KARNATAKA, 563 125",0,KOLAR,KOLAR,KARNATAKA
"STATE BANK OF MYSORE",SBMY0040082,NA,CHICKBALLAPUR,"CHICKBALLAPUR,KOLAR,KARNATAKA, 562 101",0,KOLAR,KOLAR,KARNATAKA
"STATE BANK OF MYSORE",SBMY0040081,NA,BANGARPET,"BANGARPET,KOLAR,KARNATAKA, 563 114",0,KOLAR,KOLAR,KARNATAKA
"STATE BANK OF MYSORE",SBMY0040080,NA,KOLAR,"KOLAR,KARNATAKA, 563 101",0,KOLAR,KOLAR,KARNATAKA
"STATE BANK OF MYSORE",SBMY0040079,NA,TERAKANAMBI,"TERAKANAMBI,CHAMARAJANAGAR,KARNATAKA, 571 123",0,TERAKANAMBI,CHAMRAJNAGAR,KARNATAKA
"STATE BANK OF MYSORE",SBMY0040078,NA,RAMAPURA,"RAMAPURA,MYSORE,KARNATAKA, 571 444",0,RAMAPURA,CHAMRAJNAGAR,KARNATAKA
"STATE BANK OF MYSORE",SBMY0040077,NA,TAGADUR,"TAGADUR,MYSORE,KARNATAKA, 571 119",0,"MYSORE DIST",MYSORE,KARNATAKA
"STATE BANK OF MYSORE",SBMY0040076,NA,"T NARSIPUR","T NARSIPUR,MYSORE,KARNATAKA, 571124",0,"T NARSIPUR",MYSORE,KARNATAKA
"STATE BANK OF MYSORE",SBMY0040075,NA,"M M HILLS","M M HILLS,CHAMARAJANAGAR,KARNATAKA, 571 490",0,"M M HILLS",CHAMRAJNAGAR,KARNATAKA
"STATE BANK OF MYSORE",SBMY0040074,NA,SARGUR,"SARGUR,MYSORE,KARNATAKA, 577 401",0,SARGUR,MYSORE,KARNATAKA
"STATE BANK OF MYSORE",SBMY0040073,NA,PERIYAPATNA,"PERIYAPATNA,MYSORE,KARNATAKA, 571 107",0,PERIYAPATNA,MYSORE,KARNATAKA
"STATE BANK OF MYSORE",SBMY0040072,NA,MUGUR,"MUGUR,MYSORE,KARNATAKA, 571 169",0,MUGUR,MYSORE,KARNATAKA
"STATE BANK OF MYSORE",SBMY0040071,NA,MIRLE,"MIRLE,MYSORE,KARNATAKA, 571 603",0,MIRLE,MYSORE,KARNATAKA
"STATE BANK OF MYSORE",SBMY0040070,NA,KUDERU,"KUDERU,BANGALORE,KARNATAKA, 571 316",0,KUDERU,CHAMRAJNAGAR,KARNATAKA
"STATE BANK OF MYSORE",SBMY0040069,NA,KRISHNARAJANAGAR,"K R NAGAR,MYSORE,KARNATAKA, 571 602",0,"MYSORE DIST",MYSORE,KARNATAKA
"STATE BANK OF MYSORE",SBMY0040068,NA,HEGGADADEVANKOTE,"MYSORE,KARNATAKA,HEGGADADEVANAKOTE 571114",0,"MYSORE DIST",MYSORE,KARNATAKA
"STATE BANK OF MYSORE",SBMY0040067,NA,SALIGRAMA,"SALIGRAMA,MYSORE,KARNATAKA, 571 604",0,SALIGRAMA,MYSORE,KARNATAKA
"STATE BANK OF MYSORE",SBMY0040066,NA,NANJANGUD,"NANJANGUD,MYSORE,KARNATAKA, 571 301",0,NANJANGUD,MYSORE,KARNATAKA
"STATE BANK OF MYSORE",SBMY0040065,NA,KOLLEGAL,"KOLLEGAL,CHAMARAJANAGAR,KARNATAKA, 571 440",0,KOLLEGAL,CHAMRAJNAGAR,KARNATAKA
"STATE BANK OF MYSORE",SBMY0040064,NA,HUNSUR,"HUNSUR,MYSORE,KARNATAKA, 571 105",0,HUNSUR,MYSORE,KARNATAKA
"STATE BANK OF MYSORE",SBMY0040063,NA,GUNDLUPET,"GUNDLUPET,CHAMARAJANAGAR,KARNATAKA, 571 111",0,GUNDLUPET,CHAMRAJNAGAR,KARNATAKA
"STATE BANK OF MYSORE",SBMY0040062,NA,CHAMARAJANAGAR,"CHAMARAJANAGAR,CHAMARAJANAGAR,KARNATAKA, 571 313",0,CHAMRAJANAGAR,CHAMRAJNAGAR,KARNATAKA
"STATE BANK OF MYSORE",SBMY0040061,NA,VIDYARANYAPURAM,"VIDYARANYAPURAM,MYSORE,KARNATAKA, 570 008",0,MYSORE,MYSORE,KARNATAKA
"STATE BANK OF MYSORE",SBMY0040060,NA,"VANI VILASA MARKET","VANI VILASA MARKET,MYSORE,KARNATAKA, 570 004",0,MYSORE,MYSORE,KARNATAKA
"STATE BANK OF MYSORE",SBMY0040059,NA,"UNIVERSITY CAMPUS","UNIVERSITY CAMPUS,MYSORE,KARNATAKA, 570 005",0,MYSORE,MYSORE,KARNATAKA
"STATE BANK OF MYSORE",SBMY0040058,NA,"MARKET MYSORE","MARKET MYSORE,MYSORE,KARNATAKA, 570 001",0,MYSORE,MYSORE,KARNATAKA
"STATE BANK OF MYSORE",SBMY0040057,NA,"NEW SANTHEPET","NEW SANTHEPET,MYSORE,KARNATAKA, 570 021",0,MYSORE,MYSORE,KARNATAKA
"STATE BANK OF MYSORE",SBMY0040056,NA,"K M PURAM","K M PURAM,MYSORE,KARNATAKA, 570 004",0,MYSORE,MYSORE,KARNATAKA
"STATE BANK OF MYSORE",SBMY0040055,NA,CFTRI,"CFTRI,MYSORE,KARNATAKA, 570 013",0,MYSORE,MYSORE,KARNATAKA
"STATE BANK OF MYSORE",SBMY0040054,NA,MYSORE,"61,ASHOKA RD,MYSORE",0,MYSORE,MYSORE,KARNATAKA
"STATE BANK OF MYSORE",SBMY0040053,NA,KONANUR,"KONANUR,HASSAN,KARNATAKA, 573 130",0,KONANUR,HASSAN,KARNATAKA
"STATE BANK OF MYSORE",SBMY0040052,NA,CHANNARAYAPATNA,"CHANNARAYAPATNA,HASSAN,KARNATAKA, 573 116",0,CHANARAYAPATNA,HASSAN,KARNATAKA
"STATE BANK OF MYSORE",SBMY0040051,NA,BELUR,"BELUR,HASSAN,KARNATAKA, 573115",0,BELUR,HASSAN,KARNATAKA
"STATE BANK OF MYSORE",SBMY0040050,NA,ARAKKALGUD,"ARKALGUD,HASSAN,KARNATAKA, 573 102",0,ARKALGUD,HASSAN,KARNATAKA
"STATE BANK OF MYSORE",SBMY0040049,NA,ALUR,"ALUR,HASSAN,KARNATAKA, 573 213",0,ALUR,HASSAN,KARNATAKA
"STATE BANK OF MYSORE",SBMY0040048,NA,SAKALESHPUR,"SAKLESHPUR,HASSAN,KARNATAKA, 573 134",0,SAKLESHPUR,HASSAN,KARNATAKA
"STATE BANK OF MYSORE",SBMY0040047,NA,HOLENARASIPURA,"HOLENARASIPUR,HASSAN,KARNATAKA, 573 211",0,"HASSAN DIST",HASSAN,KARNATAKA
"STATE BANK OF MYSORE",SBMY0040046,NA,ARSIKERE,"ARSIKERE,HASSAN,KARNATAKA, 573 103",0,ARSIKERE,HASSAN,KARNATAKA
"STATE BANK OF MYSORE",SBMY0040045,NA,HASSAN,"HASSAN,KARNATAKA, 573 201",0,HASSAN,HASSAN,KARNATAKA
"STATE BANK OF MYSORE",SBMY0040044,NA,PANDAVAPURA,"PANDAVAPURA,MANDYA,KARNATAKA, 571 434",0,PANDAVAPURA,MANDYA,KARNATAKA
"STATE BANK OF MYSORE",SBMY0040043,NA,NAGAMANGALA,"MSORE BLORE RD,NAGAMLA",0,NAGAMANGALA,MANDYA,KARNATAKA
"STATE BANK OF MYSORE",SBMY0040042,NA,MELKOTE,"MELKOTE,MANDYA,KARNATAKA, 571 431",0,MELKOTE,MANDYA,KARNATAKA
"STATE BANK OF MYSORE",SBMY0040041,NA,MADDUR,"MADDUR,MANDYA,KARNATAKA, 571 428",0,MADDUR,MANDYA,KARNATAKA
"STATE BANK OF MYSORE",SBMY0040040,NA,KYATHANAHALLI,"KYATHANAHALLI,MANDYA,KARNATAKA, 571 427",0,KYATHANAHALLI,MANDYA,KARNATAKA
"STATE BANK OF MYSORE",SBMY0040039,NA,"K R PET","KRISHNARAJAPET,MANDYA,KARNATAKA, 571 426",0,KRISHNARAJAPET,MANDYA,KARNATAKA
"STATE BANK OF MYSORE",SBMY0040038,NA,BELAKAVADI,"BELAKAVADI,MANDYA,KARNATAKA, 571 417",0,BELAKAVADI,MANDYA,KARNATAKA
"STATE BANK OF MYSORE",SBMY0040037,NA,SRIRANGAPATNA,"SRIRANGAPATNA,MANDYA,KARNATAKA, 571 438",0,SRIRANGAPATNA,MANDYA,KARNATAKA
"STATE BANK OF MYSORE",SBMY0040036,NA,MALAVALLI,"MALAVALLI,MANDYA,KARNATAKA, 571 430",0,MALAVALLI,MANDYA,KARNATAKA
"STATE BANK OF MYSORE",SBMY0040035,NA,MANDYA,"MANDYA,KARNATAKA, 571 401",0,MANDYA,MANDYA,KARNATAKA
"STATE BANK OF MYSORE",SBMY0040034,NA,KUDUR,"KUDUR,BANGALORE,KARNATAKA, 561 101",0,KUDUR,"BANGALORE RURAL",KARNATAKA
"STATE BANK OF MYSORE",SBMY0040033,NA,HOSAKOTE,"HOSAKOTE,BANGALORE,KARNATAKA, 562 114",0,HOSAKOTE,"BANGALORE RURAL",KARNATAKA
"STATE BANK OF MYSORE",SBMY0040032,NA,DEVANAHALLI,"DEVANAHALLI,BANGALORE,KARNATAKA, 562 110",0,DEVANAHALLI,"BANGALORE RURAL",KARNATAKA
"STATE BANK OF MYSORE",SBMY0040031,NA,RAMANAGARAM,"RAMANAGARAM,BANGALORE,KARNATAKA, 571 511",0,RAMANAGARAM,"BANGALORE RURAL",KARNATAKA
"STATE BANK OF MYSORE",SBMY0040030,NA,MAGADI,"MAGADI,BANGALORE,KARNATAKA, 562 120",0,MAGADI,"BANGALORE RURAL",KARNATAKA
"STATE BANK OF MYSORE",SBMY0040029,NA,KANAKAPURA,"KANAKAPURA,BANGALORE,KARNATAKA, 562 117",0,KANAKAPURA,"BANGALORE RURAL",KARNATAKA
"STATE BANK OF MYSORE",SBMY0040028,NA,"HMT INDL ESTATE","HMT INDL ESTATE,BANGALORE 560 031",0,BANGALORE,"BANGALORE URBAN",KARNATAKA
"STATE BANK OF MYSORE",SBMY0040027,NA,ANEKAL,"ANEKAL,BANGALORE,KARNATAKA, 562 106",0,"BANGALORE DIST","BANGALORE URBAN",KARNATAKA
"STATE BANK OF MYSORE",SBMY0040026,NA,DODDABALLAPUR,"DODDABALLAPUR,BANGALORE,KARNATAKA 561 203",0,DODDABALLAPUR,"BANGALORE RURAL",KARNATAKA
"STATE BANK OF MYSORE",SBMY0040025,NA,CHANNAPATNA,"CHANNAPATNA,BANGALORE,KARNATAKA 571 501",0,CHANNAPATNA,"BANGALORE RURAL",KARNATAKA
"STATE BANK OF MYSORE",SBMY0040024,NA,"WILSON GARDENS BRANCH","WILSON GARDENS BRANCH,BANGALORE 560 027",0,BANGALORE,"BANGALORE URBAN",KARNATAKA
"STATE BANK OF MYSORE",SBMY0040023,NA,WHITEFIELD,"WHITEFIELD,BANGALORE 560 066",0,BANGALORE,"BANGALORE URBAN",KARNATAKA
"STATE BANK OF MYSORE",SBMY0040022,NA,"DR AMBEDKAR VEEDHI","VISVESWARAYA TOWER BANGALORE",0,BANGALORE,"BANGALORE URBAN",KARNATAKA
"STATE BANK OF MYSORE",SBMY0040021,NA,"RICHMOND ROADBRANCH","RICHMOND ROADBRANCH,BANGALORE 560027",0,BANGLORE,"BANGALORE URBAN",KARNATAKA
"STATE BANK OF MYSORE",SBMY0040020,NA,"FOREIGN DEPARTMENT","SBI LHO BUILDING 6TH FLOOR PLOT NO C BY 6 G BLOCK BANDRA KURLA COMPLEX BANDRA EAST MUMBAI",0,MUMBAI,"GREATER BOMBAY",MAHARASHTRA
"STATE BANK OF MYSORE",SBMY0040019,NA,CITY,"CITY,BANGALORE 560 053",0,BANGALORE,"BANGALORE URBAN",KARNATAKA
"STATE BANK OF MYSORE",SBMY0040018,NA,FORT,"FORT,BANGALORE 560 002",0,BANGALORE,"BANGALORE URBAN",KARNATAKA
"STATE BANK OF MYSORE",SBMY0040017,NA,MALLESWARAM,"2ND CROSS,MALLESWARAM,BLORE",0,BANGALORE,"BANGALORE URBAN",KARNATAKA
"STATE BANK OF MYSORE",SBMY0040016,NA,"L C RD","2 L C RD BANGALORE",0,BANGALORE,"BANGALORE URBAN",KARNATAKA
"STATE BANK OF MYSORE",SBMY0040015,NA,"B  R  MARKET","B  R  MARKET,BANGALORE 560 002",0,BANGALORE,"BANGALORE URBAN",KARNATAKA
"STATE BANK OF MYSORE",SBMY0040014,NA,BASAVANAGUDI,"73 K R RD BANGALORE",0,BANGALORE,"BANGALORE URBAN",KARNATAKA
"STATE BANK OF MYSORE",SBMY0040013,NA,"J C ROAD","J C ROAD,BANGALORE 560 002",0,BANGALORE,"BANGALORE URBAN",KARNATAKA
"STATE BANK OF MYSORE",SBMY0040012,NA,JAYANAGAR,"3RD BLOCK JAYANAGAR,BLORE",0,BANGALORE,"BANGALORE URBAN",KARNATAKA
"STATE BANK OF MYSORE",SBMY0040011,NA,"CLEVELAND TOWN","CLEVELAND TOWN,BANGALORE 560005",0,BANGALORE,"BANGALORE URBAN",KARNATAKA
"STATE BANK OF MYSORE",SBMY0040010,NA,CHICKPET,"CHICKPET,BANGALORE 560 053",0,BANGALORE,"BANGALORE URBAN",KARNATAKA
"STATE BANK OF MYSORE",SBMY0040009,NA,CHAMARAJPET,"CHAMARAJANAGAR 571 313",0,BANGALORE,"BANGALORE URBAN",KARNATAKA
"STATE BANK OF MYSORE",SBMY0040008,NA,BANASHANKARI,"JAYANAGAR BANGALORE 560 082",0,BANGALORE,"BANGALORE URBAN",KARNATAKA
"STATE BANK OF MYSORE",SBMY0040007,NA,BANGALORE,"AVENUE RD BANGALORE",0,BANGALORE,"BANGALORE URBAN",KARNATAKA
"STATE BANK OF MYSORE",SBMY0040006,NA,"M G RD","SHRUNGAR SHOPPING CENTRE M G RD BANGALORE",0,BANGALORE,"BANGALORE URBAN",KARNATAKA
"STATE BANK OF MYSORE",SBMY0040005,NA,HINDUPUR,"16 2 3 GANDHI CHOWK MAIN BZR,AP",0,HINDUPUR,ANANTPUR,"ANDHRA PRADESH"
"STATE BANK OF MYSORE",SBMY0040004,NA,KUPPAM,"KUPPAM,CHITTOOR,ANDHRA PRADESH, 517 425",0,KUPPAM,CHITTOR,"ANDHRA PRADESH"
"STATE BANK OF MYSORE",SBMY0040003,NA,PUNGANURU,"CAR STREET,PUNGANURU,CHITTOOR,ANDHRA PRADESH, 517 247",0,PUNGANURU,CHITTOR,"ANDHRA PRADESH"
"STATE BANK OF MYSORE",SBMY0040002,NA,MADANAPALLE,"MADANAPALLE,CHITTOOR,ANDHRA PRADESH, 517 325",0,MADANAPALLE,CHITTOR,"ANDHRA PRADESH"
"STATE BANK OF MYSORE",SBMY0040001,NA,"MUMBAI MAIN","MITTAL COURT C WING 224 NARIMAN POINT MUMBAI",0,MUMBAI,"GREATER BOMBAY",MAHARASHTRA
