BANK,IFSC,MICR,BRANCH,ADDRESS,CONTACT,CITY,DISTRICT,STATE
"TJSB SAHAKARI BANK LTD",TJSB0000112,395109003,"RTM SURAT","SHOP NO.4,SHRI RAGHUNANDAN TEXTILE MARKET,RING ROAD,SURAT,GUJRAT 395002",0,SURAT,SURAT,GUJARAT
"TJSB SAHAKARI BANK LTD",TJSB0000111,360109002,RAJKOT,"SHOP NO.4,5,6,BUSINESS BAY,ROYAL PARK,STREET NO.6,KALAWAD ROAD,RAJKOT,GUJARAT 360001",0,RAJKOT,RAJKOT,GUJARAT
"TJSB SAHAKARI BANK LTD",TJSB0000109,580109002,HUBLI,"GROUND FLOOR,TIRUMALA TRADE CENTRE,NEELIGIN ROAD,TRAFFIC ISLAND,HUBLI 580029",0,"HUBLI DHARWAD",DHARWAD,KARNATAKA
"TJSB SAHAKARI BANK LTD",TJSB0000108,400109045,"ULHASNAGAR 3","GROUND FLOOR,ANAND MAHAL,BLOCK NO.C 32 119,ULHASNAGAR 3,DISTTHANE 421003",2712286,ULHASNAGAR,THANE,MAHARASHTRA
"TJSB SAHAKARI BANK LTD",TJSB0000107,403109005,PANAJI,"001,GROUND FLOOR,NOVA GOA BUILDING,DR.ATMARAM BORKAR ROAD,PANAJI,GOA 403001",2426822,PANAJI,"NORTH GOA",GOA
"TJSB SAHAKARI BANK LTD",TJSB0000106,400109044,"MULUND EAST","SHOP NO.1 4,SAI AMBIKA,OPP.L T ROAD EXTENSION,HANUMAN CHOWK,MULUND EAST,MUMBAI 400081",21636167,MUMBAI,"GREATER BOMBAY",MAHARASHTRA
"TJSB SAHAKARI BANK LTD",TJSB0000105,400109043,SHAHAPUR,"SHOP NO.4 AND 5,LAXMI COMPLEX,GANGA ROAD,SHAHAPUR,DIST THANE,PIN 421601",0,SHAHAPUR,THANE,MAHARASHTRA
"TJSB SAHAKARI BANK LTD",TJSB0000104,400109042,"DOMBIVLI WEST","F BY 1,JAI SHRUTI APTS,M.G.ROAD,NEAR SBI,DOMBIVLI WEST,DIST THANE,PIN 421202",2480840,DOMBIVLI,THANE,MAHARASHTRA
"TJSB SAHAKARI BANK LTD",TJSB0000103,400109041,"LOUISWADI BRANCH","SHOP NO.2,3,4 & 5, RATNA UMED RESIDENCY, PIPELINE ROAD, LOUISWADI, THANE(WEST)-400604",25825616,THANE,THANE,MAHARASHTRA
"TJSB SAHAKARI BANK LTD",TJSB0000101,560109002,"BENGALURU BRANCH","ALOKA MANSION  NO.19, 3RD BLOCK, 10th B MAIN ROAD, JAYANAGAR, BENGLURU-560011",22450017,BANGALORE,"BANGALORE URBAN",KARNATAKA
"TJSB SAHAKARI BANK LTD",TJSB0000100,380109002,"AHEMDABAD BRANCH","SHOP NO.4 & 5, GROUND FLOOR, OPP. BANK OF BARODA, NEAR CENTRAL MALL, AHEMDABAD-380015",26467120,AHMEDABAD,AHMADABAD,GUJARAT
"TJSB SAHAKARI BANK LTD",TJSB0000099,390109002,"VADODARA BRANCH","GROUND FLOOR, RIYA PLEX, 80 URMI SOCIETY, BPC ROAD, VADODARA-390007",2353502,VADODARA,VADODARA,GUJARAT
"TJSB SAHAKARI BANK LTD",TJSB0000098,395109002,"SURAT BRANCH","G-1/A, ITC BUILDING, MAJURA GATE CROSSING, RING ROAD, SURAT-395002",2460172,SURAT,SURAT,GUJARAT
"TJSB SAHAKARI BANK LTD",TJSB0000097,413109002,"SOLAPUR BRANCH","165, GROUND FLOOR, GANESH CHAMBERS, RAILWAY LINES, SAT RASTA, SOLAPUR-413001",2315631,SOLAPUR,SOLAPUR,MAHARASHTRA
"TJSB SAHAKARI BANK LTD",TJSB0000096,444109002,"AKOLA BRANCH","NAZUL PLOT NO.9, STREET NO.66, LRT COLLEGE ROAD,RATANLAL PLOT, AKOLA, PIN-444001",2450736,AKOLA,AKOLA,MAHARASHTRA
"TJSB SAHAKARI BANK LTD",TJSB0000095,402109052,"PEN BRANCH","SHOP NO.31,32,3 & 06, GROUND FLOOR, RAIGAD BAZAR BUILDING, DHARAMTAR ROAD, DIST.RAIGAD, PEN-402107",254043,PEN,RAIGAD,MAHARASHTRA
"TJSB SAHAKARI BANK LTD",TJSB0000094,422109007,"MAHATMANAGAR-NASHIK BRANCH","SHOP NO.1, GAYATRI APT., NEAR ABB CIRCLE, OPP..KESRI TOURS & TRAVELS, MAHATMA NAGAR, NASHIK-422007.",2363833,NASHIK,NASIK,MAHARASHTRA
"TJSB SAHAKARI BANK LTD",TJSB0000093,403109003,"MADGAON BRANCH","SHOP NO.7 & 8 PACHECO'S LOTUS CITY CENTRE, BEHIND POLICE STATION, COMBA, MARGAON, GOA-403601",2710179,MARGAO,"SOUTH GOA",GOA
"TJSB SAHAKARI BANK LTD",TJSB0000092,403109004,"PONDA BRANCH","SHOP. NO.29,30,31,32,33,34 & 35 , RAJ KRISHNA TOWER, SHANTI NAGAR, PONDA , GOA-403401.",2311288,PONDA,"NORTH GOA",GOA
"TJSB SAHAKARI BANK LTD",TJSB0000091,400109040,"KUDUS BRANCH","SHOP NO.SF4, SF5, SF8 & SF9, 1ST FLR, UTSAV COMM. COMPLEX, AT KUDUS NAKA, OPP. TALATHI OFFICE, TAL WADA, THANE.",220222,KUDUS,THANE,MAHARASHTRA
"TJSB SAHAKARI BANK LTD",TJSB0000090,401109001,"BOISAR BRANCH","HARMONY PLAZA, SHOP NO.58, 156 TO 158, BOISAR TARAPUR ROAD, BOISAR TARAPUR ROAD, BOISAR-401501",266038,BOISAR,THANE,MAHARASHTRA
"TJSB SAHAKARI BANK LTD",TJSB0000089,400109039,"CHANDIVALI BRANCH","SINHGAD INSTITUTE BUILDING, MHADA COLONY, CHANDIVALI GAON, MUMBAI-400072",88577115,MUMBAI,"GREATER BOMBAY",MAHARASHTRA
"TJSB SAHAKARI BANK LTD",TJSB0000088,400109038,"KHADAKPADA-KALYAN BRANCH","SHOP NO.17 TO 21,SHREE SWAMI PRASAD, BUILDING NO.33,SHELAR PARK,KHADAKPADA CHOWK<KALYAN(W), PIN-421301",2232600,KALYAN,THANE,MAHARASHTRA
"TJSB SAHAKARI BANK LTD",TJSB0000087,416109151,"SANGLI BRANCH","SHOP NO.1,2,3,4 SIDDHIVINAYAK MANDMARK, PUSHPARAJ CHOWK, MIRAJ ROAD, SANGLI-416416",2321323,SANGLI-MIRAJ-KUPWAD,SANGLI,MAHARASHTRA
"TJSB SAHAKARI BANK LTD",TJSB0000086,431109052,"JALNA BRANCH","GALA NO.34 B, NEW MONDHA, BUS STAND ROAD, JALNA-421203",243022,JALNA,JALNA,MAHARASHTRA
"TJSB SAHAKARI BANK LTD",TJSB0000085,415109201,"CHIPLUN BRANCH","SHOP NO.3,4,5,6 SHREE SAI KESHAVRAJ PLAZA, GROUND FLOOR, OPP. SANE GURUJI UDYAN, CHIPLUN KARAD ROAD, CHIPLUN-415605",250811,CHIPLUN,RATNAGIRI,MAHARASHTRA
"TJSB SAHAKARI BANK LTD",TJSB0000084,411109025,"DHANKAWADI BRANCH","ELLORA PALACE 1, BALAJI NAGAR, PUNE SATARA ROAD, DHANKAWADI, PUNE-411043",24370064,DHANKAWADI,PUNE,MAHARASHTRA
"TJSB SAHAKARI BANK LTD",TJSB0000083,400109037,"RABALE BRANCH","P-81, RABALE MIDC, THANE BELAPUR ROAD, RABALE, NAVI MUMBAI-400701",27605578,"NEW BOMBAY",THANE,MAHARASHTRA
"TJSB SAHAKARI BANK LTD",TJSB0000082,440109002,"NAGPUR BRANCH","SHREE RADHE,MAIN(WARDHA ROAD), RAMDAS PETH, ADJACENT TO SHREEE VARDHAN COMPLEX, NAGPUR-440100",2456022,NAGPUR,NAGPUR,MAHARASHTRA
"TJSB SAHAKARI BANK LTD",TJSB0000081,411109024,"SINHGAD ROAD BRANCH","PLOT NO.17A, SHRI SADGURU GRUH RACHANA MARYADIT, SURVEY NO.16/5/1, SINHGAD ROAD, HINGANE KHURD, PUNE-411051",24351655,"HINGNE KHURD",PUNE,MAHARASHTRA
"TJSB SAHAKARI BANK LTD",TJSB0000080,416109002,"KOLHAPUR BRANCH","GROUND FLOOR, JADUBAN PLAZA,SHAHAPURI, KOLHAPUR CITY, KOLHAPUR, PIN-416001",2531219,KOLHAPUR,KOLHAPUR,MAHARASHTRA
"TJSB SAHAKARI BANK LTD",TJSB0000079,413109052,"LATUR BRANCH","MITKARI NIWAS, NANDI STOP, AUSA ROAD, LATUR, PIN-413531",255611,AUSA,LATUR,MAHARASHTRA
"TJSB SAHAKARI BANK LTD",TJSB0000078,400109036,"DADAR BRANCH","4, SAPANA BLDG. GROUND FLOOR, NEAR PORTUGEEZ CHURCH,DADAR (WEST),MUMBAI-400028",24383136,MUMBAI,"GREATER BOMBAY",MAHARASHTRA
"TJSB SAHAKARI BANK LTD",TJSB0000077,431109002,"AURANGABAD BRANCH","SHOP 5/5/28,SAI SQUARE,NEAR USMANPURA BUS STOP,STATION ROAD, KRANTI CHOWK, AURANGABAD-431 005",2344347,AURANGABAD,AURANGABAD,MAHARASHTRA
"TJSB SAHAKARI BANK LTD",TJSB0000076,590109002,"BELGAUM BRANCH","GR.FLOOR, ANANDI SHANKAR HERITAGE, KALI AMBARI, COLLEGE ROAD, BELGAUM, KARNATAKA,PIN-590001",2464145,BELGAUM,BELGAUM,KARNATAKA
"TJSB SAHAKARI BANK LTD",TJSB0000075,400109035,"KASARWADAVALI BRANCH","SHOP NO.1, PARSHWANATH GALAXY, GHODBUNDER ROAD, KASAEWADAVALI,THANE, PIN-400607",25977940,THANE,THANE,MAHARASHTRA
"TJSB SAHAKARI BANK LTD",TJSB0000074,403109002,"MAPUSA BRANCH","SHOP NO.S1 & C1, BLOCK ""A"", CHANDRANATH APTS. CHS LTD.OPP. POLICE STN, MAPUSA, BARDEZ, GOA-403507",2250520,MAPUSA,"NORTH GOA",GOA
"TJSB SAHAKARI BANK LTD",TJSB0000073,400109034,"PATLIPADA BRANCH","E/4, RUTU TOWERS, OPP. COMMISSIONER BUNGLOW, PATLIPADA, GHODBUNDER ROAD, THANE(W), PIN: 400607",25861497,THANE,THANE,MAHARASHTRA
"TJSB SAHAKARI BANK LTD",TJSB0000072,400109033,"VASHI SECTOR 12 BRANCH","SHOP NO.8, MAHAVIR RATAN, SECTOR NO.12, VASHI, NAVI MUMBAI-400703",27889021,"NEW BOMBAY",THANE,MAHARASHTRA
"TJSB SAHAKARI BANK LTD",TJSB0000071,400109032,"ANDHERI(EAST) BRANCH","AJAY MITTAL INDUSTRIAL PREMISES CO.OP. SOC. LTD, C T S NO. 1637, VILLAGE MAROL,ANDHERI-KURLA ROAD ANDHERI(E), MUMBAI-400059",28590136,MUMBAI,"GREATER BOMBAY",MAHARASHTRA
"TJSB SAHAKARI BANK LTD",TJSB0000070,422109006,"RAVIVAR KARANJA BRANCH","YEOLA HOUSE,RAVIVAR KARANJA NASHIK 422001.",2310521,NASHIK,NASIK,MAHARASHTRA
"TJSB SAHAKARI BANK LTD",TJSB0000059,400109031,"BADLAPUR BRANCH","SAVITA NIWAS, BAZAR PETH ROAD, KULGAON, BADLAPUR(W), THANE-421503",2672121,KALYAN,THANE,MAHARASHTRA
"TJSB SAHAKARI BANK LTD",TJSB0000058,400109030,"KALYAN BRANCH","SHREYA PALACE, SHOP NO.4 TO 7, SANTOSHI MATA MANDIR ROAD, KALYAN(W), PIN-421301",2204345,KALYAN,THANE,MAHARASHTRA
"TJSB SAHAKARI BANK LTD",TJSB0000057,411109023,"KOTHRUD BRANCH","B-JUNCTION, BEHIND KARVE STATUE, KOTHRUD PUNE- 411039",25397020,PUNE,PUNE,MAHARASHTRA
"TJSB SAHAKARI BANK LTD",TJSB0000056,411109022,"WANAWADI BRANCH","SHOP NO.9, S.NO.11, A-WING, KENT EXCLUSIVE, SHIVAKAR ROAD, WANAWADI, PUNE-411 040",26861262,HADAPSAR,PUNE,MAHARASHTRA
"TJSB SAHAKARI BANK LTD",TJSB0000055,415109002,"SATARA BRANCH","1&2, LAHOTI COMPLEX, KARANJE, RADHIKA ROAD, SATARA-415001",230153,SATARA,SATARA,MAHARASHTRA
"TJSB SAHAKARI BANK LTD",TJSB0000054,400109029,"MIRA ROAD BRANCH","OSTWAL ORBIT, VILLAGE NAVGHAR,MIRA-BHAYANDER ROAD,MIRA ROAD (EAST)-401 107",28105663,MIRA-BHAYANDAR,THANE,MAHARASHTRA
"TJSB SAHAKARI BANK LTD",TJSB0000053,400109028,"BHANDUP BRANCH","SHOP NO.1,2 & B3, SHAKTI SHOPPING ARCHADE CHS, LBS MARG, BHANDUP(W), MUMBAI-400078",25965513,MUMBAI,"GREATER BOMBAY",MAHARASHTRA
"TJSB SAHAKARI BANK LTD",TJSB0000052,400109027,"AMBARNATH BRANCH","SIVSADAN, HOUSE NO.681, WARD NO.6, C T S NO.4940,4943, VILLAGE AMBARNATH, SHIVAJI CHOWK, DIST: THANE",2604259,THANE,THANE,MAHARASHTRA
"TJSB SAHAKARI BANK LTD",TJSB0000051,400109026,"CHARKOP BRANCH","SHOP NO.1 TO 6, PLOT NO.135, RDP-7, CHARKOP MITASU CHS, SECTOR 6, CHARKOP, KANDIVALI(W), MUMBAI-400067",28672080,MUMBAI,"GREATER BOMBAY",MAHARASHTRA
"TJSB SAHAKARI BANK LTD",TJSB0000050,422109005,"INDIRA NAGAR BRANCH","1, JP AVENUE, OPP. ATMAVISHWAS CHS, PATHARDI ROAD, INDIRA NAGAR, NASHIK-422009",2323701,NASHIK,NASIK,MAHARASHTRA
"TJSB SAHAKARI BANK LTD",TJSB0000049,400109024,"NEW PANVEL BRANCH","2, GROUND FLOOR, RIDDHI SIDDHI RESIDENCY CHS, SECTOR 3, NEW PANVEL-410206",27467088,PANVEL,RAIGAD,MAHARASHTRA
"TJSB SAHAKARI BANK LTD",TJSB0000048,400109024,"CHEMBUR BRANCH","1, ANIRUDH, BUILDING NO. 27, BHARAT KHAND CO.OP. HOUSING SOCIETY, TILAK NAGAR, CHEMBUR, MUMBAI-400089",25272735,MUMBAI,"GREATER BOMBAY",MAHARASHTRA
"TJSB SAHAKARI BANK LTD",TJSB0000047,400109023,"BHIWANDI BRANCH","SHOP NO.9,10 &11, GR. FLOOR, JANGID COMPLEX, ANJUR PHATA, KAMATGHAR, BHIWANDI, PIN-421302",262216,BHIWANDI,THANE,MAHARASHTRA
"TJSB SAHAKARI BANK LTD",TJSB0000046,400109022,"POKHARAN ROAD NO.2 BRANCH","SHOP NO.G/8, GROUND FLOOR, EMERALD PLAZA, BLOCK NO.4, HIRANANDANI MEADOWS, CHITALSAR, MANPADA, THANE WEST-400610",21715060,THANE,THANE,MAHARASHTRA
"TJSB SAHAKARI BANK LTD",TJSB0000045,422109004,"AMBAD BRANCH","KESHAR PLAZA, KMATWADE SHIVAR, AMBAD, NASHIK-422010",2374352,NASHIK,NASHIK,MAHARASHTRA
"TJSB SAHAKARI BANK LTD",TJSB0000044,411109015,"SAMBHAJI NAGAR BRANCH","PLOT NO.-G/P-83, ""G"" BLOCK, PIMPRI INDUSTRIAL AREA,VILLAGE AKURDI, OPP. ROTARY CLUB, SAMBHAJI NAGAR, PUNE 411019",27469132,"PIMPRI CHINCHWAD",PUNE,MAHARASHTRA
"TJSB SAHAKARI BANK LTD",TJSB0000042,411109013,"MASULKAR COLONY BRANCH","HB 3, SHOP NO.304, AJMERA HOUSING COMPLEX, PIMPARI, PUNE-411018",27469135,"PIMPRI CHINCHWAD",PUNE,MAHARASHTRA
"TJSB SAHAKARI BANK LTD",TJSB0000040,411109011,"NIGDI BRANCH","SECTOR 27/A, PLOT NO. 449, OPP. ASHOKA BUS STOP, PRADHIKARAN, NIGDI, PUNE- 411 044",27650366,NIGDI,PUNE,MAHARASHTRA
"TJSB SAHAKARI BANK LTD",TJSB0000038,411109009,"THERGAON BRANCH","ATHARVA, CTS 4565, RATNADEEP COLONY, WAKAD ROAD, NEAR DANGE CHOWK, THERGAON, PUNE-411033",27272312,"PIMPRI CHINCHWAD",PUNE,MAHARASHTRA
"TJSB SAHAKARI BANK LTD",TJSB0000037,411109008,"CHAKAN BRANCH","HRISHIKESH CHAMBERS, CHAKAN - TALEGAON ROAD, CHAKAN, TALUKA KHED, PUNE - 410 501",252494,CHAKAN,PUNE,MAHARASHTRA
"TJSB SAHAKARI BANK LTD",TJSB0000036,411109007,"MARKET YARD BRANCH","692 / 693, CHAPALKAR CENTRE, CHAPALKAR COLONY, MARKET YARD ROAD, PUNE-411037",24273626,PUNE,PUNE,MAHARASHTRA
"TJSB SAHAKARI BANK LTD",TJSB0000035,411109006,"PIMPRI BRANCH","PLOT N0. 119, CITY SURVEY NO. 1467, OPP. TO JAIHIND SCHOOL, JAMTANI CHOWK, PIMPRI, PUNE-411017",27451325,"PIMPRI CHINCHWAD",PUNE,MAHARASHTRA
"TJSB SAHAKARI BANK LTD",TJSB0000034,411109005,"BHOSARI BRANCH","680/1,GAVHANE INDUSTRIAL ESTATE, LANDEWADI, BHOSARI,  PUNE-411026",27129676,"PIMPRI CHINCHWAD",PUNE,MAHARASHTRA
"TJSB SAHAKARI BANK LTD",TJSB0000032,411109003,"DEHU ROAD BRANCH","THOMAS BAZAR, KIWALE, DEHUROAD, PUNE-412101",27671039,"DEHU ROAD",PUNE,MAHARASHTRA
"TJSB SAHAKARI BANK LTD",TJSB0000031,411109002,"CHINCHWAD BRANCH","F M CITY CENTRE,  GROUND  FLOOR , PUNE MUMBAI ROAD, CHINCHWAD STATION, PUNE-411019",27477081,"PIMPRI CHINCHWAD",PUNE,MAHARASHTRA
"TJSB SAHAKARI BANK LTD",TJSB0000029,411109021,"AALANDI BRANCH","DHANANJAY, MARKET ROAD, OPP. JALARAM MANDIR, ALANDI DEVACHI, TAL. KHED, DIST. PUNE ┬û 421105",232074,ALANDI,PUNE,MAHARASHTRA
"TJSB SAHAKARI BANK LTD",TJSB0000028,411109019,"YERWADA BRANCH","PLOT NO.10-A, KASTURBA HOUSING SOCIETY, VISHRANTWADI, ALANDI ROAD, YERAWADA, PUNE-411015",26693782,PUNE,PUNE,MAHARASHTRA
"TJSB SAHAKARI BANK LTD",TJSB0000025,411109018,NARHE,"SINHGAD TECHNICAL EDUCATION SOCIETY, NARHE CAMPUS, 49/2A 53/2 A.P NARHE, PUNE-411041",24391188,NARHE,PUNE,MAHARASHTRA
"TJSB SAHAKARI BANK LTD",TJSB0000024,400109020,"BORIVALI(W) BRANCH","MAHAVIDEH, CHANDAVARKAR RD., NR SHAMAPRASAD MUKHERJEE UDYAN, BORIVALI(W), MUMBAI-400092",28922239,MUMBAI,"GREATER BOMBAY",MAHARASHTRA
"TJSB SAHAKARI BANK LTD",TJSB0000023,400109019,"GOREGAON(E) BRANCH","MASKAR HOUSE, NAIK WADI, OPP. HERITAGE HOTEL, AAREY ROAD, GOREGAON(E), MUMBAI-400063",29275012,MUMBAI,"GREATER BOMBAY",MAHARASHTRA
"TJSB SAHAKARI BANK LTD",TJSB0000022,400109018,"GHODBUNDER ROAD BRANCH","GALA NO.1-4, BLDG. NO.1, GREEN ACRES, PHASE 2, OFF GHODBUNDER ROAD, KAVESAR, THANE-400607",25971231,THANE,THANE,MAHARASHTRA
"TJSB SAHAKARI BANK LTD",TJSB0000021,422109002,"GANGAPUR ROAD BRANCH","1-3, GROUND FLOOR, NAV-RACHANA VIDYALAYA COMPLEX, SAVARKAR NAGAR, GANGAPUR ROAD, NASHIK-422013",2340007,NASHIK,NASHIK,MAHARASHTRA
"TJSB SAHAKARI BANK LTD",TJSB0000020,400109017,"DOMBIVALI(E) BRANCH","GROUND FLOOR, SHRIDHAR NIWAS, DR.RAJENDRA PRASAD ROAD, DOMBIVALI EAST-421201",2860388,DOMBIVLI,THANE,MAHARASHTRA
"TJSB SAHAKARI BANK LTD",TJSB0000019,400109016,"VILE PARLE BRANCH","VISHWANATH BHAVAN, CORNER OF P.M.ROAD AND NEHRU ROAD, VILE-PARLE(E), MUMBAI-400057",26165323,MUMBAI,"GREATER BOMBAY",MAHARASHTRA
"TJSB SAHAKARI BANK LTD",TJSB0000018,411109017,"SADASHIVPETH BRANCH","GROUND FLOOR, AT PUNE VIDYARTHI GRIHA PREMISES, NEAR KHAJINA VIHIR, 1786 SADASHIV PETH, PUNE- 411030",24447771,PUNE,PUNE,MAHARASHTRA
"TJSB SAHAKARI BANK LTD",TJSB0000017,411109016,"DECCAN GYMKHANA BRANCH","1264/1, WRANGLER PARANJPE ROAD, JANGALI MAHARAJ ROAD, DECCAN GYMKHANA, PUNE-411004",25536316,PUNE,PUNE,MAHARASHTRA
"TJSB SAHAKARI BANK LTD",TJSB0000016,422109002,"SHARANPUR ROAD NASHIK BRANCH","2, 'SUYOJIT SANKUL', NEAR RAJIV GANDHI BHAVAN, SHARANPUR ROAD,NASHIK-422002",2575856,NASHIK,NASHIK,MAHARASHTRA
"TJSB SAHAKARI BANK LTD",TJSB0000015,400109015,"GHATKOPAR BRANCH","ARIHANT DARSHAN', JUNCTION OF TILAK ROAD & HINGWALA LANE, GHATKOPAR(E),MUMBAI-400077",25119597,MUMBAI,"GREATER BOMBAY",MAHARASHTRA
"TJSB SAHAKARI BANK LTD",TJSB0000014,400109014,"KALWA BRANCH","JAGRUTI APARTMENT, SHIVAJI CHOWK, KALWA NAKA, KALWA(W)-400605",25304954,THANE,THANE,MAHARASHTRA
"TJSB SAHAKARI BANK LTD",TJSB0000013,400109013,"MULUND(W) BRANCH","MARUTI ASHISH, OFF J.N ROAD, OPP APNA BAZAR, MULUND(W)-400080",25690019,MUMBAI,"GREATER BOMBAY",MAHARASHTRA
"TJSB SAHAKARI BANK LTD",TJSB0000012,400109012,"VASHI BRANCH","1, APSARA BLDG., PLOT NO.51, SEC .17, VASHI, NAVI MUMBAI-400703",27894143,"NEW BOMBAY",THANE,MAHARASHTRA
"TJSB SAHAKARI BANK LTD",TJSB0000011,400109011,"SHREE NAGAR BRANCH","SHREENAGAR HOUSING COMPLEX, MARKET BUILDING, SHREENAGAR, THANE(W)-400604",25833949,THANE,THANE,MAHARASHTRA
"TJSB SAHAKARI BANK LTD",TJSB0000010,400109010,"AIROLI BRANCH","DATTATRAY MAHARAJ SOCIETY, PLOT NO.6, SECTOR 8, AIROLI, NAVI MUMBAI-400705",27695551,"NEW BOMBAY",THANE,MAHARASHTRA
"TJSB SAHAKARI BANK LTD",TJSB0000009,400109009,"KHOPAT BRANCH","GOLDEN HEAVENS APT., NEAR PRATAP CINEMA, POKHRAN RD. NO.1, THANE(W)-400601",25472766,THANE,THANE,MAHARASHTRA
"TJSB SAHAKARI BANK LTD",TJSB0000008,400109008,"PANCHPAKHADI BRANCH","VEERUL, NEAR TMC, PANCH PAKHADI, THANE(W)-400602",25362011,THANE,THANE,MAHARASHTRA
"TJSB SAHAKARI BANK LTD",TJSB0000007,400109007,"VARTAK NAGAR BRANCH","LAXMI INDUSTRIAL COMPLEX, VARTAK NAGAR NAKA, THANE(W)-400606",25856507,THANE,THANE,MAHARASHTRA
"TJSB SAHAKARI BANK LTD",TJSB0000006,400109006,"THANE (EAST) BRANCH","BHIVARA BHAVAN, TILAK NAGAR, THANE(E)-400603",25324330,THANE,THANE,MAHARASHTRA
"TJSB SAHAKARI BANK LTD",TJSB0000005,400109005,"RABODI K'VILLA BRANCH","79 K'VILLA, RABODI, NEAR HOLY CROSS HIGH SCHOOL, THANE(W)-400601",25344247,THANE,THANE,MAHARASHTRA
"TJSB SAHAKARI BANK LTD",TJSB0000004,400109004,"WAGLE ESTATE BRANCH","SHOP NO.10 & 11, TIP TOP PLAZA, L.B.S.ROAD, WAGLE ESTATE, THANE(W)-400602",25821442,THANE,THANE,MAHARASHTRA
"TJSB SAHAKARI BANK LTD",TJSB0000003,400109003,"NAUPADA BRANCH","ANANT LAXMI CHAMBERS, SHIVAJI NAGAR, OFF GOKHALE ROAD, THANE(W)-400602",25403354,THANE,THANE,MAHARASHTRA
"TJSB SAHAKARI BANK LTD",TJSB0000002,400109002,"MAIN BRANCH","MADHUMALATI, VEER SAVARKAR PATH, THANE(W)-400604",25340916,THANE,THANE,MAHARASHTRA
"TJSB SAHAKARI BANK LTD",TJSB0000001,400109001,RTGS-HO,"MADHUKAR BHAVAN, ROAD NO.16, WAGLE ESTATE,THANE(W)-400604.",25838500,THANE,THANE,MAHARASHTRA
"TJSB SAHAKARI BANK LIMITED",TJSB0000150,395109004,"VARACHHA MAIN ROAD","UNIT NO.G/5-B, MANGALDEEP COMPLEX, HIRABAUG CIRCLE, VARACHHA MAIN ROAD, SURAT-395006",0,SURAT,SURAT,GUJARAT
"TJSB SAHAKARI BANK LIMITED",TJSB0000149,400109060,"BORIVALI EAST","SHOP NO.2 &3, PARAS BUSINESS CENTRE, BORIVALI(EAST), MUMBAI-400066",0,MUMBAI,"GREATER BOMBAY",MAHARASHTRA
"TJSB SAHAKARI BANK LIMITED",TJSB0000148,422109009,"NASHIK ROAD","SHOP NO.1 TO 4, DNYANESHWAR BHAVAN, M.G.ROAD, NASHIK ROAD, NASHIK-422101",0,NASHIK,NASIK,MAHARASHTRA
"TJSB SAHAKARI BANK LIMITED",TJSB0000147,400109061,"MAJIWADA THANE","GROUND FLOOR, A WING, PARMESHWARI PARADISE CHS LTD. MAJIWADA, THANE(WEST)-400601",0,THANE,THANE,MAHARASHTRA
"TJSB SAHAKARI BANK LIMITED",TJSB0000146,370109001,GANDHIDHAM,"GROUND FLOOR, PLOT NO.02, SECTOR-9, BHAGWATI ARCADE, GANDHIDHAM, GUJARAT-370201",0,GANDHIDHAM,KUTCH,GUJARAT
"TJSB SAHAKARI BANK LIMITED",TJSB0000145,400109059,"KHAREGAON, KALWA","GROUND FLOOR, SHOP NO.02, KESHAV HEIGHT, 90 FT. ROAD, KHAREGAON, KALWA(WEST), THANE-400605",0,THANE,THANE,MAHARASHTRA
"TJSB SAHAKARI BANK LIMITED",TJSB0000144,400109058,"PURNA NAKA","GROUND FLOOR, GALA NO.2,2A & 1, OM SAI RESIDENCY, PURNA NAKA, BHIWANDI, THANE-421302",0,BHIWANDI,THANE,MAHARASHTRA
"TJSB SAHAKARI BANK LIMITED",TJSB0000143,400109057,KAMOTHE,"GROUND FLOOR, SHOP NO.19,20 & 21, BHAGWATI HERITAGE, SECTOR 21, KAMOTHE, NAVI MUMBAI-410209.",0,"NAVI MUMBAI",RAIGAD,MAHARASHTRA
"TJSB SAHAKARI BANK LIMITED",TJSB0000141,581109202,KARWAR,"EFFIE BUILDING, H-52, 523/1, PIKLE ROAD, KARWAR, KARNATAKA-581301",0,KARWAR,"UTTAR KANNAD",KARNATAKA
"TJSB SAHAKARI BANK LIMITED",TJSB0000140,403109006,VASCO-DA-GAMA,"GROUND FLOOR, JOSHI BUILDING, F.L.GOMES ROAD, VASCO-DA-GAMA, GOA-403802",0,VASCO-DA-GAMA,"SOUTH GOA",GOA
"TJSB SAHAKARI BANK LIMITED",TJSB0000139,411109029,RAVET,"GROUND & MEZZANINE FLOOR, OFFICE NO.1,2 AND 3, PATIL PLAZA, D.Y.PATIL COLLEGE ROAD, DR.AMBEDKAR CHOWK, RAVET, PUNE-412101",0,PUNE,PUNE,MAHARASHTRA
"TJSB SAHAKARI BANK LIMITED",TJSB0000138,411109028,"SENAPATI BAPAT ROAD, PUNE","CTS NO.967/2, F.P.NO.397/2, SHOWROOM NO.5, SUNIT CAPITAL, KANCHANBAN B, SENAPATI BAPAT ROAD, PUNE 411016.",0,PUNE,PUNE,MAHARASHTRA
"TJSB SAHAKARI BANK LIMITED",TJSB0000137,400109055,SANPADA,"GROUND FLOOR, VIVEKANAND SANKUL, PLOT NO.6, SECTOR 4, SANPADA, NAVI MUMBAI-400705.",0,"NAVI MUMBAI","NAVI MUMBAI",MAHARASHTRA
"TJSB SAHAKARI BANK LIMITED",TJSB0000136,363109021,MORBI,"GROUND FLOOR, IMPERIAL PLAZA, SARALA ROAD, OPP. SARDAR BAUG, MORBI, GUJARAT-363641",0,MORBI,RAJKOT,GUJARAT
"TJSB SAHAKARI BANK LIMITED",TJSB0000135,400109054,"PALGHAR WEST","PUSHPAKUNJ, DEVISAHAY ROAD, PALGHAR(WEST), DIST-PALGHAR 401404.",0,PALGHAR,PALGHAR,MAHARASHTRA
"TJSB SAHAKARI BANK LIMITED",TJSB0000134,400109053,"VIRAR WEST","SHOP NO.04, GROUND FLOOR, KINGSTON COURT, 100 FT. ROAD, VIRAR(WEST), DIST-PALGHAR 401303",0,VIRAR,PALGHAR,MAHARASHTRA
"TJSB SAHAKARI BANK LIMITED",TJSB0000133,400109052,NALASOPARA,"SHOP NO. 13 AND 14, GROUND FLOOR, NIKHIL HERITAGE, ACHOLE ROAD, NALASOPARA(EAST), DIST PALGHAR-401209",0,NALLASOPARA,PALGHAR,MAHARASHTRA
"TJSB SAHAKARI BANK LIMITED",TJSB0000132,422109008,SINNAR,"SHOP NO.12, MANIKRAO KOKATE DESTINATION NO.1, NEAR SINNAR BUS STAND, SINNAR, NASHIK-422103",0,SINNAR,NASIK,MAHARASHTRA
"TJSB SAHAKARI BANK LIMITED",TJSB0000131,396109031,VAPI,"HARI SADAN, SHOP NO.1 TO 6, DHARAMSI PARK, KOPARCHI ROAD, VAPI, GUJRAT-396195",0,VAPI,VALSAD,GUJARAT
"TJSB SAHAKARI BANK LIMITED",TJSB0000130,400109051,"BELAVALI BADAPUR","SHOP NO.9,10,11,12 & 13, SAWANT PLAZA, DATTA CHOWK,BELAVALI, BADLAPUR(WEST)-421503",0,THANE,THANE,MAHARASHTRA
"TJSB SAHAKARI BANK LIMITED",TJSB0000129,400109049,MUMBRA,"SHOP NO.6-9, VIRANI BUSINESS CENTRE, OPP. BHARAT GEARS LTD., KAUSA MUMBRA, DIST. THANE-400612",0,THANE,THANE,MAHARASHTRA
"TJSB SAHAKARI BANK LIMITED",TJSB0000128,400109050,TITWALA,"SHOP NO.6 & 7, REGENCY SARVAM, GUPTA ESTATE, NEAR TITWALA STATION, GANPATI MANDIR ROAD, TITWALA(EAST)-421605",0,THANE,THANE,MAHARASHTRA
"TJSB SAHAKARI BANK LIMITED",TJSB0000127,390109003,MANJALPUR,"4,5,6 GROUND FLOOR, KISHAN ATRIA, NEAR TULSIDHAM CHAR RASTA, MANJALPUR, VADODARA, GUJARAT-390011",2634700,VADODARA,VADODARA,GUJARAT
"TJSB SAHAKARI BANK LIMITED",TJSB0000126,411109027,"SHUKRAWAR PETH","SATHE CHAMBERS, GROUND & MAZZANINE FLOOR SHOWROOM, SATHE & CO. PVT. LTD., 678 SHUKRAWAR PETH, SHIVAJI ROAD, PUNE- 411002",23331677,PUNE,PUNE,MAHARASHTRA
"TJSB SAHAKARI BANK LIMITED",TJSB0000125,400109047,"DAHISAR EAST","SADGURU HEIGHT-I, SHOP NO.1, CTS NO.2488,2488/1 TO 14.2490.2491 & 2492(B), SHIV VALLABH ROAD, DAHISAR EAST, MUMBAI-400068",28965997,MUMBAI,"GREATER BOMBAY",MAHARASHTRA
"TJSB SAHAKARI BANK LIMITED",TJSB0000124,400109048,"VIKHROLI WEST","PREMISES NO.42, E WING, BUILDING NO.2, VEER SAVARKAR MARG, VIKHROLI WEST, MUMBAI-400079",25188588,MUMBAI,"GREATER BOMBAY",MAHARASHTRA
"TJSB SAHAKARI BANK LIMITED",TJSB0000122,416109003,"TARABAI PARK","GROUND FLOOR, NUCLEUS MALL, CITY SURVEY NO.239/A-1, TARABAI PARK, KOLHAPUR-416003",2527444,KOLHAPUR,KOLHAPUR,MAHARASHTRA
"TJSB SAHAKARI BANK LIMITED",TJSB0000121,400109046,DHOKALI,"SHOP NO.11,12, OFFICE NO.13,BUILDING NO.9 K27, HIGHLAND PARK, DHOKALI, THANE WEST PIN 400607",25382100,THANE,THANE,MAHARASHTRA
"TJSB SAHAKARI BANK LIMITED",TJSB0000120,444109101,AMRAVATI,"GROUND FLOOR, KRISHNARPAN SANKUL, OPP.DASARA MAIDAN, BADNERA ROAD, AMRAVATI-444605.",0,AMRAVATI,AMRAVATI,MAHARASHTRA
"TJSB SAHAKARI BANK LIMITED",TJSB0000119,416109201,ICHALKARANJI,"AMI RANG 11 111 , OPPOSITE JAIN MANDIR, MAIN ROAD, ICHALKARANJI 416115",2439596,ICHALKARANJI,KOLHAPUR,MAHARASHTRA
"TJSB SAHAKARI BANK LIMITED",TJSB0000118,380109003,PRAHLADNAGAR,"10,11,12 GR FLOOR, THE GRAND MONARCH COMPLEX, PRAHLADNAGAR ROAD, SATELLITE, AHMEDABAD 380015",26765290,AHMEDABAD,AHMADABAD,GUJARAT
"TJSB SAHAKARI BANK LIMITED",TJSB0000117,440109003,"CENTRAL AVENUE ROAD","ZADE BHAVAN, BHAIYYAJI ZADE MARG,CHHAPRU NAGAR SQUARE, CENTRAL AVENUE ROAD, NAGPUR 440008",2775057,NAGPUR,NAGPUR,MAHARASHTRA
"TJSB SAHAKARI BANK LIMITED",TJSB0000116,431109003,"PARIJAT NAGAR","SHOP NO.2B, PLOT NO.23, GROUND FLOOR, YASH HEIGHTS,PARIJAT NAGAR,N4 CIDCO,AURANGABAD 431005",2451954,AURANGABAD,AURANGABAD,MAHARASHTRA
"TJSB SAHAKARI BANK LIMITED",TJSB0000115,560109003,RAJAJINAGAR,"PROPERTY NO.6,1ST MAIN,1ST BLOCK,WARD NO.14, RAJAJI NAGAR,DR.RAJKUMAR ROAD, BANGALORE EAST 560010",23121755,BANGALORE,"BANGALORE URBAN",KARNATAKA
"TJSB SAHAKARI BANK LIMITED",TJSB0000114,431109101,NANDED,"G 8,9,10,11 SANMAN PRESTIGE,STATION ROAD,NEAR ZILLA PARISHAD OFFICE, NANDED 431601",233122,NANDED,NANDED,MAHARASHTRA
"TJSB SAHAKARI BANK LIMITED",TJSB0000113,414109002,AHMEDNAGAR,"SHOP NO.186 1, GROUND FLOOR, SAI MIDAS TOUCH, NAGAR MANMAD ROAD, SAVEDI, AHMEDNAGAR 414003",2422100,AHMADNAGAR,AHMADNAGAR,MAHARASHTRA
"TJSB SAHAKARI BANK LIMITED",TJSB0000110,411109026,"KARVE NAGAR BRANCH","29,1 KRISHNAI COMPLEX, SAHAWAS CORNER, KARVE NAGAR, PUNE 411052",25440088,PUNE,PUNE,MAHARASHTRA
