BANK,IFSC,MICR,BRANCH,ADDRESS,CONTACT,CITY,DISTRICT,STATE
"PRATHAMA BANK",PRTH0035408,NA,"MAHADEV CHUNGI","BLOCK AND TEHSIL DHANAURA DISTT AMROHA",7055715408,DHANAURA,AMROHA,"UTTAR PRADESH"
"PRATHAMA BANK",PRTH0035398,NA,"FAIYAZ NAGAR","VILL FAIYAZ NAGAR PO CHAKUNI BLOCK AND TEHSIL HASANPUR 244242",7055715398,AMROHA,AMROHA,"UTTAR PRADESH"
"PRATHAMA BANK",PRTH0035397,NA,BIJORA,"VILL BIJORA PO BIJORA TEHSIL HASANPUR PIN 244235",7055715397,AMROHA,AMROHA,"UTTAR PRADESH"
"PRATHAMA BANK",PRTH0035396,NA,"MUNDA KHERA KHADAR","VILL MUNDA KHERA KHADAR PO BACCHARAON BLOCK AND TEHSIL DHANAURA PIN 244225",7055715396,AMROHA,AMROHA,"UTTAR PRADESH"
"PRATHAMA BANK",PRTH0035379,NA,"NAIPURA KHADAR","VILL.NAIPURA,NH-24, SENTMERRY ROAD,PO-GAJRAULA,DISTT.AMROHA",7055715379,HASANPUR,AMROHA,"UTTAR PRADESH"
"PRATHAMA BANK",PRTH0035378,NA,NAWADA,"VILL.NAWADA,POANDBLOCK-GAJRAULA,TEHSIL-HASANPUR, DISTT.AMROHA",7055715378,HASANPUR,AMROHA,"UTTAR PRADESH"
"PRATHAMA BANK",PRTH0035374,NA,"SOHAT GARHI","VILL. SOHAT GARHI, PO SOHAT, TEHSIL HASANPUR, DISTT. AMROHA",7055715374,HASANPUR,AMROHA,"UTTAR PRADESH"
"PRATHAMA BANK",PRTH0035373,NA,"BHEEKAMPUR SHARKI","VILL.BHEEKAMPUR SHARKI,PO UJHARI,TEHSIL HASANPUR,DISTT.AMROHA",7055715373,HASANPUR,AMROHA,"UTTAR PRADESH"
"PRATHAMA BANK",PRTH0035358,NA,"FANDERI SADAT","FANDERI SADAT TEHSIL DHANUARA DISTT AMROHA",7055715358,DHANURA,AMROHA,"UTTAR PRADESH"
"PRATHAMA BANK",PRTH0035357,NA,"KHAD GOOJAR CHAURAHA","KHAD GOOJAR CHAURAHA VILLAGE TEHSIL DHANURA DISTT AMROHA",7055715357,DHANURA,AMROHA,"UTTAR PRADESH"
"PRATHAMA BANK",PRTH0035342,NA,CHAKFERI,"VILL CHAKFERI DISTT AMROHA",7055715342,AMROHA,AMROHA,"UTTAR PRADESH"
"PRATHAMA BANK",PRTH0035341,NA,"KAI MUSTAKAM","VILL KAI MUSTAKAM DISTT AMROHA",7055715341,AMROHA,AMROHA,"UTTAR PRADESH"
"PRATHAMA BANK",PRTH0035318,NA,RAJOHA,"VILL RAJOHA POST PATAI BHOOR 244241 DISTT JP NAGAR AMROHA",7055715318,AMROHA,AMROHA,"UTTAR PRADESH"
"PRATHAMA BANK",PRTH0035317,NA,MAHESHRA,"VILL AND POST MAHESHRA 2440236 DISTT JP NAGAR AMROHA",7055715317,AMROHA,AMROHA,"UTTAR PRADESH"
"PRATHAMA BANK",PRTH0035293,NA,BIJNAURA,"VILL AND PO BIJNAURA,BLOCK HASANPUR,DISTRICT J P NAGAR 244242",7534016293,"J P NAGAR","J P NAGAR","UTTAR PRADESH"
"PRATHAMA BANK",PRTH0035292,NA,SANTHALPUR,"VILL AND PO DHAWARSI,BLOCK GANGESHWARI,DISTRICT J P NAGAR 244242",7534016292,"J P NAGAR","J P NAGAR","UTTAR PRADESH"
"PRATHAMA BANK",PRTH0035285,NA,"HASHAMPUR BHOOD","HASHAMPUR BHOOD,PO KAURALA,BLOCK GAJRAULA,TEHSIL DHANAURA,DISTT AMROHA-244231",7534016285,"JYOTIBA PHULE NAGAR","JYOTIBA PHULE NAGAR","UTTAR PRADESH"
"PRATHAMA BANK",PRTH0035284,NA,"BALDANA HEERA SINGH","BALDANA HEERA SINGH,PO PEEPLI KALAN,BLOCK GAJRAULA,TEHSIL DHANAURA,DISTT AMROHA-244236",7534016284,"JYOTIBA PHULE NAGAR","JYOTIBA PHULE NAGAR","UTTAR PRADESH"
"PRATHAMA BANK",PRTH0035283,NA,AUGARPUR,"VILL AUGARPUR,PO SAUDHAN MOH PUR,BLOCK GANESHWARI,TEHSIL HASANPUR,DISTT AMROHA-244233",7534016283,"JYOTIBA PHULE NAGAR","JYOTIBA PHULE NAGAR","UTTAR PRADESH"
"PRATHAMA BANK",PRTH0035264,NA,YAKBAGRI,"VILL YAKBAGRI,PO MAHESHRA,BLOCK GAJRAULA,AMROHA 244236",8191900264,"J P NAGAR","JYOTIBA PHULE NAGAR","UTTAR PRADESH"
"PRATHAMA BANK",PRTH0035263,NA,MANAUTA,"VILL MANUTA,PO SIHALI JAGEER,BLOCK GAJRAULA,AMROHA 244241",8191900263,"J P NAGAR","JYOTIBA PHULE NAGAR","UTTAR PRADESH"
"PRATHAMA BANK",PRTH0035254,244843916,GHARONT,"VILL GHARONT BLOCK HASANPUR DIST.JYOTIBA PHULE NAGAR-244241",8191900254,"JYOTIBA PHULE NAGAR","JYOTIBA PHULE NAGAR","UTTAR PRADESH"
"PRATHAMA BANK",PRTH0035251,244843518,ATRASI,"VILL & PO ATRASI, BLOCK JOYA,DIST. J P NAGAR",8191900251,"JYOTIBA PHULE NAGAR","JYOTIBA PHULE NAGAR","UTTAR PRADESH"
"PRATHAMA BANK",PRTH0035248,244843861,BACHHRAON,"VILL & PO BACHHRAUN, BLOCK DHANRURA, DIST .J.P. NAGAR",8191900248,"JYOTIBA PHULE NAGAR","JYOTIBA PHULE NAGAR","UTTAR PRADESH"
"PRATHAMA BANK",PRTH0035235,244843853,BURAWALI,"VILL & POST BURAWALI,TEHSIL-HASANPUR, DISTT-J.P.NAGAR,PIN-244255,(U.P)",8476010235,"JYOTIBA PHULE NAGAR","JYOTIBA PHULE NAGAR","UTTAR PRADESH"
"PRATHAMA BANK",PRTH0035234,244843804,"SHAHPUR KALAN","VILL.SHAHPUR KALAN, POST & TEHSIL HASANPUR,DISTT-J.P.NAGAR",8476010234,"JYOTIBA PHULE NAGAR","JYOTIBA PHULE NAGAR","UTTAR PRADESH"
"PRATHAMA BANK",PRTH0035233,244843809,RUKHALLO,"VILL.RUKHALLO, POST JAITOLI TEHSIL HASANPUR,DISTT-J.P.NAGAR",8476010233,"JYOTIBA PHULE NAGAR","JYOTIBA PHULE NAGAR","UTTAR PRADESH"
"PRATHAMA BANK",PRTH0035232,244843857,"CHANDANPUR KHADAR","VILL.CHANDANPUR KHADAR POST REHARA,TEHSIL HASANPUR,DISTT-J.P.NAGAR",8476010232,"JYOTIBA PHULE NAGAR","JYOTIBA PHULE NAGAR","UTTAR PRADESH"
"PRATHAMA BANK",PRTH0035231,244843906,"SHABAJPUR DOR","VILL.SHABAJPUR DOR, POST GAJRAULA,TEHSIL HASANPUR,DISTT-J.P.NAGAR",8476010231,"JYOTIBA PHULE NAGAR","JYOTIBA PHULE NAGAR","UTTAR PRADESH"
"PRATHAMA BANK",PRTH0035230,244843958,"SHERPUR MUSTKAM","VILL. & POST SHERPUR MUSTKAM,TEHSIL DHARORA,DISTT-J.P.NAGAR",8476010230,"JYOTIBA PHULE NAGAR","JYOTIBA PHULE NAGAR","UTTAR PRADESH"
"PRATHAMA BANK",PRTH0035223,244843905,"SALEMPUR GOSAI","VILL. & POST SALEMPUR GOSAI,TEHSIL DHANAURA,DISTT-J.P.NAGAR",8476010223,"JYOTIBA PHULE NAGAR","JYOTIBA PHULE NAGAR","UTTAR PRADESH"
"PRATHAMA BANK",PRTH0035218,244843957,AZAMPUR,"VILL. & POST AZAMPUR,TEHSIL DHANAURA,DISTT-J.P.NAGAR",8449710218,"JYOTIBA PHULE NAGAR","JYOTIBA PHULE NAGAR","UTTAR PRADESH"
"PRATHAMA BANK",PRTH0035217,244843810,DHAKKA,"VILL.DHAKKA, POST JANETA,TEHSIL HASANPUR,DISTT-J.P.NAGAR",8449710217,"JYOTIBA PHULE NAGAR","JYOTIBA PHULE NAGAR","UTTAR PRADESH"
"PRATHAMA BANK",PRTH0035208,244843860,"DARIYAL (GANESHWARI)","VILL & POST-DARIYAL,TEHSIL-HASANPUR, DISTT-J.P.NAGAR,PIN-244255,(U.P)",8057911208,"JYOTIBA PHULE NAGAR","JYOTIBA PHULE NAGAR","UTTAR PRADESH"
"PRATHAMA BANK",PRTH0035205,244843959,"AHRAULA MAFI","VILL & POST AHROLA MAFI, TEHSIL-DHANAURA, DISTT-J.P.NAGAR PIN-244231,(U.P)",8057911205,"JYOTIBA PHULE NAGAR","JYOTIBA PHULE NAGAR","UTTAR PRADESH"
"PRATHAMA BANK",PRTH0035204,244843912,TIGRI,"VILL & POST TIGRI, TEHSIL-DHANAURA, DISTT-J.P.NAGAR, PIN-244235, (U.P)",8057911204,"JYOTIBA PHULE NAGAR","JYOTIBA PHULE NAGAR","UTTAR PRADESH"
"PRATHAMA BANK",PRTH0035203,244843908,JHANAKPURI,"P.O.MAHESHRA,TEH:DHANAURA,DISTT:J.P.NAGAR",9756799203,"JYOTIBA PHULE NAGAR","JYOTIBA PHULE NAGAR","UTTAR PRADESH"
"PRATHAMA BANK",PRTH0035191,244843805,"KALA KHERA","VILL & P.O. KALAKHERA,TEHSIL HASANPUR,DISTT J P NAGAR`",9756799191,"JYOTIBA PHULE NAGAR","JYOTIBA PHULE NAGAR","UTTAR PRADESH"
"PRATHAMA BANK",PRTH0035190,244843803,"MANDI SAMITI HASANPUR","U.P. AGRI PRODUCTION MANDI SAMITI HASANPUR,DISTT. J.P. NAGAR",264843,"JYOTIBA PHULE NAGAR","JYOTIBA PHULE NAGAR","UTTAR PRADESH"
"PRATHAMA BANK",PRTH0035189,244843953,"C S M MALESHIA","VILL. MALASIA POST & TEHSIL DHANAURA,DISTT. J.P.NAGAR (U.P.)",9756799189,"JYOTIBA PHULE NAGAR","JYOTIBA PHULE NAGAR","UTTAR PRADESH"
"PRATHAMA BANK",PRTH0035186,244843952,DHANAURA,"NEAR KALALI CHAUNGI, CHANDPUR ROAD, DHAUNARA,┬áDISTT,. J.P. NAGAR",9756799186,"JYOTIBA PHULE NAGAR","JYOTIBA PHULE NAGAR","UTTAR PRADESH"
"PRATHAMA BANK",PRTH0035173,244843902,GAJRAULA,"P.O. GAJRAULA,TEHSIL DHANAURA,DISTT. J.P.NAGAR",254752,"JYOTIBA PHULE NAGAR","JYOTIBA PHULE NAGAR","UTTAR PRADESH"
"PRATHAMA BANK",PRTH0035149,244843854,DEHRA,"P.O. KUNDERKI BHOOR,TEHSIL-HASANPUR,DISTT--J.P.NAGAR",9927030661,"JYOTIBA PHULE NAGAR","JYOTIBA PHULE NAGAR","UTTAR PRADESH"
"PRATHAMA BANK",PRTH0035148,244843859,ADAMPUR,"P.O. ADAMPUR,TEHSIL-HASANPUR,DISTT--J.P.NAGAR PIN-244255",9927030662,"JYOTIBA PHULE NAGAR","JYOTIBA PHULE NAGAR","UTTAR PRADESH"
"PRATHAMA BANK",PRTH0035143,244843855,CHHAPNA,"P.O. REHRA,TEHSIL-HASANPUR,DISTT--J.P.NAGAR PIN-244245",9756799143,"JYOTIBA PHULE NAGAR","JYOTIBA PHULE NAGAR","UTTAR PRADESH"
"PRATHAMA BANK",PRTH0035142,244843808,JAITOLI,"P.O. JAITOLI,TEHSIL-HASANPUR,DISTT--J.P.NAGAR PIN-244241┬á┬á",9927030657,"JYOTIBA PHULE NAGAR","JYOTIBA PHULE NAGAR","UTTAR PRADESH"
"PRATHAMA BANK",PRTH0035121,244843951,CHAKANWALA,"P.O. CHAKANWALA VIA AJRAULA,TEHSIL-DHANAURA,DISTT--J.P.NAGAR",268090,"JYOTIBA PHULE NAGAR","JYOTIBA PHULE NAGAR","UTTAR PRADESH"
"PRATHAMA BANK",PRTH0035120,244843915,PEEPLIDAUD,"P.O. HASANPUR VIA GAJRAULA,TEHSIL-HASANPUR,DISTT--J.P.NAGAR",9927030655,"JYOTIBA PHULE NAGAR","JYOTIBA PHULE NAGAR","UTTAR PRADESH"
"PRATHAMA BANK",PRTH0035103,244843807,MANGRAULA,"P.O. MANGRAULA,TEHSIL-HASANPUR,DISTT- J.P.NAGAR PIN-244241",9927030656,"JYOTIBA PHULE NAGAR","JYOTIBA PHULE NAGAR","UTTAR PRADESH"
"PRATHAMA BANK",PRTH0035102,244843911,"MOHDBAD MUSTAKHAM","P.O. BIJHORA VIA GAJROLA,TEHSIL-HASANPUR,DISTT- J.P.NAGAR",267475,"JYOTIBA PHULE NAGAR","JYOTIBA PHULE NAGAR","UTTAR PRADESH"
"PRATHAMA BANK",PRTH0035089,244843802,HASANPUR,"P.O. HASANPUR, MAIN MARKET,TEHSIL-HASANPUR,DISTT--J.P.NAGAR",264161,"JYOTIBA PHULE NAGAR","JYOTIBA PHULE NAGAR","UTTAR PRADESH"
"PRATHAMA BANK",PRTH0035073,244843852,GANGWAR,"P.O. GANGWAR,TEHSIL-HASANPUR,DISTT--J.P.NAGAR PIN-244241",9927030658,"JYOTIBA PHULE NAGAR","JYOTIBA PHULE NAGAR","UTTAR PRADESH"
"PRATHAMA BANK",PRTH0035072,244843910,"NAGALIA MEV","P.O. GAJRAULA,TEHSIL-DHANAURA,DISTT--J.P.NAGAR PIN-244235",253886,"JYOTIBA PHULE NAGAR","JYOTIBA PHULE NAGAR","UTTAR PRADESH"
"PRATHAMA BANK",PRTH0035066,244843806,TAHARPUR,"P.O. HASANPUR,TEHSIL-HASANPUR,DISTT--J.P.NAGAR PIN-244241",266700,"JYOTIBA PHULE NAGAR","JYOTIBA PHULE NAGAR","UTTAR PRADESH"
"PRATHAMA BANK",PRTH0035057,244843903,"ALIPUR CHOPLA","P.O. GAJRAULA,TEHSIL-DHANAURA,DISTT--J.P.NAGAR PIN-244926",252083,"JYOTIBA PHULE NAGAR","JYOTIBA PHULE NAGAR","UTTAR PRADESH"
"PRATHAMA BANK",PRTH0035044,244843856,DHAWARSI,"P.O. DHAWARSI,TEHSIL-HASANPUR,DISTT--J.P.NAGAR PIN-244242",242181,"JYOTIBA PHULE NAGAR","JYOTIBA PHULE NAGAR","UTTAR PRADESH"
"PRATHAMA BANK",PRTH0035043,244843904,"SIHALI JAGEER","P.O. SIHALI JAGEER,TEHSIL-HASANPUR,DISTT--J.P.NAGAR PIN-244241",252648,"JYOTIBA PHULE NAGAR","JYOTIBA PHULE NAGAR","UTTAR PRADESH"
"PRATHAMA BANK",PRTH0035039,244843914,"FATEHPUR CHHITRA","P.O. BACHRAUN,TEHSIL DHANAURA,DISTT. J.P.NAGAR",275353,"JYOTIBA PHULE NAGAR","JYOTIBA PHULE NAGAR","UTTAR PRADESH"
"PRATHAMA BANK",PRTH0035038,244843907,KHADGUJAR,"P.O. KHAD GUJAR,TEHSIL DHANAURA,DISTT. J.P.NAGAR",230281,"JYOTIBA PHULE NAGAR","JYOTIBA PHULE NAGAR","UTTAR PRADESH"
"PRATHAMA BANK",PRTH0035037,244843954,"SHERPUR DEOTI","P.O. SHERPUR DHEOTI,TEHSIL DHANAURA,DISTT. J.P.NAGAR",9756799037,"JYOTIBA PHULE NAGAR","JYOTIBA PHULE NAGAR","UTTAR PRADESH"
"PRATHAMA BANK",PRTH0035034,244843909,UJHARI,"P.O. UJHARI,TEHSIL-HASANPUR,DISTT- J. P. NAGAR PIN-244242",245130,"JYOTIBA PHULE NAGAR","JYOTIBA PHULE NAGAR","UTTAR PRADESH"
"PRATHAMA BANK",PRTH0035029,244843956,KAMELPUR,"P.O. KAMELPUR,TEHSIL- DHANAURA,DISTT--J.P.NAGAR PIN-244231",272002,"JYOTIBA PHULE NAGAR","JYOTIBA PHULE NAGAR","UTTAR PRADESH"
"PRATHAMA BANK",PRTH0035020,244843955,"CHUCHELAN KALAN","P.O. CHUCHELA KALAN,TEHSIL-DHANAURA,DISTT--J.P.NAGAR",273773,"JYOTIBA PHULE NAGAR","JYOTIBA PHULE NAGAR","UTTAR PRADESH"
"PRATHAMA BANK",PRTH0035008,244843858,REHRA,"P.O. REHRA┬áTEHSIL-HASANPUR,DISTT--J.P.NAGAR PIN-244241",243236,"JYOTIBA PHULE NAGAR","JYOTIBA PHULE NAGAR","UTTAR PRADESH"
"PRATHAMA BANK",PRTH0035005,244843851,SAIDNAGLI,"P.O. SAID NAGLI,TEHSIL-HASANPUR,DISTT--J.P.NAGAR PIN-244242",240387,"JYOTIBA PHULE NAGAR","JYOTIBA PHULE NAGAR","UTTAR PRADESH"
"PRATHAMA BANK",PRTH0035002,244843913,RAJABPUR,"VILL & POST-RAJABPUR,TEHSIL-AMROHA,DISTT-J.P.NAGAR PIN-244236",245356,"JYOTIBA PHULE NAGAR","JYOTIBA PHULE NAGAR","UTTAR PRADESH"
"PRATHAMA BANK",PRTH0035000,NA,"RO ALIPUR CHAUPLA","PRATHAMA BANK RO, ALIPUR CHOPLA GAJRULA, J.P. NAGAR",9837001682,"JYOTIBA PHULE NAGAR","JYOTIBA PHULE NAGAR","UTTAR PRADESH"
"PRATHAMA BANK",PRTH0034405,NA,KAIMUKHIYA,"BLOCK TEHSIL AND DISTT AMROHA",7055715405,AMROHA,AMROHA,"UTTAR PRADESH"
"PRATHAMA BANK",PRTH0034404,NA,"KAILSA ROAD AMROHA","BLOCK AMROHA TEHSIL AND DISTT AMROHA",7055715404,AMROHA,AMROHA,"UTTAR PRADESH"
"PRATHAMA BANK",PRTH0034403,NA,"NAUGAON SADAT BASTI","NAUGAON SADAT BASTI PO NAUGAON SADAT BASTI TEH AND DISTT AMROHA 244251",0,AMROHA,AMROHA,"UTTAR PRADESH"
"PRATHAMA BANK",PRTH0034393,NA,JOYA,"VILL AND PO JOYA,TEHSIL AMROHA PIN 244222",7055715393,AMROHA,AMROHA,"UTTAR PRADESH"
"PRATHAMA BANK",PRTH0034367,NA,"BAMBOO GARH","VILL BAMBOOGARH JOYA ROAD NEAR BUS STAND AMROHA 244221",7055715367,AMROHA,AMROHA,"UTTAR PRADESH"
"PRATHAMA BANK",PRTH0034340,NA,"BEEBRA KHURD","VILL BEEBRA KHURD TEHSIL AND DISTT AMROHA",7055715340,AMROHA,AMROHA,"UTTAR PRADESH"
"PRATHAMA BANK",PRTH0034338,NA,"HASANPUR KATIYA","VILL HASANPUR KATIYA DISTT AMROHA",7055715338,AMROHA,AMROHA,"UTTAR PRADESH"
"PRATHAMA BANK",PRTH0034336,NA,"TELIPURA MAFI","VILL TELIPURA MAFI DISTT AMRORA",7055715336,AMROHA,AMROHA,"UTTAR PRADESH"
"PRATHAMA BANK",PRTH0034296,NA,JATBAZAR,"PO AMROHA,BLOCK AMROHA,DISTRICT J P NAGAR 244221",7534016296,"J P NAGAR","J P NAGAR","UTTAR PRADESH"
"PRATHAMA BANK",PRTH0034287,NA,CHAUDHARPUR,"VILL AND PO CHAUDHARPUR,BLOCK JOYA,DISTRICT.MORADABAD 244102",7534016287,MORADABAD,MORADABAD,"UTTAR PRADESH"
"PRATHAMA BANK",PRTH0034280,NA,KAURALA,"PO KAURALA,BLOCK DHANAURA,DISTT JYOTIBA PHULE NAGAR 244231",0,"PHULE NAGAR","JYOTIBA PHULE NAGAR","UTTAR PRADESH"
"PRATHAMA BANK",PRTH0034276,NA,PELI,"PO KAPSUA,BLOCK DHANAURA,DISTT JYOTIBA PHULE NAGAR 244231",0,"PHULE NAGAR","JYOTIBA PHULE NAGAR","UTTAR PRADESH"
"PRATHAMA BANK",PRTH0034272,NA,"SIRSA KHUMAR","PO AMROHA,BLOCK JOYA,DISTT JYOTIBA PHULE NAGAR 244221",0,"PHULE NAGAR","JYOTIBA PHULE NAGAR","UTTAR PRADESH"
"PRATHAMA BANK",PRTH0034258,NA,LAKRA,"MOH. LAKRA, PO AMROHA, DISTT. JYOTIBA PHULE NAGAR-",8191900258,"JYOTIBA PHULE NAGAR","JYOTIBA PHULE NAGAR","UTTAR PRADESH"
"PRATHAMA BANK",PRTH0034247,244843579,BUDERNA,"VILL & PO BUDERNA BLOCK AMROHA, DIST. J P NAGAR-244221",8191900247,"JYOTIBA PHULE NAGAR","JYOTIBA PHULE NAGAR","UTTAR PRADESH"
"PRATHAMA BANK",PRTH0034243,244843562,KAILBAKRI,"VILL. & POST KAILBAKRI,TEHSIL-AMROHA,DISTT-J.P.NAGAR",8476010243,"JYOTIBA PHULE NAGAR","JYOTIBA PHULE NAGAR","UTTAR PRADESH"
"PRATHAMA BANK",PRTH0034236,244843517,"PEEPLI KALAN","VILL. & POST PEEPLI KALAN, TEHSIL DHANAURA,DISTT-J.P.NAGAR",8476010236,"JYOTIBA PHULE NAGAR","JYOTIBA PHULE NAGAR","UTTAR PRADESH"
"PRATHAMA BANK",PRTH0034222,244843566,"PATAI KHALSA","VILL. & POST PATAI KHALSA, TEHSIL-AMROHA,DISTT-J.P.NAGAR",8449710222,"JYOTIBA PHULE NAGAR","JYOTIBA PHULE NAGAR","UTTAR PRADESH"
"PRATHAMA BANK",PRTH0034216,244843553,APRAULLA,"VILL.APRAULLA,POST KHERA, TEHSIL-AMROHA,DISTT-J.P.NAGAR",8449710216,"JYOTIBA PHULE NAGAR","JYOTIBA PHULE NAGAR","UTTAR PRADESH"
"PRATHAMA BANK",PRTH0034215,244843561,"PAYANTI KALAN","VILL.PAYANTI KALAN,POST KHAS,TEHSIL AMROHA,DISTT-J.P.NAGAR,PIN-244255,(U.P)",8057911215,"JYOTIBA PHULE NAGAR","JYOTIBA PHULE NAGAR","UTTAR PRADESH"
"PRATHAMA BANK",PRTH0034206,244843507,"KANKAR SARAI","VILL KAZI SARAI URF KANKAR SARAI,POST-KANKAR SARAI,TEHSIL-AMROHA,DISTT-J.P.NAGAR, PIN-244221,(U.P)",8057911206,"JYOTIBA PHULE NAGAR","JYOTIBA PHULE NAGAR","UTTAR PRADESH"
"PRATHAMA BANK",PRTH0034202,244843509,NARANGPUR,"VILL: NARANGPUR, P.O.SARKARI AZIZ,TEH:AMROHA,DISTT:J.P.NAGAR",9756799202,"JYOTIBA PHULE NAGAR","JYOTIBA PHULE NAGAR","UTTAR PRADESH"
"PRATHAMA BANK",PRTH0034201,244843506,AAROHI,"VILL.AROHI, P.O.AMROHA,TEHSIL AMROHA,DISTT: J.P.NAGAR PIN 244221",9759799201,"JYOTIBA PHULE NAGAR","JYOTIBA PHULE NAGAR","UTTAR PRADESH"
"PRATHAMA BANK",PRTH0034199,244843505,JABDA,"VILL. JABDA, P.O.ABBALPUR,TEHSIL: AMROHA,DISTT:J.P.NAGAR PIN-244221",9756799199,"JYOTIBA PHULE NAGAR","JYOTIBA PHULE NAGAR","UTTAR PRADESH"
"PRATHAMA BANK",PRTH0034188,244843565,NANHERA,"VILL. & POST NANHERA ALIYARPUR,TEHSIL-AMROHA,DISTT-J. P. NAGAR",9927030649,"JYOTIBA PHULE NAGAR","JYOTIBA PHULE NAGAR","UTTAR PRADESH"
"PRATHAMA BANK",PRTH0034187,244843567,"JAMNA KHAS","P.O. JAMNA KHAS,TEHSIL-AMROHA,DISTT-J. P. NAGAR",9927030653,"JYOTIBA PHULE NAGAR","JYOTIBA PHULE NAGAR","UTTAR PRADESH"
"PRATHAMA BANK",PRTH0034179,244843560,"KHANDSAL KALAN","VILL. KHANDSAL KALAN, POST KORAL,TEHSIL DHANAURA,DISST. J.P . NAGAR",9756799179,"JYOTIBA PHULE NAGAR","JYOTIBA PHULE NAGAR","UTTAR PRADESH"
"PRATHAMA BANK",PRTH0034174,244843504,"RAIPUR KHURD","TEHSIL AMROHA,DISTT. J.P.NAGAR OPP. J.P NAGAR",9756799174,"JYOTIBA PHULE NAGAR","JYOTIBA PHULE NAGAR","UTTAR PRADESH"
"PRATHAMA BANK",PRTH0034171,244843503,"MANDI SAMITI AMROHA","P.O. AMROHA,TEHSIL-AMROHA,DISTT. J.P. NAGAR",9927030654,"JYOTIBA PHULE NAGAR","JYOTIBA PHULE NAGAR","UTTAR PRADESH"
"PRATHAMA BANK",PRTH0034154,244843559,KAPASI,"P.O. MANOTA VIA JOYA,TEHSIL-AMROHA,DISTT- J. P. NAGAR",246420,"JYOTIBA PHULE NAGAR","JYOTIBA PHULE NAGAR","UTTAR PRADESH"
"PRATHAMA BANK",PRTH0034144,244843514,CHANDNAGAR,"P.O. CHANDNAGAR VIA RAJABPUR TEHSIL-AMROHA,DISTT--J.P.NAGAR PIN-244236",247073,"JYOTIBA PHULE NAGAR","JYOTIBA PHULE NAGAR","UTTAR PRADESH"
"PRATHAMA BANK",PRTH0034136,244843511,SINURA,"P.O. JOYA,┬áTEHSIL AMROH,DISTT. J.P.NAGAR",246323,"JYOTIBA PHULE NAGAR","JYOTIBA PHULE NAGAR","UTTAR PRADESH"
"PRATHAMA BANK",PRTH0034133,244843558,"DEORI URF HADIPUR","P.O. DEORI URF HADIPUR( VIA PAKBARA),TEHSIL-AMROHA DISTT- J.P.NAGAR PIN-244201",9927030651,"JYOTIBA PHULE NAGAR","JYOTIBA PHULE NAGAR","UTTAR PRADESH"
"PRATHAMA BANK",PRTH0034119,244843508,AIVZABAD,"P.O. AMROHA,TEHSIL- AMROHA,DISTT--J.P.NAGAR PIN-244221",9927030652,"JYOTIBA PHULE NAGAR","JYOTIBA PHULE NAGAR","UTTAR PRADESH"
"PRATHAMA BANK",PRTH0034108,244843556,"MOONDHA KHEDA","P.O. MOONDAKHERA VIA AMROHA TEHSIL-AMROHA,DISTT--J.P.NAGAR",256161,"JYOTIBA PHULE NAGAR","JYOTIBA PHULE NAGAR","UTTAR PRADESH"
"PRATHAMA BANK",PRTH0034081,244843513,PAPSARA,"P.O. PAPSARA,TEHSIL-AMROHA,DISTT--J.P.NAGAR PIN-244221",9927030641,"JYOTIBA PHULE NAGAR","JYOTIBA PHULE NAGAR","UTTAR PRADESH"
"PRATHAMA BANK",PRTH0034070,244843502,AMROHA,"P.O. AMROHA, CHOWRAHA MUNSAFI,TEHSIL-AMROHA,DISTT--J.P.NAGAR",250346,"JYOTIBA PHULE NAGAR","JYOTIBA PHULE NAGAR","UTTAR PRADESH"
"PRATHAMA BANK",PRTH0034069,244843515,IBRAHIMPUR,"P.O. ABBALPUR,TEHSIL-AMROHA,DISTT--J.P.NAGAR PIN-244221",261325,"JYOTIBA PHULE NAGAR","JYOTIBA PHULE NAGAR","UTTAR PRADESH"
"PRATHAMA BANK",PRTH0034040,244843563,"KUA KHERA","P.O. BASIPUR,TEHSIL-DHANAURA,DISST. J.P.NAGAR",275082,"JYOTIBA PHULE NAGAR","JYOTIBA PHULE NAGAR","UTTAR PRADESH"
"PRATHAMA BANK",PRTH0034036,244843555,"SARKARA KAMAL","P.O. SARKARA KAMAL,TEHSIL-AMROHA,DISTT--J.P.NAGAR PIN-244222",298537,"JYOTIBA PHULE NAGAR","JYOTIBA PHULE NAGAR","UTTAR PRADESH"
"PRATHAMA BANK",PRTH0034023,244843510,MAKHDOOMPUR,"P.O. MAKHDOOMPUR,TEHSIL-AMROHA,DISTT- J.P.NAGAR PIN-244251",260620,"JYOTIBA PHULE NAGAR","JYOTIBA PHULE NAGAR","UTTAR PRADESH"
"PRATHAMA BANK",PRTH0034022,244843512,MANAKJURI,"P.O. JALALPUR GHANA,TEHSIL-AMROHA,DISTT--J.P.NAGAR",268548,"JYOTIBA PHULE NAGAR","JYOTIBA PHULE NAGAR","UTTAR PRADESH"
"PRATHAMA BANK",PRTH0034013,244843554,BURHANPUR,"P.O. PATAI KHALSA┬á,TEHSIL- AMROHA,DISTT- J.P.NAGR PIN-244102",2223219,"JYOTIBA PHULE NAGAR","JYOTIBA PHULE NAGAR","UTTAR PRADESH"
"PRATHAMA BANK",PRTH0034001,244843551,"NAUGAON SADAT","P.O. NAUGAVA SADAT,TEHSIL-AMROHA,DISTT-J.P.NAGAR",223232,"JYOTIBA PHULE NAGAR","JYOTIBA PHULE NAGAR","UTTAR PRADESH"
"PRATHAMA BANK",PRTH0034000,NA,"RO AMROHA","PRATHAMA BANK RO, KOT CHOURHA, OPP MAIN POST OFFICE, AMROHA",9837001681,"JYOTIBA PHULE NAGAR","JYOTIBA PHULE NAGAR","UTTAR PRADESH"
"PRATHAMA BANK",PRTH0023395,NA,JALPUR,"VILL JAL PUR PO TANDA BLOCK SWAR TEHSIL TANDA PIN 244925",7055715395,RAMPUR,RAMPUR,"UTTAR PRADESH"
"PRATHAMA BANK",PRTH0023333,NA,SHEHPURA,"VILL SHEHPURA TEHSIL SWAR DISTT RAMPUR",7055715333,SWAR,RAMPUR,"UTTAR PRADESH"
"PRATHAMA BANK",PRTH0023288,NA,BHAUPURA,"VILLAND PO MEWLA KALAN,BLOCK SWAR,DISTRICT RAMPUR 244925",7534016288,RAMPUR,RAMPUR,"UTTAR PRADESH"
"PRATHAMA BANK",PRTH0023185,244843063,TANDA,"OPPOSITE GOVT. INTER COLLEGE RAMPUR ROAD, TANDA,┬áTEHSIL TANDS,┬áDISTT. RAMPUR",9756799185,RAMPUR,RAMPUR,"UTTAR PRADESH"
"PRATHAMA BANK",PRTH0023168,244843254,DARIYAL,"P.O. DARIYAL(VIATANDA BADLI)TEHSIL ┬û SWAR,DISTT. RAMPUR",2564966,RAMPUR,RAMPUR,"UTTAR PRADESH"
"PRATHAMA BANK",PRTH0023160,244843202,CHAUKHANDI,"P.O. CHAUKHANDI ,TEHSIL-SWAR,DISTT- RAMPUR PIN-244713",2590386,RAMPUR,RAMPUR,"UTTAR PRADESH"
"PRATHAMA BANK",PRTH0023159,244843168,"SAINTA KHERA","P.O. TANDA(BADLI)┬á,TEHSIL-SWAR,DISTT- RAMPUR PIN-244924",9927030646,RAMPUR,RAMPUR,"UTTAR PRADESH"
"PRATHAMA BANK",PRTH0023135,244843074,"RAMNAGAR LATIFPUR","P.O. RAMNAGAR LATIFPUR,TEHSIL-SWAR,DISTT- RAMPUR PIN-244925",9927030647,RAMPUR,RAMPUR,"UTTAR PRADESH"
"PRATHAMA BANK",PRTH0023116,244843260,"CHANDUPURA SIKAMPUR","P.O. LAMBA KHERA,TEHSIL-SWAR VIA TANDA,DISTT- RAMPUR",2549262,RAMPUR,RAMPUR,"UTTAR PRADESH"
"PRATHAMA BANK",PRTH0023115,244843258,"PEEPLI NAYAK","P.O. PEEPLINAYAK VIA TANDA,TEHSIL-SWAR,DISTT- RAMPUR",2565033,RAMPUR,RAMPUR,"UTTAR PRADESH"
"PRATHAMA BANK",PRTH0022392,NA,MAHARAJPUR,"BLOCK & TEHSIL-SWAR, PO MANPUR, DISTT. RAMPUR",7055715392,RAMPUR,RAMPUR,"UTTAR PRADESH"
"PRATHAMA BANK",PRTH0022391,NA,BEGUMABAD,"BLOCK AND TEHSIL BILASPUR, PO BEGUMABAD,DISTT.RAMPUR",7055715391,MORADABAD,MORADABAD,"UTTAR PRADESH"
"PRATHAMA BANK",PRTH0022388,NA,VIKRAMPUR,"BLOCK & TEHSIL-MILAK,PO. MILAK, DISTT. RAMPUR",7055715388,RAMPUR,RAMPUR,"UTTAR PRADESH"
"PRATHAMA BANK",PRTH0022387,NA,"DHANELI PURVI","BLOCK & TEHSIL MILAK,P.O.KYORAR,DISTT.RAMPUR",7055715387,RAMPUR,RAMPUR,"UTTAR PRADESH"
"PRATHAMA BANK",PRTH0022385,NA,"NAWAB GANJ","NAWAB GANJ, BLOCK BILASPUR, DISTT. RAMPUR",7055715385,RAMPUR,RAMPUR,"UTTAR PRADESH"
"PRATHAMA BANK",PRTH0022382,NA,"AINJAN KHERA","AINJAN KHERA, BLOCK-MILAK, DISTT. RAMPUR",7055715382,RAMPUR,RAMPUR,"UTTAR PRADESH"
"PRATHAMA BANK",PRTH0022375,NA,NAYAGAON,"VILL.AND PO BISHARAT NAGAR,TEHSIL BILASPUR,DISTT.RAMPUR",7055715375,RAMPUR,RAMPUR,"UTTAR PRADESH"
"PRATHAMA BANK",PRTH0022372,NA,RAMPURA,"VILL.RAMPURA,PO AND TEHSIL SHAHBAD,DISTT.RAMPUR",7055715372,RAMPUR,RAMPUR,"UTTAR PRADESH"
"PRATHAMA BANK",PRTH0022371,NA,MEHMOODPUR,"VILL. MEHMOODPUR, PO CHIKTI RAM NAGAR, TEHSIL AND DISTT. RAMPUR",7055715371,RAMPUR,RAMPUR,"UTTAR PRADESH"
"PRATHAMA BANK",PRTH0022360,NA,"SHIV PURI","SHIVPURI VILLAGE BLOCK SWAR DIST RAMPUR",7055715360,SWAR,RAMPUR,"UTTAR PRADESH"
"PRATHAMA BANK",PRTH0022359,NA,"BAZAR NASRULLA KHAN","MOH. BAZAR NASRULLA KHAN POAND TEHSIL RAMPUR DISTT RAMPUR",7055715359,RAMPUR,RAMPUR,"UTTAR PRADESH"
"PRATHAMA BANK",PRTH0022351,NA,MATWALI,"VILL MATWALI PO KIRA TEHSIL SHAHBAD DISTT RAMPUR",7055715351,SHAHBAD,RAMPUR,"UTTAR PRADESH"
"PRATHAMA BANK",PRTH0022346,NA,KOOP,"VILL KOOP TEHSIL MILAK DISTT RAMPUR",7055715346,MILAK,RAMPUR,"UTTAR PRADESH"
"PRATHAMA BANK",PRTH0022335,NA,"NAGLIA AKIL","VILL NALIA AKIL TEHSIL AND DISTT RAMPUR",7055715335,RAMPUR,RAMPUR,"UTTAR PRADESH"
"PRATHAMA BANK",PRTH0022334,NA,"PIPALIA JAT","VILL PIPALIA JAT TEHSIL SWAR DISTT RAMPUR",7055715334,SWAR,RAMPUR,"UTTAR PRADESH"
"PRATHAMA BANK",PRTH0022320,NA,SONAKPUR,"VILL SONAKPUR POST SWAR 244924 DISTT RAMPUR",7055715320,RAMPUR,RAMPUR,"UTTAR PRADESH"
"PRATHAMA BANK",PRTH0022304,NA,"BILASPUR GATE","MOH BILASPUR GATE BLOCK AND TEHSIL RAMPUR",7534016304,RAMPUR,RAMPUR,"UTTAR PRADESH"
"PRATHAMA BANK",PRTH0022301,NA,"MILAK NAUKHARID","VILL MILAK NAUKHARID PO RAHMATGANJ BLOCK SWAR DISTRICT RAMPUR 244924",7534016301,RAMPUR,RAMPUR,"UTTAR PRADESH"
"PRATHAMA BANK",PRTH0022294,NA,"BHAINSIAN JWALAPUR","VILL AND PO BHAISIYAN JWALAPUR,BLOCK BILASPUR,DISTRICT RAMPUR 244921",7534016294,RAMPUR,RAMPUR,"UTTAR PRADESH"
"PRATHAMA BANK",PRTH0022291,NA,MATKHERA,"VILL AND PO MATKHERA BLOCK SWAR,DISTRICT RAMPUR 244921",7534016291,RAMPUR,RAMPUR,"UTTAR PRADESH"
"PRATHAMA BANK",PRTH0022286,NA,"BHOT BAQQAL","VILL AND PO BHOT BAQQAL,BLOCK SWAR,DISTRICTRAMPUR 244924",7534016286,RAMPUR,RAMPUR,"UTTAR PRADESH"
"PRATHAMA BANK",PRTH0022282,NA,PATWAI,"PATWAI VILL & PO PATWARI, DISTT RAMPUR-244901",7534016282,RAMPUR,RAMPUR,"UTTAR PRADESH"
"PRATHAMA BANK",PRTH0022270,NA,"KAUSHAL GANJ","PO KAUSHAL GANJ,BLOCK BILASPUR,DISTT RAMPUR 244923",0,RAMPUR,RAMPUR,"UTTAR PRADESH"
"PRATHAMA BANK",PRTH0022269,NA,BAGRAUA,"PO NAGALIA AQUIL,BLOCK SAID NAGAR,DISTT RAMPUR 244927",0,RAMPUR,RAMPUR,"UTTAR PRADESH"
"PRATHAMA BANK",PRTH0022268,NA,RATHONDA,"PO KHAMARIA,BLOCK MILAK,DISTT RAMPUR 243701",0,RAMPUR,RAMPUR,"UTTAR PRADESH"
"PRATHAMA BANK",PRTH0022267,NA,RAIPUR,"PO AJEETPUR,BLOCK CHAMRAWA,DISTT RAMPUR 244901",0,RAMPUR,RAMPUR,"UTTAR PRADESH"
"PRATHAMA BANK",PRTH0022261,NA,"LALPUR KALAN","VILLAGE AND POST LALPUR KALAN,BLOCK SAID NAGAR,DIST RAMPUR 244927",8191900261,RAMPUR,RAMPUR,"UTTAR PRADESH"
"PRATHAMA BANK",PRTH0022246,244843185,MURSAINA,"VILL & PO MURSAINA,BLOCK SAID NAGAR, DIST. RAMPUR-244927",8191900246,RAMPUR,RAMPUR,"UTTAR PRADESH"
"PRATHAMA BANK",PRTH0022239,244843174,"NARPAT NAGAR","VILL NARPAT NAGAR,POST-POONDAWALA,RAMPUR",8476010239,RAMPUR,RAMPUR,"UTTAR PRADESH"
"PRATHAMA BANK",PRTH0022226,244843104,AGAPUR,"VILL. & POST AGAPUR, TEHSIL SADAR,DISTT-RAMPUR",8449710226,RAMPUR,RAMPUR,"UTTAR PRADESH"
"PRATHAMA BANK",PRTH0022225,244843162,HAMEERPUR,"VILL & POST HAMEERPUR,TEHSIL THANDA,DISTT-RAMPUR",8449710225,RAMPUR,RAMPUR,"UTTAR PRADESH"
"PRATHAMA BANK",PRTH0022219,244843155,"GANGAPUR KHADEEM","VILL.GANGAPUR KHADEEM,POST SIMARIA TESHIL MILAK,DISTT-RAMPUR",8449710219,RAMPUR,RAMPUR,"UTTAR PRADESH"
"PRATHAMA BANK",PRTH0022209,244843752,DIBDIBA,"VILL DIBDIBA,POST-BILASPUR,TEHSIL-BILASPUR,DISTT-RAMPUR, PIN-244923(U.P)",8057911209,RAMPUR,RAMPUR,"UTTAR PRADESH"
"PRATHAMA BANK",PRTH0022197,244843184,SAIFNI,"VILL & P.O. SAIFNI,TEH:SHAHBADDISTT: RAMPUR PIN-202407",9756799197,RAMPUR,RAMPUR,"UTTAR PRADESH"
"PRATHAMA BANK",PRTH0022196,244843178,"MILAK KHANAM","VILL. MILAK KHANAM,POST OFFICE:MILAK KHANAM,TEH:SWAR,DISTT:RAMPUR PIN-244921",9756799196,RAMPUR,RAMPUR,"UTTAR PRADESH"
"PRATHAMA BANK",PRTH0022195,244843154,BHOT,"VILL & P.O.BHOT,TEH:RAMPUR,DISTT:RAMPUR PIN-244901",9756799195,RAMPUR,RAMPUR,"UTTAR PRADESH"
"PRATHAMA BANK",PRTH0022184,244843180,MASWASI,"HOLI CHAURAHA, KASHIPUR ROAD, MASVASI,┬áTEHSIL SWAR,┬áDISTT. RAMPUR",2555657,RAMPUR,RAMPUR,"UTTAR PRADESH"
"PRATHAMA BANK",PRTH0022183,244843105,PANWARIA,"BAREILLY ROAD, PANWARIA RAMPUR,TEHSIL RAMPUT,┬áDISTT. RAMPUR",2251717,RAMPUR,RAMPUR,"UTTAR PRADESH"
"PRATHAMA BANK",PRTH0022180,244843161,DHANORA,"VILL DHAMORA ,TEHSIL  MILAK,DISTT: RAMPUR",228233,RAMPUR,RAMPUR,"UTTAR PRADESH"
"PRATHAMA BANK",PRTH0022166,244843160,KEMRI,"V-KEMRI BILASPUR RAOD,TEHSIL-BILASPUR,DISTT RAMPUR PIN244921",2450405,RAMPUR,RAMPUR,"UTTAR PRADESH"
"PRATHAMA BANK",PRTH0022161,244843704,NARKHEDA,"P.O. NARKHERA TEHSIL-BILASPUR,DISTT- RAMPUR PIN-244921",2440236,RAMPUR,RAMPUR,"UTTAR PRADESH"
"PRATHAMA BANK",PRTH0022158,244843166,LOHAPATTI,"P.O. LOHAPATTI┬á,TEHSIL-MILAK,DISTT- RAMPUR PIN-244901",9927030557,RAMPUR,RAMPUR,"UTTAR PRADESH"
"PRATHAMA BANK",PRTH0022157,244843167,"RAS DANDIA","P.O. RASS DANDIYA,TEHSIL-MILAK┬á,DISTT- RAMPUR PIN- 244921",2457131,RAMPUR,RAMPUR,"UTTAR PRADESH"
"PRATHAMA BANK",PRTH0022156,244843158,SIMARIA,"VILL. & POST-SIMARIA┬á,TEHSIL-MILAK┬á,DISTT- RAMPUR PIN-243701",9927030633,RAMPUR,RAMPUR,"UTTAR PRADESH"
"PRATHAMA BANK",PRTH0022155,244843703,"PUNJAB NAGAR","P.O. MULLA KHERA┬áTEHSIL-BILASPUR,DISTT- RAMPUR PIN-244921",2415021,RAMPUR,RAMPUR,"UTTAR PRADESH"
"PRATHAMA BANK",PRTH0022153,244843181,MADHUKAR,"P.O. MADHUKAR,TEHSIL-SHAHBAD,DISTT- RAMPUR PIN-244922",9927030583,RAMPUR,RAMPUR,"UTTAR PRADESH"
"PRATHAMA BANK",PRTH0022152,244843176,SHAHBAD,"P.O. SHAHBAD,TEHSIL-SHAHBAD,DISTT- RAMPUR PIN-244922",264132,RAMPUR,RAMPUR,"UTTAR PRADESH"
"PRATHAMA BANK",PRTH0022151,244843183,"NAYA SAGARPUR","P.O. NAYA SAGARPUR,TEHSIL-SHAHBAD,DISTT- RAMPUR PIN-202411",9927030571,RAMPUR,RAMPUR,"UTTAR PRADESH"
"PRATHAMA BANK",PRTH0022150,244843171,SWAR,"P.O. SWAR,TEHSIL-SWAR,DISTT- RAMPUR PIN-244924",5952515134,RAMPUR,RAMPUR,"UTTAR PRADESH"
"PRATHAMA BANK",PRTH0022139,244843159,"SEVIA KALAN","P.O. MATHURAPUR KHURD,TEHSIL-SHAHBAD,DISTT- RAMPUR",9927030603,RAMPUR,RAMPUR,"UTTAR PRADESH"
"PRATHAMA BANK",PRTH0022137,244843702,BILASPUR,"P.O. BILASPUR,TEHSIL-BILASPUR,DISTT- RAMPUR PIN-244921",2412122,RAMPUR,RAMPUR,"UTTAR PRADESH"
"PRATHAMA BANK",PRTH0022134,244843170,MILAK,"P.O. MILAK┬á,TEHSIL-DISTT- RAMPUR PIN-244901",224129,RAMPUR,RAMPUR,"UTTAR PRADESH"
"PRATHAMA BANK",PRTH0022131,244843173,PATTIBASANTPUR,"P.O. PATTI BASANTPUR,TEHSIL-MILAK,DISTT- RAMPUR PIN-243701",9927030587,RAMPUR,RAMPUR,"UTTAR PRADESH"
"PRATHAMA BANK",PRTH0022128,244843165,"RAZA NAGAR","P.O. SWAR,TEHSIL-SWAR,DISTT- RAMPUR PIN-244924",2470338,RAMPUR,RAMPUR,"UTTAR PRADESH"
"PRATHAMA BANK",PRTH0022127,244843157,"AJEEM NAGAR","P.O. AZEEM NAGAR,TEHSILSADAR,DISTT- RAMPUR PIN-244901",9927030577,RAMPUR,RAMPUR,"UTTAR PRADESH"
"PRATHAMA BANK",PRTH0022126,244843153,BAKENIA,"P.O. BAKENIA,TEHSIL-RAMPUR,DISTT- RAMPUR PIN-244901",9927030594,RAMPUR,RAMPUR,"UTTAR PRADESH"
"PRATHAMA BANK",PRTH0022125,244843103,AJEETPUR,"P.O. AJEETPUR,TEHSIL-SADAR,DISTT- RAMPUR PIN-244901",2330761,RAMPUR,RAMPUR,"UTTAR PRADESH"
"PRATHAMA BANK",PRTH0022124,244843152,"DHANIAPUR SHANKARPUR","P.O. DHAMORA,TEHSIL ┬ûSADAR,DISTT-RAMPUR PIN-244901",228254,RAMPUR,RAMPUR,"UTTAR PRADESH"
"PRATHAMA BANK",PRTH0022118,244843164,MUBARAKPUR,"P.O. NIPNIYA,TEHSIL MILAK,DISTT- RAMPUR PIN-243701",9927030556,RAMPUR,RAMPUR,"UTTAR PRADESH"
"PRATHAMA BANK",PRTH0022117,244843175,PARAM,"P.O. PARAM,TEHSIL MILAK,DISTT- RAMPUR PIN-243701",9927030634,RAMPUR,RAMPUR,"UTTAR PRADESH"
"PRATHAMA BANK",PRTH0022114,244843163,SAMODIA,"P.O. SWAR,TEHSIL-SWAR,DISTT- RAMPUR PIN-244924",9927030574,RAMPUR,RAMPUR,"UTTAR PRADESH"
"PRATHAMA BANK",PRTH0022099,244843106,KOILA,"P.O. KOILA┬á,TEHSIL-SADAR,DISTT- RAMPUR PIN-244901",9927030596,RAMPUR,RAMPUR,"UTTAR PRADESH"
"PRATHAMA BANK",PRTH0022098,244843156,BARAKHAS,"P.O. BARA KHAS,TEHSIL-MILAK,DISTT- RAMPUR PIN-244901",9927030569,RAMPUR,RAMPUR,"UTTAR PRADESH"
"PRATHAMA BANK",PRTH0022097,244843177,"MEERPUR MEERAGUNJ","P.O. SWAR,TEHSIL-SWAR,DISTT- RAMPUR PIN-244924",9927030585,RAMPUR,RAMPUR,"UTTAR PRADESH"
"PRATHAMA BANK",PRTH0022096,244843751,"MANPUR OJHA","P.O. MANPUR OJHA,TEHSIL-BILASPUR,DISTT- RAMPUR PIN-244921",9927030590,RAMPUR,RAMPUR,"UTTAR PRADESH"
"PRATHAMA BANK",PRTH0022095,244843172,"SALAI BARA GAON","P.O. MILAK,TEHSIL-MILAK,DISTT- RAMPUR PIN-243701",9756799095,RAMPUR,RAMPUR,"UTTAR PRADESH"
"PRATHAMA BANK",PRTH0022094,244843151,ANWARIE,"P.O.ANWARIA,TEHSIL-BILASPUR,DISTT- RAMPUR PIN-244921",2420107,RAMPUR,RAMPUR,"UTTAR PRADESH"
"PRATHAMA BANK",PRTH0022093,244843179,PUSHWARA,"P.O. SWAR,TEHSIL-SWAR,DISTT- RAMPUR PIN-244924",2580035,RAMPUR,RAMPUR,"UTTAR PRADESH"
"PRATHAMA BANK",PRTH0022092,244843169,"REWARI KALAN","P.O. REWARI KALAN,TEHSIL-SHAHBAD,DISTT- RAMPUR PIN-244922",9927030601,RAMPUR,RAMPUR,"UTTAR PRADESH"
"PRATHAMA BANK",PRTH0022091,244843182,BARAGAON,"P.O.BARAGAON,TEHSIL-SHAHABAD,DISTT- RAMPUR PIN-244922",9927030569,RAMPUR,RAMPUR,"UTTAR PRADESH"
"PRATHAMA BANK",PRTH0022090,244843102,"RAMPUR MAIN","P.O. MESTON GUNJ, RAMPUR,TEHSIL-SADAR,DISTT-RAMPUR",2325168,RAMPUR,RAMPUR,"UTTAR PRADESH"
"PRATHAMA BANK",PRTH0022000,NA,"RO RAMPUR","PRATHAMA BANK RO, NAVIN MARKET, RAJDWARA ROAD, RAMPUR",9837001685,RAMPUR,RAMPUR,"UTTAR PRADESH"
"PRATHAMA BANK",PRTH0021163,244843107,SARAWA,"P.O. SAID NAGAR┬á,TEHSIL-RAMPUR,DISTT- RAMPUR",9927030573,RAMPUR,RAMPUR,"UTTAR PRADESH"
"PRATHAMA BANK",PRTH0016413,NA,"RAI SATTI","BLOCK,TEHSIL,DISTT SAMBHAL",8941889413,SAMBHAL,SAMBHAL,"UTTAR PRADESH"
"PRATHAMA BANK",PRTH0016412,NA,RAHOLI,"VILL RAHOLI BLOCK BANIA KHERA TEHSIL CHANDAUSI DISTT SAMBHAL",8941889412,SAMBHAL,SAMBHAL,"UTTAR PRADESH"
"PRATHAMA BANK",PRTH0016402,NA,NARANGPUR,"VILL NARANGPUR PO RUDAYAN TEHSIL AND DIST SAMBHAL",7055715402,SAMBHAL,SAMBHAL,"UTTAR PRADESH"
"PRATHAMA BANK",PRTH0016401,NA,"BARIPUR BHAMRAUA","VILL BARIPUR BHAMRAUA,NEAR SIRSI ROAD,TEHSIL SAMBHAL PIN 244302",7055715401,SAMBHAL,SAMBHAL,"UTTAR PRADESH"
"PRATHAMA BANK",PRTH0016400,NA,"FAREED PUR KAUSHAL","VILL AND PO FAREED PUR KAUSHAL BLOCK BEHJOI TEHSIL SAMBHAL PIN 244410",7055715400,SAMBHAL,SAMBHAL,"UTTAR PRADESH"
"PRATHAMA BANK",PRTH0016399,NA,"DHEEMAR KHERI","VILL DHEEMAR KHERI NEAR SIRSI SAMBHAL ROAD SAMBHAL PIN 244302",7055715399,SAMBHAL,SAMBHAL,"UTTAR PRADESH"
"PRATHAMA BANK",PRTH0016390,NA,BARAHI,"BLOCK SAMBHAL, TEHSIL AND DIST. SAMBHAL",7055715390,SAMBHAL,SAMBHAL,"UTTAR PRADESH"
"PRATHAMA BANK",PRTH0016384,NA,HISAMPUR,"HISAMPUR, BLOCK-DINGARPUR,DISTT.MORADABAD",7055715384,MORADABAD,MORADABAD,"UTTAR PRADESH"
"PRATHAMA BANK",PRTH0016381,NA,AKRAULI,"VILL.AND PO-AKRAULI, TEH- CHANDAUSI,DISTT. SAMBHAL",7055715381,SAMBHAL,SAMBHAL,"UTTAR PRADESH"
"PRATHAMA BANK",PRTH0016380,NA,"RASOOLPUR DHATRA","VILL.RASOOLPUR DHATRA,PO SARAI TAREEN, DIST. SAMBHAL",7055715380,SAMBHAL,SAMBHAL,"UTTAR PRADESH"
"PRATHAMA BANK",PRTH0016377,NA,"AMIYAPUR PACHAK","VILL.AMIYAPUR PACHAK,PO GUMTHAL,TEH-CHANDAUSI,DISTT.SAMBHAL",7055715377,SAMBHAL,SAMBHAL,"UTTAR PRADESH"
"PRATHAMA BANK",PRTH0016366,NA,"NAI BASTI HATIM SARAI","VILL.AND PO NAI BASTI HATIM SARAI,TEHSIL SAMBHAL,DISTT.SAMBHAL",7055715366,SAMBHAL,SAMBHAL,"UTTAR PRADESH"
"PRATHAMA BANK",PRTH0016365,NA,"RUSTAMNAGAR NIYAMALI","VILL. AND PO RUSTAMPUR NIYAWALI, TEHSIL SAMBHAL, DISTT. SAMBHAL",7055715365,SAMBHAL,SAMBHAL,"UTTAR PRADESH"
"PRATHAMA BANK",PRTH0016364,NA,"RASOOLPUR ADDA","VILL.RASOOLPUR HAMIR,PO FATEHPUR,BLOCK-DINGARPUR TEHSIL BILARI,DISTT. MORADABAD",7055715364,SAMBHAL,MORADABAD,"UTTAR PRADESH"
"PRATHAMA BANK",PRTH0016363,NA,LALWARA,"VILL. LALWARA, PO DINGARPUR, TEHSIL BILARI, DISTT. MORADABAD",7055715363,SAMBHAL,MORADABAD,"UTTAR PRADESH"
"PRATHAMA BANK",PRTH0016362,NA,MAI,"VILL. AND PO MAI,TEHSIL CHANDAUSI,DISTT.SAMBHAL",7055715362,SAMBHAL,SAMBHAL,"UTTAR PRADESH"
"PRATHAMA BANK",PRTH0016354,NA,"BICHETA KAJI","VILL BICHETA KAJI TEHSIL BILARI DISTT MBD",7055715354,BILARI,MORADABAD,"UTTAR PRADESH"
"PRATHAMA BANK",PRTH0016352,NA,RATANPUR,"RATANPUR VILLAGE PO BAHETA KHAS TEHSIL BILARI DISTT MBD",7055715352,BILARI,MORADABAD,"UTTAR PRADESH"
"PRATHAMA BANK",PRTH0016350,NA,ATTA,"VILL ATTA PO MAULA GARH TEHSIL CHANDAUSI DISTT SAMBHAL",7055715350,SAMBHAL,SAMBHAL,"UTTAR PRADESH"
"PRATHAMA BANK",PRTH0016349,NA,"BARAULI RUSTAMPUR","VILL AND PO BARAULI RUSTAMPUR TEHSIL AND DISTT SAMBHAL",7055715349,SAMBHAL,SAMBHAL,"UTTAR PRADESH"
"PRATHAMA BANK",PRTH0016348,NA,RAMPURA,"VILL AND PO RAMPUR TEHSIL SAMBHAL DISTT SAMBHAL",7055715348,SAMBHAL,SAMBHAL,"UTTAR PRADESH"
"PRATHAMA BANK",PRTH0016345,NA,TAHARPUR,"VILL TAHARPUR DISTT MORADABAD",7055715345,MORADABAD,MORADABAD,"UTTAR PRADESH"
"PRATHAMA BANK",PRTH0016344,NA,"SALARPUR KALAN","VILL SALARPUR KALAN TEHSIL AND DISTT SAMBHAL",7055715344,SAMBHAL,SAMBHAL,"UTTAR PRADESH"
"PRATHAMA BANK",PRTH0016324,NA,SALAKHANA,"VILL SALAKHANA TEHSIL SAMBHAL DISTT SAMBHAL",7055715324,SAMBHAL,SAMBHAL,"UTTAR PRADESH"
"PRATHAMA BANK",PRTH0016323,NA,"SHAHPUR CHAMARAN","SHAHPUR CHAMARAN VILLAGE TEH .SAMBHAL DISTT SAMBHAL",7055715323,SAMBHAL,SAMBHAL,"UTTAR PRADESH"
"PRATHAMA BANK",PRTH0016322,NA,SIHAWALI,"VILL SIHAWALI POST GAUHAT 244303 SAMBHAL",7055715322,SAMBHAL,SAMBHAL,"UTTAR PRADESH"
"PRATHAMA BANK",PRTH0016310,NA,HISAMPUR,"VILL HISAMPUR POST CHAMRAULA 244302 DISTT SAMBHAL",7055715310,SAMBHAL,SAMBHAL,"UTTAR PRADESH"
"PRATHAMA BANK",PRTH0016309,NA,"PRATHAMA BANK","VILL KHARAGRANI POST SAUDHAN MOHAMMADPUR 244303 DISTT SAMBHAL",7055715309,SAMBHAL,SAMBHAL,"UTTAR PRADESH"
"PRATHAMA BANK",PRTH0016308,NA,"PRATHAMA BANK","VILL & POST SADAWATI-244410 DISTT.SAMBHAL",7055715308,SAMBHAL,SAMBHAL,"UTTAR PRADESH"
"PRATHAMA BANK",PRTH0016307,NA,BHATPURA,"VILL BHATPURA TEH. SAMBHAL DISTT SAMBHAL",7055715307,SAMBHAL,SAMBHAL,"UTTAR PRADESH"
"PRATHAMA BANK",PRTH0016306,NA,"ASALAT NAGAR BAGA","VILL. ASALAT NAGAR BAGA POST MAINATHER-244301 DIST MORADABAD",7055715306,MORADABAD,MORADABAD,"UTTAR PRADESH"
"PRATHAMA BANK",PRTH0016299,NA,"HAZRAT NAGARGADHI","VILL AND PO HAZRAT NAGAR GARHI,BLOCK SAMBHAL,DISTRICT SAMBHAL 244301",7534016299,SAMBHAL,SAMBHAL,"UTTAR PRADESH"
"PRATHAMA BANK",PRTH0016298,NA,FIROZPUR,"VILL AND PO SAMBHAL BLOCK SAMBHAL,DISTRICT SAMBHAL 244302",7534016298,SAMBHAL,SAMBHAL,"UTTAR PRADESH"
"PRATHAMA BANK",PRTH0016295,NA,"KANETA NIKAT BEHJOI","VILL AND PO RAMPURA BLOCK BEHJOI DISTRICT SAMBHAL 244410",7534016295,SAMBHAL,SAMBHAL,"UTTAR PRADESH"
"PRATHAMA BANK",PRTH0016290,NA,"LADAM SARAI","PO SAMBHAL,BLOCK SAMBHAL,DISTRICT SAMBHAL 244302",7534016290,SAMBHAL,SAMBHAL,"UTTAR PRADESH"
"PRATHAMA BANK",PRTH0016279,NA,"KELA DEVI","PO THATI,BLOCK PAWANSA,DISTT MORADABAD 244302",0,MORADABAD,MORADABAD,"UTTAR PRADESH"
"PRATHAMA BANK",PRTH0016278,NA,"TURTIPUR ILLAHA","PO SAMBHAL,BLOCK SAMBHAL,DISTRICT SAMBHAL 244302",7534016278,SAMBHAL,SAMBHAL,"UTTAR PRADESH"
"PRATHAMA BANK",PRTH0016271,NA,BHAWAN,"PO KASAULI,BLOCK BEHJOI,DISTT MORADABAD 244302",0,MORADABAD,MORADABAD,"UTTAR PRADESH"
"PRATHAMA BANK",PRTH0016249,244843657,DEHPA,"VILL & PO DEHPA BLOCK SAMBHAL, DIST. MORADABAD-244242",8191900249,MORADABAD,MORADABAD,"UTTAR PRADESH"
"PRATHAMA BANK",PRTH0016240,244843656,JATPURA,"VILL.JATPURA,P.O.FATEHPUR KHAS,TEHSEEL BILARI,MORADABAD",8476010240,MORADABAD,MORADABAD,"UTTAR PRADESH"
"PRATHAMA BANK",PRTH0016238,244843609,BABINA,"VILL. BABINA,P.O.MOHARA RATUPURA,BHEEM NAGAR",8476010238,MORADABAD,MORADABAD,"UTTAR PRADESH"
"PRATHAMA BANK",PRTH0016229,244843653,"TANDA KOTHI","VILL. TANDA KOTHI P.O.KHASPUR,TEHSEEL SAMBHAL,BHEEM NAGAR",8449710229,MORADABAD,MORADABAD,"UTTAR PRADESH"
"PRATHAMA BANK",PRTH0016228,244843603,"NOORAI SARAI","VILL. NOORAI SARAI P.O.MEERIYASARAI,TEHSEEL SAMBHAL,BHEEM NAGAR",8449710228,MORADABAD,MORADABAD,"UTTAR PRADESH"
"PRATHAMA BANK",PRTH0016227,202843105,PATHARA,"VILL. PATHARA P.O. MAI,TEHSIL-CHANDAUSI, DISTT-BHEEM NAGAR",8449710227,MORADABAD,MORADABAD,"UTTAR PRADESH"
"PRATHAMA BANK",PRTH0016224,244843605,KHAGUPURA,"VILL.KHABUPURA,P.O.SAMBHAL,BHEEM NAGAR",8449710224,MORADABAD,MORADABAD,"UTTAR PRADESH"
"PRATHAMA BANK",PRTH0016210,244843616,"MEHMOODPUR MAFI","VILL-MEHMOODPUR MAFI,POST.-SIRSI,TEHSIL-BILARI,DISTT-MORADABAD,",8057911210,MORADABAD,MORADABAD,"UTTAR PRADESH"
"PRATHAMA BANK",PRTH0016194,202843104,"ASALATPUR JARAI","POST OFFICE:ASALATPUR JARAI,TEHSIL CHANDAUSI,┬áDISTT: MORADABAD",9756799194,MORADABAD,MORADABAD,"UTTAR PRADESH"
"PRATHAMA BANK",PRTH0016178,202843151,BEHJOI,"TEHSIL SAMBHAL,DISTT: MORADABAD.",243377,MORADABAD,MORADABAD,"UTTAR PRADESH"
"PRATHAMA BANK",PRTH0016167,202843111,NARAULI,"MAIN MARKET, TEHSIL- CHANDAUSI DISTT. MORDABAD",246423,MORADABAD,MORADABAD,"UTTAR PRADESH"
"PRATHAMA BANK",PRTH0016123,244843610,"MADALA FATEHPUR","P.O. ASMOLI TEH. SAMBHAL DISTT. MORADABAD",9927030563,MORADABAD,MORADABAD,"UTTAR PRADESH"
"PRATHAMA BANK",PRTH0016113,244843608,"RAMPUR URF YARPUR","P.O. RAMPUR URF YARPUR,TEHSIL. SAMBHAL DISTT. MORADABAD",9927030562,MORADABAD,MORADABAD,"UTTAR PRADESH"
"PRATHAMA BANK",PRTH0016112,244843607,"KHIRNI MOINUDDINPUR","P.O. AMAWATI KUTUBPUR TEHSIL. SAMBHAL DISTT. MORADABAD",9927030664,MORADABAD,MORADABAD,"UTTAR PRADESH"
"PRATHAMA BANK",PRTH0016111,202843114,"MOHDPUR WABAI","P.O. M.P. WABAI TEHSIL. CHANDAUSI DISTT. MORADABD",246222,MORADABAD,MORADABAD,"UTTAR PRADESH"
"PRATHAMA BANK",PRTH0016101,202843110,BERNI,"P.O. BERNI, TEHSIL- CHANDAUSI DISTT. MORADABAD",233271,MORADABAD,MORADABAD,"UTTAR PRADESH"
"PRATHAMA BANK",PRTH0016088,244843602,SAMBHAL,"NEAR ROADWAYS BUS STAND P.O. SAMBHAL, TEHSIL. SAMBHAL┬á DISTT. MORADABAD",230251,MORADABAD,MORADABAD,"UTTAR PRADESH"
"PRATHAMA BANK",PRTH0016087,244843652,"SAUDHAN MOHAMMADPUR","P.O. SODHAN MOHD.PUR TEHSIL- SAMBHAL, DISTT. MORADABAD",9927030663,MORADABAD,MORADABAD,"UTTAR PRADESH"
"PRATHAMA BANK",PRTH0016084,202843113,"AMARPUR KASHI","P.O. AMARPUR KASHI TEHSIL, BILARI DISTT. MORDABAD",9927030580,MORADABAD,MORADABAD,"UTTAR PRADESH"
"PRATHAMA BANK",PRTH0016083,202843102,CHANDAUSI,"P.O. & TEHSIL. CHANDAUSI, DISTT. MORADABAD",250355,MORADABAD,MORADABAD,"UTTAR PRADESH"
"PRATHAMA BANK",PRTH0016075,202843109,"DAROLI AFZALPUR","P.O. ┬ûDAROLI AFZALPUR VIA NAROLI TEHSIL.CHANDAUSI DISTT.MORADABAD",9927030576,MORADABAD,MORADABAD,"UTTAR PRADESH"
"PRATHAMA BANK",PRTH0016074,202843108,JANETA,"P.O. JANETA TEHSIL.CHANDAUSI DISTT. MORDABAD",246465,MORADABAD,MORADABAD,"UTTAR PRADESH"
"PRATHAMA BANK",PRTH0016064,244843654,MAINATHER,"P.O. MAINATHER┬á TEHSIL.BILARI DISTT. MORADABAD",9927030567,MORADABAD,MORADABAD,"UTTAR PRADESH"
"PRATHAMA BANK",PRTH0016062,202843153,MAUKATHER,"P.O. MAUKATHER TEHSIL. CHANDAUSI DISTT. MORADABAD",9927030582,MORADABAD,MORADABAD,"UTTAR PRADESH"
"PRATHAMA BANK",PRTH0016056,202843107,BANIAKHERA,"P.O. BANIAKHERA TEHSIL.CHANDAUSI DISTT. MORADABAD",9927030579,MORADABAD,MORADABAD,"UTTAR PRADESH"
"PRATHAMA BANK",PRTH0016053,244843606,BHAWANIPUR,"P.O. BHAWANIPUR TEHSIL.SAMBHAL DISTT. MORADABAD",9756799053,MORADABAD,MORADABAD,"UTTAR PRADESH"
"PRATHAMA BANK",PRTH0016049,244843651,"LAKHORI JALALPUR","P.O. LAKHORI JALALPUR TEHSIL.SAMBHAL DISTT. MORADABAD",9756799049,MORADABAD,MORADABAD,"UTTAR PRADESH"
"PRATHAMA BANK",PRTH0016041,244843615,"MOHDPUR TANDA","P.O. MOHDPUR TANDA, TEHSIL SAMBHAL┬á DISTT. MORADABAD",9756799041,MORADABAD,MORADABAD,"UTTAR PRADESH"
"PRATHAMA BANK",PRTH0016035,244843614,"SINGPUR SAINI","P.O. SINGHPUR SANI TEHSIL SAMBHAL DISTT. MORADABAD",9756799035,MORADABAD,MORADABAD,"UTTAR PRADESH"
"PRATHAMA BANK",PRTH0016033,202843152,PATHAKPUR,"P.O. PATHAKPUR TEHSIL CHANDAUSI DISTT. MORADABAD",9756799033,MORADABAD,MORADABAD,"UTTAR PRADESH"
"PRATHAMA BANK",PRTH0016032,202843112,"MANJHOLA RAJA KA","P.O. MAJHOLA RAJA KA TEHSIL CHANDAUSI DISTT. MORADABAD",9756799032,MORADABAD,MORADABAD,"UTTAR PRADESH"
"PRATHAMA BANK",PRTH0016031,202843106,KAITHAL,"P.O. KAITHAL TEHSIL CHANDAUSI DISTT. MORADABAD",9756799031,MORADABAD,MORADABAD,"UTTAR PRADESH"
"PRATHAMA BANK",PRTH0016028,244843655,DEENGARPUR,"P.O. DINGERPUR TEHSIL BILARI, DISTT. MORADABAD",9756799028,MORADABAD,MORADABAD,"UTTAR PRADESH"
"PRATHAMA BANK",PRTH0016027,202843103,GUMTHAL,"BAHJOI ROAD, CHANDAUSI , TEHSIL CHANDAUSI DISTT. MORADABAD",9756799027,MORADABAD,MORADABAD,"UTTAR PRADESH"
"PRATHAMA BANK",PRTH0016019,244843613,ASMOLI,"P.O. ASMOLI TEH.SAMBHAL DISTT. MORADABAD.",9756799019,MORADABAD,MORADABAD,"UTTAR PRADESH"
"PRATHAMA BANK",PRTH0016014,244843604,SARAITAREEN,"P.O. SARAI TAREEN P.O. SAMBHAL DISTT. MORADABAD.",9756799014,MORADABAD,MORADABAD,"UTTAR PRADESH"
"PRATHAMA BANK",PRTH0016004,244843612,PAWANSA,"VILL. PAWANSA, P.O. PAWANSA, TEH.SAMBHAL, DISTT. MORADABAD.",9756799004,MORADABAD,MORADABAD,"UTTAR PRADESH"
"PRATHAMA BANK",PRTH0016003,244843611,SIRSI,"MOH. SADAQ SARAI, P.O. SIRSI,┬áTEH. SAMBHAL DISTT. MORADABAD.",9756799003,MORADABAD,MORADABAD,"UTTAR PRADESH"
"PRATHAMA BANK",PRTH0016000,NA,"RO SAMBHAL","PRATHAMA BANK RO, SAMBHAL, NEAR SANKAR COLLEGE, SAMBHAL",9837001684,MORADABAD,MORADABAD,"UTTAR PRADESH"
"PRATHAMA BANK",PRTH0014410,NA,RATUPUR,"VILL RATUPUR BLOCK ASMOLI DISTT SAMBHAL",7055715410,SAMBHAL,SAMBHAL,"UTTAR PRADESH"
"PRATHAMA BANK",PRTH0014383,NA,SALEMPUR,"SALEMPUR,BLOCK-CHHIJLET, DISTT.MORADABAD",7055715383,MORADABAD,MORADABAD,"UTTAR PRADESH"
"PRATHAMA BANK",PRTH0014376,NA,"BABU KHERA","VILL BABU KHERA.PO SAIDPUR GANGOO, TEHSIL AND DISTT.SAMBHAL",7055715376,AMROHA,SAMBHAL,"UTTAR PRADESH"
"PRATHAMA BANK",PRTH0014361,NA,"JAHANGIRPUR CHAK FERI","VILL AND PO JAHANGIRPUR CHAK FERI,TEHSIL KANTH,DISTT. MORADABAD",7055715361,AMROHA,MORADABAD,"UTTAR PRADESH"
"PRATHAMA BANK",PRTH0014339,NA,"BAGARPUR KALAN","VILL BAGARPUR KALAN TEHSIL KANTH DISTT MORADABAD",7055715339,KANTH,MORADABAD,"UTTAR PRADESH"
"PRATHAMA BANK",PRTH0014337,NA,"NAYA GAON AKBARPUR CHENDRI","VILL NAYA GAON AKBARPUR CHENDRI TEHSIL KANTH DISTT MORADABAD",7055715337,MORADABAD,MORADABAD,"UTTAR PRADESH"
"PRATHAMA BANK",PRTH0014316,NA,"MANDAWALI RASOOLPUR","MANDAWALI RASOOLPUR POST ASMOLI 244304 DISTT SAMBHAL",7055715316,SAMBHAL,SAMBHAL,"UTTAR PRADESH"
"PRATHAMA BANK",PRTH0014315,NA,CHANDBAR,"VILL CHANDBAD POST OBRI 244102 DISTT SAMBHAL",7055715315,SAMBHAL,SAMBHAL,"UTTAR PRADESH"
"PRATHAMA BANK",PRTH0014314,NA,"MUBARAKPUR BAND","VILL MUBARAKPUR BAND POST KHASPUR 244102 DISTT SAMBHAL",7055715314,SAMBHAL,SAMBHAL,"UTTAR PRADESH"
"PRATHAMA BANK",PRTH0014313,NA,"PALLUPURA GHOSI","VILL PALLUPURA GHOSI PAKWARA 244102 DISTT MORADABAD",7055715313,MORADABAD,MORADABAD,"UTTAR PRADESH"
"PRATHAMA BANK",PRTH0014259,244843617,"BHAWALPUR WASLI","BLOCK ASMOLI TEHSIL SAMBHAL,DISTT. MORADABAD",8191900259,MORADABAD,MORADABAD,"UTTAR PRADESH"
"PRATHAMA BANK",PRTH0014253,244843581,"KOTHI KHIDMATPUR","VILL. & PO KOTHI KHIDMATPUR, BLOCK CHHIJLET, TEHSIL KANTH DIST MORADABAD-244501",8191900253,MORADABAD,MORADABAD,"UTTAR PRADESH"
"PRATHAMA BANK",PRTH0014252,244843580,"MUNDA KHERI","VILL.& PO MUNDHA KHERI, BLOCK CHHIJLET, TEHSIL KANTH DIST MORADABAD-244221",8191900252,MORADABAD,MORADABAD,"UTTAR PRADESH"
"PRATHAMA BANK",PRTH0014221,244843578,GUMSANI,"VILL. & POST GUMSANI,BLOCK ASMOLI, TEHSIL SAMBHAL, DISTT-J.P.NAGAR,PIN-244255,(U.P)",8449710221,MORADABAD,MORADABAD,"UTTAR PRADESH"
"PRATHAMA BANK",PRTH0014212,244843569,"SHAHBAJPUR KALAN","VILL & POST SHAHBAZPUR KALAN, TEHSIL-SAMBHAL,DISTT-MORADABAD,",8057911212,MORADABAD,MORADABAD,"UTTAR PRADESH"
"PRATHAMA BANK",PRTH0014181,244843577,SAMADPUR,"VILL. SAMADPUR, POST SADARPUR, MATLABPUR, TEHSIL KANTH,DISTT,.MORADABAD",9756799181,MORADABAD,MORADABAD,"UTTAR PRADESH"
"PRATHAMA BANK",PRTH0014177,244843571,KANTH,"P.O. KANTH,DISTT:- MORADABAD",9927030559,MORADABAD,MORADABAD,"UTTAR PRADESH"
"PRATHAMA BANK",PRTH0014164,244843574,"KURI RAVANA","P.O. KURI RAWANA TEHSIL-KANTH DISTT.MORADABAD",2225601,MORADABAD,MORADABAD,"UTTAR PRADESH"
"PRATHAMA BANK",PRTH0014145,244843564,MANAUTA,"P.O. MANAUTA TEHSIL-SAMBHAL DISTT. MORADABAD",9927030639,MORADABAD,MORADABAD,"UTTAR PRADESH"
"PRATHAMA BANK",PRTH0014132,244843557,NEKPUR,"P.O. SAGHAN MACHERIA (VIA JOYA) TEHSIL-SAMBHAL DISTT. MORADABD",9927030635,MORADABAD,MORADABAD,"UTTAR PRADESH"
"PRATHAMA BANK",PRTH0014107,244843570,"MAGHPURI INAYATPURI","P.O. CHHIJLET VIA KANTH TEHSIL. KANTH DISTT. KANTH",2330688,MORADABAD,MORADABAD,"UTTAR PRADESH"
"PRATHAMA BANK",PRTH0014079,244843576,MISHRIPUR,"P.O. KANTH TEHSIL. KANTH DISTT. MORADABAD",2221846,MORADABAD,MORADABAD,"UTTAR PRADESH"
"PRATHAMA BANK",PRTH0014071,244843516,PAIGAMBERPUR,"P.O. GAJANA TEHSIL. KANTH DISTT. MORADABAD",275162,MORADABAD,MORADABAD,"UTTAR PRADESH"
"PRATHAMA BANK",PRTH0014054,244843572,"LODHIPUR RAJPOOT","P.O. PAKBARA TEHSIL. & DISTT. MORADABAD",2360477,MORADABAD,MORADABAD,"UTTAR PRADESH"
"PRATHAMA BANK",PRTH0014047,244843575,MADHAN,"P.O. MADHAN TEHSIL. SAMBHAL┬áDISTT. MORADABAD",9756799047,MORADABAD,MORADABAD,"UTTAR PRADESH"
"PRATHAMA BANK",PRTH0014018,244843552,"UMARI KALAN","P.O. UMRI KALAN TEH.KANTH DISTT. MORADABAD.",9756799018,MORADABAD,MORADABAD,"UTTAR PRADESH"
"PRATHAMA BANK",PRTH0014017,244843573,"GARHEE SALEEMPUR","P.O. GARHI SALEMPUR TEH.KANTH DISTT. MORADABAD.",9756799017,MORADABAD,MORADABAD,"UTTAR PRADESH"
"PRATHAMA BANK",PRTH0014010,244843568,CHHIJLET,"P.O. CHHIJLET TEH.KANTH DISTT. MORADABAD.",9756799010,MORADABAD,MORADABAD,"UTTAR PRADESH"
"PRATHAMA BANK",PRTH0013411,NA,BITHOOATHER,"VILL BITHOOATHER BLOCK DILARI TEHSIL THAKURDWARA DISTT MORADABAD",7055715411,MORADABAD,MORADABAD,"UTTAR PRADESH"
"PRATHAMA BANK",PRTH0013394,NA,BHOJPUR,"VILL AND PO BHOJPUR BLOCK BP TANDA TEHSIL MORADABAD PIN 244402",7055715394,MORADABAD,MORADABAD,"UTTAR PRADESH"
"PRATHAMA BANK",PRTH0013369,NA,GAKKHARPUR,"GAKKHARPUR, BLOCK- DILARI, DISTT.MORADABAD",7055715369,MORADABAD,MORADABAD,"UTTAR PRADESH"
"PRATHAMA BANK",PRTH0013368,NA,"SARDAR NAGAR","VILL. AND PO SARDAR NAGAR, BLOCK B.P. TANDA, TEHSIL-THAKURDWARA, DISTT. MORADABAD",7055715368,THAKURDWARA,MORADABAD,"UTTAR PRADESH"
"PRATHAMA BANK",PRTH0013355,NA,"NIWAR KHAS","VILL NIWAR KHAS PO MANPUR TEHSIL ANDDISTT MBD",7055715355,MORADABAD,MORADABAD,"UTTAR PRADESH"
"PRATHAMA BANK",PRTH0013353,NA,"MEHMOODPUR TIGRI","VILL MEHMOODPUR TIGRI PO LALUWALA TEHSIL THAKURDWARA DISTT MORADABAD",7055715353,THAKURDWARA,MORADABAD,"UTTAR PRADESH"
"PRATHAMA BANK",PRTH0013347,NA,"ISLAM NAGAR CHAURAHA","ISLAM NAGAR CHAURAHA VILLAGE TESHIL AND DISTT.MBD",7055715347,THAKURDWARA,MORADABAD,"UTTAR PRADESH"
"PRATHAMA BANK",PRTH0013343,NA,"BHORANPUR KALAN","VILL BHORANPUR KALAN TEHSIL AND DISTT MBD",7055715343,MORADABAD,MORADABAD,"UTTAR PRADESH"
"PRATHAMA BANK",PRTH0013332,NA,"DHARA KA NAGLA","VILL DHARA KA NAGLA TEHSIL THAKURDWARA DISTT MORADABAD",7055715332,THAKURDWARA,MORADABAD,"UTTAR PRADESH"
"PRATHAMA BANK",PRTH0013331,NA,BHAIPUR,"VILL BHAIPUR TEHSIL THAKURDWARA DISTT MORADABAD",7055715331,THAKURDWARA,MORADABAD,"UTTAR PRADESH"
"PRATHAMA BANK",PRTH0013330,NA,"SARKARA PARAM","VILL SARKARA PARAM TEHSIL THAKURDWARA DISTT. MORADABAD",7055715330,THAKURDWARA,MORADABAD,"UTTAR PRADESH"
"PRATHAMA BANK",PRTH0013329,NA,ALIYABAD,"VILL ALIYABAD TEHSIL THAKURDWARA DISTT MORADABAD",7055715329,THAKURDWARA,MORADABAD,"UTTAR PRADESH"
"PRATHAMA BANK",PRTH0013312,NA,"GAJRAULA SAID","VILL GAJRAULA SAID POST BAHERI BRAHMNAN 244402 DISTT MORADABAD",7055715312,MORADABAD,MORADABAD,"UTTAR PRADESH"
"PRATHAMA BANK",PRTH0013311,NA,BAHERI,"VILL BAHERI POST MANPUR 244924 DISTT MORADBAD",7055715311,MOARADABAD,MORADABAD,"UTTAR PRADESH"
"PRATHAMA BANK",PRTH0013289,NA,"RAJUPUR KALAN","VILL AND PO RAJUPUR KALAN,BLOCK THAKURDWARA,DISTRICT MORADABAD",7534016289,MORADABAD,MORADABAD,"UTTAR PRADESH"
"PRATHAMA BANK",PRTH0013275,NA,"RAJUPUR MILAK","PO KISHANPUR GAMADI,BLOCK THAKURDWARA,MORADABAD",0,MORADABAD,MORADABAD,"UTTAR PRADESH"
"PRATHAMA BANK",PRTH0013274,NA,"MANKUA MAKSOODPUR","PO SIDLAU NAZARPUR,BLOCK DILARI,DISTT MORADABAD 244402",0,MORADABAD,MORADABAD,"UTTAR PRADESH"
"PRATHAMA BANK",PRTH0013273,NA,"MANPUR DUTTRAM","PO NANHOOWALA,BLOCK THAKURDWARA,DISTT MORADABAD 244601",0,MORADABAD,MORADABAD,"UTTAR PRADESH"
"PRATHAMA BANK",PRTH0013262,NA,RAGHUWALA,"POST RAGHUWALA,BLOCK THAKURDWARA,DIST MORADABAD 244601",8191900262,MORADABAD,MORADABAD,"UTTAR PRADESH"
"PRATHAMA BANK",PRTH0013257,244843271,"CHATARPUR NAYAK","VILL CHATARPUR NAYAK, PO MEVLA KALAN, BLOCK B.P. TANDA, DISTT. MORADABAD-244925",8191900257,MORADABAD,MORADABAD,"UTTAR PRADESH"
"PRATHAMA BANK",PRTH0013256,244843270,"TAH MADAN","VILL TAH MADAN, PO UDMA WALA BLOCK BHAGATPUR TANDA, DISTT MORADABAD-244925",8191900256,MORADABAD,MORADABAD,"UTTAR PRADESH"
"PRATHAMA BANK",PRTH0013255,244843269,"LALAPUR PEEPALSANA","VILL & PO SHERPUR PATTI, BLOCK & TEHSIL THAKURDWARA DIST MORADABAD-244602",8191900255,MORADABAD,MORADABAD,"UTTAR PRADESH"
"PRATHAMA BANK",PRTH0013250,244843268,"RAM NAGAR KHAGGUWALA","VILL RAM NAGAR KHAGUWALA, PO & BLOCK  THAKURDWARA DIST. MORADABAD-244601",8191900250,MORADABAD,MORADABAD,"UTTAR PRADESH"
"PRATHAMA BANK",PRTH0013245,244843264,EGRAHA,"VILL & PO EGRAHA, THESIL THAKURDWARA, DIST MORADABAD-244401",8476010245,MORADABAD,MORADABAD,"UTTAR PRADESH"
"PRATHAMA BANK",PRTH0013244,244843354,"KUA KHERA KHALSA","VILL.KUA KHERA KHALSA POST SARIFF NAGAR,TEHSIL THAKURDWARA,MORADABAD",8476010244,MORADABAD,MORADABAD,"UTTAR PRADESH"
"PRATHAMA BANK",PRTH0013242,244843057,"BARKHERA CHAK","VILL. BARKHERA CHAK P.O.MANPURA,THAKURDWARA,MORADABAD",8476010242,MORADABAD,MORADABAD,"UTTAR PRADESH"
"PRATHAMA BANK",PRTH0013241,244843076,"SARKARA KHAS (VISHNOI)","VILL.SARKARA KHAS P.O.SARKARAKHAS(VISHNOI) VIA DILARI,MORADABAD",8476010241,MORADABAD,MORADABAD,"UTTAR PRADESH"
"PRATHAMA BANK",PRTH0013237,244843263,"LONGI KALAN","VILL. LONGI KALAN,P.O.LONIKALAN,TEHSEEL  THAKURDWARA  244601",8476010237,MORADABAD,MORADABAD,"UTTAR PRADESH"
"PRATHAMA BANK",PRTH0013214,244843061,KAZIPURA,"VILL. KAZIPUR POST DILARI,TEHSIL THAKURDWARA, DISTT-MORADABAD",8449710214,MORADABAD,MORADABAD,"UTTAR PRADESH"
"PRATHAMA BANK",PRTH0013211,244843266,"CHANDPUR MUSTEHKUM","VILL & POST CHANDPUR MUSTAKAM,TEHSIL-MORADABAD,DISTT-MORADABAD (U.P),",8057911211,MORADABAD,MORADABAD,"UTTAR PRADESH"
"PRATHAMA BANK",PRTH0013192,244843262,JATPURA,"POST OFFICE: RAJPUR KESARIA,TEHSIL THAKURDWARA,┬áDISTT: MORADABAD┬á PIN-244001",9756799192,MORADABAD,MORADABAD,"UTTAR PRADESH"
"PRATHAMA BANK",PRTH0013176,244843351,DULHAPUR,"P.O. TANDA AFZAL┬á,DISTT:- MORADABAD",9927030667,MORADABAD,MORADABAD,"UTTAR PRADESH"
"PRATHAMA BANK",PRTH0013141,244843259,BAHADURNAGAR,"P.O. BAHADUR NAGAR TEHSIL-THAKURDWARA DISTT. MORADABAD",9927030644,MORADABAD,MORADABAD,"UTTAR PRADESH"
"PRATHAMA BANK",PRTH0013130,244843068,"TAGAWALA MANPUR","VIA MANPUR SABIT P.O. DILARI TEHSIL-THAKURDWARA DISTT. MORADABAD",9927030606,MORADABAD,MORADABAD,"UTTAR PRADESH"
"PRATHAMA BANK",PRTH0013129,244843064,"BAHERI BRAHAMNAN","P.O. BAHERI BRAHMANAN TEHSIL- THAKURDWARA DISTT. MORADABAD",2247877,MORADABAD,MORADABAD,"UTTAR PRADESH"
"PRATHAMA BANK",PRTH0013122,244843267,"REHTA MAFI","P.O. REHTA MAFI TEHSIL- THAKURDWARA DISTT. MORADABAD",2249490,MORADABAD,MORADABAD,"UTTAR PRADESH"
"PRATHAMA BANK",PRTH0013106,244843059,"MAHESHPUR KHEM","P.O. MANPUR TEHSIL & DISTT. MORADABD",9927030645,MORADABAD,MORADABAD,"UTTAR PRADESH"
"PRATHAMA BANK",PRTH0013105,244843256,GOPIWALA,"P.O. GOPIWALA TEHSIL. THAKURDWARA DISTT. MORADABAD",9927030642,MORADABAD,MORADABAD,"UTTAR PRADESH"
"PRATHAMA BANK",PRTH0013104,244843255,NANHOOWALA,"P.O. NANHUWALA TEHSIL.THAKURDWARA DISTT. MORADABAD",9927030643,MORADABAD,MORADABAD,"UTTAR PRADESH"
"PRATHAMA BANK",PRTH0013085,244843081,DHAKIA,"P.O. DHAKIA JAT TEHSIL. THAKURDWARA DISTT. MORADBAD",2249815,MORADABAD,MORADABAD,"UTTAR PRADESH"
"PRATHAMA BANK",PRTH0013082,244843252,"BUDHANPUR ALIGANJ","P.O. B.P. ALIGANJ, TEHSIL. & DISTT. MORADABAD",2250083,MORADABAD,MORADABAD,"UTTAR PRADESH"
"PRATHAMA BANK",PRTH0013080,244843251,THAKURDWARA,"P.O. & TEHSIL.THAKURDWARA , DISTT. MORADABAD",2241244,MORADABAD,MORADABAD,"UTTAR PRADESH"
"PRATHAMA BANK",PRTH0013068,244843253,KAMALPURI,"P.O. KALAJHANDA TEHSIL.THAKURDWARA DISTT. MORADABAD",2241142,MORADABAD,MORADABAD,"UTTAR PRADESH"
"PRATHAMA BANK",PRTH0013067,244843265,KARANPUR,"P.O. ALIABAD VIA DILARI TEHSIL. THAKURDWARA DISTT. MORADABAD",2249669,MORADABAD,MORADABAD,"UTTAR PRADESH"
"PRATHAMA BANK",PRTH0013061,244843056,MANPUR,"P.O. MANPUR TEHSIL.MORDABAD DISTT. MORADABAD",2254201,MORADABAD,MORADABAD,"UTTAR PRADESH"
"PRATHAMA BANK",PRTH0013051,244843261,"BHAGATPUR TANDA","P.O. BHAGATPUR TANDA TEHSIL.MORDABAD DISTT. MORADABAD",9756799051,MORADABAD,MORADABAD,"UTTAR PRADESH"
"PRATHAMA BANK",PRTH0013050,244843355,RATUPURA,"P.O. RATUPURA TEHSIL.THAKURDWARA DISTT. MORADABAD",9756799050,MORADABAD,MORADABAD,"UTTAR PRADESH"
"PRATHAMA BANK",PRTH0013046,244843067,JAHANGIRPUR,"P.O. JAHANGIRPUR, TEHSIL THAKURDWARA DISTT. MORADABAD",9756799046,MORADABAD,MORADABAD,"UTTAR PRADESH"
"PRATHAMA BANK",PRTH0013045,244843353,"SHARIF NAGAR","P.O. SHAREEF NAGAR,TEHSIL THAKURDWARA,DISTT. MORADABAD",9756799045,MORADABAD,MORADABAD,"UTTAR PRADESH"
"PRATHAMA BANK",PRTH0013024,244843257,"SULTANPUR DOST","P.O. SULTANPUR DOST TEH THAKURDWARA DISTT.MORADABAD",9756799024,MORADABAD,MORADABAD,"UTTAR PRADESH"
"PRATHAMA BANK",PRTH0013021,244843058,"PEEPAL SANA","P.O. PEEPALSANA TEH.MORADABAD DISTT. MORADABAD.",9756799021,MORADABAD,MORADABAD,"UTTAR PRADESH"
"PRATHAMA BANK",PRTH0013007,244843075,DILARI,"P.O. DILARI TEH., TEH.THAKURDWARA┬á,DISTT. MORADABAD.",9756799007,MORADABAD,MORADABAD,"UTTAR PRADESH"
"PRATHAMA BANK",PRTH0013006,244843352,"SURJAN NAGAR","P.O. SURJAN NAGAR,TEH. THAKURDWARA ┬áDISTT. MORADABAD.",9756799006,MORADABAD,MORADABAD,"UTTAR PRADESH"
"PRATHAMA BANK",PRTH0013000,NA,"RO THAKURDWARA","PRATHAMA BANK RO, THANKURADWARA, MORADBAD",9837001683,MORADABAD,MORADABAD,"UTTAR PRADESH"
"PRATHAMA BANK",PRTH0011409,NA,"BHOLA SINGH KI MILAK","VILL BHOLA SINGH KI MILAK BLOCK AND TEHSIL MORADABAD DISTT MORADABAD",7055715409,MORADABAD,MORADABAD,"UTTAR PRADESH"
"PRATHAMA BANK",PRTH0011407,NA,"HANUMAN MURTI","BLOCK KUNDERKI TEHSIL BILARI DISTT MORADABAD PIN 244001",7055715407,MORADABAD,MORADABAD,"UTTAR PRADESH"
"PRATHAMA BANK",PRTH0011406,NA,"CHAKKAR KI MILAK","BLOCK TEHSIL DISTT MORADABAD PIN 244001",7055715406,MORADABAD,MORADABAD,"UTTAR PRADESH"
"PRATHAMA BANK",PRTH0011389,NA,HAMEERPUR,"BLOCK BHOJPUR, P.O GODHI,DISTT.MORADABAD",7055715389,MORADABAD,MORADABAD,"UTTAR PRADESH"
"PRATHAMA BANK",PRTH0011386,NA,SAINJANA,"BLOCK MOONDA PANDEY,TEH& DISTT. MORADABAD",7055715386,MORADABAD,MORADABAD,"UTTAR PRADESH"
"PRATHAMA BANK",PRTH0011370,NA,"HASAMPUR CHAURAHA","VILL.HASAMPUR CHAURAHA, PO PAKBARA, TEHSIL AND DISTT.MORADABAD",7055715370,MORADABAD,MORADABAD,"UTTAR PRADESH"
"PRATHAMA BANK",PRTH0011356,NA,"SHERUA DHARAMPUR","VILL SHERUA DHARAMPUR DISTT MBD",7055715356,MORADABAD,MORADABAD,"UTTAR PRADESH"
"PRATHAMA BANK",PRTH0011328,NA,KARANPUR,"VILL KARANPUR DISTT MORADABAD",7055715328,MORADABAD,MORADABAD,"UTTAR PRADESH"
"PRATHAMA BANK",PRTH0011327,NA,SATARAN,"VILL SATARAN TEHSIL BILARI DISTT MBD",7055715327,BILARI,MORADABAD,"UTTAR PRADESH"
"PRATHAMA BANK",PRTH0011326,NA,"LAXMIPUR KATTAI","VILL LAXMIPUR KATTAI TEHSIL AND DISTT MORADABAD",7055715326,MORADABAD,MORADABAD,"UTTAR PRADESH"
"PRATHAMA BANK",PRTH0011325,NA,GOVINDPUR,"VILL GOVINDPUR TEHSIL BILARI DISTT MORADABAD",7055715325,BILARI,MORADABAD,"UTTAR PRADESH"
"PRATHAMA BANK",PRTH0011321,NA,THAMWALA,"VILL THAMWALA TEHSIL BILARI DISTT MORADABAD",7055715321,BILARI,MORADABAD,"UTTAR PRADESH"
"PRATHAMA BANK",PRTH0011319,NA,BIBIPUR,"VILL BIBIPUR POST SARAI KHAJOOR 244405 DISTT MORADABAD",7055715319,MORADABAD,MORADABAD,"UTTAR PRADESH"
"PRATHAMA BANK",PRTH0011305,NA,"SURYA NAGAR","MOH SURYA NAGAR MAJHOLA LINEPUR BLOCK AND TEHSIL MORADABAD",7534016305,MORADABAD,MORADABAD,"UTTAR PRADESH"
"PRATHAMA BANK",PRTH0011303,NA,"NAVEEN NAGAR","NAVEEN NAGAR MDA KANTH ROAD MORADABAD",7354016303,MORADABAD,MORADABAD,"UTTAR PRADESH"
"PRATHAMA BANK",PRTH0011302,NA,DAULARI,"PO AKKA DILARI BLOCK MOONDA PANDEYDISTRICT MORADABAD 244104",7534016302,MORADABAD,MORADABAD,"UTTAR PRADESH"
"PRATHAMA BANK",PRTH0011300,NA,SIMLATHER,"PO KUNDERKI BLOCK KUNDERKI DISTRICT MORADABAD 244001",7534016300,MORADABAD,MORADABAD,"UTTAR PRADESH"
"PRATHAMA BANK",PRTH0011297,NA,"MORA MUSTAHKAM","VILL AND PO SONAKPUR BLOCK MORADABAD DISTRICT MORADABAD 244001",7534016297,MORADABAD,MORADABAD,"UTTAR PRADESH"
"PRATHAMA BANK",PRTH0011281,NA,"CHANDER NAGAR","CHANDER NAGAR,MORADABAD-244001",7534016281,MORADABAD,MORADABAD,"UTTAR PRADESH"
"PRATHAMA BANK",PRTH0011277,NA,"KHANPUR MUZAFFARPUR","PO AGHWANPUR, BLOCK CHHIJLET,DISTT MORADABAD-244504",7534016277,MORADABAD,MORADABAD,"UTTAR PRADESH"
"PRATHAMA BANK",PRTH0011266,NA,CHANGERI,"PO CHHIJLET,BLOCK CHHIJLET,DISTT MORADABAD 244501",0,MORADABAD,MORADABAD,"UTTAR PRADESH"
"PRATHAMA BANK",PRTH0011265,NA,"KHUSHAL PUR","MOH.KHUSHALPUR,MORADABAD 244001",0,MORADABAD,MORADABAD,"UTTAR PRADESH"
"PRATHAMA BANK",PRTH0011260,NA,"LAKRI FAZAL PUR","LAKRI FAZAL PUR PO LAKRI FAZAL PUR DISTT. MORADABAD-244001",8191900260,MORADABAD,MORADABAD,"UTTAR PRADESH"
"PRATHAMA BANK",PRTH0011220,244843085,REETH,"VILL REETH POST DHARAMPUR RATTA,TEHSIL-CHANDAUSI,DISTT-MORADABAD, PIN-202411 (U.P)",8449710220,MORADABAD,MORADABAD,"UTTAR PRADESH"
"PRATHAMA BANK",PRTH0011213,244843086,CHHABRA,"VILL & POST CHHABRA,TEHSIL-CHANDAUSI, DISTT-MORADABAD, PIN-202411 (U.P)",8057911213,MORADABAD,MORADABAD,"UTTAR PRADESH"
"PRATHAMA BANK",PRTH0011207,244843016,"DEVAPUR MUSTEHKUM","VILL. & POST DEVAPUR MUSTAKAM,TEHSIL-MORADABAD,DISTT-MORADABAD,",9756799207,MORADABAD,MORADABAD,"UTTAR PRADESH"
"PRATHAMA BANK",PRTH0011198,244843070,"JALALPUR KHAS","VILL:JALALPUR KHAS, P.O. KUNDERKI, TEHSIL: BILARI,DISTT: MORADABAD PIN-202413",9756799198,MORADABAD,MORADABAD,"UTTAR PRADESH"
"PRATHAMA BANK",PRTH0011193,244843013,MANGUPURA,"VILL: MANGOOPURA,P.O. PAKBARA,TEHSIL MORADABAD,DISTT: MORADABAD┬á",9756799193,MORADABAD,MORADABAD,"UTTAR PRADESH"
"PRATHAMA BANK",PRTH0011182,244843055,HAKEEMPUR,"VILL. HAKIMPUR, POST FATEHPUR VISHNOI, TEHSIL KANTH, DISTT, MORADABAD",9756799182,MORADABAD,MORADABAD,"UTTAR PRADESH"
"PRATHAMA BANK",PRTH0011175,244843009,"TOWN HALL","TOWN HALL BUDH BAZAR STN. ROAD MORADABAD,DISTT:- MORADABAD",9756799175,MORADABAD,MORADABAD,"UTTAR PRADESH"
"PRATHAMA BANK",PRTH0011172,244843008,"RAMPUR ROAD","RAMPUR ROAD,DISTT:- MORADABAD",9756799172,MORADABAD,MORADABAD,"UTTAR PRADESH"
"PRATHAMA BANK",PRTH0011170,244843011,KARULA,"P.O. KARULA, THE & DISTT. MORADABAD",2358433,MORADABAD,MORADABAD,"UTTAR PRADESH"
"PRATHAMA BANK",PRTH0011169,244843007,"RAM GANGA VIHAR","P.O. RAMGANGA VIHAR, TEHSIL & DISTT.MORADABAD",2451075,MORADABAD,MORADABAD,"UTTAR PRADESH"
"PRATHAMA BANK",PRTH0011165,244843066,BILLARI,"NEAR MANGAL KA BAZAR DISTT. MORDABAD",270151,MORADABAD,MORADABAD,"UTTAR PRADESH"
"PRATHAMA BANK",PRTH0011162,244843073,"DHAKIA NARU","P.O. NIKAT SUGAR MILL BILARI TEHSIL-BILARI DISTT. MORADABAD",270548,MORADABAD,MORADABAD,"UTTAR PRADESH"
"PRATHAMA BANK",PRTH0011147,244843065,LALATEEKAR,"P.O. RAONDA VIA KUNDERKI TEHSIL-BILARI DISTT. MORADABAD",9756799147,MORADABAD,MORADABAD,"UTTAR PRADESH"
"PRATHAMA BANK",PRTH0011146,244843062,BHEETKHERA,"P.O. HIRAN KHERA TEHSIL & DISTT. MORADABD",9927030598,MORADABAD,MORADABAD,"UTTAR PRADESH"
"PRATHAMA BANK",PRTH0011140,244843079,SANAI,"P.O. SANAI TEHSIL-BILARI DISTT. MORADABAD",9927030605,MORADABAD,MORADABAD,"UTTAR PRADESH"
"PRATHAMA BANK",PRTH0011138,244843069,MOHANPUR,"P.O. KUNDERKI TEHSIL-BILARI DISTT. MORADABAD",9927030572,MORADABAD,MORADABAD,"UTTAR PRADESH"
"PRATHAMA BANK",PRTH0011110,244843078,"BAHORANPUR NARAULI","P.O. BAHORANPUR NAROLI VIA RAJAKA SAHASPUR TEHSIL.BILARI DISTT. MORADABAD",9927030584,MORADABAD,MORADABAD,"UTTAR PRADESH"
"PRATHAMA BANK",PRTH0011109,244843018,"KHADAGPUR BAJEY","P.O. MACHHARIYA RLY STATION TEHSIL. & DISTT. MORADABAD",9927030604,MORADABAD,MORADABAD,"UTTAR PRADESH"
"PRATHAMA BANK",PRTH0011100,244843005,"BANGLA GAON","P.O. KATCHAHRI, TEHSIL & DISTT. MORDABAD",2420761,MORADABAD,MORADABAD,"UTTAR PRADESH"
"PRATHAMA BANK",PRTH0011086,244843012,"HUSSAINPUR CHIRAWALI","GAGAN TIRAHA, P.O. SITAPURI┬á TEHSIL BILARI┬á DISTT. MORADABAD",2357692,MORADABAD,MORADABAD,"UTTAR PRADESH"
"PRATHAMA BANK",PRTH0011078,244843010,"MAJHOLA LINE PAAR","P.O. MAJHOLA LINEPAR TEHSIL. & DISTT. MORADABAD",2483032,MORADABAD,MORADABAD,"UTTAR PRADESH"
"PRATHAMA BANK",PRTH0011077,244843084,KURADOOMNAGAR,"P.O. K.D. NAGAR TEHSIL. BILARI DISTT. MORADABAD",233253,MORADABAD,MORADABAD,"UTTAR PRADESH"
"PRATHAMA BANK",PRTH0011076,244843077,GWAROO,"P.O. GWAROO TEHSIL.BILARI DISTT. MORADABAD",259185,MORADABAD,MORADABAD,"UTTAR PRADESH"
"PRATHAMA BANK",PRTH0011065,244843052,"AKKA DILARI","P.O. AKKA DILARI TEHSIL.& DISTT. MORADABAD",5541660,MORADABAD,MORADABAD,"UTTAR PRADESH"
"PRATHAMA BANK",PRTH0011063,244843072,"SAKTOO NAGLA","P.O. SARKARA KHAS TEHSIL. & DISTT. MORADABAD",9927030602,MORADABAD,MORADABAD,"UTTAR PRADESH"
"PRATHAMA BANK",PRTH0011060,244843015,"TAJPUR MAAFI","P.O. BHANSIA TEHSIL. & DISTT. MORDABAD",2390169,MORADABAD,MORADABAD,"UTTAR PRADESH"
"PRATHAMA BANK",PRTH0011059,244843004,KATGHAR,"P.O. MAQBARA TEHSIL.MORDABAD DISTT. MORADABAD",2490247,MORADABAD,MORADABAD,"UTTAR PRADESH"
"PRATHAMA BANK",PRTH0011058,244843003,LALBAGH,"P.O. MORDABAD TEHSIL.&DISTT. MORADABAD",2497077,MORADABAD,MORADABAD,"UTTAR PRADESH"
"PRATHAMA BANK",PRTH0011055,244843083,JARGAON,"P.O. JARGAON TEHSIL. CHANDAUSI DISTT. MORADABAD",236244,MORADABAD,MORADABAD,"UTTAR PRADESH"
"PRATHAMA BANK",PRTH0011052,244843006,HARTHALA,"P.O. HARTHALA TEHSIL. & DISTT. MORADABAD",9756799052,MORADABAD,MORADABAD,"UTTAR PRADESH"
"PRATHAMA BANK",PRTH0011048,244843014,"LODHIPUR JAWAHAR NAGAR","P.O. KAZIPURA TEHSIL. MORADABAD DISTT. MORADABAD",9756799048,MORADABAD,MORADABAD,"UTTAR PRADESH"
"PRATHAMA BANK",PRTH0011042,244843082,SEONDARA,"P.O. SEONDARA TEHSIL BILARI, DISTT. MORDABAD",9756799042,MORADABAD,MORADABAD,"UTTAR PRADESH"
"PRATHAMA BANK",PRTH0011030,244843053,"FATEHPUR VISHNOI","P.O. FATHPUR VISHNOI TEHSIL KANTH DISTT. MORADABAD",9756799030,MORADABAD,MORADABAD,"UTTAR PRADESH"
"PRATHAMA BANK",PRTH0011026,244843080,SARKARAKHAS,"P.O. SARKARA KHAS TEH.MORADABAD DISTT. MORADABAD",9756799026,MORADABAD,MORADABAD,"UTTAR PRADESH"
"PRATHAMA BANK",PRTH0011025,244843002,"MORADABAD MAIN","A-77 GANDHI NAGAR, PRINCE ROAD, P.O. MORADABAD, DISTT MORADABAD",9756799025,MORADABAD,MORADABAD,"UTTAR PRADESH"
"PRATHAMA BANK",PRTH0011016,244843060,KUNDARKI,"P.O. KUNDERKI TEH.BILARI DISTT. MORADABAD.",9756799016,MORADABAD,MORADABAD,"UTTAR PRADESH"
"PRATHAMA BANK",PRTH0011015,244843071,"R. N SAHASPUR","P.O. R.N. SAHASPUR TEH.BILARI DISTT. MORADABAD.",9756799015,MORADABAD,MORADABAD,"UTTAR PRADESH"
"PRATHAMA BANK",PRTH0011012,244843017,PAKBARA,"P.O. PAKBARA TEH.MORADABAD DISTT. MORADABAD.",9756799012,MORADABAD,MORADABAD,"UTTAR PRADESH"
"PRATHAMA BANK",PRTH0011011,244843054,"MOONDA PANDAY","P.O. MOONDA PANDAY TEH.MORADABAD DISTT. MORADABAD.",9756799011,MORADABAD,MORADABAD,"UTTAR PRADESH"
"PRATHAMA BANK",PRTH0011009,244843051,AGHWANPUR,"P.O. AGHWANPUR TEH. MORADABAD DISTT. MORADABAD.",9756799009,MORADABAD,MORADABAD,"UTTAR PRADESH"
"PRATHAMA BANK",PRTH0011000,NA,"RO MORADABAD","PRATHAMA BHAVAN, RAM GANGA VIHAR, MORADABAD",9837001680,MORADABAD,MORADABAD,"UTTAR PRADESH"
"PRATHAMA BANK",PRTH0000002,NA,"MOBILE BANKING","PRATHAMA BANK HEAD OFFICE ,PRATHAMA BHAVAN,RAM GANGA VIHAR PHASE-II , MORADABAD , UP-244001",2455179,MORADABAD,MORADABAD,"UTTAR PRADESH"
"PRATHAMA BANK",PRTH0000001,NA,RTGS-HO,"PRATHAMA BHAVAN, RAM GANGA VIHAR, MORADABAD",2455177,MORADABAD,MORADABAD,"UTTAR PRADESH"
