BANK,IFSC,MICR,BRANCH,ADDRESS,CONTACT,CITY,DISTRICT,STATE
"DCB BANK LIMITED",DCBL000NPC2,NA,"NATIONAL PROCESSING CENTRE","PENINSULA BUSINESS PARK,  TOWER A , 9TH FLOOR, SENAPATI BAPAT MARG, LOWER PAREL MUMBAI  400 013.",66848262,MUMBAI,MUMBAI,MAHARASHTRA
"DCB BANK LIMITED",DCBL0000294,590072002,BELGAUM,"DCB BANK LIMITED , CTS NO 3413 & 3414 AT GONDHALI LANE , DISTRICT - BELGAUM , PIN - 590019",9986090927,BELGAUM,BELGAUM,KARNATAKA
"DCB BANK LIMITED",DCBL0000293,136072102,DERA,"DCB BANK LIMITED , DERA BRANCH , SAMALKHA ROAD , NEAR SANT NISHAL SCHOOL , VILLAGE DERA , TEHSIL - LADWA , DISTRICT - KURUKSHETRA , STATE - HARYANA , PIN-136132",9671604333,DERA,KURUKSHETRA,HARYANA
"DCB BANK LIMITED",DCBL0000289,612072002,KUMBAKONAM,"DCB BANK LIMITED , DOOR NO.16, SARANGAPANI KOVIL , KILAVADAMPOKI , TSR BIG STREET , KUMBAKONAM , THANJAVUR DISTRICT , TAMILNADU - 612001",7200002583,KUMBAKONAM,THANJAVUR,"TAMIL NADU"
"DCB BANK LIMITED",DCBL0000288,502072202,NARSAPUR,"DCB BANK LIMITED , NARSAPUR BRANCH , GROUND FLOOR , SY NO 83/1/A , NEAR SIRCILLA KAMAN , VEMULAWADA ROAD , HANUMAN NAGAR , NARSAPUR VILLAGE , DISTRICT - SIDDIPET , STATE - TELANGANA , PIN - 502103",9885478450,NARSAPUR,SIDDIPET,TELANGANA
"DCB BANK LIMITED",DCBL0000287,134072002,"RAIPUR VIRAN","DCB BANK LIMITED , RAIPUR VIRAN BRANCH , PANJLASA CHOWK , NEAR VISHVAKARMA MANDIR , RAIPUR VIRAN , TEHSIL - NARAINGARH , DISTRICT AMBALA , STATE HARYANA PIN - 134203",9671604333,NARAINGARH,AMBALA,HARYANA
"DCB BANK LIMITED",DCBL0000286,451072501,BALWADI,"DCB BANK LIMITED , BALWADI BRANCH , BOMBAY HEIGHTS , SANAWAD ROAD , BALWADI , DISTRICT - KHARGONE , STATE - MADHYA PRADESH , PIN - 451001.",9830364162,BALWADI,KHARGONE,"MADHYA PRADESH"
"DCB BANK LIMITED",DCBL0000285,505072003,KOTHAPALLY,"DCB BANK LIMITED , KOTHAPALLY BRANCH , H.NO. 3-141 , VAVILALA ROAD , KOTHAPALLY VILLAGE , JAMMIKUNTA MANDAL , DISTRICT - KARIMNAGAR , STATE - TELANGANA , PIN - 505122.",9885478450,"JAMMIKUNTA MANDAL",KARIMNAGAR,TELANGANA
"DCB BANK LIMITED",DCBL0000284,482072002,GURUPIPARIA,"DCB BANK LIMITED , GURUPIPARIA BRANCH , KHASRA NO 112/1 (OLD ) , 56 (NEW) AND 56/1 (NEW ) , VILLAGE GURUPIPARIA , PC NO 65 (NEW ) RIC PATAN PIN 483113",9953107078,PATAN,JABALPUR,"MADHYA PRADESH"
"DCB BANK LIMITED",DCBL0000283,160072003,PANCHKULA,"DCB BANK LIMITED , SCO 215 , SECTOR 14 , OPP TO GURUDWARA , PANCHKULA STATE , HARYANA - 134113.",9988900755,PANCHKULA,PANCHKULA,HARYANA
"DCB BANK LIMITED",DCBL0000282,636072003,NAMAKKAL,"DCBBANK LIMITED , GROUND AND FIRST FLOOR , 79-A, RANGAR SANNATHI STREET , NAMAKKAL - 637001",0,NAMAKKAL,NAMAKKAL,"TAMIL NADU"
"DCB BANK LIMITED",DCBL0000281,132072252,PEHOWA,"DCB BANK LIMITED , PEHOWA BRANCH , GURU TOWERS , OPP , DAV SCHOOL , NH-65 , AMBALA ROAD , PEHOWA , DISTRICT - KURUKSHETRA , STATE - HARYANA , PIN - 136128",9671604333,PEHOWA,KURUKSHETRA,HARYANA
"DCB BANK LIMITED",DCBL0000279,462072002,"NARELA BAZYAFT","DCB BANK LIMITED , NARELA BAZYAFT BRANCH , VILLAGE NARELA BAZYAFT , BHOPAL ROAD , TEHSIL - BERASIA , DISTRICT - BHOPAL , STATE - MADHYA PRADESH PIN - 463106",9830364162,BERASIA,BHOPAL,"MADHYA PRADESH"
"DCB BANK LIMITED",DCBL0000278,505072102,MOTHE,"DCB BANK LIMITED , MOTHE BRANCH , H.NO. 1-5-162/1 , BONAGIRI COMPLEX,GROUND FLOOR , OPP TELANGANA , AGROS , GOVINDPALLY , KNR ROAD , MOTHE , DISTRICT - JAGTIAL , STATE - TELANGANA , PIN - 505327",9885478450,MOTHE,JAGTIAL,TELANGANA
"DCB BANK LIMITED",DCBL0000277,457072051,SEJAWATA,"DCB BANK LTD , SEJAWATA BRANCH , KHASRA NO 1 / 32 , SANJAY COMPLEX , VILLAGE SEJAWATA , JAORA , DISTRICT - RATLAM , STATE - MADHYA PRADESH , PIN - 457226.",9830364162,JAORA,RATLAM,"MADHYA PRADESH"
"DCB BANK LIMITED",DCBL0000276,466072001,"KAJI KHEDI BRANCH","DCB BANK LTD, KAJI KHEDI BRANCH , KHASRA NO 141 / 2 , VILLAGE KAJI KHEDI , HOTEL PRATIKSHA PALACE , SHUJALPUR - ASHTA ROAD , ASHTA , KAJI KHEDI , DISTRICT - SEHORE , MADHYA PRADESH , PIN - 466116",9830364162,SHUJALPUR,SEHORE,"MADHYA PRADESH"
"DCB BANK LIMITED",DCBL0000275,454072001,DHAR,"DCB BANK LTD , DHAR BRANCH , SILVER HILL COLONY , NEAR TRIMURTI CHAURAHA , INDORE ROAD , DHAR , TEHSIL DHAR , DISTRICT - DHAR , STATE - M.P. , PIN - 454001.",9830364162,DHAR,DHAR,"MADHYA PRADESH"
"DCB BANK LIMITED",DCBL0000274,380072008,SARKHEJ,"DCB BANK LIMITED , GROUND FLOOR , OWAIS AVENUE , NEXT TO GULZAR PARK , GATE - 1 , SARKHEJ , AHMEDABAD - 380055",9979885540,SARKHEJ,AHMEDABAD,GUJARAT
"DCB BANK LIMITED",DCBL0000273,360072003,SHAPAR,"DCB BANK LTD , SURVEY NO. 160/1 , PLOT NO. 29, BELOW GRAMSHAKTI ( FULLERTON ), OPP SWAMINARAYAN SCHOOL , SIDC MAIN ROAD, VERAVAL, SHAPAR, GUJARAT- 360024",9974372143,SHAPAR,RAJKOT,GUJARAT
"DCB BANK LIMITED",DCBL0000271,465072502,PAL,"DCB BANK LTD ,PAL BRANCH , KHASRA NO 417/1/2 , VILLAGE PAL , NEAR ARIHANT WARE HOUSE , BAROD ROAD , DISTRICT - AGAR MALWA , STATE - MADHYA PRADESH , PIN 465441",9830364162,PAL,"AGAR MALWA","MADHYA PRADESH"
"DCB BANK LIMITED",DCBL0000270,465072051,"BHEEL KHEDI","DCB BANK LTD ,BHEEL KHEDI BRANCH ,VILLAGE BHEEL KHEDI ,NEAR SHUJALPUR KRISHI UPAJ MANDI PRANGAN NO 3 ,SHUJALPUR ,DISTRICT-SHAJAPUR ,STATE - MADHYA PRADESH ,PIN - 465333",9830364162,SHUJALPUR,SHAJAPUR,"MADHYA PRADESH"
"DCB BANK LIMITED",DCBL0000269,504072103,NIRMAL,"DCB BANK LTD , NIRMAL BRANCH , DOOR NO 1-2-26 , MAIN ROAD , OLD NATIONAL HIGHWAY , OPP BUS DEPOT , NIRMAL , DISTRICT - NIRMAL , STATE - TELANGANA , PIN - 504106",9985740224,NIRMAL,NIRMAL,TELANGANA
"DCB BANK LIMITED",DCBL0000268,142072002,MOGA,"KHASRA NO.2467 AND 2471 , NEAR NEW GRAIN MARKET , ADJOINING PNB BANK , KAMAL WEIGH BRIDGE , G.T.ROAD , MOGA , PUNJAB - 142001",0,MOGA,MOGA,PUNJAB
"DCB BANK LIMITED",DCBL0000267,247072002,SAHARANPUR,"DCB BANK LIMITED , 1/776 , CHAVARA COMPLEX , AMBALA ROAD , SAHARANPUR , UTTAR PRADESH - 247001",9837099297,SAHARANPUR,SAHARANPUR,"UTTAR PRADESH"
"DCB BANK LIMITED",DCBL0000266,244072002,MORADABAD,"DCB BANK LTD,PLO NO.242,OIL MILL COMPOUND,DELHI ROAD,MORADABAD,UTTAR PRADESH-244001",8077336969,MORADABAD,MORADABAD,"UTTAR PRADESH"
"DCB BANK LIMITED",DCBL0000265,282072002,AGRA,"DCB BANK LTD,G-1 (PART),G-1A(PART),G-2,G-3,VIMAL TOWERS.BLOCK NO.19/4,SANJAY PLACE,AGARA,UTTAR PRADESH-282002",7520229300,AGRA,AGRA,"UTTAR PRADESH"
"DCB BANK LIMITED",DCBL0000264,584072002,RAICHUR,"DCB BANK LTD,DOOR NO 12-9-39,12-9-39/1 AND 12-9-39/2,CHINTAMANI MAREPPA COMPLEX,OPP POORNIMA TALKIES,GUNJ ROAD,DISTRICT-RAICHUR,STATE-KARNATAKA,PIN-584101",9740814009,RAICHUR,RAICHUR,KARNATAKA
"DCB BANK LIMITED",DCBL0000263,756072102,SAMURAIPUR,"DCB BANK LTD,SAMURAIPUR BRANCH,1ST FLOOR,BISWAL KALYAN MANDAP,TAHSIL ROAD,POST OFFICE GELPUR,SAMURAIPUR,DISTRICT-BHADRAK,STATE-ODISHA,PIN-756181",9437077665,SAMURAIPUR,BHADRAK,ODISHA
"DCB BANK LIMITED",DCBL0000262,757072002,BARIPADA,"DCB BANK LTD,BARIPADA BRANCH,WARD NO.5.AMBIKA SAHI ROAD,NEAR ROXY CINEMA HALL,LAL BAZAR,BARIPADA,DISTRICT-MAYURBHANJ,STATE-ODISHA,PIN-757001",8455881131,BARIPADA,MAYURBHANJ,ODISHA
"DCB BANK LIMITED",DCBL0000261,762072002,LANGARASAHI,"DCB BANK LTD,LANGARASAHI BRANCH,AT-LANGARASAHI,NEAR GOVERNMENT,POST OFFICE PHULBANI,LANGARASAHI,DISTRICT-KANDHAMAL,ODISHA-762001",7894461947,LANGARASAHI,KANDHAMAL,ODISHA
"DCB BANK LIMITED",DCBL0000260,491072201,KAWARDHA,"DCB BANK LTD,KAWARDHA BRANCH,TAKUR DEV CHOWK,RAIPUR NAKA,KAWARDHA,DISTRICT-KAWARDHA,STATE-CHATTISGARH,PIN-491995",9644681888,KAWARDHA,KAWARDHA,CHHATTISGARH
"DCB BANK LIMITED",DCBL0000259,125072052,HISAR,"DCB BANK LTD,S.C.F NO.5,COMMERCIAL URBAN ESTATE-1,RED SQAURE MARKET,HISAR,HARYANA-125001",0,HISAR,HISAR,HARYANA
"DCB BANK LIMITED",DCBL0000258,147072002,PATIALA,"DCB BANK LTD,SCO54-55,NEW LEELA BHAWAN,PATIALA,PUNJAB-147001",9815765646,PATIALA,PATIALA,PUNJAB
"DCB BANK LIMITED",DCBL0000257,243072002,BAREILLY,"DCB BANK LIMITED,154A , CIVIL LINES , OPPOSITE DM RESIDENCE , STATION ROAD , BAREILLY , UP -243001",0,BAREILLY,BAREILLY,"UTTAR PRADESH"
"DCB BANK LIMITED",DCBL0000256,583072302,WADDERHATTI,"DCB BANK LTD, WADDERHATTI BRANCH, PROPERTY NO. 23 & 24, GROUND FLOOR, WARD NO 1,WADDERHATTI VILLAGE, TALUKA-GANGAVATHI,DISTRICT-KOPPAL,STATE-KARNATAKA,PIN-583227",9740814009,WADDERHATTI,KOPPAL,KARNATAKA
"DCB BANK LIMITED",DCBL0000255,764072102,JEYPORE,"DCB BANK LTD, JEYPORE BRANCH,KELLA MILL COMPOUND ,MG ROAD,NEAR SBI MAIN BRANCH,DISTRICT -JEYPORE,STATE-ODISHA,PIN-764001",8763927942,JEYPORE,KORAPUT,ODISHA
"DCB BANK LIMITED",DCBL0000254,768072002,SAMBALPUR,"DCB BANK LTD,SAMBALPUR BRANCH,INFRONT OF HOTEL NATRAJ,GOL BAZAR, GAIETY ROAD,DISTRICT-SAMBALPUR,STATE-ODISHA, PIN-768001",8895959577,SAMBALPUR,SAMBALPUR,ODISHA
"DCB BANK LIMITED",DCBL0000253,456072051,BADNAGAR,"DCB BANK LTD,BADNAGAR BRANCH,SURVEY NO. 1583/5 AND 1587,DIVERSION ROAD,BADNAGAR,DISTRICT-UJJAIN, STATE- MADHYA PRADESH, PIN-456771",8059552228,BADNAGAR,UJJAIN,"MADHYA PRADESH"
"DCB BANK LIMITED",DCBL0000252,754072102,GUALSING,"DCB BANK LTD., GUALSING BRANCH, AT-GUALSING, PO-TINIMUHANI, ODISHA, PIN-754211",8455881131,GUALSING,KENDRAPARA,ODISHA
"DCB BANK LIMITED",DCBL0000251,754072202,PUNANGA,"DCB BANK LTD., PUNANGA BRANCH, PLOT NO. 909/1579, 909/1647, 910/1578, AT/PO-PUNANGA, P.S-JAGATSINGHPUR, ODISHA, PIN-754103",9937020008,PUNANGA,JAGATSINGHPUR,ODISHA
"DCB BANK LIMITED",DCBL0000250,495072201,KHOKHSA,"DCB BANK LTD., KHOKHSA BRANCH, VILLAGE KHOKHSA, MAIN ROAD, KHOKHSA. PIN-495668",9644681888,KHOKHSA,JANJGIR-CHAMPA,CHHATTISGARH
"DCB BANK LIMITED",DCBL0000249,466072501,RALA,"DCB BANK LTD., RALA BRANCH, KHASRA NO. 1903/475, VILLAGE RALA, TEHSIL-NASRULLAGANJ, MP, PIN-466331",7024103670,RALA,SEHORE,"MADHYA PRADESH"
"DCB BANK LIMITED",DCBL0000248,756072002,GANESWAPUR,"DCB BANK LTD,GANESHWAPUR BRANCH,AT-GANESWAPUR,PO-JANUGANJ,DISTRICT-BALASORE,STATE-ODISHA,PIN-756019",7328817879,GANESWAPUR,BALASORE,ODISHA
"DCB BANK LIMITED",DCBL0000247,765072002,KHALIGUDA,"DCB BANK LTD,KHALIGUDA BRANCH,SAI PRIYA APARTMENT,J K PUR ROAD,DISTRICT-RAYAGADA,STATE-ODISHA,PIN-765001",9437043920,KHALIGUDA,KHALIGUDA,ODISHA
"DCB BANK LIMITED",DCBL0000246,769072002,ROURKELA,"DCB BANK LTD,ROURKELA BRANCH,AT-TULSI COMPLEX,OPP.AMRIT GANGA,PANPOSH ROAD, ROURKELA,DISTRICT-SUNDARGARH STATE,ODISHA,PIN-769004",8455881131,ROURKELA,SUNDARGARH,ODISHA
"DCB BANK LIMITED",DCBL0000245,533072102,RAJAHMUNDRY,"DCB BANK LTD,75-6-26 ,PRAKASH NAGAR, RAJAHMUNDRY,EAST GODAVARI,ANDHRA PRADESH -533103",7799781909,RAJAHMUNDRY,"EAST GODAVARI","ANDHRA PRADESH"
"DCB BANK LIMITED",DCBL0000244,533072002,KAKINADA,"11-14-1,BALA TRIPURA SUNDARI TEMPLE STREET,KAKINADA,EAST GODAWVARI, A.P.-533001",0,KAKINADA,"EAST GODAVARI","ANDHRA PRADESH"
"DCB BANK LIMITED",DCBL0000243,146072002,HOSHIARPUR,"OPPOSITE COURT COMPLEX,SUTHEHRI ROAD,HOSHIARPUR-146001, PUNJAB",0,HOSHIARPUR,HOSHIARPUR,PUNJAB
"DCB BANK LIMITED",DCBL0000242,148072002,SANGRUR,"DCB BANK LTD,GAUSHALA ROAD, OPP. NEW GRAIN MARKET CITY, SANGRUR,PUNJAB-148001",0,SANGRUR,SANGRUR,PUNJAB
"DCB BANK LIMITED",DCBL0000241,625072002,MADURAI,"FIRST FLOOR,141A,142 ALAGAR KOIL ROAD,TALLAGULAM, MADURAI-625002",0,MADURAI,MADURAI,"TAMIL NADU"
"DCB BANK LIMITED",DCBL0000240,520072103,GUNTUR,"DCB BANK LTD,D.NO 5-50-24A,6/14,BRODIPET GUNTUR ANHDRA PRADESH-522002",7799781903,GUNTUR,GUNTUR,"ANDHRA PRADESH"
"DCB BANK LIMITED",DCBL0000239,638072002,ERODE,"DCB BANK LTD,OLD NO. 445 NEW NO. 409,BROUGH ROAD, PERUNDURAI RAOD,ERODE,TAMIL NADU-638011",0,ERODE,ERODE,"TAMIL NADU"
"DCB BANK LIMITED",DCBL0000238,636072002,SALEM,"DCB BANK LTD,296,OMALUR MAIN ROAD,ANGAMMAL COLONY,SALEM - 636009",0,SALEM,SALEM,"TAMIL NADU"
"DCB BANK LIMITED",DCBL0000237,136072002,KURUKSHETRA,"1/8A, SECTOR 17 ROAD,KURUKHSHEDRA,HARYANA-136118",0,KURUKSHETRA,KURUKSHETRA,HARYANA
"DCB BANK LIMITED",DCBL0000236,635072402,HOSUR,"DCB BANK LTD, OLD NO. 13/45 NEW NO 29,SHANTI NAGAR,HOSUR-635109",0,HOSUR,KRISHNAGIRI,"TAMIL NADU"
"DCB BANK LIMITED",DCBL0000235,133072002,AMBALA,"DCB BANK LTD,5502,SURYA TOWER,NICHOLSAN ROAD, AMBALA CANTT, HARYANA-133001",0,AMBALA,AMBALA,HARYANA
"DCB BANK LIMITED",DCBL0000234,311072002,BHILWARA,"DCB BANK LTD, SAIFEE PLAZA, GROUND FLOOR,RAJENDRA MARG,NEAR IDBI BANK, BHILWARA-311001",0,BHILWARA,BHILWARA,RAJASTHAN
"DCB BANK LIMITED",DCBL0000233,760072003,BERHAMPUR,"DCB BANK LTD,BEHRAMPUR BRANCH,AT-PARK STREET,DISTRICT-GANJAM,STATE-ODISHA,PIN-760002",9937285481,BERHAMPUR,GANJAM,ODISHA
"DCB BANK LIMITED",DCBL0000232,493072101,KHARORA,"DCB BANK LTD,KHARORA BRANCH,MAIN ROAD, VILLAGE-KHARORA,DISTRICT-MAHASAMUND,STATE-CHHATISGARH,PIN-493445",964481888,KHARORA,MAHASAMUND,CHHATTISGARH
"DCB BANK LIMITED",DCBL0000231,583072102,KOLAGALLU,"DCB BANK LTD, KOLAGALLU BRANCH, WARD NO. 5, PROPERTY NO. 4/732, 4/733, 4/734 & 7/735, KOLAGALLU VILLAGE, DIST. BALLARI, KARNATAKA",9880200480,KOLAGALLU,BALLARI,KARNATAKA
"DCB BANK LIMITED",DCBL0000230,400072002,NAGPUR,"SHOP NO. 6/7, SADODAYA COMPLEX, UPPER GROUND FLOOR, GANDHI PUTLA SQUARE, CENTRAL AVENUE ROAD, NAGPUR - 440 008",8149007902,NAGPUR,NAGPUR,MAHARASHTRA
"DCB BANK LIMITED",DCBL0000229,461072502,KHEDIMAHMUDABAD,"DCB BANK LTD., KHEDIMAHMUDABAD BRANCH, NEAR MANKAR HOSPITAL, KHEDIMAHMUDABAD, HARDA, MP, PIN - 461331",9425193131,KHEDIMAHMUDABAD,HARDA,"MADHYA PRADESH"
"DCB BANK LIMITED",DCBL0000228,470072501,KHURAI,"DCB BANK LTD., KHURAI BRANCH, NEHRU WARD, NAZUL SHEET NO. 23, PLOT NO. 64, KHURAI, SAGAR, MP, PIN - 470117",8959552228,KHURAI,SAGAR,"MADHYA PRADESH"
"DCB BANK LIMITED",DCBL0000227,455072001,DEWAS,"DCB BANK LTD., DEWAS BRANCH, 168, MOTI BUNGALOW, DEWAS, MP, PIN - 455001",8959552228,DEWAS,DEWAS,"MADHYA PRADESH"
"DCB BANK LIMITED",DCBL0000226,508072202,SURYAPET,"DCB BANK LTD., SURYAPET BRANCH, D.No.1-2-270/56/B, KUDAKUDA Road , SURYAPET, Nalgonda , TELANGANA, PIN 508213",9885478450,SURYAPET,NALGONDA,TELANGANA
"DCB BANK LIMITED",DCBL0000225,500072010,"BANJARA HILLS","2ND FLOOR, JYOTHI MAJESTIC, BANJARA HILLS, HYDERABAD - 500073",9705131333,HYDERABAD,HYDERABAD,TELANGANA
"DCB BANK LIMITED",DCBL0000224,570072002,MYSORE,"DCB BANK LTD., 630X PLUS AX, ANIKETANA ROAD, MYSORE, PIN - 570004",9739032891,MYSURU,MYSURU,KARNATAKA
"DCB BANK LIMITED",DCBL0000223,577072002,DAVANGERE,"2257/5, SECOND FLOOR, M.C.C.A. BLOCK, CHURCH ROAD, DAVANGERE - 577 002",9945347289,DAVANGERE,DAVANGERE,KARNATAKA
"DCB BANK LIMITED",DCBL0000222,577072202,SHIVAMOGGA,"DCB BANK LTD., PRATHAP ARCADE, 2ND FLOOR, JAIL CIRCLE, KUVEMPU ROAD, SHIVAMOGGA, PIN - 577201",9945049808,SHIVAMOGGA,SHIVAMOGGA,KARNATAKA
"DCB BANK LIMITED",DCBL0000221,572072002,TUMAKURU,"DCB BANK LTD., 2ND FLOOR, RNR RIDGE, OPP TO GOVT JUNIOR COLLEGE FIELD, 1909/553, K R EXTENSION, B H ROAD, TUMKUR - 572101",9008009990,TUMAKURU,TUMKUR,KARNATAKA
"DCB BANK LIMITED",DCBL0000220,135072002,"YAMUNA NAGAR","DCB BANK LTD., YAMUNA NAGAR BRANCH, B-4-1504/A, EAST BHATIA NAGAR, JAGADHRI ROAD, YAMUNA NAGAR, 135001",9355512391,"YAMUNA NAGAR","YAMUNA NAGAR",HARYANA
"DCB BANK LIMITED",DCBL0000219,151072002,BATHINDA,"DCB BANK LTD., BATHINDA BRANCH, 117/5, Z-2 MCB, 100 FT ROAD, NEAR MAHESHWARI CHOWK, BATHINDA, PUNJAB, PIN - 151 001",9876208894,BATHINDA,BATHINDA,PUNJAB
"DCB BANK LIMITED",DCBL0000218,466072051,BIJORI,"DCB BANK LTD., BIJORI BRANCH, VILLAGE BIJORI, NEAR MANDI POLICE STATION, MP, PIN - 466001",9425193131,BIJORI,SEHORE,"MADHYA PRADESH"
"DCB BANK LIMITED",DCBL0000217,766072002,BHAWANIPATNA,"DCB BANK LTD., BHAWANIPATNA BRANCH, PLOT NO. 3099, NUAPADA, WARD NO. 3, BHAWANIPATNA, ODISHA, PIN - 766001",9937020008,BHAWANIPATNA,KALAHANDI,ODISHA
"DCB BANK LIMITED",DCBL0000216,759072002,DHENKANAL,"DCB BANK LTD, DHENKANAL BRANCH, GROUND FLOOR, HOTEL SAKUNTALA BLDG, MAIN ROAD, GANESH BAZAR, DHENKANAL, PIN - 75900",7894443010,DHENKANAL,DHENKANAL,ODISHA
"DCB BANK LIMITED",DCBL0000215,800072002,PATNA,"DCB BANK LTD., KONARK SHERE, BEHIND RBI, EXHIBITION ROAD, PATNA, PIN - 800 001",7301340929,PATNA,PATNA,BIHAR
"DCB BANK LIMITED",DCBL0000214,517072702,KUPPAM,"PES INSTITUTE OF MEDICAL SCIENCE AND RESEARCH, NATIONAL HIGHWAY 219, KUPPAM, CHITTOOR, AP - 517425",7730096757,CHITTOOR,CHITTOOR,"ANDHRA PRADESH"
"DCB BANK LIMITED",DCBL0000213,250072002,MEERUT,"140, PUSHPDEEP GIRLS HOSTEL BUILDING, WESTERN KACHERY ROAD, MEERUT - 250 001",7060002099,MEERUT,MEERUT,"UTTAR PRADESH"
"DCB BANK LIMITED",DCBL0000212,492072001,RAIPUR,"DCB BANK LTD., RAIPUR BRANCH, GANI PLAZA, MAIN ROAD, DEVENDRA NAGAR, RAIPUR, PIN - 492001",9644681888,RAIPUR,RAIPUR,CHHATTISGARH
"DCB BANK LIMITED",DCBL0000211,753072002,CUTTACK,"DCB BANK LTD., CUTTACK BRANCH, ANAND VARSHA, ICE FACTORY ROAD, COLLEGE SQUARE, CUTTACK, PIN - 753003",9900615810,CUTTACK,CUTTACK,ODISHA
"DCB BANK LIMITED",DCBL0000210,751072005,BIJIPUR,"DCB BANK LTD., BIJIPUR BRANCH, MAIN ROAD, NH - 5, OPPOSITE INDIAN OIL PETROL PUMP, BIJIPUR, PIN - 752054",7894443010,BIJIPUR,KHURDA,ODISHA
"DCB BANK LIMITED",DCBL0000209,755072102,"PATHARA PADA","DCB BANK LTD., PATHARA PADA BRANCH, MAIN ROAD, PATHARA PADA, AT / POST - PANIKOILI, PIN - 755043",7894443010,"PATHARA PADA",JAJPUR,ODISHA
"DCB BANK LIMITED",DCBL0000208,424072001,LALING,"DCB BANK LTD., LALING BRANCH, PLOT NO. P-64, MIDC AREA, LALING, PIN - 424006",239300,LALING,DHULE,MAHARASHTRA
"DCB BANK LIMITED",DCBL0000207,577072502,PILLEKERENAHALLI,"DCB BANK LTD., PILLEKERENAHALLI BRANCH, NO. 101/349/1&2, NETHAJI BLDG, BASAWESHWARA NAGAR, NH-13, SHOLAPUR ROAD, IN FRONT OF TATA MOTORS, PILLEKERENAHALLI, PIN - 577502",9740814009,PILLEKERENAHALLI,CHITRADURGA,KARNATAKA
"DCB BANK LIMITED",DCBL0000206,416072152,SANGLI,"DCB BANK LTD, SANGLI BRANCH, TEJRAJ HEIGHTS, VISHRAMBAG CHOWK, SANGLI - 416415",9167174281,SANGLI,SANGLI,MAHARASHTRA
"DCB BANK LIMITED",DCBL0000205,415072002,VILASPUR,"DCB BANK LTD., VILASPUR BRANCH, SWASTI HEIGHTS, PLOT NO. 9, NEAR MARATHA PALACE HOTEL, VILASPUR, SATARA",8551872000,VILASPUR,SATARA,MAHARASHTRA
"DCB BANK LIMITED",DCBL0000204,493072001,RATNABANDHA,"DCB BANK LTD., RATNABANDHA BRANCH, NEAR DURGA TEMPLE, MAIN ROAD, RATNABANDHA, DHAMTARI",9644681888,RATNABANDHA,DHAMTARI,CHHATTISGARH
"DCB BANK LIMITED",DCBL0000203,587072102,ANADINNI,"DCB BANK LTD., ANADINNI BRANCH, SURVEY NO. 43 / 3, ANADINNI CROSS, SRI LAXMI VENKATESWARA COMPLEX, FIRST FLOOR, ANADINNI, BAGALKOT TALUKA, KARNATAKA",9740814009,ANADINNI,BAGALKOT,KARNATAKA
"DCB BANK LIMITED",DCBL0000202,584072202,"HOSSHALLI EJ","DCB BANK LTD., HOSSHALLI EJ BRANCH, D. NO. 165 / 108 / 81 / A, BESIDES VARALAKSHMI PETROL BUNK, INDIAN OIL PETROL BUNK, SRIPURAM JUNCTION, HOSSALLI EJ, SINDHANUR TALUKA, KARNATAKA",9880714287,"HOSSHALLI EJ",RAICHUR,KARNATAKA
"DCB BANK LIMITED",DCBL0000201,758072002,KEONJHAR,"DCB BANK LTD., KEONJHAR BRANCH, JAIL SQUARE, NH - 19, KEONJHAR",7894443010,KEONJHAR,KEONJHAR,ODISHA
"DCB BANK LIMITED",DCBL0000200,495072001,PARSADA,"DCB BANK LTD, PARSADA BRANCH, MAIN ROAD, PARSADA",9584481555,PARSADA,BILASPUR,CHHATTISGARH
"DCB BANK LIMITED",DCBL0000199,751072004,PALLA,"DCB BANK LTD, MAIN ROAD, OPP. HANUMAN MANDIR, PALLATOTAPADA, PALLA",9938329377,PALLA,KHURDA,ODISHA
"DCB BANK LIMITED",DCBL0000198,585072002,KUSNOOR,"DCB BANK LTD, KUSNOOR BRANCH, SURVEY NO. 57 / 2A, PLOT NO. 5, OPP. ESI HOSPITAL FIRST GATE, SEDAM ROAD, KUSNOOR VILLAGE, GULBARGA (KALABURAGI)",9900257772,GULBARGA,GULBARGA,KARNATAKA
"DCB BANK LIMITED",DCBL0000197,530072002,VISAKHAPATNAM,"DCB BANK LTD,SHOP NO.2, DOOR NO 47-14-10,GROUND FLOOR,VIDISHA TOWER,DWARKANAGAR,VISAKHAPATNAM 530016",9849666839,VISAKHAPATNAM,VISAKHAPATNAM,"ANDHRA PRADESH"
"DCB BANK LIMITED",DCBL0000196,416072002,UNCHGAON,"DCB BANK LTD, YASHWANT VYAPARI SANKUL, OPP. BHARAT PETROL PUMP, NIGADEWADI, UCHGAON, TALUKA - KARVIR",9823303055,KOLHAPUR,KOLHAPUR,MAHARASHTRA
"DCB BANK LIMITED",DCBL0000195,305072002,AJMER,"GROUND FLOOR, PART OF 711/4, K C COMPLEX, HOSPITAL ROAD, NEAR SUNDER VILAS, AJMER, 305001",2623302,AJMER,AJMER,RAJASTHAN
"DCB BANK LIMITED",DCBL0000194,400072039,"MIRA BHAYANDAR ROAD","DCB BANK LTD,NOS.117&118,OSTWAL ASHADEEP CHS LTD,OPP VIJAY SALES(NEAR SILVER PARK SIGNAL)MIRA BHAYANDAR ROAD, MIRA ROAD (EAST),THANE-401107",9223600851,"MUM BAI",THANE,MAHARASHTRA
"DCB BANK LIMITED",DCBL0000193,473072076,"ASHOK NAGAR","DCB BANK LTD,ASHOK NAGAR BRANCH, PLOT NO 677,RAJENDRA PRASAD WARD NO 7, VIDISHA BYPASS ROAD,ASHOK NAGAR, DISTRICT - ASHOK NAGAR,STATE-MADHYA PRADESH,PIN-473331",9826812314,"ASHOK NAGAR","ASHOK NAGAR","MADHYA PRADESH"
"DCB BANK LIMITED",DCBL0000192,503072002,PANGRA,"DCB BANK LTD,PANGRA BRANCH, PLOT NO 21 AND 22,SRI RAJA RAJESHWARA COMPLEX,MAIN ROAD,ARYA NAGAR,PANGRA,DIST-NIZAMABAD,STATE-TELANGANA,PIN-503230",8106113456,PANGRA,NIZAMABAD,TELANGANA
"DCB BANK LIMITED",DCBL0000191,110072016,BHAJANPURA,"DCB BANK LTD,C-5,KHASRA NO.391,BHAJANPURA MAIN ROAD,VILLAGE-SHAHDRA,DELHI-110053",9213023474,DELHI,"NORTH EAST",DELHI
"DCB BANK LIMITED",DCBL0000190,110072013,"ROOP NAGAR","DCB BANK LTD,A-1/40,ROOP NAGAR, FIRST FLOOR HALF AREA,WARD NO.12,BLOCK-A,ROOP NAGAR,NEW DELHI-110007",9213023467,DELHI,"NORTH DELHI",DELHI
"DCB BANK LIMITED",DCBL0000189,110072011,"BHOGAL, DELHI","MUNICIPAL NO. 115-A, KHASRA NO. 1472/52, NOUZA KILOKRI, NEAR HARI NAGAR ASHRAM, NEW DELHI - 110014",9213023477,DELHI,"SOUTH DELHI",DELHI
"DCB BANK LIMITED",DCBL0000188,160072002,MOHALI,"SCF-37, 1ST FLOOR, PHASE 2, NEAR GYAN JYOTI SCHOOL, MOHALI - 160055",2270713,MOHALI,"SAHIBZADA AJIT SINGH NAGAR",PUNJAB
"DCB BANK LIMITED",DCBL0000187,110072012,"UTTAM NAGAR","DCB BANK LTD,PLOT NO.14,MUSTATIL NO.86,KILLA NO.1,VILLAGE HASTSAL,MILAP NAGAR,NEW DELHI-110059.",9213023469,"NEW DELHI","WEST DELHI",DELHI
"DCB BANK LIMITED",DCBL0000186,110072014,"MODEL TOWN","DCB BANK LTD,MEZZANINE FLOOR,H-2, MODEL TOWN,PART 3, NEW DELHI-110009",9213023487,"MODEL TOWN","NORTH WEST DELHI",DELHI
"DCB BANK LIMITED",DCBL0000185,110072015,"LAXMI NAGAR","DCB BANK LTD,1/15,FIRST FLOOR,MAIN VIKAS MARG,LAXMI NAGAR,OPP METRO PILLAR NO.26,DELHI-110092",9213023483,DELHI,"EAST DELHI",DELHI
"DCB BANK LIMITED",DCBL0000184,110072017,"GURGAON SECTOR FOURTEEN","SCO 25, FIRST FLOOR, ABOVE ADVENTURE SHOWROOM, SECTOR - 14, GURGAON - 122001",9899894484,GURGAON,GURGAON,HARYANA
"DCB BANK LIMITED",DCBL0000183,110072018,GHAZIABAD,"DCB BANK LTD,252-253,G.T.ROAD, NEAR GHANTAGHAR,GHAZIABAD-201001, LANDMARK -NEAR MANOHAR CENEMA",9213023475,GHAZIABAD,GHAZIABAD,"UTTAR PRADESH"
"DCB BANK LIMITED",DCBL0000182,600072006,VALASARAVAKKAM,"DCB BANK LTD,4/123,1ST FLOOR,2A,SRI DEVIKUPPAM MAIN ROAD,VALASARAVAKKAM,CHENNAI 600087",9282500208,VALASARAVAKKAM,THIRUVALLUR,"TAMIL NADU"
"DCB BANK LIMITED",DCBL0000181,632072002,"ARCOT, VELLORE","KUMARAN COMPLEX, 1ST FLOOR, ARANI ROAD, NEAR ANTHONY CHURCH, ARCOT, VELLORE - 632503",9282500206,"ARCOT, VELLORE",VELLORE,"TAMIL NADU"
"DCB BANK LIMITED",DCBL0000180,390072003,WAGHODIYA,"GROUND FLOOR,PARUL UNIVERSITY CAMPUS,PARUL AROGYA SEVA MANDAL TRUST,AT PO-LIMDA,TAL-WAGHODIYA,VADODARA-391760",9274747597,VADODARA,WAGHODIYA,GUJARAT
"DCB BANK LIMITED",DCBL0000179,110072019,"GANDHI NAGAR","DCB BANK LTD,SHOP NO.830,ABADI MAIN ROAD,GANDHI NAGAR,SEELAMPUR VILLAGE,SHAHDRA, DELHI-110031",9213022425,"GANDHI NAGAR","EAST DELHI",DELHI
"DCB BANK LIMITED",DCBL0000178,334072052,BEECHWAL,"DCB BANK LTD., BEECHWAL BRANCH, SHOP NO 48, STATE WOOLEN MILL COMPOUND, RIICO INDUSTRIAL AREA, BEECHWAL",9829838344,BEECHWAL,BIKANER,RAJASTHAN
"DCB BANK LIMITED",DCBL0000177,414072002,NAVNAGAPUR,"DCB BANK LTD, NAVNAGAPUR BRANCH, DONGARE COMPLEX, GAJANAN COLONY, NAGAR MANMAD ROAD, MIDC, NAVNAGAPUR",9422928494,NAVNAGAPUR,AHMEDNAGAR,MAHARASHTRA
"DCB BANK LIMITED",DCBL0000176,507072002,"PEDDA  THANDA","DCB BANK LTD, PEDDA THANDA BRANCH,D NO.3-103,PEDDA THANDA,KHAMMAM RURAL,DISTRICT KHAMMAM,STATE TELANGANA,PIN 507003",8886298833,"PEDDA THANDA",KHAMMAM,TELANGANA
"DCB BANK LIMITED",DCBL0000175,413072227,MADLAPUR,"DCB BANK LTD,MADLAPUR BRANCH,PLOT NO.2,SARVEY NO.14A,NANDED BIDAR ROAD,OPP KALE PETROL PUMP,MADLAPUR,TALUKA UDGIR,PIN 413517",9422928494,MADLAPUR,LATUR,MAHARASHTRA
"DCB BANK LIMITED",DCBL0000174,425072002,NASHIRABAD,"DCB BANK LTD, NASHIRABAD BRANCH, NEAR NASHIRABAD BUS STAND,NASHIRABAD,TAL AND DIS - JALGAON,MAHARASHTRA, PIN- 425309",9822045377,NASHIRABAD,JALGAON,MAHARASHTRA
"DCB BANK LIMITED",DCBL0000173,387072001,KAMLA,"DCB BANK LTD,KAMLA BRANCH,SHREE RAM SHOPPING CENTRE,KAMLA CHAR RASTA KAMLA,TAL-NADIAD, DIS-KHEDA, GUJRAT, PIN- 387320",8758523132,"KAMLA NADIAD",KHEDA,GUJARAT
"DCB BANK LIMITED",DCBL0000172,641072002,COIMBATORE,"DCB BANK LTD,248 AVARAMPALAYAM ROAD,SIDHAPUDUR,COIMBATORE 641044",9843259234,COIMBATORE,COIMBATORE,"TAMIL NADU"
"DCB BANK LIMITED",DCBL0000171,144072302,NAWANSHAHR,"DCB BANK LTD,NAWANSHAHR BRANCH,KHATTA NO.633704705,KHASRA NO.2141,214 BANGA ROAD,ADJONING INDIAN BANK,NAWANSHAHR DOABA,PIN CODE 144514",9888054982,NAWANSHAHR,PUNJAB,PUNJAB
"DCB BANK LIMITED",DCBL0000170,144072002,JALANDHAR,"DCB BANK LTD., 10 R, ADJOINING INDUSIND BANK, MAIL ROAD MODEL TOWN, JALANDHAR, 144 003",9888551433,JALANDHAR,JALANDHAR,PUNJAB
"DCB BANK LIMITED",DCBL0000169,465072501,PACHORE,"DCB BANK LTD,PACHORE BRANCH,KHASRA NO.289/1/3, BALAJI NAGAR,AB ROAD,PACHORE, RAJGARH, MP 465683",9993450255,PACHORE,RAJGARH,"MADHYA PRADESH"
"DCB BANK LIMITED",DCBL0000168,388072001,"VALABH VIDYANAGAR","SHOP NO 1,RADHA VANAN COMPLEX,MOTA BAZAR, OPP RATNA MOTORS,VALLABH VIDYANAGAR, PIN CODE - 388120",9228006244,"VALABH VIDYANAGAR",ANAND,GUJARAT
"DCB BANK LIMITED",DCBL0000167,751072003,BHUBANESWAR,"DCB BANK LTD.BHUBANESWAR BRANCH, PLOT NO 16, GROUND AND FIRST FLOOR,CUTTACK ROAD, LAXMI SAGAR,NEAR FALCON HOUSE,DISTRICT KHURDA, STATE ODISHA PIN 751006",7894444390,BHUBANESWAR,KHURDA,ODISHA
"DCB BANK LIMITED",DCBL0000166,462072001,BHOPAL,"D C B BANK LTD. PLOT NO.160, ZONE 1,DEVASHISH COMPLEX,M.P. NAGAR, BHOPAL,STATE M P",9009141786,BHOPAL,BHOPAL,"MADHYA PRADESH"
"DCB BANK LIMITED",DCBL0000165,132072102,KARNAL,"DCB BANK LTD, SCO, 388/389, MUGAL CANAL MARKET, NEAR GURU HARKISHAN SCHOOL,KARNAL, 132001",9814973942,KARNAL,KARNAL,HARYANA
"DCB BANK LIMITED",DCBL0000164,132072002,PANIPAT,"DCB BANK LTD, ORIENTAL PLAZA,76/77, G. T. ROAD, NEAR RED LIGHT CROSSSING, PANIPAT, 132103",9811683311,PANIPAT,PANIPAT,HARYANA
"DCB BANK LIMITED",DCBL0000163,452072001,INDORE,"CNT,SHOPNO1/2,PRINCESPRIE,21/3NEWPLSI,INORE,452001",9826277178,INDORE,INDORE,"MADHYA PRADESH"
"DCB BANK LIMITED",DCBL0000162,520072102,NALLAPADU,"D C B BANK LTD. NALLAPADU BRANCH, D. NO. 422, RAILWAY STATION ROAD, NALLAPADU, GUNTUR, A P 522005",9963587841,NALLAPADU,GUNTUR,"ANDHRA PRADESH"
"DCB BANK LIMITED",DCBL0000161,464072501,DHOKHEDA,"D C B BANK LTD. PHN NO. 30,DHOKHEDA,BARELI,RAISEN, MADHYA PRADESH 464668",9425193131,DHOKHEDA,RAISEN,"MADHYA PRADESH"
"DCB BANK LIMITED",DCBL0000160,380072007,BAREJA,"DCB BANK LTD. 101, 104 ,SURYADEEP ENCLAVE BAREJA KHEDA ROAD  DASKOI AHMEDABAD  GUJARAT  382425",9909021373,BAREJA,AHMEDABAD,GUJARAT
"DCB BANK LIMITED",DCBL0000159,620072002,TIRUCHIRAPALLI,"D C B BANK LTD.C 70 , 1ST FLOOR, 4TH CROSS THILLAI NAGAR WEST TIRUCHIRAPALLI 620003",9791908507,TIRUCHIRAPALLI,TIRUCHIRAPPALLI,"TAMIL NADU"
"DCB BANK LIMITED",DCBL0000158,600072005,TAMBARAM,"DCB BANK LTD.GROUND FLOOR, 27 / 8,KAMARAJAR STREET, WEST TAMBARAM, CHENNAI - 600045",8608391727,TAMBARAM,KANCHIPURAM,"TAMIL NADU"
"DCB BANK LIMITED",DCBL0000157,110072010,PITAMPURA,"FD 6, PITAMPURA, NEW DELHI, PIN CODE 110034",9654453478,PITAMPURA,"NORTH DELHI",DELHI
"DCB BANK LIMITED",DCBL0000156,148072102,MALERKOTLA,"DCB BANK LTD,HUDBUST NO.58,STADIUM ROAD,ALFALAH COLONY, MALERKOTLA 148023",9914300184,MALERKOTLA,SANGRUR,PUNJAB
"DCB BANK LIMITED",DCBL0000155,505072002,REKURTHI,"REKURTHI,HIMABINDU BHAVAN,JAGITYAL ROAD,REKURTHI,DISTRICT KARIMNAGAR,STATE ANDHRA PRADESH 505002",9966576622,REKURTHI,KARIMNAGAR,"ANDHRA PRADESH"
"DCB BANK LIMITED",DCBL0000154,464072201,PANJH,"C BY O SHREE SHUBHAM LOGISTICS LTD,SAGAR RD,VILLAGE PANJH,TEHSIL AND DISTRICT VIDISHA,MP 464 001",9893907790,PANJH,VIDISHA,"MADHYA PRADESH"
"DCB BANK LIMITED",DCBL0000153,767072002,BALANGIR,"MAIN ROAD,GANDHINAGAR PADA,NH 26,BALANGIR,DISTRICT BALANGIR,STATE ODISHA,PIN 767 001",234686,BALANGIR,BALANGIR,ODISHA
"DCB BANK LIMITED",DCBL0000152,482072001,KARMETA,"PLOT NO.1,SURVEY NO.259 BY 2,KIRAN PALACE,BAJRANG NAGAR,KATANGI RD,KARMETA,DIST.JABALPUR,MP 482001",9827055503,KARMETA┬á,JABALPUR,"MADHYA PRADESH"
"DCB BANK LIMITED",DCBL0000151,751072002,RAGHUNATHPUR,"NEAR GANGUA BRIDGE,NH 203,CUTTACK PURI ROAD,RAGHUNATHPUR DISTRICT KHURDA,STATE ODISHA 751002",7894443010,RAGHUNATHPUR,KHURDA,ODISHA
"DCB BANK LIMITED",DCBL0000150,751072002,DURGAPRASAD,"D C B BANK LTD. DURGAPRASAD BRANCH MAIN ROAD, DURGAPRASAD DIST.NAYAGARH, ODISHA 752069",7894443010,DURGAPRASAD,NAYAGARH,ODISHA
"DCB BANK LIMITED",DCBL0000149,492072503,KURRA,"MAIN ROAD,KURRA,PO PATEWA,TEHSIL ABHANPUR,DISTRICT RAIPUR,STATE CHHATTISGARH 492 001",9630412612,KURRA,RAIPUR,CHANDIGARH
"DCB BANK LIMITED",DCBL0000148,767072502,PATNAGARH,"BHOLANATH COMPLEX,S.H.42,PATNAGARH,DISTRICT BALANGIR,ODISHA,PIN 767025",7894434137,PATNAGARH,BALANGIR,ODISHA
"DCB BANK LIMITED",DCBL0000147,491072501,DONGERGAON,"DONGERGAON BRANCH,BAZAR CHOWK,DONGERGAON,DIST RAJNANDGAON,STATE CHHATTISGARH,PIN 491661",9329100023,DONGERGAON,RAJNANDGAON,CHANDIGARH
"DCB BANK LIMITED",DCBL0000146,136072352,CHEEKA,"LAXMI COMPLEX,GROUND FLOOR,GUHLA ROAD,CHEEKA,DIST KAITHAL STATE HARYANA PIN 136034",9896023601,CHEEKA,KAITHAL,HARYANA
"DCB BANK LIMITED",DCBL0000145,487072001,GOTEGAON,"NEAR OLD BUS STAND,MAIN ROAD,GOTEGAONTEHSIL,NARSINGHPUR,MADHYA PRADESH 487118",283633,GOTEGAON,NARSINGHPUR,"MADHYA PRADESH"
"DCB BANK LIMITED",DCBL0000144,388072051,RANGAIPURA,"368,NADIAD ┬û PETLAD ROAD, NEAR PARAS STEEL, RANGAIPURA, TALUKA ┬û PETLAD,ANAND, STATE ┬û GUJARATPIN CODE 388450",224432,RANGAIPURA,ANAND,GUJARAT
"DCB BANK LIMITED",DCBL0000143,766072501,"DHARAMGARH BRANCH","DEVELOPMENT CREDIT BANK LTD.DHARAMGARH BRANCH,COLLEGE ROAD,DHARAMGARH KALAHANDI ODISHA 766015",7752008021,KALAHANDI,KALAHANDI,ODISHA
"DCB BANK LIMITED",DCBL0000142,151072102,FARIDKOT,"D C B BANK LTD.DHIR S COMPLEX,GROUND FLOOR,ADJOINING EASY DAY CIRCULAR ROAD,FARIDKOT 151203",8728800310,FARIDKOT,FARIDKOT,PUNJAB
"DCB BANK LIMITED",DCBL0000141,147072152,NABHA,"JINDAL TOWER, GROUND FLOOR, CINEMA ROAD, NABHA, PUNJAB, PIN 147201",1765223540,PATIALA,PATIALA,PUNJAB
"DCB BANK LIMITED",DCBL0000140,335072052,"4 ML","29, HOMELAND CITY PROJECTS LTD., 4 ML, SRIGANGANAGAR, DISTRICT ┬û SRIGANGANAGAR,  STATE ┬û RAJASTHAN, PIN ┬û 335001",9829020975,SRIGANGANAGAR,SRIGANGANAGAR,RAJASTHAN
"DCB BANK LIMITED",DCBL0000139,335072051,SATEEPURA,"PLOT NO. 10, MALKEET SINGH COLONY, SANGARIA ROAD, SATEEPURA, HANUMANGARH JUNCTION.  DISTRICT ┬û HANUMANGARH, STATE ┬û RAJASTHAN ┬û 335513",9460076655,HANUMANGARH,HANUMANGARH,RAJASTHAN
"DCB BANK LIMITED",DCBL0000138,492072502,BERLA,"OLD BUS STAND ROAD, BERLA, DISTRICT ┬û BEMETARA, STATE ┬û CHATTISGARH, PIN ┬û 491332",9584309706,BEMETARA,BEMETARA,CHANDIGARH
"DCB BANK LIMITED",DCBL0000137,492072501,BEMETARA,"DURG ROAD, BEMETARA, DISTRICT ┬û BEMETARA, STATE ┬û CHATTISGARH, PIN ┬û 491335",7824206020,BEMETARA,BEMETARA,CHANDIGARH
"DCB BANK LIMITED",DCBL0000136,768072502,REDHAKHOL,"MAIN ROAD, AT POST REDHAKHOL, DISTRICT ┬û SAMBALPUR PIN ┬û 768106, STATE ┬û ODISHA",9437334017,SAMBALPUR,SAMBALPUR,ODISHA
"DCB BANK LIMITED",DCBL0000135,600072004,MINJUR,"35 T H ROAD, PONNERI TALUK, MINJUR, THIRUVALLUR, CHENNAI - 601203",4427933330,THIRUVALLUR,THIRUVALLUR,"TAMIL NADU"
"DCB BANK LIMITED",DCBL0000134,152072002,FEROZEPUR,"MALHOTRA BUILDING, GROUND FLOOR, NEAR BAGHDADI GATE, NATIONAL ROAD, OPP. PNB BANK, FEROZEPUR - 152002",9872300498,FEROZEPUR,FEROZEPUR,PUNJAB
"DCB BANK LIMITED",DCBL0000133,142072052,JAGRAON,"BABA NAND SINGH MARKET, KAMLA CHOWK, JAGRAON, PUNJAB - 142026",1624224434,LUDHIANA,LUDHIANA,PUNJAB
"DCB BANK LIMITED",DCBL0000132,461072501,NAYAKHEDA,"PLOT NO. 23 / 37, NEAR RAILWAY GATE, NAYAKHEDA, TEHSIL ┬û BANKHEDI DISTRICT ┬û HOSHANGABAD, STATE ┬û MADHYA PRADESH PIN ┬û 461990",7576228225,HOSHANGABAD,HOSHANGABAD,"MADHYA PRADESH"
"DCB BANK LIMITED",DCBL0000131,761072502,"SURALA JUNCTION","PLOT 607, SURALA JUNCTION, AT POST ┬û GIRISOLA, DISTRICT ┬û GANJAM, ODISHA ┬û 761009",7894434135,GANJAM,GANJAM,ODISHA
"DCB BANK LIMITED",DCBL0000130,759072102,JARASINGHA,"MAIN ROAD, JARASINGHA, DISTRICT ┬û ANGUL, ODISHA ┬û 759143",7894444396,ANGUL,ANGUL,ODISHA
"DCB BANK LIMITED",DCBL0000129,431072302,BAHIRWADI,"PREMISES OF LATE ASHOKCHAND SANCHETI SHIKSHAN PRASARAK MANDAL, HOUSE NO. 3891, BAHIRWADI, TALUKA & DISTRICT BEED, MAHARASHTRA PIN :- 431122",9850699791,BEED,BEED,MAHARASHTRA
"DCB BANK LIMITED",DCBL0000128,464072051,BASODA,"BARETH ROAD, IN FRONT OF CHURCH, BASODA ┬û 464221, DISTRICT :┬û VIDISHA, STATE :┬û MADHYA PRADESH",0,VIDISHA,VIDISHA,"MADHYA PRADESH"
"DCB BANK LIMITED",DCBL0000127,491072502,KUMHARI,"DCB BANK LTD.KUMHARI BRANCH,MAIN ROAD,KUMHARI,DISTRICT DURG,STATE CHHATTISGARH,PIN 490042",247001,KUMHARI,DURG,CHANDIGARH
"DCB BANK LIMITED",DCBL0000126,334072051,NOKHA,"N H 89, OPP. BABA CHHOTU NATH SCHOOL,  BIKANER ROAD, NOKHA, DISTRICT :BIKANER, RAJASTHAN ┬û 334803",1531220395,BIKANER,BIKANER,RAJASTHAN
"DCB BANK LIMITED",DCBL0000125,493072151,"BALODA BAZAR","MAIN ROAD,AMBEDKARCHOWK,BALODA BAZAR,BALODA BAZAR,CHHATTISGARH,493332",9584309706,"BALODA BAZAR","BALODA BAZAR",CHANDIGARH
"DCB BANK LIMITED",DCBL0000124,520072722,KAIKALUR,"D C B BANK LTD.D NO.1081,OPP S B I MAIN BRANCH,RAILWAY STATION ROAD,KAIKALUR DISTRICT KRISHNA,STATE A P PIN 521333",9618995636,KAIKALUR,KRISHNA,"ANDHRA PRADESH"
"DCB BANK LIMITED",DCBL0000123,533072562,ANAPARTHY,"CANAL ROAD, ANAPARTHY, DISTRICT ┬û EAST GODAVARI, STATE ┬û ANDHRA PRADESH PIN ┬û 533342",7731033777,"EAST GODAVARI","EAST GODAVARI","ANDHRA PRADESH"
"DCB BANK LIMITED",DCBL0000122,534072722,AKIVIDU,"J S R TOWER, P.P. ROAD, AKIVIDU ┬û 534235 WEST GODAVARI DISTRICT, ANDHRA PRADESH.",254855,"WEST GODAVARI","WEST GODAVARI","ANDHRA PRADESH"
"DCB BANK LIMITED",DCBL0000121,760072002,JAGANNATHPUR,"PLOT NO.1141, NH5, JAGANNATHPUR, BERHAMPUR, DISTRICT ┬û GANJAM, ODISHA, PIN ┬û 760007",6811259901,GANJAM,GANJAM,ODISHA
"DCB BANK LIMITED",DCBL0000120,520072002,VIJAYWADA,"DEVELOPMENT CREDIT BANK LIMITED 29-37-23, ELURU ROAD, VIJAYWADA - 520 002.",6460311,KRISHNA,KRISHNA,"ANDHRA PRADESH"
"DCB BANK LIMITED",DCBL0000119,110072009,NOIDA,"DEVELOPMENT CREDIT BANK LIMITED F-25, SECTOR 18, NOIDA, PIN - 201 301. DISTRICT - GAUTAM BUDHA NAGAR UTTAR PRADESH - 201301",1202510423,"GAUTAM BUDHA NAGAR","GAUTAM BUDHA NAGAR","UTTAR PRADESH"
"DCB BANK LIMITED",DCBL0000118,385072031,"NANA RASANA","DEESA PALANPUR HIGHWAY, TALUKA: DEESA, DISTRICT: BANASKANTHA, GUJARAT 385535",2744263281,BANASKANTHA,BANASKANTHA,GUJARAT
"DCB BANK LIMITED",DCBL0000117,462072501,MANDIDEEP,"PLOT NO. 203, B┬ûSECTOR, INDRA NAGAR, MANDIDEEP, TEHSIL GOHARGANJ, DISTRICT ┬û RAISEN, STATE ┬û MADHYA PRADESH, PIN - 462046",7415708013,RAISEN,RAISEN,"MADHYA PRADESH"
"DCB BANK LIMITED",DCBL0000116,768072501,ATTABIRA,"AT / PO - ATTABIRA, MAIN ROAD, OPP. RMC COMPLEX, ATTABIRA, DISTRICT - BARGARH, STATE - ODISHA,  PIN - 768027",7752008024,BARGARH,BARGARH,ODISHA
"DCB BANK LIMITED",DCBL0000115,394072501,SONGADH,"PLOT NO. 384, NEAR SBI, BRAHMIN FALIYA NAVAGAM POST SONGADH, DIST TAPI,  GUJARAT ┬û 394670",9998000991,TAPI,TAPI,GUJARAT
"DCB BANK LIMITED",DCBL0000114,388072501,VASAD,"AT & POST VASAD, YASH WAY BRIDGE, BORSAD ROAD, VASAD, TAL & DIST.  ANAND, GUJARAT ┬û 388306",0,ANAND,ANAND,GUJARAT
"DCB BANK LIMITED",DCBL0000113,767072501,DUNGURIPALI,"KHATA NO. 380 / 287, PLOT NO. 2049 / 2377, MOUZA ┬û GAMBHARIPALI, MAIN ROAD, DUNGURIPALI ┬û 767023.  DISTRICT ┬û SONEPUR, STATE ┬û ODISHA",7894444390,SONEPUR,SONEPUR,ODISHA
"DCB BANK LIMITED",DCBL0000112,487072501,GADARWARA,"BHAMA WARD, NEW GALLA MANDI ROAD, GADARWARA ┬û 487551, DIST. NARSINGHPUR, STATE ┬û MADHYA PRADESH",7791254713,NARSINGHPUR,NARSINGHPUR,"MADHYA PRADESH"
"DCB BANK LIMITED",DCBL0000111,302072002,JAIPUR,"DEVELOPMENT CREDIT BANK LIMITED GEEJGARH TOWERS, HAWA SADAK, CIVIL LINES, JAIPUR, RAJASTHAN. PIN - 302006",1412211361,JAIPUR,JAIPUR,RAJASTHAN
"DCB BANK LIMITED",DCBL0000110,761072501,HINJILICUT,"KHATA NO 115, PLOT NO 628/632, LAXMI BAZAR, MAIN ROAD, HINJILICUT, DIST- GANJAM, ORISSA- 761102",7894444380,GANJAM,GANJAM,ODISHA
"DCB BANK LIMITED",DCBL0000109,395072003,KADODARA,"DCB BANK LTD., SAI BABA SOCIETY, NR.SARDAR COMPLEX, AT.POST:KADODARA, TALUKA:PALSANA, KADODARA, SURAT - 394327.",2622276000,SURAT,SURAT,GUJARAT
"DCB BANK LIMITED",DCBL0000108,226072002,LUCKNOW,"SHALIMAR TOWER, GF, TC-57/V, VIBHUTI KHAND, GOMTI NAGAR, LUCKNOW - 226 010. UTTAR PRADESH",5226050163,LUCKNOW,LUCKNOW,"UTTAR PRADESH"
"DCB BANK LIMITED",DCBL0000107,141072002,LUDHIANA,"SCO 10-11, FEROZE GANDHI MARKET, OPP. MARUTI SHOWROOM, FEROZEPUR ROAD, LUDHIANA-141001",1616620221,LUDHIANA,LUDHIANA,PUNJAB
"DCB BANK LIMITED",DCBL0000106,461072301,PIPARIYA,"PLOT NO. 52, RADHA KRISHNAN WARD, SHOBHAPUR ROAD, WARD NO 18, PIPARIYA, DIST. HOSHANGABAD, MADHYA PRADESH - 461775",7576220205,HOSHANGABAD,HOSHANGABAD,"MADHYA PRADESH"
"DCB BANK LIMITED",DCBL0000105,682072002,KOCHI,"KERALA CHAMBER OF COMMERCE AND INDUSTRY BUILDING, GROUND FLOOR, CHAMBER CORNER, SHANMUGHAM ROAD, KOCHI ┬û 682031.",4846069001,ERNAKULAM,ERNAKULAM,KERALA
"DCB BANK LIMITED",DCBL0000104,461072201,ITARSI,"DCB BANK ITARSI, SHOP NO. 17, PLOT NO. 82, 5TH LINE , AZAD NAGAR, ITARSI, DISTRICT-HOSHANGABAD, MP - 461111",7572644002,HOSHANGABAD,HOSHANGABAD,"MADHYA PRADESH"
"DCB BANK LIMITED",DCBL0000103,768072302,BARGARH,"DCB BANK , GROUND FLOOR, KRIPAL TOWER, NEAR GURUDWARA , BARGARH , ODISHA , PIN - 768028",9238191800,BARGARH,BARGARH,ODISHA
"DCB BANK LIMITED",DCBL0000102,72102,NETRANG,"SHOP NO. 7, GURJARI TALKIES COMPLEX, JAWAHAR BAZAR CHAR RASTA, DEDIAPADA ROAD, NETRANG, TAL VALIYA, DIST - BHARUCH, GUJARAT - 393130",2643282227,BHARUCH,BHARUCH,GUJARAT
"DCB BANK LIMITED",DCBL0000101,394072091,MANDVI,"DHANRAJ POONAM CHAND DALWALA COMPOUND, OPP. S. T. BUS STOP, KIM-MANDVI ROAD, MANDVI, DIST. SURAT. 394160",2616691418,SURAT,SURAT,GUJARAT
"DCB BANK LIMITED",DCBL0000100,390072002,VADODARA,"STARTREK BUILDING, O P ROAD, NEAR CHAKLI CIRCLE, VADODARA - 390007",2656646411,VADODARA,VADODARA,GUJARAT
"DCB BANK LIMITED",DCBL0000098,411072005,KONDWA,"SHOP NO. 1/2/3 , BRAHMA MAJESTIC, NIBM ROAD, KONDHWA KHURD, PUNE 411048",65602011,PUNE,PUNE,MAHARASHTRA
"DCB BANK LIMITED",DCBL0000097,600072003,"PARRYS CORNER","NEW NO. 177 (OLD NO. 89), BROADWAY, CHENNAI ┬û 600 108.",4464520751,CHENNAI,CHENNAI,"TAMIL NADU"
"DCB BANK LIMITED",DCBL0000096,342072002,JODHPUR,"LIG SCHEME 3, PLOT NO 8, NEAR NEW KOHINOOR CINEMA, CHOPASNI ROAD, JODHPUR - 342 001",0,JODHPUR,JODHPUR,RAJASTHAN
"DCB BANK LIMITED",DCBL0000095,422072002,NASHIK,"PLOT NO. 49, DWARKAMAI BUILDING, SHIVGIRI COLONY, D┬ÆSOUZA COLONY, OPPOSITE K KATHIYAWAD, NASIK ┬û 422 005.",6510002,NASIK,NASIK,MAHARASHTRA
"DCB BANK LIMITED",DCBL0000094,400072038,"VASAI ROAD","GAUTAM GOVIND, AMBADI ROAD, NEXT SURYODAY BAJAJ SHOW ROOM,VASAI ROAD (W), THANE - 401 202",6453528,THANE,THANE,MAHARASHTRA
"DCB BANK LIMITED",DCBL0000093,110072008,KONDLI,"V-4, MAYUR PLAZA, PLOT 5, BLOCK G, MAYUR VIHAR, PHASE ┬û III,  KONDLI GHAROLI, NEW DELHI ┬û 110 096.",1164649118,DELHI,DELHI,DELHI
"DCB BANK LIMITED",DCBL0000092,110072006,KAPASHERA,"SHIV CHAND COMPLEX, OLD GURGAON ROAD,  OPP. FUN AND FOOD VILLAGE, KAPASHERA, NEW DELHI ┬û 110 037.",1164649110,DELHI,DELHI,DELHI
"DCB BANK LIMITED",DCBL0000091,110072007,"CHANDNI CHOWK","1488-1489, MAIN ROAD, CHANDNI CHOWK, NEW DELHI ┬û 110 006.",1164649057,DELHI,DELHI,DELHI
"DCB BANK LIMITED",DCBL0000090,560072005,JAKKASANDRA,"# 98/1 MMR PLAZA, SARJAPUR MAIN ROAD, JAKKASANDRA 1ST BLOCK, KORMANGALA, BANGALORE - 560 034",8065360001,"BANGALORE RURAL","BANGALORE RURAL",KARNATAKA
"DCB BANK LIMITED",DCBL0000089,700072004,"BRABOURNE ROAD","BANERJEE BHAVAN, 15, BRABOURNE ROAD, GROUND FLOOR, KOLKATA - 700 001.",3366272617,KOLKATTA,KOLKATTA,"WEST BENGAL"
"DCB BANK LIMITED",DCBL0000088,72088,DEDIAPADA,"DEDIAPADA CHAR RASTA, NEXT TO DENA BANK BRANCH, DEDIAPADA MAIN ROAD, DEDIAPADA, DIST. NARMADA, GUJARAT. PIN 393040",2649234480,DEDIAPADA,NARMADA,GUJARAT
"DCB BANK LIMITED",DCBL0000087,700072003,GARIAHAT,"42/1B, GARIAHAT ROAD, NEAR GOL PARK, KOLKATA700029",3366272634,KOLKATTA,KOLKATTA,"WEST BENGAL"
"DCB BANK LIMITED",DCBL0000086,400072037,"MUCHHALA POLYTECHNIC","3&4 -A/6,RITA BLDG,GROUND FLOOR, SAI BABA VIHAR COMPLEX, VILLAGE KAVESAR, ADJACENT TO MUCHHALA POLYTECHNIC, GHODBUNDER ROAD, THANE - 400601",65992158,THANE,THANE,MAHARASHTRA
"DCB BANK LIMITED",DCBL0000085,500072009,CHANDANAGAR,"4-91, SUBHAM PLAZA, CHANDANAGAR, HYDERABAD - 500050",64631281,HYDERABAD,HYDERABAD,"ANDHRA PRADESH"
"DCB BANK LIMITED",DCBL0000084,400072036,KALAMBOLI,"UNIT NO. 7 & 8 NEEL UDHYAN, SANJAY CO-OP HSG SOCIETY, PLOT NO. 19 SECTOR NO. 3E, KALAMBOLI, NAVI MUMBAI - 410218",65992075,RAIGAD,RAIGAD,MAHARASHTRA
"DCB BANK LIMITED",DCBL0000083,NA,GHATLODIA,"L 15 BY 16  AGARWAL COMPLEX  SOLA ROAD  GHATLODIA  AHMEDABAD 380 061",0,GHATLODIYA,AHMEDABAD,GUJARAT
"DCB BANK LIMITED",DCBL0000082,560072004,"JAYA NAGAR","# 239/26, RAJASREE TOWERS, 9TH MAIN ROAD, 3RD BLOCK, JAYANAGAR, BANGALORE - 560011",8065393942,BANGALORE,BANGALORE,KARNATAKA
"DCB BANK LIMITED",DCBL0000081,411072004,"SATARA ROAD, PUNE","SHARADA ARCADE,GROUND FLOOR, PUNE SATARA ROAD ,BIBWEWADI,PUNE 411037",65601306,PUNE,PUNE,MAHARASHTRA
"DCB BANK LIMITED",DCBL0000080,380072005,VEJALPUR,"1-4 GR. FLOOR, MEDILINK HOSPITAL BLDG., SHYAMAL CROSS ROAD, 132 FT. RING ROAD, VEJALPUR, SATELLITE, AHMEDABAD 380015",7965105612,AHMEDABAD,AHMEDABAD,GUJARAT
"DCB BANK LIMITED",DCBL0000079,700072002,"SHAKESPEAR SARANI","PREMLATA BUILDING , 39 SHAKESPEARE SARANI, KOLKATA - 700017",3366272644,KOLKATTA,KOLKATTA,"WEST BENGAL"
"DCB BANK LIMITED",DCBL0000076,500072008,GADDIANNARAM,"18/99-1, OPP: CHAITANYAPURI PETROL PUMP, KAMALA NAGAR, GADDIANNARAM, DILSUKHNAGAR, HYDERABAD - 500060",64631137,RANGAREDDY,RANGAREDDY,"ANDHRA PRADESH"
"DCB BANK LIMITED",DCBL0000072,500072007,S.R.NAGAR,"263/3 RT, ""TIRUMALA MANAS"" MAIN ROAD, SANJEEVA REDDY NAGAR, HYDEABAD - 500038",66565412,HYDERABAD,HYDERABAD,"ANDHRA PRADESH"
"DCB BANK LIMITED",DCBL0000071,560072003,"RAJAJI NAGAR","BEE EM AVENUE, 650/12, DR. RAJ KUMAR ROAD, 1ST MAIN ROAD, D BLOCK, GAYATHRINAGAR, BANGALORE - 560010",8065360256,BANGALORE,BANGALORE,KARNATAKA
"DCB BANK LIMITED",DCBL0000070,110072005,"GREATER KAILASH","S-484, GREATER KAILASH-II, NEW DELHI - 110048",1164649101,DELHI,DELHI,DELHI
"DCB BANK LIMITED",DCBL0000069,110072004,"PREET VIHAR","13, SURYA NIKETAN, OPP.ANAND VIHAR GURUDWARA, DELHI - 110092",1164649137,DELHI,DELHI,DELHI
"DCB BANK LIMITED",DCBL0000062,110072003,JHARSA,"PREM DEEP BUILDING, JHARSA ROAD, OPP. HOPE APARTMENTS, SECTOR 15 ( PART 2), GURGAON, HARYANA - 122001",1246461721,GURGAON,GURGAON,HARYANA
"DCB BANK LIMITED",DCBL0000061,NA,"ANDHERI EAST","SHREE AMBA SHANTI CHAMBERS  ANDHERI KURLA ROAD  ANDHERI EMUMBAI",0,MUMBAI,"GREATER MUMBAI",MAHARASHTRA
"DCB BANK LIMITED",DCBL0000060,600072002,CHENNAI,"37, JAMBULINGAM STREET, NUNGAMBAKKAM, CHENNAI - 600 034.",4464520730,CHENNAI,CHENNAI,"TAMIL NADU"
"DCB BANK LIMITED",DCBL0000059,72059,NAKKALGUTTA,"DNO 2-5-837 KLN REDDY COLONEY,CIRCUIT HOUSE ROAD,HANMAKONDA,WARANGAL-506001",6450349,WARANGAL,WARANGAL,"ANDHRA PRADESH"
"DCB BANK LIMITED",DCBL0000058,500072006,SECUNDRABAD,"9-1-125/1, SIDDHARTHA PLAZA, 44, SAROJINI DEVI ROAD, SECUNDERABAD - 500003",66143801,HYDERABAD,HYDERABAD,"ANDHRA PRADESH"
"DCB BANK LIMITED",DCBL0000057,403072004,MAPUSA,"RIJIM PLAZA , OPP. POSHAK, NR BARDEZ BAZAR,MAPUSA,GOA.403507",8326630975,"NORTH GOA","NORTH GOA",GOA
"DCB BANK LIMITED",DCBL0000056,403072003,MARGAO,"KARPE HOUSE, GROUND FLOOR,HOTEL GOLD STAR, NEXT TO RAYMOND SHOWROOM, ISIDORE BAPTISTA ROAD, MARGAO GOA - 403601",8326620850,"SOUTH GOA","SOUTH GOA",GOA
"DCB BANK LIMITED",DCBL0000055,403072002,PANAJI,"HELIODORO SALGADO ROAD, EL- DORADO PLAZA, PANAJI - GOA 403001",8326630951,"NORTH GOA","NORTH GOA",GOA
"DCB BANK LIMITED",DCBL0000054,403072005,VASCO-DA-GAMA,"SHOP NO.9 TO 11, VASCO CITI CENTRE, SWATANTRA PATH, VASCO, GOA 403 802",8326620876,"SOUTH GOA","SOUTH GOA",GOA
"DCB BANK LIMITED",DCBL0000053,400072034,"SABOO SIDDIQUE","SABOO SIDDIK BRANCH, M.H.S.S. COLLEGE OF ENGG., 8, SHEPHERD RD., BYCULLA, MUMBAI - 400008",23014149,MUMBAI,MUMBAI,MAHARASHTRA
"DCB BANK LIMITED",DCBL0000052,400072033,VIRAR,"SHREE PANTH SAMARTH,OPP VITHAL MANDIR, C.S .MARG,VIRAR [W], PIN - 401303",6450391,THANE,THANE,MAHARASHTRA
"DCB BANK LIMITED",DCBL0000051,500072005,"A.S.RAO NAGAR","1,2,5&7, SREE AMULYA ESTETES, KUSHAIGUDA, ECIL POST, HYDERABAD - 500062",64631172,HYDERABAD,HYDERABAD,"ANDHRA PRADESH"
"DCB BANK LIMITED",DCBL0000050,500072004,HABSIGUDA,"4-7-40/2/1, OPP: HDFC BANK, BAPUJI NAGAR, MAIN ROAD, NACHARAM, HYDERABAD - 500076",64632029,RANGAREDDY,RANGAREDDY,"ANDHRA PRADESH"
"DCB BANK LIMITED",DCBL0000049,500072003,MADHAPUR,"PRANAZ PLAZA, H NO 1-74/2/1/A/NR, PLOT NO 3/A, SURVEY NO 58 PART, GUTTALA BEGUMPET, MADHAPUR, HYDERABAD - 500081",64631257,RANGAREDDY,RANGAREDDY,"ANDHRA PRADESH"
"DCB BANK LIMITED",DCBL0000048,411072003,"J.M.ROAD - PUNE","ROHIT BUILDING, OFF J.M.ROAD,DECCAN GYMKHANA,PUNE 411 004",66421651,PUNE,PUNE,MAHARASHTRA
"DCB BANK LIMITED",DCBL0000047,72047,SILVASSA,"9, BALAJI COMPLEX, NAROLI RD, SILVASSA 396230",2606450136,"DADRA & NAGAR HAVELI","DADRA & NAGAR HAVELI","DADRA AND NAGAR HAVELI"
"DCB BANK LIMITED",DCBL0000046,110072002,"NEW DELHI","CONNAUGHT PLACE BRANCH, #15 G, HANSALAYA BUILDING, BARAKHAMBA ROAD, NEW DELHI - 110001",1164649064,DELHI,DELHI,DELHI
"DCB BANK LIMITED",DCBL0000045,72045,ANKLESWAR,"124-128, ANMOL PLAZA, OPP. GIDC BUS STAND, ANKLESHWAR - 393002.",2646650520,BHARUCH,BHARUCH,GUJARAT
"DCB BANK LIMITED",DCBL0000044,72044,DAMAN,"AL HUSSEIN PALACE, ZAPA BAHAR, MAIN ROAD, NANI DAMAN, DAMAN 396210",2816643703,DAMAN,DAMAN,"DAMAN AND DIU"
"DCB BANK LIMITED",DCBL0000043,NA,FORT,"8 RAJA BAHADUR COMPOUND  A D MARG  FORT  MUMBAI 400 001",0,MUMBAI,"GREATER MUMBAI",MAHARASHTRA
"DCB BANK LIMITED",DCBL0000042,72042,BHUJ,"LAL TEKRI, OPP.BSNL OFFICE(CUSTOMER CARE), BHUJ-KUTCH-370001",2832653101,KACHCHH,KACHCHH,GUJARAT
"DCB BANK LIMITED",DCBL0000041,380072004,GANDHINAGAR,"PLOT NO. 439, SECTORE-16, GH ROAD, GANDHINAGAR 382076",7965730137,GANDHINAGAR,GANDHINAGAR,GUJARAT
"DCB BANK LIMITED",DCBL0000040,360072002,RAJKOT,"JAY NAGNATH COMPLEX, 23 MILLPARA LANE, NR.MEHTA PETROL PUMP, DHEBAR ROAD, RAJKOT 360002",2816643700,RAJKOT,RAJKOT,GUJARAT
"DCB BANK LIMITED",DCBL0000039,400072031,"MIRA ROAD","A/1E RASHMI PARK,SHEETAL NAGAR, NEAR M.T.N.L MIRA ROAD [E], PIN - 401107",65992081,THANE,THANE,MAHARASHTRA
"DCB BANK LIMITED",DCBL0000038,560072002,BANGALORE,"128(31/1) A&S PRESTIGE, ANNEX, MG ROAD, BANGALORE - 560001",8066310500,BANGALORE,BANGALORE,KARNATAKA
"DCB BANK LIMITED",DCBL0000037,NA,RTGS-HO,"PENINSULA BUSINESS PARK,  TOWER A , 9TH FLOOR, SENAPATI BAPAT MARG, LOWER PAREL MUMBAI  400 013.",66187283,MUMBAI,MUMBAI,MAHARASHTRA
"DCB BANK LIMITED",DCBL0000036,380072003,C.G.ROAD,"PRERNA ARCADE, GROUND FLOOR, OPP.DOCTOR HOUSE, NEAR PARIMAL GARDEN, C.G.ROAD, AHMEDABAD 380006. 380006",7966143241,AHMEDABAD,AHMEDABAD,GUJARAT
"DCB BANK LIMITED",DCBL0000035,72035,SIDHPUR,"SANMAN COMPLEX, OPP. CIVIL COURT, SIDHPUR 384151",2767650180,PATAN,PATAN,GUJARAT
"DCB BANK LIMITED",DCBL0000034,72034,VAPI,"DEEP APARTMENT, VAPI - SILVASSA ROAD, GIDC CHAR RASTA, VAPI 396191",2606540003,VALSAD,VALSAD,GUJARAT
"DCB BANK LIMITED",DCBL0000033,395072002,SURAT,"G-1 AND G-2, GROUND FLOOR, ROCKFORD BUSINESS CENTER, UDHNA DARWAJA, RING ROAD, SURAT ┬û 395002.",2616691418,SURAT,SURAT,GUJARAT
"DCB BANK LIMITED",DCBL0000032,431072050,AURANAGABAD,"J.K.TOWERS, ADALAT ROAD, KRANTI CHOWK, AURANGABAD- 431005",6604875,AURANGABAD,AURANGABAD,MAHARASHTRA
"DCB BANK LIMITED",DCBL0000031,400072029,LOKHANDWALA,"SHOP NO 4&5 APNA GHAR CHS, SWAMI SAMARTH NAGAR,ANDHERI [W], MUMBAI - 400053",67587500,MUMBAI,MUMBAI,MAHARASHTRA
"DCB BANK LIMITED",DCBL0000030,400072030,VASHI,"75, VARDHAMAN MARKET, SECTOR 17, VASHI, NAVI MUMBAI - 400703",65991189,THANE,THANE,MAHARASHTRA
"DCB BANK LIMITED",DCBL0000029,400072027,KAUSA,"NASHEMAN, N WING, SHOP NO.2,3,4, KAUSA, MUMBRA DISTRICT, THANE.PIN - 400612",65992064,THANE,THANE,MAHARASHTRA
"DCB BANK LIMITED",DCBL0000028,380072002,"RELIEF ROAD","NEXT TO RELIEF CINEMA, OPP Z. K. HOTEL, RELIEF ROAD, AHMEDABAD 380001",7965105600,AHMEDABAD,AHMEDABAD,GUJARAT
"DCB BANK LIMITED",DCBL0000027,500072002,HYDERABAD,"30/1, GROUND FLOOR, METHODIST COMPLEX, ABIDS, HYDERABAD - 500001",66021981,HYDERABAD,HYDERABAD,"ANDHRA PRADESH"
"DCB BANK LIMITED",DCBL0000026,400072026,SANTACRUZ,"SHRI VIKAS CHS LTD,60-B LINKING ROAD, JUNCTION OF NORTH AVENUE,SANTACRUZ [W], MUMBAI - 400054",67587530,MUMBAI,MUMBAI,MAHARASHTRA
"DCB BANK LIMITED",DCBL0000025,400072025,MALAD,"MAMLATDAR WADI, LIBERTY GARDEN ROAD # 1, MALAD [W] MUMBAI - 400064",67083540,MUMBAI,MUMBAI,MAHARASHTRA
"DCB BANK LIMITED",DCBL0000024,400072024,MAHIM,"9/SAMRAT, OPP.VICTORIA SCHOOL, 314/LADY JAMSHEDJI ROAD, MAHIM (W), MUMBAI - 400016",65992130,MUMBAI,MUMBAI,MAHARASHTRA
"DCB BANK LIMITED",DCBL0000023,400072023,"NARIMAN POINT","OFFICE NO 3, MITTAL COURT B WING, NARIMAN POINT - 400021",67474100,MUMBAI,MUMBAI,MAHARASHTRA
"DCB BANK LIMITED",DCBL0000022,72022,NANDED-WAGHALA,"BARARA TOWER, UPPER GROUND FLOOR, DOCTOR'S LANE, NEAR KALAMANDIR, NANDED - 431601",646113,NANDED,NANDED,MAHARASHTRA
"DCB BANK LIMITED",DCBL0000019,400072019,"MOHAMEDALI ROAD","MOHAMEDALI ROAD BRANCH, M.R.A. MARG, OPP. CRAWFORD MARKET, MUMBAI - 400001",66156917,MUMBAI,MUMBAI,MAHARASHTRA
"DCB BANK LIMITED",DCBL0000018,400072018,THANE,"JANKI NIWAS, GROUND FLOOR, OPP. GADKARI RANGAYATAN, DR. MOOSE ROAD, TALAO PALI, THANE (W) - 400602",25333909,THANE,THANE,MAHARASHTRA
"DCB BANK LIMITED",DCBL0000017,400072017,VERSOVA,"SHOP 1 TO 4, GROUND FLOOR, MADHUBAN CHSL, NEXT TO AKB BAUG, ANDHERI WEST, MUMBAI - 400061",65992105,MUMBAI,MUMBAI,MAHARASHTRA
"DCB BANK LIMITED",DCBL0000015,72015,WARANGAL,"8-9-8, STATION ROAD, WARANGAL - 506002",6453060,WARANGAL,WARANGAL,"ANDHRA PRADESH"
"DCB BANK LIMITED",DCBL0000014,411072002,PUNE,"MILLENIUM STAR, NO.3, GROUND FLOOR, DHOLE PATIL ROAD, NEAR RUBY HALL CLINIC, PUNE - 411 001.",65601301,PUNE,PUNE,MAHARASHTRA
"DCB BANK LIMITED",DCBL0000013,NA,"NESBIT ROAD","34  DAS COMPOUND  NESBOIT ROAD  MAZGAON  MUMBAI 400 010",0,MUMBAI,"GREATER MUMBAI",MAHARASHTRA
"DCB BANK LIMITED",DCBL0000012,400072012,MUMBRA,"D-9/D-10/D-25/ D-26, NASHEMAN INDUSTRIAL COMPLEX, MEK ENGINEERING WORKS, MUMBRA - 400 612.",65992150,THANE,THANE,MAHARASHTRA
"DCB BANK LIMITED",DCBL0000011,400072011,KURLA,"RADHABAI NIWAS,GR FLR,JUNCTION OF LBS MARG, KURLA, MUMBAI - 400070",65990798,MUMBAI,MUMBAI,MAHARASHTRA
"DCB BANK LIMITED",DCBL0000010,400072010,JOGESHWARI,"ROOP APTS,S.V.ROAD,JOGESHWARI [W], MUMBAI - 400102",67582340,MUMBAI,MUMBAI,MAHARASHTRA
"DCB BANK LIMITED",DCBL0000009,400072009,HASANABAD,"116 DR.MASCARENHAS ROAD, HASANABAD, MAZGAON, MUMBAI - 400010",67474272,MUMBAI,MUMBAI,MAHARASHTRA
"DCB BANK LIMITED",DCBL0000008,400072008,GOREGAON,"CHITNIS BUNGLOW,OPP.ANUPAM TALKIES, STATION ROAD, GOREGAON [E], MUMBAI - 400063",65992052,MUMBAI,MUMBAI,MAHARASHTRA
"DCB BANK LIMITED",DCBL0000007,400072007,DAHISAR,"GULISTAN APT,GROUND FLOOR, S.V.ROAD,DAHISAR [E] - 400068",65992036,MUMBAI,MUMBAI,MAHARASHTRA
"DCB BANK LIMITED",DCBL0000006,400072006,BYCULLA,"SAGAR CLASSIC, 64 MIRZA GALIB MARG, BYCULLA, MUMBAI - 400008",65992032,MUMBAI,MUMBAI,MAHARASHTRA
"DCB BANK LIMITED",DCBL0000005,400072005,BANDRA,"241, GROUND FLOOR,HILL VIEW APARTMENTS, HILL ROAD OPP MEHBOOB STUDIO, BANDRA (W) MUMBAI - 400050",67657930,MUMBAI,MUMBAI,MAHARASHTRA
"DCB BANK LIMITED",DCBL0000004,400072004,"ANDHERI (WEST)","19, SV ROAD, OPP. ANDHERI SUBWAY, ANDHERI (W), MUMBAI - 400058",67424165,MUMBAI,MUMBAI,MAHARASHTRA
"DCB BANK LIMITED",DCBL0000003,400072003,IMAMWADA,"116, IMAMWADA ROAD, KARIMABAD SOCIETY, MUMBAI - 400009",67472980,MUMBAI,MUMBAI,MAHARASHTRA
"DCB BANK LIMITED",DCBL0000002,NA,KALBADEVI,"413  VASANT WADI  KALBADEVI ROAD  OPP BANK OF BARODA ATM  MUMBAI 400002",0,MUMBAI,"GREATER MUMBAI",MAHARASHTRA
"DCB BANK LIMITED",DCBL0000001,400072020,"MUMBAI MAIN OFFICE","154, S.V.PATEL ROAD, DONGRI(E),MUMBAI - 400009",67474176,MUMBAI,MUMBAI,MAHARASHTRA
