BANK,IFSC,MICR,BRANCH,ADDRESS,CONTACT,CITY,DISTRICT,STATE
"IDFC BANK LIMITED",IDFB0080411,530751002,"VIZAG BRANCH","GROUND FLOOR, 43-9-146 & 147, TSN COLONY MAIN ROAD, DONDAPARTHY, VISHAKAPATNAM, ANDHRA PRADESH- 530016",9866331143,VIZAG,VISHAKAPATNAM,"ANDHRA PRADESH"
"IDFC BANK LIMITED",IDFB0080401,533751102,"RAJAHMUNDRY BRANCH","GROUND FLOOR, 79-02-03, TILAK ROAD, PRASANTI ESTATES,V L PURAM, RAJAHMUNDRY, ANDHRAPRADESH-533103",9949169075,RAJAHMUNDRY,"EAST GODAVARI","ANDHRA PRADESH"
"IDFC BANK LIMITED",IDFB0080391,520751002,"VIJAYWADA BRANCH","FIRST FLOOR, MADHUSREE BUILDING, 61-3/1-12, SERVICE ROAD, NH-5, KRISHNA DISTRICT, BALAJI NAGAR, ANDHRA PRADESH",9949169075,VIJAYWADA,KRISHNA,"ANDHRA PRADESH"
"IDFC BANK LIMITED",IDFB0080381,520751102,"GUNTUR BRANCH","FIRST FLOOR, BG ARCADE, NAGARAM PALEM MAIN ROAD, NEXT TO ALANKAR FUNCTION HALL, GUNTUR, ANDHRA PRADESH, 522004",0,GUNTUR,GUNTUR,"ANDHRA PRADESH"
"IDFC BANK LIMITED",IDFB0080353,583751403,"KUSHTAGI BRANCH","GROUND FLOOR, ILLAHI COMPLEX, MA NO.5953, PLOT NO. 1 OF SY 104 MURUDI BHIMAJA CIRCLE, KOPPAL ROAD, KARNATAKA, 584121",7338695797,KUSHTAGI,KOPPAL,KARNATAKA
"IDFC BANK LIMITED",IDFB0080352,583751302,"GANGAWATI BRANCH","GROUND FLOOR, JULAI NAGAR, INDIRA CIRCLE, GANGAWATI, KARNATAKA - 583227",8722219594,GANGAWATI,KOPPAL,KARNATAKA
"IDFC BANK LIMITED",IDFB0080351,583751402,"KOPPAL BRANCH","GROUND FLOOR, BASAVA COMPLEX, OPP HDFC BANK, HOSPET - HUBLI ROAD, HUDCO COLONY, KOPPAL, KARNATAKA - 583231",9379635590,KOPPAL,KOPPAL,KARNATAKA
"IDFC BANK LIMITED",IDFB0080333,587751103,"HOSUR BRANCH","NO.942, WARD NO. 2, KUSHTAGI ROAD, TALUKA BADAMI, DIST- BAGALKOTE, KARNATAKA - 587114",7349669816,HOSUR,BAGALKOTE,KARNATAKA
"IDFC BANK LIMITED",IDFB0080332,587751102,"MUDHOL BRANCH","GROUND FLOOR,NO.4026A/149,YADAWAD ROAD,SIDRAMESHWAR NAGAR, OPP. PWD IB, MUDHOL, BAGALKOTE, KARNATAKA",7338695797,MUDHOL,BAGALKOTE,KARNATAKA
"IDFC BANK LIMITED",IDFB0080331,587751302,"JAMKHANDI BRANCH","GROUND FLOOR, LASKARI COMPLEX, MAIGUR ROAD, BAGALKOT DISTRICT JAMKHANDI, KARNATAKA - 587301",9916874466,JAMKHANDI,BAGALKOTE,KARNATAKA
"IDFC BANK LIMITED",IDFB0080304,581751102,"RANEBENNUR BRANCH","DEVI HEIGHTS, GROUND FLOOR, OPP KEB, PB ROAD, RANEBENNUR, HAVERI DISTRICT, KARNATAKA STATE",7338695796,RANEBENNUR,HAVERI,KARNATAKA
"IDFC BANK LIMITED",IDFB0080303,581751502,"SHIGGAON BRANCH","GROUND FLOOR, KURSAPUR COMPLEX, SHIGGAON, HAVERI DISTRICT, KARNATAKA - 581205",9686113374,SHIGGAON,HAVERI,KARNATAKA
"IDFC BANK LIMITED",IDFB0080302,581751501,"MAKARVALI  BRANCH","GROUND FLOOR, SIRSI SHIMOGA HIGHWAY ROAD, MAKARAVALI, HAVERI DISTRICT, KARNATAKA- 581110",9686575106,MAKARAVALI,HAVERI,KARNATAKA
"IDFC BANK LIMITED",IDFB0080301,581751052,"HAVERI BRANCH","GROUND FLOOR, VIDYANAGAR, A BLOCK, 3RD CROSS, HAVERI, PB ROAD, HAVERI - 581110, KARNATAKA STATE",7338695796,HAVERI,HAVERI,KARNATAKA
"IDFC BANK LIMITED",IDFB0080282,580751501,"BETADUR BRANCH","BETADUR POST KUNDGOL TQ DHARWAD DISTRICT KARNATAKA 581207",7338695797,BETADUR,DHRWAD,KARNATAKA
"IDFC BANK LIMITED",IDFB0080281,580751002,"HUBBALLI  BRANCH","GROUND FLOOR, H. NO.95, N PRIDE, PINTO ROAD, DESAI CROSS, DHARWAD DISTRICT, HUBBALLI, KARNATAKA- 580020",9902122272,HUBBALLI,DHARWAD,KARNATAKA
"IDFC BANK LIMITED",IDFB0080256,590751002,"BELGAUM BRANCH","FIRST FLOOR, AADISHAKTI TOWERS, CTS NO.5650,SURVEY NO.236/2, KHANPUR ROAD, GOAVES,KARNATAKA STATE, 590003",7338695796,BELGAUM,BELGAUM,KARNATAKA
"IDFC BANK LIMITED",IDFB0080255,590751502,"MUCHANDI BRANCH","GROUND FLOOR, 620, C/0 BALARAM FAKIRA MOTARI, BHAGYALAKSHMI NIVAS, GOKUL NAGAR, GOKAK ROAD, POST MUCHANDI, BELGAUM, 16 KARNATAKA - 590016",7338695797,MUCHANDI,BELGAUM,KARNATAKA
"IDFC BANK LIMITED",IDFB0080254,591751052,"RAMDURGA BRANCH","HOUSE NO. 82/A, NAVI PETH PO, RAMDURGA TALUKA, BELGAUM DISTRICT, KARNATAKA- 591123",9886624563,RAMDURGA,BELGAUM,KARNATAKA
"IDFC BANK LIMITED",IDFB0080253,590751501,"HONAGA BRANCH","821/1069, PB ROAD, HONAGA, BELGAUM, KARNATAKA- 591156",9986354399,HONAGA,BELGAUM,KARNATAKA
"IDFC BANK LIMITED",IDFB0080252,591751502,"GOKAK  BRANCH","3195-B/ 3/1D, HOSPET GALLI, ANAND TALKIES ROAD, GOKAK, DIST-BELAGAVI, KARNATAKA-591307",9972866856,GOKAK,BELGAUM,KARNATAKA
"IDFC BANK LIMITED",IDFB0080251,591751202,"CHIKKODI BRANCH","CHAVAN PLAZA, -1, R K COLONY,NEAR GOVT HOSPITAL,CHIKODI, BELGAVI DISTRICT, KARNATAKA- 591201",7899212222,CHIKKODI,BELGAUM,KARNATAKA
"IDFC BANK LIMITED",IDFB0080201,500751002,"HYDERABAD JUBILEE TOWN","JUBILEE TOWN,PLOT NO 1130 A,ROAD NO 36,JUBILEE HILLS,HYDERABAD,TELANGANA 500033",67383000,HYDERABAD,HYDERABAD,TELANGANA
"IDFC BANK LIMITED",IDFB0080151,560751002,"BANGALORE RESIDENCY ROAD","RESIDENCY BUILDING PLOT NO 79 RESIDENCY ROAD RICHMOND TOWN BANGALORE",67943000,BANGALORE,BANGALORE,KARNATAKA
"IDFC BANK LIMITED",IDFB0080102,600751002,"NUNGAMBAKKAM BRANCH","GF& 1 FLOOR TAHERA MANOR NUNGAMBAKKAM HIGH ROAD CHENNAI 600034",9841775883,CHENNAI,CHENNAI,"TAMIL NADU"
"IDFC BANK LIMITED",IDFB0080101,600751001,"CHENNAI R.K.SALAI","DBS WESTMINISTER,108,R.K.SALAI,3RD FLOOR,CHENNAI 600 004",66145000,CHENNAI,CHENNAI,"TAMIL NADU"
"IDFC BANK LIMITED",IDFB0060221,799751002,"AGARTALA BRANCH","HOUSE NO. 130460, WARD NO. 13, TG ROAD, KRISHNA NAGAR, SHANKER CHOWMUHANI, AGARTALA TRIPURA (W) 799001",9706003024,AGARTALA,"WEST TRIPURA",TRIPURA
"IDFC BANK LIMITED",IDFB0060201,793751002,"SHILLONG BRANCH","VN HARDWARE BUILDING, DEMESEINIONG,LAITHUMKRA,OPPOSITE NEEPCO OFFICE,EAST SHILLONG, MEGHALAYA 793011",9706003024,SHILLONG,"EAST KHASI HILLS",MEGHALAYA
"IDFC BANK LIMITED",IDFB0060101,700751002,"KOLKATA BALLYGUNGE CIRCULAR ROAD","64B 1ST FLOOR BALLYGUNGE CIRCULAR ROAD KOLKATA 700019",66390700,KOLKATA,KOLKATA,"WEST BENGAL"
"IDFC BANK LIMITED",IDFB0042142,457751051,"SEJAWATA BRANCH","KHASRA NO, 32/5/2 UJJAIN ROAD, VILLAGE SEJAWATA, TEHSIL JAORA, DIST- RATLAM, MADHYA PRADESH - 457226",9987784277,SEJAWATA,RATLAM,"MADHYA PRADESH"
"IDFC BANK LIMITED",IDFB0042124,302751002,"JAIPUR BRANCH","GROUND FLOOR AND FIRST FLOOR AT 271, MAHAVEER NAGAR-II, JAIPUR, RAJASTHAN- 302018",9867740809,JAIPUR,JAIPUR,RAJASTHAN
"IDFC BANK LIMITED",IDFB0042101,462751002,"MANDIDEEP BRANCH","PLOT 14 NEAR JAIN MANDIR  MANDIDEEP RAISEN",9575802391,MANDIDEEP,RAISEN,"MADHYA PRADESH"
"IDFC BANK LIMITED",IDFB0041381,462751001,"BHOPAL RAISEN ROAD BRANCH","GROUND FLOOR,6B,GOVIND GARDEN , OPPOSITE VIDYUT NAGAR , RAISEN ROAD ,BHOPAL",7773010137,BHOPAL,BHOPAL,"MADHYA PRADESH"
"IDFC BANK LIMITED",IDFB0041351,411751002,"PUNE BUND GARDEN ROAD","AMAR AVINASH CORPORATE CITY,3RD FLOOR,BUND GARDEN ROAD,PUNE 411001",66483000,PUNE,PUNE,MAHARASHTRA
"IDFC BANK LIMITED",IDFB0041325,451751001,KHARGONE,"SHOP NO. C-14 RADHA VALLABH MKT KHARGONE, DISTT. KHARGONE, MADHYA PRADESH - 451224",9575802366,KHARGONE,KHARGONE,"MADHYA PRADESH"
"IDFC BANK LIMITED",IDFB0041324,451751502,BHIKANGAON,"SURVEY NO. 24/5, GROUND & UPPER GROUND, STREET NO.15, PLOT NO. 10, OPP, BUS STAND, TOWN BHIKANGAON, TEHSIL BHIKANGAON, DISTT. KHARGONE, MADHYA PRADESH - 451331",9875802368,BHIKANGAON,KHARGONE,"MADHYA PRADESH"
"IDFC BANK LIMITED",IDFB0041323,451751503,SIRLAI,"GROUND FLOOR,MG ROAD,GROUND FLOOR,MAIN ROAD, SIRLAI VILLAGE,TEHSIL BARWAH,DISTT. KHARGONE, MADHYA PRADESH - 451115",7089908320,SIRLAI,KHARGONE,"MADHYA PRADESH"
"IDFC BANK LIMITED",IDFB0041322,451751201,SANAWAD,"GROUND FLOOR, 411, INDORE ROAD, OPP-INDIAN OIL PETROL PUMP, SANAWAD, DISTT. KHARGONE, MADHYA PRADESH, - 451111",7869910467,SANAWAD,KHARGONE,"MADHYA PRADESH"
"IDFC BANK LIMITED",IDFB0041321,451751501,"IDFC BANK LTD","KHASRA NO 260/1/2, GROUND FLOOR, NAVALPURA MAHESHWAR ROAD, OPP- LAXMI NARAYAN COLONY, VILLAGE LADVI, TEHSIL MAHESHWAR, DISTT KHARGONE, MADHYA PRADESH-451221",9826920325,KHARGONE,KHARGONE,"MADHYA PRADESH"
"IDFC BANK LIMITED",IDFB0041303,450751502,"PANDHANA BRANCH","GROUND FLOOR WARD NO.14 DIWAL ROAD NEAR CHURCH DISTT. KHANDWA MADHYA PRADESH450661",9691131138,PANDHANA,KHANDWA,"MADHYA PRADESH"
"IDFC BANK LIMITED",IDFB0041302,450751101,"KHANDWA BRANCH","UNIT NO. 1 2 19 20 21 & 22 UPPER GROUND FLOOR LANDMARK ONE MALL WARD NO.26 PLOT. NO.104 & 105 PANDHANA ROAD KHANDWA MADHYA PRADESH450001",8462008501,KHANDWA,KHANDWA,"MADHYA PRADESH"
"IDFC BANK LIMITED",IDFB0041301,450751501,"CHHANERA BRANCH","KHASRA NO. 1632 WAR NO.10 STATION ROAD CHHNERA NEW HARSUD DISTRICT KHANDWA MADHYA PRADESH450116",8462008496,CHHANERA,KHANDWA,"MADHYA PRADESH"
"IDFC BANK LIMITED",IDFB0041263,452751002,"BUDHI BARLAI BRANCH","GROUND FLOOR 1005 VILLAGE BUDHI BARLAI , SHIPRA",7771003097,"Budhi Barlai",INDORE,"MADHYA PRADESH"
"IDFC BANK LIMITED",IDFB0041262,452751003,"INDORE - BIJALPUR BRANCH","GROUND FLOOR, H. NO. 969,VILLAGE BIJALPUR, TEHSHIL AND DISTRICT INDORE, MADHYA PRADESH - 452012",9425489253,INDORE,INDORE,"MADHYA PRADESH"
"IDFC BANK LIMITED",IDFB0041261,452751001,TAKIPURA,"GROUND FLOOR, NEAR HP PETROL PUMP BETMA ROAD, TAKIPURA TEHSIL DEPALPUR, DISTRICT INDORE, MP - 453220",9617410636,TAKIPURA,INDORE,"MADHYA PRADESH"
"IDFC BANK LIMITED",IDFB0041241,455751001,SANWER,"GROUND FLOOR, MG ROAD SANWER, SONKATCH DISTT. DEWAS, MADHYA PRADESH - 455118",9575802419,SANWER,DEWAS,"MADHYA PRADESH"
"IDFC BANK LIMITED",IDFB0041225,454751503,"BADNAWAR BRANCH","MANDI BY PASS ROAD BADNAWAR",8718806127,BADNAWAR,DHAR,"MADHYA PRADESH"
"IDFC BANK LIMITED",IDFB0041224,454751502,"DEHRIYA SARAI BRANCH","SURVEY NO 58 MAHU NEEMACH ROAD PATEL NAGAR COLONY VILLAGE DEHARIYA SARAI",9685795310,DHAR,DHAR,"MADHYA PRADESH"
"IDFC BANK LIMITED",IDFB0041223,456751101,MAKANI,"GROUND FLOOR, VILLAGE MAKANI, MAHU-NEEMACH ROAD, P.H. NO. 45, TEHSIL BADNAWAR, DISTRICT DHAR, MP-456331",955590897,MAKANI,DHAR,"MADHYA PRADESH"
"IDFC BANK LIMITED",IDFB0041222,454751501,"RAJGARH DHAR","GROUND FLOOR, NEAR HDFC BANK MAIN ROAD, RAJGARH DIST DHAR MP - 454116",9617410681,RAJGARH,DHAR,"MADHYA PRADESH"
"IDFC BANK LIMITED",IDFB0041221,454751001,DHAR,"PLOT NO. A-7 & A-8, SURVEY NO. 29/2, VILLAGE MAGAJPURA, TEHSIL & DISTRICT DHAR, MADHYA PRADESH - 454001",8889994584,DHAR,DHAR,"MADHYA PRADESH"
"IDFC BANK LIMITED",IDFB0041204,461751504,"KHIRKIAN BRANCH","GROUND FLOOR KHANDWA ROAD OPPSBS SCHOOL WARD NO.11 CHIPAWADKHIRKIYA TEHSIL KHIRKIYA DISTRICT HARDA MADHYA PRADESH461441",7773010137,KHIRKIAN,KHIRKIAN,"MADHYA PRADESH"
"IDFC BANK LIMITED",IDFB0041203,461751101,"HARDA BRANCH","GROUND FLOOR INDIRA GANDHI WARD WARD NO.10 GHANTAGHAR ROAD OPPJAIN DHARAMSHALA HARDA MADHYA PRADESH ├╜461331",7770811171,HARDA,HARDA,"MADHYA PRADESH"
"IDFC BANK LIMITED",IDFB0041202,461751508,"TAJPURA  BRANCH","GROUND FLOOR MAIN ROAD VILLAGE TAJPURA TEHSIL TIMARNI DISTT. HARDA MADHYA PRADESH461288",7771059142,TAJPURA,TAJPURA,"MADHYA PRADESH"
"IDFC BANK LIMITED",IDFB0041201,461751509,"UDA  BRANCH","GROUND FLOOR HARDA ROAD VILLAGE UDA DISTT. HARDA MADHYA PRADESH461331",7771002054,UDA,UDA,"MADHYA PRADESH"
"IDFC BANK LIMITED",IDFB0041181,454751201,DHAMNOD,"GROUND FLOOR, OLD AB ROAD, OPP-DHAMNOD CITY SCAN CENTRE, DHAMNOD, DISTT. DHAR, MADHYA PRADESH-454552",9755005454,DHAMNOD,DHAR,"MADHYA PRADESH"
"IDFC BANK LIMITED",IDFB0041171,455751501,KHATEGAON,"GROUND FLOOR, KHASRA NO. 133/11, OPP-GOVT. COLLEGE, KHATEGAON, DISTT. DEWAS, MADHYA PRADESH-455336",7389941421,KHATEGAON,DEWAS,"MADHYA PRADESH"
"IDFC BANK LIMITED",IDFB0041113,461751506,"MEHGWAN  BRANCH","GROUND FLOOR CHANDON ROAD GRAM POST MEHGWAN TEHSIL BANKHEDI DISTT. HOSHANGABAD MADHYA PRADESH461990",7771808882,MEHGWAN,MEHGWAN,"MADHYA PRADESH"
"IDFC BANK LIMITED",IDFB0041112,461751001,"HOSHANGABAD BRANCH","GROUND FLOOR ANAND NAGAR MEENAKSHI ROAD HOSHANGABAD MADHYA PRADESH461001",7771006182,HOSHANGABAD,HOSHANGABAD,"MADHYA PRADESH"
"IDFC BANK LIMITED",IDFB0041111,461751503,"TIMURNI  BRANCH","GROUND & FIRST FLOOR HARDA ROAD TIMARNI DISTT. HARDA MADHYA PRADESH461228",7771005810,TIMURNI,TIMURNI,"MADHYA PRADESH"
"IDFC BANK LIMITED",IDFB0041109,461751002,"SANGAKHEDA KALAN","GROUND FLOOR , VILL. SANGAKHEDA KALAN, THEHSIL BABAI BADA KUAN",7770811171,"SANGAKHEDA KALAN",HOSHANGABAD,"MADHYA PRADESH"
"IDFC BANK LIMITED",IDFB0041107,461751510,DHARMKUNDI,"GROUND FLOOR NEAR BUS STAND ITARSI ROAD VILLAGE DHARAMKUNDI HOSHNGABAD",9875802368,HOSHANGABAD,HOSHANGABAD,"MADHYA PRADESH"
"IDFC BANK LIMITED",IDFB0041106,461751507,"PAGDHAL BRANCH","36KA MAIN TIMARNI ROAD GRAM PAGDHAL 24 TEHSIL SEONI MALWA DISTT. HOSHANGABAD MADHYA PRADESH461223",7771002052,PAGDHAL,PAGDHAL,"MADHYA PRADESH"
"IDFC BANK LIMITED",IDFB0041105,461751501,"SEONI MALWA  BRANCH","GROUND FLOOR MAIN ROADSEONI MALWA DISTT. HOSHANGABAD MADHYA PRADESH461990",7772058885,"SEONI MALWA","SEONI MALWA","MADHYA PRADESH"
"IDFC BANK LIMITED",IDFB0041103,461751502,"BANKHEDI BRANCH","GROUND FLOOR BY PASS TIGADDA PIPARIYA ROAD BANKHEDI DISTT. HOSHANGABAD MADHYA PRADESH461990",7770916669,BANKHEDI,BANKHEDI,"MADHYA PRADESH"
"IDFC BANK LIMITED",IDFB0041102,461751301,"PIPARIYA  BRANCH","GROUND FLOOR IN FRONT OF RNA SCHOOL SHOBHAPUR ROAD PIPARIYA DISTT. HOSHANGABAD MADHYA PRADESH461775",7770855572,PIPARIYA,PIPARIYA,"MADHYA PRADESH"
"IDFC BANK LIMITED",IDFB0041101,461751505,"SONKHEDA BRANCH","GROUND FLOOR WARD NO.10 BAZAAR MOHALLA VILLAGE SONKHEDA TEHSIL ITARSI DISTT. HOSHANGABAD MADHYA PRADESH461111",7771003097,SONKHEDA,SONKHEDA,"MADHYA PRADESH"
"IDFC BANK LIMITED",IDFB0040301,380751001,"AHMEDABAD C.G. ROAD","SUN SQUARE,T.P 20,BESIDES NEST,OFF C.G ROAD,AHMEDABAD 380006",66216300,AHMEDABAD,AHMEDABAD,GUJARAT
"IDFC BANK LIMITED",IDFB0040106,400751006,"FORT BRANCH","312, D N ROAD, FORT, MUMBAI, MAHARASHTRA, 400001",8879077876,MUMBAI,MUMBAI,MAHARASHTRA
"IDFC BANK LIMITED",IDFB0040105,400751007,"BHULABHAI DESAI ROAD","SHOP NO. 1, TIRUPATI APARTMENTS, BHULABHAI DESAI ROAD, MUMBAI, MAHARASHTRA, 400026",9967260888,MUMBAI,MUMBAI,MAHARASHTRA
"IDFC BANK LIMITED",IDFB0040104,400751005,"CHEMBUR BRANCH","GLAMCENT, GF & 1ST FLOOR, 350, CENTRAL AVENUE ROAD, CHEMBUR, MUMBAI, 400071",7045683729,MUMBAI,MUMBAI,MAHARASHTRA
"IDFC BANK LIMITED",IDFB0040103,400751004,"VASHI, SECTOR - SEVENTEEN BRANCH","GOODWILL EXCELLENCY, PLOT NO. 02, SECTOR - 17, VASHI, NAVI MUMBAI, 400705.",9820790477,"NAVI MUMBAI",THANE,MAHARASHTRA
"IDFC BANK LIMITED",IDFB0040102,400751003,"PRABHDEVI BRANCH","SANE GURUJI PREMISE CO-OP. SOCIETY LTD, BLOCK NO. 5, GROUND FLOOR, 386, VEER SAVARKA MARG, PRABHDEVI, MUMBAI - 400025",7045597898,MUMBAI,MUMBAI,MAHARASHTRA
"IDFC BANK LIMITED",IDFB0040101,400751002,"BKC-NAMAN CHAMBERS BRANCH","GROUND FLOOR NAMAN CHAMBERS, C-32, G-BLOCK, BANDRA-KURLA COMPLEX, BANDRA EAST,MUMBAI 400051",71325499,MUMBAI,MUMBAI,MAHARASHTRA
"IDFC BANK LIMITED",IDFB0021001,110751002,"GURGAON  - GOLF COURSE ROAD BRANCH","ONE HORIZON CENTRE, GF & PLAZA, GOLF COURSE ROAD, SECTOR-43, GURGAON, HARYANA-122003",9810223345,GURGAON,GURGAON,HARYANA
"IDFC BANK LIMITED",IDFB0020151,110751004,NOIDA,"G-61 & G-62,SECTOR-18,DISTRICT - GAUTAM BUDDHA NAGAR - NOIDA UTTAR PRADESH - 201301",9717772950,NOIDA,"GAUTAM BUDDHA NAGAR","UTTAR PRADESH"
"IDFC BANK LIMITED",IDFB0020102,110751003,"NEW FRIENDS COLONY BRANCH","BHALLA SADAN, 15, COMMUNITY CENTRE, NEW FRIENDS COLONY, NEW DELHI, 110025",9899710494,"NEW DELHI","NEW DELHI",DELHI
"IDFC BANK LIMITED",IDFB0020101,110751001,"BARAKHAMBA ROAD","SOODH & BIRLATOWERS, 4TH FLOOR EAST TOWER & LGF WEST TOWER, BARAKHAMBA ROAD, NEW DELHI -110001",66712000,"NEW DELHI","NEW DELHI",DELHI
"IDFC BANK LIMITED",IDFB0010213,NA,"ACCOUNTS PAYABLE HUB","IDFC BANK LTD. 8 FLOOR BUILDING NO. 1 AIROLI WEST GIGAPLEX LANDMARK OPPOSITE  IGATE PLOT NO. 5 IT-5 MIDC KNOWLEDGE PARK  CORRIDOR AIROLI NAVI MUMBAI",71325499,THANE,THANE,MAHARASHTRA
"IDFC BANK LIMITED",IDFB0010209,400751001,"CLEARING HUB MUMBAI","RAMON HOUSE 69 HT PAREKH MARG CHURCHGATE MUMBAI 400002",71325499,MUMBAI,MUMBAI,MAHARASHTRA
"IDFC BANK LIMITED",IDFB0010208,NA,"RETAIL CPURSYS","IDFC BANK LTD.8TH FLOOR,BUILDING NO.1,AIROLI WEST GIGAPLEX,LANDMARKOPPOSITE IGATE,PLOT NO.IT5,MIDC KNOWLEDGE CORRIDOR,AIROLI,NAVI MUMBAI 400708",71325499,THANE,THANE,MAHARASHTRA
"IDFC BANK LIMITED",IDFB0010207,NA,"WHOLESALE CPUBSMART","IDFC BANK LTD.8TH FLOOR,BUILDING NO.1,AIROLI WEST GIGAPLEX,LANDMARKOPPOSITE IGATE,PLOT NO.IT5,MIDC KNOWLEDGE CORRIDOR,AIROLI,NAVI MUMBAI 400708",71325499,THANE,THANE,MAHARASHTRA
"IDFC BANK LIMITED",IDFB0010206,NA,"RURAL CPU NOVA","IDFC BANK LTD.7TH FLOOR,BUILDING NO.1,AIROLI WEST GIGAPLEX,LANDMARKOPPOSITE IGATE,PLOT NO.IT5,MIDC KNOWLEDGE CORRIDOR,AIROLI,NAVI MUMBAI 400708",71325499,THANE,THANE,MAHARASHTRA
"IDFC BANK LIMITED",IDFB0010205,NA,"TRADE FINANCE CPUTI","IDFC BANK LTD.7TH FLOOR,BUILDING NO.1,AIROLI WEST GIGAPLEX,LANDMARKOPPOSITE IGATE,PLOT NO.IT5,MIDC KNOWLEDGE CORRIDOR,AIROLI,NAVI MUMBAI 400708",71325499,THANE,THANE,MAHARASHTRA
"IDFC BANK LIMITED",IDFB0010204,NA,"CMS HUB","IDFC BANK LTD.7TH FLOOR,BUILDING NO.1,AIROLI WEST GIGAPLEX,LANDMARKOPPOSITE IGATE,PLOT NO.IT5,MIDC KNOWLEDGE CORRIDOR,AIROLI,NAVI MUMBAI 400708",71325499,THANE,THANE,MAHARASHTRA
"IDFC BANK LIMITED",IDFB0010202,NA,"TREASURY CPU","8TH FLOOR NAMAN CHAMBERS C32 GBLOCK BANDRAKURLA COMPLEX BANDRA EASTMUMBAI 400051",71325499,MUMBAI,MUMBAI,MAHARASHTRA
"IDFC BANK LIMITED",IDFB0010201,NA,"INTERNET BANKINGCPU","IDFC BANK LTD.8TH FLOOR,BUILDING NO.1,AIROLI WEST GIGAPLEX,LANDMARKOPPOSITE IGATE,PLOT NO.IT5,MIDC KNOWLEDGE CORRIDOR,AIROLI,NAVI MUMBAI 400708",71325499,THANE,THANE,MAHARASHTRA
