BANK,IFSC,MICR,BRANCH,ADDRESS,CONTACT,CITY,DISTRICT,STATE
"DHANALAKSHMI BANK",DLXB0000999,NA,DCS,THRISSUR,0,THRISSUR,THRISSUR,KERALA
"DHANALAKSHMI BANK",DLXB0000998,NA,"CORPORATE OFFICE",THRISSUR,6617000,THRISSUR,THRISSUR,KERALA
"DHANALAKSHMI BANK",DLXB0000996,NA,"RTGS CELL","RTGS CELL",0,THRISSUR,THRISSUR,KERALA
"DHANALAKSHMI BANK",DLXB0000994,NA,"RPC PALAKKAD","1 FLOOR,KRISHNA ARCADE,CHANDRANAGAR,PALAKKAD 678007",0,PALAKKAD,PALAKKAD,KERALA
"DHANALAKSHMI BANK",DLXB0000993,NA,"RPC COIMBATORE","286,STANDARD TOWERS, AVINASHI ROAD,PEELAMEDU,COIMBATORE 641004",0,COIMBATORE,COIMBATORE,"TAMIL NADU"
"DHANALAKSHMI BANK",DLXB0000905,NA,"RPC KOLKATA","ANANDLOK BUILDING,1ST FLOOR,B BLOCK,227,AJC BOSE ROAD,KOLKATA 700020",0,KOLKATA,KOLKATA,"WEST BENGAL"
"DHANALAKSHMI BANK",DLXB0000279,243048002,BAREILLY,"G.F,1160,JANAKPURI,OPP PRABHAT NAGAR GATE,BAREILLY - 243122",6450119,BAREILLY,BAREILLY,"UTTAR PRADESH"
"DHANALAKSHMI BANK",DLXB0000278,342048002,JODHPUR,"PLOT NO. 76,GROUND FLOOR,LK TOWER, CHOPASANI ROAD,JODHPUR -342002",2610140,JODHPUR,JODHPUR,RAJASTHAN
"DHANALAKSHMI BANK",DLXB0000277,NA,"CPC THRISSUR","MG ROAD THRISSUR",6454246,THRISSUR,THRISSUR,KERALA
"DHANALAKSHMI BANK",DLXB0000276,682048019,"WELCARE HOSPITAL, VYTTILA",ERNAKULAM,6453585,ERNAKULAM,ERNAKULAM,KERALA
"DHANALAKSHMI BANK",DLXB0000275,695048010,"T.D.B OFFICE.NANTHANCODE",NANTHANCODE,6451276,NANTHANCODE,NANTHANCODE,KERALA
"DHANALAKSHMI BANK",DLXB0000274,691048004,"SHANKERS HOSPITAL, KOLLAM",KOLLAM,6451308,KOLLAM,KOLLAM,KERALA
"DHANALAKSHMI BANK",DLXB0000273,688048003,"S.D.COLLEGE, ALAPPUZHA",ERNAKULAM,2268537,ERNAKULAM,ERNAKULAM,KERALA
"DHANALAKSHMI BANK",DLXB0000272,682048018,"G.C.D.A, ERNAKULAM",ERNAKULAM,6453579,ERNAKULAM,ERNAKULAM,KERALA
"DHANALAKSHMI BANK",DLXB0000271,691048003,"DR.NAIRS HOSPITAL, KOLLAM",KOLLAM,6451307,KOLLAM,KOLLAM,KERALA
"DHANALAKSHMI BANK",DLXB0000270,695048011,"BAR COUNCIL, VANCHIYOOR",VANCHIYOOR,6451287,VANCHIYOOR,VANCHIYOOR,KERALA
"DHANALAKSHMI BANK",DLXB0000269,695048012,"ATTUKKAL TEMPLE",TRIVANDRAM,6451280,TRIVANDRAM,TRIVANDRAM,KERALA
"DHANALAKSHMI BANK",DLXB0000268,682048017,"VIDYADHIRAJA VIDYA BHAVAN, CHEERAKADA",ALUVA,6453593,ALUVA,ALUVA,KERALA
"DHANALAKSHMI BANK",DLXB0000267,686048352,"T.D.B OFFICE. ETTUMANOOR",ETTUMANOOR,6452392,ETTUMANOOR,ETTUMANOOR,KERALA
"DHANALAKSHMI BANK",DLXB0000266,690048153,"T.D.B OFFICE, MAVELIKKARA",MAVELIKKARA,6540458,MAVELIKKARA,MAVELIKKARA,KERALA
"DHANALAKSHMI BANK",DLXB0000265,688048054,"S.N.COLLEGE, CHERTHALA",CHERTHALA,6450278,CHERTHALA,CHERTHALA,KERALA
"DHANALAKSHMI BANK",DLXB0000264,691048103,"NSS TALUK UNION,KOTTARAKARA",KOTTARAKARA,9287276646,KOTTARAKARA,KOTTARAKARA,KERALA
"DHANALAKSHMI BANK",DLXB0000263,695048253,"MUNCIPALITY, MUNCIPAL BUILDING, VARKALA",TRIVANDRAM,9287276647,TRIVANDRAM,TRIVANDRAM,KERALA
"DHANALAKSHMI BANK",DLXB0000262,680048021,"MEDICAL COLLEGE, MULAKUNNATHUKAVU",THRISSUR,2206179,THRISSUR,THRISSUR,KERALA
"DHANALAKSHMI BANK",DLXB0000261,673048004,"MALABAR INSTITUTE OF MEDICAL SCIENCE, KOZHIKODE",KOZHIKODE,6453515,KOZHIKODE,KOZHIKODE,KERALA
"DHANALAKSHMI BANK",DLXB0000260,690048801,"M.A.MATH, VALLIKAVU",KOLLAM,9287276643,KOLLAM,KOLLAM,KERALA
"DHANALAKSHMI BANK",DLXB0000259,680048053,"GURUVAYOOR DEVASWOM GURUVAYOOR",GURUVAYOOR,6453980,GURUVAYOOR,THRISSUR,KERALA
"DHANALAKSHMI BANK",DLXB0000258,560048009,"AMRITA INSTITUTE OF TECHNOLOGY KORAMANGALA",BANGALORE,64540470,BANGALORE,BANGALORE,KARNATAKA
"DHANALAKSHMI BANK",DLXB0000257,520048302,"NRI MEDICAL COLLEGE CHINNA KAKKANI",VIJAYAWADA,9247060807,VIJAYAWADA,VIJAYAWADA,"ANDHRA PRADESH"
"DHANALAKSHMI BANK",DLXB0000256,600048011,"AMRUTHANJAN LIMITED, MYLAPORE",CHENNAI,64508185,CHENNAI,CHENNAI,"TAMIL NADU"
"DHANALAKSHMI BANK",DLXB0000255,629048003,"S.T.HINDU COLLEGE, NAGERCOIL",NAGERCOIL,2223475,NAGERCOIL,KANYAKUMARI,"TAMIL NADU"
"DHANALAKSHMI BANK",DLXB0000254,600048013,"MGR ADARSH METRICULATION HIGH SCHOOL, MOGAPPAIR",CHENNAI,65450574,CHENNAI,CHENNAI,"TAMIL NADU"
"DHANALAKSHMI BANK",DLXB0000253,641048006,"AMRITA INSTITUTE OF TECHNOLOGY ETTIMADAI",COIMBATORE,2652335,COIMBATORE,COIMBATORE,"TAMIL NADU"
"DHANALAKSHMI BANK",DLXB0000252,600048012,"S.N.SCHOOL & COLLEGE, WEST MAMBALAM",CHENNAI,65450573,CHENNAI,CHENNAI,"TAMIL NADU"
"DHANALAKSHMI BANK",DLXB0000251,600048010,"AMRUTHA INSTITUTE OF COMPUTER TECH, SALIGRAMAM",CHENNAI,64509226,CHENNAI,CHENNAI,"TAMIL NADU"
"DHANALAKSHMI BANK",DLXB0000250,400048021,VIRAR,"GROUND FLOOR VIVA GOKUL ARCADE",6450245,MUMBAI,MUMBAI,MAHARASHTRA
"DHANALAKSHMI BANK",DLXB0000249,400048020,VASAI,THANE,2330486,THANE,THANE,MAHARASHTRA
"DHANALAKSHMI BANK",DLXB0000248,400048023,PRABHADEVI,"GROUND FLOOR & BASEMENT, WEST VIEW CO-OP HOUSING SOCIETYLTD, 485 VEER SAVARKAR MARG, PRABHADEVI MUMBAI -400025",64500502,MUMBAI,MUMBAI,MAHARASHTRA
"DHANALAKSHMI BANK",DLXB0000247,400048022,"ANDHERI BRANCH",MUMBAI,64500501,MUMBAI,MUMBAI,MAHARASHTRA
"DHANALAKSHMI BANK",DLXB0000246,403048002,PANAJI,PANAJI,6451033,GOA,PANAJI,GOA
"DHANALAKSHMI BANK",DLXB0000245,NA,"CPC HYDERABAD","CPC HYDERABAD",4500796,HYDERABAD,HYDERABAD,"ANDHRA PRADESH"
"DHANALAKSHMI BANK",DLXB0000244,683048052,KURUPPAMPADY,KURUPPAMPADY,2593428,KURUPPAMPADY,KURUPPAMPADY,KERALA
"DHANALAKSHMI BANK",DLXB0000243,110048013,"PUNJABI BAGH","PUNJABI BAGH",65101115,"NEW DELHI","NEW DELHI",DELHI
"DHANALAKSHMI BANK",DLXB0000242,671048052,KANHANGAD,KANHANGAD,2200911,KANHANGAD,KANHANGAD,KERALA
"DHANALAKSHMI BANK",DLXB0000241,673048302,VADAKARA,VADAKARA,6451169,VADAKARA,VADAKARA,KERALA
"DHANALAKSHMI BANK",DLXB0000240,682048016,THRIKKAKARA,THRIKKAKARA,6450772,THRIKKAKARA,THRIKKAKARA,KERALA
"DHANALAKSHMI BANK",DLXB0000239,671048802,KAYYUR,THRISSUR,2250666,THRISSUR,THRISSUR,KERALA
"DHANALAKSHMI BANK",DLXB0000238,670048003,KATTAMPALLY,"UPPER GROUND, CENTER PLAZA, KATTAMPALLY ROAD, PUTHIYATHERU, KANNUR, KERALA - 670 011",450608,KATTAMPALLY,KATTAMPALLY,KERALA
"DHANALAKSHMI BANK",DLXB0000237,676048052,MANJERI,"GROUND FLOOR, KORAMBAYIL COPERATE MALL, CENTRAL BAZAR, CALICUT ROAD, MANJERI, MALAPPURAM DISTRICT, KERALA - 676 121",9287276847,MANJERI,MANJERI,KERALA
"DHANALAKSHMI BANK",DLXB0000236,362048051,VERAVAL,GUJARAT,6242301,VIRAVAL,VIRAVAL,GUJARAT
"DHANALAKSHMI BANK",DLXB0000235,608048002,CHIDAMBARAM,CHIDAMBARAM,4651912,CHIDAMBARAM,CHIDAMBARAM,"TAMIL NADU"
"DHANALAKSHMI BANK",DLXB0000234,400048019,GHATKOPAR,MUMBAI,65409017,MUMBAI,MUMBAI,MAHARASHTRA
"DHANALAKSHMI BANK",DLXB0000233,671048801,UDMA,"GROUND FLOOR, NEW BUILDING, NEAR RAILWAY GATE, MAIN ROAD, UDMA, KASARGODE DISTRICT, KERALA - 671 319",265320,UDMA,UDMA,KERALA
"DHANALAKSHMI BANK",DLXB0000232,232048002,RAMESWARAM,"GROUND FLOOR, 18/71, OLD POLICE LANE STREET, VEERABADRASWAMY KOIL/STREET, RAMESWARAM, RAMANATHAPURAM DISTRICT, TAMIL NADU - 623 526",3221033,RAMESWARAM,RAMESWARAM,"TAMIL NADU"
"DHANALAKSHMI BANK",DLXB0000231,411048002,PUNE,PUNE,4500220,PUNE,PUNE,MAHARASHTRA
"DHANALAKSHMI BANK",DLXB0000230,400048018,BANDRA,"GROUND FLOOR, GRAND BELLEVISTA, OPP.BANDRA TALAO, S.V.ROAD, BANDRA (WEST), MUMBAI-400050.",64509908,BHANDARA,BHANDARA,MAHARASHTRA
"DHANALAKSHMI BANK",DLXB0000229,400048017,MULUND,"A-WING, RAJYOG RESIDENCY, DR.RAJENDRA PRASAD ROAD, OPP. VARDHAMAN NAGAR, MULUND (WEST), MUMBAI, MAHARASHTRA - 400 080",64531653,MUMBAI,MUMBAI,MAHARASHTRA
"DHANALAKSHMI BANK",DLXB0000228,560048008,YELAHANKA,"GROUND FLOOR, DOOR NO. 1143, MIG, 16TH """"B"""" MAIN ROAD, YELAHANKA NEW TOWN, BANGALORE, KARNATAKA - 560 064.",64531843,YELAHANKA,YELAHANKA,KARNATAKA
"DHANALAKSHMI BANK",DLXB0000227,713048202,DURGAPUR,"FIRST FLOOR, GALAZEE SHAHID KHUDIRAM SARANI, CITY CENTER, DURGAPUR, WEST BENGAL - 713 216.",6450522,DURGAPUR,DURGAPUR,"WEST BENGAL"
"DHANALAKSHMI BANK",DLXB0000226,462048002,BHOPAL,"GROUND FLOOR, VNV PLAZA, PLOT NO. 6, ZONE - II, MAHARANA PRATAP NAGAR, BHOPAL, MADHYA PRADESH - 462 001.",2555019,BHOPAL,BHOPAL,"MADHYA PRADESH"
"DHANALAKSHMI BANK",DLXB0000225,515048602,PUTTAPARTI,"GROUND FLOOR, SHOP NO. 102, SREE GURU TOWERS, OLD NO. 3-632, GOPURAM ROAD, ANANTPUR DIST, PUTTAPARTHI - 515 134, ANDHRA PRADESH.",5286192,PUTTAPARTHI,PUTTAPARTHI,"ANDHRA PRADESH"
"DHANALAKSHMI BANK",DLXB0000224,385048001,PALANPUR,PALANPUR,2645809,PALANPUR,PALANPUR,KERALA
"DHANALAKSHMI BANK",DLXB0000223,570048002,MYSORE,"GROUND FLOOR, DOOR NO. 14, 4TH MAIN, 8TH CROSS, KAMAKSHI HOSPITAL ROAD, SARSWATHIPURAM, MYSORE, KARNATAKA - 570 009.",6450493,MYSORE,MYSORE,KARNATAKA
"DHANALAKSHMI BANK",DLXB0000222,221048002,VARANASI,"GROUND FLOOR, SHAKTI SIKHA COMPLEX, SIGRA, VARANASI, UTTAR PRADESH - 221 010",6452494,VARANASI,VARANASI,"UTTAR PRADESH"
"DHANALAKSHMI BANK",DLXB0000221,227048002,JAGDISHPUR,"NEW BUILDING, GROUND FLOOR, SHANTI MARKET, GT ROAD, JAGDISHPUR - 227809",5409029,JAGDISHPUR,JAGDISHPUR,"UTTAR PRADESH"
"DHANALAKSHMI BANK",DLXB0000220,144048002,JALANDHAR,"GROUND FLOOR, 465 - A, NEW JAWAHAR NAGAR, JALANDHAR, PUNJAB - 144 021.",6450562,JALANDHAR,JALANDHAR,PUNJAB
"DHANALAKSHMI BANK",DLXB0000219,160048002,CHANDIGARH,"GROUND FLOOR, RAI BUILDING, SECTOR - 17, NEAR K C CINEMA, CHANDIGARH - 160 017.",6538924,CHANDIGARH,CHANDIGARH,PUNJAB
"DHANALAKSHMI BANK",DLXB0000218,302048002,JAIPUR,"G - 3/4/5/6/7, ROYAL WORLD, OPP. CITY CENTRE, SANSAR CHAND ROAD, JAIPUR, RAJASTHAN - 302 001.┬┐",6501791,JAIPUR,JAIPUR,RAJASTHAN
"DHANALAKSHMI BANK",DLXB0000217,636048003,NAMAKKAL,"GROUND FLOOR, RANGA PLAZA, PARAMATHY ROAD, NAMAKKAL",6644117,NAMAKKAL,NAMAKKAL,"TAMIL NADU"
"DHANALAKSHMI BANK",DLXB0000216,226048002,LUCKNOW,"GROUND FLOOR BASEMENT, HALWASIYA HOUSE NO. 11, M.G. ROAD, HAZRATGANJ, LUCKNOW, UTTAR PRADESH - 226 001",6569040,LUCKNOW,LUCKNOW,"UTTAR PRADESH"
"DHANALAKSHMI BANK",DLXB0000215,394048051,BARDOLI,"GROUND FLOOR, SHRI RANG PLAZA, SARDAR CHOWK, NEAR POLICE STATION, BARDOLI, GUJARAT - 394 601",2650232,BARDOLI,BARDOLI,GUJARAT
"DHANALAKSHMI BANK",DLXB0000214,516048642,RAJAMPET,"1ST FLOOR, 6/1015, RAILWAY STATION ROAD, RAJAMPET, KADAPA DIST, ANDHRA PRADESH ┬┐ 516 115",9247015103,RAJAMPET,RAJAMPET,"ANDHRA PRADESH"
"DHANALAKSHMI BANK",DLXB0000213,390048002,VADODARA,"SHINE PLAZA, OPP. PASABHAI PARK, NEAR NATUBHAI CIRCLE, RACE COURSE ROAD, VADODARA, GUJARAT - 390 007",6450362,VADODARA,VADODARA,GUJARAT
"DHANALAKSHMI BANK",DLXB0000212,400048011,"MUMBAI CENTRAL","GROUND 1ST FLOOR,SHOP NO.12-13-14,OFFICE NO.104,105,106,NAVJIVAN COMMERCIAL PREMISES CO-OP.SOC.LTD, MUMBAI CENTRAL,MUMBAI, MAHARASHTRA -400 008",64557852,MUMBAI,MUMBAI,MAHARASHTRA
"DHANALAKSHMI BANK",DLXB0000211,400048015,AMBERNATH,"1ST FLOOR GROUND FLOOR, LAXMI SAGAR APT, PLOT NO.3-C, SHIV MANDIR ROAD, SWAMI SAMARTH CHOWK, AMBERNATH (EAST), DIST THANE, MAHARASHTRA - 421501",6543263,THANE,THANE,MAHARASHTRA
"DHANALAKSHMI BANK",DLXB0000210,400048013,BHIWANDI,"GROUND FLOOR, DHAMANKAR PSD PLAZA, DHAMANKAR NAKA, AGRA ROAD, BHIWANDI, THANE DISTRICT, MUMBAI, MAHARASHTRA - 421 302",2251002,BHIWANDI,BHIWANDI,MAHARASHTRA
"DHANALAKSHMI BANK",DLXB0000209,400048012,DOMBIVLI,"GROUND FLOOR, MIRAGE ARCADE, OPP GANESH TEMPLE, NEHRU ROAD, DOMBIVALI (EAST), MUMBAI, MAHARASHTRA - 421201.",2470033,DOMBIVLI,DOMBIVLI,MAHARASHTRA
"DHANALAKSHMI BANK",DLXB0000208,400048016,NALLASOPARA,"GROUND FLOOR, SHOP NO. 9 TO 16, OLIVE BUILDING, JIVDANI BUILDERS DEVELOPERS, PATNKAR WADI, NALLA SOPARA (WEST) 401 203",6453376,NALLASOPARA,NALLASOPARA,MAHARASHTRA
"DHANALAKSHMI BANK",DLXB0000207,400048014,"MIRA BHAYANDAR","GROUND FLOOR, JANAKI HERITAGE, OPP. MAXUS MALL, 150 FT. ROAD, BHAYANDER (WEST), DIST. THANE, MAHARASHTRA - 401 101.",65991877,MIRA-BHAYANDAR,MIRA-BHAYANDAR,MAHARASHTRA
"DHANALAKSHMI BANK",DLXB0000206,700048006,"BRABOURNE ROAD","15 PORTUGUESE CHURCH STREET, SHAHEED NITYANAND SAHA SARANI, KOLKATA - 700 001.",64570047,KOLKATA,KOLKATA,"WEST BENGAL"
"DHANALAKSHMI BANK",DLXB0000205,691048152,PUNALUR,"GROUND FLOOR, UNION BUILDING, ANCHAL ROAD, PUNALUR, KERALA - 691 305",9287215999,PUNALUR,PUNALUR,KERALA
"DHANALAKSHMI BANK",DLXB0000204,695048007,DHANUVACHAPURAM,"GROUND FLOOR, MORIAH COMPLEX, UDIYANKULANGARA JUNCTION, AMRAVAVILA P.O. DHANUVACHAPURAM, TRIVANDRUM, KERALA - 695 122",6455628,DHANUVACHAPURAM,DHANUVACHAPURAM,KERALA
"DHANALAKSHMI BANK",DLXB0000203,600048008,KANCHEEPURAM,"GROUND FLOOR, VAISHNAVI PLAZA, 17 18, WEST RAJA STREET, KANCHEEPURAM, TAMIL NADU - 631 502.",67271578,KANCHIPURAM,KANCHIPURAM,"TAMIL NADU"
"DHANALAKSHMI BANK",DLXB0000202,624048001,PALANI,"GROUND FLOOR, ANGURAJ COMPLEX, NO. 41, NEW DHARAMPURAM ROAD, PALANI, TAMIL NADU - 624 601.",9244901061,PALANI,PALANI,"TAMIL NADU"
"DHANALAKSHMI BANK",DLXB0000201,400048010,BORIVLI,"GROUND FLOOR, SHOP NO. 2, 3 4, KAPOOR APARTMENT, CHANDAVARKAR ROAD, BORIVLI (WEST), MUMBAI, MAHARASHTRA - 400 092.",65991881,MUMBAI,MUMBAI,MAHARASHTRA
"DHANALAKSHMI BANK",DLXB0000200,400048009,"CBD BELAPUR","GROUND FLOOR, WARDEN HOUSE, PLOT NO. 65, SECTOR 11, CBD BELAPUR, NAVI MUMBAI, MAHARASHTRA - 400 614.",65991873,MUMBAI,MUMBAI,MAHARASHTRA
"DHANALAKSHMI BANK",DLXB0000199,400048008,GOREGOAN,"RISAB MANSION, PLOT NO. 3, JAWAHAR NAGAR, S.V. ROAD, GOREGAON (W), MUMBAI - 400 069.",65991863,MUMBAI,MUMBAI,MAHARASHTRA
"DHANALAKSHMI BANK",DLXB0000198,400048007,"ULHAS NAGAR","GROUND FLOOR MEZZANINE FLOOR, KOMAL PARK BLDG, GOLE MAIDAN, ULHASNAGAR, MUMBAI, MAHARASHTRA - 421 001",2232813,ULHASNAGAR,ULHASNAGAR,MAHARASHTRA
"DHANALAKSHMI BANK",DLXB0000197,110048012,NOIDA,"GROUND FLOOR, K -23 24, SECTOR - 18, NOIDA, UTTAR PRADESH 201301.",6590310,NOIDA,NOIDA,"UTTAR PRADESH"
"DHANALAKSHMI BANK",DLXB0000196,110048011,FARIDABAD,"GROUND FLOOR BASEMENT, CROWN PLAZA, SHOP NO. 2D/10B, 1 2 CHOWK, OPP. GHAZAL RESTAURANT, NIT, FARIDABAD, HARAYANA - 121 001.",6462085,FARIDABAD,FARIDABAD,HARYANA
"DHANALAKSHMI BANK",DLXB0000195,110048010,GURGAON,"GROUND FLOOR, SCO 17, SECTOR 14, GURGAON, HARYANA - 122 001.",6462186,GURGAON,GURGAON,HARYANA
"DHANALAKSHMI BANK",DLXB0000194,110048008,ROHINI,"GROUND FLOOR BASEMENT, PLOT NO. 4, POCKET A-1, SECTOR 8, ROHINI, DELHI - 110 085.",65458170,DELHI,DELHI,DELHI
"DHANALAKSHMI BANK",DLXB0000193,110048009,"NEHRU PLACE","UPPER GROUND FLOOR, SKYLARK BUILDING, 60, NEHRU PLACE, NEW DELHI - 110 019.",65458371,DELHI,DELHI,DELHI
"DHANALAKSHMI BANK",DLXB0000192,110048007,"GREATER KAILASH","M-72, M BLOCK MARKET, GREATER KAILASH - II, NEW DELHI-110048.",64610866,DELHI,DELHI,DELHI
"DHANALAKSHMI BANK",DLXB0000191,110048006,GAZIABAD,"GROUND FLOOR BASEMENT, R 2/240, RAJNAGAR, GHAZIABAD, UTTAR PRADESH - 201 002.",6492804,GHAZIABAD,GHAZIABAD,"UTTAR PRADESH"
"DHANALAKSHMI BANK",DLXB0000190,110048005,JANAKPURI,"B-3/174, GROUND FLOOR, JANAKPURI, NEW DELHI - 110 058.",64644337,DELHI,DELHI,DELHI
"DHANALAKSHMI BANK",DLXB0000189,560048007,JAYANAGAR,"NEW NO. 52 (OLD NO. 745), 33RD CROSS ROAD, 4TH BLOCK, JAYANAGAR, BANGALORE - 560 011.",3603260,BANGALORE,BANGALORE,KARNATAKA
"DHANALAKSHMI BANK",DLXB0000188,500048005,"SANJEEVA REDDY NAGAR","GROUND FLOOR, SAI SUSHMA HOMES, 23 / A, SANJEEVA REDDY NAGAR, HYDERABAD - 500 138.",4636991,HYDERABAD,HYDERABAD,"ANDHRA PRADESH"
"DHANALAKSHMI BANK",DLXB0000187,700048005,HOWRAH,"23/2, B C, HARINIKETAN, MAULANA ABDUL KALAM AZAD ROAD, (DOBSON ROAD), HOWRAH, WEST BENGAL - 711 101.",768033,HOWRAH,HOWRAH,"WEST BENGAL"
"DHANALAKSHMI BANK",DLXB0000186,700048004,"SALT LAKE CITY","PLOT NO. 88, BLOCK BE, SECTOR - 1, SALT LAKE CITY, KOLKATA - 700 064.",64990588,KOLKATA,KOLKATA,"WEST BENGAL"
"DHANALAKSHMI BANK",DLXB0000185,507048001,KHAMMAM,"6-1-50, OPP.DWACRA BAZAR, WYRA ROAD, KHAMMAM, A.P.",2644919,KHAMMAM,KHAMMAM,"ANDHRA PRADESH"
"DHANALAKSHMI BANK",DLXB0000184,690048052,KARUNAGAPALLY,"ANNEXE EXCLLENCY BUILDING KARUNAGAPALLY, KOLLAM",6451035,KARUNAGAPALLY,KARUNAGAPALLY,KERALA
"DHANALAKSHMI BANK",DLXB0000183,503048002,NIZAMABAD,"11-1-1623/2 3,SINGIDI COM PLEX,OPP.INDUR TRADERS, KANTESHWAR,ARMOOR ROAD, NIZAMABAD",2644960,NIZAMABAD,NIZAMABAD,"ANDHRA PRADESH"
"DHANALAKSHMI BANK",DLXB0000182,533048002,KAKINADA,"NO.26-1-12,TEMPLE STREET KAKINADA EAST GODAVARI DIST, ANDHRA PRADESH",6451764,KAKINADA,KAKINADA,"ANDHRA PRADESH"
"DHANALAKSHMI BANK",DLXB0000181,676048152,MALAPPURAM,"1ST FLOOR,BAVA, ARCADE DOWN HILL MALAPPURAM",6450419,MALAPPURAM,MALAPPURAM,KERALA
"DHANALAKSHMI BANK",DLXB0000180,520048002,"VIJAYAWADA RING ROAD","59-14-8, SILPA ARCADE RAMACHANDRA NAGAR RING ROAD VIJAYAWADA",6457335,VIJAYAWADA,VIJAYAWADA,"ANDHRA PRADESH"
"DHANALAKSHMI BANK",DLXB0000179,534048002,ELURU,"23A-3-28, DR.G S PRASAD HOSPITAL COMPLEX GOSAMRAKSHANA SAMITHI RD ELURU",2223433,ELURU,ELURU,"ANDHRA PRADESH"
"DHANALAKSHMI BANK",DLXB0000178,600048007,"ASHOK NAGAR,CHENNAI","SRI GOWTHAM"""" NEW NO.5,OLD NO.3 1ST AVENUE, ASHOK NAGAR, CHENNAI",64547921,CHENNAI,CHENNAI,"TAMIL NADU"
"DHANALAKSHMI BANK",DLXB0000177,110048004,"LAJPAT NAGAR,NEW DELHI","A II/44,LAJPAT NAGAR II, LAJPAT NAGAR , NEW DELHI.",64500242,DELHI,DELHI,DELHI
"DHANALAKSHMI BANK",DLXB0000176,524048002,NELLORE,"15/345,BRINDAVANAM BEHIND VIJAYA DAIRY NELLORE ANDHRA PRADESH",6451630,NELLORE,NELLORE,"ANDHRA PRADESH"
"DHANALAKSHMI BANK",DLXB0000175,517048002,TIRUPATI,"PLOT NO.3, TUDA LAY OUT RC ROAD, TIRUPATI ANDHRA PREDESH",2245522,TIRUPATI,TIRUPATI,"ANDHRA PRADESH"
"DHANALAKSHMI BANK",DLXB0000174,400048006,MUMBAI-VASHI,"PLOT NO.1 C, NISHANT MILLENNIUM , SECTOR 28, VASHI NAVI, MUMBAI-400703.",27880360,"NEW BOMBAY","NEW BOMBAY",MAHARASHTRA
"DHANALAKSHMI BANK",DLXB0000173,530048001,VISAKHAPATNAM,"VIP ROAD, CBM COMPOUND VISAKHAPATNAM ANDHRA PRADESH - 530 003",2540012,VISAKHAPATNAM,VISAKHAPATNAM,"ANDHRA PRADESH"
"DHANALAKSHMI BANK",DLXB0000172,560048006,"BGL-M G ROAD","1A,NITISH BROADWAY, M G ROAD , BANGALORE",64548695,BANGALORE,BANGALORE,KARNATAKA
"DHANALAKSHMI BANK",DLXB0000171,520048102,GUNTUR,"P S COMPLEX,D.NO;4-12-40 NAIDUPET,1ST LANE, KORETIPADU MAIN ROD, GUNTUR, ANDHRA PRADESH",6450287,GUNTUR,GUNTUR,"ANDHRA PRADESH"
"DHANALAKSHMI BANK",DLXB0000170,110048003,"KAROL BAGH","16/15, W.E.A., J.S.PLAZA , ARYA SAMAJ ROAD, KAROL BAGH, NEW DELHI",64691036,DELHI,DELHI,DELHI
"DHANALAKSHMI BANK",DLXB0000169,400048005,SION,"THIRUMALAI HOUSE ,GROUND FLOOR, ROAD NO.29, NEAR SION HILL FORT SION (E), MUMABI.",24018006,MUMBAI,MUMBAI,MAHARASHTRA
"DHANALAKSHMI BANK",DLXB0000168,500048004,KUKATPALLY,"686, VIVEKANANDA NAGAR COLONY, KUKATPALLY, HYDERABAD ANDHRA PRADESH",3066221,HYDERABAD,HYDERABAD,"ANDHRA PRADESH"
"DHANALAKSHMI BANK",DLXB0000167,500048003,"BANJARA HILLS","TREND TOWERS, GR FLOOR 8-2-289/10, ROAD NO.2 , BANJARA HILLS, HYDERABAD, ANDHRA PRADESH",4548776,HYDERABAD,HYDERABAD,"ANDHRA PRADESH"
"DHANALAKSHMI BANK",DLXB0000166,691048052,ADOOR,"MOHANA BUILDING CENTRAL JUNCTION ADOOR PATHANAMTHITTA DIST.",9287276474,ADOOR,ADOOR,KERALA
"DHANALAKSHMI BANK",DLXB0000165,682048013,"BAR COUNCIL OF KERALA","BAR COUNCIL OF KER. BR. HIGH COURT CAMPUS, ERNAKULAM - 682 031.",6453391,KOCHI,KOCHI,KERALA
"DHANALAKSHMI BANK",DLXB0000164,400048001,"SERVICE BRANCH MUMBAI","GROUND FLOOR,JANMABHOOMI BHAVAN,JANMABHOOMI MARG, FORT,MUMBAI-400 001",64530976,MUMBAI,MUMBAI,MAHARASHTRA
"DHANALAKSHMI BANK",DLXB0000163,689048003,PANDALAM,"GROUND FLOOR, MAR THOMA STUDENTS CENTRE, OPP NSS COLLEGE",4254201,PATHANAMTHITTA,PATHANAMTHITTA,KERALA
"DHANALAKSHMI BANK",DLXB0000162,600048009,VELACHERY,VELACHERY,64540028,CHENNAI,CHENNAI,"TAMIL NADU"
"DHANALAKSHMI BANK",DLXB0000161,560048010,NA,"4M-407,4TH MAIN,3RD BLOCK,HRBR LAYOUT,BANGALORE-560043.",60120001,BANGALORE,BANGALORE,KARNATAKA
"DHANALAKSHMI BANK",DLXB0000160,641048004,"R. S. PURAM","SRI NANDHINI COMPLEX, 8 VENKITASAMY ROAD, R.S.PURAM, COIMBATORE - 641 002.",6451690,COIMBATORE,COIMBATORE,"TAMIL NADU"
"DHANALAKSHMI BANK",DLXB0000159,680048001,"SERVICE BRANCH, THRISSUR","THE DHANALAKSHMI BANK LTD, DHANALAKSHMI BUILDINGS, NAICKANAL, THRISSUR.",7276687,THRISSUR,THRISSUR,KERALA
"DHANALAKSHMI BANK",DLXB0000158,695048001,"SERVICE BRANCH, THIRUVANANTHAPURAM","THE DHANALAKSHMI BANK LTD PB NO.5067, KARIMPAMAL ARCADE, FORT, THIRUVANANTHAPURAM",6451050,THIRUVANANTHAPURAM,THIRUVANANTHAPURAM,KERALA
"DHANALAKSHMI BANK",DLXB0000157,682048001,"SERVICE BRANCH, ERANAKULAM","THE DHANALAKSHMI BANK LTD ,XXX/147-G, N H ROAD, PALARIVATTOM, ERNAKULAM..",6453278,KOCHI,KOCHI,KERALA
"DHANALAKSHMI BANK",DLXB0000156,678048102,KOLLANGODE,"VASANTHA COMPLEX, KOLLENGODE PALAKKAD DIST. KERALA STATE, 678506",9287276509,"KOLLENGODE I","KOLLENGODE I",KERALA
"DHANALAKSHMI BANK",DLXB0000155,682048012,EDAPPALLY,"THE DHANALAKSHMI BANK LTD, AMRITHA INSTITUTE OF MEDICAL SCIENCES, EDAPPALLY, KOCHI.",6453611,THRIKKAKARA,THRIKKAKARA,KERALA
"DHANALAKSHMI BANK",DLXB0000154,700048003,KOLKATA,"IDEAL PLAZA, GROUND FLOOR, 11/1, SARAT BOSE ROAD, KOLKATA.",22815100,KOLKATA,KOLKATA,"WEST BENGAL"
"DHANALAKSHMI BANK",DLXB0000153,671048002,KASARGODE,"APSARA REGENCY COMPLEX, OPP. K S R T C BUS STAND, BANK ROAD, KASARGODE",9287276561,KASARAGOD,KASARAGOD,KERALA
"DHANALAKSHMI BANK",DLXB0000152,673048202,KALPETTA,"SAKEENA SHOPPING COMPLEX, 1ST FLOOR, KALPETTA, WAYANAD DISTRICT, KERALA",207595,KALPETTA,KALPETTA,KERALA
"DHANALAKSHMI BANK",DLXB0000151,560048005,BGR-KORAMANGALA,"100, 18TH MAIN, 6TH BLOCK, KORAMANGALA , BANGALORE",64540467,BANGALORE,BANGALORE,KARNATAKA
"DHANALAKSHMI BANK",DLXB0000150,686048302,PALAI,"FIRST FLOOR JOBEES COMPLEX KATTAKKAYAM ROAD PALAI,KOTTAYAM DT",9287276550,PALAI,PALAI,KERALA
"DHANALAKSHMI BANK",DLXB0000149,600048006,"CHENNAI-ANNA NAGAR","DHANALAKSHMI BANK LTD, Y-219, 2ND AVENUE, NEAR AYYAPPAN TEMPLE, ANNA NAGAR, CHENNAI-40",64547913,CHENNAI,CHENNAI,"TAMIL NADU"
"DHANALAKSHMI BANK",DLXB0000148,682048008,EKM-KALOOR,"DHANALAKSHMI BANK LTD., M E S CULTURAL COMPLEX BUILDING, GROUND FLOOR, KALOOR, ERNAKULAM",6453297,KALOOR,KALOOR,KERALA
"DHANALAKSHMI BANK",DLXB0000147,110048002,"NEW DELHI","H 17,GOBIND MANSION, OUTER CIRCLE, CONNAUGHT CIRCUS, NEW DELHI -110 001",64544645,DELHI,DELHI,DELHI
"DHANALAKSHMI BANK",DLXB0000146,NA,RTGS-HO,"DHANALAKSHMI BANK LTD, MUMBAI",61541700,MUMBAI,MUMBAI,MAHARASHTRA
"DHANALAKSHMI BANK",DLXB0000145,682048004,EKM-IFB,"P.B.NO:3548, XL/7296,ADJACENT TO T.D,. EAST SANNIDHI ROAD, M G ROAD ERNAKULAM.",6675000,KOCHI,KOCHI,KERALA
"DHANALAKSHMI BANK",DLXB0000144,400048002,"FORT MUMBAI",MUMBAI,22045878,MUMBAI,MUMBAI,MAHARASHTRA
"DHANALAKSHMI BANK",DLXB0000143,380048002,AHMEDABAD,"3, MOTILAL CHAMBERS INCOME TAX CIRCLE, NEAR SALES INDIA ASHRAM ROAD, AHMEDABAD",4502690,AHMEDABAD,AHMEDABAD,GUJARAT
"DHANALAKSHMI BANK",DLXB0000142,395048002,SURAT,"3RD FLOOR,THE SURAT VANKAR SAHAKARI SANGH BLG OPP.RESHAMWALA MARKET RING ROAD, SURAT,GUJARAT",2350699,SURAT,SURAT,GUJARAT
"DHANALAKSHMI BANK",DLXB0000141,600048001,"SERVICE BRANCH, CHENNAI","THE DHANALAKSHMI BANK LTD., SERVICE BRANCH, CHENNAI, NO:163, OM SAKTHI TOWERS, ANNA SALAI, CHENNAI - 600002",49037026,CHENNAI,CHENNAI,"TAMIL NADU"
"DHANALAKSHMI BANK",DLXB0000140,400048004,MUMBAI-CHEMBUR,"DOOR NO:1,2,3GROUND FLOOR, URMILA COMPLEX,32 STATION AVENUE ROAD, CHEMBUR, MUMBAI 400071",25285760,MUMBAI,MUMBAI,MAHARASHTRA
"DHANALAKSHMI BANK",DLXB0000139,560048004,PEENYA,"PEENYA INDUSTRIAL ASSN BHAVAN,PEENYA TRADE CENTR 1ST CROSS,1ST STAGE PEENYA, BANGALORE",64548691,PEENYA,PEENYA,KARNATAKA
"DHANALAKSHMI BANK",DLXB0000138,639048002,KARUR,"021044, GROUND FLOOR, KOVAI ROAD, KARUR. TAMIL NADU",4653561,KARUR,KARUR,"TAMIL NADU"
"DHANALAKSHMI BANK",DLXB0000137,600048005,CHENNAI-T.NAGAR,"47, SOUTH USMAN ROAD T.NAGAR CHENNAI",64361208,CHENNAI,CHENNAI,"TAMIL NADU"
"DHANALAKSHMI BANK",DLXB0000136,676048252,VALANCHERY,"214A PBNO28 OPP.BUS STAND CALICUT ROAD VALANCHERY MALAPPURAM",6450687,VALANCHERRY,VALANCHERRY,KERALA
"DHANALAKSHMI BANK",DLXB0000135,686048252,MUVATTUPUZHA,"XI/2734(3),VETTUKATTIL HOSPITAL COMPLEX BLDG M C ROAD, (TB JUNCTION) MUVATTUPUZHA",6450327,MUVATTUPUZHA,MUVATTUPUZHA,KERALA
"DHANALAKSHMI BANK",DLXB0000134,679048202,PONNANI,"7/859 A,1ST FLOOR AMBADY BULDGS, CHAMMARAVATTOM JN, PONNANI",6450495,PONNANI,PONNANI,KERALA
"DHANALAKSHMI BANK",DLXB0000133,673048003,CHEVARAMBALAM,"28/648-R,WARD 28, KOYENCO SHOPPING COMPLEX, MAVOOR CALICUT ROAD, CHEVAYOOR, KOZHIKODE",6453460,CALICUT,CALICUT,KERALA
"DHANALAKSHMI BANK",DLXB0000132,676048002,TIRUR,"1ST FLOOR K M S TOWER THAZHEPALAM TIRUR",6450592,TIRUR,TIRUR,KERALA
"DHANALAKSHMI BANK",DLXB0000131,685048001,THODUPUZHA,"DOOR NO.162/9 JYOTHI SUPER BAZAR P.B.NO. 36, THODUPUZHA",9287276628,THODUPUZHA,THODUPUZHA,KERALA
"DHANALAKSHMI BANK",DLXB0000130,679048152,PERINTHALMANNA,"DOOR NO.PM/5/148/13 FIRST FLOOR,CITY CENTRE, PATTAMBI ROAD, PEINTHALMANNA",9287276566,PERINTALMANNA,PERINTALMANNA,KERALA
"DHANALAKSHMI BANK",DLXB0000129,642048002,UDUMALPET,"NO.23,SREE KRISHNA TOWERS BYE PASS ROAD,UDUMALPET COIMBATORE DT.",4942990,UDUMALPET,UDUMALPET,"TAMIL NADU"
"DHANALAKSHMI BANK",DLXB0000128,670048102,THALASSERY,"1ST FLOOR,HOPES SHOPPING COMPLEX,7/154 LOGANS ROAD THALASSERY KANNUR",6450410,THALASSERY,THALASSERY,KERALA
"DHANALAKSHMI BANK",DLXB0000127,641048003,PEELAMEDU,"286, STANDARD TOWERS AVANASHI ROAD, PEELAMEDU COIMBATORE",6451927,COIMBATORE,COIMBATORE,"TAMIL NADU"
"DHANALAKSHMI BANK",DLXB0000126,695048005,TVM-SASTHAMANGALAM,"BALAKRISHNA BUILDING TC NO.IX/767 (1) SASTHAMANGALAM THIRUVANANTHAPURAM",6451269,THIRUVANANTHAPURAM,THIRUVANANTHAPURAM,KERALA
"DHANALAKSHMI BANK",DLXB0000125,638048003,VEERAPANCHATRAM,"10/210, SATHY ROAD, VEERAPANCHATRAM, ERODE, TAMIL NADU",4943016,ERODE,ERODE,"TAMIL NADU"
"DHANALAKSHMI BANK",DLXB0000124,400048003,MUMBAI-MATUNGA,"2/323-B,SUDHIR SADAN, CHANDAVARKAR ROAD , MATUNGA MUMBAI.",64531095,MUMBAI,MUMBAI,MAHARASHTRA
"DHANALAKSHMI BANK",DLXB0000123,641048102,TIRUPUR,"NO.318,SRI MUTHU PLAZA AVINASHI ROAD, TIRUPUR",6450584,TIRUPUR,TIRUPUR,"TAMIL NADU"
"DHANALAKSHMI BANK",DLXB0000122,689048052,CHENGANNUR,"XIV/242.M.C.ROAD CHENGANNUR ALAPPUZHA",6452292,CHENGANNUR,CHENGANNUR,KERALA
"DHANALAKSHMI BANK",DLXB0000121,689048102,PATHANAMTHITTA,"PB NO.54,CHANGAYIL BLDG COLLEGE ROAD PATHANAMTHITTA",2222702,PATHANAMTHITTA,PATHANAMTHITTA,KERALA
"DHANALAKSHMI BANK",DLXB0000120,695048801,KAPPIL,"PARAVOOR VARKALA ROAD, KRISHAN KOVIL ROAD KAPPIL TRIVANDRUM DIST. KAPPIL, KERALA, 695311",2661743,VARKALA,VARKALA,KERALA
"DHANALAKSHMI BANK",DLXB0000119,689048252,THOTTAMON,"NSS UNION BUILDING, PERUNKULUM RANNI ROAD THOTTAMON PATHANAMTHITTA DIST., KERALA, 689672",5227497,RANNI,RANNI,KERALA
"DHANALAKSHMI BANK",DLXB0000118,695048003,"TVM - MANACAUD","T.C. 41/2343(4) MALSON TOWER MANACAUD TVM DIST",6451034,THIRUVANANTHAPURAM,THIRUVANANTHAPURAM,KERALA
"DHANALAKSHMI BANK",DLXB0000117,689048801,PAMBA,"TRIVENI,PATHANAMTHITTA DT 689714",5203465,PATHANAMTHITTA,PATHANAMTHITTA,KERALA
"DHANALAKSHMI BANK",DLXB0000116,560048003,"J C ROAD,BGL","J C ROAD BRANCH, GROUND FLOOR, NO.92, SHIVAJI TOWERS, J C ROAD,BANGALORE",3606707,BANGALORE,BANGALORE,KARNATAKA
"DHANALAKSHMI BANK",DLXB0000115,NA,ADIRAMAPATTANAM,"27 B AND C, POST OFFICE ROAD ADIRAMPATTINAM TANJORE DIST, TAMIL NADU, 614701",4942985,ADIRAMAPATTINAM,ADIRAMAPATTINAM,"TAMIL NADU"
"DHANALAKSHMI BANK",DLXB0000114,679048002,OTTAPPALAM,"V/421 , MAIN ROAD P.B. NO 18 OTTAPALAM PALAKKAD DIST",9287276544,OTTAPALAM,OTTAPALAM,KERALA
"DHANALAKSHMI BANK",DLXB0000113,689048102,THIRUVALLA,"17/567 M.C.ROAD THIRUVALLA KERALA",6450209,THIRUVALLA,THIRUVALLA,KERALA
"DHANALAKSHMI BANK",DLXB0000112,638048002,ERODE,"D.NO.523, NETHAJI ROAD, ERODE, PERIYAR DIST T.N",4943013,ERODE,ERODE,KERALA
"DHANALAKSHMI BANK",DLXB0000111,690048154,THAZHAKKARA,"421 MAVELIKARA-PANDALAM ROAD KUNNAM P O, ALAPUZHA",6452299,THAZHAKKARA,THAZHAKKARA,KERALA
"DHANALAKSHMI BANK",DLXB0000110,686048053,PERUNNA,"XIX/514 M.C.ROAD PERUNNA KOTTAYAM DIST",6452346,CHANGANASSERY,CHANGANASSERY,KERALA
"DHANALAKSHMI BANK",DLXB0000108,678048809,MELARKODE,"CHITTILANCHERRY P O, MELARCODE PALAKKAD DIST. MELARCODE, KERALA STATE, 678704",9287276536,MELARCODE,MELARCODE,KERALA
"DHANALAKSHMI BANK",DLXB0000107,636048002,SALEM,"# 77, 1ST FLOOR, ORIENTAL SHOPPING COMPLEX A A STREET, SALEM - 1. T.N",6540546,SALEM,SALEM,"TAMIL NADU"
"DHANALAKSHMI BANK",DLXB0000106,625048002,MADURAI,"216-A. NETAJI ROAD MADURAI TAMIL NADU",6548223,MADURAI,MADURAI,"TAMIL NADU"
"DHANALAKSHMI BANK",DLXB0000105,620048002,THIRUCHIRAPPALLI,"P.B.NO 451, 12 MADURAI ROAD, THIRUCHIRAPPALLAI.",6450991,TIRUCHIRAPPALLI,TIRUCHIRAPPALLI,"TAMIL NADU"
"DHANALAKSHMI BANK",DLXB0000104,691048803,CHITTUMALA,"1V/406 KOLLAM-KALLADA ROAD MULAVANA P O KOLLAM DIST",9287276489,CHITTUMALA,CHITTUMALA,KERALA
"DHANALAKSHMI BANK",DLXB0000103,520048001,VIJAYAWADA,"27-6-177 PRAKASHAM ROAD,IST FLOOR 434 GOVERNERPET VIJAYAWADA, A.P",6455460,VIJAYAWADA,VIJAYAWADA,"ANDHRA PRADESH"
"DHANALAKSHMI BANK",DLXB0000102,695048008,VATTAPARA,"VATTAPPARA 678506, TRIVANDRUM DIST VATTAPPARA, KERALA STATE, 678506",9287276626,VATTAPARA,VATTAPARA,KERALA
"DHANALAKSHMI BANK",DLXB0000101,678048808,PERUVAMBA,"6/168 SHERIFF MENZIL, CHUNGAM PALAKKAD ROAD PERUVAMBA PALAKKAD DIST, KERALA, 678531",3252353,PERUVEMBA,PERUVEMBA,KERALA
"DHANALAKSHMI BANK",DLXB0000100,686048801,CHIRAKADAVU,"III- 53 K.K.ROAD KOLLATHUKULAM BLDG., CHIRAKADAVU,PONKUNNAM KOTTAYAM DIST",8221403,PONKUNNAM,PONKUNNAM,KERALA
"DHANALAKSHMI BANK",DLXB0000099,686048801,AYARKUNNAM,"FIRST FLOOR, CHIRAPURATHU BUILDINGS MAIN ROAD AYARKUNNAM AYARKUNNAM, KERALA STATE, 686564",2542386,AYARKUNNAM,AYARKUNNAM,KERALA
"DHANALAKSHMI BANK",DLXB0000098,680048019,EDAVILANGU,"PANCHAYAT OFFICE BUILDING EDAVILANGU ROAD EDAVILANGU,KODUNGALLOOR THRISSUR DIST",9287276491,EDAVILANGU,EDAVILANGU,KERALA
"DHANALAKSHMI BANK",DLXB0000097,600048004,CHENNAI-G.T,"OLD NO;128,NEW NO.269 THAMBU CHETTY STRE GEORGE TOWN, CHENNAI",64547916,CHENNAI,CHENNAI,"TAMIL NADU"
"DHANALAKSHMI BANK",DLXB0000096,NA,VAZHAIPANDAL,"SRI L N PERUMAL KOIL STREET, VAZHAIPANDAL NORTH ARCOT DIST ,VELLORE , TAMIL NADU, 600001",2244808,VAZHAIPANDAL,VAZHAIPANDAL,"TAMIL NADU"
"DHANALAKSHMI BANK",DLXB0000095,688048002,ALAPPUZHA,"26/1006 PALACE ROAD ALAPPUZHA KERALA",6451255,ALAPPUZHA,ALAPPUZHA,KERALA
"DHANALAKSHMI BANK",DLXB0000094,572048002,TUMKUR,"2 KUVEMPU NAGAR P.O.BLDG B.H.ROAD BATAWADI TUMKUR, KARNATAKA STATE",6450183,TUMKUR,TUMKUR,KARNATAKA
"DHANALAKSHMI BANK",DLXB0000092,695048252,SREENIVASAPURAM,"C-VI/300 COLLEGE-NADAYANA ROAD SREENIVASAPURAM VARKALA TVM DT",9287276580,VARKALA,VARKALA,KERALA
"DHANALAKSHMI BANK",DLXB0000091,632048002,VELLORE,"NO 20, 1ST FLOOR GANDHI ROAD P.B.NO.406 VELLORE, T.N",6450507,VELLORE,VELLORE,"TAMIL NADU"
"DHANALAKSHMI BANK",DLXB0000090,NA,LATHERI,"1/327 MAIN ROAD LATHERI NORTH ARCOT, T.N",6450921,LATHERI,VELLORE,"TAMIL NADU"
"DHANALAKSHMI BANK",DLXB0000089,NA,K.V.KUPPAM,"VASANTH MAHAL, NO:4/106 KATAPADI-GUDIYATAM MAIN ROAD, K V KUPPAM, VELLORE DISTRICT, TN",1246227,K.V.KUPPAM,VELLORE,"TAMIL NADU"
"DHANALAKSHMI BANK",DLXB0000088,500048002,HYDERABAD,"P.B.NO.246 1ST FLOOR, KUNDA S ESTATE ABIDS, HYDERABAD, A.P",4544549,HYDERABAD,HYDERABAD,"ANDHRA PRADESH"
"DHANALAKSHMI BANK",DLXB0000087,680048012,KOTTEKKAD,"10/508, KUNNATH BUILDING, KOTTEKKAD KUTTUR P.O THRISSUR, KERALA, 680001",2212352,KOTTEKKAD,KOTTEKKAD,KERALA
"DHANALAKSHMI BANK",DLXB0000086,680048006,THAIKKATTUSSERY,"EDAKUNNI TEMPLE ROAD, OLLUR TRICHUR DIST THAIKKATTUSSERY, KERALA STATE, 680303",6454130,THAIKKATTUSSERY,THAIKKATTUSSERY,KERALA
"DHANALAKSHMI BANK",DLXB0000085,691048802,KALLAMBALAM,"THULASI COMPLEX, KALLAMBALAM THIRUVANANTHAPURAM DIST",9287276615,KALLAMBALAM,KALLAMBALAM,KERALA
"DHANALAKSHMI BANK",DLXB0000084,629048002,NAGERCOIL,"DOOR NO: 86, 1ST FLOOR, EAST TOWER, VSK BUILDING, NAGERCOIL,KANYA KUMARI DT",9244943010,NAGERCOIL,NAGERCOIL,KERALA
"DHANALAKSHMI BANK",DLXB0000083,678048252,CHITTUR,"9/IV CHITTUR-COIMBATORE ROAD CHITTUR PALAKKAD DIST",9287276485,CHITTUR,CHITTUR,KERALA
"DHANALAKSHMI BANK",DLXB0000082,680048014,KURICHIKARA,"CHEERIAN SHOPPING COMPLEX, PONGANAMKED KURICHIKKARA, KERALA STATE, 680028",2695625,KURICHIKARA,KURICHIKARA,KERALA
"DHANALAKSHMI BANK",DLXB0000081,680048007,PALAKKAL,"MONON S COMPLEX AMMADAM/KODANNUR ROAD PALAKKAL THRISSUR",9287276551,CHERPU,CHERPU,KERALA
"DHANALAKSHMI BANK",DLXB0000080,682048010,TRIPUNITHURA,"P.B.NO.9 EAST FORT GATE TRIPUNITHURA EKM DIST",6453550,KOCHI,KOCHI,KERALA
"DHANALAKSHMI BANK",DLXB0000079,678048807,KOPPAM,"KOPPAM, PULASSERY, KOPPAM VILLAGE PALAKKAD DIST , KERALA, 679307",9287276511,KOPPAM,KOPPAM,KERALA
"DHANALAKSHMI BANK",DLXB0000078,691048801,CHADAYAMANGALAM,"DEVARAGAM BUILDING NEAR KSRTC BUS STAND CHADAYAMANGALM- 691534 KOLLAM",2475255,AYOOR,AYOOR,KERALA
"DHANALAKSHMI BANK",DLXB0000077,695048152,ANAD,"3/53 V V BUILDINGS, PAZHAKUTTY P.O.NEDUMANGAD THIRUVANANTHAPURAM.",2812248,NEDUMANGAD,NEDUMANGAD,KERALA
"DHANALAKSHMI BANK",DLXB0000076,680048015,ARATTUPUZHA,"SREE MURALI COMPLEX PALLESSERY P.O. ARATTUPUZHA TCR DIST",2790228,ARATTUPUZHA,ARATTUPUZHA,KERALA
"DHANALAKSHMI BANK",DLXB0000075,678048806,KODUNTHIRAPILLY,"PRIYADARSHINI NAGAR, KODUNTHIRAPPULLY PALAKKAD PALAKKAD, KERALA, 678004",2508153,KODUNTHRIRAPALLY,KODUNTHRIRAPALLY,KERALA
"DHANALAKSHMI BANK",DLXB0000074,678048805,PUDUSSERRY,"5/657 MAIN ROAD PUDUSSERY KANJIKODE PALAKKAD DIST",2566385,KANJIKODE,KANJIKODE,KERALA
"DHANALAKSHMI BANK",DLXB0000073,683048002,ANGAMALY,"P.B.NO.8 GROUND FLOOR K V VARKEY MEMORIAL COMPLEX, ANGAMALY",6453378,ANGAMALY,ANGAMALY,KERALA
"DHANALAKSHMI BANK",DLXB0000072,682048009,DESOM,"III/202 NATIONAL HIGH WAY 47 DESOM ALUVA, EKM DIST",6453410,DESOM,DESOM,KERALA
"DHANALAKSHMI BANK",DLXB0000071,680048402,KUMARANELLUR,"VIII/1023 TRICHUR-SHORNUR ROAD KUMARANELLUR-OTTUPPARA WADAKKANCHERY, TCR DIST",9287276523,KUMARANELLUR,KUMARANELLUR,KERALA
"DHANALAKSHMI BANK",DLXB0000070,575048002,MANGALORE,"DHINDA CHAMBERS,GROUND FLOOR,NO.5-5-301/3 M G ROAD,OPP:S D M LAW COLLAGE,MANGALORE",2497730,MANGALORE,MANGALORE,KERALA
"DHANALAKSHMI BANK",DLXB0000069,560048002,"BGR-DICKNSON ROAD","P.B.NO.4214 NO.9,DICKENSON ROAD, BANGALORE",64548689,BANGALORE,BANGALORE,KERALA
"DHANALAKSHMI BANK",DLXB0000068,600048003,CHENNAI-MANDAVELI,"NO:34, CSM PLAZA,V.K.ROAD MANDVELI, CHENNAI CHENNAI, T.N",64530731,CHENNAI,CHENNAI,KERALA
"DHANALAKSHMI BANK",DLXB0000067,685048102,MUNNAR,"MP/IX/2728 -F CHALAKKAL KRISHNAN SON ALUVA-MUNNAR ROAD, MUNNAR, KERALA",9287276537,MUNNAR,MUNNAR,KERALA
"DHANALAKSHMI BANK",DLXB0000066,670048002,KANNUR,"P.B.NO:60,DOOR NO:2471, WARD CC/XXIX,1ST FLOOR, SHAAN BLDG., J S PAUL JN. M A RAOD, KANNUR",6450424,CANNUR,CANNUR,KERALA
"DHANALAKSHMI BANK",DLXB0000065,686048801,THRIKKARIYOOR,"THERATHENAL BUILDING, TRIKKARIYOOR ERNAKULAM DISTRICT",2822563,KOTHAMANGALAM,KOTHAMANGALAM,KERALA
"DHANALAKSHMI BANK",DLXB0000064,680048017,VARANDARAPPILLY,"IV/788 KOVENDA CHURCH BUILDING,VARANDARAPPILLY THRISSUR DIST",2760166,VARANDRAPALLY,VARANDRAPALLY,KERALA
"DHANALAKSHMI BANK",DLXB0000063,641048005,POLLACHI,"P.B.NO. 21 NO.84,COIMBATORE ROAD POLLACHI T.N",4942984,POLLACHI,POLLACHI,KERALA
"DHANALAKSHMI BANK",DLXB0000062,641048002,COIMBATORE,"P.B.NO.2951 268, CROSS CUT ROAD GANDHIPURAM COIMBATORE",6450975,COIMBATORE,COIMBATORE,KERALA
"DHANALAKSHMI BANK",DLXB0000061,678048052,PERINKULAM,"PERINKULAM, BANK ROAD ALLATHUR, PALAKKAD DIST. KERALA STATE, 678541",9287276571,ALATHUR,ALATHUR,KERALA
"DHANALAKSHMI BANK",DLXB0000060,680048052,GURUVAYOOR,"P.B.NO.14, III 541 A III 541 B, EAST NADA, GURUVAYOOR, KERALA",6453977,GURUVAYUR,GURUVAYUR,KERALA
"DHANALAKSHMI BANK",DLXB0000059,691048002,KOLLAM,"GROUND FLOOR, GANGOTHRI TOWERS, NEAR IRON BRIDGE KOLLAM - 691 001",6451344,KOLLAM,KOLLAM,KERALA
"DHANALAKSHMI BANK",DLXB0000058,690048801,THRIKKUNNAPUZHA,"III-507, T.PUZHA-THOTTAPILLY, PALLIPATTUMURY ALAPUZHA THRIKUNNAPUZHA, KERALA, 690515",9287276586,THRIKKUNNAPUZHA,THRIKKUNNAPUZHA,KERALA
"DHANALAKSHMI BANK",DLXB0000057,695048002,TVM-FORT,"P.B.NO 5067 KARIMPANAL ARCADE FORT THIRUVANANTHAPURAM",6451079,THIRUVANANTHAPURAM,THIRUVANANTHAPURAM,KERALA
"DHANALAKSHMI BANK",DLXB0000056,678048003,PALAKKAD-SULTANPET,"LAKSHMI PLAZA COIMBATORE ROAD SULTANPET PALAKKAD",6452286,PALAKKAD,PALAKKAD,KERALA
"DHANALAKSHMI BANK",DLXB0000055,682048011,"EKM-HOSPITAL ROAD","P.B.NO:1150, XL/252 HOSPITAL ROAD, ERNAKULAM",6453294,KOCHI,KOCHI,KERALA
"DHANALAKSHMI BANK",DLXB0000054,600048002,"CHENNAI-MOUNT ROAD","P.B.NO.359 163,OM SAKTHI TOWER ANNA SALAI CHENNAI",49037004,CHENNAI,CHENNAI,KERALA
"DHANALAKSHMI BANK",DLXB0000053,680048013,PUTHUR,"1ST FLOOR KAKANAT TOWERS PUTHUR THRISSUR",6454115,THRISSUR,THRISSUR,KERALA
"DHANALAKSHMI BANK",DLXB0000052,688048802,KANICHIKULANGARA,"13/7 DEWASOOM BUILDING, ALAPUZHA ROAD ALAPUZHA DIST. KANICHIKULANGARA, KERALA STATE, 984011",6450254,KANICHIKULANGARA,KANICHIKULANGARA,KERALA
"DHANALAKSHMI BANK",DLXB0000051,686048002,KOTTAYAM,"WARD NO.17 P B 261 KANIANTHARA HEIGHTS BAKER JUNCTION KOTTAYAM",6452349,KOTTAYAM,KOTTAYAM,KERALA
"DHANALAKSHMI BANK",DLXB0000050,678048804,VALLANGI-NEMMARA,"V/47-A,GROUND FLOOR I.G.TOWERS NEMMARA PALAKKAD",9287276540,ALATHUR,ALATHUR,KERALA
"DHANALAKSHMI BANK",DLXB0000049,680048008,ATHANI,"168, TRICHUR-SHORANUR ROAD, ATHANI, THRISSUR",2200259,"MINALUR (ATHANI)","MINALUR (ATHANI)",KERALA
"DHANALAKSHMI BANK",DLXB0000048,686048602,VAIKOM,"P.B.NO 1 VAIKOM KOTTAYAM KERALA",9287276764,VAIKOM,VAIKOM,KERALA
"DHANALAKSHMI BANK",DLXB0000047,686048052,CHANGANACHERRY,"P.B.NO:2 KAVALAM BLDG., S.B COLLEGE ROAD CHANGANACHERRY, KOTTAYAM",6452343,CHANGANASSERY,CHANGANASSERY,KERALA
"DHANALAKSHMI BANK",DLXB0000046,680048018,THOTTIPPAL,"11/122 PUDUKKAD MAPRANAM ROAD THOTTIPAL, THRISSUR",2791483,THOTTIPPAL,THOTTIPPAL,KERALA
"DHANALAKSHMI BANK",DLXB0000045,695048009,ARYANAD,"ARYANAD, AP 585, ARYANAD THIRUVANANTHAPURAM KERALA STATE, 695542",2852036,ARYANAD,ARYANAD,KERALA
"DHANALAKSHMI BANK",DLXB0000044,680048152,MURINGOOR,"PAYYAPPILLY BUILDINGS MURINGOOR JUNCTION NH 47, MURINGOOR THRISSUR",2702657,CHALAKUDY,CHALAKUDY,KERALA
"DHANALAKSHMI BANK",DLXB0000042,680048009,MUNDUR,"SAHABA COMPLEX,1ST FLOOR TRICHUR GURUVAYUR ROAD MUNDUR THRISSUR DIST",2211252,THRISSUR,THRISSUR,KERALA
"DHANALAKSHMI BANK",DLXB0000041,673048002,KOZHIKODE,"17/1341 H,RAM MOHAN ROAD, CHINTHAVALAPPU, KOZHIKODE",6453463,CALICUT,CALICUT,KERALA
"DHANALAKSHMI BANK",DLXB0000040,695048006,KARAKULAM,"KP/1024 A,KRP BLDGS., PALAM JUNCTION,VAZHAYILA, KARAKULAM, THIRUVANANTHAPURAM",2371288,KARAKULAM,KARAKULAM,KERALA
"DHANALAKSHMI BANK",DLXB0000038,682048003,EKM-PALARIVATTOM,"GROUND FLOOR,K M M BUILDI 32/2383 A-1,OP.KSEB OFFIC S N JUNCTION PALARIVATTOM ERNAMKULAM",6453440,KOCHI,KOCHI,KERALA
"DHANALAKSHMI BANK",DLXB0000037,695048004,TVM-VAZHUTHACAUD,"HDFC HOUSE VAZHUTHACAUD THIRUVANANTHAPURAM PIN - 695 010.",6451153,THIRUVANANTHAPURAM,THIRUVANANTHAPURAM,KERALA
"DHANALAKSHMI BANK",DLXB0000036,688048802,PUNNAKUNNAM,"PULINKUNNU P.O. PUNNAKUNNAM ALAPUZHA",6451362,PULINCUNNOO,PULINCUNNOO,KERALA
"DHANALAKSHMI BANK",DLXB0000035,688048801,KAINAKARY,"BUILDING NO 96/5, KAINAKARI ALAPUZHA DIST. KAINAKARI, KERALA, 688501",6451327,KAINAKARY,KAINAKARY,KERALA
"DHANALAKSHMI BANK",DLXB0000034,680048011,ALOOR,"577 G, FIRST FLOOR ST.JOSEPH CHURCH SHOPPING COMPLEX,NEAR ESI DISPENSARY, ALOOR ,TCR",6450161,KODAKARA,KODAKARA,KERALA
"DHANALAKSHMI BANK",DLXB0000033,679048801,THACHAMPARA,"THUNDIL COMPLEX, CALICUT ROAD THACHAMPARA , KERALA, 678593",9287276583,TACHAMPARA,TACHAMPARA,KERALA
"DHANALAKSHMI BANK",DLXB0000032,690048802,THAZHAVA,"BLDG.NO:TP 9/371A, PC ROAD, SRP MARKET, NEAR SAG THEATRE,THAZHAVA KOLLAM.",2664323,MYNAGAPALLY,MYNAGAPALLY,KERALA
"DHANALAKSHMI BANK",DLXB0000031,682048015,CHERANELLUR,"VIA EDAPPALLY ERNAKULAM DIST.",6453401,KOCHI,KOCHI,KERALA
"DHANALAKSHMI BANK",DLXB0000030,680048016,PARAPPUR,"6/407 THOLUR PANCHAYATH, PARAPPUR JUNCTION PARAPPUR TRICHUR, KERALA, 680552",2285678,PARAPPUR,PARAPPUR,KERALA
"DHANALAKSHMI BANK",DLXB0000029,678048803,KUNISSERY,"ALATTUR PALAKKAD ROAD, KUNNISSERY PALAKKAD DIST, KERALA, 678681",2234248,KUNISSERY,KUNISSERY,KERALA
"DHANALAKSHMI BANK",DLXB0000028,680048252,THIRUVANCHIKULAM,"P B NO. 17 863 A ,DHARMARAJ BUILDING SRINGAPURAM,KODUGALLUR TRISSUR DIST",6450245,KODUNGALLUR,KODUNGALLUR,KERALA
"DHANALAKSHMI BANK",DLXB0000027,688048053,"S L PURAM","287, MAIN ROAD, SL PURAM P O SL PURAM KANJIKKUZHI,ALPPUZHA, KERALA, 688523",6450276,KANJIKUZHI,KANJIKUZHI,KERALA
"DHANALAKSHMI BANK",DLXB0000026,678048802,KONGAD,"KRISHNA BUILDING, MAIN ROAD KONGAD PALAKKAD DIST. KONGAD, KERALA, 678631",6452278,KONGAD,KONGAD,KERALA
"DHANALAKSHMI BANK",DLXB0000025,690048002,HARIPAD,"P.BNO:1, SREE MURUGAN BLDG.,TION NEAR TOWN HALL JUNCTION HARIPAD",6452295,HARIPAD,HARIPAD,KERALA
"DHANALAKSHMI BANK",DLXB0000024,682048014,KUZHUPALLY,"SRI BALAKRISHNA SWAMY DEWASOM COMP, VYPEEN MUNAMBAM ROAD AYYANPILLY P O KUZHUPPALLI KERALA STATE, 682501",6453454,KUZHUPILLY,KUZHUPILLY,KERALA
"DHANALAKSHMI BANK",DLXB0000023,680048802,PAZHAYANNUR,"PB NO;9, 1ST FLOOR, PRABHALA SHOPPING COMPLEX MAIN ROAD,PAZHAYANNUR THRISSUR",4225023,PAZHAYANNUR,PAZHAYANNUR,KERALA
"DHANALAKSHMI BANK",DLXB0000022,679048352,PATTAMBI,"PB NO.3,DOOR NO.5/1672, 1ST FLOOR, YEMKAY TRADE CENTRE, MAIN ROAD, PATTAMBI 679 303",9287276560,PATTAMBI,PATTAMBI,KERALA
"DHANALAKSHMI BANK",DLXB0000021,679048801,CHERUTHURUTHY,"IX/139, MAIN ROAD, CHERUTHURUTHY, THRISSUR DIST.",9287276482,CHERUTHURUTHY,CHERUTHURUTHY,KERALA
"DHANALAKSHMI BANK",DLXB0000020,679048002,EDAPPAL,"6/485 PALGHAT ROAD P.B.NO.2 EDAPPAL, MALAPPURAM",6450260,EDAPPAL,EDAPPAL,KERALA
"DHANALAKSHMI BANK",DLXB0000019,678048801,VADAKKENCHERRY,"NO:III/901-H,FIRST FLOOR SHAH TOWERS VADAKKENCHERRY PALAKKAD DIST",9287276592,VADAKKANCHERI,VADAKKANCHERI,KERALA
"DHANALAKSHMI BANK",DLXB0000018,682048007,PALLURUTHY,"23/2642 C ASB ESTATE. PALLURUTHY ERNAKULAM DIST",6453526,KOCHI,KOCHI,KERALA
"DHANALAKSHMI BANK",DLXB0000017,682048006,MATTANCHERRY,"P B NO:303, VI/368 ANAVATHIL, MATTANCHERRY EKM DIST",6453463,KOCHI,KOCHI,KERALA
"DHANALAKSHMI BANK",DLXB0000016,678048810,PARLI,"VII/146 SHORNUR ROAD PARLI PALAKKAD",6452283,PARLI,PARLI,KERALA
"DHANALAKSHMI BANK",DLXB0000015,680048003,"THRISSUR-ROUND SOUTH","1ST FLOOR """"PATHAYAPURA"""" PARAMEKKAVU DEVSWOM BUILD ROUND SOUTH THRISSUR",6453959,THRISSUR,THRISSUR,KERALA
"DHANALAKSHMI BANK",DLXB0000014,688048801,KUTHIATHODE,"KUTHIYATHODE, FIRST FLOOR R K COMPLEX, ALLEPPY DIST KERALA STATE, 688533",6450272,KUTHIATHODE,KUTHIATHODE,KERALA
"DHANALAKSHMI BANK",DLXB0000013,688048052,CHERTHALA,"CMC IV/165 A BMG COMPLEX, NORTH GATE KARTHIAYINI TEMPLE ROAD CHERTHALA",6450232,CHERTHALA,CHERTHALA,KERALA
"DHANALAKSHMI BANK",DLXB0000012,680048202,IRINJALAKUDA,"PB NO:14,DOOR NO XIX/546H CHITTILAPPILLY TOWERS, OPP TOWN HALL, NEAR BUS STAN, IRINJALAKUDA",6450165,IRINJALAKUDA,IRINJALAKUDA,KERALA
"DHANALAKSHMI BANK",DLXB0000011,680048801,PAZHANJI,"PAZHANJI-KATTAKAMPAL ROAD PAZHANJI THRISSUR DIST",9287202447,PAZHANJI,PAZHANJI,KERALA
"DHANALAKSHMI BANK",DLXB0000010,680048302,KUNNAMKULAM,"1/804-M WADAKKANCHERY ROAD P.B.NO.26 KUNNAMKULAM",9287276525,KUNNAMKULAM,KUNNAMKULAM,KERALA
"DHANALAKSHMI BANK",DLXB0000009,680048005,"THRISSUR-HIGH ROAD","XXV/1103 HIGH ROAD, THRISSUR",6453960,THRISSUR,THRISSUR,KERALA
"DHANALAKSHMI BANK",DLXB0000008,680048352,KODAKARA,"IST FLOOR, K.R.COMPLEX, KODAKARA, THRISSUR.",9287276617,KODAKARA,KODAKARA,KERALA
"DHANALAKSHMI BANK",DLXB0000007,680048020,KALPARAMBA,"KALPARAMBA, , ARIPALAM (P O), VIA IRANJALAGUDA TRICHUR DIST KERALA STATE, 680688",9287276494,KALPARAMBA,KALPARAMBA,KERALA
"DHANALAKSHMI BANK",DLXB0000006,680048010,KANJANY,"I/359, THOTUPURA SN BLDG., KANJANY CENTRE, VADANAPPILLY ROAD , THRISSUR DIST",2630227,VADANAPPALLY,VADANAPPALLY,KERALA
"DHANALAKSHMI BANK",DLXB0000005,680048452,PERINGOTTUKARA,"VEMBANAT BUILDING EAST NADA, TRIPRAYAR PERINGOTTUKARA THRISSUR DIST",6454004,VALAPAD,VALAPAD,KERALA
"DHANALAKSHMI BANK",DLXB0000004,680048004,THRISSUR-PUSPAGIRI,"GROUND FLOOR DHANALAKSHMI COMPLEX, DHANALAKSHMI BUILDINGS PUNKUNNAM,THRISSUR",6453956,THRISSUR,THRISSUR,KERALA
"DHANALAKSHMI BANK",DLXB0000003,678048002,"PALAKKAD-BIG BAZAR","1ST FLOOR, HAJEE COMPLEX, MARKET ROAD, PALAKKAD",6452289,PALAKKAD,PALAKKAD,KERALA
"DHANALAKSHMI BANK",DLXB0000002,682048002,"EKM-SHANMUGAM ROAD","C/40/664(2), ALEX BUILDG , SHANMUGHAM ROAD, ERNAKULAM-31",6453521,KOCHI,KOCHI,KERALA
"DHANALAKSHMI BANK",DLXB0000001,680048002,"THRISSUR MAIN","NAICKANAL JUNCTION THE ROUND THRISSUR",6453962,THRISSUR,THRISSUR,KERALA
