BANK,IFSC,MICR,BRANCH,ADDRESS,CONTACT,CITY,DISTRICT,STATE
"LAXMI VILAS BANK",LAVB0000999,600056102,"ATM CELL CHENNAI","189 IST FLOOR AARTHI CHAMBERS ANNASALAI CHENNAI 600 006 TAMILNADU",0,CHENNAI,CHENNAI,"TAMIL NADU"
"LAXMI VILAS BANK",LAVB0000998,600056104,DPCELL,"NO 776 SAKTHI TOWERS 4TH FLOORANNASALAI CHENNAI 600002",0,CHENNAI,CHENNAI,"TAMIL NADU"
"LAXMI VILAS BANK",LAVB0000966,676056152,MALAPPURAM,"ALMANARA COMPLEX DOWNHILL TIRUR ROAD",0,MALAPPURAM,TRISSUR,KERALA
"LAXMI VILAS BANK",LAVB0000965,504056202,MANCHERIAL,"NO 6 10 MAIN MARKET ROAD NEAR GIRLS HIGH SCHOOL LABOUR OFFICE ROAD MANCHERIAL TELANGANA 504208",9989147002,MANCHERIAL,MANCHERIAL,TELANGANA
"LAXMI VILAS BANK",LAVB0000963,NA,MARKAPUR,"D.NO. 7,310 CUMBUM ROAD MARKAPUR",0,MARKAPUR,PRAKASAM,"ANDHRA PRADESH"
"LAXMI VILAS BANK",LAVB0000962,509056002,MAHABUBNAGAR,"H NO 1 10 14914 NEW TOWN",0,MABABUBNAGAR,MABABUNAGAR,TELANGANA
"LAXMI VILAS BANK",LAVB0000961,620056019,MANAPPARAI,"NO 107 DINDIGUL MAIN ROAD OPP LIC OFFICE",0,TRICHY,TRICHY,"TAMIL NADU"
"LAXMI VILAS BANK",LAVB0000896,110056102,"ED OFFICE GURGAON","217 2ND FLOOR TIME TOWERMG ROAD GURGAON HARYANA 122009",0,GURGAON,GURGAON,HARYANA
"LAXMI VILAS BANK",LAVB0000892,400056103,"D O MUMBAI","STERLING CENTRE 2ND FLOOR ANDHERI KURLA ROAD CHAKALA ANDHERI MUMBAI",0,MUMBAI,"GREATER BOMBAY",MAHARASHTRA
"LAXMI VILAS BANK",LAVB0000891,500056103,"HYDERABAD RO","SHOW ROOM NO 2  ADITYA TRADE CENTRE  AMEERPET  HYDERABAD500038",0,HYDERABAD,HYDERABAD,"ANDHRA PRADESH"
"LAXMI VILAS BANK",LAVB0000889,625056105,"R O MADURAI","DOOR NO 49A BHARATHI ULA ROAD RACE COURSE",0,MADURAI,MADURAI,"TAMIL NADU"
"LAXMI VILAS BANK",LAVB0000888,NA,"INTERNATIONAL DIVISION","25 31 ABAN HOUSE 4TH FLOOR SRI SAIBABA MARG KALAGHODA FORT MUMBAI",0,MUMBAI,MUMBAI,MAHARASHTRA
"LAXMI VILAS BANK",LAVB0000887,639056103,"KARUR RO","SALEM MAIN ROADKATHAPARAI",0,KARUR,KARUR,"TAMIL NADU"
"LAXMI VILAS BANK",LAVB0000886,641056105,"D O COIMBATORE","LVB PLATINUM JUBILEE BUILDING 68 OPPANAKARA STREETIIND FLOOR COIMBATOR",0,COIMBATORE,COIMBATORE,"TAMIL NADU"
"LAXMI VILAS BANK",LAVB0000885,560056103,"D O BANGALORE","568 38TH CROSS 11TH MAIN 1ST FLOOR5TH BLOCK JAYANAGAR BANGALORE 560 0",0,BANGALORE,"BANGALORE URBAN",KARNATAKA
"LAXMI VILAS BANK",LAVB0000882,400056302,"RTGS CELL","25-31, ABAN HOUSE, 4TH FLOOR, SRI SAIBABA MARG. KALAGHODA FORT MUMBAI",0,MUMBAI,"GREATER BOMBAY",MAHARASHTRA
"LAXMI VILAS BANK",LAVB0000881,636056018,YETHAPUR,"94, BAZAAR STREET YETHAPUR 636 117SALEM DT TAMIL NADU",0,YETHAPUR,SALEM,"TAMIL NADU"
"LAXMI VILAS BANK",LAVB0000880,NA,YADGIR,"PLOT NO 4 SY NO 147/1 2 NEAR SUBHAM PETROL BUNK",0,YADGIR,GULBURGA,KARNATAKA
"LAXMI VILAS BANK",LAVB0000875,NA,"Y OTHAKKADAI","SRI ESWARI AMMAN TOWERS,MADURAI MELUR MAIN ROAD,Y.OTHAKKADAI,MADURAI DT.625 107",2545900,MADURAI,MADURAI,"TAMIL NADU"
"LAXMI VILAS BANK",LAVB0000874,560056021,YELAHANKA,"NO 971 1ST CROSS 3RD PHASE YELAHANKA BANGALORE 560064",0,BANGALORE,BANGALORE,KARNATAKA
"LAXMI VILAS BANK",LAVB0000854,517056003,"ANNAMAYYA CIRCLE TIRUPATHI","NO 19 8 85 4B R C ROAD ANNAMAYYA CIRCLE TIRUPATHI",0,TIRUPATHI,CHITTOOR,"ANDHRA PRADESH"
"LAXMI VILAS BANK",LAVB0000853,560056001,"BANGALORE SERVICE","19 B 1ST FLOOR NEAR ABINAY THEATREB V K IYENGAR ROADP B NO 9568 BANGA",0,BANGALORE,"BANGALORE URBAN",KARNATAKA
"LAXMI VILAS BANK",LAVB0000852,400056001,"MUMBAI SERVICE BRANC","64 DR V B GANDHI MARG P B NO 1783 KALAGHODA FORT MUMBAI 400 001MAHARAS",0,MUMBAI,"GREATER BOMBAY",MAHARASHTRA
"LAXMI VILAS BANK",LAVB0000851,641056001,COIMBATORE,"2ND FLOOR NO 1 HEAD QUARTERS ROAD UPPILIPALAYAM COIMBATORE 641 018",0,COIMBATORE,COIMBATORE,"TAMIL NADU"
"LAXMI VILAS BANK",LAVB0000850,636056001,"SALEM SERVICE BRANCH","12 B PULIKUTHI MAIN ROAD P B NO 657GUGAI SALEM 636 006 SALEM DT TAMIL",0,SALEM,SALEM,"TAMIL NADU"
"LAXMI VILAS BANK",LAVB0000820,500056021,VANASTHALIPURAM,"NO C 164 BEHIND SBI AND NEAR GANESH TEMPLE VANASTHALIPURAM 500070",9985444968,VANASTHALIPURAM,RANGAREDDY,TELANGANA
"LAXMI VILAS BANK",LAVB0000819,600056043,VICHOOR,"NO 6 98 PONNERI HIGH ROAD MANALI NEW TOWN VICHOOR CHENNAI 600103",0,CHENNAI,CHENNAI,"TAMIL NADU"
"LAXMI VILAS BANK",LAVB0000818,NA,VILLIVAKKAM,"NO 1 NEW AVADI ROAD VILLIVAKKAM CHENNAI",0,CHENNAI,CHENNAI,"TAMIL NADU"
"LAXMI VILAS BANK",LAVB0000817,NA,VAPI,"NO 37 TIRUPATI PLAZA VAPI DAMAN ROAD VALSAD DT GUJARAT 396195",0,VAPI,VALSAD,GUJARAT
"LAXMI VILAS BANK",LAVB0000816,NA,"WEST MAMBALAM","NO 31 JAISHANKAR STREET WEST MAMBALAM CHENNAI",0,CHENNAI,CHENNAI,"TAMIL NADU"
"LAXMI VILAS BANK",LAVB0000815,NA,"WEST MARREDPALLI","D NO 3 9 242,MAIN ROAD,WEST MAREDPALLY,SECUNDERABAD 500 026",23734333,CONTONMENT,HYDERABAD,"ANDHRA PRADESH"
"LAXMI VILAS BANK",LAVB0000814,NA,"MVP COLONY","NO 33 SECTOR 3 MVP DOUBLE ROAD VISHAKAPATNAM ANDHRA PRADESH",0,VISHAKAPATNAM,VIZAG,"ANDHRA PRADESH"
"LAXMI VILAS BANK",LAVB0000813,NA,VILLAPURAM,"NO 248 A ARUPUKKOTTAI MAIN ROAD VILLAPURAM TAMILNADU",0,MADURAI,MADURAI,"TAMIL NADU"
"LAXMI VILAS BANK",LAVB0000812,NA,VENJUVANCHERI,"VANDALUR WALAJABAD HIGH ROAD VENJUVANCHERI KANCHIPURAM DT",0,CHENNAI,KANCHIPURAM,"TAMIL NADU"
"LAXMI VILAS BANK",LAVB0000811,NA,VASAI,"GODS GIFT, MARRY VILLA, VASAI ROAD WEST,",0,VASAI,VASAI,MAHARASHTRA
"LAXMI VILAS BANK",LAVB0000810,506056002,WARRANGAL,"DOORNO 8 1 88 OLD BEET BAZAAR STREET WARRANGAL 506 002 WARRANGAL AP",2425548,WARANGAL,WARANGAL,"ANDHRA PRADESH"
"LAXMI VILAS BANK",LAVB0000809,NA,VIZIANAGARAM,"D NO 19-10-11/1, MATAM STREET,VIZIANAGARAM",0,HYDERABAD,VIZIANAGARAM,"ANDHRA PRADESH"
"LAXMI VILAS BANK",LAVB0000808,NA,KACHIRAPALAYAM,"NO 66, KAMARAJ SALAI, KACHIRAPALAYAM, KALLAKURICHI TALUK",0,VILLUPURAM,VILLUPURAM,"TAMIL NADU"
"LAXMI VILAS BANK",LAVB0000807,NA,VADAVALLI,"VISHAL TOWERS,SF NO.114 BY 2,MARUTHAMALAI MAIN ROAD,VADAVALLI,COIMBATORE 641041",2232123,VADAVALLI,COIMBATORE,"TAMIL NADU"
"LAXMI VILAS BANK",LAVB0000806,NA,VENKATAKRISHNAPURAM,"1 BY 96,VENKATAKRISHNAPURAM VILLAGE,ARIYALUR",222040,KARUR,KARUR,"TAMIL NADU"
"LAXMI VILAS BANK",LAVB0000805,NA,VENGAIVASAL,"2 BY 152,VENGAIVASAL MAIN ROAD,SANTHOSAPURAM,VENGAIVASAL,CHENNAI",22293460,CHENNAI,CHENNAI,"TAMIL NADU"
"LAXMI VILAS BANK",LAVB0000804,690056252,VALLIKAVU,"NEAR TO IBY8AKULASEKHARAPURAM GRAMA PANCHAYAT",2641777,KOLLAM,KOLLAM,KERALA
"LAXMI VILAS BANK",LAVB0000803,560056010,VISHVESHWARAPURA,"VISHWESHWARAPURA,BANAUANAHALLI,DODDABALLAPURA ROAD,NELAMANGALA 562113",27723188,NELAMANGALA,"BANGALORE RURAL",KARNATAKA
"LAXMI VILAS BANK",LAVB0000802,522056542,VINUKONDA,"30 BY 214,KEERTHI TALKIES ROAD, VINUKONDA 522647,GUNTUR DT,ANDRAPRADES",272769,VINUKONDA,GUNTUR,"ANDHRA PRADESH"
"LAXMI VILAS BANK",LAVB0000801,520056002,"VIJAYAWADA II","59 14 2 RING ROAD VIJAYAWADA 520 008 KRISHNA DT ANDHRAPRADESH",2490110,VIJAYAWADA,KRISHNA,"ANDHRA PRADESH"
"LAXMI VILAS BANK",LAVB0000799,641056103,"A VADUGAPALAYAM","4 175 1 PAWADI STREET A VADUGAPALAYAM 641 654 AVINASHI TALUKCOIMBATORE",273875,VADUGAPALAYAM,COIMBATORE,"TAMIL NADU"
"LAXMI VILAS BANK",LAVB0000798,606056202,VRIDHACHALAM,"OLDNO 105, 231 BAZAAR STREET, P B NO 11 VRIDHACHALAM 606 001 CUDDALORE",230291,VRIDHACHALAM,CUDDALORE,"TAMIL NADU"
"LAXMI VILAS BANK",LAVB0000797,626056302,VIRUDHUNAGAR,"50 D, KATCHERI ROAD P B NO 46 VIRUDHUNAGAR 626 001 VIRUDHUNAGAR DT TAM",243103,VIRUDHUNAGAR,VIRUDHUNAGAR,"TAMIL NADU"
"LAXMI VILAS BANK",LAVB0000796,605056005,VILLUPURAM,"186 BY 6 BY 158 BY E, 1ST FLOOR MAHATMA GANDHI ROAD P B NO 13 VILLUPUR",222510,VILLUPURAM,VILLUPURAM,"TAMIL NADU"
"LAXMI VILAS BANK",LAVB0000795,520056001,VIJAYAWADA,"12 12 4 AND 12 2 268PADI STREET P BNO 12 NEAR BODEMMA HOTEL VIJAYAWAD",2567118,VIJAYAWADA,KRISHNA,"ANDHRA PRADESH"
"LAXMI VILAS BANK",LAVB0000794,606056005,VETTAVALAM,"22 C, VILLUPURAM ROAD VETTAVALAM 606 754 TIRUVANNAMALAI DT TAMIL NADU",244221,VETTAVALAM,TIRUVANNAMALAI,"TAMIL NADU"
"LAXMI VILAS BANK",LAVB0000793,639056009,"VELUR SALEM","2 C THIRUVALLUVAR SALAI VELUR SALEM638 182 NAMAKKAL DT TAMIL NADU",220246,VELUR,NAMAKKAL,"TAMIL NADU"
"LAXMI VILAS BANK",LAVB0000792,632056002,VELLORE,"34 C,1ST FLOOR KATPADI ROAD, P B NO417 VELLORE 632 004 VELLORE",2220378,VELLORE,VELLORE,"TAMIL NADU"
"LAXMI VILAS BANK",LAVB0000791,639056008,VELLIYANAI,"G, MAIN ROAD VELLIYANAI 639 118 KARUR DT TAMIL NADU",281221,VELLIYANAI,KARUR,"TAMIL NADU"
"LAXMI VILAS BANK",LAVB0000790,639056005,"VENGAMEDU KARUR","533 SALEM MAIN ROAD VENGAMEDU 639 006 KARUR DT TAMIL NADU",220208,VENGAMEDU,KARUR,"TAMIL NADU"
"LAXMI VILAS BANK",LAVB0000789,621056003,VILANGUDI,"JAYAMKONDAM MAIN ROAD V KAIKATTITHELUR P OVILANGUDI 621 704 PERAMBALUR",249257,VILANGUDI,PERAMBALUR,"TAMIL NADU"
"LAXMI VILAS BANK",LAVB0000788,390056002,VADODARA,"85 B, AMIN CHAMBERS P B NO 3760 PRODUCTIVITY ROAD ALKAPURI VADODARA",2343692,VADODARA,GANDHINAGAR,GUJARAT
"LAXMI VILAS BANK",LAVB0000787,530056001,VISHAKAPATNAM,"9 1 248, 1ST FLOORCBM COMPOUNDASSILIMETTA  VISHAKAPATNAM 530 003 A.",2704870,VISHAKAPATNAM,VISHAKHAPATNAM,"ANDHRA PRADESH"
"LAXMI VILAS BANK",LAVB0000786,638056009,VELLAKOVIL,"91,93,95,73,75,77, VELAYUTHASAMY COMPLEX MUTHUR ROADVELLAKOIL 638 111",263046,VELLAKOVIL,ERODE,"TAMIL NADU"
"LAXMI VILAS BANK",LAVB0000785,530056101,"VISHAKAPATNAM EXTENS","PORT TRUST EMPLOYEES UNION,26 15, 204,MAIN ROAD,VISHAKAPATNAM",2560027,VISHAKAPATNAM,VISHAKHAPATNAM,"ANDHRA PRADESH"
"LAXMI VILAS BANK",LAVB0000784,620056005,UTHAMARKOIL,"BIKCHANDAR KOVIL PANCHAYAT,UTHAMARKOIL,NO.1,TOLLGATE,MANACHALANNUR TK,",9566556863,MANACHANALLUR,TIRUCHIRAPALLI,"TAMIL NADU"
"LAXMI VILAS BANK",LAVB0000783,642056102,UDUMALPET,"100, PALANI ROAD, P B NO 31 UDUMALPET 642 126 COIMBATORE DT TAMIL NADU",224168,UDUMALPET,COIMBATORE,"TAMIL NADU"
"LAXMI VILAS BANK",LAVB0000782,636056017,ULIPURAM,"3 BY 95, BAZAAR STREET ULIPURAM 636118ATTUR TALUK SALEM DT TAMIL NADU",226274,ULIPURAM,SALEM,"TAMIL NADU"
"LAXMI VILAS BANK",LAVB0000781,638056017,UNJALUR,"44, PANCHAYAT OFFICE ROAD UNJALUR 638 152 ERODE",266564,UNJALUR,ERODE,"TAMIL NADU"
"LAXMI VILAS BANK",LAVB0000779,NA,URANGANPATTI,"NO 1/368, MAIN ROAD, URANGANPATTI,MELUR TALUK",0,MADURAI,MADURAI,"TAMIL NADU"
"LAXMI VILAS BANK",LAVB0000778,NA,ULAIBETTU,"SHIVA RAO NOOYI FOUNDATION PO ULAIBETTU VIA GURPUR DAKSHINA KANNADA DT MANGALORE",0,ULAIBETTU,"DAKSHINA KANNADA",KARNATAKA
"LAXMI VILAS BANK",LAVB0000776,NA,UDHAYAMARTHANDAPURAM,"RRS COMPLEX, ECR MAIN ROAD,UDHAYAMARTHANDAPURAM,THIRUTHURAIPOONDI TAULK,TIRUVARUR- 614706",0,THIRUTHURAIPOONDI,TIRUVARUR,"TAMIL NADU"
"LAXMI VILAS BANK",LAVB0000760,NA,THIMMAPURAM,"DOOR NO 4-3, MAIN ROAD, NEAR WATER PLANT, THIMMAPURAM, EDALAPADU MANDALAM",0,GUNTUR,GUNTUR,"ANDHRA PRADESH"
"LAXMI VILAS BANK",LAVB0000759,NA,THIMMANANDAL,"15 BY 14,MAIN ROAD,THIMMANANDAL,SANKARAPURAM 606 402",235666,SANKARAPURAM,VILLUPURAM,"TAMIL NADU"
"LAXMI VILAS BANK",LAVB0000758,NA,TIRUVIDAIKAZHI,"55 OLD NO 3 BY 22,SOUTH STREET,MAIN ROAD,THIRUVIDAIKAZHI POST,THARANGAMPADI TK,NAGAPATINAM DT",287444,THARANGAMBADI,NAGAPATTINAM,"TAMIL NADU"
"LAXMI VILAS BANK",LAVB0000757,NA,TUMKUR,"BALAJI TOWERS,NEXT TO TGMC BANK HO,NEAR TUMKUR UNIVERSITY,ASHOK NAGAR,B H ROAD,TUMKUR 572 103",0,TUMKUR,TUMKUR,KARNATAKA
"LAXMI VILAS BANK",LAVB0000756,NA,"THINDAL ERODE II","SENGODAMPALAYAM PALLAM,OPP TO SURABHI NURSERY,PERUNDURAI ROAD,THINDAL,ERODE",0,ERODE,ERODE,"TAMIL NADU"
"LAXMI VILAS BANK",LAVB0000755,609056004,THIRUMANGALAM,"RSNO140 B4 MAIN ROAD THIRUMANGALAMNAGAPATTINAM DISTRICT",236900,THIRUMANGALAM,NAGAPATTINAM,"TAMIL NADU"
"LAXMI VILAS BANK",LAVB0000754,520056003,TADEPALLI,"D NO 1 DASH 50 KOTTURU TADEPALLI POVIA KAMAKOTI NAGAR VIJAYAWADA RURAL",2812255,TADEPALLI,GUNTUR,"ANDHRA PRADESH"
"LAXMI VILAS BANK",LAVB0000753,560056013,THIPPASANDRA,"11BY1 NEW THIPPASANDRA MAIN ROADHAL III STAGE BANGALORE 560075",25207415,BANGALORE,"BANGALORE URBAN",KARNATAKA
"LAXMI VILAS BANK",LAVB0000752,400056010,THANE,"SHOP NO.1,YESHWANT BUILDING,GOKHALEROAD,NEAR MALHAR TALKIES NAUPADA T",25378577,THANE,THANE,MAHARASHTRA
"LAXMI VILAS BANK",LAVB0000751,638056014,THOKKAVADI,"K.S. RANGASAMY INSTITUTE OF TECHNOLOGY CAMPUS TIRUCHENGODE 637 215 NAM",274493,THOKKAVADI,NAMAKKAL,"TAMIL NADU"
"LAXMI VILAS BANK",LAVB0000750,627056004,TENKASI,"15, KANNI MARIAMMAN KOIL STREET, KOOLAKADAI BAZAAR P B NO 37 TENKASI 6",227127,TENKASI,TIRUNELVALI,"TAMIL NADU"
"LAXMI VILAS BANK",LAVB0000749,695056001,THIRUVANANTHAPURAM,"T C 9 BY 885, VELLAYAMBALAM SASTHAMANGALAM ROAD THIRUVANANTHAPURAM PIN",2724818,TRIVENDRUM,THIRUVANANTHAPURAM,KERALA
"LAXMI VILAS BANK",LAVB0000748,517056002,TIRUPATHI,"15 1 45 G CAR STREET TIRUPATHI 517501 CHITTOOR DT ANDHRA PRADESH",2250324,TIRUPATI,CHITTOOR,"ANDHRA PRADESH"
"LAXMI VILAS BANK",LAVB0000747,625056102,THENI,"NO 45 A, 1ST FLOOR KALIAMMAN KOIL STREET P B NO 7, PERIYAKULAM ROAD TH",254024,THENI,THENI,"TAMIL NADU"
"LAXMI VILAS BANK",LAVB0000746,534056202,TANUKU,"NO 28 14 25, VASU PLAZA ACHARYA RANGA ROADP B NO 28 TANUKU 534 211WEST",222952,TANUKU,"WEST GODAVARI","ANDHRA PRADESH"
"LAXMI VILAS BANK",LAVB0000745,609056003,TIRUKKADAIYUR,"421 BY 1, SANNATHI STREET TIRUKKADAIYUR 609 311 NAGAPATTINAM DT TAMIL",287444,TIRUKKADAIYUR,NAGAPATTINAM,"TAMIL NADU"
"LAXMI VILAS BANK",LAVB0000744,680056002,THRISSOOR,"XXVII BY 476 1ST FLOOR POTTEKKATT BUILDINGS ROUND EASTTHRISSUR 680 001",2331053,THRISSUR,THRISSUR,KERALA
"LAXMI VILAS BANK",LAVB0000743,627056003,TUTICORIN,"31, EMPEROR STREET P B NO 80 TUTICORIN 628 001 TAMIL NADU",2321866,TUTICORIN,TOOTHUKUDI,"TAMIL NADU"
"LAXMI VILAS BANK",LAVB0000742,620056012,TURAIYUR,"268, TRICHY ROADP B NO 12TURAIYUR 621 010 TRICHY DT TAMIL NADU",222742,TURAIYUR,TIRUCHIRAPALLI,"TAMIL NADU"
"LAXMI VILAS BANK",LAVB0000741,606056002,THIRUVANNAMALAI,"88 THIRUMANJANAGOPURAM STREET P B NO 6 TIRUVANNAMALAI 606 601 TAMIL NA",222400,TIRUVANNAMALAI,TIRUVANNAMALAI,"TAMIL NADU"
"LAXMI VILAS BANK",LAVB0000740,614056202,TIRUTHARIPOONDI,"CHURCH COMPLEX 1ST FLOOR 12 TIRUTHURAIPOONDI 614 713 TIRUVARUR",222539,TIRUTURAIPUNDI,THIRUVARUR,"TAMIL NADU"
"LAXMI VILAS BANK",LAVB0000739,941056102,TIRUPUR,"A P K TOWERS, 243 KUMARAN ROAD, P BNO 40 TIRUPUR 641 601 COIMBATORE D",2202727,TIRUPUR,COIMBATORE,"TAMIL NADU"
"LAXMI VILAS BANK",LAVB0000738,627056002,"TIRUNELVELI TOWN","112 EAST CAR STREET P B NO 20 TIRUNELVELI 627 006 TIRUNELVELI DT TAMIL",2333173,TIRUNELVELI,TIRUNELVALI,"TAMIL NADU"
"LAXMI VILAS BANK",LAVB0000737,606056003,TIRUKOILUR,"NEWNO 104, OLDNO 86NORTH STREET TIRUKOILUR 605757 VILLUPURAM DT TAMIL",252338,TIRUKOILUR,VILLUPURAM,"TAMIL NADU"
"LAXMI VILAS BANK",LAVB0000736,613056003,TIRUKKATTUPALLI,"76 50TH ROAD TIRUKKATTUPALLI 613 104 THANJAVUR DT TAMIL NADU",280421,TIRUKATTUPALLI,THANJAVUR,"TAMIL NADU"
"LAXMI VILAS BANK",LAVB0000735,600056019,TIRUVALLUR,"JAWAHARLOA NEHRU ROAD, OPPOSITE TOCHURCH, TIRUVALLORE 602 001",27664454,TIRUVALLUR,THIRUVALLUR,"TAMIL NADU"
"LAXMI VILAS BANK",LAVB0000733,620056004,"THILLAINAGAR TRICHY","SVV COMPLEX I BUILDING NO 55 IVTH CROSS P B NO 939 THILLAINAGAR 620 01",2765112,TIRUCHIRAPPALLI,TIRUCHIRAPALLI,"TAMIL NADU"
"LAXMI VILAS BANK",LAVB0000732,620056003,"SRIRANGAM TRICHY","100 BY A GANDHI ROAD SRIRANGAM 620006 TRICHY DT TAMIL NADU",2432319,TIRUCHIRAPPALLI,TIRUCHIRAPALLI,"TAMIL NADU"
"LAXMI VILAS BANK",LAVB0000731,620056002,"TRICHY MAIN","220 221 1ST FLOOR BIG BAZAAR STREETP B NO 550TRICHY MAIN 620 008 TAMI",2702204,TIRUCHIRAPPALLI,TIRUCHIRAPALLI,"TAMIL NADU"
"LAXMI VILAS BANK",LAVB0000730,620056052,"TRICHY MAIN EC UDV","UDV HR.SEC.SCHOOL,TOWN STATION,TRICHY 620002",2702204,TIRUCHIRAPALLI,TIRUCHIRAPALLI,"TAMIL NADU"
"LAXMI VILAS BANK",LAVB0000729,NA,CANTONMENT,"NO 1 FIRST FLOOR ALEXANDRIA ROAD CANTONMENT TRICHY",0,TRICHY,TRICHY,"TAMIL NADU"
"LAXMI VILAS BANK",LAVB0000728,NA,THURPUTALLU,"NO 1 270  MAIN ROAD THURPUTALLU KP PALEM NORTH NARASAPURAM MANDAL THURPUTALLU",0,"NARASAPURAM MANDAL","WEST GODAVARI","ANDHRA PRADESH"
"LAXMI VILAS BANK",LAVB0000727,610056002,TIRUVARUR,"81 D, 1ST FLOOR, NAGAI ROAD P B NO35 VIJAYAPURAM TIRUVARUR 610 001 TA",221167,TIRUVARUR,THIRUVARUR,"TAMIL NADU"
"LAXMI VILAS BANK",LAVB0000726,638056015,TIRUCHENGODE,"104 THEPPAKULAM STREET SANKARI MAINROAD 1ST FLOOR TIRUCHENGODE 637 21",254262,TIRUCHENGODU,NAMAKKAL,"TAMIL NADU"
"LAXMI VILAS BANK",LAVB0000725,605056004,TINDIVANAM,"128, NEHRU STREET TINDIVANAM 604 001 VILLUPURAM DT TAMIL NADU",222091,TINDIVANAM,VILLUPURAM,"TAMIL NADU"
"LAXMI VILAS BANK",LAVB0000724,620056008,THOTTIYAM,"K R S COMPLEX 246 BY B SALEM MAIN ROAD THOTTIYAM 621 215 MUSIRI TALUKT",254227,THOTTIAM,TIRUCHIRAPALLI,"TAMIL NADU"
"LAXMI VILAS BANK",LAVB0000723,606056203,THITTAGUDI,"30 30 A, 1ST FLOOR MAIN ROAD, P B NO 2 THITTAGUDI 606106 CUDDALORE DT",255351,THITTAGUDI,CUDDALORE,"TAMIL NADU"
"LAXMI VILAS BANK",LAVB0000722,613056004,THIRUVAIYARU,"129 BY 33 ODATHURAI STREET THIRUVAIYARU 613 204 THANJAVUR DT TAMIL NAD",260245,TIRUVAIARU,THANJAVUR,"TAMIL NADU"
"LAXMI VILAS BANK",LAVB0000721,613056002,THANJAVUR,"1665 66, SOUTH MAIN STREET P B NO 313 THANJAVUR 613 009 THANJAVUR DT T",237371,THANJAVUR,THANJAVUR,"TAMIL NADU"
"LAXMI VILAS BANK",LAVB0000720,NA,THAYANUR,"SF NO 216/3, PLOT NO 25, RAMCHAND VIP CITY,THOGAMALAI MAIN ROAD, THAYANUR",0,TRICHY,TRICHY,"TAMIL NADU"
"LAXMI VILAS BANK",LAVB0000719,NA,TENALI,"NO 22 21 ANDHRA RATNA ROAD RAMALINGESWARAPET TENALI ANDHRA PRADESH",0,TENALI,TENALI,"ANDHRA PRADESH"
"LAXMI VILAS BANK",LAVB0000718,534056102,TADEPALLIGUDEM,"NO 2 1 32 K N ROAD OPP ZILLA PARISHAD SCHOOL TADEPALLIGUDEM WEST GODAVARI 534101",0,VIJAYAWADA,"WEST GODAVARI","ANDHRA PRADESH"
"LAXMI VILAS BANK",LAVB0000717,600056044,THORAIPAKKAM,"D NO 27 CUSTOMS COLONY THORAIPAKKAM OMR CHENNAI 600097",0,CHENNAI,CHENNAI,"TAMIL NADU"
"LAXMI VILAS BANK",LAVB0000696,520056402,"SULTANNAGARAM GOLLAPALEM","NO 4 179 MAIN ROAD SULTANNAGARAM GOLLAPALEM",0,VIJAYAWADA,KRISHNA,"ANDHRA PRADESH"
"LAXMI VILAS BANK",LAVB0000695,636056028,SURAMANGALAM,"ARS AVENUE NO 22 9 JUNCTION TO LEIGH BAZAAR ROAD SURAMANGALAM SALEM 636005 TAMIL NADU",9865067556,SURAMANGALAM,SALEM,"TAMIL NADU"
"LAXMI VILAS BANK",LAVB0000694,533056662,SIVAKODU,"NO 2 92 MAIN ROAD OPP TO ZILL PARISHAD HIGH SCHOOL SIVAKODU RAZOLE TK EAST GODAVARI 533244",0,GODAVARI,"EAST GODAVARI","ANDHRA PRADESH"
"LAXMI VILAS BANK",LAVB0000693,NA,SHALIMARBAGH,"AG 46 SHALIMARBAGH NEW DELHI",0,"NEW DELHI","NEW DELHI",DELHI
"LAXMI VILAS BANK",LAVB0000692,625056019,"SOUTH MASI STREET","NO 221 SOUTH MASI STREET MADURAI 625001",0,MADURAI,MADURAI,"TAMIL NADU"
"LAXMI VILAS BANK",LAVB0000691,NA,SAMBANKULAM,"NO 4 221 GOVINDAPERI ROAD ALWARKURICHI AMBASAMUDRAM TIRUVNELVELI",0,TIRUNELVELI,TIRUNELVELI,"TAMIL NADU"
"LAXMI VILAS BANK",LAVB0000690,NA,SRIKAKULAM,"NO 2 25 45 KONNA STREET SRIKAKULAM ANDHRA PRADESH",0,SRIKAKULAM,SRIKAKULAM,"ANDHRA PRADESH"
"LAXMI VILAS BANK",LAVB0000689,NA,SINTHALAPATTI,"SF NO.145 BY 1,MAIN ROAD,SINDALAPATTI,SAKKAMPATTI PO,DINDIGUL DT.624 612",249010,DINDIGUL,DINDIGUL,"TAMIL NADU"
"LAXMI VILAS BANK",LAVB0000688,600056029,SAIDAPET,"DNO 36 BY 77 MOSQUE STREETSAIDAPET",0,CHENNAI,CHENNAI,"TAMIL NADU"
"LAXMI VILAS BANK",LAVB0000686,626056502,SRIVILLIPUTHUR,"32 PERIYA PERUMAL EAST MADA STREETVIRUDHNAGAR DISTRICT",261839,SRIVILLIPUTHUR,VIRUDHUNAGAR,"TAMIL NADU"
"LAXMI VILAS BANK",LAVB0000685,639056012,CHINTHALAVADI,"D NO1 BY 1 MAIN ROAD CHINTHALAVADILALAPET POST KRISHNARAYAPURAM TALUK",242044,CHINTHALAVADI,KARUR,"TAMIL NADU"
"LAXMI VILAS BANK",LAVB0000684,581056402,SIRSI,"CTS NO 247 BY A HOSPET ROADSIRSI 584101",223320,SIRSI,"UTTAR KANNAD",KARNATAKA
"LAXMI VILAS BANK",LAVB0000683,395056003,SURAT2,"GR FLOOR,AVADH BUILDING,  OPP RAJHANS POINT,VARACHHA ROAD, SURAT 39500",2550400,SURAT,SURAT,GUJARAT
"LAXMI VILAS BANK",LAVB0000682,600056021,SRIPERUMBUDUR,"BANGALORE HIGH WAY ROAD,NEAR SUMATHI THEATRE,SRIPERUMBUDHUR 602 105",27162433,SRIPERUMBUDUR,KANCHEEPURAM,"TAMIL NADU"
"LAXMI VILAS BANK",LAVB0000681,500056101,"SECUNDERABAD EXTENSI","SHREE GUJARATHI SEVA MANDAL,1ST FLOOR, 1141, RASHTRAPATHI ROAD, SECUND",27536535,SECUNDERABAD,HYDERABAD,"ANDHRA PRADESH"
"LAXMI VILAS BANK",LAVB0000680,508056202,SURYAPET,"NO 1 2 270 BY 45 BY 1P B NO 12 KUDAKUDA ROAD SURYAPET 508 213 ANDHRA",224111,SURYAPET,NALGONDA,"ANDHRA PRADESH"
"LAXMI VILAS BANK",LAVB0000679,395056002,SURAT,"NO 1 13, P B NO 404 BELGIUM TOWERSSILVER PLAZA COMPLEX",2425200,SURAT,SURAT,GUJARAT
"LAXMI VILAS BANK",LAVB0000677,500056003,"SECUNDERABAD  HYDERA","4 3 189 M.K STREET IST FLOOR, RANIGUNJ SECUNDERABAD 500003 HYDERABAD A",27703173,HYDERABAD,HYDERABAD,"ANDHRA PRADESH"
"LAXMI VILAS BANK",LAVB0000676,636056016,SENDARAPATTI,"25 SOUTH CHATHIRAM STREET SENDARAPATTI 636 110 ATTUR TALUK SALEM",226261,SENDARAPATTY,SALEM,"TAMIL NADU"
"LAXMI VILAS BANK",LAVB0000675,638056006,"M N PALAYAM","M.N.PALAYAM,1309, BHAVANI MAIN ROAD, LAKSHMI NAGAR,M.N.PALAYAM  638316",2533561,"M N PALAYAM",ERODE,"TAMIL NADU"
"LAXMI VILAS BANK",LAVB0000674,626056103,SUNDARAPANDIAM,"6 1 120, AGRAHARAM STREET SUNDARAPANDIAM 626 126 VIRUDHUNAGAR DT TAMIL",283080,SUNDARAPANDI,VIRUDHUNAGAR,"TAMIL NADU"
"LAXMI VILAS BANK",LAVB0000673,626056002,SIVAKASI,"29 E, PSR ROAD P B NO 165 SIVAKASI626 123 VIRUDHUNAGAR DT TAMIL NADU",224106,SIVAKASI,VIRUDHUNAGAR,"TAMIL NADU"
"LAXMI VILAS BANK",LAVB0000672,577056202,SHIMOGA,"NEHRU ROAD, 1ST FLOOR VIJAYA BUILDING SHIMOGA 577 201 KARNATAKA",222818,SHIMOGA,SHIMOGA,KARNATAKA
"LAXMI VILAS BANK",LAVB0000671,626056402,SATTUR,"100,NORTH CAR STREETP B NO 8 SATTUR626 203 VIRUDHUNAGAR",260360,SATTUR,VIRUDHUNAGAR,"TAMIL NADU"
"LAXMI VILAS BANK",LAVB0000667,636056008,SANKARI,"SFNO 261 BY 1A BY 1A WARDNO 4 DOORNO 1 15 17 JI NEW EDAPPADI ROAD SANK",243885,SANKARI,SALEM,"TAMIL NADU"
"LAXMI VILAS BANK",LAVB0000665,606056103,SANKARAPURAM,"J K COMPLEX, 3 BAZAAR STREET SANKARAPURAM 606 401 VILLUPURAM DT TAMIL",235666,SANKARAPURAM,VILLUPURAM,"TAMIL NADU"
"LAXMI VILAS BANK",LAVB0000664,636056004,"SHEVAPET SALEM","60 ANDAL STREET P B NO 298 SHEVAPETSALEM 636 002 SALEM DT TAMIL NADU",2223222,SALEM,SALEM,"TAMIL NADU"
"LAXMI VILAS BANK",LAVB0000663,636056005,"GUGAI SALEM","12 B PULIKUTHI MAIN ROAD 1ST FLOORP B NO 611 GUGAI SALEM 636 006SALEM",2469469,SALEM,SALEM,"TAMIL NADU"
"LAXMI VILAS BANK",LAVB0000662,636056003,"C K STREET SALEM","175 177 II AGRAHARAM P B NO 13 C KSTREET SALEM 636 001 SALEM DT TAMIL",2260333,SALEM,SALEM,"TAMIL NADU"
"LAXMI VILAS BANK",LAVB0000661,636056002,"SALEM TOWN","62 63 BAZAAR STREET P B NO 111 SALEM TOWN 636 001 SALEM DT TAMIL NADU",2267678,SALEM,SALEM,"TAMIL NADU"
"LAXMI VILAS BANK",LAVB0000660,636056006,"SWARNAPURI SALEM","4 BY 36 BHARATHI STREET SWARNAPURI636 004SALEM DT TAMIL NADU",2443934,SALEM,SALEM,"TAMIL NADU"
"LAXMI VILAS BANK",LAVB0000659,636056007,"KONDALAMPATTI  SALEM","M S.JARI KONDALAMPATTTI 180,CALICUTMAIN ROAD, KONDALAMPATTI, SALEM 63",2270048,SALEM,SALEM,"TAMIL NADU"
"LAXMI VILAS BANK",LAVB0000658,NA,SIKKAL,"3 BY 50,NORTH STREET,SIKKAL,NAGAPATTINAM 611108",223296,SIKKAL,NAGAPATTINAM,"TAMIL NADU"
"LAXMI VILAS BANK",LAVB0000657,NA,SIDDHAPUDUR,"379,380,SAROJINI STREET,AVARAMPALAYAM ROAD,NEW SIDDHAPUDUR,COIMBATORE 641 044",2232123,COIMBATORE,COIMBATORE,"TAMIL NADU"
"LAXMI VILAS BANK",LAVB0000650,NA,SATHYAMANGALAM,"343,FIRST FLOOR,MYSORE TRUNK ROAD EXTN,ANNAPOORNA COMPLEX,SATHYAMANGALAM 638 402 ERODE DT",2304997,SATHYAMANGALAM,ERODE,"TAMIL NADU"
"LAXMI VILAS BANK",LAVB0000617,605056012,REDDIYARPALAYAM,"96 VILLIANUR ROAD AZIZ NAGAR REDDIYARPALAYAM PUDUCHERRY 605010",0,PUDUCHERRY,PUDUCHERRY,PUDUCHERRY
"LAXMI VILAS BANK",LAVB0000616,560056022,"RAJA RAJESHWARI NAGAR","NO 878 4TH STAGE BEML RAJA RAJESHWARI NAGAR BANGALORE 560098",0,BANGALORE,BANGALORE,KARNATAKA
"LAXMI VILAS BANK",LAVB0000615,NA,RAMANATHAPURAM,"NO 59/1 AGILKIDANGU STREET NEAR AGRAHARAM ROAD RAMANATHAPURAM TAMILNADU 625301",0,THENI,THENI,"TAMIL NADU"
"LAXMI VILAS BANK",LAVB0000614,WAITING,RAYAKOTTA,"1 BY 826,SOOLAGIRI MAIN ROAD,RAYAKOTTA,KRISHNAGIRI DT.PIN 635 116",236213,ROYAKOTTAH,KRISHNAGIRI,"TAMIL NADU"
"LAXMI VILAS BANK",LAVB0000613,NA,"RT NAGAR","NO 7,III CROSS,WARD NO 95,GANESH BLOCK,KAVALBYRASANDRA ROAD,R T NAGAR,BANGALORE 560032",22631300,BANGALORE,"BANGALORE RURAL",KARNATAKA
"LAXMI VILAS BANK",LAVB0000612,500056011,RAMACHANDRAPURAM,"25 35  PUSHPANAGESH LANDMARK  RAMACHANDRAPURAM REDDY NAGAR HYDERABAD",281299,"EAST GODAVARI","EAST GODAVARI","ANDHRA PRADESH"
"LAXMI VILAS BANK",LAVB0000611,600056023,RAMAPURAM,"NO.4 BY 323,VALLUVAR SALAI, RAMAPURAM CHENNAI 89 TAMIL NADU.",22491212,RAMAPURAM,KANCHEEPURAM,"TAMIL NADU"
"LAXMI VILAS BANK",LAVB0000610,492056002,RAIPUR,"B 43 48,PANDRI CLOTH MARKET,DEVENDRA NAGAR,RAIPUR",2582110,RAIPUR,RAIPUR,CHANDIGARH
"LAXMI VILAS BANK",LAVB0000609,110056006,ROHINI,"E 1 BY 5,SECTOR 7,ROHINI,NEW DELHI110 085",9313089689,DELHI,DELHI,DELHI
"LAXMI VILAS BANK",LAVB0000608,834056002,RANCHI,"NO5,MAIN ROAD,ASHIRWAD MANSION,NEAROVERBRIDGE,RANCHI834 001JHARKHAND",2332231,RANCHI,RANCHI,JHARKHAND
"LAXMI VILAS BANK",LAVB0000607,360056002,RAJKOT,"SHOPNO 101 TO 104 RONAK COMPLEX GONDAL ROAD RAJKOT 360 002 GUJARAT",2461608,RAJKOT,RAJKOT,GUJARAT
"LAXMI VILAS BANK",LAVB0000606,581056102,RANEBENNUR,"CTS NO 1972 BY A GUPTA BUILDING, ASHOK CIRCLE P B NO 26 RANEBENNUR 581",267353,RANEBENNUR,HAVERI,KARNATAKA
"LAXMI VILAS BANK",LAVB0000605,533056102,RAJAHMUNDRY,"1ST FLOOR 7 28 5, VIGRAM ROAD P B NO 28 T NAGARRAJAHMUNDRY 533 101 EAS",2476929,RAJAHMUNDRY,"EAST GODAVARI","ANDHRA PRADESH"
"LAXMI VILAS BANK",LAVB0000604,620056007,RAJENDRAM,"5 BY 658, AGRAHARAM RAJENDRAM 639 107 KULITHALAI KARUR DT TAMIL NADU",222074,RAJENDRAM,KARUR,"TAMIL NADU"
"LAXMI VILAS BANK",LAVB0000603,636056011,RASIPURAM,"48 E, KAVARAI STREETP B NO 25 RASIPURAM 637 408 NAMAKKAL DT TAMIL NADU",222838,RASIPURAM,NAMAKKAL,"TAMIL NADU"
"LAXMI VILAS BANK",LAVB0000602,626056102,RAJAPALAYAM,"418 TENKASI ROAD RAJAPALAYAM 626 117 VIRUDHUNAGAR DT TAMIL NADU",222756,RAJAPALAIYAM,VIRUDHUNAGAR,"TAMIL NADU"
"LAXMI VILAS BANK",LAVB0000601,584056002,RAICHUR,"3 9 37 AND 3 9 37 BY 1 1ST FLOOR MRV ESTATE P B NO 35RAICHUR 584 101",231898,RAICHUR,RAICHUR,KARNATAKA
"LAXMI VILAS BANK",LAVB0000568,522056522,PIDUGURALLA,"NO 7 406 BESIDE UBI MAIN ROAD GUNTUR VIJAYAWADA 522413",0,PIDUGURALLA,GUNTUR,"ANDHRA PRADESH"
"LAXMI VILAS BANK",LAVB0000566,532056102,"PALASA KASSIBUGGA","NO 20 1 257 K T ROAD PALASA KASSIBUGGA SRIKAKULAM 532221",0,SRIKAKULAM,SRIKAKULAM,"ANDHRA PRADESH"
"LAXMI VILAS BANK",LAVB0000564,641056021,"GANDHIMANAGAR PEELAMEDU","E7 SASTHA NAGAR GANDHIMANAGAR PEELAMEDU",0,COIMBATORE,COIMBATORE,"TAMIL NADU"
"LAXMI VILAS BANK",LAVB0000563,NA,PONNAL,"SIDDIPET MYTHRIVANAM PONNAL TELANGANA",0,SECUNDERABAD,RANGAREDDY,TELANGANA
"LAXMI VILAS BANK",LAVB0000562,NA,PANVEL,"GROUND FLOOR CROWN PLAZA URAN NAKA CIRCLE PANVEL NAVI MUMBAI MAHARASHTRA 410206",0,MUMBAI,RAIGAD,MAHARASHTRA
"LAXMI VILAS BANK",LAVB0000561,NA,PUNAVASAL,"LAKSHMI VILAS BANK LTD 2/193 SCHOOL ROAD PUNAVASAL(PO) PATTUKOTTAI(TK) THANJAVUR DT 614803",0,PATTUKOTTAI,PATTUKOTTAI,"TAMIL NADU"
"LAXMI VILAS BANK",LAVB0000560,NA,PERUMBAVOOR,"NO 372 A DARSHANAM CHAMBERS MC ROAD PERUMBAVOOR ERNAKULAM KERALA 683542",0,PERUMBAVOOR,ERNAKULAM,KERALA
"LAXMI VILAS BANK",LAVB0000559,NA,PERUVANCHA,"NO 1-393,PERUVANCHA VILLAGE,KALLUR MANDAL,KHAMMAM",0,KHAMMAM,KHAMMAM,"ANDHRA PRADESH"
"LAXMI VILAS BANK",LAVB0000558,NA,PALAYAMKOTTAI,"NO 261A,TIRUCHENDUR ROAD,PALAYAMKOTTAI,TIRUNELVELI",0,TIRUNELVELI,TIRUNELVELI,"TAMIL NADU"
"LAXMI VILAS BANK",LAVB0000557,NA,"M PUTHUR","3 BY 24,CHATHIRAM STREET,M.PUTHUR POST,M.PUTHUR",0,KARUR,KARUR,"TAMIL NADU"
"LAXMI VILAS BANK",LAVB0000556,NA,PUDUKOTTAI,"T S NO 5537,5538,SOUTH 4THSTREET,PUDUKOTTAI 622 001,PUDUKOTTAI DT",0,PUDUKKOTTAI,PUDUKKOTTAI,"TAMIL NADU"
"LAXMI VILAS BANK",LAVB0000555,600056028,PERAMBUR,"86 SUNDARARAJA PERUMALKOIL ST SOUTHPERAVALLUR",0,CHENNAI,CHENNAI,"TAMIL NADU"
"LAXMI VILAS BANK",LAVB0000554,522056602,PONNUR,"14 DASH 1 DASH 19G B C ROAD PONNURU GUNTUR DT",241456,PONNUR,GUNTUR,"ANDHRA PRADESH"
"LAXMI VILAS BANK",LAVB0000553,575056001,PUTTUR,"V963 COURT ROAD PUTTUR TALUKDAKSHIN KANNAD KARNATAKA 574201",236640,PUTTUR,"DAKSHIN KANNAD",KARNATAKA
"LAXMI VILAS BANK",LAVB0000552,621056153,"PERAMBALUR EC","THANTHAI HANS ROEVER COLLEGE NATIONAL HIGHWAY ELAMBUR VILLAGE",291188,PERAMBALUR,PERAMBALUR,"TAMIL NADU"
"LAXMI VILAS BANK",LAVB0000551,500056008,PUNJAGUTTA,"D.NO 83248 BY 1 BY 7 BY 778,NAGARJUNA HILLS MAIN ROAD,PUNJAGUTTA,HYDER",23355355,HYDERABAD,HYDERABAD,"ANDHRA PRADESH"
"LAXMI VILAS BANK",LAVB0000550,600056024,PERUNGALATHUR,"D.NO.14,KAMARAJAR HIGH ROAD, NEW PERUNGALATHUR,CHENNAI 63",0,PERUNGALATHUR,KANCHEEPURAM,"TAMIL NADU"
"LAXMI VILAS BANK",LAVB0000549,621056302,PERAMBALUR,"DOOR NO 111 A1,VENKATESAPURAM COLONY MAIN ROAD,PERAMBALUR621212",225566,PERAMBALUR,PERAMBALUR,"TAMIL NADU"
"LAXMI VILAS BANK",LAVB0000548,639056007,PUGALUR,"EID PARRY INDIA LTD.SUGAR FACTORY PUGALUR 639113 KARUR DT.TAMIL NADU",272044,PUGALUR,KARUR,"TAMIL NADU"
"LAXMI VILAS BANK",LAVB0000547,516056102,PRODDATUR,"NO 22 BY 437 GANDHI ROAD PRODDATUR516 360 CUDDAPAH DT ANDHRA PRADESH",255904,PRODDATUR,CUDDAPAH,"ANDHRA PRADESH"
"LAXMI VILAS BANK",LAVB0000546,678056002,PALAKAD,"11 BY 1339 MARKET ROADFIRST FLOOR PB NO 307 PALAKKAD 678 014PALAKKAD",2502231,PALAKKAD,PALAKKAD,KERALA
"LAXMI VILAS BANK",LAVB0000545,636056013,"R PUDUPATTI","10 BY 22 A NORTH STREET BUNGALOW ROAD R PUDUPATTI 637 407 NAMAKKAL DT",244223,PUDUPATTI,NAMAKKAL,"TAMIL NADU"
"LAXMI VILAS BANK",LAVB0000544,625056104,CPUDUPATTI,"NO.21 BY WARD NO.14,MADURAI CUMBUMMAIN ROAD,C.PUDUPATTI 625 556 THENI",271423,CUMBUM,THENI,"TAMIL NADU"
"LAXMI VILAS BANK",LAVB0000543,411056002,PUNE,"658, NEW NARAYANPETH 1ST FLOOR APPABALWANT CHOWKPUNE 411 030 MAHARASH",24458690,PUNE,PUNE,MAHARASHTRA
"LAXMI VILAS BANK",LAVB0000542,605056002,PONDICHERRY,"232 234 JAWAHARLAL NEHRU STREET PUDUCHERRY 605 001",2336400,PONDICHERRY,PONDICHERRY,PUDUCHERRY
"LAXMI VILAS BANK",LAVB0000541,641056012,POLLACHI,"57, BALAGOPALAPURAM STREET P B NO 44 POLLACHI 642 001 COIMBATORE",224357,POLLACHI,COIMBATORE,"TAMIL NADU"
"LAXMI VILAS BANK",LAVB0000540,614056003,PODAKODY,"B BAZAAR MAIN ROAD PODAKUDY 614 103 TIRUVARUR DT TAMIL NADU",232234,SEKARAI,THIRUVARUR,"TAMIL NADU"
"LAXMI VILAS BANK",LAVB0000539,625056202,PERIYAKULAM,"68, BAZAAR STREET THENKARAI P B NO7 PERIYAKULAM 625 601 THENI DT TAMI",231377,PERIYAKULAM,THENI,"TAMIL NADU"
"LAXMI VILAS BANK",LAVB0000538,607056105,PERAVURANI,"42, C V LODGE BUILDING SETHU ROAD,P B NO 2 PERAVURANI 614 804 THANJAV",232447,PERAVURANI,THANJAVUR,"TAMIL NADU"
"LAXMI VILAS BANK",LAVB0000537,636056105,PENNAGARAM,"27 A, VANIAR STEET PENNAGARAM 636 810 DHARMAPURI DT TAMIL NADU",255643,PENNAGARAM,DHARMAPURI,"TAMIL NADU"
"LAXMI VILAS BANK",LAVB0000536,614056102,PATTUKOTTAI,"150, PALANIAPPAN STREET PATTUKOTTAI614 601 THANJAVUR DT TAMIL NADU",252025,PATTUKOTTAI,THANJAVUR,"TAMIL NADU"
"LAXMI VILAS BANK",LAVB0000535,612056003,PAPANASAM,"45 D, 1ST FLOOR BAZAAR STREETPAPANASAM 614 205THANJAVUR DT TAMIL NADU",222427,PAPANASAM,THANJAVUR,"TAMIL NADU"
"LAXMI VILAS BANK",LAVB0000534,607056104,PAPANAD,"4 BY 80 B 1 EAST STREETPAPANAD 614626 THANJAVUR DT TAMIL NADU",258429,PAPPANADU,THANJAVUR,"TAMIL NADU"
"LAXMI VILAS BANK",LAVB0000533,607056202,PANRUTI,"26 BY D 1, 1ST FLOOR KUMBAKONAM ROAD P B NO 11PANRUTI 607 106 CUDDALOR",242032,PANRUTI,CUDDALORE,"TAMIL NADU"
"LAXMI VILAS BANK",LAVB0000532,624056102,PALANI,"40, NEW DHARAPURAM ROAD PALANI 624601 DINDIGUL DT TAMIL NADU",242252,PALANI,DINDIGUL,"TAMIL NADU"
"LAXMI VILAS BANK",LAVB0000531,638056004,PALLIPALAYAM,"76, 1ST FLOOR TIRUCHENGODE ROAD PALLIPAYALAM 638 006 NAMAKAL",240384,PALLIPALAYAM,ERODE,"TAMIL NADU"
"LAXMI VILAS BANK",LAVB0000530,132056002,PANIPAT,"SONALI ROAD,OPPOSITE HYDERABADI HOSPITAL,PANIPET132 103 HARYANA",9354520222,PANIPAT,PANIPAT,HARYANA
"LAXMI VILAS BANK",LAVB0000529,636056103,PALACODE,"S.F.NO.1243 BY 4,HOSUR ROAD,PALACODE 636068",223544,PALACODE,DHARMAPURI,"TAMIL NADU"
"LAXMI VILAS BANK",LAVB0000528,NA,"P AYEEPALAYAM","1 BY 6,P AYEEPALAYAM,RASIPURAM TK",222838,RASIPURAM,NAMAKKAL,KARNATAKA
"LAXMI VILAS BANK",LAVB0000509,641056022,ONDIPUDUR,"NO 92 93 TRICHY ROAD ONDIPUDUR COIMBATORE 641016",0,COIMBATORE,COIMBATORE,"TAMIL NADU"
"LAXMI VILAS BANK",LAVB0000508,523056002,ONGOLE,"37 1 171, 1ST FLOOR KURNOOL ROAD ONGOLE 523 002 PRAKASAM DT ANDHRA PRA",234648,ONGOLE,PRAKASAM,"ANDHRA PRADESH"
"LAXMI VILAS BANK",LAVB0000507,638056013,OLAPALAYAM,"14 BY 51, UTHAMAPALAYAM ROAD KANGAYAM VIA OLAPALAYAM 638 701 ERODE",256243,OLAPALAYAM,ERODE,"TAMIL NADU"
"LAXMI VILAS BANK",LAVB0000506,624056003,ODDANCHATRAM,"DOORNO 285 M 2A BY 9 KRS COMPLEX, MAIN ROAD 1ST FLOOR, P B NO 2 ODDANC",240289,ODDANCHATRAM,DINDIGUL,"TAMIL NADU"
"LAXMI VILAS BANK",LAVB0000505,641056014,"SIGNATURE BRANCH CBE","PULIYAKULAM MAIN ROAD NEW DHAMU DHAMU NAGAR NEAR",2323221,COIMBATORE,COIMBATORE,"TAMIL NADU"
"LAXMI VILAS BANK",LAVB0000504,110056004,NOIDA,"B12, SECTOR 16, NOIDA, GAUTHAM BUDDHA NAGAR DT. UTTAR PRADESH  201 301",2510530,NOIDA,"GAUTAM BUDDHA NAGAR","UTTAR PRADESH"
"LAXMI VILAS BANK",LAVB0000503,518056102,NANDYAL,"25 BY 509 SRINIVASA NAGAR NANDYAL 518 501 ANDHRAPRADESH",221249,NANDYAL,KURNOOL,"ANDHRA PRADESH"
"LAXMI VILAS BANK",LAVB0000502,524056002,NELLORE,"9 BY 744 745,GVR TOWERS , SANTHAPETTRUNK ROAD RANGANAYAKALUPET NELLOR",2331875,NELLORE,NELLORE,"ANDHRA PRADESH"
"LAXMI VILAS BANK",LAVB0000501,110056002,"KAROLBAGH  NEW DELHI","16 BY 17, W.E.A, KAROL BAGH STREET,OPP. TO SATBHARRAWAN SCHOOL, KAROL",2573736,"NEW DELHI",DELHI,DELHI
"LAXMI VILAS BANK",LAVB0000499,110056003,"JANPATH  NEW DELHI","G 8 9 10 TOLSTOY HOUSE 15 17 TOLSTOY MARG, P.B.NO. 93 JANPATH  110 001",23730530,"NEW DELHI",DELHI,DELHI
"LAXMI VILAS BANK",LAVB0000498,501056542,NAVANDIGI,"D NO 4134 OPP GOVT GUEST HOUSE BASHEERABAD",0,NAVANDIGI,VIKARABAD,TELANGANA
"LAXMI VILAS BANK",LAVB0000497,NA,NEDUMPULI,"NO 221 107 E ROAD STREET PUDUPET NEDUMPULI VILLAGE PANAPAKKAM POST ARAKONAM TAMILNADU 631052",0,ARAKONAM,VELLORE,"TAMIL NADU"
"LAXMI VILAS BANK",LAVB0000496,NA,NIZAMABAD,"NO 7 1 61 RAMGOPAL STREET NIZAMABAD TELANGANA 503001",0,NIZAMABAD,NIZAMABAD,TELANGANA
"LAXMI VILAS BANK",LAVB0000495,NA,NIDUR,"4 BY 110F,MAIN ROAD,NIDUR",254227,NIDUR,NAGAPATTINAM,"TAMIL NADU"
"LAXMI VILAS BANK",LAVB0000494,NA,NASIK,"RUSHIRAJ REGENCY,SHOP NO.6B,OPP.TO MAMMUNGI KARYALAYA GANGAPUR ROAD,NASIK",0,NASIK,NASIK,MAHARASHTRA
"LAXMI VILAS BANK",LAVB0000493,520056602,NARASARAOPET,"6 DASH 3 DASH  269OPP KANYAKA PARAMESWARI TEMPLE",223224,NARASARAOPET,GUNTUR,"ANDHRA PRADESH"
"LAXMI VILAS BANK",LAVB0000492,638056016,NERINJIPETTAI,"110 A, BHAVANI METTUR MAIN ROAD NERINJIPETTAI 638 311 ERODE",227041,NERINJIPETTAI,ERODE,"TAMIL NADU"
"LAXMI VILAS BANK",LAVB0000491,440056002,NAGPUR,"PLOT 93 94, BHARARI CENTRAL AVENUENAGPUR 440 018 MAHARASHTRA",2724774,NAGPUR,NAGPUR,MAHARASHTRA
"LAXMI VILAS BANK",LAVB0000490,638056010,NATHAKADAIYUR,"2 BY 302, MUTHUR ROAD NATHAKADAIYUR638 108 ERODE DT TAMIL NADU",241032,NATHAKADAIYUR,ERODE,"TAMIL NADU"
"LAXMI VILAS BANK",LAVB0000489,607056102,NEYVELI,"NO 198 CUDDALORE MAIN ROAD NEYVELI607 802 CUDDALORE",262326,NEYVELI,CUDDALORE,"TAMIL NADU"
"LAXMI VILAS BANK",LAVB0000488,636056014,NAMAKKAL,"14, 1ST FLOOR, SALEM ROAD P B NO 3NAMAKKAL 637 001 TAMIL NADU",276022,NAMAKKAL,NAMAKKAL,"TAMIL NADU"
"LAXMI VILAS BANK",LAVB0000487,629056002,NAGERCOIL,"NO 36 BY 8 3, IST FLOOR SOUTH CAR STREETNAGERCOIL 629 001 KANYAKUMARI",232048,NAGERCOIL,KANYAKUMARI,"TAMIL NADU"
"LAXMI VILAS BANK",LAVB0000486,611056002,NAGAPATTINAM,"41, NEELA SOUTH STREET P B NO 37 NAGAPATTINAM 611 001 TAMIL NADU",242356,NAGAPATTINAM,NAGAPATTINAM,"TAMIL NADU"
"LAXMI VILAS BANK",LAVB0000485,396056061,NAVSARI,"GROUND FLOOR,CHINMAY ARCADE,OPP.SATTAPIR,SAYJI ROAD,MOTA BAZAR,NAVSARI",244243,NAVSARI,NAVSARI,GUJARAT
"LAXMI VILAS BANK",LAVB0000484,NA,NATHAMEDU,"NO.39,VADAKKU THERU,NATHAMEDU,KOTHAVACHERY PO,CHIDAMBARAM TK,PIN 608 601",241379,BHUVANAGIRI,CUDDALORE,"TAMIL NADU"
"LAXMI VILAS BANK",LAVB0000483,NA,"NAICKER NEW STREET","NO 247, NAICKER NEW STREET,MADURAI",0,MADURAI,MADURAI,"TAMIL NADU"
"LAXMI VILAS BANK",LAVB0000482,NA,NANDIGAMA,"THE NANDIGAMA EDUCATIONAL SOCIETY CHANDARLAPADU ROAD NANDIGAMA",0,NANDIGAMA,KRISHNA,"ANDHRA PRADESH"
"LAXMI VILAS BANK",LAVB0000481,NA,NALGONDA,"NO 6 5 12 NEAR BEAT MARKET HYDERABAD ROAD NALGONDA TELANGANA",0,NALGONDA,NALGONDA,"ANDHRA PRADESH"
"LAXMI VILAS BANK",LAVB0000480,NA,"MULUND WEST","NO 8 MARATHON MAX LINK ROAD MULUND WEST MUMBAI MAHARASHTRA",0,MUMBAI,MULUND,MAHARASHTRA
"LAXMI VILAS BANK",LAVB0000479,NA,MYLAMBADI,"NO 2 96 VELLI TIRUPPUR MAIN ROAD NARAYANAPURAM MYLAMBADI ERODE",0,ERODE,ERODE,"TAMIL NADU"
"LAXMI VILAS BANK",LAVB0000478,NA,"MAHAVIR NAGAR","WZ-GS, MAHAVIR NAGAR, NEW DELHI",0,"NEW DELHI","NEW DELHI",DELHI
"LAXMI VILAS BANK",LAVB0000477,NA,MEHDIPATNAM,"D NO 13 6 , 434 A 33, MARUTHI NAGAR,MEHDIPATNAM",0,MEHDIPATNAM,HYDERABAD,TELANGANA
"LAXMI VILAS BANK",LAVB0000476,NA,MANGALAGIRI,"DOOR NO 7-380/A, PSR BAVAN, MANGALAGIRI MAIN ROAD,MANGALAGIRI",0,MANGALAGIRI,GUNTUR,"ANDHRA PRADESH"
"LAXMI VILAS BANK",LAVB0000475,NA,MUDHUGAMPATTI,"NAGANOOR POST,PENNAGARAM TALUK,DHARMAPURI DT",255643,PENNAGARAM,DHARMAPURI,"TAMIL NADU"
"LAXMI VILAS BANK",LAVB0000474,NA,MALLESHWARAM,"NO 1,9TH CROSS,MALLESHWARAM,BANGALORE 560 003",22631300,BANGALORE,"BANGALORE RURAL",KARNATAKA
"LAXMI VILAS BANK",LAVB0000473,WAITING,MANGALORE,"14 1 741 BY 6,SHOP NOS 1 TO 8,23 TO 27,MAY FAIR CITY,KRR ROAD,KARANGALPADY,MANGALORE 575 003",22631300,MANGALORE,"DAKSHIN KANNAD",KARNATAKA
"LAXMI VILAS BANK",LAVB0000472,NA,MANGARAI,"4 BY 322,MANGARAI VILLAGE AND POST,PENNAGARAM,DHARMAPURI",255643,PENNAGARAM,DHARMAPURI,"TAMIL NADU"
"LAXMI VILAS BANK",LAVB0000471,NA,"CHENNAI MOGAPPAIR","1 BY 235,VALAYAPATHI SALAI,MOGAPPAIR,CHENNAI 600 037",0,CHENNAI,CHENNAI,"TAMIL NADU"
"LAXMI VILAS BANK",LAVB0000470,620056014,SIRUMAYANGUDI,"4 BY 5 A SIRUMAYANGUDI EASTSIRUMAYANGUDI",0,SIRUMAYANGUDI,TIRUCHIRAPALLI,"TAMIL NADU"
"LAXMI VILAS BANK",LAVB0000469,NA,MEIKALPATTI,MEIKALPATTI,0,MEIKALPATTI,TANJORE,"TAMIL NADU"
"LAXMI VILAS BANK",LAVB0000468,NA,MECHERI,"SF NO.230 BY 2,WARD NO.16,DHARMAPURI MAIN ROAD,MECHERI",2267202,MECHERY,SALEM,"TAMIL NADU"
"LAXMI VILAS BANK",LAVB0000467,625056010,MARKAMPATTI,"3 BY 192 DINDIGUL MAIN ROADMARKKAMPATTI VILLAGE",0,MARKAMPATTI,DINDIGUL,"TAMIL NADU"
"LAXMI VILAS BANK",LAVB0000466,500056010,MADHAPUR,"PLOT NO 2 KRITHIKA LAYOUTMADHAPUR HYDERABAD 500081",23119531,HYDERABAD,HYDERABAD,"ANDHRA PRADESH"
"LAXMI VILAS BANK",LAVB0000465,600056025,MOWLIVAKKAM,"DOOR NO 2 BAJANAI KOIL STREETMOWLIVAKKAM CHENNAI 600116",23820043,CHENNAI,KANCHEEPURAM,"TAMIL NADU"
"LAXMI VILAS BANK",LAVB0000464,508056102,MIRYALGUDA,"SHOP NO.105,BLUE WHALE PALACE,SAGARROAD,MIRYALGUDA 508 207,ANDHRA PRA",232255,MIRYALGUDA,NALGONDA,"ANDHRA PRADESH"
"LAXMI VILAS BANK",LAVB0000463,638056018,"MN PALAYAM EXTENSION","THE LAKSHMI VILAS BANK LTD,MC MAINROAD,VASAVI COLLEGE POST, SURIYAMPA",2230560,ERODE,ERODE,"TAMIL NADU"
"LAXMI VILAS BANK",LAVB0000462,636056010,"METTUR DAM","8 BY 13 SQUARE MARKET ROAD 1ST FLOOR METTUR DAM 636 401 SALEM",244738,METTUR,SALEM,"TAMIL NADU"
"LAXMI VILAS BANK",LAVB0000461,500056004,"MALKAJGIRI HYDERABAD","NO 292 AND 293 1ST FLOOR RADHAKRISHNA MALKAJGIRI HYDERABAD",27245572,MALKAJGIRI,RANGAREDDY,"ANDHRA PRADESH"
"LAXMI VILAS BANK",LAVB0000460,636056021,MUTHUGAPATTY,"6 BY 41 MAIN ROAD MUTHUGAPATTY 637405 NAMAKKAL DT TAMIL NADU",578366,MUTHUGAPATTI,NAMAKKAL,"TAMIL NADU"
"LAXMI VILAS BANK",LAVB0000459,639056011,MAHADHANAPURAM,"1 2 85 BY A, EAST AGRAHARAM MAHADHANAPURAM 639 106 KARUR",242235,MAHADHANAPUR,KARUR,"TAMIL NADU"
"LAXMI VILAS BANK",LAVB0000458,635056003,MATHUR,"1 BY 49 E MATHUR 635 203 KRISHNAGIRI DT TAMIL NADU",256221,MATHUR,KRISHNAGIRI,"TAMIL NADU"
"LAXMI VILAS BANK",LAVB0000457,607056103,"MADUKKUR TOWN","43 D BAJANAI MUTT STREET MADUKKUR TOWN 614 903 THANJAVUR DT TAMIL NADU",260233,MADUKKUR,THANJAVUR,"TAMIL NADU"
"LAXMI VILAS BANK",LAVB0000456,609056002,MAYILADUTHURAI,"27 B TOWN EXTENSION ROAD P B NO 78MAYILADUTHURAI 609 001 NAGAPATTINAM",223296,MAYURAM,NAGAPATTINAM,"TAMIL NADU"
"LAXMI VILAS BANK",LAVB0000455,570056002,MYSORE,"SRINIVASA PLAZA 1ST FLOORNO 33 BYA D DEVARAJ URS ROAD MYSORE 570 001",2423262,MYSORE,MYSORE,KARNATAKA
"LAXMI VILAS BANK",LAVB0000454,620056010,MANAMEDU,"4 BY 273, SALEM MAIN ROAD MANAMEDU621 209 TRICHY DT TAMIL NADU",271367,MANAMEDU,TIRUCHIRAPALLI,"TAMIL NADU"
"LAXMI VILAS BANK",LAVB0000453,638056008,MUTHUR,"A R COMPLEX, 99 T VELLAKOIL ROAD MUTHUR 638 105 ERODE DT TAMIL NADU",254362,MUTHUR,ERODE,"TAMIL NADU"
"LAXMI VILAS BANK",LAVB0000452,614056103,MUTHUPET,"NO 50, 1ST FLOORKUMARAN BAZAAR MUTHUPET 614 704 TIRUVARUR DT TAMIL NAD",260463,MUTHUPET,THIRUVARUR,"TAMIL NADU"
"LAXMI VILAS BANK",LAVB0000451,610056003,MOOLANGUDI,"1 BY 216, MAIN ROAD MOOLANGUDI 610102 KAMALAPURAM POST TIRUVARUR",245444,MOOLANGUDI,PUDUKKOTTAI,"TAMIL NADU"
"LAXMI VILAS BANK",LAVB0000450,641056011,METTUPALAYAM,"79A, NVC BUILDING, 1ST FLOOR OOTY MAIN ROAD METTUPALAYAM 641 301 COIMB",222182,METTUPALAYAM,COIMBATORE,"TAMIL NADU"
"LAXMI VILAS BANK",LAVB0000449,625056005,MELUR,"195, ALAGAR KOVIL ROAD P B NO 7 MELUR 625 106MADURAI",2415421,MELUR,MADURAI,"TAMIL NADU"
"LAXMI VILAS BANK",LAVB0000448,636056104,MARANDAHALLI,"KRISHNA COMPLEX HIGH SCHOOL ROAD MARANDAHALLI 636 806 DHARMAPURI",233332,MARANDAHALLI,DHARMAPURI,"TAMIL NADU"
"LAXMI VILAS BANK",LAVB0000447,614056002,MANNARGUDI,"54, BIG BAZAAR STREET MANNARGUDI 614 001 TIRUVARUR DT TAMIL NADU",253208,MANNARGUDI,THIRUVARUR,"TAMIL NADU"
"LAXMI VILAS BANK",LAVB0000446,571056502,MANDYA,"1127,1ST FLOOR  P.B.NO. 24 IST CROSS ASHOK NAGAR MANDYA 571 401 MANDYA",220693,MANDYA,MANDYA,KARNATAKA
"LAXMI VILAS BANK",LAVB0000445,625056002,"MADURAI MAIN","BALA SASI NIVAS 97EAST MARRET STREET PALACE ROAD P B NO 177 MADURAI 6",2339158,MADURAI,MADURAI,"TAMIL NADU"
"LAXMI VILAS BANK",LAVB0000444,625056003,"TALLAKULAM MADURAI","PLOTNO 4 DOORNO 49 BHARATHI ULA ROAD RACE COURSE P B NO 47 MADURAI 625",2569633,MADURAI,MADURAI,"TAMIL NADU"
"LAXMI VILAS BANK",LAVB0000443,600056101,"ROYAPURAM EXTENSION","M V HOSPITAL DIABETES RESEARCH CENTRE FOUNDATION,WEST MADA CHURCH STRE",0,CHENNAI,CHENNAI,"TAMIL NADU"
"LAXMI VILAS BANK",LAVB0000442,600056018,VELACHERY,"NO.37F,VELACHERRY MAIN ROAD,VIJAYANAGAR VELACHERRY 600 042 TAMILNADU",22436065,CHENNAI,CHENNAI,"TAMIL NADU"
"LAXMI VILAS BANK",LAVB0000441,600056015,"ADYAR CHENNAI","NO 124 BY A LATTICE BRIDGE ROAD K RBUILDINGS ADYAR CHENNAI 600 020 TA",24404336,CHENNAI,CHENNAI,"TAMIL NADU"
"LAXMI VILAS BANK",LAVB0000440,600056017,"T NAGAR","NO.29 GOVINDA STREET T.NAGAR CHENNAI 600 017 TAMILNADU",28155499,CHENNAI,CHENNAI,"TAMIL NADU"
"LAXMI VILAS BANK",LAVB0000439,600056016,"ANNA NAGAR CHENNAI","AB 5 II AVENUE ANNA NAGAR CHENNAI 600 040 THIRUVALLUR RICT TAMILNADU",26200745,CHENNAI,CHENNAI,"TAMIL NADU"
"LAXMI VILAS BANK",LAVB0000438,600056014,"SELAIYUR CHENNAI","ZION MATRICULATION HIGHER SECONDARYSCHOOL SELAIYUR CHENNAI KANCHEEPUR",22293460,SELAIYUR,KANCHEEPURAM,"TAMIL NADU"
"LAXMI VILAS BANK",LAVB0000437,600056012,"WEST TAMBARAM CHENNA","27 RAJAJI ROAD 1ST FLOOR WEST TAMBARAM CHENNAI 600 045 KANCHEEPURAM",22260359,TAMBARAM,KANCHEEPURAM,"TAMIL NADU"
"LAXMI VILAS BANK",LAVB0000436,600056013,"VALASARAVAKKAM CHENN","126 A ARCOT ROAD 1ST FLOOR VALASARAWAKKAM CHENNAI 600 087 KANCHEEPURAM",24869291,VALASARAVAKKAM,THIRUVALLUR,"TAMIL NADU"
"LAXMI VILAS BANK",LAVB0000435,600056011,"TRIPLICANE CHENNAI","71 72 LAXMI NARAIANS TOWERS WALLAJAH ROAD 1ST FLOOR TRIPLICANE CHENNAI",28591727,CHENNAI,CHENNAI,"TAMIL NADU"
"LAXMI VILAS BANK",LAVB0000434,600056004,"CATHEDRAL ROAD CHENN","62 CATHEDRAL ROAD P B NO 4903 CHENNAI 600 086 TAMIL NADU",28112266,CHENNAI,CHENNAI,"TAMIL NADU"
"LAXMI VILAS BANK",LAVB0000433,600056010,"ROYAPURAM CHENNAI","130 SURYA NARAYANA CHETTY STREET ROYAPURAM CHENNAI 600 013 TAMIL NADU",25952244,CHENNAI,CHENNAI,"TAMIL NADU"
"LAXMI VILAS BANK",LAVB0000432,600056009,"PURASAIWALKAM CHENNA","25 1ST FLOOR PURASAWALKAM HIGH ROADPURASAWALKAM CHENNAI 600 007 TAMIL",26426739,CHENNAI,CHENNAI,"TAMIL NADU"
"LAXMI VILAS BANK",LAVB0000431,600056008,"NUNGAMBAKKAM CHENNAI","175 VALLUVAR KOTTAM HIGH ROAD P B NO 1258 1ST FLOOR NUNGAMBAKKAMCHENNA",28271349,CHENNAI,CHENNAI,"TAMIL NADU"
"LAXMI VILAS BANK",LAVB0000430,600056007,"MYLAPORE CHENNAI","38 NORTH MADA STREET MYLAPORE CHENNAI 600 004 TAMIL NADU",4940736,CHENNAI,CHENNAI,"TAMIL NADU"
"LAXMI VILAS BANK",LAVB0000429,600056006,"MOUNT ROAD CHENNAI","636 ANNA SALAI 1ST FLOOR MOUNT ROADCHENNAI 600 006 TAMIL NADU",28293909,CHENNAI,CHENNAI,"TAMIL NADU"
"LAXMI VILAS BANK",LAVB0000428,600056005,"KODAMBAKKAM CHENNAI","323 ARCOT ROAD 1ST FLOOR CHENNAI 600 024 TAMIL NADU",24837903,CHENNAI,CHENNAI,"TAMIL NADU"
"LAXMI VILAS BANK",LAVB0000427,600056003,"GN STREET CHENNAI","244 IST FLOOR GOVINDAPPA NAICKEN STREET P B NO 1633 CHENNAI 600 001 TA",25369370,CHENNAI,CHENNAI,"TAMIL NADU"
"LAXMI VILAS BANK",LAVB0000426,600056002,"CHENNAI MAIN","275 THAMBU CHETTY STREET CHENNAI 600 001 TAMIL NADU",25227240,CHENNAI,CHENNAI,"TAMIL NADU"
"LAXMI VILAS BANK",LAVB0000425,600056001,"CHENNAI SERVICE BRAN","SAKTHI TOWERS 4TH FLOOR F BLOCK 766ANNA SALAI CHENNAI 600 002TAMIL NA",0,CHENNAI,CHENNAI,"TAMIL NADU"
"LAXMI VILAS BANK",LAVB0000424,500056001,HYDERABAD,"FLATNO 2A II FLOOR SAMRAT COMPLEX SAIFABAD 500 004 HYDERABADANDHRA PRA",0,HYDERABAD,HYDERABAD,"ANDHRA PRADESH"
"LAXMI VILAS BANK",LAVB0000423,NA,MAHASAMUND,"SHOP NO 84/42, S NO 46 NEAR NEW KALABAI SCHOOL,MAIN RAIPUR ROAD, MAHASAMUND",0,MAHASAMUND,MAHASAMUND,MAHARASHTRA
"LAXMI VILAS BANK",LAVB0000422,NA,"MALAD WEST","MANAS BUILDING, KHANDELWAL LAYOUT, PLOT NO - 12",0,MUMBAI,MUMBAI,MAHARASHTRA
"LAXMI VILAS BANK",LAVB0000421,NA,VIJAYANAGAR,"NO 837 GENERAL THIMMAIAH ROAD NEAR YOGANARASHIMHASWAMY TEMPLE VIJAYANAGAR MYSURU 570017",0,MYSURU,MYSURU,KARNATAKA
"LAXMI VILAS BANK",LAVB0000420,NA,MAJHIHARA,"BNRG SEVA KENDRA BUILDING MAJHIHARA BALIPATNA KHURDA ODISHA",0,MAJHIHARA,KHURDA,ODISHA
"LAXMI VILAS BANK",LAVB0000419,NA,MARICHETLAPALEM,"NO 4 77 KURNOOL ROAD MARICHETLAPALEM BHUDAWADA MANDAL PRAKASAM",0,"BHUDAWADA MANDAL",PRAKASAM,"ANDHRA PRADESH"
"LAXMI VILAS BANK",LAVB0000418,NA,MOHANUR,"NO 192 NAMAKKAL MAIN ROAD THANGAM HOSPITAL BUILDING MOHANUR",0,NAMAKKAL,NAMAKKAL,"TAMIL NADU"
"LAXMI VILAS BANK",LAVB0000417,NA,MADIPAKKAM,"NO 5 570 SABARI SALAI MADIPAKKAM CHENNAI",0,CHENNAI,KANCHEEPURAM,"TAMIL NADU"
"LAXMI VILAS BANK",LAVB0000416,575056003,MUDBIDRI,"LAKSHMI VILAS BANK LTD MUDBIDRI DAKSHINA KANNADA DISTRICT",0,MANGALORE,"DAKSHINA KANNADA",KARNATAKA
"LAXMI VILAS BANK",LAVB0000415,636056027,MARAKOTTAI,"NO 142 CHENNAI TIRUPATHI ROAD MARAKOTTAI KADAYAMPATTI SALEM DT",0,SALEM,SALEM,"TAMIL NADU"
"LAXMI VILAS BANK",LAVB0000414,507056003,MALLEMADUGU,"NO 1 298 RAMANNAPETA MALLEMADUGU KHAMMAM TELANGANA 507003",0,KHAMMAM,KHAMMAM,TELANGANA
"LAXMI VILAS BANK",LAVB0000412,638056021,MATHUR,"NO.368 NEW STREET ANTHIYUR TK",0,ERODE,ERODE,"TAMIL NADU"
"LAXMI VILAS BANK",LAVB0000410,NA,LAWSPET,"NO 198 LAWSPET MAIN ROAD LAWSPET PUDUCHERRY",0,PUDUCHERRY,PUDUCHERRY,PUDUCHERRY
"LAXMI VILAS BANK",LAVB0000409,NA,LAM,"H.NO 3-56/B1, LAM 522034, TADIKONDA MANDALAM, GUNTUR",0,GUNTUR,GUNTUR,"ANDHRA PRADESH"
"LAXMI VILAS BANK",LAVB0000408,NA,"LAKSHMIPURM GUNTUR II","D.NO.5 87 27,LAKSHMIPURAM MAIN ROAD,GUNTUR 522 007",0,GUNTUR,GUNTUR,"ANDHRA PRADESH"
"LAXMI VILAS BANK",LAVB0000407,638056005,LAKKAPURAM,"BY 269, MAIN ROAD LAKKAPURAM 638 002 ERODE DT TAMIL NADU",2401767,LAKKAPURAM,ERODE,"TAMIL NADU"
"LAXMI VILAS BANK",LAVB0000406,620056006,LALGUDI,"SRG BUILDING, 2 SIRUDAIYUR AGRAHARAM LALGUDI 621 601 TRICHY",2541236,LALGUDI,TIRUCHIRAPALLI,"TAMIL NADU"
"LAXMI VILAS BANK",LAVB0000405,605056011,"LA GUDALUR","NO 45 KOMALUR MAIN ROAD LALAPET LA GUDALUR SANKARAPURAM VILLUPURAM DT",0,PUDUCHERRY,VILLUPURAM,"TAMIL NADU"
"LAXMI VILAS BANK",LAVB0000404,533056782,KAPAVARAM,"8 122 A KAPAVARAM ROAD KAPAVARAM EAST GODAVARI DT",0,GODAVARI,"EAST GODAVARI","ANDHRA PRADESH"
"LAXMI VILAS BANK",LAVB0000403,625056020,KOMBAI,"NO 6 186A KOMBAI MAIN ROAD KOMBAI DINDIGUL DT",0,DINDIGUL,DINDIGUL,"TAMIL NADU"
"LAXMI VILAS BANK",LAVB0000402,NA,KALABURAGI,"NO 38 SWAGAT COMPLEX JAIL GARDEN SUPER MARKET KALABURAGI KARNATAKA 585101",0,GULBARGA,GULBARGA,KARNATAKA
"LAXMI VILAS BANK",LAVB0000401,NA,KAVARAIPETTAI,"NO 175 A GNT ROAD KAVARAIPETTAI THIRUVALLUR 601206",0,CHENNAI,THIRUVALLUR,"TAMIL NADU"
"LAXMI VILAS BANK",LAVB0000399,NA,KOLLAM,"NARAYANAN BUSINESS CENTRE KADAPPAKADA JUNCTION KOLLAM 691008",0,KOLLAM,KOLLAM,KERALA
"LAXMI VILAS BANK",LAVB0000398,NA,KADALANGUDI,"NO 2 276 VINAYAGAR STREET THIRUMENIYAR KOIL POST NAGAPATTINAM 609204",0,KADALANGUDI,NAGAPATTINAM,"TAMIL NADU"
"LAXMI VILAS BANK",LAVB0000397,NA,KALKAJI,"L-11,KALKAJI, NEW DELHI",0,"NEW DELHI",DELHI,DELHI
"LAXMI VILAS BANK",LAVB0000396,NA,KARNAL,"SCO 112, OLD TESHIL MARKET, OLD GT ROAD",0,KARNAL,KARNAL,HARYANA
"LAXMI VILAS BANK",LAVB0000395,NA,KUNIYUR,"NO 4/162,OLD SALARI STREET, KUNIYUR VILLAGE,AMBASAMUTHIRAM TALUK",0,TIRUNELVELI,TIRUNELVELI,"TAMIL NADU"
"LAXMI VILAS BANK",LAVB0000394,NA,KURNOOL,"D.NO.40 BY 301 19,MCM COMPLEX,BELLARY ROAD,KURNOOL 518 001",23734333,KURNOOL,KURNOOL,"ANDHRA PRADESH"
"LAXMI VILAS BANK",LAVB0000393,614056105,KONDIKULAM,"MAIN ROAD KONDIKULAMKALUGAPULIKADU PATTUKOTTAI TK",224888,KONDIKULAM,THANJAVUR,"TAMIL NADU"
"LAXMI VILAS BANK",LAVB0000392,636056020,KONDAMANAICKENPATTI,"1 BY 57 PUDANCHANTHAI ROADKONDAMANAICKENPATTY",278096,KONDAMANAICKENPATTI,NAMAKKAL,"TAMIL NADU"
"LAXMI VILAS BANK",LAVB0000391,500056012,KOMPALLY,"PLOT NO 9 ANURADHA COMPLEXCENTRAL PARK KOMPALLY",0,"KOMPALLY HYDERABAD",NALGONDA,"ANDHRA PRADESH"
"LAXMI VILAS BANK",LAVB0000390,NA,KOTTIVAKKAM,"1 BY 165,ECR ROAD,KOTTIVAKKAM,CHENNAI 600 041",28548726,CHENNAI,CHENNAI,"TAMIL NADU"
"LAXMI VILAS BANK",LAVB0000389,523056102,"KOTHAPETA CHIRALA","60 BY 120 MAIN ROADKOTHAPETA CHIRALA",231423,"KOTHAPETA CHIRALA","EAST GODAVARI","ANDHRA PRADESH"
"LAXMI VILAS BANK",LAVB0000388,560056012,KENGERI,"GROUND FLOOR NO 35 AND 36I MAIN ROAD KENGERI SATELLITE",28484743,BANGALORE,"BANGALORE URBAN",KARNATAKA
"LAXMI VILAS BANK",LAVB0000387,600056027,"K K NAGAR","NO 3 PLOT 780 NO 3MUNUSWAMY ROAD",23660169,CHENNAI,CHENNAI,"TAMIL NADU"
"LAXMI VILAS BANK",LAVB0000386,571056102,KOLLEGAL,"7452 CSR HARDWARE COMPLEX BUS STAND ROAD",252548,KOLLEGAL,MYSORE,KARNATAKA
"LAXMI VILAS BANK",LAVB0000385,NA,KOLAPAKKAM,"NO.140 BY 1A,KELAMBAKKAM,VANDALUR MAIN ROAD,KOLAPPAKKAM,CHENNAI 600048",22260359,CHENNAI,CHENNAI,"TAMIL NADU"
"LAXMI VILAS BANK",LAVB0000384,NA,KOTTAYAM,"K.M.C.XVI BY 131 E,NEAR YWCA,M.C.ROAD,KOTTAYAM",2376578,KOTTAYAM,KOTTAYAM,KERALA
"LAXMI VILAS BANK",LAVB0000383,110056008,KRISHNANAGAR,"F 3 BY 21, KRISHNANAGAR, OPP. PUNJAB NATIONAL BANK, NEW DELHI EAST 110",22099738,"NEW DELHI",DELHI,DELHI
"LAXMI VILAS BANK",LAVB0000382,524056642,KRISHNAPATNAM,"2 72,GOLLA VEEDHI,KRISHNAPATNAM, S.P.S.R. NELLORE DT.",2377552,NELLORE,NELLORE,"ANDHRA PRADESH"
"LAXMI VILAS BANK",LAVB0000381,635056005,KAVERIPATNAM,"NH7 SALEM MAIN ROAD,OPPOSITE LIC OFINDIA,KAVERIPATNAM635112,KRISHNAGIR",236213,KAVERIPATNAM,KRISHNAGIRI,"TAMIL NADU"
"LAXMI VILAS BANK",LAVB0000380,600056022,KARANODAI,"SRI DHANALAKSHMI COMPLEX,KARANODAIBAZAAR,GNT ROAD,KARANODAI,CHENNAI60",26330520,KARANODAI,THIRUVALLUR,"TAMIL NADU"
"LAXMI VILAS BANK",LAVB0000379,507056002,KHAMMAM,"23231,SUNDAR TALKIES ROAD,GANDHI CHOWK,KHAMMAM507 003 ANDHRA PRADESH",9390466866,KHAMMAM,KHAMMAM,"ANDHRA PRADESH"
"LAXMI VILAS BANK",LAVB0000378,400056009,KHARGHAR,"SHOP NO 42 AND 43, PATEL HERITAGE,SECTOR 7,KHARGHARNAVI MUMBAI-410 210",9320011899,RAIGARH,"GREATER BOMBAY",MAHARASHTRA
"LAXMI VILAS BANK",LAVB0000377,620056013,KULITHALAI,"NO.5, CAUVERY NAGAR, KULITHALAI 639104 KARUR DT. TAMIL NADU",223074,KULITHALAI,KARUR,"TAMIL NADU"
"LAXMI VILAS BANK",LAVB0000376,505056002,KARIMNAGAR,"D.NO.4 5 334, SHIVALAYAM ROAD, NEARRAJIV CHOWK, FATHEPURA, KARIM NAGA",2233445,KARIMNAGAR,KARIMNAGAR,"ANDHRA PRADESH"
"LAXMI VILAS BANK",LAVB0000375,533056002,KAKINADA,"28 7 14, CHITTORYVARI STREET OPP SAI TEMPLE ADJ MAIN ROAD KAKINADA",2379712,KAKINADA,"EAST GODAVARI","ANDHRA PRADESH"
"LAXMI VILAS BANK",LAVB0000374,500056005,KOTHAPETA,"POTLURY HOUSE PLOT NO 24 KOTHAPETACROSS RD SAROOR NAGAR 500035 AP",24042809,HYDERABAD,"EAST GODAVARI","ANDHRA PRADESH"
"LAXMI VILAS BANK",LAVB0000373,500056007,"KUKATPALLY HYDERABAD","NO 11 TO 16 1ST FLOOR PLOTNOS 148 TO 151 KUKATPALLY HYDERABAD 500 872",23067430,KUKATPALLY,RANGAREDDY,"ANDHRA PRADESH"
"LAXMI VILAS BANK",LAVB0000372,639056004,"KATHAPARAI KARUR","116 BY H 2 SALEM MAIN ROAD VENNAMALAI P O KATHAPARAI 639 006 KARUR DT",220691,KATHAPARAI,KARUR,"TAMIL NADU"
"LAXMI VILAS BANK",LAVB0000371,641056013,KANJAMPATTI,"WARDNO 1VINAYAGAR KOVIL STREET KANJAMPATTI 642 003 COIMBATORE DT TAMIL",284261,KANJAMPATTY,COIMBATORE,"TAMIL NADU"
"LAXMI VILAS BANK",LAVB0000370,639056006,KURUMBAPATTI,"1 BY 83 A, MAIN ROAD PALLAPATTI VIAKURUMBAPATTI 639205 KARUR DT TAMIL",248273,KURUMBAPATTI,KARUR,"TAMIL NADU"
"LAXMI VILAS BANK",LAVB0000369,607056004,KATTUGUDALUR,"PTR BUILDING,ANNA SALAI MAIN ROAD,KATTUGUDALUR 607805,CUDDALORE DT,TAM",266204,CUDDALORE,CUDDALORE,"TAMIL NADU"
"LAXMI VILAS BANK",LAVB0000368,630056002,KARAIKUDI,"24, KALLUKATTINORTH 1ST FLOOR, P BNO 30 KARAIKUDI 630 001 SIVAGANGAI",237489,KARAIKUDI,SIVAGANGA,"TAMIL NADU"
"LAXMI VILAS BANK",LAVB0000367,612056002,KUMBAKONAM,"NO 13, 1ST FLOOR SOMESWARAR SANNADHI STREET KUMBAKONAM 612 001 THANJAV",2420345,KUMBAKONAM,THANJAVUR,"TAMIL NADU"
"LAXMI VILAS BANK",LAVB0000366,635056002,KRISHNAGIRI,"25 B, COLONY ROADP B NO 9 KRISHNAGIRI 635 001 KRISHNAGIRI DT TAMIL NAD",236213,KRISHNAGIRI,KRISHNAGIRI,"TAMIL NADU"
"LAXMI VILAS BANK",LAVB0000365,627056005,KOVILPATTI,"897, MAIN ROAD P B NO 17 KOVILPATTI628 501 TIRUNELVELI",220402,KOVILPATTI,TOOTHUKUDI,"TAMIL NADU"
"LAXMI VILAS BANK",LAVB0000364,637056003,KATTUPUTHUR,"179, ANDAPURAM ROAD KATTUPUTHUR 621207 TRICHY DT TAMIL NADU",250225,KATTUPUTHUR,TIRUCHIRAPALLI,"TAMIL NADU"
"LAXMI VILAS BANK",LAVB0000363,639056003,"KARUR WEST","118 119 JAWAHAR BAZZAR KARUR 639 001 TAMIL NADU",262241,KARUR,KARUR,"TAMIL NADU"
"LAXMI VILAS BANK",LAVB0000362,639056002,"KARUR MAIN","693 JAWAHAR BAZAAR P B NO 36 KARUR639 001 TAMIL NADU",260021,KARUR,KARUR,"TAMIL NADU"
"LAXMI VILAS BANK",LAVB0000361,609056102,KARAIKAL,"107, IST FLOOR BHARATHIYAR ROAD, PB NO 34 KARAIKAL 609 602 PONDICHERR",222410,KARAIKAL,KARAIKAL,PUDUCHERRY
"LAXMI VILAS BANK",LAVB0000360,638056011,KANGAYAM,"45 P S G BUILDINGS CHENNIMALAI ROADP B NO 12 KANGAYAM 638 701 ERODE DT",220658,KANGEYAM,ERODE,"TAMIL NADU"
"LAXMI VILAS BANK",LAVB0000359,635056006,KANDILI,"1 21, CHAVADI STREET KANDILI 635 901 VELLORE DT TAMIL NADU",248205,KANDILI,VELLORE,"TAMIL NADU"
"LAXMI VILAS BANK",LAVB0000358,600056020,KANCHEEPURAM,"511 GANDHI ROAD P B NO 11 KANCHEEPURAM 631 501 TAMIL NADU",222839,KANCHIPURAM,KANCHEEPURAM,"TAMIL NADU"
"LAXMI VILAS BANK",LAVB0000357,606056104,KALLAKURICHI,"D NO 19, SALEM MAIN ROAD KALLAKURICHI 606 202 VILLUPURAM DT TAMIL NADU",222455,KALLAKURICHI,VILLUPURAM,"TAMIL NADU"
"LAXMI VILAS BANK",LAVB0000356,607056003,KADAMBULIYUR,"NO 106,KUMBAKONAM ROAD,KADAMBULIYUR",249223,PANRUTI,CUDDALORE,"TAMIL NADU"
"LAXMI VILAS BANK",LAVB0000355,606056102,CHINNASALEM,"MS. VYSYA MODERN RICE MILL, CHURCHCOMPLEX STREET, CHINNASALEM 606201,",257455,CHINNASALEM,VILLUPURAM,"TAMIL NADU"
"LAXMI VILAS BANK",LAVB0000354,400056008,KALYAN,"SHOP NO 2AND3,MAHAVEER COMPLEX II,SANTHOSHI MATHA MANDIR ROAD,KALYAN42",9372093339,KALYAN,THANE,MAHARASHTRA
"LAXMI VILAS BANK",LAVB0000353,620056015,KAMBARASAMPETTAI,"SF NO 98 BY 5 TRICHY KARUR ROAD",2902731,KAMBARASAMPETTAI,TIRUCHIRAPALLI,"TAMIL NADU"
"LAXMI VILAS BANK",LAVB0000352,636056019,KALANGANI,"NO 6 BY 3 SALEM MAIN ROADMAHALAKSHMI NAGAR",244463,KALANGANI,NAMAKKAL,"TAMIL NADU"
"LAXMI VILAS BANK",LAVB0000351,533056103,KADIYAM,"4 DASH 36 PANCHAYATI STREETKADIYAM EAST GODAVARI DISTRICT",2452099,KADIYAM,"EAST GODAVARI","ANDHRA PRADESH"
"LAXMI VILAS BANK",LAVB0000350,NA,"K K PUDUR","OLD NO 4, NEW NO 7,BALASUBRAMANIAM STREET,STATE BANK COLONY,K K PUDUR",0,COIMBATORE,COIMBATORE,"TAMIL NADU"
"LAXMI VILAS BANK",LAVB0000349,NA,"KANMAI SOORANGUDI","DOOR NO 9 BY 33,SATTUR TO ELAYIRAMPANNAI MAIN ROAD,KANMAI SOORANGUDI,SORRANGUDI 626 203,SATTUR TK",260360,SATTUR,VIRUDHUNAGAR,"TAMIL NADU"
"LAXMI VILAS BANK",LAVB0000348,WAITING,KALLALANGUDY,"MEYYAPPA COMPLEX,PATTUKKOTTAI MAIN ROAD,KALLALANGUDY,ALANGUDI TK,PUDUKOTTAI 622 301",2224445,ALANGUDI,PUDUKKOTTAI,"TAMIL NADU"
"LAXMI VILAS BANK",LAVB0000347,NA,KOLHAPUR,"NO 14436 WARD C SUBASH ROAD LAKSHMIPURI KOLHAPUR MAHARASHTRA 416002",0,KOLHAPUR,KOLHAPUR,MAHARASHTRA
"LAXMI VILAS BANK",LAVB0000346,NA,"K VADAMADURAI","NO 29 METTUPALAYAM MAIN ROAD COIMBATORE 641017",0,COIMBATORE,COIMBATORE,"TAMIL NADU"
"LAXMI VILAS BANK",LAVB0000345,NA,JAMUKOLI,"BNRG SEVA KENDRA BUILDING JAMUKOLI KHURDA ORISSA",0,ORISSA,KHURDA,ODISHA
"LAXMI VILAS BANK",LAVB0000344,NA,JADCHERLA,"NO 1 2 3  12 224 12 225 B NO 12 SIGNLGADDA ROAD BADEPALLY JADCHERLA TELANGANA 509301",0,JADCHERLA,JADCHERLA,TELANGANA
"LAXMI VILAS BANK",LAVB0000343,NA,"J VEERANAM","NO 7 121 A CHINNA VEERANAM POST SALEM",0,SALEM,SALEM,"TAMIL NADU"
"LAXMI VILAS BANK",LAVB0000342,NA,JABALPUR,"PLOT NO 6, LAJPAT KUNJ,NAPIER TOWN",0,JABALPUR,JABALPUR,"MADHYA PRADESH"
"LAXMI VILAS BANK",LAVB0000341,NA,JAIPUR,"G1 AND G1A, SANGAM TOWER CHURCH ROAD",0,JAIPUR,JAIPUR,RAJASTHAN
"LAXMI VILAS BANK",LAVB0000340,NA,JEGADABI,"NO 4/45 MANNAPARAI MAIN ROAD, JEGADABI, KARUR,KARUR DIST - 639118.",0,KARUR,KARUR,"TAMIL NADU"
"LAXMI VILAS BANK",LAVB0000338,NA,JAMSHEDPUR,"G 1,ELEVATED GROUND FLOOR,SULATMALA COMPLEX,H NO 66,PENAR ROAD,SAKCHI,JAMSHEDPUR,JHARKHAND",4820900,JAMSHEDPUR,"PURBI SINGHBHUM",JHARKHAND
"LAXMI VILAS BANK",LAVB0000337,361056001,JAMNAGAR,"HOTEL STAY BUILDING NEAR AMBER CINEMA PLOTNO 34 G, PANDIT NEHRY MARG J",2661762,JAMNAGAR,JAMNAGAR,GUJARAT
"LAXMI VILAS BANK",LAVB0000336,636056012,JALAKANDAPURAM,"58 VANDIMEDUP B NO 3 JALAKANDAPURAM636 501 SALEM DT TAMIL NADU",260472,JALAKANTAPURAM,SALEM,"TAMIL NADU"
"LAXMI VILAS BANK",LAVB0000329,505056102,JAGTIAL,"NO 2 1 40 LAKSHMI NIVASAM OPPOSITE HEAD POST OFFICE SRIRAM NAGAR",9246931999,JAGTIAL,JAGTIAL,TELANGANA
"LAXMI VILAS BANK",LAVB0000328,506056202,JANGAON,"NO 2 8 1 10 B 2 8 1 10 B1 2 8 1 10B2 HYDERABAD ROAD",0,WARANGAL,WARANGAL,TELANGANA
"LAXMI VILAS BANK",LAVB0000327,534056562,KOVVURU,"NO 9 3 13 LIBRARY ROAD KOVVURU",0,KOVVURU,"WEST GODAVARI","ANDHRA PRADESH"
"LAXMI VILAS BANK",LAVB0000326,500056018,KHARMANGHAT,"NO 10 1 96 1 MN 1 DURGA NAGAR SAGAR ROAD LINGOJIGUDA",8977778812,KHARMANGHAT,RANGAREDDY,TELANGANA
"LAXMI VILAS BANK",LAVB0000325,600056045,KOLATHUR,"NO.26 7 1 FIRST MAIN ROAD SRINIVASA NAGAR KOLATHUR",0,CHENNAI,CHENNAI,"TAMIL NADU"
"LAXMI VILAS BANK",LAVB0000318,452056002,INDORE,"7 8, R N T MARG SILVER CASTLE BUILDING P B NO 503 INDORE 452 001 MADHY",2529102,INDORE,INDORE,"MADHYA PRADESH"
"LAXMI VILAS BANK",LAVB0000317,625056008,IDAYAKOTTAI,"10 BY 190, PALANI ROAD IDAYAKOTTAI624704 DINDIGUL DT TAMIL NADU",250224,IDAYAKOTTAI,DINDIGUL,"TAMIL NADU"
"LAXMI VILAS BANK",LAVB0000316,625056203,IYYAMPALAYAM,"2 BY 18 CHETTIAR STREET IYYAMPALAYAM 624 204 DINDIGUL DT TAMIL NADU",267212,AYYAMPALAYAM,DINDIGUL,"TAMIL NADU"
"LAXMI VILAS BANK",LAVB0000300,NA,HONNASANDRA,"NO 127 13 1 DHARMANAYAKA THANDA HONNASANDRA NELAMANGALA TALUK BANGALORE KARNATAKA",0,BANGALORE,HONNSANDRA,KARNATAKA
"LAXMI VILAS BANK",LAVB0000299,500056006,"HUBSIGUDA  HYDERABAD","NO. 7 149 2, 1ST FLOOR RAGHAVENDRACOMPLEX HABSIGUDA CROSS RD HABSIGUD",27150491,HYDERABAD,RANGAREDDY,"ANDHRA PRADESH"
"LAXMI VILAS BANK",LAVB0000298,583056202,HOSPET,"SHARADA COMPLEX, 1ST FLOOR489 495,PATTEL NAGAR NEAR SHANBAG CIRCLE HO",228885,HOSPET,BELLARY,KARNATAKA
"LAXMI VILAS BANK",LAVB0000297,500056002,"HYDERABAD MAIN","5 1 716 BY 11ST FLOOR BANK STREET PB NO 537 KOTI HYDERABAD 500 195 AN",24761599,HYDERABAD,HYDERABAD,"ANDHRA PRADESH"
"LAXMI VILAS BANK",LAVB0000296,580056002,HUBLI,"UMACHIGI COMPLEX1ST FLOORP B NO 102KOPPIKAR ROAD HUBLI 580 020 DHARWA",2362561,HUBLI,DHARWAD,KARNATAKA
"LAXMI VILAS BANK",LAVB0000295,635056402,HOSUR,"GANESH COMPLEX, 1ST FLOOR 77 BY C 11, P B NO 61 HOSUR 635 109KRISHNAGI",241210,HOSUR,KRISHNAGIRI,"TAMIL NADU"
"LAXMI VILAS BANK",LAVB0000294,NA,"HSR LAYOUT","NO 435,27TH MAIN ROAD,SECTOR I,HOSUR SARJAPUR LAYOUT HSR LAYOUT,BANGALORE 560 078",22631300,BANGALORE,"BANGALORE RURAL",KARNATAKA
"LAXMI VILAS BANK",LAVB0000293,NA,HASAN,"SHARANYA ARCADE,NO.72,HARSHAMAHAL ROAD,HASAN 573 201",0,HASSAN,HASSAN,KARNATAKA
"LAXMI VILAS BANK",LAVB0000292,NA,HANUMAKONDA,"D.NO.1 8 274,MAIN ROAD,BALASAMUDRAM,HANUMAKONDA,WARRANGAL",23734333,HANAMKONDA,WARRANGAL,"ANDHRA PRADESH"
"LAXMI VILAS BANK",LAVB0000291,560056025,"HBR LAYOUT","NO 205 BLOCK II HBR LAYOUT I STAGE EXTENSION BENGALURU 560043",0,BENGALURU,BENGALURU,KARNATAKA
"LAXMI VILAS BANK",LAVB0000290,NA,GINGEE,"NO 216 217 TIRUVANNAMALAI ROAD GINGEE VILLUPURAM DT 604202",0,TINDIVANAM,VILLUPURAM,"TAMIL NADU"
"LAXMI VILAS BANK",LAVB0000289,NA,GOVERNERPET,"D NO 29-6-15/3,NAKKALA ROAD,VIJAYAWADA",0,VIJAYAWADA,VIJAYAWADA,"ANDHRA PRADESH"
"LAXMI VILAS BANK",LAVB0000288,680056003,GURUVAYOOR,"10 BY 83A RS 114 BY 20GURUVAYOOR",2558160,GURUVAYOOR,THRISSUR,KERALA
"LAXMI VILAS BANK",LAVB0000287,600056026,GUDUVANCHERI,"DOOR NO 35 GST ROADNANDIVARAM GUDUVANCHERRY",27467144,CHENNAI,KANCHEEPURAM,"TAMIL NADU"
"LAXMI VILAS BANK",LAVB0000286,582056002,GADAG,"PRAGATI 6690IB 3APMC YARDNEAR SBI",250122,GADAG,GADAG,KARNATAKA
"LAXMI VILAS BANK",LAVB0000285,700056003,GARIA,"225BY22 N S C BOSE ROADNAKTALA",24710064,GARIA,"SOUTH 24 PARGANAS","WEST BENGAL"
"LAXMI VILAS BANK",LAVB0000283,110056007,GHAZIABAD,"IIF166167,GOOD LUCK TOWERS,NEHRU NAGAR,AMBEDKAR ROAD,GHAZIABAD 201001,",2793368,GHAZIABAD,GHAZIABAD,"UTTAR PRADESH"
"LAXMI VILAS BANK",LAVB0000282,110056005,GURGAON,"M 35, OLD DLF, SECTOR 14, GURGAON 122001 HARIYANA",2225800,GURGAON,GURGAON,HARYANA
"LAXMI VILAS BANK",LAVB0000281,530056003,"GOPALAPATNAM  VISHAK","7 278, MAIN ROAD1ST FLOOR,  OPP.SUKANYA THEATRE, GOPALAPATNAM, VISHAKA",2521182,VISHAKAPATNAM,VISHAKHAPATNAM,"ANDHRA PRADESH"
"LAXMI VILAS BANK",LAVB0000280,380056003,GANDHINAGAR,"ROADNO 5, NEAR GH 5 SECTOR 16, P BNO 5 SIDDHARTH LAW COLLEGE GANDHINA",23230220,GANDHINAGAR,GANDHINAGAR,GUJARAT
"LAXMI VILAS BANK",LAVB0000279,530056002,"GAJUWAKA VISHAKAPATN","NO 17 40 6 MAIN ROAD 1ST FLOOR GAJUWAKA VISHAKAPATNAM 530 026 AP",2517565,GAJUWAKA,VISHAKHAPATNAM,"ANDHRA PRADESH"
"LAXMI VILAS BANK",LAVB0000278,638056007,GOBICHETTIPALAYAM,"NO 79, RAM COMPLEX 1ST FLOOR, KUTCHERY ROAD GOBICHETTIPALAYAM 638 452",222002,GOBICHETTIPAL,ERODE,"TAMIL NADU"
"LAXMI VILAS BANK",LAVB0000277,520056102,GUNTUR,"23 1 97, MAIN ROAD1ST FLOOR, FLOWERBAZAAR GUNTUR 522 003 GUNTUR",2224940,GUNTUR,GUNTUR,"ANDHRA PRADESH"
"LAXMI VILAS BANK",LAVB0000276,625056007,GOPALPATTI,"8 120 MAIN ROAD GOPALPATTI 624 308VEMBARPATTI P O DINDIGUL DT TAMIL N",4512559241,VEMBARPATTI,DINDIGUL,"TAMIL NADU"
"LAXMI VILAS BANK",LAVB0000275,370056001,GANDHIDHAM,"PLOTNO 283 WARD 12 B, MAIN MARKET GANDHIDHAM, KUTCH DT GUJARAT 370 021",225617,GANDHIDHAM,KACHCHH,GUJARAT
"LAXMI VILAS BANK",LAVB0000274,NA,"GANDHIGRAMAM KARUR","54,BHARATHI COMPLEX,TRICHY MAIN ROAD,GANDHIGRAMAM,KARUR 639 004",0,KARUR,KARUR,"TAMIL NADU"
"LAXMI VILAS BANK",LAVB0000243,110056009,FARIDABAD,"1 E BY 17 B.P, NEW INDUSTRIAL TOWN,FARIDABAD, HARYANA 121001",2420018,FARIDABAD,FARIDABAD,HARYANA
"LAXMI VILAS BANK",LAVB0000242,534056002,ELURU,"23B 4 67 SRINIVASA TALKIES ROAD R RPETELURU 534 002 WEST GODAVARI",220640,ELURU,"WEST GODAVARI","ANDHRA PRADESH"
"LAXMI VILAS BANK",LAVB0000241,638056002,ERODE,"77, 1ST FLOOR THIRUVENKADASAMY STREET ERODE 638 001 TAMIL NADU",2214368,ERODE,ERODE,"TAMIL NADU"
"LAXMI VILAS BANK",LAVB0000240,NA,MOOLAPALAYAM,"NO 116 310 NEHRUJI STREET NADAR MEDU ERODE 638002",0,ERODE,ERODE,"TAMIL NADU"
"LAXMI VILAS BANK",LAVB0000233,580056302,DHARWAD,"NO 3 94 MF MARATHA COLONY ROAD KOPPADKERI DHARWAD KARNATAKA 580008",0,DHARWAD,DHARWAD,KARNATAKA
"LAXMI VILAS BANK",LAVB0000232,NA,DURG,"NO 1179 28 DHANRAJ COMPOUND STATION ROAD DURG CHATTISGARH 491001",0,DURG,DURG,CHHATTISGARH
"LAXMI VILAS BANK",LAVB0000231,NA,DONDAPADU,"DONDAPADU VILLAGE, GUNTUR",0,GUNTUR,GUNTUR,"ANDHRA PRADESH"
"LAXMI VILAS BANK",LAVB0000230,NA,"DOMMARA NANDYALA","6/34 KAPU STREET,DOMMARA NANDYALA, MYLAVARAMMANDAL CUDDAPAH",0,CUDDAPAH,CUDAPPAH,"ANDHRA PRADESH"
"LAXMI VILAS BANK",LAVB0000226,NA,DHARAPURAM,"SAP COMPLEX,BLOCK NO.21,WARD NO.6,UDUMALAI ROAD,1ST STREET,DHARAPURAM",0,DHARAPURAM,ERODE,"TAMIL NADU"
"LAXMI VILAS BANK",LAVB0000225,560056009,DEVANAHALLI,"NO.842 BY 205,NEAR OLD BUS STAND,BBROAD,DEVANAHALLI TOWN,BANGALORE DT",27681511,DEVANAHALLI,"BANGALORE RURAL",KARNATAKA
"LAXMI VILAS BANK",LAVB0000224,523056642,DODDAVARAM,"DODDAVARAM VILLAGE,MADDIPADU MANDAL,PRAKASAM DT 523263 ANDHRAPRADESH",271122,DODDAVARAM,PRAKASAM,"ANDHRA PRADESH"
"LAXMI VILAS BANK",LAVB0000223,577056002,DAVANGERE,"323 10, CHIGATERI COMPLEX 1ST FLOOR, CHAMARAJAPET P B NO 91DAVANGERE",257980,DAVANGERE,DAVANGERE,KARNATAKA
"LAXMI VILAS BANK",LAVB0000222,625056006,DINDIGUL,"P N TOWERS, 47 BY 2 1ST FLOOR, PENSIONER STREET P B NO 40DINDIGUL 624",2434018,DINDIGUL,DINDIGUL,"TAMIL NADU"
"LAXMI VILAS BANK",LAVB0000221,636056102,DHARMAPURI,"88 C D, BYE PASS ROAD DHARMAPURI 636 701 TAMIL NADU",260843,DHARMAPURI,DHARMAPURI,"TAMIL NADU"
"LAXMI VILAS BANK",LAVB0000220,NA,DHAMTARI,"DOOR NO 10, OPPOSITE TO MAHAVIR DHARMASTALA, RAIPUR ROAD,DHAMTARI",0,MUMBAI,MUMBAI,MAHARASHTRA
"LAXMI VILAS BANK",LAVB0000216,562056002,CHIKBALLAPUR,"NO 1128 950 10 VENKATESWARA COMPLEX LAKSHMAYYA LAYOUT",0,CHIKBALLAPUR,CHIKBALLAPUR,KARNATAKA
"LAXMI VILAS BANK",LAVB0000215,605056013,CHIDAMBARAM,"NO 39 NORTH CAR STREET CHIDAMBARAM CUDDALORE 608001",0,CHIDAMBARAM,CUDDALORE,"TAMIL NADU"
"LAXMI VILAS BANK",LAVB0000214,NA,CHALAKUDY,"CHEMBANS BUILDING D NO X 478A NORTH BUS STAND JUNCTION MAIN ROAD CHALAKUDY THRISSUR KERALA 680307",0,THRISSUR,THRISSUR,KERALA
"LAXMI VILAS BANK",LAVB0000213,NA,CHANNARAYAPATNA,"659 616 PRABHATH COMPLEX BM ROAD CHANNARAYAPATNA HASSAN",0,HASSAN,HASSAN,KARNATAKA
"LAXMI VILAS BANK",LAVB0000212,NA,CUTTACK,"GROUND FLOOR, KAILASH PLAZA, LINK ROAD",0,CUTTACK,CUTTACK,ODISHA
"LAXMI VILAS BANK",LAVB0000211,NA,CHROMPET,"PLOT NO 17,CLC WORKS ROAD, NAGAPPA NAGAR,CHROMPET,CHENNAI-600044",0,CHENNAI,CHENNAI,"TAMIL NADU"
"LAXMI VILAS BANK",LAVB0000208,NA,CHENGALPET,"NO 37 BY 1,EKAMBARANAR STREET,VEDHACHALAM NAGAR,CHENGALPET",222091,CHENGALPATTU,KANCHEEPURAM,"TAMIL NADU"
"LAXMI VILAS BANK",LAVB0000207,400056011,CHEMBUR,"RUNWAL CLASSIC PLOT NO 257 NEARDIAMOND GARDEN CHEMBUR EAST MUMBAI",25261188,"EAST MUMBAI","GREATER BOMBAY",MAHARASHTRA
"LAXMI VILAS BANK",LAVB0000206,516056002,CUDDAPAH,"D.NO: 5 526,527 OLD,TRUNK ROAD,  CUDDAPPAH 516001",244918,CUDDAPAH,CUDDAPAH,"ANDHRA PRADESH"
"LAXMI VILAS BANK",LAVB0000205,577056502,CHITRADURGA,"S R E COMPLEX HEAD POST OFFICE ROADP B NO 63 CHITRADURGA 577 501",223561,CHITRADURGA,CHITRADURGA,KARNATAKA
"LAXMI VILAS BANK",LAVB0000204,700056002,KOLKATTA,"3 RED CROSS PLACE P B NO 2050 KOLKATA 700 001 WEST BENGAL",22480287,KOLKATA,KOLKATA,"WEST BENGAL"
"LAXMI VILAS BANK",LAVB0000203,625056103,CUMBUM,"64 65, VELAPPAR KOIL STREET 1ST FLOOR, P B NO 5 CUMBUM 625 516 THENI",271320,CUMBUM,THENI,"TAMIL NADU"
"LAXMI VILAS BANK",LAVB0000202,605056003,CUDDALORE,"23, VEDA VINAYAGAR COMPLEX LAWRENCEROAD, 1ST FLOOR CUDDALORE 607 002",235943,CUDDALORE,CUDDALORE,"TAMIL NADU"
"LAXMI VILAS BANK",LAVB0000201,682056002,"COCHIN ERNAKULAM","XXXIX 818CHITTOOR ROAD KARTHIKA 1STFLOOR ERANAKULAM COCHIN 682 016",2376578,KOCHI,ERNAKULAM,KERALA
"LAXMI VILAS BANK",LAVB0000196,NA,"C G NAGAR MADURAI","D NO 70,MEENA COMPLEX,CHANDRA GANDHI NAGAR,BYE PASS ROAD,MADURAI 16",0,MADURAI,MADURAI,"TAMIL NADU"
"LAXMI VILAS BANK",LAVB0000195,641056104,"ECHANARI EXTENSION C","THE KARPAGAM COLLEGE OF ENGINEERING,MYLERIPALAYAM,POLLACHI MAIN ROAD,E",2619292,COIMBATORE,COIMBATORE,"TAMIL NADU"
"LAXMI VILAS BANK",LAVB0000194,641056101,"KOVAIPUDUR EXTENSION","SRI KRISHNA COLLEGE OF ENGINEERINGAND TECHNOLOGY, SUGUNAPURAM,KUNIAMU",0,COIMBATORE,COIMBATORE,"TAMIL NADU"
"LAXMI VILAS BANK",LAVB0000193,641056010,EACHANARY,"226E, POLLACHI MAIN ROAD, ECHANARI,UPPLIPALAYAM 641021 COIMBATORE DT.",2676027,EACHANARY,COIMBATORE,"TAMIL NADU"
"LAXMI VILAS BANK",LAVB0000192,641056009,KOUNDAMPALAYAM,"SITE NO.4, GANDHI NAGAR, METTUPALAYAM ROAD, KOUNDAMPALAYAM,COIMBATORE",2448540,COIMBATORE,COIMBATORE,"TAMIL NADU"
"LAXMI VILAS BANK",LAVB0000191,641056008,"UPPILIPALAYAM COIMBA","NO 1 HEAD QUARTERS ROAD 1ST FLOOR UPPILIPALAYAM COIMBATORE 641 018 TAM",2300630,COIMBATORE,COIMBATORE,"TAMIL NADU"
"LAXMI VILAS BANK",LAVB0000190,641056007,"R S PURAM COIMBATORE","121 THIRUVENKATAM ROAD WEST R S PURAM COIMBATORE 641002 TAMILNADU",2543482,COIMBATORE,COIMBATORE,"TAMIL NADU"
"LAXMI VILAS BANK",LAVB0000189,641056006,RAMANATHAPURAM,"RN MALLIGA COMPLEX 750 A TRICHY ROAD 1ST FLOOR RAMANATHAPURAM COIMBATO",2313584,COIMBATORE,COIMBATORE,"TAMIL NADU"
"LAXMI VILAS BANK",LAVB0000188,641056005,"KOVAIPUDUR COIMBATOR","T 25 P B NO 2 KOVAIPUDUR COIMBATORE641 042 TAMIL NADU",2607542,COIMBATORE,COIMBATORE,"TAMIL NADU"
"LAXMI VILAS BANK",LAVB0000187,641056004,"GANDHIPURAM COIMBATO","KLG COMPLEX 226 1ST FLOOR 5TH STREET GANDHIPURAM COIMBATORE 641 012",2232123,COIMBATORE,COIMBATORE,"TAMIL NADU"
"LAXMI VILAS BANK",LAVB0000186,641056003,"GANAPATHY COIMBATORE","GOPAL BUILDING 1157 SATHY ROAD NEART N BUS STOP GANAPATHY COIMBATORE",2331983,COIMBATORE,COIMBATORE,"TAMIL NADU"
"LAXMI VILAS BANK",LAVB0000185,641056002,"COIMBATORE MAIN","COIMBATORE,68 OPPANAKKARA STREET GROUND FLOOR NEXT TO GIRLS SCHOOL COI",2397439,COIMBATORE,COIMBATORE,"TAMIL NADU"
"LAXMI VILAS BANK",LAVB0000184,517056102,CHITTOOR,"11 446, O T K ROAD P B NO 44 CHITTOOR 517 001 ANDHRA PRADESH",232182,CHITTOOR,CHITTOOR,"ANDHRA PRADESH"
"LAXMI VILAS BANK",LAVB0000183,638056003,CHITTODE,"117, BHAVANI MAIN ROAD P B NO 1 CHITTODE 638 102 ERODE",2533288,CHITTODE,ERODE,"TAMIL NADU"
"LAXMI VILAS BANK",LAVB0000182,639056010,CHINNADARAPURAM,"10 182 MAIN ROAD CHINNADHARAPURAM 639 202 KARUR DT TAMIL NADU",232247,CHINNADHARAPUR,KARUR,"TAMIL NADU"
"LAXMI VILAS BANK",LAVB0000181,673056002,"CALICUT KOZHIKODE","9 562 KHADEEJA BUILDINGS 1ST FLOORP B NO 188 CHEROOTY ROAD KOZHIKODE",2366268,CALICUT,KOZHIKODE,KERALA
"LAXMI VILAS BANK",LAVB0000180,560056011,BANASHANKARI,"NO 2465 24TH CROSSBANASHNAKARI II STAGE WARD NO 56",26717001,BANGALORE,"BANGALORE URBAN",KARNATAKA
"LAXMI VILAS BANK",LAVB0000179,400056007,"GHATKOPAR MUMBAI","SHOPNO 3 AND 4 SIDDHI APARTMENTS OPP GURUKHUL SCHOOL TILAK ROAD GHATKO",25163010,MUMBAI,"GREATER BOMBAY",MAHARASHTRA
"LAXMI VILAS BANK",LAVB0000178,400056006,"BORIVILI MUMBAI","SHOPNO 8 KAPOOR APARTMENTS CHANDAVARKAR ROAD BORIVLI",28908783,MUMBAI,"GREATER BOMBAY",MAHARASHTRA
"LAXMI VILAS BANK",LAVB0000177,400056005,"VASHI  MUMBAI","SHOPNO 12 13  14  SHIRIN APARTMENTSPLOTNO. 15 SECTORNO 29 VASHI NAVI",27662533,MUMBAI,"GREATER BOMBAY",MAHARASHTRA
"LAXMI VILAS BANK",LAVB0000176,400056004,"ANDHERI MUMBAI","SWAPNA SADAN P B NO 18708 ANDHERI EAST MUMBAI 400 069",26844262,MUMBAI,"GREATER BOMBAY",MAHARASHTRA
"LAXMI VILAS BANK",LAVB0000175,400056003,"MATUNGA MUMBAI","4 BY 209 B P B NO 26603 MATUNGA EAST MUMBAI 400 019GREAT MUMBAI DT MAH",24070417,MUMBAI,"GREATER BOMBAY",MAHARASHTRA
"LAXMI VILAS BANK",LAVB0000174,400056002,"MUMBAI FORT","64 V B GANDHI MARG  KALAGODA FORT MUMBAI 400001",22672255,MUMBAI,"GREATER BOMBAY",MAHARASHTRA
"LAXMI VILAS BANK",LAVB0000172,620056009,BALASAMUDRAM,"8 BY 5 D1 AND 8 BY 5 EI MAIN ROAD,1ST FLOOR BALASAMUDRAM 621 203 TRIC",254353,BALASAMUDRAM,TIRUCHIRAPALLI,"TAMIL NADU"
"LAXMI VILAS BANK",LAVB0000171,583056102,BELLARY,"16, 1ST FLOOR, AMBLI BAGH CROSS, PB NO 59 BANGALORE ROADBELLARY 583 1",273704,BELLARY,BELLARY,KARNATAKA
"LAXMI VILAS BANK",LAVB0000170,605056006,BHUVANAGIRI,"16, MOHAMADIYAR STREET BHUVANAGIRIMAIN ROAD,BHUVANAGIRI 608 601 CUDDA",241379,BHUVANAGIRI,CUDDALORE,"TAMIL NADU"
"LAXMI VILAS BANK",LAVB0000169,560056101,"CITY MARKET EXTENSIO","STANNS EDUCATIONAL SOCIETY 73840 DRRAJKUMAR ROAD RAJAJI NAGARBAN",22226917,BANGALORE,"BANGALORE URBAN",KARNATAKA
"LAXMI VILAS BANK",LAVB0000168,534056402,BHIMAVARAM,"NO.2717 BY 6,J.P.RAOD,BHIMAVARAM,WEST GODAVARI DT.534 202",225299,BHIMAVARAM,"WEST GODAVARI","ANDHRA PRADESH"
"LAXMI VILAS BANK",LAVB0000167,560056008,"KORAMANGALA BANGALOR","68, KORAMANGALA IND LAYOUT 5TH BLOCK, KORAMANGALA BANGALORE 560 095",25630749,BANGALORE,"BANGALORE URBAN",KARNATAKA
"LAXMI VILAS BANK",LAVB0000166,560056007,"JALAHALLI BANGALORE","907, M E S ROAD MATHIKERE, P O 1STFLOOR SREE COMPLEX, JALAHALLI BANGA",23451836,BANGALORE,"BANGALORE URBAN",KARNATAKA
"LAXMI VILAS BANK",LAVB0000165,560056006,"ULSOOR BANGALORE","153, OLD MADRAS ROAD P B NO 819 ULSOOR BANGALORE 560 008 KARNATAKA",25300371,BANGALORE,"BANGALORE URBAN",KARNATAKA
"LAXMI VILAS BANK",LAVB0000164,560056003,"CITY MARKET BANGALOR","1091, OTC ROAD NAGARATHPET, CITY MARKET BANGALORE 560 002 KARNATAKA",22226917,BANGALORE,"BANGALORE URBAN",KARNATAKA
"LAXMI VILAS BANK",LAVB0000163,560056005,"JAYANAGAR BANGALORE","460 BY 2, 8TH B MAIN ROAD, PTK COMPLEX IVTH BLOCK, JAYANAGAR BANGALORE",26645152,BANGALORE,"BANGALORE URBAN",KARNATAKA
"LAXMI VILAS BANK",LAVB0000162,560056004,"CANTONMENT BANGALORE","141 BY 1, 1ST FLOOR DHARMARAJA KOILSTREET CANTONMENT BANGALORE 560 00",22865433,BANGALORE,"BANGALORE URBAN",KARNATAKA
"LAXMI VILAS BANK",LAVB0000161,560056002,"BANGALORE MAIN","19 B, 1ST FLOOR P B NO 9568 BVK IYENGAR ROAD NEAR ABHINAY THEATRE BANG",22118537,BANGALORE,"BANGALORE URBAN",KARNATAKA
"LAXMI VILAS BANK",LAVB0000160,751056002,BHUBANESHWAR,"PLOT NO622B,JANPATH,SAHEED NAGAR,BHUBANESHWAR 751 007,ORISSA",9338362236,BHUBANESWAR,KHURDA,ODISHA
"LAXMI VILAS BANK",LAVB0000159,311056002,BHILWARA,"SHOP NO3 AND 4,BHANDARI PLAZA,OPPNAGARPARISHAD,BHILWARA311001RAJASTHAN",9351967771,BHILWARA,BHILWARA,RAJASTHAN
"LAXMI VILAS BANK",LAVB0000158,635056004,BARGUR,"KRISHNAGIRI MAIN ROAD,OPP TO LIC,NEAR SANJEEVI THEATRE,BARGUR  635108,",265242,BARGUR,KRISHNAGIRI,"TAMIL NADU"
"LAXMI VILAS BANK",LAVB0000157,625056009,BATLAGUNDU,"14 DASH 13 DASH 16 BY 1RAJAMANI SERVAIBUILDING MELAMANDHAI",262636,BATLAGUNDU,DINDIGUL,"TAMIL NADU"
"LAXMI VILAS BANK",LAVB0000156,563056502,BANGARPET,"MASJID ROAD ADJACENT TO TALUK OFFICE",255591,BANGARPET,KOLAR,KARNATAKA
"LAXMI VILAS BANK",LAVB0000155,560056014,BASAVANGUDI,"R S R BUILDING NO 70GANDHI BAZAAR MAIN ROAD",26620338,BANGALORE,"BANGALORE URBAN",KARNATAKA
"LAXMI VILAS BANK",LAVB0000154,NA,BELGAUM,"10669,NEHRU NAGAR,MAIN ROAD,BELGAUM 590 010",0,BELGAUM,BELGAUM,KARNATAKA
"LAXMI VILAS BANK",LAVB0000153,NA,"BANJARA HILLS","PLOT NO 2,8 2 682,BY B BY 2A,ROAD NUMBER 12,BANJARA HILLS,HYDERABAD 500 034",23734333,HYDERABAD,HYDERABAD,"ANDHRA PRADESH"
"LAXMI VILAS BANK",LAVB0000152,NA,"BTM LAYOUT","NO 281,7TH MAIN,MICO EHBCOS LAYOUT,BTM II STAGE,BANGALORE 560 076",0,BANGALORE,"BANGALORE RURAL",KARNATAKA
"LAXMI VILAS BANK",LAVB0000151,NA,BOMMANAHALLI,"NO 62/1,BOMMANAHALLI INDUSTRIAL AREA,KODICHIKKANAHALLI, BEGUR",0,BANGALORE,BANGALORE,KARNATAKA
"LAXMI VILAS BANK",LAVB0000150,NA,BHOPAL,"KWALITY BUSINESS CENTER, PLOT NO 7, ZONE II",0,BHOPAL,BHOPAL,"MADHYA PRADESH"
"LAXMI VILAS BANK",LAVB0000149,NA,BODUPPAL,"NO 14 EAST HANUMAN NAGAR BODUPPAL MAIN ROAD GHATKESAR MANDAL RANGA REDDY HYDERABAD",0,HYDERABAD,RANGAREDDY,TELANGANA
"LAXMI VILAS BANK",LAVB0000148,NA,BHAVANIPURAM,"NO 76 8 SWATHI THEATRE CENTRE KRAMBAZ ROAD BHAVANIPURAM VIJAYAWADA",0,VIJAYAWADA,KRISHNA,"ANDHRA PRADESH"
"LAXMI VILAS BANK",LAVB0000147,NA,BHARUCH,"NO 30 SILVER SQUARE LINK ROAD BHARUCH GUJARAT",0,BHARUCH,BHARUCH,GUJARAT
"LAXMI VILAS BANK",LAVB0000146,NA,BOISAR,"NO 384 EKTA ENCLAVE NAVAPUR NAKA BOISAR MAHARASHTRA 401501",0,BOISAR,PALGHAR,MAHARASHTRA
"LAXMI VILAS BANK",LAVB0000145,NA,BODINAYAKANUR,"NO 4 JEEVA COMPLEX DEVARAM ROAD BODINAYAKANUR THENI 625513",0,THENI,THENI,"TAMIL NADU"
"LAXMI VILAS BANK",LAVB0000144,NA,"BASAWESHWARA NAGAR","NO 27 80 FEET ROAD KHB COLONY BASAWESHWARA NAGAR BANGALORE KARNATAKA 560079",0,BANGALORE,BANGALORE,KARNATAKA
"LAXMI VILAS BANK",LAVB0000143,625056021,BIBIKULAM,"56 A PT RAJAN MAIN ROAD NARIMEDU",0,MADURAI,MADURAI,"TAMIL NADU"
"LAXMI VILAS BANK",LAVB0000142,560056024,BANNERGHATTA,"NO 108 7 BG ROAD DORESANIPALAYA BANNERGHATTA MAIN ROAD AREKERE BENGALURU 560076",0,BENGALURU,BENGALURU,KARNATAKA
"LAXMI VILAS BANK",LAVB0000140,501056702,ATHVELLY,"NO 3 72 A ATHVELLY MEDCHAL TELANGANA 501401",0,ATHVELLY,MEDCHAL,TELANGANA
"LAXMI VILAS BANK",LAVB0000139,500056019,ALWAL,"NO 1 56 PLOT NO 25 LOYOLA COLLEGE ROAD OLD ALWAL SECUNDERABAD TELANGANA 500010",0,SECUNDERABAD,SECUNDERABAD,TELANGANA
"LAXMI VILAS BANK",LAVB0000138,110056013,"ASHOK VIHAR","C 3 118 ASHOK VIHAR PHASE 2 NEW DELHI 110052",0,DELHI,"NEW DELHI",DELHI
"LAXMI VILAS BANK",LAVB0000137,627056009,AMBASAMUDRAM,"14 NETTAPULI NORTH STREET AMBASAMUDRAM 627401",0,TIRUNELVELI,TIRUNELVELI,"TAMIL NADU"
"LAXMI VILAS BANK",LAVB0000136,NA,"A S RAO NAGAR","NO 1-1-262/5 A S RAO NAGAR ECIL HYDERABAD TELANGANA 500062",0,HYDERABAD,HYDERABAD,TELANGANA
"LAXMI VILAS BANK",LAVB0000135,NA,ADAMBAKKAM,"OLD NO 9 NEW NO 26 MAHALAKSHMI NAGAR 2ND MAIN ROAD ADAMBAKKAM CHENNAI 600088",0,CHENNAI,KANCHEEPURAM,"TAMIL NADU"
"LAXMI VILAS BANK",LAVB0000134,NA,AMMAPET,"NO 431 A TVK ROAD AMMAPET SALEM",0,SALEM,SALEM,"TAMIL NADU"
"LAXMI VILAS BANK",LAVB0000133,NA,ARUPPUKOTTAI,"NO 130 B THIRUCHULI ROAD ARUPPUKOTTAI VIRUDHUNAGAR",0,VIRUDHUNAGAR,VIRUDHUNAGAR,"TAMIL NADU"
"LAXMI VILAS BANK",LAVB0000132,NA,ASHTA,"KANNOD ROAD,OPP TO MUKATI PETROL BUNK",0,ASHTA,ASHTA,"MADHYA PRADESH"
"LAXMI VILAS BANK",LAVB0000131,NA,AMBATTUR,"NO 17A,OLD TOWNSHIP ROAD,AMBATTUR OT,CHENNAI-600058",0,CHENNAI,CHENNAI,"TAMIL NADU"
"LAXMI VILAS BANK",LAVB0000130,NA,ALAPPUZHA,"26/262 K,CITY CENTER BUILDING, PALACE ROAD,GH JUNCTION,ALAPPUZHA",0,ALAPPUZHA,ALAPPUZHA,KERALA
"LAXMI VILAS BANK",LAVB0000129,NA,ANNUR,"NO 25G & 25G2 AVINASHI ROAD, ANNUR,COIMBATORE DIST",0,COIMBATORE,COIMBATORE,"TAMIL NADU"
"LAXMI VILAS BANK",LAVB0000128,NA,ANANTHAVARAPPADU,"D NO 1-86,BUDAMPADU ROAD, ANANTHAVARAPPADU,VATTICHERUKURU",0,ANANTHAVARAPPADU,GUNTUR,"ANDHRA PRADESH"
"LAXMI VILAS BANK",LAVB0000127,NA,ANAKAPALLE,"D NO 11-1-35 MAIN ROAD, ANAKAPALLE, ANAKAPALLE DIST",0,HYDERABAD,VIZAG,"ANDHRA PRADESH"
"LAXMI VILAS BANK",LAVB0000126,NA,AMALAPURAM,"GULLEGUDAM BYEPASS ROAD, AMALAPURAM",0,AMALAPURAM,AMALAPURAM,"ANDHRA PRADESH"
"LAXMI VILAS BANK",LAVB0000125,NA,"NEW ALIPUR KOLKATA II","63,NALINI RANJAN AVENUE,NEW ALIPUR,KOLKATA 700 053",4820900,KOLKATA,KOLKATA,"WEST BENGAL"
"LAXMI VILAS BANK",LAVB0000124,NA,ARASAPPAPILLAIPATTI,"ARASAPPAPILLAIPATTI ARASAPPAPILLAIPATTI POST ODDANCHATRAM TALUK",240289,ODDANCHATRAM,DINDIGUL,"TAMIL NADU"
"LAXMI VILAS BANK",LAVB0000123,625056011,"ANNA NAGAR","DOOR NO HIG 38 80 FEET ROADANNA NAGAR",0,MADURAI,MADURAI,"TAMIL NADU"
"LAXMI VILAS BANK",LAVB0000122,520056202,ANGALAKUDURU,"9 DASH 15 DASH 1 NEAR J H J COLLEGEANGALAKUDURU TENALI",233033,"ANGALAKUDURU TENALI",GUNTUR,"ANDHRA PRADESH"
"LAXMI VILAS BANK",LAVB0000121,500056009,"SIGN BRN AMEERPET","SHOW ROOM NO2 ADITYA TRADE CENTRE AMEERPET HYDERABAD 500038",23734333,AMEERPET,HYDERABAD,"ANDHRA PRADESH"
"LAXMI VILAS BANK",LAVB0000120,504056622,ASIFABAD,"NO.6 58 BY 10,BESIDE CHAITANYA DEGREE  COLLEGE,MAIN ROAD,ASIFABAD 504",868288,ASIFABAD,ADILABAD,"ANDHRA PRADESH"
"LAXMI VILAS BANK",LAVB0000119,636056009,AYOTHIAPATTINAM,"68 B,HARUR MAIN ROAD,AYOTHIAPATTINAM,636 103 SALEM DT,TAMIL NADU",2290052,AYODHYAPATINAM,SALEM,"TAMIL NADU"
"LAXMI VILAS BANK",LAVB0000118,515056002,ANANTHAPUR,"15 BY 284,SAILOX COMPLEX,KAMALA NAGAR,ANANTHAPUR515 001ANDHRA PRADESH",274477,ANANTAPUR,ANANTAPUR,"ANDHRA PRADESH"
"LAXMI VILAS BANK",LAVB0000117,504056002,ADILABAD,"3229 BY 25,B,CANDD,NATIONAL HIGHWAY,ADILABAD504 001ANDHRAPRADESH",232606,ADILABAD,ADILABAD,"ANDHRA PRADESH"
"LAXMI VILAS BANK",LAVB0000116,609056103,AMBAGARATHUR,"67, MAIN ROAD AMBAGARATHUR 609 601PONDICHERRY",252800,AMBAGARATHUR,KARAIKAL,PUDUCHERRY
"LAXMI VILAS BANK",LAVB0000115,388056001,ANAND,"KAPASIA BAZAAR P B NO 155 NEAR ASHOK STHUMBH ANAND 388 001 KHEDA DT",244239,ANAND,ANAND,GUJARAT
"LAXMI VILAS BANK",LAVB0000114,380056002,AHMADABAD,"I FLOOR NAVRANGPURA AHMEDABAD 380 014 GUJARAT",26430787,AHMEDABAD,AHMADABAD,GUJARAT
"LAXMI VILAS BANK",LAVB0000113,624056006,AMBILIKKAI,"4 BY 295, DHARAPURAM ROAD AMBILIKKAI 624 612 DINDIGUL DT , TAMIL NADU",249010,AMBILIKKAI,DINDIGUL,"TAMIL NADU"
"LAXMI VILAS BANK",LAVB0000112,614056104,ALATHUR,"R S NO 143 BY 5 B 1MAIN ROAD ALATHUR 614901 THANJAVUR",226011,ALATHUR,THANJAVUR,"TAMIL NADU"
"LAXMI VILAS BANK",LAVB0000111,638056012,AVALPOONDURAI,"47 A, FIRST FLOOR EASWARAN KOIL STREET P B NO 20 AVALPOONDURAI 638 115",2331260,AVALPOONDURAI,ERODE,"TAMIL NADU"
"LAXMI VILAS BANK",LAVB0000110,636056015,ATTUR,"339 L FIRST FLOOR RANIPET, P B NO 19 CUDDALORE, MAIN ROAD ATTUR 636 10",2240731,ATTUR,SALEM,"TAMIL NADU"
"LAXMI VILAS BANK",LAVB0000109,632056202,ARNI,"M C COMPLEX THATCHUR ROAD P B NO 20ARNI 632 301 VELLORE DT , TAMIL NA",226018,ARNI,TIRUVANNAMALAI,"TAMIL NADU"
"LAXMI VILAS BANK",LAVB0000108,621056002,ARIYALUR,"17 D, VILANGARA STREETP B NO 1 ARIYALUR 621 704 PERAMBALUR DT ,TAMIL N",222040,ARIYALUR,VILLUPURAM,"TAMIL NADU"
"LAXMI VILAS BANK",LAVB0000107,630056003,ARANTANGI,"61, TALUK OFFICE ROAD, ARANTANGI 614 616 PUDUKKOTTAI DT , TAMIL NADU",220571,ARANTANGI,PUDUKKOTTAI,"TAMIL NADU"
"LAXMI VILAS BANK",LAVB0000106,606056004,ARAKANDANALLUR,"138, KAMARAJ ROAD ARAKANDANALLUR 605 752 VILLUPURAM",224244,ARAKANDANALR,VILLUPURAM,"TAMIL NADU"
"LAXMI VILAS BANK",LAVB0000105,620056011,ANBIL,"2 BY 237,MAIN ROAD MANGAMMALPURAM,ANBIL 621 702,TRICHY DT,",2541287,LALGUDI,TIRUCHIRAPALLI,"TAMIL NADU"
"LAXMI VILAS BANK",LAVB0000104,635056302,AMBUR,"NO 87, BROAD BAZAARP B NO 35 AMBUR635802 VELLORE",242126,AMBUR,VELLORE,"TAMIL NADU"
"LAXMI VILAS BANK",LAVB0000103,518056202,ADONI,"12 BY 510 MUNICIPAL MAIN ROAD P B NO 17ADONI 518301KARNOOL DT A P",252427,ADONI,KURNOOL,"ANDHRA PRADESH"
"LAXMI VILAS BANK",LAVB0000102,600056105,"ACCOUNTS DEPT","ADMINISTRATIVE OFFICE,NO2,SALEM MAIN ROAD,KATHAPARAI,KARUR 639006",0,KARUR,KARUR,"TAMIL NADU"
"LAXMI VILAS BANK",LAVB0000101,600056103,"CHENNAI ZO","189,IST FLOOR,AARTHI CHAMBERS, ANNASALAI,CHENNAI 600 006 TAMILNADU",0,CHENNAI,CHENNAI,"TAMIL NADU"
