BANK,IFSC,MICR,BRANCH,ADDRESS,CONTACT,CITY,DISTRICT,STATE
"SARASWAT COOPERATIVE BANK LIMITED",SRCB0SSB024,431564506,"CITY BRANCH JINTUR","SUNDARLAL SAWJI URBAN CO-OP BANK LTD, JINTUR, BRANCH CITY BRANCH,JINTUR, JALNA ROAD, JINTUR, DIST- PARBHANI",0,JINTUR,PARBHANI,MAHARASHTRA
"SARASWAT COOPERATIVE BANK LIMITED",SRCB0SSB023,WAITING,"SUNDERLAL SAVJI CO OP BNAK LTD, MAJALGAON BRANCH","BRANCH MAJALGAON,SAMATA COLONY,OPP NEW BUS STAND,MAJALGAON,BEED",0,MAJALGAON,BEED,MAHARASHTRA
"SARASWAT COOPERATIVE BANK LIMITED",SRCB0SSB022,411564002,"SUNDARLAL SAVJI CO OP BANK LTD PUNE BRANCH","SUNDARLAL SAVJI CO OP BANK LTD,PUNE BRANCH SHOP NO 2/2 B,SARITA CHAMBER,NEW YARA SOCIETY,GANGADHAM CHOWK,BIBWEVADI,PUNE.",0,PUNE,PUNE,MAHARASHTRA
"SARASWAT COOPERATIVE BANK LIMITED",SRCB0SSB021,443564502,"SUNDERLAL SAVJI CO OP BNAK LTD, LONAR BR.","SUNDARLAL SAVJI CO OP BANK LTD.JINTUR BRANCH LONAR,LONI ROAD,MAIN ROAD,DISTRICT BULDHANA",220105,LONAR,BULDHANA,MAHARASHTRA
"SARASWAT COOPERATIVE BANK LIMITED",SRCB0SSB020,443564501,"SUNDARLAL SAWJI URBAN CO-OP. BANK LTD","MAIN ROAD,DEULGAON RAJA",231653,"DEVULGAON RAJA",BULDANA,MAHARASHTRA
"SARASWAT COOPERATIVE BANK LIMITED",SRCB0SSB019,440211253,"SUNDARLAL SAWJI URBAN CO-OP. BANK LTD","PLOT NO.17,17A AARANA,1ST FLOOR,NEAR ITWARI HIGH SCHOOL,DARODKAR CHOWK,LAKHADGANJ,CA ROAD,NAGPUR",2731235,NAGPUR,NAGPUR,MAHARASHTRA
"SARASWAT COOPERATIVE BANK LIMITED",SRCB0SSB018,416211251,"SUNDARLAL SAWJI URBAN CO-OP. BANK LTD","613-1/K,MAHAVEERBHAGWANCHOWK,SECONDLANE,SHAHUPURIDI.KOLHAPUR",2668297,KOLHAPUR,KOLHAPUR,MAHARASHTRA
"SARASWAT COOPERATIVE BANK LIMITED",SRCB0SSB017,444564502,"SUNDARLAL SAWJI URBAN CO-OP. BANK LTD","PANATAI ROAD,ANJANGAON SURJI",243500,"ANJANGAON SURJI",AMRAVATI,MAHARASHTRA
"SARASWAT COOPERATIVE BANK LIMITED",SRCB0SSB016,431564505,"SUNDARLAL SAWJI URBAN CO-OP. BANK LTD","NEW MONDHA,GANGAKHED",222600,GANGAKHED,PARBHANI,MAHARASHTRA
"SARASWAT COOPERATIVE BANK LIMITED",SRCB0SSB015,431564053,"SUNDARLAL SAWJI URBAN CO-OP. BANK LTD","NEW MONDHA,JALNA",229503,JALNA,JALNA,MAHARASHTRA
"SARASWAT COOPERATIVE BANK LIMITED",SRCB0SSB014,431564002,"SUNDARLAL SAWJI URBAN CO-OP. BANK LTD","OAIAAOPE,AAOAD",2341358,AURANGABAD,AURANGABAD,MAHARASHTRA
"SARASWAT COOPERATIVE BANK LIMITED",SRCB0SSB013,431564102,"SUNDARLAL SAWJI URBAN CO-OP. BANK LTD","TARODA NAKA,NANDED",266194,NANDED,NANDED,MAHARASHTRA
"SARASWAT COOPERATIVE BANK LIMITED",SRCB0SSB012,431564251,"SUNDERLAL SAWJI URBAN CO OP BANK LTD","OPP JAWAHAR NAGAR POLICE STATION.",2453381,AURANGABAD,AURANGABAD,MAHARASHTRA
"SARASWAT COOPERATIVE BANK LIMITED",SRCB0SSB011,431564101,"SUNDARLAL SAWJI URBAN CO-OP. BANK LTD","MAHAVEER CHOWK,NANDED",244664,NANDED,NANDED,MAHARASHTRA
"SARASWAT COOPERATIVE BANK LIMITED",SRCB0SSB010,431564203,"SUNDARLAL SAWJI URBAN CO-OP. BANK LTD","SHIVAJINAGAR,BASMATH ROAD,PARBHANI",224122,PARBHANI,PARBHANI,MAHARASHTRA
"SARASWAT COOPERATIVE BANK LIMITED",SRCB0SSB009,431564052,"SUNDARLAL SAWJI URBAN CO-OP. BANK LTD","MAMA CHOWK,JALNA",234708,JALNA,JALNA,MAHARASHTRA
"SARASWAT COOPERATIVE BANK LIMITED",SRCB0SSB008,444564002,"SUNDARLAL SAWJI URBAN CO-OP. BANK LTD","P.H.MARKET,FIRST FLOOR,TILAK ROAD,AKOLA",2440024,AKOLA,KL,MAHARASHTRA
"SARASWAT COOPERATIVE BANK LIMITED",SRCB0SSB007,444564501,"SUNDARLAL SAWJI URBAN CO-OP. BANK LTD","NEAR POST OFFICE,KARANJA",223071,KARANJA,WASHIM,MAHARASHTRA
"SARASWAT COOPERATIVE BANK LIMITED",SRCB0SSB006,431564504,"SUNDARLAL SAWJI URBAN CO-OP. BANK LTD","MAIN ROAD,JAWLA BAZAR",240055,"JAWLA BAZAR",HINGOLI,MAHARASHTRA
"SARASWAT COOPERATIVE BANK LIMITED",SRCB0SSB005,431564503,"SUNDARLAL SAWJI URBAN CO-OP. BANK LTD","MAIN ROAD,SENGAON",250260,SENGAON,HINGOLI,MAHARASHTRA
"SARASWAT COOPERATIVE BANK LIMITED",SRCB0SSB004,431564202,"SUNDARLAL SAWJI URBAN CO-OP. BANK LTD","SUBHASH ROAD,PARBHANI",222217,PARBHANI,PARBHANI,MAHARASHTRA
"SARASWAT COOPERATIVE BANK LIMITED",SRCB0SSB003,431564502,"SUNDARLAL SAWJI URBAN CO-OP. BANK LTD","NAGAR PARISHAD COMPLEX,BASMATH",220052,BASMATH,PARBHANI,MAHARASHTRA
"SARASWAT COOPERATIVE BANK LIMITED",SRCB0SSB002,431564402,"SUNDARLAL SAWJI URBAN CO-OP. BANK LTD","AKOLA ROAD,HINGOLI",221779,HINGOLI,HINGOLI,MAHARASHTRA
"SARASWAT COOPERATIVE BANK LIMITED",SRCB0SSB001,431564501,"SUNDARLAL SAWJI URBAN CO OP BANK LTD","MAIN ROAD JINTUR",220046,JINTUR,PARBHANI,MAHARASHTRA
"SARASWAT COOPERATIVE BANK LIMITED",SRCB0SAM001,400068350,"SAMATA SAH BANK - OSHIWARA","717/718 ADARASH NAGAR,MEW LINK ROAD,OSHIWARA,MUMBAI,400102",6742228,MUMBAI,MUMBAI,MAHARASHTRA
"SARASWAT COOPERATIVE BANK LIMITED",SRCB0NCB014,570275002,"KUVEMPU NAGAR MYSORE","NO.1335 BY A,C AND D BLOCK,PANCHAMANTRA ROAD,KUVEMPU NAGAR,MYSORE-570023",2565666,MYSORE,MYSORE,KARNATAKA
"SARASWAT COOPERATIVE BANK LIMITED",SRCB0NCB013,560275013,BANASAWADI,"NO 45 BY 81,B CHANNASANDRA,5TH MAIN ROAD,KASTURI NAGAR,BANGALORE-560043",25452772,BENGALURU,BENGALURU,KARNATAKA
"SARASWAT COOPERATIVE BANK LIMITED",SRCB0NCB012,560275012,"RAJARAJESHWARI NAGAR","NO.134,4TH PHASE,BEML,BETWEEN 4TH AND 5TH STAGE,NEHARU ROAD,RAJARAJESHARI NAGAR,BANGALORE-560098",28604311,BENGALURU,BENGALURU,KARNATAKA
"SARASWAT COOPERATIVE BANK LIMITED",SRCB0NCB011,560275011,YESHWANTHPUR,"NO.147,60 FEET MAIN ROAD,SHANKAR NAGAR,BANGALORE-560096",23470429,BENGALURU,BENGALURU,KARNATAKA
"SARASWAT COOPERATIVE BANK LIMITED",SRCB0NCB010,560275010,"INDIRA NAGAR","NO.449 AND 450,1ST CROSS,SRI KRISHNA TEMPLE STREET,INDIRANAGAR,BANGALORE-560038",25214434,BENGALURU,BENGALURU,KARNATAKA
"SARASWAT COOPERATIVE BANK LIMITED",SRCB0NCB009,560275009,"ELECTRONIC CITY","NO.2 AND 52,1ST FLOOR MUNI REDDY LAYOUT,KUDLUGATE,HOSUR MAIN ROAD,BANGALORE-560068",25734477,BENGALURU,BENGALURU,KARNATAKA
"SARASWAT COOPERATIVE BANK LIMITED",SRCB0NCB008,560275008,"BANASHANKARI RD STAGE","NO.13 AND 14,1ST CROSS,1ST BLOCK,ANJANEYA NAGAR,BANASHANKARI 3RD STAGE,BANGALORE-560085",26729485,BENGALURU,BENGALURU,KARNATAKA
"SARASWAT COOPERATIVE BANK LIMITED",SRCB0NCB007,560275007,AGRAHARADASARAHALLI,"NO.82 BY 2,1ST A MAIN ROAD,M.C.LAYOUT,BANGALORE-560040",65582602,BENGALURU,BENGALURU,KARNATAKA
"SARASWAT COOPERATIVE BANK LIMITED",SRCB0NCB006,560275006,SADASHIVANAGAR,"NO.5,9TH MAIN,RMV EXTN,SADASHIVANAGAR,BANGALORE-560080",23611508,BENGALURU,BENGALURU,KARNATAKA
"SARASWAT COOPERATIVE BANK LIMITED",SRCB0NCB005,560275005,KORAMANGALA,"NO.6,ROYAL ARCADE BUILDING,100 FT ROAD,KORAMANGALA,BANGALORE-560095",65650542,BENGALURU,BENGALURU,KARNATAKA
"SARASWAT COOPERATIVE BANK LIMITED",SRCB0NCB004,WAITING,"BANASHANKARI 2ND STAGE","NO.1998,8TH MAIN,23RD CROSS,BSK II STAGE,BANGALORE-560070",26716612,BENGALURU,BENGALURU,KARNATAKA
"SARASWAT COOPERATIVE BANK LIMITED",SRCB0NCB003,WAITING,JAYANAGAR,"NO.309 BY 1 9TH MAIN,5TH BLOCK,JAYANAGAR,BANGALORE 560041",26650030,BENGALURU,BENGALURU,KARNATAKA
"SARASWAT COOPERATIVE BANK LIMITED",SRCB0NCB002,WAITING,"GANDHI BAZAAR","NO.73 BY 1,GANDHIBAZAAR MAIN ROAD,BASAVANGUDI,BENGALURU-5600004",26618092,BENGALURU,BENGALURU,KARNATAKA
"SARASWAT COOPERATIVE BANK LIMITED",SRCB0NCB001,WAITING,"HEAD OFFICE","NO.73 BY 1 ADMINISTRATIVE OFFICE,GANDHIBAZAAR MAIN ROAD,BASAVANGUDI,BENGALURU-560004",26618092,BENGALURU,BENGALURU,KARNATAKA
"SARASWAT COOPERATIVE BANK LIMITED",SRCB0MSBLPN,411175005,"MAHESH SAHAKARI BANK MARKET YARD","PLOT NO.372/73/74,MARKET YARD",24263341,PUNE,PUNE,MAHARASHTRA
"SARASWAT COOPERATIVE BANK LIMITED",SRCB0MCB012,WAITING,"MAHILA CO-OP BANK TUMKUR","12,IST FLOOR,MANJUNATHA NILAYA,CHICKET ROAD,OLD MARKET SQUARE,NEAR KOTE ANJANEYA TEMPLE,TUMKUR-572101",0,TUMKUR,TUMKUR,KARNATAKA
"SARASWAT COOPERATIVE BANK LIMITED",SRCB0MCB011,571267552,"MAHILA CO-OP BANK RAMANAGAR","2/689/196/197,HANUMANTHANAGAR,JALAMANGALA MN ROAD,NEAR HONNAMMA KALYANA MANTAPA,RAMANAGAR-562159",27272627,"RAMANAGARA TOWN","BANGALORE URBAN",KARNATAKA
"SARASWAT COOPERATIVE BANK LIMITED",SRCB0MCB010,560267010,"MAHILA CO-OP BANK R R NAGAR","2,BASAVESWARA CIRCLE,BEML LAYOUT,3RD STAGE,RAJARAJESWARI NAGAR,BANGALORE-560098",28607173,BANGALORE,"BANGALORE URBAN",KARNATAKA
"SARASWAT COOPERATIVE BANK LIMITED",SRCB0MCB009,560267009,"MAHILA CO-OP BANK PEENYA DASARAHALLI","13,KANNADA KASTURI ROAD,TDASARAHALLI,BANGALORE-560040",28395800,BANGALORE,"BANGALORE URBAN",KARNATAKA
"SARASWAT COOPERATIVE BANK LIMITED",SRCB0MCB008,560267008,"MAHILA CO-OP BANK VIJAYANAGAR","1065/66,11TH MN ROAD,4TH CROSS,R.P.C.LAYOUT,VIJAYANAGAR,BANGALORE-560040",23401483,BANGALORE,"BANGALORE URBAN",KARNATAKA
"SARASWAT COOPERATIVE BANK LIMITED",SRCB0MCB007,560267007,"MAHILA CO-OP BANK GANGANAGAR","95/1,F.K.PLAZA,GROUND FLOOR,10TH CROSS,CBI MN ROAD,GANGANAGAR,BANGALORE-560032",23434319,BANGALORE,"BANGALORE URBAN",KARNATAKA
"SARASWAT COOPERATIVE BANK LIMITED",SRCB0MCB006,560267006,"MAHILA CO-OP BANK MATHIKERE","11,MITHRALAYA,M.S.RAMAIAH ROAD,MATHIKERE,BANGALORE-560054",23601649,BANGALORE,"BANGALORE URBAN",KARNATAKA
"SARASWAT COOPERATIVE BANK LIMITED",SRCB0MCB005,560267005,"MAHILA CO-OP BANK BTM LAYOUT","37,PAMDI HOUSE,1ST CROSS,VYSYA BANK COLONY II STAGE,BTM LAYOUT,BANGALORE-560076",26681011,BANGALORE,"BANGALORE URBAN",KARNATAKA
"SARASWAT COOPERATIVE BANK LIMITED",SRCB0MCB004,560267004,"MAHILA CO-OP BANK BANASHANKARI","100/A,50 FEET ROAD,BANASHANKARI IST STAGE,BANGALORE-50",26615723,BANGALORE,"BANGALORE URBAN",KARNATAKA
"SARASWAT COOPERATIVE BANK LIMITED",SRCB0MCB003,560267003,"MAHILA CO-OP BANK BASAVESWARANAGARA","460,80 FEET ROAD,3RD STAGE,W.C.ROAD,BASAVESWARANAGAR,BANGALORE-560079",23223659,BANGALORE,"BANGALORE URBAN",KARNATAKA
"SARASWAT COOPERATIVE BANK LIMITED",SRCB0MCB002,560267002,"MAHILA CO-OP BANK SESHADRIPURAM","14,SOUTH END ROAD,SESHADRIPURAM,BANGALORE-560020",23465678,BANGALORE,"BANGALORE URBAN",KARNATAKA
"SARASWAT COOPERATIVE BANK LIMITED",SRCB0MCB001,WAITING,"MAHILA CO-OP BANK ADMINISTRATIVE OFFICE","14,SOUTH END ROAD,SESHADRIPURAM,BANGALORE-20",23562229,BANGALORE,"BANGALORE URBAN",KARNATAKA
"SARASWAT COOPERATIVE BANK LIMITED",SRCB0LUB262,226185262,"LUCKNOW URBAN CO OP BANK LTD","190 TULSIDAS MARG",2263534,LUCKNOW,LUCKNOW,"UTTAR PRADESH"
"SARASWAT COOPERATIVE BANK LIMITED",SRCB0KNS014,400077014,"KURLA N S BANK THANE","MAKHICHA BUILDING, NEAR COLLECTOR OFFICE, SUBHASH ROAD, THANE WEST TELEPHONE 2540 8447",25408447,THANE,THANE,MAHARASHTRA
"SARASWAT COOPERATIVE BANK LIMITED",SRCB0KNS013,400077013,"KURLA N S BANK VASHI","F1 B1, 1ST FLOOR, ADITI APARTMENT, NEAR SHABARI HOTEL, SECTOR9, VASHI 400 706",27880061,"NEW BOMBAY",THANE,MAHARASHTRA
"SARASWAT COOPERATIVE BANK LIMITED",SRCB0KNS012,400077012,"KURLA N S BANK CHEMBUR","BALRAM NIVAS, NEAR ASHISH CINEMA, LAXMI COLONY, CHEMBUR, MUMBAI 400 074",25547928,MUMBAI,MUMBAI,MAHARASHTRA
"SARASWAT COOPERATIVE BANK LIMITED",SRCB0KNS011,400077011,"KURLA N S BANK GHATKOPAR","JOYTI CHAMBERS, HIRACHAND DESAI ROAD , NR. BATA SHOWROOM, KHOT LANE. GHATKOPAR WEST 400 086",25024987,MUMBAI,MUMBAI,MAHARASHTRA
"SARASWAT COOPERATIVE BANK LIMITED",SRCB0KNS010,400077010,"KURLA N S BANK SAKINAKA","SAGAR PLAZA, NEAR SAKINAKA JUNCTION, KURLA ANDHERI ROAD, SAKINAKA, MUMBAI 400 072",28500173,MUMBAI,MUMBAI,MAHARASHTRA
"SARASWAT COOPERATIVE BANK LIMITED",SRCB0KNS009,400077009,"KURLA N S BANK MULUND","OMANKAR SOCIETY, GAVANPADA ROAD, MULUND EAST, MUMBAI 400 081",25633133,MUMBAI,MUMBAI,MAHARASHTRA
"SARASWAT COOPERATIVE BANK LIMITED",SRCB0KNS007,400077007,"KURLA N S BANK BHANDUP EAST","KUNAL APARTMENT, NEAR SANJAY APPARTMENT, BHANDUP VILLAGE ROAD, BHANDUP EAST, MUMBAI 400 042",25690221,MUMBAI,MUMBAI,MAHARASHTRA
"SARASWAT COOPERATIVE BANK LIMITED",SRCB0KNS006,400077006,"KURLA N S BANK KAJUPADA","SIDDHART APARTMENT, KAJUPADA PIPELINE, KURLA WEST, MUMBAI 400 072",28515310,MUMBAI,MUMBAI,MAHARASHTRA
"SARASWAT COOPERATIVE BANK LIMITED",SRCB0KNS005,400077005,"KURLA N S BANK GOVANDI","SHILPSHREE APPARTMENT, OPP. PATAVARDHAN HIGH SCHOOL, GOVANDI STATION, MUMBAI 400 088",25580786,MUMBAI,MUMBAI,MAHARASHTRA
"SARASWAT COOPERATIVE BANK LIMITED",SRCB0KNS004,400077004,"KURLA N S BANK BHANDUP WEST","OPP. JAI HIND OIL MIL, L.B.S. MARG,NEAR MAGATRAM PETROL PUMP, BHANDUP WEST, MUMBAI 400 078",25947302,MUMBAI,MUMBAI,MAHARASHTRA
"SARASWAT COOPERATIVE BANK LIMITED",SRCB0KNS003,400077003,"KURLA N S BANK STATION ROAD","BANK HOUSE, STATION ROAD, KURLA WEST, MUMBAI 400 070",26501259,MUMBAI,MUMBAI,MAHARASHTRA
"SARASWAT COOPERATIVE BANK LIMITED",SRCB0KNS002,NA,"KURLA N S BANK BARVE ROAD","KURLA HIGH SCHOOL, NEAR STATION, KURLA WEST, MUMBAI 400 070",26506185,MUMBAI,"GREATER BOMBAY",MAHARASHTRA
"SARASWAT COOPERATIVE BANK LIMITED",SRCB0KNS001,400077001,"KURLA N S BANK HO","COMMERCIAL A WING,KOHINOOR CITY MALL,KIROL ROAD,OFF LBS MARG,KURLA WEST MUMBAI 400070",67294300,MUMBAI,MUMBAI,MAHARASHTRA
"SARASWAT COOPERATIVE BANK LIMITED",SRCB0JCB012,444808502,"JIJAU COMMERCIAL CO-OP BANK LTD. CHANDUR BAZAR","3/1 B,GROUND FLOOR,IN FRONT OF PANCHAYAT SAMITI,AMRAVATI ROAD,CHANDUR BAZAR,DIST-AMRAVATI.",444704,"CHANDUR BAZAR",AMRAVATI,MAHARASHTRA
"SARASWAT COOPERATIVE BANK LIMITED",SRCB0JCB011,WAITING,"JIJAU COMMERCIAL CO-OP BANK LTD. NAGPUR","C/O MAHARASHTRA SEVA SANGHA,1 ST FLOOR,WARD NO.75,BHAMTINIT PLO,BHAUSAHEB SURVE NAGAR,NEAR TRIMURTI NAGAR,NAGPUR",440022,NAGPUR,NAGPUR,MAHARASHTRA
"SARASWAT COOPERATIVE BANK LIMITED",SRCB0JCB010,444808105,"JIJAU COMMERCIAL CO-OP BANK LTD. SAI NAGAR","SURVEY NO.29/1,PLOT NO.24,RAGHUVIR NAGAR,NEAR SAI NAGAR SQUARE,AMRAVATI.",444607,AMRAVATI,AMRAVATI,MAHARASHTRA
"SARASWAT COOPERATIVE BANK LIMITED",SRCB0JCB009,444808104,"JIJAU COMMERCIAL CO-OP BANK LTD. MOTI NAGAR","NEAR SHREE SWAMI SAMARTH TEMPLE,YASHODA NAGAR ROAD,MOTINAGAR,AMRAVATI.",444606,AMRAVATI,AMRAVATI,MAHARASHTRA
"SARASWAT COOPERATIVE BANK LIMITED",SRCB0JCB008,445834002,"JIJAU COMMERCIAL CO-OP BANK LTD, YAWATMAL BRANCH","NEAR HOTEL MAI,SHIVAJI NAGAR,ARNI ROAD",245605,YAWATMAL,YAWATMAL,MAHARASHTRA
"SARASWAT COOPERATIVE BANK LIMITED",SRCB0JCB007,444808102,"JIJAU COMMERCIAL CO-OP BANK LTD, KATHORA ROAD BRANCH","JAI AMBA SANKUL,KATHORA ROAD",2531554,AMRAVATI,AMRAVATI,MAHARASHTRA
"SARASWAT COOPERATIVE BANK LIMITED",SRCB0JCB006,444808501,"JIJAU COMMERCIAL CO-OP BANK LTD, DARYAPUR BRANCH",ERKHREDIVIKRISMITI,235057,DARYAPUR,AMRAVATI,MAHARASHTRA
"SARASWAT COOPERATIVE BANK LIMITED",SRCB0JCB005,444808052,"JIJAU COMMERCIAL CO-OP BANK LTD, ACHALPUR CAMP BRANCH","JAISTAMBH CHOWK",221056,ACHALPUR,AMRAVATI,MAHARASHTRA
"SARASWAT COOPERATIVE BANK LIMITED",SRCB0JCB004,444808002,"JIJAU COMMERCIAL CO-OP BANK LTD, AKOLA BRANCH","HARSH SANKUL,AHEAD R.L.T.COLLEGE,CIVIL LINE",2414155,AKOLA,AKOLA,MAHARASHTRA
"SARASWAT COOPERATIVE BANK LIMITED",SRCB0JCB003,444808103,"JIJAU COMMERCIAL CO-OP BANK LTD, GADGE NAGAR BRANCH","AATCOMPLEX,EARLICOFFICE,GADGEAGAR",2553556,AMRAVATI,AMRAVATI,MAHARASHTRA
"SARASWAT COOPERATIVE BANK LIMITED",SRCB0JCB002,444808101,"JIJAU COMMERCIAL CO-OP BANK LTD, MAIN BRANCH","1ST FLOOR,KHATRI COMPLEX,WALCUT COMPOUND,AMRAVATI",2570056,AMRAVATI,AMRAVATI,MAHARASHTRA
"SARASWAT COOPERATIVE BANK LIMITED",SRCB0JCB001,444808000,"JIJAU COMMERCIAL CO-OP BANK LTD, HEAD OFFICE","1ST FLOOR,KHATRI COMPLEX,WALCUT COMPOUND,AMRAVATI",2560057,AMRAVATI,AMRAVATI,MAHARASHTRA
"SARASWAT COOPERATIVE BANK LIMITED",SRCB0CNS016,400806016,"THE CHEMBUR NAGARIK SAHAKARI BANK LTD.GHATKOPAR BRANCH","GHATKOPAR DAKSHANTA CO OP HSG.SOC LTD.RAMABAI NAGAR,AMINITY BLDG,RAMABAI NAGAR,GHATKOPAR EAST MUMBAI 400075",8655556456,MUMBAI,MUMBAI,MAHARASHTRA
"SARASWAT COOPERATIVE BANK LIMITED",SRCB0CNS015,400806015,"THE CHEMBUR NAGARIK SAHAKARI BANK LTD.THANE BRANCH","SHOP NO.1 & 4 B & C WING,SHREE GAJANAN HEIGHTS,SAWANTWADI,KAMANAGAR HOSPITAL ROAD,RAMCHANDRA NAGAR-1,THANE-400075",25802226,THANE,THANE,MAHARASHTRA
"SARASWAT COOPERATIVE BANK LIMITED",SRCB0CNS014,400806014,"THE CHEMBUR NAGARI SAHAKARI BANK LTD - PANVEL BRANCH","SHOP NO.7/8, SAI PLAZA CO-OP HSG. SOCT., PLOT NO. 16, SECTOR 15A, NEW PANVEL (E)- 410206",27450023,"NEW MUMBAI",RAIGAD,MAHARASHTRA
"SARASWAT COOPERATIVE BANK LIMITED",SRCB0CNS013,400806013,"CHEMBUR NAGARIK SAHAKARI BANK - VIKHROLI","SHOP NO.29,HAZARI BAUG,STATION ROAD,VIKHROLI,MUMBAI -400083",25771056,MUMBAI,"GREATER BOMBAY",MAHARASHTRA
"SARASWAT COOPERATIVE BANK LIMITED",SRCB0CNS012,400806012,"CHEMBUR NAGARIK SAHAKARI BANK - KHARGHAR","SHOP NO.1,2,SHRI LAXMAN VILLA,PLOT NO.44,SECTOR NO 4,BELPADA,KHARGHAR,NAVI MUMBAI -410210",27747741,MUMBAI,"GREATER BOMBAY",MAHARASHTRA
"SARASWAT COOPERATIVE BANK LIMITED",SRCB0CNS011,400806011,"CHEMBUR NAGARIK SAHAKARI BANK - PRATIKSHA NAGAR","R.NO.714,WP 14,SARDAR NAGAR NO.1,JAISHANKAR YAGNIK ROAD,PRATIKSHA NAGAR,SION,MUMBAI -400022",24031464,MUMBAI,"GREATER BOMBAY",MAHARASHTRA
"SARASWAT COOPERATIVE BANK LIMITED",SRCB0CNS010,400806010,"CHEMBUR NAGARIK SAHAKARI BANK - BHANDUP","SHOP NO.12-14,A WING,SHIVSAGAR COMPLEX,BHANDUP,MUMBAI -400078",25964640,MUMBAI,"GREATER BOMBAY",MAHARASHTRA
"SARASWAT COOPERATIVE BANK LIMITED",SRCB0CNS009,400806009,"CHEMBUR NAGARIK SAHAKARI BANK - MANKHURD","SHOP NO.15-138,CEN 039,MOHTE PATIL NAGAR,MANKHURD PANVEL LINK ROAD,MANKHURD,MUMBAI -400043",25572324,MUMBAI,"GREATER BOMBAY",MAHARASHTRA
"SARASWAT COOPERATIVE BANK LIMITED",SRCB0CNS008,400806008,"CHEMBUR NAGARIK SAHAKARI BANK - GHATKOPAR","SHOP NO.1 & 2,EAGLE CHS,KARMVIHAR BLDG,B WING,PANT NAGAR,GHTKOPAR,MUMBAI -400077",21020570,MUMBAI,"GREATER BOMBAY",MAHARASHTRA
"SARASWAT COOPERATIVE BANK LIMITED",SRCB0CNS007,400806007,"CHEMBUR NAGARIK SAHAKARI BANK - KOPARKHAIRNE","CHANNEL TOWER,PLOT NO.75,SECTOR 18,KOPARKHAIRNE,VASHI,NAVI MUMBAI -400709",27552391,MUMBAI,"NAVI MUMBAI",MAHARASHTRA
"SARASWAT COOPERATIVE BANK LIMITED",SRCB0CNS006,400806006,"CHEMBUR NAGARIK SAHAKARI BANK - GOVANDI","GALA NO.4/5/6,SAGAR DARSHAN APARTMENT,STATION ROAD,GOVANDI,MUMBAI -400088",25551288,MUMBAI,"GREATER BOMBAY",MAHARASHTRA
"SARASWAT COOPERATIVE BANK LIMITED",SRCB0CNS005,400806005,"CHEMBUR NAGARIK SAHAKARI BANK - MAHUL","ANIK CO-OP HSG.SOCIETY,R C MARG,VASHI NAKA,MAHUL ROAD,MUMBAI -400074",25541050,MUMBAI,"GREATER BOMBAY",MAHARASHTRA
"SARASWAT COOPERATIVE BANK LIMITED",SRCB0CNS004,400806004,"CHEMBUR NAGARIK SAHAKARI BANK - CHUNABHATTI","SHOP NO.1,LAXMINIWAS,GULMOHAR LANE,V N PURAV MARG,CHUNABHATTI,MUMBAI -400022",24056950,MUMBAI,"GREATER BOMBAY",MAHARASHTRA
"SARASWAT COOPERATIVE BANK LIMITED",SRCB0CNS003,400806003,"CHEMBUR NAGARIK SAHAKARI BANK - CHEETACAMP","G-SECTOR,SHOP NO.2/3,MARKET ROAD,CHEETA CAMP,MUMBAI -400088",25553470,MUMBAI,"GREATER BOMBAY",MAHARASHTRA
"SARASWAT COOPERATIVE BANK LIMITED",SRCB0CNS002,400806002,"CHEMBUR NAGARIK SAHAKARI BANK - CHEMBUR","70-B,KAMAL KUNJ,M D S MARG,CHEMBUR,MUMBAI -400071",25288970,MUMBAI,"GREATER BOMBAY",MAHARASHTRA
"SARASWAT COOPERATIVE BANK LIMITED",SRCB0CNS001,WAITING,"CHEMBUR NAGARIK SAHAKARI BANK-ADMINISTRATION OFFICE","101-103 RUDRESH,19TH ROAD NEAR DR.BABASAHEB AMBEDKAR GARDEN,CHEMBUR,MUMBAI 400071",25276109,MUMBAI,"GREATER BOMBAY",MAHARASHTRA
"SARASWAT COOPERATIVE BANK LIMITED",SRCB0BCB808,507808002,"BHADRADRI C U BANK-GANDHI CHOWK","H NO.3 1 17 AND 18 SUNDER TALKIES ROAD,GANDHI CHOWK,KHAMMAM",220005,KHAMMAM,KHAMMAM,"ANDHRA PRADESH"
"SARASWAT COOPERATIVE BANK LIMITED",SRCB0BCB011,507808007,"BHADRADRI CO-OP URBAN BANK LTD-INDUSTRIAL ESTATE AREA","H.NO.1-2, M S COMPLEX, PRASHANTHI NAGAR, KHANAPURAM HAVELI, KHAMMAM(URBAN), TELANAGANA",239967,KHAMMAM,KHAMMAM,TELANGANA
"SARASWAT COOPERATIVE BANK LIMITED",SRCB0BCB010,507808006,"BHADRADRI CO-OP URBAN BANK LTD-WARANGAL","H NO.11-10-746/1, GROUND FLOOR, BYPASS ROAD, BARUHANPURAM, KHAMMAM, TELANGANA",239967,KHAMMAM,KHAMMAM,TELANGANA
"SARASWAT COOPERATIVE BANK LIMITED",SRCB0BCB009,507808642,"BHADRADRI C U BANK- MANUGURU","H NO8-2-367,MAIN ROAD,MANUGURU",8746223969,MANUGURU,KHAMMAM,TELANGANA
"SARASWAT COOPERATIVE BANK LIMITED",SRCB0BCB008,507808005,"BHADRADRI C U BANK- ROTARYNAGAR","H.NO.2-4-581,OPP.PARNASALA,ROTARY NAGAR,KHAMMAM",8742229967,KHAMMAM,KHAMMAM,TELANGANA
"SARASWAT COOPERATIVE BANK LIMITED",SRCB0BCB007,507808004,"BHADRADRI C U BANK- MUSTAFANAGAR","H.NO.5-2-246,MAIN ROAD,MUSTAFANAGAR,KHAMMAM",8742233904,KHAMMAM,KHAMMAM,TELANGANA
"SARASWAT COOPERATIVE BANK LIMITED",SRCB0BCB006,507808502,"BHADRADRI C U BANK- MADHIRA","H.NO.10-18,MIRIYALA COMPLEX,MADHIRA",8749273111,MADHIRA,KHAMMAM,TELANGANA
"SARASWAT COOPERATIVE BANK LIMITED",SRCB0BCB005,507808662,"BHADRADRI C U BANK- SATHUPALLY","H.NO.1-144,MAIN ROAD,SATHUPALLY",8761283111,SATHUPALLY,KHAMMAM,TELANGANA
"SARASWAT COOPERATIVE BANK LIMITED",SRCB0BCB004,507808102,"BHADRADRI C U BANK- KOTHAGUDEM","H.NO.6-4-87,GANESH BASTI,KOTHAGUDEM",8744240009,KOTHAGUDEM,KHAMMAM,TELANGANA
"SARASWAT COOPERATIVE BANK LIMITED",SRCB0BCB003,507808582,"BHADRADRI C U BANK- BHADRACHALAM","H.NO.12-1-6/6B,BANK STREET,BHADRACHALAM",8743234657,BHADRACHALAM,KHAMMAM,TELANGANA
"SARASWAT COOPERATIVE BANK LIMITED",SRCB0BCB002,507808003,"BHADRADRI C U BANK MAYURI CENTRE","H NO 11 4 3 NEHRU NAGAR KHAMMAM",8742220007,KHAMMAM,KHAMMAM,TELANGANA
"SARASWAT COOPERATIVE BANK LIMITED",SRCB0001MCB,226185263,"Mansarovar Urban Co-op Bank Ltd","A-969 INDIRA NAGAR",2348245,LUCKNOW,LUCKNOW,"UTTAR PRADESH"
"SARASWAT COOPERATIVE BANK LIMITED",SRCB0000TRE,NA,SBU-TREASURY,"19/21, BOMBAY MUTUAL CHAMBERS, AMBALAL DOSHI MARG, FORT, MUMBAI ┬û 400001",49103434,MUMBAI,"GREATER BOMBAY",MAHARASHTRA
"SARASWAT COOPERATIVE BANK LIMITED",SRCB0000825,400088001,"CICPC DEPT","ERUCHSHAW BUILDING, 1ST FLOOR, 249, DR. D.N. ROAD, FORT, MUMBAI 400 001.",67315455,MUMBAI,"GREATER BOMBAY",MAHARASHTRA
"SARASWAT COOPERATIVE BANK LIMITED",SRCB0000454,400088153,"BRAMHAND BRANCH, THANE","SHOP NO. 13 & 14, RAJ ARCADE, BRAMHAND PHASE-V, AZAD NAGAR, OFF G.B. ROAD, THANE(W)400607",25841365,THANE,THANE,MAHARASHTRA
"SARASWAT COOPERATIVE BANK LIMITED",SRCB0000453,400088150,"SECTOR TWELVE VASHI","OM-NIVAS,PLOT NO.186,SECTOR-12,VASHI,NEW MUMBAI-400703",27667615,"NEW MUMBAI","NEW MUMBAI",MAHARASHTRA
"SARASWAT COOPERATIVE BANK LIMITED",SRCB0000452,400088141,"KATEMANAVLI - KAYAN EAST","3-7, GANESH LAHAR VILLA, KATEMANAVLI,KALYAN(EAST) 421306",2363862,KALYAN,THANE,MAHARASHTRA
"SARASWAT COOPERATIVE BANK LIMITED",SRCB0000451,400088140,"WAGLE ESTATE THANE WEST","SHOP NO.3-4,JAIDEEP EMPHASIS,OPP.ORIENTAL BANK OF COMMERCE,WAGLE ESTATE,THANE,(WEST)-400604",25837761,THANE,THANE,MAHARASHTRA
"SARASWAT COOPERATIVE BANK LIMITED",SRCB0000450,400088151,"KHANDA COLONY,NEW PANVEL","21-25,TULSI HARMONY,PLOT NO.26 & 27,KHANDA COLONY,SECTOR-1,NEW PANVEL-410206.",32031212,PANVEL,RAIGAD,MAHARASHTRA
"SARASWAT COOPERATIVE BANK LIMITED",SRCB0000449,400088143,"SHER-E-PANJAB,ANDHERI -EAST","NIRVANA CORPORATE,GROUND FLOOR,NEAR AMBICA TOWER,JIJA MATA ROAD,OPP AGHADI NAGAR,PUMP HOUSE RD,ANDHERI-EAST,MUMBAI",0,MUMBAI,MUMBAI,MAHARASHTRA
"SARASWAT COOPERATIVE BANK LIMITED",SRCB0000448,400088142,"SAI BABA NAGAR,BORIVALI-WEST","HAPPY HOME CO-OP HOUSING SOCIETY LTD,NEAR J.B.KHOT SCHOOL,SAI BABA NAGAR,BORIVALI-WEST,MUMBAI",0,MUMBAI,MUMBAI,MAHARASHTRA
"SARASWAT COOPERATIVE BANK LIMITED",SRCB0000447,400088152,"ULWE PANVEL","SHOP NO.17,18,19,20,GROUND FLOOR,NEELSIDHI JOYA,PLOT NO.183,SECTOR-20,TALUKA-PANVEL,ULWE,400707.",32031213,PANVEL,RAIGAD,MAHARASHTRA
"SARASWAT COOPERATIVE BANK LIMITED",SRCB0000446,400088149,TURBHE,"1011-1013,CITY MALL,MAYURESH TRADE CENTRE,PLOT NO.4,SECTOR-19,A WING,VASHI-TURBHE ROAD,   TURBHE,NEW MUMBAI,400705",27842234,"NEW MUMBAI","NEW MUMBAI",MAHARASHTRA
"SARASWAT COOPERATIVE BANK LIMITED",SRCB0000445,400088145,"SHIL ROAD- KALYAN WEST","6-7, ARISIA ALTIS, KALYAN SHIL ROAD,KALYAN (WEST)421301",2971661,KALYAN,THANE,MAHARASHTRA
"SARASWAT COOPERATIVE BANK LIMITED",SRCB0000444,400088144,"NEW MANEKLAL ESTATE BRANCH,GHATKOPAR WEST","1,SILVER HARMONY,NEW MANEKLAL ESTATE BRANCH,OFF LBS MARG,GHATKOPAR(WEST)-400086",25166663,MUMBAI,MUMBAI,MAHARASHTRA
"SARASWAT COOPERATIVE BANK LIMITED",SRCB0000443,411088039,NARHE,"14-18,GANESH PLAZA,SURVEY NO.50/24-28,NARHE,TAL.HAVELI,PUNE 411041",24390114,PUNE,PUNE,MAHARASHTRA
"SARASWAT COOPERATIVE BANK LIMITED",SRCB0000442,400088146,"KASARWADAWLI THANE","SHOPS NO.6 TO 10, ITALIAN TECHNOLOGY,OM SAI PLAZA, KASARWADAWLI, GHODBUNDER ROAD, THANE WEST 400602",32031211,THANE,THANE,MAHARASHTRA
"SARASWAT COOPERATIVE BANK LIMITED",SRCB0000441,411088040,UNDRI,"3,GAGAN ARNA SURVEY NO 12,CORINTHIAN CLUB,NIBM ANNEX,TALUKA HAVELI,PUNE",26909075,PUNE,PUNE,MAHARASHTRA
"SARASWAT COOPERATIVE BANK LIMITED",SRCB0000440,411088038,BHOSARI,"SHINDE GRAND SURVEY NO.690,SHEETAL BAUG SOCIETY,OPP.TULJABHAVANI TEMPLE,PUNE NASIK HIGHWAY,BHOSARI,TAL.HAVELI.411039",27112366,PUNE,PUNE,MAHARASHTRA
"SARASWAT COOPERATIVE BANK LIMITED",SRCB0000439,411088042,"WAGHOLI BRANCH ,PUNE","6-8,SHIV PALACE CO-OP HSG.SOC.LTD,PLTO NO.2 & 3,BAKORI ROAD,WAGHOLI,PUNE,412027",65251175,PUNE,PUNE,MAHARASHTRA
"SARASWAT COOPERATIVE BANK LIMITED",SRCB0000438,411088041,RANJANGAON,"703/A,GAT NO.1828,RANJANGAON,TALUKA-SHIRPUR,PUNE 412209",650102,PUNE,PUNE,MAHARASHTRA
"SARASWAT COOPERATIVE BANK LIMITED",SRCB0000437,400088148,"APMC MARKET,VASHI","PLOT NO.50, SECTOR 19-D, OPP. APMC, VASHI, NAVI MUMBAI-400705",27831160,"NEW MUMBAI","NEW MUMBAI",MAHARASHTRA
"SARASWAT COOPERATIVE BANK LIMITED",SRCB0000436,400088147,"VIDYAVIHAR WEST","1-3,DAMJI SHAMJI TRADE CENTRE,VIDYAVIHAR STATION ROAD,VIDYAVIHAR WEST MUMBAI-400086",25134137,MUMBAI,MUMBAI,MAHARASHTRA
"SARASWAT COOPERATIVE BANK LIMITED",SRCB0000435,415088501,LAVEL,"GIT CAMPUS,GHARDA INSTITUTE OF TECHNOLOGY,LAVEL TALUKA-KHED 415708",262640,LAVEL,RATNAGIRI,MAHARASHTRA
"SARASWAT COOPERATIVE BANK LIMITED",SRCB0000434,400088139,ARNALA,"ARNALA HEALTH TRUST,SHREE MAHALAXMI HOSPITAL ANNEX,OPP RAM MANDIR,TIRODKAR WADI VIRAR WEST",2588311,ARNALA,THANE,MAHARASHTRA
"SARASWAT COOPERATIVE BANK LIMITED",SRCB0000433,NA,"HRD DEPARTMENT","EKANATH THAKUR BHAVAN,PRABHADEVI,MUMBAI 400025",66005555,MUMBAI,MUMBAI,MAHARASHTRA
"SARASWAT COOPERATIVE BANK LIMITED",SRCB0000431,NA,MAZGAON,"19,CHETAK APARTMENT,S M S MARG,LOVE LANE,MAZGAON,MUMBAI 400 010",23707475,MUMBAI,"GREATER BOMBAY",MAHARASHTRA
"SARASWAT COOPERATIVE BANK LIMITED",SRCB0000430,411088037,"BHUSARI COLONY","BANDAL CAPITAL, NEAR PMT BUS STAND DEPOT, BHUSARI COLONY, KOTHRUD, PUNE - 411 038.",25286002,PUNE,PUNE,MAHARASHTRA
"SARASWAT COOPERATIVE BANK LIMITED",SRCB0000429,400088134,"SEAWOOD BRANCH, NAVI MUMBAI","SHOP NOS. 11 TO 14, GROUND FLOOR, AMBICA APTS,  PLOT NO. 10, SECTOR 42A, NERUL, NAVI MUMBAI 400706",27714551,"NEW BOMBAY",THANE,MAHARASHTRA
"SARASWAT COOPERATIVE BANK LIMITED",SRCB0000428,452088003,"ANNAPURNA ROAD","DECENT TOWER,SACCHIDANAND NAGAR,ANNAPURNA MAIN ROAD,INDORE,MADHYA PRADESH 452 009",2900040,INDORE,INDORE,"MADHYA PRADESH"
"SARASWAT COOPERATIVE BANK LIMITED",SRCB0000427,NA,ALKAPURI,"ABHINAV COMPLEX,67,VISHWAS COLONY,BELOW VENUS HOSPITAL,JETALPUR ROAD,VADODARA,GUJARAT 390 005",2329001,VADODARA,VADODARA,GUJARAT
"SARASWAT COOPERATIVE BANK LIMITED",SRCB0000426,400088138,"VASAI WEST","ASHOKVAN BUILDING,VASANT KRISHMA COMPLEX,AMBADI ROAD,VASAI W 401 202",2340944,VASAI,THANE,MAHARASHTRA
"SARASWAT COOPERATIVE BANK LIMITED",SRCB0000425,400088137,"BADLAPUR EAST","MADHUKUNJ APT,OLD KATRAP ROAD,AT POST KULGAON,BADLAPUR E,TAL.KALYAN,DIST.THANE 421 503",6530540,THANE,THANE,MAHARASHTRA
"SARASWAT COOPERATIVE BANK LIMITED",SRCB0000424,580088003,DHARWAD,"VISHWA LAXMI ARCADE, P.B.ROAD, DHARWAD, KARNATAKA - 580001",2443396,HUBLI-DHARWAD,DHARWAD,KARNATAKA
"SARASWAT COOPERATIVE BANK LIMITED",SRCB0000423,403088011,SANKHALI,"TARAMAHAL,TARANAGAR,NEAR MARKET YARD,HARVALEM,SANQUELIM BICHOLIM,GOA 403 505",2365677,SANQUELIM,"NORTH GOA",GOA
"SARASWAT COOPERATIVE BANK LIMITED",SRCB0000419,400088133,"MUMBAI CENTRAL BRANCH","B 3 AND 4, SHRI. SANTOSHIMATA CHS, DR. D.B.MARG, MUMBAI CENTRAL, MUMBAI - 400 008",23012024,MUMBAI,"GREATER BOMBAY",MAHARASHTRA
"SARASWAT COOPERATIVE BANK LIMITED",SRCB0000418,400088132,"BANDRA KURLA COMPLEX","MADHAVA COMMERCIAL PREMISES CO.OP. SOC. LTD., PLOT NO. C-4, ┬æE┬Æ BLOCK, BANDRA KURLA COMPLEX, BANDRA (E),MUMBAI- 400 051.",26590965,MUMBAI,"GREATER BOMBAY",MAHARASHTRA
"SARASWAT COOPERATIVE BANK LIMITED",SRCB0000417,WAITING,"I.T. DEPARTMENT","MADHUSHREE, PLOT NO.85, DISTRICT BUSINESS CENTRE, VASHI, NAVI MUMBAI, PIN-400703",41572000,"NAVI MUMBAI",THANE,MAHARASHTRA
"SARASWAT COOPERATIVE BANK LIMITED",SRCB0000416,400088136,PANCHPAKHADI,"NAKSHATRA TOWER,OPP.THANE MUNICIPAL CORPORATION,PANCHPAKHADI,THANE W 400 602",25348645,THANE,THANE,MAHARASHTRA
"SARASWAT COOPERATIVE BANK LIMITED",SRCB0000415,411088036,"SAHAKAR NAGAR","PENTAGON BUILDING, PLOT NO.477 A, PARVATI, KALPANAMATI HOUSING SOCIETY, SAHAKAR NAGAR, PUNE ┬û 411 009",24221211,PUNE,PUNE,MAHARASHTRA
"SARASWAT COOPERATIVE BANK LIMITED",SRCB0000414,400088130,"KALBADEVI BRANCH.","285, PRINCESS STREET, KALBADEVI, MUMBAI- 400 002.",22079406,MUMBAI,"GREATER BOMBAY",MAHARASHTRA
"SARASWAT COOPERATIVE BANK LIMITED",SRCB0000413,400088129,"GOREGAON HUB","MANTHAN HOUSE,OPP.UDYOG BHAVAN,SONAWALA ROAD,GOREGAON HUB,GOREGAON E,MUMBAI 400 063",26864150,MUMBAI,"GREATER BOMBAY",MAHARASHTRA
"SARASWAT COOPERATIVE BANK LIMITED",SRCB0000412,400088131,"THAKUR COMPLEX KANDIVLI EAST BRANCH","SHOP NOS.12 AND 13, VAISHNAV VILLA, OPP. IMPRESSION, NEAR AVENUE HOTEL, THAKUR COMPLEX, KANDIVALI EAST, MUMBAI - 400 101",28546881,MUMBAI,"GREATER BOMBAY",MAHARASHTRA
"SARASWAT COOPERATIVE BANK LIMITED",SRCB0000411,400088125,"AMBERNATH (E) BRANCH","CHANDRAMA, SURYODAYA CO-OP HSG SOCIETY LTD., PLOT NO. 24, AMBERNATH (E), THANE ┬û 421 501",2609292,THANE,THANE,MAHARASHTRA
"SARASWAT COOPERATIVE BANK LIMITED",SRCB0000410,400088128,"SANTACRUZ EAST BRANCH","SHOP NO.2, ORION, GROUND FLOOR, NEHRU ROAD, SANTACRUZ EAST, MUMBAI ┬û 400 059",26175133,MUMBAI,"GREATER BOMBAY",MAHARASHTRA
"SARASWAT COOPERATIVE BANK LIMITED",SRCB0000409,400088127,"HINDU COLONY BRANCH,┬áDADAR (E)","INDIAN EDUCATION SOCIETY, NABAR GURUJI PATH, 6TH LANE, RAJA SHIVAJI VIDYA SANKUL, PLOT NO.135-145, HINDU COLONY, DADAR EAST, MUMBAI ┬û 400 014.",24120460,MUMBAI,"GREATER BOMBAY",MAHARASHTRA
"SARASWAT COOPERATIVE BANK LIMITED",SRCB0000408,577088002,DAVANGERE,"269 / 1,  NEAR MALLIKARJUNA MOTOR AND SCOOTER MART, JAYADEVA CIRCLE ROAD, DAVANGERE, KARNATAKA ┬û 577002.",233452,DAVANGERE,DAVANGERE,KARNATAKA
"SARASWAT COOPERATIVE BANK LIMITED",SRCB0000407,572088002,TUMKUR,"HOTEL SRI VIGNESHWARA COMFORTS, OPP. TUMKUR UNIVERSITY, BH ROAD, TUMKUR, KARNATAKA - 572 102",2277668,TUMKUR,TUMKUR,KARNATAKA
"SARASWAT COOPERATIVE BANK LIMITED",SRCB0000405,400088124,"KOPRI BRANCH","6-11, SAITIRTHA, SIDDHARTH NAGAR, KOPRI COLONY, THANE (EAST) ┬û 400 603",25325016,THANE,THANE,MAHARASHTRA
"SARASWAT COOPERATIVE BANK LIMITED",SRCB0000404,570088002,MYSORE,"2909, KANTHRAJ URS ROAD, SARASWATHIPURAM, MYSORE, KARNATAKA - 570 009",2542266,MYSORE,MYSORE,KARNATAKA
"SARASWAT COOPERATIVE BANK LIMITED",SRCB0000403,400088123,KHOPAT,"G-1, ACKRUTI SMC, NEAR S.T. STAND, KHOPAT NAKA, LBS ROAD, THANE - WEST - 400602",25372175,THANE,THANE,MAHARASHTRA
"SARASWAT COOPERATIVE BANK LIMITED",SRCB0000402,400088122,KAMOTHE,"GREENSCAPE ROYALE, SHOP NO 1 TO 4, PLOT NO. 25, SECTOR 7, KAMOTHE, NAVI MUMBAI - 410209",27431571,KAMOTHE,RAIGAD,MAHARASHTRA
"SARASWAT COOPERATIVE BANK LIMITED",SRCB0000401,400088121,URAN,"MADINA COMPLEX,KARANJIA ROAD, URAN, NAVI MUMBAI - 400702",27231008,URAN,RAIGAD,MAHARASHTRA
"SARASWAT COOPERATIVE BANK LIMITED",SRCB0000400,414088002,"MIDC - AHMEDNAGAR","PLOT NO. X 31-2, NAGPUR-AHMEDNAGAR MIDC, NEAR IT BUILDING, TALUKA AND DIST AHMEDNAGAR - 414111",2777602,AHMEDNAGAR,AHMEDNAGAR,MAHARASHTRA
"SARASWAT COOPERATIVE BANK LIMITED",SRCB0000399,414088001,"SAVEDI ROAD, AHMEDNAGAR","176-3A, PLOT NO 46-8, SAVEDI ROAD, AHMEDNAGAR - 414001",2341120,AHMEDNAGAR,AHMEDNAGAR,MAHARASHTRA
"SARASWAT COOPERATIVE BANK LIMITED",SRCB0000398,390088004,"MANJALPUR, VADODARA","A 8, SHREEJI DHAM SOCIETY, PUSHPALOK, DEEP CHAMBER ROAD, VILLAGE  MANJALPUR, VADODARA - 390011",2643506,VADODARA,VADODARA,GUJARAT
"SARASWAT COOPERATIVE BANK LIMITED",SRCB0000397,400088120,"CBD BELAPUR","SHOP NO 20, 21,37, 38, SHREE NAND DHAM, SECTOR 11, CBD BELAPUR, NAVI MUMBAI - 400614",27560083,"NEW BOMBAY",THANE,MAHARASHTRA
"SARASWAT COOPERATIVE BANK LIMITED",SRCB0000396,401088001,"BOISAR BRANCH","AMEYA PARK, BLDG NO. 2-A, BOISAR ┬û NAVAPURA ROAD, DIST ┬ûTHANE,  BOISAR - 401 501.",278666,BOISAR,THANE,MAHARASHTRA
"SARASWAT COOPERATIVE BANK LIMITED",SRCB0000395,400088118,"AIROLI BRANCH","SHREEJIDHAM COMPLEX, SECTOR 7, AIROLI, NAVI MUMBAI ┬û 400 708.",27602655,"NEW BOMBAY",THANE,MAHARASHTRA
"SARASWAT COOPERATIVE BANK LIMITED",SRCB0000393,444088002,"TILAK ROAD, AKOLA","SHIV DAYA COMPLEX, OPP UDAY THEATRE, TILAK ROAD, AKOLA - 444001",2436611,AKOLA,AKOLA,MAHARASHTRA
"SARASWAT COOPERATIVE BANK LIMITED",SRCB0000392,400088119,BHIWANDI,"J P TOWER, SHOP NO. 1 TO 6, GAURI PADA, DHAMANKAR NAKA, BHIWANDI, DIST. THANE - 421302",230060,BHIWANDI,THANE,MAHARASHTRA
"SARASWAT COOPERATIVE BANK LIMITED",SRCB0000391,390088003,"FATEHGANJ, VADODARA","AIRAVAT BUILDING, PLOT NO. 3, 4, SADHANA NAGAR CHS, FATEHGANJ, MAIN ROAD, VADODARA - 390002",2750586,VADODARA,VADODARA,GUJARAT
"SARASWAT COOPERATIVE BANK LIMITED",SRCB0000390,390088002,"KARELIBAUG, VADODARA","A-49, RANCHOD PARK HSG SOC, NEAR AMIT NAGAR CIRCLE, VIP ROAD, VADODARA - 390018",2481299,VADODARA,VADODARA,GUJARAT
"SARASWAT COOPERATIVE BANK LIMITED",SRCB0000389,411088035,"CHINCHWAD BRANCH","SHOP NO.1,2 AND 3, ELPRO COMMERCIAL COMPLEX, PLOT NO.4270, CHINCHWAD, PUNE 411 033.",27351313,PUNE,PUNE,MAHARASHTRA
"SARASWAT COOPERATIVE BANK LIMITED",SRCB0000388,431088008,"T.V. CENTRE, AURANGABAD","N-11A, PLOT NO 25 TV CENTRE, HUDCO, AURANGABAD - 431003",2243028,AURANGABAD,AURANGABAD,MAHARASHTRA
"SARASWAT COOPERATIVE BANK LIMITED",SRCB0000387,413088002,"BUDHWAR PETH, SOLAPUR","RATHI TOWER, PLOT NO. I 23, BUDHWAR PETH, NEAR NILA NAGAR, SOLAPUR - 413002",2727225,SOLAPUR,SOLAPUR,MAHARASHTRA
"SARASWAT COOPERATIVE BANK LIMITED",SRCB0000386,400088117,"BANDRA (WEST) BRANCH","NATIONAL LIBRARY, OPP. BANDRA TALAO, S.V. ROAD, BANDRA (WEST), MUMBAI 400 050.",26419249,MUMBAI,"GREATER BOMBAY",MAHARASHTRA
"SARASWAT COOPERATIVE BANK LIMITED",SRCB0000385,440088007,"WARDHA ROAD, NAGPUR","MSMC BUILDING, PLOT NO. 7, AJANI SQUARE, WARDHA ROAD, NAGPUR - 440015",2750586,NAGPUR,NAGPUR,MAHARASHTRA
"SARASWAT COOPERATIVE BANK LIMITED",SRCB0000384,440088006,"PRATAP NAGAR, NAGPUR","22, INCOME TAX COLONY, MAIN ROAD, PRATAP NAGAR, NAGPUR - 440022",2243260,NAGPUR,NAGPUR,MAHARASHTRA
"SARASWAT COOPERATIVE BANK LIMITED",SRCB0000383,400088115,"KHARGHAR BRANCH","OFFICE NOS. 15 TO 18,  SWARNA BUILDING,  SECTOR 7,  KHARGHAR,  NAVI MUMBAI 410 210.",27746911,"NEW BOMBAY",THANE,MAHARASHTRA
"SARASWAT COOPERATIVE BANK LIMITED",SRCB0000382,415088002,"SATARA BRANCH","┬æSILVER ARCH┬Æ, PLOT NO.1, SURVEY NO.288/289, NEW RADHIKA ROAD, OPP. KADAM PETROL PUMP, SATARA 415 001.",227455,SATARA,SATARA,MAHARASHTRA
"SARASWAT COOPERATIVE BANK LIMITED",SRCB0000381,411088034,"KATRAJ BRANCH","SUGANDHA TARA ARCADE, SURVEY NO. 83/84, KATRAJ CIRCLE,  KATRAJ,  PUNE 411 028.",24364847,PUNE,PUNE,MAHARASHTRA
"SARASWAT COOPERATIVE BANK LIMITED",SRCB0000380,411088031,"PIMPLE SAUDAGAR","DWARKA LORDS, 30 TO 33,SURVEY NO.122/1+2+3,PIMPLE SAUDAGAR,PUNE 411 027.",27206600,PUNE,PUNE,MAHARASHTRA
"SARASWAT COOPERATIVE BANK LIMITED",SRCB0000379,400088114,"KHADAKPADA - KALYAN","MOHAN HEIGHTS, VAYLE NAGAR, BIRLA COLLEGE HIGHWAY, KHADAKPADA, KALYAN (WEST) ┬û 421 301.",2302208,KALYAN,THANE,MAHARASHTRA
"SARASWAT COOPERATIVE BANK LIMITED",SRCB0000378,400088112,"GHATKOPAR (E)","SAI PLAZA, JAWAHAR ROAD, OPP. GHATKOPAR RAILWAY STATION,  GHATKOPAR (E),  MUMBAI 400 077.",25012167,MUMBAI,"GREATER MUMBAI",MAHARASHTRA
"SARASWAT COOPERATIVE BANK LIMITED",SRCB0000376,411088030,"RAJGURUNAGAR BRANCH","FIRST FLOOR,  VYAPARI SANKUL BLDG., KRISHI UTPANNA BAZAR SAMITI - KHED  SHREE CHATRAPATI SHIVAJI MARKET YARD RAJGURU NAGAR, KHED,  PUNE 410 505.",223377,RAJGURUNAGAR,PUNE,MAHARASHTRA
"SARASWAT COOPERATIVE BANK LIMITED",SRCB0000375,411088033,"KHARADI BRANCH","SHOP NO.4,5 AND 6, SURVEY NO.08-1C, KHARADI BY-PASS ROAD, NEXT TO RADISSON HOTEL, KHARADI,  PUNE 411 014.",27014026,PUNE,PUNE,MAHARASHTRA
"SARASWAT COOPERATIVE BANK LIMITED",SRCB0000374,411088029,"SINHGAD ROAD BRANCH","SHOP NO.101 AND 102, SUN ORBIT, SURVEY NO.12, ANAND NAGAR, VADGAON BUDRUK, SINHGAD ROAD, PUNE 411 051.",24109120,PUNE,PUNE,MAHARASHTRA
"SARASWAT COOPERATIVE BANK LIMITED",SRCB0000373,411088028,"HADAPSAR BRANCH, PUNE","RAVI DARSHAN, SURVEY NO.221, NEAR AKASHVANI, HADAPSAR, PUNE 411 028.",26999081,HADAPSAR,PUNE,MAHARASHTRA
"SARASWAT COOPERATIVE BANK LIMITED",SRCB0000372,411088032,"PIMPLE NILAKH","SILVER SPACE, SURVEY NO.25,JAGTAP DAIRY, VISHAL NAGAR,PIMPLE NILAKH, PUNE 411 027",27276000,PUNE,PUNE,MAHARASHTRA
"SARASWAT COOPERATIVE BANK LIMITED",SRCB0000371,NA,"GANDHAKOSH PUNE","8/3, MADHUBAN, ERANDWANA, KARVE ROAD, PUNE- 411004.",25446891,PUNE,PUNE,MAHARASHTRA
"SARASWAT COOPERATIVE BANK LIMITED",SRCB0000370,411088027,"FATIMA NAGAR BRANCH","SHOWROOM NO.A, ┬æC┬Æ WING, KPCT MALL, FATIMA NAGAR, PUNE 410 040.",26861046,PUNE,PUNE,MAHARASHTRA
"SARASWAT COOPERATIVE BANK LIMITED",SRCB0000369,400088111,KALINA,"CENTRAL PLAZA, 166, C.S.T.ROAD, KALINA, SANTACRUZ (E), MUMBAI 400 098.",26654362,MUMBAI,"GREATER BOMBAY",MAHARASHTRA
"SARASWAT COOPERATIVE BANK LIMITED",SRCB0000368,380088008,MANINAGAR,"3 AND 4, SHYAM DARSHAN, NEAR CHAR RASTA, MANINAGAR, AHMEDABAD 380 008.",25461004,AHMEDABAD,AHMADABAD,GUJARAT
"SARASWAT COOPERATIVE BANK LIMITED",SRCB0000367,395088004,"RING ROAD BRANCH","117, NORTH EXTENSION, NEAR GOLDEN POINT, RING ROAD, SURAT 395 002.",2450083,SURAT,SURAT,GUJARAT
"SARASWAT COOPERATIVE BANK LIMITED",SRCB0000366,380088003,"NARANPURA- WADAJ BRANCH","UNIT NO.10 AND 11, SHIVALIK YASH, 132 FT. RING ROAD,  NARANPURA - WADAJ, AHMEDABAD 380 013.",27492958,AHMEDABAD,AHMADABAD,GUJARAT
"SARASWAT COOPERATIVE BANK LIMITED",SRCB0000365,380088005,"ISANPUR BRANCH","UNIT NO.1 AND 2,  DEV CASTLE, ISANPUR BRANCH,  AHMEDABAD 380 443",25810004,AHMEDABAD,AHMADABAD,GUJARAT
"SARASWAT COOPERATIVE BANK LIMITED",SRCB0000364,380088006,"BAPU NAGAR BRANCH","UNIT NO.12,14,15 AND 16, DEVRAJ, THAKKAR BAPU NAGAR, INDIA COLONY ROAD, AHMEDABAD 380 024.",22777754,AHMEDABAD,AHMADABAD,GUJARAT
"SARASWAT COOPERATIVE BANK LIMITED",SRCB0000363,416088507,"DEVGAD BRANCH","2268, PATANKAR COMPLEX, COLLAGE ROAD CORNER, TAL. DEVGAD, DIST. SINDHUDURG 416 613.",261828,DEVGAD,SINDHUDURG,MAHARASHTRA
"SARASWAT COOPERATIVE BANK LIMITED",SRCB0000362,380088002,"C.G. ROAD BRANCH","3, EYE COMPLEX, UNIT NO.7 AND 8, PANCHVATI,  PANCH RASTA, C.G. ROAD, AHMEDABAD 380 006.",26420313,AHMEDABAD,AHMADABAD,GUJARAT
"SARASWAT COOPERATIVE BANK LIMITED",SRCB0000361,380088004,GHATLODIYA,"8 AND 9, KALASAGAR SHOPPING HUB, NEAR SATTADHAR CROSS ROAD, GHATLODIA, AHMEDABAD 380 061.",29099678,GHATLODIYA,AHMADABAD,GUJARAT
"SARASWAT COOPERATIVE BANK LIMITED",SRCB0000360,425088003,"BALIRAM PETH","R.K. ARCADE,  9, BALIRAM PETH, M.G. ROAD, OPP. M.G. MARKET, JALGAON 425 001.",2233613,JALGAON,JALGAON,MAHARASHTRA
"SARASWAT COOPERATIVE BANK LIMITED",SRCB0000359,395088003,"ADAJAN BRANCH","SHOP NO.4,5 AND 6,  WESTERN CORRIDOR,  PAL HAJIRA ROAD, ADAJAN, SURAT 395 009.",2780186,SURAT,SURAT,GUJARAT
"SARASWAT COOPERATIVE BANK LIMITED",SRCB0000358,110088003,"CONNAUGHT PLACE","L/16, OUTER CIRCLE, CONNAUGHT PLACE, NEW DELHI 110 001.",23414100,DELHI,DELHI,DELHI
"SARASWAT COOPERATIVE BANK LIMITED",SRCB0000357,400088110,"CORPORATE BANKING BRANCH","UNIT NO B1 G01,GROUND FLOOR,MARATHON INNOVA,MARATHON NEXTGEN COMPLEX,GANPATRAO KADAM MARG,LOWER PAREL,MUMBAI-400013",24821801,MUMBAI,"GREATER BOMBAY",MAHARASHTRA
"SARASWAT COOPERATIVE BANK LIMITED",SRCB0000356,400088109,"SME BRANCH - NARIMAN POINT","MITTAL COURT, A WING, 1ST FLOOR, OPP VIDHAN BHAVAN, NARIMAN POINT, MUMBAI - 400 021",43682000,MUMBAI,"GREATER BOMBAY",MAHARASHTRA
"SARASWAT COOPERATIVE BANK LIMITED",SRCB0000354,380088007,"ANAND NAGAR BRANCH","SHOP NO.17, SHANGRILA ARCADE, ANAND NAGAR, PRALHAD NAGAR ROAD, SATELLITE AREA, AHMEDABAD 380 015.",26769351,AHMEDABAD,AHMADABAD,GUJARAT
"SARASWAT COOPERATIVE BANK LIMITED",SRCB0000353,411088025,"VISHRANTWADI BRANCH","KANAKDHARA, A/11, KASTURBA CHS LTD., VISHRANTWADI, PUNE 411 015.",26696172,PUNE,PUNE,MAHARASHTRA
"SARASWAT COOPERATIVE BANK LIMITED",SRCB0000352,411088026,"KONDHAVA BRANCH","PIKASO KEDARI ICON, SURVEY NO.17/1, 5B, 7,9, PLOT NO.4, SALUNKHE VIHAR ROAD, PUNE 411 048.",26851073,PUNE,PUNE,MAHARASHTRA
"SARASWAT COOPERATIVE BANK LIMITED",SRCB0000350,400088108,"MIDC ANDHERI (E)","GROUND FLOOR, PREMIER CHEMICAL, PLOT NO. 38, MIDC, CENTRAL ROAD, ANDHERI EAST, MUMBAI 400093",28324487,MUMBAI,"GREATER BOMBAY",MAHARASHTRA
"SARASWAT COOPERATIVE BANK LIMITED",SRCB0000349,411088024,"BAVDHAN BRANCH","26,27 AND 28, ADITYA SHAGUN MALL, BAVDHAN, PUNE 411021.",22951512,PUNE,PUNE,MAHARASHTRA
"SARASWAT COOPERATIVE BANK LIMITED",SRCB0000348,400088107,"LINK ROAD, GOREGAON (W)","S. N. VRINDAVAN CHS LTD., C. T. S. NO. 219 (PART), BUILDING NO. 9, SHASTRI NAGAR, LINK ROAD, GOREGAON (W), MUMBAI 400 104.",28776248,MUMBAI,"GREATER BOMBAY",MAHARASHTRA
"SARASWAT COOPERATIVE BANK LIMITED",SRCB0000347,415088502,RAJAPUR,"Rajapur Shikshan Prasarak Mandal,Municipal House No.129,Main Road,Rajapur,Dist Ratnagiri 416702",222344,RAJAPUR,RATNAGIRI,MAHARASHTRA
"SARASWAT COOPERATIVE BANK LIMITED",SRCB0000346,396088031,VAPI,"SHOP NO. 2B, 3 & 4, SHANTI COMPLEX, PLOT NO. P/50/1, NEAR RELIANCE MALL, GIDC, VAPI 396 195",2425663,VAPI,VALSAD,GUJARAT
"SARASWAT COOPERATIVE BANK LIMITED",SRCB0000345,400088113,ULHASNAGAR,"RIGENCY HOUSE, OPP. VISHNU NAGAR BLDG., AMAN TALKIES ROAD, ULHASNAGAR, MAHARASHTRA - 421 002.",2732716,ULHASNAGAR,THANE,MAHARASHTRA
"SARASWAT COOPERATIVE BANK LIMITED",SRCB0000344,400088106,VASAI,"HALL-B, RASHMI RESIDENCY, VASAI NALASOPARA LINK ROAD, VASAI EAST, DIST. THANE.",2022911,VASAI,THANE,MAHARASHTRA
"SARASWAT COOPERATIVE BANK LIMITED",SRCB0000343,411088022,"PASHAN BRANCH","SHOP.NO.G1,G2 ORANGE LIFE, SURVEY NO. 140/2, PASHAN-SUS ROAD, PASHAN, PUNE 411 021.",25870092,PUNE,PUNE,MAHARASHTRA
"SARASWAT COOPERATIVE BANK LIMITED",SRCB0000342,411088023,"VIMAN NAGAR","NIKO ANNEXE, NEAR NIKO GARDEN, SURVEY NO.209, VIMANNAGAR PUNE 411 014.",26630226,PUNE,PUNE,MAHARASHTRA
"SARASWAT COOPERATIVE BANK LIMITED",SRCB0000341,400088104,"THAKUR VILLAGE BRANCH","THAKUR PUBLIC SCHOOL, NEAR THAKUR COLLEGE GROUND, THAKUR VILLAGE,  W.E. HIGHWAY, KANDIVLI (E), MUMBAI 400 101.",24671178,MUMBAI,"GREATER BOMBAY",MAHARASHTRA
"SARASWAT COOPERATIVE BANK LIMITED",SRCB0000340,400088105,"SANPADA BRANCH","VIVEKANAND SANKUL, SECTOR 4, SANPADA, NAVI MUMBAI 400 705.",27615292,"NEW BOMBAY",THANE,MAHARASHTRA
"SARASWAT COOPERATIVE BANK LIMITED",SRCB0000339,400088103,"VEERA DESAI ROAD","BHARAT A.R.C., VEERA DESAI ROAD, ANDHERI (W), MUMBAI 400 053.",26742487,MUMBAI,"GREATER BOMBAY",MAHARASHTRA
"SARASWAT COOPERATIVE BANK LIMITED",SRCB0000338,403088010,"BICHOLIM BRANCH","SHOP NO. 8 & 9, SHETYE RESICOM, NEAR MUNICIPALITY, BICHOLIM, GOA -  403 504.",2981372,BICHOLIM,"NORTH GOA",GOA
"SARASWAT COOPERATIVE BANK LIMITED",SRCB0000337,403088009,"PORVORIM BRANCH","SHOP NO. 1 & 1A, COSME COSTA'S NUCLEUS, N.H. 17, PORVORIM, BARDEZ, GOA -  403 521.",2412502,PORVORIM,"NORTH GOA",GOA
"SARASWAT COOPERATIVE BANK LIMITED",SRCB0000336,416088506,"RAMESHWAR PLAZA, KANKAVLI","RAMESHWAR PLAZA, M. K. G. MARG, NEAR PRANT OFFICE, KANKAVLI, DIST.- SINDHUDURG",230241,KANKAVLI,SINDHUDURG,MAHARASHTRA
"SARASWAT COOPERATIVE BANK LIMITED",SRCB0000335,400088099,BHANDUP,"JAYASHREE PLAZA, NEAR DREAM MALL, LABAHADUR SHASTRI MARG, BHANDUP (W), MUMBAI - 400 078.",25667192,MUMBAI,"GREATER BOMBAY",MAHARASHTRA
"SARASWAT COOPERATIVE BANK LIMITED",SRCB0000334,440088005,"HINGNA ROAD","KHASRA NO. 97/1 D, HOUSE NO.651/D, SINGH COMPLEX, OPP. VIP INDUSTRIES, HINGNA ROAD, NAGPUR 440 016.",237022,NAGPUR,NAGPUR,MAHARASHTRA
"SARASWAT COOPERATIVE BANK LIMITED",SRCB0000332,440088004,"CHAPRU NAGAR","91, CHAPRU NAGAR CHOWK, NAGPUR 440 008.",2730260,NAGPUR,NAGPUR,MAHARASHTRA
"SARASWAT COOPERATIVE BANK LIMITED",SRCB0000331,400088101,"LOWER PAREL","SHOP NO.14, ORBIT ETERNIA, N.M. JOSHI MARG, LOWER PAREL, MUMBAI - 400 013.",24378832,MUMBAI,"GREATER BOMBAY",MAHARASHTRA
"SARASWAT COOPERATIVE BANK LIMITED",SRCB0000325,560088006,BANASHANKARI,"CHANDAN BUILDING,  4TH CROSS, 7TH BLOCK, W K P ROAD,  JAYANAGAR, BENGALURU - 560 082",26763815,BANGALORE,"BANGALORE URBAN",KARNATAKA
"SARASWAT COOPERATIVE BANK LIMITED",SRCB0000324,560088005,CHAMRAJPETH,"AMBIKA, SITE NO.10, SHANKARMATH ROAD, K.G. NAGAR, CHAMRAJPETH, BENGALURU - 560 018.",26600050,BANGALORE,"BANGALORE URBAN",KARNATAKA
"SARASWAT COOPERATIVE BANK LIMITED",SRCB0000323,560088001,"GANDHI NAGAR","1 AND 2, PAMADI TOWERS, FIRST MAIN ROAD, GANDHI NAGAR, BENGALURU - 560 009.",22341151,BANGALORE,"BANGALORE URBAN",KARNATAKA
"SARASWAT COOPERATIVE BANK LIMITED",SRCB0000322,560088004,JAYANAGAR,"SRI VENKATESHWARA ARCADE, 33RD CROSS, 4TH T BLOCK, JAYANAGAR EXTENSION, BENGALURU ┬û 560 004.",26532276,BANGALORE,"BANGALORE URBAN",KARNATAKA
"SARASWAT COOPERATIVE BANK LIMITED",SRCB0000321,560088003,MALLESHWARAM,"52/2, 8TH MAIN, 16TH CROSS, MALLESHWARAM, BENGALURU ┬û 560 055",2346656,BANGALORE,"BANGALORE URBAN",KARNATAKA
"SARASWAT COOPERATIVE BANK LIMITED",SRCB0000312,416088010,"MANGALWAR PETH, KOLHAPUR","A WARD, 718/K/8/6 & 718KH/8/5, SANMBHAJI NAGAR, KOLHAPUR.",2621319,KOLHAPUR,KOLHAPUR,MAHARASHTRA
"SARASWAT COOPERATIVE BANK LIMITED",SRCB0000309,416088007,"NEW SHAHUPURI, KOLHAPUR","E WARD, 514/B/1B/, NEW SHAHUPURI, KOLHAPUR.",2651754,KOLHAPUR,KOLHAPUR,MAHARASHTRA
"SARASWAT COOPERATIVE BANK LIMITED",SRCB0000306,416088004,"MAHAPALIKA, KOLHAPUR","C WARD, 2187, BHAUSINGAJI ROAD, KOLHAPUR - 416002",2644208,KOLHAPUR,KOLHAPUR,MAHARASHTRA
"SARASWAT COOPERATIVE BANK LIMITED",SRCB0000305,NA,"ZONE -- XII KOLHAPUR","C WARD, 2127, BHAUSINGAJI ROAD, KOLHAPUR.",2644208,KOLHAPUR,KOLHAPUR,MAHARASHTRA
"SARASWAT COOPERATIVE BANK LIMITED",SRCB0000291,400088102,"LINK ROAD MALAD WEST","PARIJA CO-OP. HOUSING SOCIETY LTD., OPP. CHINCHOLI BUNDER FIREBRIGADE, LINK ROAD, MALAD (W), MUMBAI 400 064.",28798533,MUMBAI,"GREATER BOMBAY",MAHARASHTRA
"SARASWAT COOPERATIVE BANK LIMITED",SRCB0000290,NA,"SBU- MERGED BANKS","SARASWAT BANK BHAWAN ,PLOT NO 953, APPASAHEB MARATHE MARG, PRABHADEVI,MUMBAI -400 025",66005333,MUMBAI,"GREATER BOMBAY",MAHARASHTRA
"SARASWAT COOPERATIVE BANK LIMITED",SRCB0000284,400088095,"SME VILE PARLE","BHOLANATH CO-OP. HSG. SOC. LTD., SUBHASH ROAD, VILE PARLE (E), MUMBAI-400057.",42349999,MUMBAI,"GREATER BOMBAY",MAHARASHTRA
"SARASWAT COOPERATIVE BANK LIMITED",SRCB0000283,411088019,"SME PUNE","C/2, KOHINOOR ESTATE CO-OP. HSG. SOCIETY, MULA ROAD, SANGAM WADI, NEAR KAMALNAYAN BAJAJ GARDEN, PUNE- 411003.",41422201,PUNE,PUNE,MAHARASHTRA
"SARASWAT COOPERATIVE BANK LIMITED",SRCB0000282,403088007,"SME PANAJI","TRISTAR BUILDING, 2ND FLOOR, 13-B, EDC COMPLEX, PATTO PLAZA, PANAJI, GOA-403001.",2437021,PANAJI,"NORTH GOA",GOA
"SARASWAT COOPERATIVE BANK LIMITED",SRCB0000281,400088092,"SME VIKHROLI","PRABHAT BHAVAN, BLOCK B, 1ST FLOOR, 96, L.B.S. MARG, OPP. CIPLA, VIKHROLI (W), MUMBAI 400083.",42499900,MUMBAI,"GREATER BOMBAY",MAHARASHTRA
"SARASWAT COOPERATIVE BANK LIMITED",SRCB0000280,411088021,CHAKAN,"2/3, SHUBHAMANGAL PLAZA, NEAR KOHINOOR CENTRE, PUNE-NASIK HIGHWAY, TALEGAON CHOWK, CHAKAN, TAL- KHED, PUNE-410501.",252330,CHAKAN,PUNE,MAHARASHTRA
"SARASWAT COOPERATIVE BANK LIMITED",SRCB0000279,400088094,"GADKARI CHOWK","SHIV SENA BHAVAN, RAM GANESH GADKARI CHOWK, DADAR (W), MUMBAI - 400 0028.",24374258,MUMBAI,"GREATER BOMBAY",MAHARASHTRA
"SARASWAT COOPERATIVE BANK LIMITED",SRCB0000278,425088002,JALGAON,"MANGAL JEEVAN BUILDING, 27, GANDHI NAGAR, NEAR S. T. STAND, JALGAON-425001.",2234382,JALGAON,JALGAON,MAHARASHTRA
"SARASWAT COOPERATIVE BANK LIMITED",SRCB0000276,411088020,TALEGAON,"P.L.KHANDGE PLAZA, OFFICE NO:33 TO 39, TALEGAON CHAKAN ROAD,TALEGAON, PUNE-410507",224004,"TALEGAON DABHADE",PUNE,MAHARASHTRA
"SARASWAT COOPERATIVE BANK LIMITED",SRCB0000270,400088088,"COLLECTOR'S COLONY, CHEMBUR","453-A, GAYATRI APT., R. C. MARG, COLLECTOR'S COLONY, CHEMBUR, MUMBAI - 400 074.",25534016,MUMBAI,"GREATER BOMBAY",MAHARASHTRA
"SARASWAT COOPERATIVE BANK LIMITED",SRCB0000268,400088091,"NERUL EAST","1-7, AGARWAL CORNER, PLOT NO. 21,SECTOR 21, NERUL (E), NAVI MUMBAI 400 706.",27712666,"NEW BOMBAY",THANE,MAHARASHTRA
"SARASWAT COOPERATIVE BANK LIMITED",SRCB0000266,400088081,MATUNGA,"PIONEER SCHOOL BLDG., TELANG ROAD, MATUNGA (C.R.), MUMBAI - 400 019.",24014624,MUMBAI,"GREATER BOMBAY",MAHARASHTRA
"SARASWAT COOPERATIVE BANK LIMITED",SRCB0000264,400088086,DHARAVI,"JAI GANESH CHS LTD. OPP URBAN HEALTH CENTRE, 60 FEET ROAD, R. P. NAGAR, DHARAVI, MUMBAI - 400 017",24035627,MUMBAI,"GREATER BOMBAY",MAHARASHTRA
"SARASWAT COOPERATIVE BANK LIMITED",SRCB0000263,400088085,"KOPAR KHAIRANE","SHREE RAVECHI APPT.,SECTOR 20, KOPAR KHAIRANE, NAVI MUMBAI 400 709.",27551320,"NEW BOMBAY",THANE,MAHARASHTRA
"SARASWAT COOPERATIVE BANK LIMITED",SRCB0000262,400088082,"SHIMPOLI ROAD, BORIVALI(W)","STAR APARTMENTS, S.V. ROAD, SHIMPOLI NAKA, BORIVALI (W), MUMBAI 400 092.",28014634,MUMBAI,"GREATER BOMBAY",MAHARASHTRA
"SARASWAT COOPERATIVE BANK LIMITED",SRCB0000261,NA,"ZONE -- X , MATUNGA","PIONEER HIGH SCHOOL BLDG, TELANG ROAD, MATUNGA (E) (CR). MUMBAI - 400 019",21636737,MUMBAI,"GREATER BOMBAY",MAHARASHTRA
"SARASWAT COOPERATIVE BANK LIMITED",SRCB0000255,NA,"COCPC, CARNAC BUNDER","129/130, VYAPAR BHAVAN, 1ST FLOOR, 49, P. D'MELLO ROAD, CARNAC BUNDER, MUMBAI - 400009.",23753630,MUMBAI,"GREATER BOMBAY",MAHARASHTRA
"SARASWAT COOPERATIVE BANK LIMITED",SRCB0000254,NA,"COCPC, KHADKESHWAR","MADHULENI, 1ST FLOOR, KHADKESHWAR, AURANGABAD - 431001.",2243023,AURANGABAD,AURANGABAD,MAHARASHTRA
"SARASWAT COOPERATIVE BANK LIMITED",SRCB0000253,NA,"COCPC, PUNE","SURVEY NO. 36/2/1, PLOT NO. 100+101, NEXT TO PEGASUS HEALTH CLUB, GANESHNAGAR, HINGNE, PUNE - 411052",25432656,PUNE,PUNE,MAHARASHTRA
"SARASWAT COOPERATIVE BANK LIMITED",SRCB0000252,NA,"COCPC, KANDIVLI","PITRUCHHAYA, OPP. RAM GALI, KANDIVLI (W), MUMBAI - 400067",24671207,MUMBAI,"GREATER BOMBAY",MAHARASHTRA
"SARASWAT COOPERATIVE BANK LIMITED",SRCB0000251,NA,"COCPC, THANE","AAI, BAJI PRABHU DESHPANDE CHOWK, OPP. GOKHALE RD, NAUPADA, THANE - 400602",25380182,THANE,THANE,MAHARASHTRA
"SARASWAT COOPERATIVE BANK LIMITED",SRCB0000249,400088100,DINDOSHI,"PLOT NO. 28, VAIBHAV COMMERCIAL AND RESIDENTIAL SOCIETY, JUNCTION D.P. ROAD, NAGARI NIVARA HOUSING PROJECT, DINDOSHI, GOREGAON ( EAST),  MUMBAI 400 063.",28401550,MUMBAI,"GREATER BOMBAY",MAHARASHTRA
"SARASWAT COOPERATIVE BANK LIMITED",SRCB0000248,415088352,KARAD,"1-4, MANORATH PLAZA, PLOT NO. 507,SHANIWAR PETH, KARAD, DIST. SATARA 415 110.",225505,KARAD,SATARA,MAHARASHTRA
"SARASWAT COOPERATIVE BANK LIMITED",SRCB0000247,400088116,"I. C. COLONY, BORIVALI","RUBY CO-OPERATIVE HSG. SOC. LTD., HOLY CROSS ROAD, I. C. COLONY, BORIVALI (WEST), MUMBAI ┬û 400 103",28920699,MUMBAI,"GREATER BOMBAY",MAHARASHTRA
"SARASWAT COOPERATIVE BANK LIMITED",SRCB0000246,400088068,"MIRA ROAD BRANCH","OLYMPIA CHS,  ROYAL COMPLEX,  OPP. SHANTI NAGAR,  SECTOR 10, MIRA ROAD, THANE (EAST) -  401 107",28551851,MIRA-BHAYANDAR,THANE,MAHARASHTRA
"SARASWAT COOPERATIVE BANK LIMITED",SRCB0000244,400088126,"DAHISAR (W) BRANCH","LILAWATI APARTMENT, S 1-2, B 2, L T MARG, DAHISAR (W), MUMBAI ┬û 400 068.",28929561,MUMBAI,"GREATER BOMBAY",MAHARASHTRA
"SARASWAT COOPERATIVE BANK LIMITED",SRCB0000243,575088005,"M.G.ROAD, KODIALBAIL","MANASA TOWER, GROUND FLOOR KODIALBAIL, M.G.ROAD,MANGALORE -575003",2495671,MANGALORE,"DAKSHIN KANNAD",KARNATAKA
"SARASWAT COOPERATIVE BANK LIMITED",SRCB0000242,575088004,MANNAGUDDA,"DURGA APARTMENTS, GROUND FLOOR, MANNAGUDDA, MANGALORE-575003",2452160,MANGALORE,"DAKSHIN KANNAD",KARNATAKA
"SARASWAT COOPERATIVE BANK LIMITED",SRCB0000241,575088003,CHILIMBI,"GROUND FLOOR, CHILIMBI, NEAR SONY WORLD, MANGALORE-575006",2452143,MANGALORE,"DAKSHIN KANNAD",KARNATAKA
"SARASWAT COOPERATIVE BANK LIMITED",SRCB0000240,575088002,"BHAVANTHI STREET","VENKATRAMANA ARCADE, GROUND FLOOR, BHAVANTHI STREET. MANGALORE-575001",2440636,MANGALORE,"DAKSHIN KANNAD",KARNATAKA
"SARASWAT COOPERATIVE BANK LIMITED",SRCB0000230,110088002,"LAJPAT NAGAR BR","20-A RING ROAD, OPP HALDIRAM, LAJPAT NAGAR-4, NEW DELHI-110024.",26422100,DELHI,"NEW DELHI",DELHI
"SARASWAT COOPERATIVE BANK LIMITED",SRCB0000229,402088052,PEN,"CENTRE POINT, PEN MUNICIPAL CORPORATION BUILDING, CHINCHPADA, NEAR S. T. BUS STAND, DIST. RAIGAD - 402107",255584,PEN,RAIGAD,MAHARASHTRA
"SARASWAT COOPERATIVE BANK LIMITED",SRCB0000228,402088002,MAHAD,"MAHAD TRADE CENTRE, 1ST FLOOR, NEXT TO RAJMATA JIJAU UDHYAN, CHATRAPATI SHIVAJI MARG, MAHAD, DIST- RAIGAD, PIN 402301",223822,MAHAD,RAIGAD,MAHARASHTRA
"SARASWAT COOPERATIVE BANK LIMITED",SRCB0000227,416088426,LANJA,"HOUSE NO. 1538, OPP. NEW ENGLISH SCHOOL, MUMBAI-GOA HIGHWAY, LANJA 416 701, DIST. RATNAGIRI",230195,LANJA,RATNAGIRI,MAHARASHTRA
"SARASWAT COOPERATIVE BANK LIMITED",SRCB0000226,416088504,VAIBHAVWADI,"253, GROUND FLOOR, NEAR BUS STAND, VAIBHAVWADI, DIST. - SINDHUDURG",237585,KANKAVLI,SINDHUDURG,MAHARASHTRA
"SARASWAT COOPERATIVE BANK LIMITED",SRCB0000225,415088051,RATNAGIRI,"BENJAMIN ENCLAVE, 1ST FLOOR, OPP CENTRAL BUS DEPOT, RATNAGIRI KOLHAPUR HIGHWAY. TEL NO: (952352) - 223690191",223690,RATNAGIRI,RATNAGIRI,MAHARASHTRA
"SARASWAT COOPERATIVE BANK LIMITED",SRCB0000224,402088101,ALIBAUG,"HOTEL MIRA-MADHAV, 1ST FLOOR, OPP. S. T. STAND, ALIBAUG, DIST- RAIGAD, PIN - 402201.",225951,ALIBAG,RAIGAD,MAHARASHTRA
"SARASWAT COOPERATIVE BANK LIMITED",SRCB0000223,576088002,UDUPI,"BALLAL TOWERS, COURT ROAD, JODUKATTE, OPP. Y. M. C. A., UDUPI - 576101",2526010,UDUPI,UDUPI,KARNATAKA
"SARASWAT COOPERATIVE BANK LIMITED",SRCB0000222,560088002,"BENGALURU,KORAMANGALA","SOGO PROPERTIES, SITE NO. 47, 100 FT. ROAD, 4TH BLOCK, WARD NO. 68, KORAMANGALA EXTENSION, BENGALURU-560034.",25502275,BANGALORE,"BANGALORE URBAN",KARNATAKA
"SARASWAT COOPERATIVE BANK LIMITED",SRCB0000220,416088451,KUDAL,"PRATHAM APARTMENT, NEAR KUDAL HIGH SCHOOL, KUDAL, DIST SINDHUDURG -  416520.",221150,KUDAL,SINDUDURG,MAHARASHTRA
"SARASWAT COOPERATIVE BANK LIMITED",SRCB0000219,416088352,SAWANTWADI,"64, RAMESHWAR PLAZA, NEAR MOTI TALAV, SAWANTWADI, DIST. SINDHUDURG",274413,SAWANTWADI,SINDUDURG,MAHARASHTRA
"SARASWAT COOPERATIVE BANK LIMITED",SRCB0000218,403088008,SANVORDEM,"MEGHKUNJ, OPP. POLICE STATION, SANGUEM ROAD, CURCHOREM-SANVORDEM, GOA- 403706",2654044,CURCHOREM-CACORA,"SOUTH GOA",GOA
"SARASWAT COOPERATIVE BANK LIMITED",SRCB0000216,422088016,"GANGAPUR ROAD","GADAKH SADAN, NEAR PUMPING BUS STAND, GANGAPUR ROAD, NASHIK- 422005.",2314538,NASHIK,NASHIK,MAHARASHTRA
"SARASWAT COOPERATIVE BANK LIMITED",SRCB0000215,422088014,"JAIL ROAD","PLOT NO. 19, MADHURA APARTMENT, DASAK SHIVAR, JAIL ROAD, NASHIK.",2416430,NASHIK,NASHIK,MAHARASHTRA
"SARASWAT COOPERATIVE BANK LIMITED",SRCB0000210,422088010,"MAHATMA NAGAR","OPP. GANPATI MANDIR, MAHATMA NAGAR, TRIMBAK ROAD, NASHIK 7.",2357461,NASHIK,NASHIK,MAHARASHTRA
"SARASWAT COOPERATIVE BANK LIMITED",SRCB0000208,422088018,MUSALGAON,"SINNAR TALUKA CO-OP INDUSTRIAL ESTATE, INDUSTRIAL COMPLEX, SHOP NO 61 TO 64, 1ST FLOOR, SINNAR-SHIRDI ROAD. POST MUSALGAON, TAL- SINNAR, CITY NASHIK",240752,NASHIK,NASHIK,MAHARASHTRA
"SARASWAT COOPERATIVE BANK LIMITED",SRCB0000206,422088007,"NASIK CIDCO","PLOT NO. F1/2, MARGSHIRSHA SECTOR, BEHIND CIDCO OFFICE, NASHIK - 9",2390432,NASHIK,NASHIK,MAHARASHTRA
"SARASWAT COOPERATIVE BANK LIMITED",SRCB0000202,422088003,"NASIK MAIN ROAD","G  4 AND 5, SUYOJIT RATAN MALL, OPP. NEHRU GARDEN, SHALIMAR, NASHIK 422 001.",2502220,NASHIK,NASIK,MAHARASHTRA
"SARASWAT COOPERATIVE BANK LIMITED",SRCB0000201,NA,"ZONE -- IX NASIK","KUBER, 480/5 GOLE COLONY, NASHIK - 422 002",2310324,NASHIK,NASIK,MAHARASHTRA
"SARASWAT COOPERATIVE BANK LIMITED",SRCB0000200,400088098,SION,"GANESH BHUVAN, OPP. MUNICIPAL SCHOOL, SWAMI VALLABHADAS  ROAD, SION (WEST), MUMBAI ┬û 400 022.",24086353,MUMBAI,"GREATER BOMBAY",MAHARASHTRA
"SARASWAT COOPERATIVE BANK LIMITED",SRCB0000199,400088097,"S N ROAD, PANVEL","SHREEJI BALAJI, SWAMI NITYANAND ROAD, NEAR PIONEER SOCIETY, PANVEL-410206",27461161,PANVEL,RAIGAD,MAHARASHTRA
"SARASWAT COOPERATIVE BANK LIMITED",SRCB0000198,400088096,"MCCH COLONY, PANVEL","MCCH SOCIETY, HARE MADHAV NIWAS, OPP. M.T.N.L , OLD PANVEL-410206",27467944,PANVEL,RAIGAD,MAHARASHTRA
"SARASWAT COOPERATIVE BANK LIMITED",SRCB0000197,400088093,"LOKHANDWALA COMPLEX","SHOP NO. 1 & 2, SHLOK HOUSE, OFF.K.L.WALAWALKAR ROAD, NEAR LOKHANDWALA BRIDGE, LOKHANDWALA COMPLEX, ANDHERI(W), MUMBAI - 400 053.",26367467,MUMBAI,"GREATER BOMBAY",MAHARASHTRA
"SARASWAT COOPERATIVE BANK LIMITED",SRCB0000196,400088080,"TILAK NAGAR BR","AMRAPALI WORKING WOMEN'S HOSTEL, 6, TOWNSHIP COLONY, OPP. MUNICIPAL PRIMARY SCHOOL, TILAK NAGAR, CHEMBUR (W), MUMBAI- 400089",25275503,MUMBAI,"GREATER BOMBAY",MAHARASHTRA
"SARASWAT COOPERATIVE BANK LIMITED",SRCB0000195,431088007,"MIT HOSPITAL","MIT HOSPITAL, N-4, CIDCO, AURANGABAD-431003",2243009,AURANGABAD,AURANGABAD,MAHARASHTRA
"SARASWAT COOPERATIVE BANK LIMITED",SRCB0000194,411088018,"BUDHWAR PETH","CTS No 24,Budhwar Peth,Appa Balwant Chowk,Pune Pincode 411002",24455226,PUNE,PUNE,MAHARASHTRA
"SARASWAT COOPERATIVE BANK LIMITED",SRCB0000193,411088007,"GANESH KHIND ROAD","1, RBI EXTENSION COUNTER, COLLEGE OF AGRICULTURE BANKING (RBI), GANESH KHIND ROAD, PUNE - 411005.",25538394,PUNE,PUNE,MAHARASHTRA
"SARASWAT COOPERATIVE BANK LIMITED",SRCB0000192,400088079,"PAREL (EAST)","MAHARSHI DAYANAND EDUCATION SOCIETY, SHRI MANGALDAS VERMA CHOWK, 25, DR. S. S. RAO ROAD, PAREL, MUMBAI - 400012.",24671146,MUMBAI,"GREATER BOMBAY",MAHARASHTRA
"SARASWAT COOPERATIVE BANK LIMITED",SRCB0000191,400088078,"HIRANANDANI POWAI","M/S. BOMBAY INTELLIGENCE SECURITY (INDIA) LTD., DELTA BUILDING, HIRANANDANI GARDENS, POWAI, MUMBAI - 400076.",24671199,MUMBAI,"GREATER BOMBAY",MAHARASHTRA
"SARASWAT COOPERATIVE BANK LIMITED",SRCB0000183,415088476,"VITA, DIST. SANGLI","C. S. NO. 840/A, H. NO. 3, A/P. ┬û VITA, - 415 311",276230,SANGLI-MIRAJ-KUPWAD,SANGLI,MAHARASHTRA
"SARASWAT COOPERATIVE BANK LIMITED",SRCB0000176,416088158,"KUPWAD, DIST. SANGLI","C. S. NO. 473/18, 473/38/2, PLOT NO. 10, A/P. ┬û KUPWAD, - 416 425. TAL. ┬û MIRAJ, DIST. ┬û SANGLI",2346878,SANGLI-MIRAJ-KUPWAD,SANGLI,MAHARASHTRA
"SARASWAT COOPERATIVE BANK LIMITED",SRCB0000173,416088154,"SHIVAJINAGAR, DIST. SANGLI","C. S. NO. 517, EXTN. RANJEET EMPIRE, SANGLI-MIRAJ ROAD, SANGLI. ┬û 416 416.",2375899,SANGLI-MIRAJ-KUPWAD,SANGLI,MAHARASHTRA
"SARASWAT COOPERATIVE BANK LIMITED",SRCB0000172,416088202,"ICHALKARANJI, DIST. SANGLI","MOHAN MARKET, OLD STATION ROAD, NEAR S. T. STAND, ICHALKARANJI. ┬û 416 115",2432597,SANGLI-MIRAJ-KUPWAD,SANGLI,MAHARASHTRA
"SARASWAT COOPERATIVE BANK LIMITED",SRCB0000167,416088157,"LAXMI MARKET, MIRAJ","SUNDAR COMPLEX, DANEKAR BUILDING, C.T.S.NO. 5544, NEAR DEVAL COMPLEX, SHANIWAR PETH, MIRAJ. ┬û 416 410",2223151,SANGLI-MIRAJ-KUPWAD,SANGLI,MAHARASHTRA
"SARASWAT COOPERATIVE BANK LIMITED",SRCB0000165,416088153,"SHASTRI CHOWK, SANGLI","1024, A/2, SHASHTRI CHOWK, S.T.STAND ROAD, SANGLI. ┬û 416 416",2332294,SANGLI-MIRAJ-KUPWAD,SANGLI,MAHARASHTRA
"SARASWAT COOPERATIVE BANK LIMITED",SRCB0000162,416088152,"MAHAVEERNAGAR, SANGLI","MAHAVEERNAGAR, KARALE BUILDING, HIGH SCHOOL ROAD, SANGLI. ┬û 416 416",2624267,SANGLI-MIRAJ-KUPWAD,SANGLI,MAHARASHTRA
"SARASWAT COOPERATIVE BANK LIMITED",SRCB0000160,400088073,"VILE PARLE (WEST)","NISARG APARTMENT, BESANT ROAD, OFF BAJAJ ROAD, VILE PARLE (WEST), MUMBAI - 400 056.",26147095,MUMBAI,"GREATER BOMBAY",MAHARASHTRA
"SARASWAT COOPERATIVE BANK LIMITED",SRCB0000159,400088072,"VEENA NAGAR (MULUND WEST)","SHOP NO.70-71-72, VEENA NAGAR .H.S. LTD., OFF L.B.S. MARG, MULUND (WEST), MUMBAI - 400 080.",21643655,MUMBAI,"GREATER BOMBAY",MAHARASHTRA
"SARASWAT COOPERATIVE BANK LIMITED",SRCB0000158,400088059,"SARVODAY NAGAR (MULUND WEST)","PADHAM APARTMENTS, SARVODAY PARSHWANATH NAGAR, NAHUR ROAD, MULUND (WEST), MUMBAI - 400 080.",24671290,MUMBAI,"GREATER BOMBAY",MAHARASHTRA
"SARASWAT COOPERATIVE BANK LIMITED",SRCB0000157,400088064,"SANTACRUZ (WEST)","FASHQUA, STATION ROAD, SANTACRUZ (WEST), MUMBAI",26040096,MUMBAI,"GREATER BOMBAY",MAHARASHTRA
"SARASWAT COOPERATIVE BANK LIMITED",SRCB0000155,400088057,"SAKINAKA (ANDHERI EAST)","K-8, ANSA INDUSTRIAL ESTATE, SAKINAKA, ANDHERI (EAST), MUMBAI - 400 072.",24671284,MUMBAI,"GREATER BOMBAY",MAHARASHTRA
"SARASWAT COOPERATIVE BANK LIMITED",SRCB0000154,400088065,"R.R.T. ROAD (MULUND WEST)","GAURAV PLAZA, 1ST FLOOR, R.R.T. ROAD, ABOVE GREEN CARD, MULUND (W), MUMBAI - 400 080.",24671281,MUMBAI,"GREATER BOMBAY",MAHARASHTRA
"SARASWAT COOPERATIVE BANK LIMITED",SRCB0000152,400088061,"ORLEM (MALAD WEST)","SIDDHI APARTMENTS, MARVE ROAD, ORLEM, MALAD (WEST), MUMBAI - 400 064.",24671279,MUMBAI,"GREATER BOMBAY",MAHARASHTRA
"SARASWAT COOPERATIVE BANK LIMITED",SRCB0000150,400088062,"MULUND (EAST)","101/104, SHREENATH PLAZA, 1ST FLOOR, LOKMANYA TILAK ROAD, MULUND (EAST), MUMBAI - 400 081.",24671277,MUMBAI,"GREATER BOMBAY",MAHARASHTRA
"SARASWAT COOPERATIVE BANK LIMITED",SRCB0000149,400088058,"M.G. ROAD (KANDIVLI WEST)","2, OM KRISHNA KUNJ C.H.S., M.G. CROSS ROAD NO.3, KANDIVLI (WEST), MUMBAI - 400 067.",24671275,MUMBAI,"GREATER BOMBAY",MAHARASHTRA
"SARASWAT COOPERATIVE BANK LIMITED",SRCB0000148,400088074,"HIRANANDANI (THANE WEST)","SHOP NO.1 & 15 BLOCK NO.1, EMERALD PLAZA, HIRANANDANI MEDOWS, OFF POKHARAN ROAD NO.2, THANE (WEST) - 400 610.",24671274,THANE,THANE,MAHARASHTRA
"SARASWAT COOPERATIVE BANK LIMITED",SRCB0000147,400088063,"DAHISAR (EAST)","SUMAN KUNJ, MARATHA COLONY ROAD, NEAR MARATHA COLONY, OFF HARISHANKAR JOSHI ROAD, DAHISAR (EAST), MUMBAI - 400 068.",24671273,MUMBAI,"GREATER BOMBAY",MAHARASHTRA
"SARASWAT COOPERATIVE BANK LIMITED",SRCB0000146,400088071,"DAHANUKAR WADI (KANDIVLI WEST)","104/105, BHOOMI ENCLAVE, 'C' WING, DAHANUKARWADI, MAHAVIR NAGAR, KANDIVLI (WEST), MUMBAI - 400 067.",24671272,MUMBAI,"GREATER BOMBAY",MAHARASHTRA
"SARASWAT COOPERATIVE BANK LIMITED",SRCB0000143,400088060,"CARNAC BUNDER","110/111, VYAPAR BHAVAN, 49, P. D'MELLO ROAD, MUMBAI - 400 009.",24671265,MUMBAI,"GREATER BOMBAY",MAHARASHTRA
"SARASWAT COOPERATIVE BANK LIMITED",SRCB0000142,400088070,"BHAYANDER (WEST)","Narayani Kutir, 60 Ft. Road, Bhayander (West), Dist. Thane- 401101",28186905,MIRA-BHAYANDAR,THANE,MAHARASHTRA
"SARASWAT COOPERATIVE BANK LIMITED",SRCB0000141,NA,"ZONE -- VIII  CARNAC BUNDER","101/102, VYAPAR BHAVAN, 1ST FLOOR, 49, P.D'MELLO ROAD. MUMBAI - 400 009",24671297,MUMBAI,"GREATER BOMBAY",MAHARASHTRA
"SARASWAT COOPERATIVE BANK LIMITED",SRCB0000132,400088054,"NERUL, WEST","GREAT GALARIA, PLOT NO. 20, SECTOR 4, NERUL (WEST), NAVI MUMBAI - 400706.",27723657,"NEW BOMBAY",THANE,MAHARASHTRA
"SARASWAT COOPERATIVE BANK LIMITED",SRCB0000131,400088052,"BORIVLI (EAST)","LAXMI BUILDING, 8 QUARTER ROAD, BORIVLI (EAST), MUMBAI - 400066",24671117,MUMBAI,"GREATER BOMBAY",MAHARASHTRA
"SARASWAT COOPERATIVE BANK LIMITED",SRCB0000130,400088053,"KANDIVLI GOVT. IND.ESTATE","Rock Avenue,Plot E,Hindustan Naka,Kandivali West,Mumbai 400067",24671175,MUMBAI,"GREATER BOMBAY",MAHARASHTRA
"SARASWAT COOPERATIVE BANK LIMITED",SRCB0000129,415088201,CHIPLUN,"JANARANG, OPP. CENTRAL S. T. STAND, BURUM TALI, CHIPLUN. TAL. CHIPLUN DIST. RATNAGIRI PIN. 415605.",257138,CHIPLUN,RATNAGIRI,MAHARASHTRA
"SARASWAT COOPERATIVE BANK LIMITED",SRCB0000128,400088051,"DOMBIVLI (WEST)","BILWAKUNJ BLDG,GROUND FLOOR,M G ROAD,OPP.RAILWAY STATION,DOMBIVALI (WEST), DIST THANE 421202",2489022,DOMBIVLI,THANE,MAHARASHTRA
"SARASWAT COOPERATIVE BANK LIMITED",SRCB0000127,400088050,"ANTOP HILL","KALPAK ESTATE, SHAIKH MISTRY MARG, ANTOPHILL, MUMBAI - 400037.",24016030,MUMBAI,"GREATER BOMBAY",MAHARASHTRA
"SARASWAT COOPERATIVE BANK LIMITED",SRCB0000125,400088048,JOGESHWARI,"SAIDHAM CO-OP HSG. SOCIETY LTD., NEAR GANESH HOTEL, MAJASWADI, JOGESHWARI (EAST), MUMBAI- 400060.",24671250,MUMBAI,"GREATER BOMBAY",MAHARASHTRA
"SARASWAT COOPERATIVE BANK LIMITED",SRCB0000124,400088047,"VIKHROLI (EAST)","11-14, SAI SUMAN, BEHIND BEST DEPOT, VIKHROLI EAST, MUMBAI 400083.",25741105,MUMBAI,"GREATER BOMBAY",MAHARASHTRA
"SARASWAT COOPERATIVE BANK LIMITED",SRCB0000123,400088046,"BARVE NAGAR (GHATKOPAR)","SANTOSHIMATA CO-OP HSG. SOCIETY, ASALFA GHATKOPAR (WEST), MUMBAI - 400084",25140646,MUMBAI,"GREATER BOMBAY",MAHARASHTRA
"SARASWAT COOPERATIVE BANK LIMITED",SRCB0000121,NA,"ZONE -- VII THAKURDWAR","320, J.S.S MARG, THAKURDWAR, MUMBAI - 400 002",24671241,MUMBAI,"GREATER BOMBAY",MAHARASHTRA
"SARASWAT COOPERATIVE BANK LIMITED",SRCB0000116,NA,"RASEC - DADAR","LAXMAN ZULLA, 1ST FLOOR,50, RANADE ROAD, DADAR, MUMBAI - 400 028.",24671147,MUMBAI,"GREATER BOMBAY",MAHARASHTRA
"SARASWAT COOPERATIVE BANK LIMITED",SRCB0000115,NA,RASEC-AURANGABAD,"LANCHAN CHEMBERS KRANTI CHOWCK STATION ROAD A'BAD  431 005",2243025,AURANGABAD,AURANGABAD,MAHARASHTRA
"SARASWAT COOPERATIVE BANK LIMITED",SRCB0000114,NA,"RASEC - BORIVALI","EMPEROR BUILDING, UNIT NO. 101-104, BABHAI NAKA, L T ROAD, BORIVALI (W), MUMBAI 400 092.",28994018,MUMBAI,"GREATER BOMBAY",MAHARASHTRA
"SARASWAT COOPERATIVE BANK LIMITED",SRCB0000113,NA,"RASEC - PUNE","2ND FLOOR, ABOVE F.C.ROAD BRANCH, GANESHWADI, OPP HOTEL VAISHALI, SHIVAJI NAGAR, PUNE - 411 004",25665044,PUNE,PUNE,MAHARASHTRA
"SARASWAT COOPERATIVE BANK LIMITED",SRCB0000112,NA,"RASEC - THANE","B/303,  3RD FLOOR ISHAN ARCADE, OPP GAONDEVI TEMPLE, GOKHALE ROAD, THANE WEST 400602",41554000,THANE,THANE,MAHARASHTRA
"SARASWAT COOPERATIVE BANK LIMITED",SRCB0000111,431088006,"MGM MEDICAL COLLEGE BR","RAMDEV TOWERS, PLOT NO.16, SEVEN HILLS, JALNA ROAD, AURANGABAD  431 005.",2243008,AURANGABAD,AURANGABAD,MAHARASHTRA
"SARASWAT COOPERATIVE BANK LIMITED",SRCB0000110,411088006,VAMNICOM,"COLLEGE OF AGRICULTURE BANKING (RBI), GANESH KHIND ROAD, PUNE - 411005.",25537974,PUNE,PUNE,MAHARASHTRA
"SARASWAT COOPERATIVE BANK LIMITED",SRCB0000109,411088010,"BANER ROAD","SHOP NO 1,2,3 DAULAT COMPLEX, BANER ROAD, OPP SYMENTEC, BANER ROAD, PUNE- 411 045.",27292957,PUNE,PUNE,MAHARASHTRA
"SARASWAT COOPERATIVE BANK LIMITED",SRCB0000108,400088076,"VIJAY NAGRI","J Vijay Apartment 3,Kavesar,Vaghbil Road,Ghodbunder,Thane (west) Pincode 400607",25971603,THANE,THANE,MAHARASHTRA
"SARASWAT COOPERATIVE BANK LIMITED",SRCB0000107,400088075,"VIRAR WEST)","SANJIVANI HOSPITAL BUILDING, NEAR RAILWAY STATION, AGASHI ROAD, VIRAR (W), THANE",2505767,VIRAR,THANE,MAHARASHTRA
"SARASWAT COOPERATIVE BANK LIMITED",SRCB0000106,400088044,"ANDHERI (W)","1-3 ARUNODAYA CHS, C.D. BARFIWALA ROAD, ANDHERI (W), MUMBAI 400 058.",26231136,MUMBAI,"GREATER BOMBAY",MAHARASHTRA
"SARASWAT COOPERATIVE BANK LIMITED",SRCB0000105,NA,"SBU - RETAIL BANKING","SARASWAT BANK BHAWAN ,PLOT NO 953, APPASAHEB MARATHE MARG, PRABHADEVI,MUMBAI -400 025",66005354,MUMBAI,"GREATER BOMBAY",MAHARASHTRA
"SARASWAT COOPERATIVE BANK LIMITED",SRCB0000104,411088017,BIBWEWADI,"692 / 2A, PUNE SATARA ROAD, OPP. BATA SHOWROOM, PUNE - 411 037.",24231467,PUNE,PUNE,MAHARASHTRA
"SARASWAT COOPERATIVE BANK LIMITED",SRCB0000099,400088042,"VARTAK NAGAR","SHREE RAMESHWAR BHAVAN, VARTAK NAGAR, POKHRAN ROAD NO. 1, THANE (W) - 400 602.",2.467121,THANE,THANE,MAHARASHTRA
"SARASWAT COOPERATIVE BANK LIMITED",SRCB0000098,431088005,"GAJANAN MAHARAJ TEMPLE","CTS NO. 15308 / 71 / 72, GARKHEDA, OPP. GAJANAN MAHARAJ TEMPLE COMPLEX, AURANGABAD - 431 005.",2243012,AURANGABAD,AURANGABAD,MAHARASHTRA
"SARASWAT COOPERATIVE BANK LIMITED",SRCB0000097,NA,"CEN. RECOVERY, MUMBAI","74 C SAMADHAN BLDG., SENAPATI BAPAT MARG, DADAR, MUMBAI -28",24671201,MUMBAI,"GREATER BOMBAY",MAHARASHTRA
"SARASWAT COOPERATIVE BANK LIMITED",SRCB0000096,403088006,PONDA,"HOTEL PRAKASH HERITAGE, SUPER MARKET COMPLEX, PONDA, GOA - 403 401.",2318556,PONDA,"NORTH GOA",GOA
"SARASWAT COOPERATIVE BANK LIMITED",SRCB0000095,403088004,VASCO,"MURGAON MUTT SANKUL, F. LUIS GOMES ROAD, VASCO-DA-GAMA, GOA - 403 802.",2515170,MORMUGAO,"SOUTH GOA",GOA
"SARASWAT COOPERATIVE BANK LIMITED",SRCB0000094,403088005,MAPUSA,"MOROD,OPP MAYUR HOTEL, BEHIND MUNICIPAL MARKET ,MAPUSA ,GOA-403507, CITY GOA-403 507",2264064,MAPUSA,"NORTH GOA",GOA
"SARASWAT COOPERATIVE BANK LIMITED",SRCB0000093,395088002,SURAT,"YASH PLAZA-B / 101, OPP. DHANMAL SILK MILLS, VARACHHA MAIN ROAD, SURAT - 395 006.",2552093,SURAT,SURAT,GUJARAT
"SARASWAT COOPERATIVE BANK LIMITED",SRCB0000092,NA,"Treasury Dept","19/21, BOMBAY MUTUAL CHAMBERS, AMBALAL DOSHI MARG, FORT, MUMBAI ┬û 400001",49103434,MUMBAI,"GREATER BOMBAY",MAHARASHTRA
"SARASWAT COOPERATIVE BANK LIMITED",SRCB0000091,411088014,"GANESH NAGAR","GANESHNAGAR, NEAR PRATIDNYA MANGAL KARYALAYA, PUNE - 411 052.",25435066,PUNE,PUNE,MAHARASHTRA
"SARASWAT COOPERATIVE BANK LIMITED",SRCB0000090,431088004,"STATION ROAD","KANCHAN CHAMBERS, KRANTI CHOWK, STATION ROAD, AURANGABAD - 431 005.",2243011,AURANGABAD,AURANGABAD,MAHARASHTRA
"SARASWAT COOPERATIVE BANK LIMITED",SRCB0000089,400088043,NAUPADA,"AAI', NEAR ICE FACTORY, OFF. GOKHALE ROAD, NAUPADA, THANE (W) - 400 602.",24671213,THANE,THANE,MAHARASHTRA
"SARASWAT COOPERATIVE BANK LIMITED",SRCB0000088,NA,"DEMAT DEPT","DEPOSITORY PARTICIPANT CELL, MADHUSHREE, PLOT NO 85, DISTRICT BUSINESS, CENTRE,SECTOR 17, VASHI, NAVI MUMBAI - 400 703.",27884161,"NEW BOMBAY",THANE,MAHARASHTRA
"SARASWAT COOPERATIVE BANK LIMITED",SRCB0000087,411088012,"PAUD ROAD","PLOT NO. 16, SURVEY NO. 121-122, RAMBAG COLONY, PAUD ROAD, PUNE - 411 038.",25449122,PUNE,PUNE,MAHARASHTRA
"SARASWAT COOPERATIVE BANK LIMITED",SRCB0000086,590088003,TILAKWADI,"MAHALAXMI PLAZA, RPD CROSS, KHANAPUR ROAD, BELGAUM - 590 006.",2468544,BELGAUM,BELGAUM,KARNATAKA
"SARASWAT COOPERATIVE BANK LIMITED",SRCB0000085,NA,"ZONE -- VI, AURANGABAD","MADHU SHILIP, PLOT NO. 6, C/2, TOWN CENTRE, NEAR CIDCO BUS STAND, CIDCO, AURANGABAD - 431 003",2243014,AURANGABAD,AURANGABAD,MAHARASHTRA
"SARASWAT COOPERATIVE BANK LIMITED",SRCB0000084,422088002,NASIK,"G-1 & 2, SUYOJIT TRADE CENTRE, OPP. RAJIV GANDHI BHAVAN, (N.M.C.), SHARANPUR ROAD, NASIK - 422 002.",2581293,NASHIK,NASHIK,MAHARASHTRA
"SARASWAT COOPERATIVE BANK LIMITED",SRCB0000083,411088011,AUNDH,"YOGITA PARK, OPP. ITI, ITI ROAD, PUNE - 411 007.",25886169,PUNE,PUNE,MAHARASHTRA
"SARASWAT COOPERATIVE BANK LIMITED",SRCB0000082,431088002,"CIDCO AURANGABAD","PLOT NO. 6, TOWN CENTRE C-2, NEAR CIDCO BUS STAND, CIDCO, NEW AURANGABAD - 431 003.",2243006,AURANGABAD,AURANGABAD,MAHARASHTRA
"SARASWAT COOPERATIVE BANK LIMITED",SRCB0000079,NA,"CORPORATE OFFICE","SARASWAT BANK BHAWAN, PLOT NO. 953, APPASAHEB MARATHE MARG, PRABHADEVI, MUMBAI ┬û 400 025",66005555,MUMBAI,"GREATER BOMBAY",MAHARASHTRA
"SARASWAT COOPERATIVE BANK LIMITED",SRCB0000078,416088503,KANKAVLI,"SURVEY NO. 203, A1 / A2, HOUSE NO. 23, KANKAVLI, DIST. SINDHUDURG - 416 602.",230320,KANKAVLI,SINDUDURG,MAHARASHTRA
"SARASWAT COOPERATIVE BANK LIMITED",SRCB0000075,411088015,HINJEWADI,"PLOT NO. 9, MIDC, HINJEWADI, TAL - MUNSHI, PUNE - 411027",22933567,PUNE,PUNE,MAHARASHTRA
"SARASWAT COOPERATIVE BANK LIMITED",SRCB0000073,416088002,RAJARAMPURI,"C.T.S. NO. 1716, E - WARD, RAJARAMPURI, 7TH LANE, KOLHAPUR - 416 008.",2521550,KOLHAPUR,KOLHAPUR,MAHARASHTRA
"SARASWAT COOPERATIVE BANK LIMITED",SRCB0000071,403088002,PANJIM,"MUSHTIFUND SAUNSTHA BUILDING, DR. DADA VAIDYA ROAD, PANJIM, GOA - 403 001.",2228023,PANAJI,"NORTH GOA",GOA
"SARASWAT COOPERATIVE BANK LIMITED",SRCB0000070,431088003,WALUJ,"PLOT NO. X-23, WALUJ INDUSTRIAL AREA, NEAR HOTEL OASIS, WALUJ, DIST. AURANGABAD - 431 136.",2243005,AURANGABAD,AURANGABAD,MAHARASHTRA
"SARASWAT COOPERATIVE BANK LIMITED",SRCB0000069,400088039,CHARKOP,"CHARKOP KULUWASI C.H.S. LTD., PANCHVATI, RDP-8 / 212, CHARKOP, KANDIVLI (W), MUMBAI - 400 066.",28690593,MUMBAI,"GREATER BOMBAY",MAHARASHTRA
"SARASWAT COOPERATIVE BANK LIMITED",SRCB0000068,440088003,"KALAMNA MARKET","KALAMNA MARKET, BHANDARA ROAD, NAGPUR - 440 008.",2680325,NAGPUR,NAGPUR,MAHARASHTRA
"SARASWAT COOPERATIVE BANK LIMITED",SRCB0000067,440088002,"GANDHI BAUG","TANAWANI MARKET, 1ST FLOOR, AGRASEN CHOWK, GANDHI BAUG, NAGPUR - 440 018.",2720467,NAGPUR,NAGPUR,MAHARASHTRA
"SARASWAT COOPERATIVE BANK LIMITED",SRCB0000066,411088013,"DAHANUKAR COLONY","INDRANAGARI SOCIETY, OPP. CUMMINS IND. LTD., DAHANUKAR COLONY, KOTHRUD, PUNE - 411 029.",25462500,PUNE,PUNE,MAHARASHTRA
"SARASWAT COOPERATIVE BANK LIMITED",SRCB0000065,403088003,MARGAO,"HIRA NIKETAN, MENEZES ROAD, BEHIND MARGAO POLICE STATION, MARGAO, GOA - 403 601.",2732594,MARGAO,"SOUTH GOA",GOA
"SARASWAT COOPERATIVE BANK LIMITED",SRCB0000064,411088009,AKURDI,"B.G. CORNER, BEHIND NIGDI BUS STAND, MUMBAI - PUNE ROAD, AKURDI, PUNE - 411 035.",27662133,PUNE,PUNE,MAHARASHTRA
"SARASWAT COOPERATIVE BANK LIMITED",SRCB0000063,580088002,HUBLI,"DIVARE COMPLEX, CLUB ROAD, HUBLI - 580 029.",2256015,HUBLI-DHARWAD,DHARWAD,KARNATAKA
"SARASWAT COOPERATIVE BANK LIMITED",SRCB0000062,452088002,INDORE,"G-10, ""SHREEVARDHAN"", 4, R.N.T. MARG, INDORE - 452 001.",2528792,INDORE,INDORE,"MADHYA PRADESH"
"SARASWAT COOPERATIVE BANK LIMITED",SRCB0000061,400088038,KALWA,"KISHORE SMRUTI, STATION ROAD, KALWA, THANE - 400 605.",24671173,THANE,THANE,MAHARASHTRA
"SARASWAT COOPERATIVE BANK LIMITED",SRCB0000060,400088037,KALYAN,"GOKULDHAM COMPLEX, MURBAD ROAD, NEAR SYNDICATE NAKA, KALYAN - 421 301.",2200081,KALYAN,THANE,MAHARASHTRA
"SARASWAT COOPERATIVE BANK LIMITED",SRCB0000059,400088041,PALGHAR,"ALCO ARCADE, OPP. LION'S CLUB, COMMUNITY HALL, KACHERI ROAD, PALGHAR (W), DIST. THANE - 401 401.",250695,THANE,THANE,MAHARASHTRA
"SARASWAT COOPERATIVE BANK LIMITED",SRCB0000058,400088036,CST,"TAJ BUILDING, AMRIT KESHAV NAYAK MARG, FORT, MUMBAI - 400 001.",24671121,MUMBAI,"GREATER BOMBAY",MAHARASHTRA
"SARASWAT COOPERATIVE BANK LIMITED",SRCB0000056,400088040,OVERSEAS,"KIMATRAI BUILDING, MAHARSHI KARVE ROAD, MARINE LINES, MUMBAI - 400 002.",22096014,MUMBAI,"GREATER BOMBAY",MAHARASHTRA
"SARASWAT COOPERATIVE BANK LIMITED",SRCB0000055,400088032,"VIKHROLI WEST","CHANDAN HOUSE, STATION ROAD, VIKHROLI (W), MUMBAI - 400 079.",25780245,MUMBAI,"GREATER BOMBAY",MAHARASHTRA
"SARASWAT COOPERATIVE BANK LIMITED",SRCB0000054,NA,"ZONE -- V, PANAJI","MUSHTIFUND SAUNSTHA BLDG, DR DADA VAIDYA ROAD, PANJIM, GOA - 403 001.",2422151,PANAJI,"NORTH GOA",GOA
"SARASWAT COOPERATIVE BANK LIMITED",SRCB0000053,411088001,"SERVICE BR., PUNE","8/3, ERANDVANA, KARVE ROAD, PUNE - 411 004.",25446891,PUNE,PUNE,MAHARASHTRA
"SARASWAT COOPERATIVE BANK LIMITED",SRCB0000052,NA,"ZONE -- III, GOREGAON","BUILDING NO. 2, TOPIWALA WADI, SWAMI VIVEKANAND RAOD, GOREGAON (W). MUMBAI - 400 062",24671238,MUMBAI,"GREATER BOMBAY",MAHARASHTRA
"SARASWAT COOPERATIVE BANK LIMITED",SRCB0000051,NA,"ZONE -- II, GHATKOPAR","SHIV SHAKTI INDL ESTATE, L.B.S MARG, GHATKOPAR (W), MUMBAI - 400 086",24671134,MUMBAI,"GREATER BOMBAY",MAHARASHTRA
"SARASWAT COOPERATIVE BANK LIMITED",SRCB0000050,NA,"ZONE -- I, GRANT ROAD","RAMAJANEYA , 203 - A, 2ND FLOOR, DR D.B.MARG, GRANT ROAD, MUMBAI - 400 007",23020127,MUMBAI,"GREATER BOMBAY",MAHARASHTRA
"SARASWAT COOPERATIVE BANK LIMITED",SRCB0000047,NA,"CASH DEPT","BASEMENT,BLOCK A, PRABHAT BHUVAN,96, L.B.S. MARG, OPP.CIPLA, VIKHROLI-WEST,MUMBAI 400083",22382208,MUMBAI,"GREATER BOMBAY",MAHARASHTRA
"SARASWAT COOPERATIVE BANK LIMITED",SRCB0000046,NA,"ACCOUNTS DEPT.","SARASWAT BANK BHAWAN ,PLOT NO 953, APPASAHEB MARATHE MARG, PRABHADEVI,MUMBAI -400 025",66005441,MUMBAI,"GREATER BOMBAY",MAHARASHTRA
"SARASWAT COOPERATIVE BANK LIMITED",SRCB0000045,411088016,"NARAYAN PETH","HOUSE NO. 324, NARAYAN PETH, NEAR MODI GANPATI TEMPLE, PUNE - 411 030.",24465178,PUNE,PUNE,MAHARASHTRA
"SARASWAT COOPERATIVE BANK LIMITED",SRCB0000044,400088030,"LINKING ROAD","AMEYA, PLOT NO. 346-B, OPP. HOTEL NILKANTH, PATHARE PRABHU C.H.S., KHAR, MUMBAI - 400 052.",26487589,MUMBAI,"GREATER BOMBAY",MAHARASHTRA
"SARASWAT COOPERATIVE BANK LIMITED",SRCB0000043,400088034,VASHI,"MADHUSHREE, PLOT NO. 85, DISTRICT BUSINESS CENTRE, SECTOR 17, VASHI, NAVI MUMBAI - 400703.",27898195,"NEW BOMBAY",THANE,MAHARASHTRA
"SARASWAT COOPERATIVE BANK LIMITED",SRCB0000042,590088002,BELGAUM,"SAMADEVI COMPLEX, SAMADEVI GALLI, BELGAUM - 590 002.",2420433,BELGAUM,BELGAUM,KARNATAKA
"SARASWAT COOPERATIVE BANK LIMITED",SRCB0000041,431088001,KHADKESHWAR,"MADHULENI, KHADKESHWAR, AURANGABAD - 431 001.",2243001,AURANGABAD,AURANGABAD,MAHARASHTRA
"SARASWAT COOPERATIVE BANK LIMITED",SRCB0000040,416088126,MALVAN,"MADHU SINDHU, TALUKA MALVAN,  DIST. SINDHUDURG - 416 606.",252114,MALVAN,SINDUDURG,MAHARASHTRA
"SARASWAT COOPERATIVE BANK LIMITED",SRCB0000039,416088226,VENGURLA,"BAR. BALASAHEB KHARDEKAR ROAD, VENGURLA, DIST. SINDHUDURG - 416 516.",262509,VENGURLA,SINDUDURG,MAHARASHTRA
"SARASWAT COOPERATIVE BANK LIMITED",SRCB0000038,411088003,"TILAK ROAD","991, SHUKRAWAR PETH, TILAK ROAD, PUNE - 411 002.",24444257,PUNE,PUNE,MAHARASHTRA
"SARASWAT COOPERATIVE BANK LIMITED",SRCB0000037,411088008,PIMPRI,"SURVEY NO.127, OPP. HOTEL PANCHSHEEL, MOHAN NAGAR, TELCO ROAD, PIMPRI CHINCHWAD, PUNE 411 019.",27474671,PUNE,PUNE,MAHARASHTRA
"SARASWAT COOPERATIVE BANK LIMITED",SRCB0000036,411088005,"KARVE ROAD","8 / 3, ERANDAVANA, KARVE ROAD,  PUNE - 411 004.",25431780,PUNE,PUNE,MAHARASHTRA
"SARASWAT COOPERATIVE BANK LIMITED",SRCB0000035,411088004,"F C ROAD","LOHIA JAIN HOUSE, GROUND FLOOR, 893/6, BHANDARKAR ROAD,GOODLUCK CHOWK,DECCAN GYMKHANA, PUNE ┬û 411 004.",25652491,PUNE,PUNE,MAHARASHTRA
"SARASWAT COOPERATIVE BANK LIMITED",SRCB0000034,411088002,"SOMWAR PETH","329/330, OPP. GADGE MAHARAJ DHARMASHALA, SOMWAR PETH, PUNE - 411 011.",26133721,PUNE,PUNE,MAHARASHTRA
"SARASWAT COOPERATIVE BANK LIMITED",SRCB0000033,NA,"COMMERCIAL CREDIT DEPT.","SARASWAT BANK BHAWAN ,PLOT NO 953, APPASAHEB MARATHE MARG, PRABHADEVI,MUMBAI -400 025",66005246,MUMBAI,"GREATER BOMBAY",MAHARASHTRA
"SARASWAT COOPERATIVE BANK LIMITED",SRCB0000032,400088020,"MASJID BUNDER","PRAGRAJ, 80 / 82, ISSAJI STREET, MASJID BUNDER, MUMBAI - 400 003.",24671187,MUMBAI,"GREATER BOMBAY",MAHARASHTRA
"SARASWAT COOPERATIVE BANK LIMITED",SRCB0000030,NA,"SHARE DEPARTMENT","MADHUSHREE, PLOT NO. 85, DISTRIC BUSINESS CENTRE, SECTOR 17, VASHI 400703.",27892947,"NEW BOMBAY",THANE,MAHARASHTRA
"SARASWAT COOPERATIVE BANK LIMITED",SRCB0000029,400088035,VIRAR,"PARIJAT II, BAZAR WARD, VIRAR (E), DIST. THANE - 401 303.",2520527,THANE,THANE,MAHARASHTRA
"SARASWAT COOPERATIVE BANK LIMITED",SRCB0000028,400088010,"GOREGAON (E)","RAGHUNATH KRUPA, IST FLOOR NEAR SABNIS HOSPITAL, AAREY PHATAK ROAD, GOREGAON (EAST),MUMBAI400063",24671248,MUMBAI,"GREATER BOMBAY",MAHARASHTRA
"SARASWAT COOPERATIVE BANK LIMITED",SRCB0000027,400088005,BORIVALI,"KESAR KRIPA, CHANDAVARKAR LANE, BORIVALI (W), MUMBAI - 400 092.",28922725,MUMBAI,"GREATER BOMBAY",MAHARASHTRA
"SARASWAT COOPERATIVE BANK LIMITED",SRCB0000026,400088021,"MULUND, WEST","EKNATH APARTMENTS, 1ST FLOOR, M.G. ROAD, MULUND (W), MUMBAI - 400 080.",25618749,MUMBAI,"GREATER BOMBAY",MAHARASHTRA
"SARASWAT COOPERATIVE BANK LIMITED",SRCB0000025,400088018,MALAD,"PATEL COMPLEX, MAMLATDAR WADI, MAMLATDAR ROAD, MALAD (WEST), MUMBAI- 400064.",24671183,MUMBAI,"GREATER BOMBAY",MAHARASHTRA
"SARASWAT COOPERATIVE BANK LIMITED",SRCB0000024,400088033,"DOMBIVALI- EAST","SILVER COIN APARTMENTS, BHAGAT SINGH ROAD, BHANU NAGAR, DOMBIVALI (E) - 421 201.",2447689,DOMBIVLI,THANE,MAHARASHTRA
"SARASWAT COOPERATIVE BANK LIMITED",SRCB0000023,400088004,"BALLARD ESTATE","WAKEFIELD HOUSE, PLOT NO.16, SHIV SAGAR RAM GULAL MARG, BALLARD ESTATE, MUMBAI - 400001",24671114,MUMBAI,"GREATER BOMBAY",MAHARASHTRA
"SARASWAT COOPERATIVE BANK LIMITED",SRCB0000022,400088024,PRABHADEVI,"URVASHI, OPP. RAVINDRA NATYA MANDIR, PRABHADEVI MUMBAI - 400 025.",24671200,MUMBAI,"GREATER BOMBAY",MAHARASHTRA
"SARASWAT COOPERATIVE BANK LIMITED",SRCB0000021,400088014,"GRANT ROAD","203-A, 'RAMANJANEYA', DR. D. B. MARG, GRANT ROAD(E), MUMBAI - 400007.",24671168,MUMBAI,"GREATER BOMBAY",MAHARASHTRA
"SARASWAT COOPERATIVE BANK LIMITED",SRCB0000020,400088003,BANDRA,"341, CHETANA'S INSTITUTE OF MANAGEMENT AND RESEARCH, GOVERNMENT COLONY, NEXT TO HANUMAN MANDIR, BANDRA (E), MUMBAI - 400 051.",24671116,MUMBAI,"GREATER BOMBAY",MAHARASHTRA
"SARASWAT COOPERATIVE BANK LIMITED",SRCB0000019,400088002,ANDHERI,"SHIV CHHAYA CHS,GROUND FLOOR,33 M.V.ROAD,ANDHERI(E),MUMBAI 400069",24671246,MUMBAI,"GREATER BOMBAY",MAHARASHTRA
"SARASWAT COOPERATIVE BANK LIMITED",SRCB0000018,400088028,"JAMBHALI NAKA","PATWARDHAN BUILDING, AGYARI LANE, JAMBHALI NAKA, THANE - 400 602.",25330370,THANE,THANE,MAHARASHTRA
"SARASWAT COOPERATIVE BANK LIMITED",SRCB0000017,400088009,GHATKOPAR,"BHAVESHWAR ARCADE, OPP. SHREYAS CINEMA, LBS MARG, GHATKOPAR (W), MUMBAI-400086.",24671157,MUMBAI,"GREATER BOMBAY",MAHARASHTRA
"SARASWAT COOPERATIVE BANK LIMITED",SRCB0000016,400088022,"PALI HILL","SAIGAL MANSION, PALI HILL ROAD, KHAR MUMBAI - 400 051.",26499693,MUMBAI,"GREATER BOMBAY",MAHARASHTRA
"SARASWAT COOPERATIVE BANK LIMITED",SRCB0000015,400088023,POWAI,"SHRI SHRADDHAMATA C.H.S., OPP. MAIN GATE, I.I.T., POWAI, MUMBAI - 400 076.",25784868,MUMBAI,"GREATER BOMBAY",MAHARASHTRA
"SARASWAT COOPERATIVE BANK LIMITED",SRCB0000014,400088013,KANDIVALI,"PLOT NO. CIS 383-A, JUNCTION OF S.V. ROAD & JAMNADAS ADUKIA ROAD, KANDIVLI (W), MUMBAI - 400 067.",24671177,MUMBAI,"GREATER BOMBAY",MAHARASHTRA
"SARASWAT COOPERATIVE BANK LIMITED",SRCB0000013,400088019,MAROL,"ROCK-WILBUR, MAROL MAROSHI ROAD, MAROL VILLAGE, ANDHERI (E), MUMBAI - 400 059.",24671185,MUMBAI,"GREATER BOMBAY",MAHARASHTRA
"SARASWAT COOPERATIVE BANK LIMITED",SRCB0000012,400088012,JUHU,"MADHUSAGAR, N.S. ROAD NO. 13, NEAR JUHU CHURCH, MUMBAI - 400 049.",26110049,MUMBAI,"GREATER BOMBAY",MAHARASHTRA
"SARASWAT COOPERATIVE BANK LIMITED",SRCB0000011,400088008,FORT,"48 BY 49,GROUND FLOOR,YUSUF BUILDING,VEER NARIMAN ROAD,FORT,MUMBAI 400023",24671151,MUMBAI,"GREATER BOMBAY",MAHARASHTRA
"SARASWAT COOPERATIVE BANK LIMITED",SRCB0000010,400088027,WORLI,"KANCHWALA BUILDING, OPP. PASSPORT OFFICE, DR. A.B. ROAD, WORLI, MUMBAI - 400 018.",24671261,MUMBAI,"GREATER BOMBAY",MAHARASHTRA
"SARASWAT COOPERATIVE BANK LIMITED",SRCB0000009,400088026,WADALA,"86, USHA, R.A. KIDWAI ROAD, WADALA, MUMBAI - 400 031.",24671230,MUMBAI,"GREATER BOMBAY",MAHARASHTRA
"SARASWAT COOPERATIVE BANK LIMITED",SRCB0000008,400088025,"VILE PARLE, EAST","PHATAK BLDG., 66 NEHRU ROAD, VILE PARLE (E), MUMBAI - 400 057.",26133303,MUMBAI,"GREATER BOMBAY",MAHARASHTRA
"SARASWAT COOPERATIVE BANK LIMITED",SRCB0000007,400088017,MAHIM,"G.S.B. TEMPLE BUILDING, SITALADEVI TEMPLE ROAD, MAHIM, MUMBAI - 400 016.",24671182,MUMBAI,"GREATER BOMBAY",MAHARASHTRA
"SARASWAT COOPERATIVE BANK LIMITED",SRCB0000006,400088015,MADHUKENDRA,"MADHUKENDRA, OFF. N.C. KELKAR ROAD, KOLSA GALLI, DADAR, MUMBAI - 400 028.",24671180,MUMBAI,"GREATER BOMBAY",MAHARASHTRA
"SARASWAT COOPERATIVE BANK LIMITED",SRCB0000005,400088011,"GOREGAON (W)","PRATIKSHA APARTMENT, OPP. FILMISTAN STUDIO, S.V. ROAD, GOREGAON (W), MUMBAI - 400 062.",24671166,MUMBAI,"GREATER BOMBAY",MAHARASHTRA
"SARASWAT COOPERATIVE BANK LIMITED",SRCB0000004,400088007,DADAR,"FRAMROSE COURT, DADASAHEB PHALKE ROAD, DADAR (E), MUMBAI - 400 014.",24671144,MUMBAI,"GREATER BOMBAY",MAHARASHTRA
"SARASWAT COOPERATIVE BANK LIMITED",SRCB0000003,400088006,CHEMBUR,"SHRI SUNDER C.H.S. LTD., PLOT NO. 560, SION TROMBAY ROAD, CHEMBUR, MUMBAI - 400 071.",24671125,MUMBAI,"GREATER BOMBAY",MAHARASHTRA
"SARASWAT COOPERATIVE BANK LIMITED",SRCB0000002,400088029,GIRGAUM,"MADHUKOSH, S.V. SOVANI PATH, GIRGAUM, MUMBAI - 400 004.",24671162,MUMBAI,"GREATER BOMBAY",MAHARASHTRA
"SARASWAT COOPERATIVE BANK LIMITED",SRCB0000001,NA,"SERVICES DEPT","SARASWAT BANK BHAWAN ,PLOT NO 953, APPASAHEB MARATHE MARG, PRABHADEVI,MUMBAI -400 025",66005403,MUMBAI,"GREATER BOMBAY",MAHARASHTRA
